{"type": "FeatureCollection", "features": [{"type": "Feature", "properties": {"slug": "aalborg", "members": 4, "country": "Denmark", "input_hash": "d6bafb5dc8997e90"}, "geometry": {"type": "MultiPolygon", "coordinates": [[[[9.597694, 56.9804413], [9.5914185, 56.9846822], [9.6120269, 56.98097], [9.597694, 56.9804413]]], [[[9.5904328, 56.9869831], [9.5907091, 56.9867295], [9.5903389, 56.9865995], [9.5904328, 56.9869831]]], [[[9.5719076, 57.00731], [9.5707328, 57.0064103], [9.570089, 57.0072808], [9.5719076, 57.00731]]], [[[9.5631732, 57.0022422], [9.5501556, 57.0110708], [9.5725755, 57.005487], [9.5631732, 57.0022422]]], [[[9.5098127, 57.0181548], [9.5148213, 57.01691], [9.5060662, 57.0169244], [9.5098127, 57.0181548]]], [[[9.5166362, 57.0180445], [9.5160957, 57.0181942], [9.5166925, 57.0181321], [9.5166362, 57.0180445]]], [[[9.608708, 57.025321], [9.6110129, 57.0255439], [9.6138438, 57.0251108], [9.608708, 57.025321]]], [[[9.4905313, 57.0289198], [9.4890654, 57.0309632], [9.492795, 57.0302768], [9.4905313, 57.0289198]]], [[[9.5057861, 57.0326822], [9.5075161, 57.0327479], [9.5060248, 57.0324633], [9.5057861, 57.0326822]]], [[[9.5218525, 57.0341294], [9.5215843, 57.0343687], [9.522507, 57.0344037], [9.5218525, 57.0341294]]], [[[9.7815871, 57.0754347], [9.789917, 57.0761495], [9.7829658, 57.0731676], [9.7815871, 57.0754347]]], [[[9.8303827, 57.0797472], [9.8312228, 57.0803758], [9.8325739, 57.0803128], [9.8303827, 57.0797472]]], [[[9.8306189, 57.0828113], [9.8332591, 57.0819399], [9.8249541, 57.0821576], [9.8306189, 57.0828113]]], [[[9.6266653, 57.0827357], [9.6269059, 57.0826793], [9.6268794, 57.0826016], [9.6266653, 57.0827357]]], [[[9.8198579, 57.084301], [9.8241179, 57.0847422], [9.8246758, 57.0846009], [9.8198579, 57.084301]]], [[[9.6421801, 57.0883113], [9.6420565, 57.0881094], [9.6418992, 57.0882229], [9.6421801, 57.0883113]]], [[[9.792351, 57.093465], [9.794249, 57.094221], [9.794703, 57.09345], [9.792351, 57.093465]]], [[[9.7917098, 57.0948747], [9.7920156, 57.0948397], [9.7915649, 57.0945264], [9.7917098, 57.0948747]]], [[[9.7912203, 57.0953934], [9.77611, 57.0937993], [9.7469223, 57.0666631], [9.7014923, 57.061419], [9.6659625, 57.0744375], [9.6512108, 57.0713238], [9.6515697, 57.0826096], [9.6816292, 57.0933826], [9.6590906, 57.094866], [9.6218347, 57.082872], [9.6100652, 57.0746416], [9.6511849, 57.0712048], [9.6117845, 57.0497162], [9.5835964, 57.04884], [9.5802698, 57.0417724], [9.4882543, 57.0459153], [9.2961185, 57.0074471], [9.2820463, 57.0141618], [9.2752296, 57.0287103], [9.2078697, 57.0183013], [9.2001915, 57.0279305], [9.1708267, 57.0226263], [9.1656393, 57.0279841], [9.1607811, 57.0303982], [9.1657144, 57.0224075], [9.1324872, 57.0399652], [9.0959374, 57.0312457], [9.076876, 57.0542993], [9.060923, 57.0504925], [9.0595015, 57.0899964], [9.0354288, 57.1226604], [9.0299875, 57.1584112], [9.1134488, 57.1419095], [9.1820276, 57.1382769], [9.3965989, 57.1629669], [9.5393712, 57.2259659], [9.6898169, 57.3556926], [9.7372606, 57.3372804], [9.77128741768615, 57.307103719483834], [9.8248385, 57.3164036], [9.8315864, 57.3386547], [9.8524571, 57.3327215], [9.8666786, 57.3427282], [9.9406608, 57.3201634], [9.9375202, 57.3295711], [9.9462332, 57.335105], [9.9683156, 57.3360777], [10.0415086, 57.3141882], [10.0676943, 57.315306], [10.0697436, 57.3249696], [10.0625937, 57.3258431], [10.0686978, 57.3317177], [10.0986317, 57.3240587], [10.1102104, 57.3317548], [10.1594822, 57.3258098], [10.1936021, 57.3377515], [10.1932574, 57.3185684], [10.2045263, 57.3166704], [10.2035348, 57.3066819], [10.2225306, 57.2941359], [10.2127852, 57.2852332], [10.2155721, 57.2482881], [10.260279, 57.2512786], [10.2886486, 57.2677988], [10.3185775, 57.2630403], [10.3242126, 57.2772487], [10.3440199, 57.2670182], [10.3757598, 57.2652595], [10.3833242, 57.2548529], [10.368953, 57.2387808], [10.4143857, 57.217739], [10.406214, 57.20812], [10.420632, 57.1885701], [10.4064619, 57.1842717], [10.4423279, 57.1701365], [10.4223442, 57.1485573], [10.4289438, 57.1437205], [10.4197088, 57.1450498], [10.4006088, 57.1170715], [10.4059182, 57.1125867], [10.4001957, 57.113237], [10.3767546, 57.0585202], [10.3827238, 57.0666718], [10.383391, 57.0564545], [10.376198, 57.0551589], [10.3833809, 57.0562591], [10.3305401, 56.9886708], [10.2992157, 56.994137], [10.2270538, 56.9885942], [10.0131771, 57.0888185], [9.9711093, 57.0803488], [9.9559039, 57.0579146], [9.9419103, 57.0537892], [9.9245568, 57.0549452], [9.9053603, 57.0632507], [9.8798391, 57.0674243], [9.837755, 57.0911784], [9.7791061, 57.1068371], [9.7798319, 57.0977442], [9.7912203, 57.0953934]], [[9.782972062340578, 57.27106608498652], [9.7830021, 57.2710867], [9.7840396, 57.2749505], [9.782972062340578, 57.27106608498652]], [[9.7468136, 57.252561], [9.7764403, 57.2665833], [9.782732377228841, 57.27090158775524], [9.7468136, 57.252561]], [[9.745064557124685, 57.24656385843425], [9.7452755, 57.2466711], [9.745293943600853, 57.246694801705985], [9.745064557124685, 57.24656385843425]], [[9.7401948, 57.243784], [9.740017503202177, 57.2428315355919], [9.740427111679947, 57.24391661309883], [9.7401948, 57.243784]], [[9.8418888500895, 57.215774237659645], [9.838611429512426, 57.21667995363048], [9.7654008, 57.2302017], [9.8418888500895, 57.215774237659645]], [[9.847508, 57.2128038], [9.8484704, 57.2143596], [9.84827502166656, 57.21440159459886], [9.847508, 57.2128038]], [[9.8404028, 57.2109297], [9.840548800878476, 57.210884790620035], [9.847508, 57.2128038], [9.8404028, 57.2109297]], [[9.8990604, 57.1721811], [9.902905588064806, 57.171465998004756], [9.897194299878075, 57.17404369385291], [9.8990604, 57.1721811]], [[9.913907365071049, 57.16583772238713], [9.913601, 57.1666388], [9.91125974231702, 57.167695488090594], [9.913907365071049, 57.16583772238713]], [[9.915437742336138, 57.16178552664141], [9.9154493, 57.1618059], [9.915429783375673, 57.16185693170141], [9.915437742336138, 57.16178552664141]], [[9.742915, 57.1323418], [9.74296177535895, 57.13230957279654], [9.7738937, 57.1320673], [9.742915, 57.1323418]], [[9.7616463, 57.1121049], [9.7604617, 57.1143879], [9.760116218077846, 57.114461424896405], [9.7616463, 57.1121049]], [[9.838877636732803, 57.21665479463007], [9.8388998, 57.2166527], [9.8372769, 57.2224696], [9.838877636732803, 57.21665479463007]], [[10.316881695588238, 57.1050944468227], [10.320157501892696, 57.10375305836416], [10.3199165, 57.1039482], [10.316881695588238, 57.1050944468227]], [[10.303799936242411, 57.10949438203641], [10.305488617117, 57.10939761705264], [10.3046965, 57.1096968], [10.303799936242411, 57.10949438203641]]], [[[10.1797161, 56.7977404], [10.1199477, 56.7623201], [10.0660613, 56.755314], [10.0451144, 56.7702125], [10.0579695, 56.7808357], [10.0465093, 56.7956699], [9.9844176, 56.7902324], [9.9330473, 56.8036938], [9.9054621, 56.7965927], [9.8428235, 56.8009795], [9.797063, 56.8162243], [9.777039, 56.7970969], [9.7880968, 56.7781215], [9.7753576, 56.7741779], [9.7721711, 56.7640771], [9.809566, 56.7545907], [9.7987135, 56.7296], [9.7603647, 56.7345772], [9.7497607, 56.7136147], [9.7271134, 56.702239], [9.7198487, 56.6896274], [9.7216827, 56.6661268], [9.712847, 56.6515243], [9.6707472, 56.6550811], [9.6110764, 56.6801255], [9.6269311, 56.6992539], [9.5879485, 56.7088414], [9.5769166, 56.7317427], [9.518352, 56.7429629], [9.5450679, 56.7628108], [9.5471035, 56.77562], [9.5655872, 56.7787206], [9.5885334, 56.8029921], [9.6178646, 56.7950877], [9.6382642, 56.8011571], [9.6164225, 56.8078494], [9.6230159, 56.8134562], [9.6126447, 56.8187842], [9.6352185, 56.851944], [9.6597864, 56.8563861], [9.6185582, 56.8677858], [9.6104315, 56.8820607], [9.5631772, 56.8953107], [9.5570911, 56.8815028], [9.532748, 56.8777557], [9.5089918, 56.8855183], [9.5136044, 56.8963127], [9.5042841, 56.902436], [9.5213273, 56.9204292], [9.5161198, 56.9314142], [9.4787504, 56.9329362], [9.4605145, 56.9268164], [9.4631881, 56.9203309], [9.4337952, 56.918868], [9.4206759, 56.9366133], [9.4043561, 56.9395497], [9.4091152, 56.9670258], [9.3907146, 56.9791065], [9.4006084, 56.9870809], [9.3933604, 57.0120923], [9.4990567, 57.0150024], [9.5837395, 56.9877431], [9.5649901, 56.9704016], [9.5764489, 56.9614853], [9.5650793, 56.9552487], [9.5506613, 56.9659471], [9.5373523, 56.9555491], [9.5678009, 56.9254097], [9.5772986, 56.9615797], [9.6178567, 56.968292], [9.6313996, 56.9881588], [9.6715814, 57.0125258], [9.6755463, 57.0316695], [9.6930714, 57.0400152], [9.7783949, 57.0525669], [9.8440327, 57.0431692], [9.893927, 57.0596874], [9.9422958, 57.0475445], [9.9956948, 57.0776855], [10.0248422, 57.0763647], [10.03753, 57.0603683], [10.0593663, 57.0510488], [10.0537457, 57.0470856], [10.0631329, 57.0498343], [10.1894546, 56.9877349], [10.2327025, 56.9788461], [10.30233, 56.9862772], [10.3077084, 56.9842364], [10.271829, 56.9371852], [10.2617941, 56.8935903], [10.2668637, 56.8581421], [10.2225499, 56.8608372], [10.1931562, 56.8470492], [10.2247759, 56.8326624], [10.2128235, 56.8110123], [10.1755798, 56.8237202], [10.2282009, 56.7958943], [10.1797161, 56.7977404]], [[10.1703651762797, 56.82945484738576], [10.1666473, 56.8351903], [10.1693636, 56.8299948], [10.1703651762797, 56.82945484738576]], [[10.153326294124936, 56.84957414946144], [10.153676276109778, 56.85005860204403], [10.1531614, 56.8497522], [10.153326294124936, 56.84957414946144]]], [[[10.3220713, 56.9593125], [10.3195231, 56.9538649], [10.3188077, 56.953615], [10.3220713, 56.9593125]]], [[[10.3270411, 56.9658482], [10.3268051, 56.9661114], [10.3272879, 56.9662225], [10.3270411, 56.9658482]]], [[[10.2958414, 56.9669772], [10.2986416, 56.9655911], [10.2948114, 56.9656554], [10.2958414, 56.9669772]]], [[[10.3274059, 56.9670881], [10.3275561, 56.9670238], [10.3275239, 56.9664565], [10.3274059, 56.9670881]]], [[[10.329659, 56.9700298], [10.326848, 56.9686029], [10.3297877, 56.970445], [10.329659, 56.9700298]]], [[[10.3303671, 56.9711818], [10.3300452, 56.9704567], [10.3298736, 56.970714], [10.3303671, 56.9711818]]], [[[10.3336146, 56.9729851], [10.3337346, 56.9729486], [10.3335636, 56.9728017], [10.3336146, 56.9729851]]], [[[10.3302169, 56.9723514], [10.332427, 56.9739127], [10.3312254, 56.9717725], [10.3302169, 56.9723514]]], [[[10.3082602, 56.9805227], [10.3081315, 56.9805841], [10.3084587, 56.9805637], [10.3082602, 56.9805227]]], [[[10.3364176, 56.9827065], [10.3328878, 56.9813209], [10.3301482, 56.9829661], [10.3364176, 56.9827065]]], [[[10.3425145, 56.9931058], [10.3369787, 56.9876282], [10.3433143, 56.9967611], [10.3425145, 56.9931058]]], [[[9.8776242, 57.0578063], [9.8750137, 57.056717], [9.8791313, 57.058195], [9.8776242, 57.0578063]]], [[[9.9065231, 57.0625055], [9.9072513, 57.061365], [9.9054381, 57.0620548], [9.9065231, 57.0625055]]], [[[9.8630065, 57.0711518], [9.8761148, 57.0612227], [9.8398585, 57.0537828], [9.8131725, 57.0684862], [9.8630065, 57.0711518]]], [[[9.8417873, 57.0829832], [9.8441705, 57.0832484], [9.8403423, 57.0824748], [9.8417873, 57.0829832]]]]}}]}