{"type":"FeatureCollection","features":[{"type":"Feature","properties":{"slug":"aberdeen-sd","member_count":92,"matched_count":3,"unmatched":["Aberdeen city (US-SD, type='City')","Groton city (US-SD, type='City')","Lincoln township (US-SD, type='Township')","Aberdeen township (US-SD, type='Township')","Bath township (US-SD, type='Township')","Warner township (US-SD, type='Township')","Warner town (US-SD, type='Town')","Ravinia township (US-SD, type='Township')","Prairiewood township (US-SD, type='Township')","Ordway township (US-SD, type='Township')","Frederick town (US-SD, type='Town')","Gem township (US-SD, type='Township')","Hecla city (US-SD, type='City')","Mercier township (US-SD, type='Township')","Garden Prairie township (US-SD, type='Township')","Groton township (US-SD, type='Township')","Claremont township (US-SD, type='Township')","Henry township (US-SD, type='Township')","Cambria township (US-SD, type='Township')","East Hanson township (US-SD, type='Township')","Claremont town (US-SD, type='Town')","Oneota township (US-SD, type='Township')","Columbia township (US-SD, type='Township')","Brainard township (US-SD, type='Township')","New Hope township (US-SD, type='Township')","Putney township (US-SD, type='Township')","Westport township (US-SD, type='Township')","Westport town (US-SD, type='Town')","East Rondell township (US-SD, type='Township')","Shelby township (US-SD, type='Township')","Highland township (US-SD, type='Township')","Garland township (US-SD, type='Township')","West Rondell township (US-SD, type='Township')","Richland township (US-SD, type='Township')","Riverside township (US-SD, type='Township')","Palmyra township (US-SD, type='Township')","Stratford town (US-SD, type='Town')","Savo township (US-SD, type='Township')","South Detroit township (US-SD, type='Township')","Frederick township (US-SD, type='Township')","North Detroit township (US-SD, type='Township')","West Hanson township (US-SD, type='Township')","Liberty township (US-SD, type='Township')","Osceola township (US-SD, type='Township')","Greenfield township (US-SD, type='Township')","Portage township (US-SD, type='Township')","Carlisle township (US-SD, type='Township')","Franklyn township (US-SD, type='Township')","Hecla township (US-SD, type='Township')","Allison township (US-SD, type='Township')","Lansing township (US-SD, type='Township')","Bates township (US-SD, type='Township')","Verdon town (US-SD, type='Town')","Ipswich city (US-SD, type='City')","Cortlandt township (US-SD, type='Township')","Bowdle city (US-SD, type='City')","Harmony township (US-SD, type='Township')","Roscoe city (US-SD, type='City')","Hosmer city (US-SD, type='City')","Belle township (US-SD, type='Township')","Rosette township (US-SD, type='Township')","Ipswich township (US-SD, type='Township')","Fountain township (US-SD, type='Township')","Bowdle township (US-SD, type='Township')","Huntley township (US-SD, type='Township')","Hosmer township (US-SD, type='Township')","Glen township (US-SD, type='Township')","Montpelier township (US-SD, type='Township')","North Bryant township (US-SD, type='Township')","Sangamon township (US-SD, type='Township')","Cottonwood Lake township (US-SD, type='Township')","Richland township (US-SD, type='Township')","Hudson township (US-SD, type='Township')","Glover township (US-SD, type='Township')","Hillside township (US-SD, type='Township')","Powell township (US-SD, type='Township')","Vermont township (US-SD, type='Township')","Pembrook township (US-SD, type='Township')","Union township (US-SD, type='Township')","Bryant township (US-SD, type='Township')","Kent township (US-SD, type='Township')","Modena township (US-SD, type='Township')","Clear Lake township (US-SD, type='Township')","Odessa township (US-SD, type='Township')","Cleveland township (US-SD, type='Township')","Cloyd Valley township (US-SD, type='Township')","Madison township (US-SD, type='Township')","Liberty township (US-SD, type='Township')","Adrian township (US-SD, type='Township')"],"source":"Overture Maps division_area (CC-BY 4.0)"},"geometry":{"type":"MultiPolygon","coordinates":[[[[-97.981457,45.240415],[-99.708986,45.245866],[-99.7078371,45.5934257],[-98.7254191,45.5912616],[-98.724375,45.938731],[-97.9788015,45.9358178],[-97.981457,45.240415]]],[[[-122.798827,45.8863341],[-122.8190991,45.8898984],[-122.8221411,45.9058649],[-122.8080954,45.905846],[-122.798827,45.8863341]],[[-122.8166029,45.8906994],[-122.8140632,45.890449],[-122.8144764,45.8913563],[-122.8166029,45.8906994]]]]}}]}