{"type":"FeatureCollection","features":[{"type":"Feature","properties":{"slug":"aberdeen-wa","member_count":1,"matched_count":1,"unmatched":[],"source":"Overture Maps division_area (CC-BY 4.0)"},"geometry":{"type":"Polygon","coordinates":[[[-123.490121,47.257971],[-123.506002,47.257928],[-123.5058391,47.517638],[-124.04702,47.5185229],[-124.0472237,47.5340066],[-124.4297684,47.533554],[-124.4222153,47.4970332],[-124.4604958,47.4804456],[-124.4781769,47.4499245],[-124.4682205,47.4231024],[-124.4407547,47.4047487],[-124.4335449,47.3745325],[-124.3587006,47.3089269],[-124.3600739,47.2908828],[-124.3487442,47.2707359],[-124.2958725,47.2459202],[-124.2665184,47.1658016],[-124.2673767,47.1463076],[-124.245919,47.0717678],[-124.2443741,46.9867025],[-124.2550171,46.920499],[-124.2354477,46.8939946],[-124.2084275,46.8942147],[-124.1916326,46.8835494],[-124.1628753,46.7945807],[-123.1605949,46.7933852],[-123.1620347,46.9995924],[-123.2059347,46.9996534],[-123.202066,47.084895],[-123.489031,47.082716],[-123.490121,47.257971]]]}}]}