{"type":"FeatureCollection","features":[{"type":"Feature","properties":{"slug":"aberystwyth","member_count":2,"matched_count":1,"unmatched":["[recovered via metro-name fallback: Aberystwyth]"],"source":"Overture Maps division_area (CC-BY 4.0)"},"geometry":{"type":"Polygon","coordinates":[[[-4.0631685,52.4178829],[-4.0679045,52.4220774],[-4.0619867,52.4252675],[-4.0845645,52.4282995],[-4.0857273,52.4173118],[-4.0938624,52.4141861],[-4.0936455,52.3967449],[-4.0606964,52.3976996],[-4.074691,52.4074938],[-4.0631685,52.4178829]]]}}]}