{"type": "FeatureCollection", "features": [{"type": "Feature", "properties": {"slug": "afogados-da-ingazeira", "members": 1, "country": "Brazil", "input_hash": "ce59c945349473cc"}, "geometry": {"type": "Polygon", "coordinates": [[[-37.6944619, -7.718827], [-37.6791668, -7.7597031], [-37.7066079, -7.7705411], [-37.6826594, -7.802513], [-37.692829, -7.8129444], [-37.6716224, -7.8232777], [-37.6172536, -7.8945769], [-37.6201437, -7.8841057], [-37.6039038, -7.8625957], [-37.6120577, -7.8501096], [-37.5769756, -7.8274919], [-37.5828817, -7.8197299], [-37.5675449, -7.8146547], [-37.5247581, -7.7655747], [-37.5218849, -7.7533499], [-37.5398192, -7.7132858], [-37.5566144, -7.7150541], [-37.5507063, -7.6513197], [-37.5647266, -7.6348646], [-37.5930566, -7.6267747], [-37.6172227, -7.6272655], [-37.6372307, -7.6375272], [-37.6559589, -7.6138757], [-37.6731741, -7.6166424], [-37.6783193, -7.6075997], [-37.7010859, -7.6210891], [-37.6776198, -7.6454541], [-37.6944619, -7.718827]]]}}]}