{"type":"FeatureCollection","features":[{"type":"Feature","properties":{"slug":"agen","member_count":72,"matched_count":72,"unmatched":[],"source":"Overture Maps division_area (CC-BY 4.0)"},"geometry":{"type":"MultiPolygon","coordinates":[[[[-0.3720762,44.0286839],[-0.3518968,44.0310283],[-0.3493911,44.0473393],[-0.31094,44.0454549],[-0.2936166,44.0556346],[-0.2849413,44.0421185],[-0.2992935,44.0381526],[-0.2937519,44.0339511],[-0.3011028,44.0300331],[-0.3255796,44.0307424],[-0.3478541,44.02069],[-0.3622615,44.0197971],[-0.3720762,44.0286839]]],[[[0.600485,44.0780652],[0.5850008,44.0766701],[0.5616492,44.0883029],[0.5372613,44.0865013],[0.5278581,44.103084],[0.5164651,44.0972374],[0.4944263,44.1054309],[0.5077877,44.1062927],[0.5058382,44.113538],[0.4762108,44.1131572],[0.475837,44.1210519],[0.5180163,44.1304706],[0.5279494,44.1599154],[0.4862227,44.1704544],[0.4910402,44.1820883],[0.4720385,44.2090634],[0.4918838,44.2375514],[0.4314666,44.2339262],[0.4002652,44.2487881],[0.367783,44.2406134],[0.3419214,44.2451693],[0.3341696,44.2728813],[0.3200688,44.2904703],[0.338288,44.321852],[0.3090099,44.3417994],[0.33741,44.34166],[0.352936,44.331354],[0.374623,44.355125],[0.400505,44.357387],[0.405076,44.343031],[0.428435,44.332754],[0.4628476,44.3386603],[0.4842801,44.3202727],[0.5263803,44.3171207],[0.5369907,44.3261173],[0.5584719,44.3134178],[0.571593,44.3148238],[0.5678365,44.3245804],[0.5774549,44.3239441],[0.5634952,44.3439965],[0.5733972,44.35331],[0.5845986,44.3453701],[0.58701,44.3299154],[0.621482,44.3380164],[0.6217877,44.3164856],[0.6425969,44.3118901],[0.6421171,44.3006054],[0.6710763,44.3107546],[0.6713022,44.3306219],[0.6848807,44.3260208],[0.7088711,44.3341269],[0.7191168,44.322027],[0.7474482,44.3331555],[0.7667517,44.3285722],[0.7691718,44.3110996],[0.804575,44.3115627],[0.8046198,44.2999379],[0.8196965,44.2871392],[0.8304975,44.2943747],[0.8319996,44.3115069],[0.8501943,44.3032857],[0.8848535,44.3075559],[0.8951539,44.2965944],[0.8873391,44.2866177],[0.861805,44.281034],[0.851336,44.274029],[0.858949,44.266139],[0.84338,44.263582],[0.856191,44.248552],[0.892154,44.264347],[0.895567,44.258634],[0.9278718,44.2672822],[0.9341912,44.2492394],[0.9188229,44.2382277],[0.9293305,44.2303986],[0.9062925,44.1903503],[0.8619298,44.1935761],[0.8535215,44.1748046],[0.823698,44.17969],[0.798164,44.165999],[0.798675,44.149972],[0.820732,44.146536],[0.830894,44.163206],[0.851207,44.155797],[0.861659,44.160474],[0.858928,44.173422],[0.8709436,44.1678329],[0.8829531,44.1754567],[0.8903389,44.169912],[0.8847248,44.1606449],[0.8946561,44.1409322],[0.882805,44.1425696],[0.8809117,44.1297088],[0.8574322,44.1275845],[0.8194794,44.1438432],[0.7953253,44.1456517],[0.7881028,44.1434331],[0.798588,44.1104383],[0.7743353,44.1168366],[0.748081,44.0935306],[0.727394,44.092573],[0.719082,44.094492],[0.719284,44.100318],[0.713593,44.111551],[0.688174,44.09326],[0.694279,44.077193],[0.687434,44.070066],[0.7076284,44.0576463],[0.6956131,44.0435503],[0.6854646,44.045943],[0.6775792,44.0276096],[0.6633322,44.0239976],[0.6524854,44.0329456],[0.6542836,44.0423784],[0.6317326,44.04955],[0.6279781,44.0604137],[0.600485,44.0780652]],[[0.5762689,44.157683],[0.5674965,44.151363],[0.5533097,44.154806],[0.565268,44.1738728],[0.575875,44.173673],[0.5711799,44.1811684],[0.5868068,44.1904494],[0.5870069,44.1984356],[0.5747665,44.2108366],[0.5333233,44.2143182],[0.5296222,44.2055787],[0.5484987,44.1939587],[0.535762,44.1704816],[0.5502006,44.1542799],[0.532974,44.136273],[0.5330429,44.1287556],[0.5394085,44.1342445],[0.5502314,44.1307666],[0.5525587,44.1206481],[0.5782949,44.1182897],[0.6050953,44.1484118],[0.5845004,44.1485294],[0.5762689,44.157683]],[[0.3767168,44.2803962],[0.3957418,44.2760074],[0.3927952,44.2829258],[0.4008942,44.2893609],[0.3847446,44.3057905],[0.3689331,44.2960682],[0.3767168,44.2803962]]],[[[0.4574467,44.3794672],[0.4837351,44.3733184],[0.4839426,44.360887],[0.4637616,44.3543484],[0.4574467,44.3794672]]],[[[-0.2273468,44.4724319],[-0.2338676,44.4536034],[-0.2492949,44.4550553],[-0.2600941,44.4871937],[-0.2463439,44.4874759],[-0.2273468,44.4724319]]],[[[0.9655723,43.3720676],[0.9625411,43.3878867],[0.9455791,43.3866508],[0.9502803,43.405993],[0.9969036,43.4054482],[0.9979307,43.3826266],[1.0058211,43.3798372],[0.9959357,43.3762753],[0.996868,43.3687749],[0.9783808,43.3627585],[0.9655723,43.3720676]]],[[[1.7730994,43.4864775],[1.7881008,43.4732013],[1.7777186,43.4643617],[1.7765484,43.4474283],[1.7577991,43.4521473],[1.7544647,43.4615436],[1.7686693,43.4656405],[1.7600874,43.4688423],[1.7603387,43.4788691],[1.7730994,43.4864775]]],[[[2.287702,43.5601902],[2.2667352,43.5777485],[2.2853888,43.5922616],[2.3015943,43.5810353],[2.2893821,43.5714764],[2.2970997,43.5611221],[2.287702,43.5601902]]],[[[1.2090643,43.6261178],[1.2575025,43.6110774],[1.2433712,43.6045625],[1.2040282,43.620215],[1.2090643,43.6261178]]],[[[2.0697968,43.6498638],[2.051035,43.6568324],[2.0717974,43.6740724],[2.1095474,43.6625888],[2.1207006,43.6413998],[2.0763148,43.6359268],[2.0646834,43.6402801],[2.0697968,43.6498638]]],[[[1.1630078,43.88092],[1.1302341,43.8736067],[1.0801166,43.8920706],[1.09198,43.9103482],[1.1467874,43.9369776],[1.1578817,43.920368],[1.1503201,43.9136444],[1.1484732,43.8888546],[1.1630078,43.88092]]],[[[1.629091,43.9429622],[1.6354336,43.9186348],[1.6094826,43.9187311],[1.606722,43.9262657],[1.594657,43.9191151],[1.5726336,43.9360323],[1.5793761,43.9469776],[1.6078797,43.9512808],[1.629091,43.9429622]]]]}}]}