{"type":"FeatureCollection","features":[{"type":"Feature","properties":{"slug":"agrigento","member_count":43,"matched_count":43,"unmatched":[],"source":"Overture Maps division_area (CC-BY 4.0)"},"geometry":{"type":"MultiPolygon","coordinates":[[[[12.5590356,35.5075372],[12.5592812,35.5075025],[12.5591127,35.5074248],[12.5590356,35.5075372]]],[[[12.5577113,35.5093781],[12.5585025,35.5115081],[12.559994,35.5089328],[12.5577113,35.5093781]]],[[[12.6228748,35.5120518],[12.6222945,35.5044282],[12.6341811,35.5015139],[12.6332315,35.493341],[12.6053985,35.493002],[12.6044789,35.5028756],[12.5993263,35.4954561],[12.5681726,35.511569],[12.5173047,35.5208726],[12.5311495,35.5293079],[12.592748,35.5206104],[12.6041109,35.5258185],[12.6326517,35.5179387],[12.6325861,35.5157337],[12.6267635,35.515714],[12.6228748,35.5120518]]],[[[12.6260975,35.514563],[12.626428,35.5145587],[12.626365,35.5143943],[12.6260975,35.514563]]],[[[12.6268608,35.5148832],[12.6266404,35.514785],[12.6267427,35.5149003],[12.6268608,35.5148832]]],[[[12.5235576,35.5271404],[12.5235643,35.5269463],[12.5234821,35.5271338],[12.5235576,35.5271404]]],[[[12.5282811,35.5287047],[12.5279859,35.5291072],[12.5284231,35.5289796],[12.5282811,35.5287047]]],[[[12.3201246,35.5510936],[12.3225692,35.5518962],[12.3209014,35.5505557],[12.3201246,35.5510936]]],[[[12.8778411,35.8549867],[12.8779776,35.8549161],[12.8778222,35.8548589],[12.8778411,35.8549867]]],[[[12.8780905,35.8551927],[12.8780529,35.8550897],[12.8780458,35.8551718],[12.8780905,35.8551927]]],[[[12.8839267,35.8591185],[12.8589098,35.8552371],[12.8490025,35.8708643],[12.8780886,35.8750555],[12.8839267,35.8591185]]],[[[12.8813546,35.8667966],[12.8813653,35.8667205],[12.8812366,35.8668053],[12.8813546,35.8667966]]],[[[12.8813546,35.8681419],[12.8813814,35.8681506],[12.8813841,35.8681354],[12.8813546,35.8681419]]],[[[12.8800522,35.8719469],[12.8805538,35.8715057],[12.8799315,35.8715122],[12.8800522,35.8719469]]],[[[12.8801809,35.8722707],[12.880594,35.8721729],[12.8805139,35.8720381],[12.8801809,35.8722707]]],[[[12.881907,35.8667314],[12.8820706,35.8666118],[12.8818614,35.8666509],[12.881907,35.8667314]]],[[[12.8816899,35.867403],[12.8816899,35.8672748],[12.8816174,35.8673313],[12.8816899,35.867403]]],[[[12.8821913,35.867653],[12.8816335,35.8668466],[12.8820545,35.867603],[12.8816604,35.8678551],[12.8818667,35.8679398],[12.8821913,35.867653]]],[[[12.8814458,35.8681506],[12.8814297,35.8681941],[12.8814726,35.8681507],[12.8814458,35.8681506]]],[[[12.8815048,35.8681289],[12.8815209,35.868179],[12.8815397,35.8681333],[12.8815048,35.8681289]]],[[[13.5137741,37.2902513],[13.4485597,37.2932965],[13.425834,37.3059526],[13.4035066,37.3323983],[13.3891307,37.3333025],[13.3504683,37.3588121],[13.3216846,37.3636384],[13.2922379,37.3899403],[13.2723302,37.3891883],[13.2538888,37.4243982],[13.1692712,37.4920944],[13.0755274,37.5005382],[13.0835633,37.5024498],[13.0778693,37.5056965],[13.0166578,37.4969778],[13.0004788,37.5277644],[12.9584073,37.5658851],[12.8970451,37.5770202],[12.908215,37.5958648],[12.9165842,37.6448112],[12.8875153,37.6423088],[12.8996694,37.6543776],[12.8932615,37.6618834],[12.915082,37.6700809],[12.9176533,37.6895248],[12.9360773,37.6987933],[12.9441899,37.7156861],[12.960034,37.71997],[12.9593153,37.7267545],[12.9909146,37.7345013],[12.9934251,37.7424259],[12.998929,37.7339074],[13.0129629,37.7428334],[13.027343,37.7407662],[13.046562,37.7120506],[13.0793087,37.6902872],[13.1235122,37.701512],[13.1481143,37.6873821],[13.1876436,37.6916824],[13.2137021,37.6743348],[13.2123032,37.640491],[13.2461373,37.6210637],[13.2492732,37.6115044],[13.2756589,37.6472665],[13.300453,37.6390095],[13.3137645,37.6427783],[13.3276588,37.6624717],[13.3437994,37.6585607],[13.350932,37.6461517],[13.3187017,37.6253752],[13.3283234,37.6237967],[13.3337802,37.6087712],[13.320535,37.5881885],[13.3425175,37.5764595],[13.3398749,37.5531595],[13.3563006,37.5393034],[13.400374,37.5583036],[13.4029954,37.5707878],[13.3885593,37.5764738],[13.3810496,37.5995784],[13.391058,37.6166493],[13.4018249,37.6180463],[13.3864333,37.6350983],[13.3832334,37.6514655],[13.3948457,37.6596271],[13.4161833,37.6552755],[13.426208,37.6432604],[13.4527738,37.6604967],[13.4635729,37.6466122],[13.5115397,37.6592745],[13.5178616,37.6412313],[13.5644301,37.6354611],[13.5989925,37.6555615],[13.6566813,37.6587373],[13.6810172,37.6928827],[13.7478152,37.6789252],[13.7999632,37.688328],[13.805759,37.6749894],[13.8231481,37.6751429],[13.8218388,37.6545554],[13.8106835,37.6415923],[13.8295203,37.6298359],[13.8310468,37.6191223],[13.7888476,37.6230058],[13.7770593,37.6071261],[13.7615883,37.6069647],[13.7664646,37.5969303],[13.7577152,37.592701],[13.7063814,37.5822254],[13.680579,37.5869865],[13.6709708,37.5801273],[13.6700943,37.570204],[13.6898927,37.5556612],[13.6881866,37.5335136],[13.6953324,37.5198741],[13.6871256,37.4938024],[13.6714013,37.487348],[13.6635375,37.4713244],[13.6565625,37.4752067],[13.6508568,37.4603079],[13.6856632,37.4595201],[13.7056455,37.4400954],[13.7323206,37.4375305],[13.7503767,37.4268692],[13.7728751,37.4405554],[13.8030615,37.4339323],[13.8065851,37.439218],[13.8180511,37.4316291],[13.8477516,37.437346],[13.8447958,37.4264751],[13.8613824,37.4034272],[13.8954285,37.403548],[13.9104607,37.3867276],[13.8905134,37.3791055],[13.8852322,37.3733583],[13.8916523,37.3702194],[13.8804223,37.3595751],[13.927765,37.3294367],[13.9633033,37.3300647],[13.9738619,37.3140048],[13.9886694,37.3101765],[13.9970448,37.2930844],[14.0170889,37.2856839],[14.0312093,37.2923463],[14.0275938,37.2743624],[14.0079913,37.2607318],[14.0181244,37.2582876],[14.0053421,37.2422697],[14.0168064,37.2280799],[13.9874884,37.2197724],[14.0043864,37.1929387],[13.9916971,37.2007042],[13.9817233,37.1929865],[14.0371059,37.1432937],[14.036462,37.1078052],[13.9752327,37.1087496],[13.9465882,37.1004017],[13.9481021,37.0982033],[13.9471277,37.0931236],[13.9440112,37.0852961],[13.9432215,37.0847023],[13.9457085,37.0975777],[13.9433263,37.0915097],[13.9316486,37.0948696],[13.9387272,37.0887812],[13.9399223,37.0844823],[13.9268833,37.0982515],[13.8760246,37.1016046],[13.8252161,37.1440017],[13.7501081,37.1494971],[13.7262384,37.1702514],[13.6613492,37.1939868],[13.6384265,37.2302037],[13.6208302,37.2329346],[13.5912006,37.2593776],[13.5786331,37.2582351],[13.5555602,37.2856209],[13.5376351,37.2815707],[13.5336363,37.2879505],[13.5320137,37.2818879],[13.5284569,37.2797233],[13.5325379,37.2840266],[13.524339,37.2865398],[13.5274429,37.2747332],[13.5137741,37.2902513]],[[13.1600062,37.6448788],[13.1438424,37.6426789],[13.1454139,37.6259701],[13.1831034,37.6346841],[13.1600062,37.6448788]]],[[[13.8567989,37.1119274],[13.8557552,37.1127545],[13.8573175,37.112513],[13.8567989,37.1119274]]],[[[13.6568963,37.1898949],[13.6573378,37.1897007],[13.6568695,37.1898437],[13.6568963,37.1898949]]]]}}]}