{"type": "FeatureCollection", "features": [{"type": "Feature", "properties": {"slug": "ahmedabad", "members": 1, "country": "India", "input_hash": "3ea7428184c8e550"}, "geometry": {"type": "Polygon", "coordinates": [[[72.1953051, 23.1157293], [72.1912028, 23.1068851], [72.159506, 23.105717], [72.1544171, 23.1129555], [72.161188, 23.1161777], [72.1618587, 23.1402733], [72.1878821, 23.1441522], [72.1676969, 23.1976873], [72.1849553, 23.2140884], [72.1851462, 23.2469246], [72.1749249, 23.272852], [72.1830071, 23.2822535], [72.2004725, 23.2794828], [72.2087536, 23.3137593], [72.2213601, 23.312858], [72.2301282, 23.3292273], [72.2509436, 23.3329387], [72.2670276, 23.3528245], [72.2602465, 23.3745627], [72.2748754, 23.3797149], [72.2892838, 23.3987709], [72.2566012, 23.4133299], [72.2614614, 23.4244987], [72.2473182, 23.4455591], [72.2329084, 23.4287707], [72.2252829, 23.4378279], [72.2113925, 23.4387212], [72.211735, 23.424003], [72.1916948, 23.4223922], [72.191007, 23.4165731], [72.1717602, 23.4275193], [72.1717564, 23.4442193], [72.1530417, 23.4513481], [72.1090645, 23.449761], [72.0991682, 23.4597688], [72.0877365, 23.459419], [72.0519329, 23.4433388], [72.0428764, 23.4582916], [72.0339363, 23.4572303], [72.0257682, 23.4780291], [72.0344453, 23.5081862], [71.998445, 23.4989207], [71.9929805, 23.4846576], [71.9634839, 23.4618496], [71.968393, 23.4092237], [71.9560645, 23.3876155], [71.9282879, 23.3898455], [71.9030309, 23.3808464], [71.8878629, 23.3907757], [71.870465, 23.3818064], [71.8944316, 23.3293805], [71.8799634, 23.3215812], [71.8762137, 23.3097921], [71.8840128, 23.3024327], [71.8725741, 23.2793246], [71.879713, 23.2537366], [71.8699993, 23.2185287], [71.8970129, 23.2190989], [71.9025402, 23.2560762], [71.919728, 23.2640655], [71.9335564, 23.2616056], [71.9431848, 23.2369765], [71.9699806, 23.250276], [71.9956909, 23.2484528], [71.9882797, 23.2094323], [71.9497129, 23.204074], [71.9279288, 23.1804703], [71.9060984, 23.1762279], [71.8996478, 23.1026457], [71.9187875, 23.0660707], [71.9454908, 23.0629725], [71.9522629, 23.0289042], [71.9620824, 23.0286281], [71.9607674, 23.047095], [71.973402, 23.0586051], [72.0154672, 23.0580518], [72.0178537, 23.0508928], [72.0217129, 23.0184149], [72.0103631, 23.0119869], [72.0087573, 23.0017459], [72.0113151, 22.9930963], [72.0207719, 22.9922359], [71.9956767, 22.9518998], [71.9939868, 22.9379208], [72.0053053, 22.9244518], [71.9895469, 22.8629867], [72.0135826, 22.8182183], [72.0279726, 22.8285896], [72.0343817, 22.860018], [72.0417779, 22.8266513], [72.0355833, 22.8098294], [72.0571793, 22.7967011], [72.047139, 22.7685451], [72.0556972, 22.7705717], [72.0543978, 22.7596628], [72.0624952, 22.7569253], [72.0539983, 22.7507272], [72.0697776, 22.7339848], [72.1081497, 22.7212379], [72.0940013, 22.6756195], [72.0676647, 22.6751429], [72.0573359, 22.6941206], [72.0230106, 22.6801916], [72.0613882, 22.653662], [72.0636153, 22.6220749], [72.0882724, 22.6239056], [72.0863684, 22.6106305], [72.1501749, 22.584039], [72.1894081, 22.5423796], [72.1453168, 22.5171018], [72.1527443, 22.5013243], [72.1480151, 22.4957861], [72.1640117, 22.4797357], [72.0839012, 22.4356715], [72.0530744, 22.4431383], [72.050857, 22.4757555], [72.0390172, 22.483367], [72.0332589, 22.5068464], [71.9669912, 22.515601], [71.970798, 22.5387303], [71.9415223, 22.5485929], [71.9259695, 22.5293504], [71.9134631, 22.5265049], [71.9185367, 22.5099914], [71.9314264, 22.5029661], [71.9192678, 22.5017554], [71.9166766, 22.4825494], [71.9367273, 22.4798201], [71.9674228, 22.4926782], [71.9722677, 22.4726772], [71.9421706, 22.4636171], [71.9339901, 22.4534159], [71.9448583, 22.3848737], [71.9374392, 22.38031], [71.9276227, 22.3878148], [71.9213497, 22.3804352], [71.9034628, 22.4233077], [71.891972, 22.4225327], [71.8822578, 22.4068519], [71.8606202, 22.3962543], [71.8628591, 22.371437], [71.8466355, 22.3585874], [71.8405599, 22.3218175], [71.8576725, 22.3167544], [71.8520511, 22.290552], [71.8658992, 22.2818934], [71.880314, 22.2539238], [71.9082976, 22.2552351], [71.9293418, 22.2714925], [71.9433551, 22.2529688], [72.0311897, 22.2447416], [72.0182182, 22.1947826], [72.0338693, 22.180307], [72.0394783, 22.1588047], [72.0320719, 22.1211825], [72.060072, 22.1033239], [72.0613207, 22.0844769], [72.0787325, 22.0569788], [72.1233071, 22.0572604], [72.1753466, 21.9907462], [72.2614789, 21.9826076], [72.2817993, 22.0380714], [72.2784948, 22.0555734], [72.311368, 22.1216239], [72.2998828, 22.1619209], [72.3092651, 22.1793778], [72.294454, 22.1889498], [72.2913265, 22.2240781], [72.3157024, 22.2343968], [72.3328256, 22.2562336], [72.3608705, 22.2614867], [72.362378, 22.2954201], [72.401571, 22.3531059], [72.3850052, 22.3726548], [72.3447422, 22.3798635], [72.3415121, 22.38669], [72.3679778, 22.4072286], [72.3733388, 22.4468187], [72.3559305, 22.4404377], [72.3638274, 22.4535461], [72.3768072, 22.452395], [72.3757291, 22.4732871], [72.4098747, 22.4771029], [72.4387687, 22.5091916], [72.4400397, 22.5350723], [72.4224835, 22.5625266], [72.4262692, 22.5717273], [72.4409877, 22.5654682], [72.4656488, 22.5774981], [72.5038141, 22.6059238], [72.5114805, 22.6330609], [72.5354204, 22.6262624], [72.5372573, 22.6522482], [72.5693245, 22.65368], [72.5602565, 22.6646575], [72.5478848, 22.6643586], [72.5491257, 22.6727574], [72.5270722, 22.6780103], [72.5440784, 22.693028], [72.5179806, 22.7005847], [72.5223128, 22.7123133], [72.5406562, 22.711466], [72.5238891, 22.7332327], [72.5396679, 22.7512911], [72.5209003, 22.7525037], [72.5297698, 22.7673096], [72.5143122, 22.7788719], [72.5220509, 22.7957995], [72.5703468, 22.8268866], [72.5814158, 22.8190653], [72.5976336, 22.8249067], [72.5985412, 22.8158677], [72.6080389, 22.8135753], [72.6021714, 22.8356262], [72.6086324, 22.8627442], [72.5990132, 22.8721929], [72.6080988, 22.8861907], [72.633769, 22.8817619], [72.6437753, 22.8973919], [72.6675517, 22.8954502], [72.6736134, 22.8805804], [72.6891813, 22.8796131], [72.724578, 22.9143195], [72.7420144, 22.9057199], [72.7912078, 22.9079492], [72.8048664, 22.9416964], [72.8426219, 22.967114], [72.838733, 22.981684], [72.8314084, 22.9821541], [72.8351712, 23.0014786], [72.8241849, 23.0057252], [72.8236913, 23.0188392], [72.8072333, 23.0264622], [72.8154516, 23.0377378], [72.7947235, 23.0436024], [72.7976632, 23.0513819], [72.7892089, 23.0584699], [72.7663564, 23.0598914], [72.7779221, 23.0785671], [72.766056, 23.0954441], [72.7444374, 23.0888909], [72.7443194, 23.0999245], [72.7165961, 23.0953849], [72.7098369, 23.1105822], [72.6997304, 23.1119538], [72.6889157, 23.1023522], [72.6718139, 23.1080757], [72.6652541, 23.0948366], [72.6466266, 23.1012154], [72.637367, 23.0919835], [72.6103593, 23.0915141], [72.6186096, 23.1150511], [72.6085407, 23.1290699], [72.5826963, 23.1299192], [72.5782135, 23.1181958], [72.5630776, 23.1160347], [72.5679348, 23.1268518], [72.562619, 23.1372702], [72.5405807, 23.1322716], [72.5461578, 23.1641341], [72.5368452, 23.1647062], [72.5309228, 23.1492388], [72.5103235, 23.159932], [72.5041437, 23.14476], [72.4825358, 23.1449376], [72.4979966, 23.0997144], [72.4596981, 23.0839288], [72.4739489, 23.0721996], [72.4717663, 23.0636182], [72.4487977, 23.0604478], [72.4474212, 23.0475414], [72.4351737, 23.0435103], [72.4266038, 23.0478884], [72.4276351, 23.064968], [72.4072158, 23.0679084], [72.4030269, 23.0571502], [72.3872474, 23.0517389], [72.3811395, 23.0606608], [72.3842686, 23.0796774], [72.3751627, 23.0809374], [72.3695016, 23.0935972], [72.3486435, 23.0904574], [72.3285552, 23.1082642], [72.3057674, 23.0962555], [72.3229862, 23.0557677], [72.2953612, 23.038803], [72.2803703, 23.0594505], [72.2827422, 23.0801483], [72.2565358, 23.0873866], [72.2576465, 23.1067562], [72.2199786, 23.1249431], [72.1953051, 23.1157293]]]}}]}