{"type": "FeatureCollection", "features": [{"type": "Feature", "properties": {"slug": "aigio", "members": 1, "country": "Greece", "input_hash": "ebf4488039b03081"}, "geometry": {"type": "Polygon", "coordinates": [[[21.8760369, 38.3099413], [21.8984785, 38.2928914], [21.9290059, 38.292191], [21.9409224, 38.2765594], [21.914515, 38.2696589], [21.9057868, 38.2609159], [21.9121021, 38.2478183], [21.8742418, 38.2217273], [21.8751277, 38.2108219], [21.8625606, 38.1975006], [21.8856531, 38.1669568], [21.9380148, 38.1679602], [22.0150892, 38.1525186], [22.0011406, 38.1382153], [22.0288868, 38.1252706], [22.0522258, 38.1317025], [22.0672186, 38.1265794], [22.1083301, 38.1491736], [22.1322491, 38.1469162], [22.1310776, 38.1371922], [22.1415062, 38.132915], [22.170173, 38.131662], [22.1899332, 38.1113767], [22.1812047, 38.091957], [22.1879462, 38.0673333], [22.2190887, 38.0636279], [22.2180045, 38.047048], [22.2069395, 38.0453117], [22.210266, 38.0171196], [22.18964, 38.0155962], [22.1841128, 37.9987671], [22.2002184, 37.9965636], [22.215706, 37.9830656], [22.2132493, 37.9730072], [22.244161, 37.9543045], [22.2675922, 37.9535209], [22.2926814, 37.9635486], [22.302928, 37.972155], [22.3017271, 37.9877594], [22.3240164, 37.9858127], [22.3607589, 38.018314], [22.3589861, 38.0370972], [22.37116, 38.04503], [22.3771717, 38.080057], [22.3721271, 38.1233971], [22.3773152, 38.1330575], [22.3676491, 38.1481103], [22.3491236, 38.1542189], [22.3356189, 38.1766446], [22.2687889, 38.1711149], [22.2394786, 38.1816215], [22.2163583, 38.1800296], [22.1989571, 38.1999177], [22.1752493, 38.200788], [22.1484937, 38.2184153], [22.149162, 38.2280402], [22.1333608, 38.2476728], [22.1090829, 38.2662306], [22.0773369, 38.2540446], [22.0666671, 38.2714421], [22.0267394, 38.2850426], [22.0240596, 38.3028529], [22.0100166, 38.3139272], [21.986554, 38.3118593], [21.9477219, 38.3282805], [21.8936425, 38.3273574], [21.8853138, 38.3262292], [21.8760369, 38.3099413]]]}}]}