{"type":"FeatureCollection","features":[{"type":"Feature","properties":{"slug":"airolo","member_count":11,"matched_count":9,"unmatched":["Distretto di Leventina (CH-TI, type='District')","Bodio (CH-TI, type='Commune')"],"source":"Overture Maps division_area (CC-BY 4.0)"},"geometry":{"type":"Polygon","coordinates":[[[8.9663477,46.3733856],[8.899632,46.3080539],[8.8842409,46.3050355],[8.8717044,46.320351],[8.848148,46.3252794],[8.862509,46.3479972],[8.8314777,46.3665118],[8.8287794,46.3788975],[8.7420946,46.4057921],[8.738162,46.427312],[8.706342,46.4453324],[8.7127234,46.4593591],[8.7029447,46.4738002],[8.6474054,46.4825198],[8.6024571,46.4999745],[8.5589092,46.4919735],[8.5573389,46.478989],[8.5404018,46.4677564],[8.524388,46.474456],[8.4620019,46.4506135],[8.4461263,46.4637015],[8.3928992,46.4515212],[8.3820408,46.4595074],[8.3924359,46.4680301],[8.3859294,46.4756863],[8.3946619,46.4849963],[8.3922936,46.4947323],[8.4429412,46.4954834],[8.4826433,46.532392],[8.5194731,46.5388742],[8.5130602,46.558077],[8.5313856,46.5845636],[8.5736727,46.5837097],[8.5905312,46.5734078],[8.6203529,46.5781349],[8.6364448,46.5642703],[8.6856372,46.5804553],[8.7160233,46.5711897],[8.727939,46.5770953],[8.7619592,46.5742614],[8.7852265,46.5676771],[8.7786922,46.5669495],[8.7848868,46.5605967],[8.7682562,46.5244897],[8.861626,46.5037902],[8.8617915,46.4842914],[8.8701943,46.4779508],[8.8641737,46.4718636],[8.8737166,46.455054],[8.947382,46.3883269],[8.9502607,46.3775786],[8.9663477,46.3733856]]]}}]}