{"type": "FeatureCollection", "features": [{"type": "Feature", "properties": {"slug": "aksaray", "members": 1, "country": "Turkey", "input_hash": "79101a5c744ffce2"}, "geometry": {"type": "Polygon", "coordinates": [[[33.3593413, 38.6728587], [33.4197336, 38.5889858], [33.6283544, 38.4286164], [33.6300067, 38.3977979], [33.6725304, 38.3863057], [33.6556609, 38.372715], [33.6754475, 38.3481436], [33.6970356, 38.3495261], [33.7105104, 38.3192584], [33.6695957, 38.2873982], [33.6805982, 38.2731745], [33.6825801, 38.2286177], [33.7345506, 38.2309617], [33.7456537, 38.1888962], [33.7275649, 38.1761618], [33.7334362, 38.1253535], [33.7267383, 38.1248129], [33.7206441, 38.105714], [33.7789813, 38.0707549], [33.8157607, 38.0794196], [33.8493185, 38.1151243], [33.8699901, 38.1201934], [33.9698582, 38.1216718], [33.9811336, 38.1144907], [33.997523, 38.081548], [34.0606973, 38.061363], [34.0899714, 38.0635185], [34.1121756, 38.0797546], [34.1397997, 38.0849358], [34.1659788, 38.126559], [34.2749932, 38.1134664], [34.2953131, 38.1555511], [34.2735619, 38.1725565], [34.2673634, 38.198309], [34.250539, 38.2157042], [34.2478825, 38.2472368], [34.1428035, 38.2898768], [34.1484117, 38.3077133], [34.1724745, 38.3146968], [34.2238663, 38.3652989], [34.240749, 38.3702491], [34.2349887, 38.3824638], [34.2059755, 38.3872899], [34.1791931, 38.4076008], [34.1924813, 38.4630005], [34.3037361, 38.5095026], [34.4223637, 38.5286388], [34.4285844, 38.5374044], [34.3569034, 38.5936058], [34.2977529, 38.599227], [34.2860165, 38.6164917], [34.240312, 38.6262637], [34.2440774, 38.6513374], [34.1750142, 38.6430466], [34.1614031, 38.6194496], [34.1418283, 38.6548648], [34.1176368, 38.6468871], [34.0518909, 38.6506501], [33.9290661, 38.6356882], [33.8930075, 38.6683583], [33.9023029, 38.6868767], [33.8936045, 38.7184168], [33.8776464, 38.6958945], [33.8325283, 38.7145346], [33.7903054, 38.7152876], [33.7048946, 38.6408874], [33.670875, 38.6374952], [33.6436035, 38.6887577], [33.6238785, 38.6947093], [33.5551667, 38.6757357], [33.3593413, 38.6728587]]]}}]}