{"type": "FeatureCollection", "features": [{"type": "Feature", "properties": {"slug": "al-qunaytrah", "members": 1, "country": "Syria", "input_hash": "8806ca650e79236b"}, "geometry": {"type": "Polygon", "coordinates": [[[35.8955528, 33.2986063], [35.8124617, 33.3629302], [35.7733352, 33.3356317], [35.813197, 33.3169602], [35.7774064, 33.2767315], [35.8150621, 33.2449606], [35.8171568, 33.2031106], [35.8376806, 33.1930585], [35.8444429, 33.167612], [35.818007, 33.1273686], [35.816977, 33.1129915], [35.850451, 33.102351], [35.8713235, 32.9814186], [35.8950234, 32.9448773], [35.8651036, 32.91147], [35.8854553, 32.9027176], [35.8998425, 32.8790705], [35.9424962, 32.9130563], [35.9338833, 32.9608316], [35.9672157, 32.9638833], [35.9866635, 32.9486086], [35.9847194, 32.9738842], [35.9458305, 33.0280524], [35.9608318, 33.0961074], [35.9811093, 33.1294398], [35.9516606, 33.15944], [35.9636078, 33.2477725], [35.9188843, 33.2561027], [35.8849936, 33.2847218], [35.8955528, 33.2986063]]]}}]}