{"type": "FeatureCollection", "features": [{"type": "Feature", "properties": {"slug": "albany-ga", "members": 5, "country": "United States", "input_hash": "4512d4e1e08ba032"}, "geometry": {"type": "Polygon", "coordinates": [[[-84.138235, 31.4425439], [-84.1535263, 31.4135269], [-84.178032, 31.409857], [-84.1786423, 31.3916123], [-84.1823307, 31.3990402], [-84.1953497, 31.3918395], [-84.200585, 31.3554721], [-84.2253944, 31.3560912], [-84.239559, 31.3383017], [-84.2676574, 31.3414931], [-84.2766635, 31.3290866], [-84.311005, 31.3238132], [-84.314804, 31.312458], [-84.3404189, 31.3053598], [-84.3355058, 31.2918501], [-84.341003, 31.277447], [-84.3595084, 31.2596259], [-84.3660103, 31.2400199], [-84.405846, 31.219109], [-84.404026, 31.1998844], [-84.412277, 31.188889], [-84.4197133, 31.1863999], [-84.4201993, 31.197684], [-84.4825231, 31.1568455], [-84.4804803, 31.1393679], [-84.506798, 31.1236919], [-84.500267, 31.116486], [-84.5083007, 31.0786815], [-84.5424746, 31.0790943], [-84.5368837, 31.256136], [-84.6412406, 31.2588467], [-84.6387002, 31.3227718], [-84.627136, 31.3409453], [-84.6367371, 31.34118], [-84.6354906, 31.4338098], [-84.5463061, 31.4319102], [-84.5460689, 31.4406693], [-84.5243637, 31.4314643], [-84.5237859, 31.4400589], [-84.5134599, 31.4396145], [-84.5136674, 31.4309546], [-84.4908483, 31.4278429], [-84.4906337, 31.4352984], [-84.4793872, 31.4353212], [-84.4814603, 31.4488257], [-84.4475452, 31.4480165], [-84.4480639, 31.4367236], [-84.4298810117555, 31.43666578861483], [-84.412697, 31.458714], [-84.426498, 31.480448], [-84.422417, 31.492367], [-84.455116, 31.548996], [-84.45030120921601, 31.621482901407067], [-84.5467584, 31.621173], [-84.536476, 31.646475], [-84.53495, 31.679348], [-84.569252, 31.755064], [-84.5630092, 31.7707532], [-84.6030678, 31.7718227], [-84.5997501, 31.9215952], [-84.4532283, 31.9191203], [-84.4531235, 31.9262105], [-84.4451781, 31.9261216], [-84.4438621, 31.9663818], [-84.342331, 31.873873], [-84.337646, 31.916344], [-83.9224547, 31.9120329], [-83.9325542, 31.8951956], [-83.926903, 31.864391], [-83.936531, 31.857927], [-83.937454, 31.844692], [-83.855423, 31.836683], [-83.855782, 31.819803], [-83.845535, 31.819426], [-83.845085, 31.828094], [-83.827103, 31.809528], [-83.81797, 31.812788], [-83.798447, 31.800158], [-83.796692, 31.623163], [-83.7021733, 31.621986], [-83.6993462, 31.603156], [-83.6691303, 31.5938916], [-83.6696359, 31.5698636], [-83.6493872, 31.5680398], [-83.6506849, 31.4847465], [-83.6658437, 31.4849681], [-83.6666885, 31.4341784], [-83.6517827, 31.4339212], [-83.6540907, 31.3307836], [-83.7138707, 31.331741], [-83.7141395, 31.3184613], [-83.758888, 31.319002], [-83.759018, 31.332241], [-83.9994004, 31.3350154], [-83.9979482186954, 31.443754858291292], [-84.138235, 31.4425439]], [[-83.944527, 31.849649], [-83.94558677166279, 31.849460333014964], [-83.939102, 31.847416], [-83.944527, 31.849649]], [[-84.03997346742631, 31.633902150492613], [-84.0409298, 31.6329458], [-84.0431961, 31.6234974], [-84.03997346742631, 31.633902150492613]], [[-84.0184327, 31.6502511], [-84.015892, 31.651955], [-84.01885037785578, 31.65017879096991], [-84.0184327, 31.6502511]], [[-84.012474, 31.6633753], [-84.01691997433115, 31.6725803796396], [-84.0161553, 31.6692377], [-84.012474, 31.6633753]], [[-84.03230327657214, 31.714839899827865], [-84.0318331, 31.7137512], [-84.025787, 31.710264], [-84.03230327657214, 31.714839899827865]], [[-84.03181855436931, 31.71662291700273], [-84.03286, 31.716129], [-84.03267935354765, 31.715710710843904], [-84.03181855436931, 31.71662291700273]], [[-84.00378121397961, 31.754144192164773], [-84.004257, 31.753798], [-84.0043392, 31.7487243], [-84.00378121397961, 31.754144192164773]], [[-84.00674723983195, 31.80300693439983], [-84.0082409, 31.802238], [-84.00838149686929, 31.801033017523256], [-84.00674723983195, 31.80300693439983]], [[-83.994095, 31.803608], [-84.0045041, 31.8041617], [-84.0049555159614, 31.803929311623605], [-83.994095, 31.803608]], [[-83.976589, 31.8069603], [-83.97869466629663, 31.809120666927694], [-83.9761513, 31.8036614], [-83.976589, 31.8069603]], [[-83.972839, 31.827971], [-83.9798059, 31.8115059], [-83.97968674417115, 31.81125013523792], [-83.972839, 31.827971]], [[-83.96747951540732, 31.834292513911244], [-83.9682175, 31.8339313], [-83.972839, 31.827971], [-83.96747951540732, 31.834292513911244]], [[-83.9589938, 31.834582], [-83.9655325, 31.8352455], [-83.96635781262432, 31.83484154251363], [-83.9589938, 31.834582]], [[-83.94630922027662, 31.849331718326916], [-83.947212, 31.849171], [-83.948906, 31.8445493], [-83.94630922027662, 31.849331718326916]], [[-84.3059164, 31.6910863], [-84.30595588704301, 31.691086491743842], [-84.3058837, 31.6832407], [-84.3059164, 31.6910863]]]}}]}