{"type":"FeatureCollection","features":[{"type":"Feature","properties":{"slug":"alcobaca","member_count":14,"matched_count":14,"unmatched":[],"source":"Overture Maps division_area (CC-BY 4.0)"},"geometry":{"type":"MultiPolygon","coordinates":[[[[-9.2842552,39.2066644],[-9.2754196,39.1932889],[-9.2917569,39.1796247],[-9.3222841,39.176903],[-9.3232881,39.1848636],[-9.3040755,39.2004921],[-9.2964553,39.1973084],[-9.2842552,39.2066644]]],[[[-9.0932747,39.5183289],[-9.0734756,39.511042],[-9.0613048,39.5194496],[-9.0669066,39.5401115],[-9.0604628,39.5600537],[-9.0683488,39.5733633],[-8.9985446,39.5727192],[-8.9890952,39.5839754],[-8.9982145,39.6150483],[-8.9849123,39.6101739],[-8.9832377,39.6291225],[-8.9709567,39.6447111],[-9.0078628,39.6486633],[-9.0476931,39.6351535],[-9.0729483,39.6478031],[-9.0398396,39.7415382],[-8.996545,39.7137141],[-8.9846952,39.7130471],[-8.9723108,39.727398],[-8.9664665,39.7033484],[-8.9342596,39.6884735],[-8.9405217,39.6865338],[-8.9386413,39.6729233],[-8.9146843,39.6681615],[-8.9111618,39.6368745],[-8.9335624,39.6261951],[-8.9131721,39.58325],[-8.9033469,39.5694269],[-8.8811392,39.578797],[-8.8654265,39.5639756],[-8.8891718,39.5354043],[-8.8858278,39.5134096],[-8.8947462,39.506634],[-8.9034209,39.4660075],[-8.9457121,39.3910366],[-8.9685807,39.3942899],[-8.9835786,39.3848228],[-8.9907593,39.3972311],[-8.986496,39.4035623],[-8.997334,39.4025087],[-9.0131196,39.4159003],[-8.9853835,39.4332796],[-8.9861168,39.4527252],[-9.0124245,39.4547569],[-9.0220919,39.4642838],[-9.0648568,39.4745245],[-9.0816953,39.4740116],[-9.1006953,39.4577271],[-9.1205773,39.4618767],[-9.1241517,39.4789186],[-9.1499732,39.5013081],[-9.141354,39.5138187],[-9.1452737,39.52137],[-9.115279,39.5444767],[-9.1020402,39.544612],[-9.0932747,39.5183289]]]]}}]}