{"type": "FeatureCollection", "features": [{"type": "Feature", "properties": {"slug": "aleppo", "members": 1, "country": "Syria", "input_hash": "2f723d76a249e228"}, "geometry": {"type": "Polygon", "coordinates": [[[36.843598, 36.2405557], [36.8258276, 36.2097167], [36.8714946, 36.1814364], [36.9091528, 36.1805704], [36.9422405, 36.1906845], [36.9822591, 36.1770025], [36.9997948, 36.1883027], [37.005288, 36.1723165], [36.995396, 36.1323107], [37.0034319, 36.1119409], [36.975093, 36.1197242], [36.9267704, 36.0886569], [36.9134634, 36.0518072], [36.8720104, 36.0326112], [36.8546681, 35.9933822], [36.8805495, 35.9352132], [36.898818, 35.9409432], [36.9147367, 35.9047583], [36.9402509, 35.9064759], [36.9474947, 35.8969418], [36.9429981, 35.8845615], [36.9663842, 35.8719397], [36.9708331, 35.8502742], [36.9869374, 35.8397218], [36.9732366, 35.8177068], [36.9789107, 35.8077691], [37.0072598, 35.8249855], [37.0242043, 35.8224329], [37.0310237, 35.8412431], [37.0719258, 35.8355302], [37.0668244, 35.8284731], [37.0791418, 35.8193121], [37.0982621, 35.835478], [37.1178595, 35.8334407], [37.1126028, 35.8108869], [37.1439629, 35.8067841], [37.1411712, 35.7819531], [37.121798, 35.7865002], [37.1039344, 35.7661847], [37.1205251, 35.7559731], [37.0977395, 35.7420587], [37.0753013, 35.7409552], [37.0755358, 35.728662], [37.1189456, 35.7268447], [37.107651, 35.7078733], [37.0806209, 35.690589], [37.1207731, 35.672792], [37.1140978, 35.6597896], [37.1303376, 35.6533753], [37.1239563, 35.6402831], [37.1279975, 35.6295302], [37.1423181, 35.623548], [37.109782, 35.5926429], [37.1513816, 35.58416], [37.1812548, 35.5590709], [37.2132123, 35.5674377], [37.2162846, 35.5512858], [37.2220948, 35.5657972], [37.2346776, 35.5677067], [37.2510755, 35.5404786], [37.2613162, 35.5376989], [37.283997, 35.5396763], [37.301766, 35.5550854], [37.3046489, 35.5464934], [37.3254671, 35.5485501], [37.3238535, 35.5343603], [37.3149014, 35.5310321], [37.328718, 35.5188861], [37.336403, 35.5228899], [37.3472628, 35.5141268], [37.3693577, 35.5221494], [37.3865496, 35.5155581], [37.3841324, 35.5431081], [37.4187113, 35.5625308], [37.4317774, 35.5592486], [37.4299964, 35.5995098], [37.3945269, 35.6709945], [37.3606023, 35.6957786], [37.3613863, 35.7473033], [37.329254, 35.7651518], [37.3324082, 35.7813773], [37.3522137, 35.7893496], [37.3444031, 35.8113128], [37.3189114, 35.825563], [37.313666, 35.8649736], [37.279677, 35.8800487], [37.2809318, 36.0090517], [37.2611478, 36.0187193], [37.2470616, 36.0400292], [37.2116764, 36.0350759], [37.2158821, 36.0599199], [37.2417386, 36.0864381], [37.2654493, 36.1475052], [37.2772725, 36.1589749], [37.3498523, 36.1907976], [37.42242, 36.1978333], [37.4166479, 36.2117022], [37.3960271, 36.2188002], [37.3422267, 36.215461], [37.3412826, 36.2536075], [37.304826, 36.3142677], [37.3277845, 36.3663224], [37.3131075, 36.3802131], [37.2440461, 36.3398223], [37.2099284, 36.3737444], [37.1841792, 36.3691313], [37.1478514, 36.3463487], [36.9934884, 36.326837], [36.9857688, 36.2816786], [36.9676162, 36.2915377], [36.9439034, 36.2919358], [36.9305424, 36.3084083], [36.9216413, 36.3009003], [36.8614096, 36.3204564], [36.8564314, 36.32872], [36.8657655, 36.3442249], [36.8602294, 36.3563397], [36.7991217, 36.3455099], [36.7966541, 36.3326156], [36.77333, 36.3244324], [36.7755499, 36.305274], [36.843598, 36.2405557]]]}}]}