{"type":"FeatureCollection","features":[{"type":"Feature","properties":{"slug":"alexandria-la","member_count":2,"matched_count":2,"unmatched":[],"source":"Overture Maps division_area (CC-BY 4.0)"},"geometry":{"type":"Polygon","coordinates":[[[-92.1958473,31.4778099],[-92.188614,31.468147],[-92.181702,31.475948],[-92.163956,31.471947],[-92.168655,31.456402],[-92.155197,31.450092],[-92.161507,31.434992],[-92.149475,31.405849],[-92.125755,31.390011],[-92.124611,31.379974],[-92.084305,31.365585],[-92.07235,31.343279],[-92.08786,31.339088],[-92.114863,31.31166],[-92.146198,31.301693],[-92.162155,31.300033],[-92.176738,31.311206],[-92.180356,31.328399],[-92.19335,31.333904],[-92.209047,31.327072],[-92.220645,31.332504],[-92.23323,31.321545],[-92.233811,31.151496],[-92.224539,31.143563],[-92.234608,31.128666],[-92.216729,30.991373],[-92.212451,30.975443],[-92.205046,30.973607],[-92.208376,30.962221],[-92.330798,30.963304],[-92.325493,30.970525],[-92.344407,30.970627],[-92.341763,30.981503],[-92.38819,31.00156],[-92.408677,30.993257],[-92.418651,30.974968],[-92.48033,30.952271],[-92.482706,30.913795],[-92.518976,30.893081],[-92.548091,30.90313],[-92.567254,30.896237],[-92.8240061,30.8920314],[-92.8295291,31.2520385],[-92.8461069,31.2528691],[-92.8463343,31.2740216],[-92.8626925,31.2741708],[-92.8626461,31.2884623],[-92.8794799,31.2884788],[-92.8797551,31.3174669],[-92.9303675,31.3244697],[-92.9305507,31.3321906],[-92.964387,31.3324101],[-92.9643009,31.3396524],[-92.9812202,31.3393873],[-92.9811771,31.3466556],[-92.9471116,31.3467908],[-92.9472844,31.3677983],[-92.9132894,31.3683335],[-92.9134158,31.3897153],[-92.8882653,31.3897205],[-92.8883657,31.4040267],[-92.8714421,31.4040422],[-92.871564,31.4188108],[-92.8468893,31.4187595],[-92.8467538,31.4335646],[-92.8131027,31.4410036],[-92.8133994,31.4548551],[-92.7957981,31.4553486],[-92.7790638,31.4764856],[-92.7616735,31.4764221],[-92.7614436,31.4862386],[-92.7188188,31.5176034],[-92.759811,31.548965],[-92.756187,31.558134],[-92.803032,31.597755],[-92.899727,31.624878],[-92.903152,31.666815],[-92.926308,31.668346],[-92.937836,31.680973],[-92.946884,31.675383],[-92.960968,31.680676],[-92.959274,31.706247],[-92.973529,31.708922],[-92.620216,31.710152],[-92.619286,31.797747],[-92.362608,31.796633],[-92.361287,31.78136],[-92.343925,31.76931],[-92.344932,31.759174],[-92.336841,31.76055],[-92.358311,31.743573],[-92.350026,31.737757],[-92.358429,31.733525],[-92.35867,31.723001],[-92.368711,31.722288],[-92.373055,31.702237],[-92.354827,31.700412],[-92.346911,31.691392],[-92.359424,31.683016],[-92.350145,31.680736],[-92.356292,31.670343],[-92.365728,31.672283],[-92.361958,31.659847],[-92.369048,31.659408],[-92.360586,31.642913],[-92.369192,31.631806],[-92.355255,31.637593],[-92.354165,31.629732],[-92.345808,31.630181],[-92.352593,31.623626],[-92.366283,31.628024],[-92.368817,31.616914],[-92.384441,31.619505],[-92.34297,31.595824],[-92.305413,31.588368],[-92.322787,31.576336],[-92.299962,31.567017],[-92.300982,31.547122],[-92.280094,31.541528],[-92.297585,31.535083],[-92.275547,31.53062],[-92.275088,31.536087],[-92.269663,31.529534],[-92.27987,31.514241],[-92.275174,31.506017],[-92.282993,31.502788],[-92.276623,31.495385],[-92.255017,31.496343],[-92.249815,31.506164],[-92.238616,31.500138],[-92.24827,31.48448],[-92.24119,31.477621],[-92.230097,31.477369],[-92.239158,31.490426],[-92.216273,31.492143],[-92.211359,31.480489],[-92.1958473,31.4778099]]]}}]}