{"type": "FeatureCollection", "features": [{"type": "Feature", "properties": {"slug": "almaty", "members": 10, "country": "Kazakhstan", "input_hash": "f91678df9110be01"}, "geometry": {"type": "MultiPolygon", "coordinates": [[[[76.9931102, 43.0455871], [76.966515, 43.0496182], [76.9434791, 43.0337707], [76.9367805, 43.0443288], [76.966699, 43.0650833], [76.9566014, 43.0820632], [76.9053525, 43.0801478], [76.8951548, 43.1260948], [76.864186, 43.1326156], [76.8535536, 43.131691], [76.8498297, 43.122318], [76.8342411, 43.123173], [76.8356839, 43.1338905], [76.8080701, 43.1357373], [76.8084227, 43.1465653], [76.7995331, 43.1464111], [76.7984259, 43.1543611], [76.775216, 43.1596014], [76.7888089, 43.1627927], [76.7927936, 43.1751967], [76.7897585, 43.1964876], [76.7786456, 43.1997841], [76.7721282, 43.2178697], [76.7803917, 43.2184238], [76.7698801, 43.2300184], [76.7975652, 43.2332104], [76.8094232, 43.2380975], [76.8578359, 43.2521616], [76.85951292508959, 43.25320919212139], [76.7862819, 43.2321214], [76.7758223, 43.2494904], [76.793469, 43.2503578], [76.7867066, 43.2660282], [76.7998237, 43.274341], [76.7968572, 43.2855611], [76.7853485, 43.2815824], [76.7546721, 43.2965912], [76.7422444, 43.315219], [76.7723925, 43.3165043], [76.8008578, 43.3293937], [76.8120926, 43.3547135], [76.8440646, 43.3543734], [76.8571446, 43.3332345], [76.8657904, 43.3468975], [76.875197, 43.3465285], [76.880308, 43.3278104], [76.9057473, 43.3520071], [76.9206832, 43.3483284], [76.9089198, 43.3519967], [76.9291996, 43.3798218], [76.96377651121917, 43.379070317505104], [76.9860134, 43.4037657], [77.0027312, 43.3991009], [77.0052393, 43.3886565], [77.0132947, 43.4044033], [77.0412493, 43.4032193], [77.0405962, 43.4211039], [77.0471889, 43.4210398], [77.0396969, 43.4347946], [77.0295471, 43.4359463], [77.0499276, 43.5006821], [77.0615524, 43.506615], [77.0702248, 43.544809], [77.0639342, 43.5600189], [77.0278076, 43.5535811], [77.0204513, 43.5710409], [77.0425154, 43.569541], [77.053154, 43.5766991], [77.0341883, 43.5913742], [77.0387745, 43.5953089], [77.0894619, 43.5843011], [77.0971291, 43.6044419], [77.1248713, 43.5946491], [77.1264675, 43.6105561], [77.1444847, 43.6048964], [77.1641789, 43.6147302], [77.176596, 43.611021], [77.204163, 43.6372042], [77.1967512, 43.6609292], [77.113718, 43.6521613], [77.1202132, 43.6709133], [77.1360823, 43.6818442], [77.1449628, 43.706088], [77.1358886, 43.7081076], [77.1740893, 43.7146671], [77.1938913, 43.7007286], [77.2158215, 43.7029722], [77.2141489, 43.6821001], [77.2507134, 43.6922788], [77.2467816, 43.7183362], [77.2568724, 43.7264711], [77.2436857, 43.7660448], [77.2673851, 43.772018], [77.2785261, 43.7668499], [77.2856572, 43.7735739], [77.2952422, 43.7631652], [77.3622783, 43.7613291], [77.3640523, 43.7440369], [77.3567234, 43.7403513], [77.3534838, 43.7165054], [77.3350728, 43.6924848], [77.3434715, 43.683702], [77.3304806, 43.6506859], [77.3348029, 43.6196924], [77.2527398, 43.5921131], [77.2441543, 43.5766691], [77.2484991, 43.5614563], [77.2385284, 43.5497144], [77.2432566, 43.5226338], [77.2116059, 43.5244439], [77.2051046, 43.5140908], [77.1363474, 43.5002585], [77.1529544, 43.4483516], [77.1531427, 43.4222775], [77.1762589, 43.4241759], [77.1819382, 43.4017533], [77.2082242, 43.4034997], [77.2172719, 43.3881777], [77.2545869, 43.3868957], [77.2465523, 43.3738085], [77.2460704, 43.3430843], [77.2645456, 43.341765], [77.2638516, 43.3327482], [77.2854758, 43.3225574], [77.3123964, 43.3247199], [77.3231831, 43.3081233], [77.358805, 43.3020182], [77.3653555, 43.3078015], [77.3856429, 43.2950902], [77.3853638, 43.3072514], [77.4077424, 43.3202638], [77.4212946, 43.2872909], [77.480122, 43.2624953], [77.4810993, 43.2517491], [77.4885974, 43.2506106], [77.4986982, 43.2711754], [77.5063414, 43.2726168], [77.5285089, 43.2479967], [77.5572629, 43.2448263], [77.5630086, 43.1312208], [77.6566088, 43.1243253], [77.7665938, 43.145487], [77.8204149, 43.1449422], [77.8277497, 43.1297087], [77.8888469, 43.1520967], [77.8959442, 43.1630381], [77.9440665, 43.1646111], [78.019023, 43.1865574], [78.0480536, 43.1659566], [78.05864, 43.145941], [78.0855185, 43.1323839], [78.0923212, 43.1152965], [78.1175344, 43.1131082], [78.1740776, 43.1339391], [78.2634925, 43.1248696], [78.3078788, 43.1285262], [78.3169337, 43.1173544], [78.3075155, 43.1079361], [78.3174405, 43.0979998], [78.2732324, 43.0915215], [78.223535, 43.0683691], [78.1689271, 43.0754148], [78.1417655, 43.0868183], [78.1265547, 43.0729862], [78.1480442, 43.0250715], [78.1005783, 43.022428], [78.0408859, 43.003719], [77.9891607, 43.0130406], [77.9060571, 43.051035], [77.7477907, 43.0491939], [77.6848949, 43.0563147], [77.5155009, 43.0252292], [77.4912518, 43.0291227], [77.4303746, 43.0044588], [77.3862889, 42.9731783], [77.2807628, 42.9726149], [77.271919, 42.9899549], [77.2341473, 43.0109303], [77.2286716, 43.0282668], [77.21771, 43.0346486], [77.1613031, 43.0308551], [77.1246789, 43.0134663], [77.1004761, 43.0115178], [77.11094719890704, 43.11032083192312], [77.0872858, 43.1164914], [77.0800909, 43.1153912], [77.0800349, 43.1011416], [77.089632, 43.0709378], [77.0771522, 43.0337996], [77.0569448, 43.0328438], [76.9948559, 43.0510459], [76.9931102, 43.0455871]], [[76.9192387459419, 43.34167138376259], [76.9203272, 43.343218], [76.9206832, 43.3483284], [76.9192387459419, 43.34167138376259]], [[76.9502474, 43.2280692], [76.94480202268134, 43.27037346401324], [76.9483228, 43.2425556], [76.88299789500904, 43.23789022872126], [76.9483395, 43.2424111], [76.9502474, 43.2280692]], [[76.9247587, 43.2155994], [76.92499063037887, 43.21555784441172], [76.94333, 43.2276436], [76.9247587, 43.2155994]], [[76.99083150226404, 43.05748863933914], [76.9890758, 43.0589115], [76.9867942, 43.0587222], [76.99083150226404, 43.05748863933914]], [[76.9909436, 43.0533243], [76.9916721, 43.0568074], [76.99112438682482, 43.05725127909405], [76.9909436, 43.0533243]], [[76.90910910945507, 43.32727788671704], [76.8890272, 43.2880579], [76.88597783334659, 43.26882443340836], [76.90910910945507, 43.32727788671704]], [[76.88618023302969, 43.26630845077524], [76.8840143, 43.2581015], [76.8687775, 43.2579855], [76.86770436698976, 43.257432251340326], [76.8831639, 43.2576896], [76.90914075531994, 43.265707856370696], [76.8868849, 43.2596187], [76.88618023302969, 43.26630845077524]], [[76.94287340412836, 43.27022106661596], [76.9186366, 43.2683059], [76.91609821803765, 43.26761140390111], [76.94287340412836, 43.27022106661596]], [[76.8765504, 43.2365656], [76.87368985020723, 43.23485055562928], [76.88272489326138, 43.23783414089872], [76.8765504, 43.2365656]], [[76.86823332811012, 43.23907052133353], [76.86749880856755, 43.24072999027674], [76.8672536, 43.2397728], [76.86823332811012, 43.23907052133353]], [[76.8707922939761, 43.233289157959014], [76.86987692090197, 43.2353572216386], [76.8699964, 43.2338443], [76.8707922939761, 43.233289157959014]], [[76.86250594200497, 43.19501754841348], [76.86448275512139, 43.19485518118508], [76.8710145, 43.1975671], [76.86250594200497, 43.19501754841348]], [[76.8963107262749, 43.14641732604132], [76.896033, 43.146819], [76.89593820295573, 43.14681538032301], [76.8963107262749, 43.14641732604132]], [[76.8413797, 43.1976624], [76.844959, 43.200343], [76.84136759480259, 43.19766858337063], [76.8413797, 43.1976624]], [[76.82165737278447, 43.22491926520427], [76.8215117, 43.22516], [76.8144793, 43.2299348], [76.82165737278447, 43.22491926520427]], [[77.0149571, 43.3073812], [77.0413465, 43.3378857], [77.0131881, 43.3060061], [76.99114234771966, 43.29695604661421], [76.9989479, 43.2944064], [77.0149571, 43.3073812]], [[77.0968506, 43.183981], [77.0688096, 43.1969272], [77.0717578, 43.1945221], [77.0968506, 43.183981]], [[77.10328414782026, 43.17545986114237], [77.0986077, 43.1760535], [77.1028094, 43.1751876], [77.10328414782026, 43.17545986114237]], [[77.1018636, 43.3844837], [77.0775775, 43.3713476], [77.10211064635982, 43.38397584932671], [77.1018636, 43.3844837]], [[76.98361931020659, 43.29540442376786], [76.99073259004865, 43.29700644516415], [76.9899996, 43.2970966], [76.98361931020659, 43.29540442376786]], [[76.9594675, 43.2929571], [76.93313593670386, 43.29657854533482], [76.97366725958462, 43.29316306698347], [76.9594675, 43.2929571]], [[76.9662138, 43.2720654], [76.96180701251684, 43.271717180316145], [76.96647674449206, 43.272652328084725], [76.9662138, 43.2720654]], [[76.9300323, 43.3026393], [76.93011283475353, 43.30248203243624], [76.93013888432337, 43.30426234612811], [76.9300323, 43.3026393]], [[76.93124680003393, 43.321133479212854], [76.932943, 43.3318982], [76.93275256301577, 43.344062956083825], [76.93124680003393, 43.321133479212854]], [[76.9328684, 43.3458269], [76.93285580597579, 43.3456351205563], [76.9372421, 43.3513346], [76.9328684, 43.3458269]], [[76.942803, 43.35872], [76.9496163, 43.3612346], [76.9498361074177, 43.36149504645142], [76.942803, 43.35872]], [[76.9540089, 43.3711332], [76.9636629, 43.3782794], [76.96370552220047, 43.37857611932667], [76.9540089, 43.3711332]]], [[[77.378551, 44.3379936], [77.3706796, 44.3043793], [77.3907092, 44.274786], [77.3882425, 44.2659545], [77.3384345, 44.2164601], [77.3578528, 44.2118418], [77.3527694, 44.1613256], [77.3090013, 44.1894883], [77.2868023, 44.1122857], [77.2672605, 44.0747271], [77.1680058, 44.1046212], [77.0834056, 44.0532045], [77.0539058, 44.1297467], [76.9848982, 44.1297993], [76.9526264, 44.1704058], [76.9085256, 44.1847235], [76.9114788, 44.205919], [76.8923391, 44.2278942], [76.897124, 44.2436372], [76.8616505, 44.2512576], [76.8436628, 44.2401223], [76.8202107, 44.2489538], [76.789345, 44.2369324], [76.7830832, 44.2455571], [76.7525129, 44.2520847], [76.7544623, 44.2663804], [76.7429433, 44.2845656], [76.8812761, 44.3484824], [76.9033801, 44.333801], [76.9782791, 44.3317144], [77.0648127, 44.3621968], [77.1797674, 44.3728176], [77.209182, 44.3441306], [77.2922537, 44.357367], [77.2945079, 44.3487766], [77.378551, 44.3379936]]]]}}]}