{"type":"FeatureCollection","features":[{"type":"Feature","properties":{"slug":"almetyevsk","member_count":1,"matched_count":1,"unmatched":["[recovered via metro-name fallback: Almetyevsk]"],"source":"Overture Maps division_area (CC-BY 4.0)"},"geometry":{"type":"Polygon","coordinates":[[[52.4274178,54.8781536],[52.4452152,54.8602247],[52.4624232,54.8691454],[52.4259907,54.8832213],[52.4289886,54.8877534],[52.4193645,54.9102704],[52.4218893,54.9038798],[52.4027453,54.910797],[52.393819,54.9034102],[52.3762258,54.9116736],[52.4044256,54.9360364],[52.3922038,54.939031],[52.3932261,54.9501169],[52.3522273,54.9350453],[52.3046006,54.9444922],[52.3021804,54.9324208],[52.3152133,54.9264383],[52.3000277,54.9188331],[52.2934009,54.9192336],[52.2968537,54.9270703],[52.2779767,54.9249107],[52.2708567,54.9434861],[52.2702675,54.9253075],[52.2533,54.9371949],[52.2385209,54.9238847],[52.2267866,54.930035],[52.2035972,54.922921],[52.2315918,54.9215345],[52.2264642,54.8570839],[52.2461399,54.8500741],[52.258985,54.8744314],[52.2655054,54.8715495],[52.2647851,54.8554913],[52.2922533,54.8675831],[52.3037123,54.8601716],[52.3343297,54.873198],[52.334984,54.854295],[52.3584733,54.8573954],[52.3521321,54.8664485],[52.3655061,54.8738368],[52.3918114,54.8675713],[52.3990686,54.8776286],[52.3896866,54.8840621],[52.3983429,54.8896066],[52.4168987,54.8848483],[52.4090301,54.8775834],[52.4274178,54.8781536]]]}}]}