{"type": "FeatureCollection", "features": [{"type": "Feature", "properties": {"slug": "almeria", "members": 8, "country": "Spain", "input_hash": "7f59762831ad7300"}, "geometry": {"type": "MultiPolygon", "coordinates": [[[[-3.0310504, 35.9414952], [-3.0331289, 35.9381569], [-3.0372135, 35.9391303], [-3.0310504, 35.9414952]]], [[[-3.0305974, 35.9418862], [-3.0307207, 35.941904], [-3.0305569, 35.9419359], [-3.0305974, 35.9418862]]], [[[-3.0739529, 36.8246839], [-3.0428071, 36.8318816], [-3.0290073, 36.8444414], [-3.0432712, 36.8791237], [-3.0697154, 36.899637], [-3.0719336, 36.9192867], [-3.0571868, 36.9115421], [-3.0313164, 36.9245857], [-3.0293375, 36.9475274], [-2.9904983, 36.9581848], [-2.9762147, 36.9781222], [-2.982511, 37.0059687], [-3.0054972, 37.0229352], [-3.0295767, 37.1132544], [-3.0150117, 37.113284], [-3.0002562, 37.094977], [-2.9489641, 37.0965517], [-2.9469875, 37.1222052], [-2.9305808, 37.139801], [-2.9291461, 37.1565664], [-2.8952999, 37.1670513], [-2.8809858, 37.1871031], [-2.8749632, 37.2314552], [-2.8453853, 37.2792213], [-2.8193636, 37.2783279], [-2.8148811, 37.2708933], [-2.7790038, 37.2626557], [-2.7782095, 37.2489979], [-2.7590314, 37.2267283], [-2.7399865, 37.2287554], [-2.7330233, 37.2373212], [-2.6927326, 37.2172301], [-2.6601153, 37.2119941], [-2.6656506, 37.2853295], [-2.6508711, 37.3123285], [-2.6546007, 37.340607], [-2.6371619, 37.3433511], [-2.6350881, 37.3647234], [-2.6431884, 37.3759432], [-2.6369115, 37.3929345], [-2.5141543, 37.4795275], [-2.4575217, 37.4908274], [-2.4563233, 37.5094257], [-2.4237783, 37.5128768], [-2.4117006, 37.5249404], [-2.3972174, 37.5133842], [-2.3811501, 37.5229184], [-2.3585107, 37.5222929], [-2.3557292, 37.5469926], [-2.3742985, 37.5573498], [-2.3674572, 37.5630459], [-2.3749313, 37.5778318], [-2.3678957, 37.5915759], [-2.3759805, 37.6122597], [-2.3887932, 37.6180053], [-2.3912701, 37.6324847], [-2.3595653, 37.6212664], [-2.3454333, 37.6292197], [-2.3167041, 37.6218368], [-2.3089368, 37.6334277], [-2.3199555, 37.6480935], [-2.3256619, 37.6815478], [-2.2767849, 37.7762186], [-2.3017747, 37.8082839], [-2.2893872, 37.8314801], [-2.2949504, 37.8763161], [-2.2885214, 37.8851368], [-2.2653878, 37.8809475], [-2.2507826, 37.8971775], [-2.2076727, 37.9165701], [-2.1720119, 37.8886894], [-2.1232071, 37.9004485], [-2.1078311, 37.8812702], [-2.0845713, 37.8723224], [-2.0704211, 37.8844868], [-2.0217647, 37.8685106], [-1.9947016, 37.8804769], [-1.9742241, 37.8684719], [-1.9956451, 37.8402346], [-2.0088359, 37.7749513], [-1.9958323, 37.7280473], [-2.0076536, 37.7197925], [-2.0126512, 37.7006008], [-2.0118137, 37.6722482], [-1.9830694, 37.6389442], [-1.976807, 37.6187279], [-1.9552788, 37.6008645], [-1.9537832, 37.5879535], [-1.84509, 37.455016], [-1.8085627, 37.4335331], [-1.8117564, 37.4515563], [-1.7370751, 37.4426335], [-1.6298, 37.3755316], [-1.6446144, 37.3713959], [-1.6535231, 37.3541515], [-1.6652516, 37.3581205], [-1.6716347, 37.3567372], [-1.676983, 37.3528599], [-1.7079218, 37.3045044], [-1.7590035, 37.2630906], [-1.774165, 37.2400895], [-1.8010057, 37.2247884], [-1.8219239, 37.1771804], [-1.8330879, 37.1193331], [-1.8489851, 37.0963309], [-1.8494591, 37.0683352], [-1.8755838, 37.0362261], [-1.8775981, 37.0145343], [-1.9011647, 36.9868759], [-1.8938576, 36.9735136], [-1.8969187, 36.9783743], [-1.9007808, 36.9786367], [-1.8956079, 36.9486669], [-1.9040047, 36.9374487], [-1.9405593, 36.9366004], [-1.9673945, 36.8988771], [-1.980183, 36.9029918], [-1.9921868, 36.8936897], [-2.0038959, 36.8809599], [-2.0058675, 36.8607854], [-1.9955865, 36.8503109], [-1.9996535, 36.8398723], [-2.0254011, 36.8349069], [-2.0597705, 36.8099429], [-2.0602485, 36.7777396], [-2.0809448, 36.7656982], [-2.1060295, 36.7628226], [-2.1066429, 36.7521514], [-2.1214177, 36.7461607], [-2.114516, 36.7374289], [-2.1242563, 36.7318838], [-2.1933482, 36.7210714], [-2.270879, 36.803991], [-2.3211558, 36.8343918], [-2.3717452, 36.8407624], [-2.4261772, 36.8109667], [-2.473917, 36.8365166], [-2.4640891, 36.8258869], [-2.4820278, 36.8355578], [-2.5027884, 36.8246638], [-2.5651849, 36.8138013], [-2.5993562, 36.7754836], [-2.6144633, 36.7339203], [-2.649783, 36.70063], [-2.700473, 36.683123], [-2.7634482, 36.6806866], [-2.8165282, 36.706315], [-2.8447819, 36.6957276], [-2.8595033, 36.698964], [-2.8993665, 36.7395041], [-2.9247215, 36.7518873], [-2.9776326, 36.7383474], [-3.0204862, 36.7470265], [-3.0197759, 36.7406716], [-3.0356773, 36.7475598], [-3.1289525, 36.7509993], [-3.1401874, 36.7877914], [-3.0739529, 36.8246839]]], [[[-1.6676055, 37.356399], [-1.6680615, 37.356533], [-1.6679041, 37.3571962], [-1.6676055, 37.356399]]], [[[-1.6525152, 37.3479473], [-1.6514905, 37.3474349], [-1.6517727, 37.3469932], [-1.6525152, 37.3479473]]], [[[-1.6485702, 37.359367], [-1.6486242, 37.3600594], [-1.6478868, 37.3598363], [-1.6485702, 37.359367]]]]}}]}