{"type":"FeatureCollection","features":[{"type":"Feature","properties":{"slug":"almelo","member_count":3,"matched_count":3,"unmatched":[],"source":"Overture Maps division_area (CC-BY 4.0)"},"geometry":{"type":"Polygon","coordinates":[[[6.6260463,52.2899331],[6.6053631,52.2706889],[6.5681914,52.2701437],[6.5499629,52.287802],[6.5532446,52.2991888],[6.5450891,52.3183753],[6.5396518,52.3158032],[6.5358411,52.3156406],[6.5248777,52.3256769],[6.4681896,52.3264623],[6.4907952,52.3493554],[6.5188726,52.3551611],[6.5207929,52.3614149],[6.4990587,52.3635619],[6.4955164,52.3761804],[6.5141083,52.3816651],[6.5085388,52.3921522],[6.5159824,52.4061223],[6.575952,52.4175135],[6.5724696,52.423315],[6.5981477,52.4390294],[6.5963868,52.4548078],[6.562894,52.4457638],[6.5405547,52.450876],[6.5162794,52.4374549],[6.4800147,52.4403259],[6.4485497,52.4603074],[6.4524791,52.4710022],[6.5037732,52.4817217],[6.5054688,52.4909626],[6.601035,52.4794702],[6.6130014,52.4656032],[6.6268208,52.4738313],[6.6495556,52.4730899],[6.653659,52.4878322],[6.6693013,52.4949807],[6.7177068,52.4781316],[6.697748,52.4517797],[6.673334,52.441451],[6.677886,52.4278317],[6.6696731,52.4173675],[6.7134654,52.3764891],[6.7205633,52.3523291],[6.709741,52.3434346],[6.7210106,52.3401277],[6.6969539,52.3298073],[6.7070103,52.3210042],[6.6902295,52.3147924],[6.6909403,52.3083911],[6.6260463,52.2899331]]]}}]}