{"type":"FeatureCollection","features":[{"type":"Feature","properties":{"slug":"amersfoort","member_count":7,"matched_count":7,"unmatched":[],"source":"Overture Maps division_area (CC-BY 4.0)"},"geometry":{"type":"Polygon","coordinates":[[[5.4821755,52.1501296],[5.5140795,52.1359231],[5.494695,52.1246979],[5.5077021,52.113897],[5.4790791,52.1174262],[5.4719874,52.1014557],[5.4438067,52.1070746],[5.4296291,52.0959105],[5.4045209,52.1041064],[5.4013322,52.0893335],[5.3405678,52.0950315],[5.2918235,52.1145428],[5.2821383,52.1120629],[5.2719361,52.1270455],[5.2641018,52.1250801],[5.2430651,52.1702773],[5.2238893,52.1653796],[5.220995,52.1782605],[5.2121807,52.1762248],[5.2142324,52.2007863],[5.2229013,52.225261],[5.2659778,52.2819262],[5.3058345,52.2773286],[5.3354615,52.2902184],[5.4028968,52.2495271],[5.4761215,52.2639241],[5.4836903,52.2392435],[5.5129702,52.2357308],[5.5499173,52.2023362],[5.6332674,52.2081666],[5.6256509,52.1927244],[5.5776667,52.194797],[5.5779303,52.1861832],[5.564528,52.1853406],[5.5688914,52.1779087],[5.5544045,52.1756413],[5.5308079,52.1915393],[5.4959339,52.1868561],[5.4724333,52.1628509],[5.4843173,52.1580639],[5.4821755,52.1501296]]]}}]}