{"type": "FeatureCollection", "features": [{"type": "Feature", "properties": {"slug": "anapolis", "members": 1, "country": "Brazil", "input_hash": "21a4aa7605dafa2a"}, "geometry": {"type": "Polygon", "coordinates": [[[-48.9810585, -16.3997195], [-48.9970634, -16.485987], [-48.8679142, -16.3912258], [-48.8566692, -16.40431], [-48.821, -16.398], [-48.801, -16.382], [-48.761, -16.385], [-48.75, -16.375], [-48.762, -16.36], [-48.75, -16.332], [-48.767, -16.307], [-48.773, -16.277], [-48.826, -16.255], [-48.826, -16.237], [-48.848, -16.226], [-48.871, -16.238], [-48.899, -16.235], [-48.921, -16.219], [-48.947, -16.235], [-48.955, -16.231], [-48.96, -16.219], [-48.933, -16.192], [-48.922, -16.163], [-48.942, -16.131], [-48.981, -16.125], [-49.019, -16.142], [-49.023, -16.135], [-49.058, -16.128], [-49.083, -16.14], [-49.099, -16.134], [-49.106, -16.146], [-49.149, -16.124], [-49.152, -16.133], [-49.177, -16.143], [-49.188, -16.14], [-49.192, -16.144], [-49.1666937, -16.1903602], [-49.1547203, -16.1934924], [-49.1566086, -16.2082254], [-49.145, -16.226], [-49.104, -16.222], [-49.096, -16.244], [-49.025, -16.257], [-49.017, -16.271], [-49.042, -16.285], [-49.0424538, -16.3030258], [-49.051882, -16.3107632], [-49.033, -16.325], [-49.033, -16.337], [-49.044, -16.344], [-49.065, -16.35], [-49.074, -16.341], [-49.113, -16.342], [-49.162, -16.331], [-49.168, -16.316], [-49.184, -16.326], [-49.194, -16.347], [-49.183, -16.347], [-49.176, -16.365], [-49.1123866, -16.4274953], [-49.0966924, -16.4158824], [-49.1009066, -16.385589], [-49.0925789, -16.3809207], [-49.0791035, -16.3883935], [-49.0659985, -16.3760203], [-49.049, -16.377], [-49.041, -16.398], [-49.023, -16.412], [-49.011, -16.398], [-48.9810585, -16.3997195]]]}}]}