{"type":"FeatureCollection","features":[{"type":"Feature","properties":{"slug":"ankara","member_count":26,"matched_count":26,"unmatched":[],"source":"Overture Maps division_area (CC-BY 4.0)"},"geometry":{"type":"Polygon","coordinates":[[[32.8354633,39.2586587],[32.8236401,39.2644487],[32.8059912,39.2539151],[32.8021932,39.2248232],[32.8100574,39.2209251],[32.8087163,39.2011902],[32.8466455,39.1885277],[32.8209579,39.1716772],[32.8246808,39.1665284],[32.7977836,39.1575026],[32.8081101,39.1478183],[32.7971613,39.1276134],[32.6966751,39.115769],[32.6927242,39.1082664],[32.6753139,39.1140209],[32.658416,39.1065202],[32.6540494,39.1126058],[32.6258969,39.1016081],[32.629888,39.0904256],[32.6207578,39.0928987],[32.6310655,39.0780815],[32.6041322,39.0245917],[32.5729769,39.0268937],[32.5745809,39.0348737],[32.5487834,39.0461193],[32.5179219,39.0405071],[32.5207221,39.0354404],[32.5078046,39.0285023],[32.517514,39.0139329],[32.5082202,39.0111402],[32.5103942,39.002713],[32.4882124,38.9787716],[32.4587426,38.9743697],[32.4550737,38.9620974],[32.4381637,38.9541361],[32.3973941,38.9728226],[32.382717,38.998375],[32.3687266,39.0047117],[32.3669242,39.0267187],[32.3295879,39.0216511],[32.3200054,39.0314949],[32.3104476,39.0121148],[32.252941,38.9939057],[32.2520827,38.9874346],[32.228136,38.9853664],[32.2199821,38.9902366],[32.2162913,39.0108477],[32.1697711,39.012715],[32.1734618,39.0303193],[32.144966,39.0284523],[32.1478843,39.0133152],[32.130289,39.0102474],[32.1255683,39.0239182],[32.1184444,39.0230514],[32.1289157,38.9915041],[32.1352672,38.9907703],[32.1318339,38.9550705],[32.1194315,38.9507152],[32.0139238,38.9739822],[31.9921496,38.986455],[31.9924125,38.9955861],[31.9610628,39.0013185],[31.9301315,39.0246103],[31.9418046,39.066756],[31.9384626,39.07439],[31.9226858,39.0715622],[31.9294879,39.0748023],[31.9241664,39.0890102],[31.9125148,39.0894099],[31.9078156,39.1100254],[31.8884822,39.1192487],[31.8954667,39.1267065],[31.8490431,39.1467286],[31.8435287,39.1422433],[31.8195819,39.1595492],[31.8284011,39.1644738],[31.829946,39.1782811],[31.8423915,39.1731245],[31.8516826,39.1824227],[31.8647504,39.1766842],[31.8735695,39.1857159],[31.8871307,39.182639],[31.8929243,39.193466],[31.9254541,39.2118564],[31.9256043,39.2279316],[31.9533919,39.2326521],[31.9627475,39.2456151],[31.9981097,39.2206842],[32.0087527,39.2261365],[31.9889257,39.2354444],[31.9475126,39.2757199],[31.9684982,39.2894721],[31.9867372,39.3160719],[32.0115423,39.3251687],[32.002868,39.3421473],[31.9724035,39.3568819],[31.9921446,39.3753787],[31.9708156,39.3944179],[31.9931102,39.4278234],[31.9976592,39.4552819],[31.9862222,39.4792018],[31.9979596,39.4970205],[31.9663954,39.5123846],[31.9733047,39.5323132],[31.9478559,39.5629231],[31.9382857,39.56289],[31.9468688,39.5396608],[31.8983745,39.5436984],[31.8918513,39.5748656],[31.9060992,39.5803565],[31.8854999,39.5986122],[31.8941688,39.6024479],[31.8954562,39.6135571],[31.9327926,39.6237389],[31.9434356,39.6362328],[31.9185447,39.6660039],[31.839087,39.6719665],[31.7797565,39.7011116],[31.7647332,39.7225605],[31.7663669,39.7456062],[31.7887687,39.7832127],[31.814947,39.7925122],[31.8297958,39.7845319],[31.8515967,39.841693],[31.8608665,39.8327956],[31.8800925,39.8321035],[31.9001079,39.8559234],[31.8814444,39.8540897],[31.8813801,39.8604396],[31.8506634,39.8494937],[31.847316,39.861049],[31.8725181,39.870865],[31.8597937,39.8824414],[31.8282294,39.875583],[31.7900777,39.8821368],[31.7397379,39.9338942],[31.7413794,39.9635122],[31.7343628,39.9728037],[31.7207694,39.9656173],[31.6990327,39.9775477],[31.6947412,39.9915556],[31.7125563,40.0214882],[31.6591511,40.0087265],[31.6752623,40.0477111],[31.6690935,40.0521317],[31.6400966,40.0294977],[31.6130486,40.0222163],[31.5346966,40.0369895],[31.5049935,40.0205533],[31.4631138,40.0450062],[31.4583073,40.0312064],[31.4383945,40.022005],[31.4014873,40.0168779],[31.3886127,40.0321265],[31.4044189,40.0498254],[31.3921022,40.06372],[31.3409471,40.0469345],[31.3012075,40.0622748],[31.2676047,40.0631617],[31.2370061,40.0618807],[31.1884688,40.046606],[31.1596297,40.0511395],[31.1502742,40.0640156],[31.1154269,40.0716351],[31.1010141,40.0540292],[31.0906218,40.0591216],[31.076374,40.0505153],[31.0485648,40.0537346],[31.0021466,40.0313565],[30.9381007,40.0294218],[30.911579,40.0378338],[30.8985149,40.0527239],[30.8849715,40.0472959],[30.8526485,40.0657962],[30.8358578,40.0962682],[30.8484521,40.105355],[30.8343831,40.1442268],[30.8457367,40.1613392],[30.8749224,40.1787886],[30.943294,40.180709],[30.95472,40.212129],[31.0443377,40.2174384],[31.0703444,40.22604],[31.0652375,40.2391779],[31.0764599,40.2500859],[31.074271,40.261385],[31.055818,40.269343],[31.060967,40.276055],[31.05453,40.280442],[31.066148,40.311621],[31.058618,40.318451],[31.067405,40.326917],[31.062577,40.334163],[31.069078,40.349619],[31.103582,40.355832],[31.2000346,40.353576],[31.205163,40.340199],[31.226578,40.335521],[31.278248,40.342619],[31.312065,40.330286],[31.32421,40.353805],[31.337385,40.353314],[31.345565,40.341461],[31.3728326,40.3501097],[31.3826159,40.3626416],[31.3793671,40.3705064],[31.4088821,40.3706208],[31.4481536,40.3611655],[31.4408576,40.3447404],[31.4485144,40.3278328],[31.4361359,40.3236111],[31.4380716,40.3304215],[31.4010769,40.3112681],[31.4194193,40.2886794],[31.5096008,40.307842],[31.590315,40.2692435],[31.6541901,40.3003337],[31.702487,40.308953],[31.762891,40.333198],[31.8540751,40.305095],[31.892238,40.327342],[31.891508,40.336797],[31.908803,40.341474],[31.916013,40.333722],[31.922708,40.338988],[31.916571,40.34589],[31.938243,40.343797],[31.964722,40.353282],[31.969399,40.364793],[32.011735,40.379342],[32.012658,40.391273],[32.034459,40.413627],[32.022786,40.419312],[32.019911,40.431563],[32.030554,40.444694],[32.031884,40.464189],[32.009997,40.473983],[31.999869,40.469021],[31.992531,40.482797],[32.028837,40.507045],[32.0426667,40.5000457],[32.068552,40.5057594],[32.088919,40.500486],[32.107501,40.513375],[32.116041,40.533674],[32.1571985,40.5488461],[32.1820498,40.545396],[32.2172377,40.5538466],[32.2330445,40.5441481],[32.2524739,40.5452859],[32.2554687,40.5632502],[32.2959698,40.568002],[32.300663,40.581562],[32.3234536,40.5926543],[32.33558,40.584942],[32.3578204,40.5957903],[32.3748709,40.5861803],[32.359242,40.56973],[32.36186,40.540743],[32.3865721,40.5518373],[32.39733,40.546499],[32.450531,40.561079],[32.4645434,40.5834475],[32.4550279,40.5793938],[32.4319275,40.5911138],[32.437399,40.598643],[32.4312151,40.6062606],[32.440236,40.61294],[32.433322,40.617866],[32.441159,40.624997],[32.4208259,40.6329425],[32.4055174,40.691959],[32.418855,40.689454],[32.4348082,40.7031826],[32.4537956,40.6828592],[32.4840533,40.6755441],[32.4925143,40.6861794],[32.4938129,40.6805455],[32.5002685,40.6768826],[32.4972271,40.6811998],[32.5155711,40.6913096],[32.5040729,40.6990372],[32.5153205,40.743829],[32.5897362,40.7429403],[32.5922542,40.7493263],[32.6141712,40.7419611],[32.6227855,40.7494028],[32.6605289,40.7489629],[32.6829365,40.7664777],[32.6733717,40.7359284],[32.7411675,40.6866099],[32.8728815,40.6450509],[32.8931574,40.6494686],[32.9098407,40.6322619],[32.9295591,40.6290386],[32.9337165,40.6131593],[32.927718,40.5954864],[32.8953045,40.5763751],[32.8741131,40.5754101],[32.8683653,40.5707088],[32.8712304,40.5553876],[32.8565979,40.5456405],[32.8927199,40.5264629],[32.9820773,40.5187621],[32.9889264,40.5092339],[33.0054434,40.5127429],[33.0024362,40.4992129],[33.0195672,40.4989979],[33.0452763,40.4696413],[33.0977797,40.4860151],[33.130238,40.4807732],[33.141247,40.4727013],[33.1353203,40.4643561],[33.1537431,40.4664772],[33.1807134,40.4279675],[33.2114666,40.4151248],[33.2164858,40.3877251],[33.2053425,40.3781038],[33.2196984,40.3618581],[33.2412222,40.3581253],[33.2415223,40.3469559],[33.2347738,40.3463764],[33.2636486,40.3236773],[33.2928618,40.3286448],[33.3222713,40.3450321],[33.3382466,40.3416168],[33.3428607,40.3500022],[33.3279374,40.3604932],[33.3134341,40.3899969],[33.3178929,40.4128165],[33.345915,40.4026837],[33.342666,40.4019081],[33.3427993,40.3970162],[33.3498769,40.4026605],[33.3586862,40.3926963],[33.3780938,40.3890052],[33.4179642,40.4073551],[33.4239335,40.4023747],[33.4286456,40.4098104],[33.4325934,40.3669952],[33.4539149,40.3468747],[33.4856954,40.3462583],[33.4937839,40.3194579],[33.5344603,40.3292324],[33.564831,40.3561695],[33.6070245,40.3525473],[33.6006918,40.3520041],[33.6092906,40.3455466],[33.5959262,40.3286604],[33.5997126,40.3230374],[33.6117907,40.3219525],[33.6483443,40.2952806],[33.64438,40.2804705],[33.6281604,40.2852784],[33.6211101,40.2627408],[33.6096062,40.2583974],[33.6227595,40.2457664],[33.596897,40.2160538],[33.641332,40.198354],[33.6506907,40.1823422],[33.6369876,40.1506411],[33.611132,40.1272981],[33.6147899,40.1038223],[33.5773109,40.0887075],[33.5829016,40.0800387],[33.598548,40.0840081],[33.5943417,40.0775009],[33.6041093,40.0777161],[33.6075313,40.0657201],[33.6211821,40.0583658],[33.5996034,40.0197259],[33.5917408,39.9823353],[33.63481,39.9586925],[33.6398198,39.9401035],[33.6265514,39.9139941],[33.628943,39.9013276],[33.6873136,39.8307516],[33.673294,39.7970161],[33.6486266,39.7799704],[33.5977251,39.7832482],[33.5715182,39.7575245],[33.49869,39.73007],[33.50779,39.71813],[33.49704,39.72359],[33.49206,39.70924],[33.48352,39.71621],[33.4624652,39.6875935],[33.407439,39.709605],[33.3838677,39.707913],[33.4022393,39.7307141],[33.3950257,39.7442202],[33.4021692,39.7510958],[33.4452796,39.764346],[33.4660613,39.7561686],[33.4860472,39.7692919],[33.4592485,39.7845978],[33.4674454,39.8037722],[33.4830777,39.8095182],[33.4806043,39.8177703],[33.4635615,39.8229247],[33.4697754,39.8417685],[33.4823111,39.8458174],[33.4781604,39.8635807],[33.5163721,39.8885484],[33.5643506,39.9675131],[33.5707952,39.9997774],[33.5393278,40.0368339],[33.5030635,40.0253313],[33.5085849,40.0134452],[33.4793069,39.9919547],[33.5028187,39.9768245],[33.4699344,39.9767255],[33.4613278,39.9868927],[33.4460649,39.9876802],[33.4428651,39.9777244],[33.4303283,39.9774279],[33.4358896,39.9638389],[33.4189828,39.9489376],[33.3895758,39.9688479],[33.3766364,39.9260619],[33.3067231,39.9001888],[33.3036708,39.8884855],[33.311747,39.8755547],[33.2934814,39.8619961],[33.3046807,39.8525803],[33.2985477,39.8450056],[33.2581042,39.8539497],[33.2633399,39.8329274],[33.2981673,39.821028],[33.2769906,39.7918788],[33.2765117,39.7666096],[33.2672275,39.762998],[33.2663364,39.7465463],[33.2859332,39.760436],[33.2840209,39.738476],[33.2642112,39.7385481],[33.2655098,39.7249943],[33.2559664,39.7123155],[33.2373237,39.7105701],[33.235329,39.7237579],[33.2268619,39.7226363],[33.2291815,39.6952076],[33.1925766,39.6750185],[33.1860925,39.6596845],[33.2058333,39.6455521],[33.2381057,39.6443625],[33.248577,39.6486583],[33.2566451,39.6769378],[33.2762145,39.676079],[33.3279168,39.6293167],[33.3138676,39.606832],[33.3208758,39.59587],[33.3119937,39.5896512],[33.3237479,39.5786602],[33.3129639,39.5636814],[33.3206463,39.5507288],[33.3104373,39.5409656],[33.3231217,39.5341917],[33.31438,39.5223747],[33.3214052,39.5141539],[33.3405849,39.5121906],[33.3440738,39.5066251],[33.3260538,39.5132246],[33.3187619,39.5076955],[33.3513233,39.4926691],[33.3468103,39.4637455],[33.3940172,39.4646752],[33.3874511,39.4374526],[33.396635,39.4257848],[33.3835672,39.4137669],[33.4044455,39.3974359],[33.4215259,39.3999894],[33.4200667,39.378497],[33.4082221,39.3772365],[33.4063338,39.3652268],[33.4130286,39.3601835],[33.4279632,39.3671512],[33.4203242,39.3612453],[33.4250449,39.3520205],[33.4542274,39.3536797],[33.4539699,39.3449186],[33.4659862,39.3395418],[33.4435843,39.3206869],[33.4616088,39.302491],[33.5070562,39.2903689],[33.5584567,39.2083192],[33.7400317,39.1054469],[33.7579396,39.0764487],[33.8372116,39.0744324],[33.8641585,39.0624843],[33.8852273,39.0278782],[33.849306,39.0268521],[33.8110255,38.9832315],[33.7841605,38.9750246],[33.7616729,38.9865006],[33.7231457,38.9829437],[33.731702,38.9739736],[33.7242334,38.9655185],[33.7302267,38.9588415],[33.7387884,38.9628459],[33.7364817,38.9524423],[33.7472534,38.9398092],[33.737812,38.9265979],[33.7863921,38.9100699],[33.7886237,38.8939055],[33.8030433,38.8828153],[33.7986659,38.8576223],[33.7778949,38.8409779],[33.783903,38.8308156],[33.7670802,38.8215211],[33.7655567,38.809684],[33.7777232,38.7936974],[33.7525748,38.7760344],[33.7345504,38.7404944],[33.721075,38.7400927],[33.7016772,38.7224834],[33.654127,38.7032622],[33.6532413,38.6923719],[33.6436035,38.6887577],[33.6238785,38.6947093],[33.5551667,38.6757357],[33.3593413,38.6728587],[33.3488272,38.7236888],[33.3679008,38.8525636],[33.3551356,38.86875],[33.3658217,38.9150789],[33.3872794,38.9453919],[33.3868933,38.9858084],[33.3630538,39.0279606],[33.3195698,39.0595499],[33.3162546,39.0747104],[33.2968676,39.0817647],[33.2739723,39.0745022],[33.2359949,39.0851647],[33.2147872,39.1192028],[33.1748271,39.1301601],[33.1313485,39.1721596],[33.1444967,39.1871047],[33.1411761,39.2077165],[33.1214887,39.2333003],[33.1213743,39.2477495],[33.1266061,39.2525522],[33.1622154,39.2368486],[33.1740814,39.2416932],[33.1992044,39.2357384],[33.1863069,39.2986553],[33.1738883,39.2952927],[33.1608313,39.30736],[33.1586319,39.2831112],[33.1404573,39.286765],[33.1208557,39.2557345],[33.079614,39.2329678],[33.0664444,39.2104764],[33.024956,39.1973656],[33.002302,39.2139096],[33.0118963,39.2183796],[33.0069745,39.241448],[33.0256748,39.2488471],[33.0369052,39.2711933],[33.0312967,39.2776923],[33.0031523,39.2763884],[32.976129,39.2929429],[32.9549932,39.2847388],[32.9084676,39.2281061],[32.9018319,39.2325606],[32.9124105,39.2482157],[32.9002118,39.2707614],[32.891618,39.2730372],[32.8718018,39.2538819],[32.8596032,39.2626627],[32.8354633,39.2586587]]]}}]}