{"type": "FeatureCollection", "features": [{"type": "Feature", "properties": {"slug": "anshan", "members": 7, "country": "China", "input_hash": "2764f13d623f1dec"}, "geometry": {"type": "Polygon", "coordinates": [[[123.5714345, 40.7940801], [123.5805635, 40.7659586], [123.5588598, 40.7584029], [123.5457941, 40.7214529], [123.5754659, 40.7031616], [123.5741917, 40.6868773], [123.6176407, 40.6918553], [123.6831242, 40.662417], [123.7049067, 40.6601662], [123.7254137, 40.6470971], [123.7284335, 40.6305172], [123.7429917, 40.6136649], [123.733613, 40.5977923], [123.7117572, 40.5906473], [123.7324402, 40.5738662], [123.7324205, 40.5063097], [123.7615337, 40.4984485], [123.7494337, 40.4647455], [123.7602487, 40.4406452], [123.7394785, 40.4132483], [123.7580077, 40.4010455], [123.7248927, 40.3472057], [123.7071372, 40.3315301], [123.7044136, 40.3020054], [123.675957, 40.2902136], [123.667253, 40.2746495], [123.6431096, 40.2591695], [123.6316139, 40.2636203], [123.6060562, 40.2404865], [123.5878523, 40.2410849], [123.5849554, 40.2249517], [123.5533508, 40.1877395], [123.5703512, 40.1662669], [123.6008159, 40.1673528], [123.5955296, 40.1447266], [123.5577239, 40.1012629], [123.5232298, 40.1020221], [123.4729619, 40.0733861], [123.4771235, 40.0495311], [123.462296, 40.0396269], [123.4564644, 40.0538864], [123.4431929, 40.0557465], [123.4716233, 40.0298573], [123.4246566, 40.0317542], [123.3992612, 40.0077648], [123.3862774, 40.0121589], [123.3724304, 39.9986906], [123.3556651, 40.0001433], [123.3331833, 40.0181619], [123.3051833, 40.0250054], [123.2812728, 40.0131379], [123.2610933, 40.0378419], [123.2367783, 40.0353774], [123.1862868, 40.0635149], [123.1284005, 40.0779145], [123.1122251, 40.0619304], [123.0922327, 40.0700597], [123.0661928, 40.0388679], [123.0483703, 40.0586464], [122.9885328, 40.0805434], [122.9764328, 40.1019819], [122.9833603, 40.1155469], [122.9552918, 40.1222989], [122.9354323, 40.1506044], [122.9307478, 40.1775664], [122.8856888, 40.1861494], [122.8916011, 40.217515], [122.8682645, 40.2608237], [122.8762431, 40.3056855], [122.9282681, 40.3446592], [122.9222971, 40.3594147], [122.9329815, 40.3750749], [122.9273444, 40.3829139], [122.9313508, 40.4080239], [122.9781831, 40.4171856], [122.9896506, 40.4262098], [122.9890711, 40.4438905], [122.9768889, 40.4585305], [123.0012997, 40.4799334], [122.9774974, 40.4840912], [122.9687498, 40.5039939], [122.923427, 40.5323471], [122.8922483, 40.5373253], [122.8577437, 40.5263419], [122.8241164, 40.5350258], [122.7923583, 40.5773694], [122.7262327, 40.5816936], [122.6984351, 40.6000841], [122.6578292, 40.5932111], [122.6544961, 40.5822226], [122.6464302, 40.5830511], [122.6429468, 40.5949318], [122.6207288, 40.6067754], [122.645809, 40.6155576], [122.6495423, 40.6272649], [122.6401489, 40.6356209], [122.6502122, 40.6395659], [122.6492776, 40.6489864], [122.6664637, 40.668273], [122.6336635, 40.6575928], [122.6193278, 40.6676114], [122.616884, 40.6799281], [122.6461219, 40.7090962], [122.6428373, 40.7428969], [122.5769423, 40.7470514], [122.5518263, 40.7595864], [122.5106986, 40.7643786], [122.5368698, 40.7968959], [122.5368698, 40.8170913], [122.5164143, 40.8254669], [122.5115721, 40.8465506], [122.4788818, 40.8486974], [122.4976243, 40.8711655], [122.4863893, 40.8911744], [122.498669, 40.9319206], [122.4339275, 40.9384475], [122.4119243, 40.9225218], [122.3766294, 40.9227157], [122.3721573, 40.9072441], [122.3495176, 40.9137395], [122.3300202, 40.903884], [122.3148987, 40.9072052], [122.3237593, 40.9132181], [122.3130711, 40.9274353], [122.3348744, 40.9224815], [122.3311875, 40.9410769], [122.346911, 40.9490767], [122.3206272, 40.9673943], [122.3444044, 40.9672082], [122.3604318, 40.9859974], [122.3390516, 40.976426], [122.3368676, 40.9873034], [122.3580712, 40.9997239], [122.3729512, 40.9878162], [122.3902891, 40.9864027], [122.3849813, 41.0054569], [122.4011901, 40.9907847], [122.4150289, 41.0106769], [122.3978911, 41.039459], [122.4085248, 41.0724562], [122.4059499, 41.0947097], [122.3889319, 41.0990814], [122.3911839, 41.1182918], [122.3772769, 41.1312284], [122.3807613, 41.1581024], [122.3643294, 41.1607799], [122.3568777, 41.1760518], [122.3670901, 41.1765741], [122.3785934, 41.1941665], [122.4035099, 41.1990843], [122.4091471, 41.2131217], [122.4386986, 41.2116085], [122.456378, 41.2347271], [122.4840034, 41.2477433], [122.4889178, 41.2623672], [122.4781795, 41.252608], [122.3982183, 41.246761], [122.3794566, 41.2205876], [122.338349, 41.2034854], [122.3486487, 41.1972785], [122.3307327, 41.1881727], [122.3199202, 41.1934845], [122.2628073, 41.1854691], [122.2666856, 41.1935772], [122.2316548, 41.1990047], [122.1990446, 41.2210375], [122.2443687, 41.2405041], [122.2465924, 41.273019], [122.2694933, 41.3176729], [122.2664338, 41.3531684], [122.2397233, 41.3713949], [122.1992188, 41.4201774], [122.1870151, 41.4470013], [122.1942228, 41.455946], [122.1881583, 41.4574], [122.2136643, 41.4848143], [122.3658232, 41.548648], [122.4358076, 41.5499393], [122.4921924, 41.5681838], [122.4873963, 41.5458909], [122.5012968, 41.5352479], [122.5540998, 41.5484429], [122.5900573, 41.5324399], [122.5940703, 41.5126189], [122.6216426, 41.5187085], [122.631606, 41.5020632], [122.6187508, 41.4887278], [122.6324781, 41.4805653], [122.61994, 41.4696646], [122.6312781, 41.4374177], [122.6206454, 41.4298509], [122.6415673, 41.4296132], [122.6389795, 41.4171664], [122.6268143, 41.413484], [122.628696, 41.4039894], [122.6441511, 41.3948493], [122.6372653, 41.3558415], [122.6535856, 41.3517597], [122.6131965, 41.3143424], [122.5977607, 41.3165356], [122.6039823, 41.3027833], [122.5852332, 41.3004054], [122.5898131, 41.2917722], [122.5472563, 41.2477149], [122.5911408, 41.2432099], [122.6095485, 41.2234359], [122.6179144, 41.1976943], [122.5884182, 41.192039], [122.5987013, 41.1726189], [122.6734238, 41.1388849], [122.6961668, 41.1181299], [122.7478028, 41.1126784], [122.8195003, 41.080038], [122.8275936, 41.0806412], [122.8302773, 41.0973054], [122.8515321, 41.1129698], [122.8435133, 41.1279573], [122.8505759, 41.1360489], [122.8450989, 41.1365181], [122.8707445, 41.1559029], [122.8615765, 41.1613591], [122.8907028, 41.169736], [122.9045474, 41.1925772], [122.910073, 41.1875871], [122.9408756, 41.1947687], [122.9517958, 41.1864165], [122.9691124, 41.2009743], [122.982226, 41.198623], [122.9848357, 41.1855619], [122.9924695, 41.1847721], [123.0054517, 41.1888725], [123.0168207, 41.2047694], [123.024536, 41.2004816], [123.0325422, 41.2063334], [123.0564533, 41.1985956], [123.0513764, 41.1893395], [123.0565822, 41.1811278], [123.0932923, 41.1759497], [123.1132688, 41.1816648], [123.131636, 41.1555438], [123.1441456, 41.1520553], [123.1340684, 41.1370524], [123.1419677, 41.1268924], [123.137651, 41.1014804], [123.150063, 41.1041169], [123.159848, 41.0960592], [123.1767325, 41.1040594], [123.2062264, 41.0966932], [123.2014792, 41.0772887], [123.2265336, 41.0653489], [123.2210564, 41.0564383], [123.2300207, 41.0475611], [123.1944917, 41.032852], [123.2064977, 41.0140115], [123.1848179, 40.9942472], [123.1864411, 40.984642], [123.1504396, 40.9797687], [123.1332303, 40.9833604], [123.1266607, 40.9941611], [123.1099928, 40.9919549], [123.0901947, 40.9691429], [123.0788576, 40.9667162], [123.0929434, 40.9286958], [123.0538036, 40.9170656], [123.0684741, 40.8968807], [123.0381901, 40.8604092], [123.0472193, 40.8540469], [123.0405297, 40.8364714], [123.0658992, 40.8342675], [123.0983733, 40.8181914], [123.091448, 40.7998918], [123.0644282, 40.7817753], [123.0651093, 40.7698364], [123.0946457, 40.7343144], [123.1084207, 40.7343144], [123.1303863, 40.7126579], [123.1445008, 40.7234534], [123.1713333, 40.7109564], [123.2085723, 40.7304994], [123.2390363, 40.7298164], [123.3092268, 40.7717324], [123.3694533, 40.7735329], [123.4050368, 40.8052329], [123.4422034, 40.7990357], [123.4753783, 40.8123819], [123.5150849, 40.8129101], [123.5364847, 40.8247184], [123.5536623, 40.8006801], [123.5714345, 40.7940801]]]}}]}