{"type": "FeatureCollection", "features": [{"type": "Feature", "properties": {"slug": "antananarivo", "members": 8, "country": "Madagascar", "input_hash": "1b0b6aa16b4f9cc6"}, "geometry": {"type": "Polygon", "coordinates": [[[47.85769979100007, -19.534809875999883], [47.86198426300001, -19.615397059999964], [47.83736785200011, -19.629073617000017], [47.83618295300005, -19.6690237709999], [47.84300476000004, -19.686475646999952], [47.83703747700025, -19.718380944999865], [47.80067122300005, -19.72678764599982], [47.7896451160002, -19.695518185000026], [47.774573370000155, -19.721644791000017], [47.76225003000013, -19.708468227000026], [47.74602469200005, -19.715074157], [47.72792, -19.70110000199992], [47.72515000000021, -19.686520002999885], [47.69986953200015, -19.700921525999888], [47.662132426000085, -19.69101118599997], [47.6181199990001, -19.699670003], [47.58861679300003, -19.690460189999953], [47.57767324699995, -19.665653364999912], [47.551459413000146, -19.670162323999932], [47.53832513000009, -19.660646231999863], [47.5427756040001, -19.643778500999815], [47.59612592700017, -19.599565284999926], [47.589191472000095, -19.57770233299982], [47.57718000000011, -19.57872000299983], [47.57595363000007, -19.556075651999834], [47.54122223100006, -19.53903140099993], [47.533070979000115, -19.518310796999856], [47.49362506800014, -19.52166382899992], [47.46934623200019, -19.51074167499985], [47.458010801000114, -19.51818328899998], [47.45134821500005, -19.4971598649999], [47.44394351999995, -19.496913074999895], [47.44506720499993, -19.508102824999924], [47.423770847000185, -19.502080131999946], [47.42698504000015, -19.480277006999927], [47.40418762100012, -19.443834401999936], [47.37074514000017, -19.448934521999945], [47.33469895100012, -19.43354248099996], [47.300231765000035, -19.4048977249999], [47.23733647200015, -19.408393150999927], [47.22334701300025, -19.401912294999875], [47.218144854000116, -19.38965233499988], [47.224497360489615, -19.377304690893972], [47.194954247000055, -19.37230832899985], [47.154294472000174, -19.349178649999942], [47.10044974500005, -19.34745715599996], [47.06909785500022, -19.322297650999985], [47.07452125600014, -19.30208189900003], [47.06164878700008, -19.297115318999886], [47.05967381800019, -19.285450916999935], [47.06921244500006, -19.24081578499994], [47.02411304500015, -19.201547435], [47.060082935000025, -19.1977945349999], [47.07201963400007, -19.182772956999827], [47.0604123400002, -19.170842216999972], [47.082642959000054, -19.153925083999923], [47.069601161000094, -19.138561303999893], [47.06777517800009, -19.122337036999966], [47.049887062000096, -19.115820458999906], [47.05727835300013, -19.041851381999948], [47.077343564000046, -19.04637745399998], [47.08319964200018, -19.058242806999942], [47.09726126900006, -19.03425280199997], [47.1145283690002, -19.026977836999947], [47.10139969299996, -18.97618692200001], [47.064919512000074, -18.95654417199995], [47.09267999900004, -18.929300002999867], [47.08506481599994, -18.897366333999912], [47.09999999900015, -18.894250002999968], [47.09683728600004, -18.87097949699995], [47.117554650000216, -18.843030723999846], [47.10930974100006, -18.813160007999954], [47.12411993200004, -18.807859457999882], [47.09185020000007, -18.782303296999828], [47.092969999000104, -18.748850002999916], [47.10021528599992, -18.73851033699998], [47.08623614300018, -18.72887715899998], [47.088942073000055, -18.717965575999813], [47.091993444000195, -18.71325712299995], [47.11585976700002, -18.728220071999885], [47.13678627700011, -18.725519954999925], [47.13898796500018, -18.756936835999852], [47.171642860000134, -18.754119139999887], [47.17079524200017, -18.761576878999904], [47.17589327643306, -18.762391920468104], [47.19413364200011, -18.725736869999935], [47.238073832000055, -18.729017823999982], [47.24867835799995, -18.712772834999953], [47.24095598599996, -18.677748787999917], [47.24877281000016, -18.65747823599986], [47.25885013800013, -18.649724265999907], [47.27387350900017, -18.664694043999873], [47.28647040799996, -18.65724513999993], [47.281841560000146, -18.651293212999974], [47.30117327300013, -18.600802371999976], [47.29405892900019, -18.584711193999965], [47.33114468900021, -18.551428915999963], [47.33476666600012, -18.518850004], [47.35786763300024, -18.51743378699996], [47.35103075200004, -18.501412125999934], [47.37981621, -18.47737413399983], [47.395519585000216, -18.477418207000028], [47.39994055800014, -18.448508140999934], [47.41195877799993, -18.448877092999908], [47.41532537800015, -18.462060356999928], [47.46137956200005, -18.45095045399995], [47.49007149400012, -18.432536922999816], [47.511872820000065, -18.436006308999822], [47.5360804300002, -18.491340336999883], [47.56264208800019, -18.5113956269999], [47.57229503600024, -18.47003992099991], [47.582855702000245, -18.465257050999924], [47.59610144200019, -18.47115683399994], [47.61493811199995, -18.46530435099993], [47.61917526688994, -18.475903184968146], [47.628269999000224, -18.462270003999947], [47.670750973000054, -18.499268104], [47.67719169500003, -18.48647085999994], [47.696214060000216, -18.486744916999896], [47.72439666899993, -18.459990219999895], [47.72476980800019, -18.48871207199994], [47.765903166000044, -18.545329565999964], [47.76053266000014, -18.55232771499982], [47.767472075000114, -18.57168823199987], [47.794020179000086, -18.59730448899984], [47.7856067510001, -18.604905664999933], [47.801502792000235, -18.609561084999825], [47.80739250800008, -18.621858185999884], [47.81524924700011, -18.62595512400003], [47.83092209499995, -18.613300168999842], [47.840870000000166, -18.63113000300001], [47.85240269700023, -18.6249101599999], [47.8634038890001, -18.640647020999893], [47.88148755399999, -18.636636653999915], [47.89667791800008, -18.6455367449999], [47.89018852300006, -18.632769012999916], [47.90077, -18.613080002999936], [47.946511598000086, -18.627408345999925], [47.931238201000156, -18.65786149499985], [47.93523551800001, -18.69123299599994], [47.94444216300019, -18.701294370999847], [47.934832921, -18.714285475999873], [47.92693583900012, -18.763962034999906], [47.93207632399992, -18.83122494899993], [47.94292027600011, -18.830039188999876], [47.94600430400021, -18.84785126899982], [47.943275904000245, -18.91989514999983], [47.935856453000156, -18.93503582699998], [47.93630050400003, -18.968859559999828], [47.94326194300004, -18.97855001399995], [47.937879642000155, -19.000984685999924], [47.925684893999914, -19.014292635999936], [47.92155698799996, -19.057102657999906], [47.89386937000006, -19.103230121000024], [47.894874496000114, -19.118171529999927], [47.91968057000014, -19.151074833999928], [47.934099999000125, -19.15748000299982], [47.93196020400012, -19.213453937999986], [47.95648217000013, -19.22370504199995], [47.95434626300005, -19.258967543999916], [47.94110825600012, -19.271334395999872], [47.93902597700003, -19.298526513999832], [47.94702872499994, -19.36279504800001], [47.93683536200007, -19.37435235199996], [47.941299545999925, -19.384444045999885], [47.89724278900019, -19.410137864999854], [47.89498045400018, -19.428909053999917], [47.88151658300018, -19.438393179999935], [47.883240041000136, -19.467900813999904], [47.903261096000165, -19.508308271000033], [47.895729173, -19.52218907699995], [47.87488443300015, -19.523435535999965], [47.85769979100007, -19.534809875999883]], [[47.182354694000026, -18.76342493099986], [47.18888902900005, -18.75860912499985], [47.18179549484501, -18.763335529779386], [47.182354694000026, -18.76342493099986]], [[47.198621081000056, -18.769287183999893], [47.20003662057858, -18.769302225110124], [47.1976912203837, -18.768781712967304], [47.198621081000056, -18.769287183999893]], [[47.314640007000094, -18.795681732999924], [47.30805212000007, -18.789689027999884], [47.307297431784036, -18.7898788992077], [47.314640007000094, -18.795681732999924]], [[47.31979980261078, -18.793112608952985], [47.31961744400007, -18.792296230000034], [47.318749012686396, -18.79288691087006], [47.31979980261078, -18.793112608952985]], [[47.32088096468391, -18.800685315220274], [47.32117615800007, -18.79927424599998], [47.3207802848725, -18.79750201002973], [47.32088096468391, -18.800685315220274]], [[47.32491179100015, -18.87939194199987], [47.32506449507409, -18.879442969863003], [47.32502049100009, -18.877540898999825], [47.32491179100015, -18.87939194199987]], [[47.325314595000066, -18.881522430999837], [47.32732082000007, -18.880368469000018], [47.327039473113814, -18.880333925274307], [47.325314595000066, -18.881522430999837]], [[47.33825212300013, -18.90343806200002], [47.33991815700011, -18.901618491000022], [47.33832526906742, -18.903081579188356], [47.33825212300013, -18.90343806200002]], [[47.34329471999996, -18.90376900899986], [47.34348889800009, -18.901735667999844], [47.34313306102106, -18.90172399089707], [47.34329471999996, -18.90376900899986]], [[47.34753568500014, -18.90915703899998], [47.34771295454312, -18.90933654064576], [47.3483110140001, -18.905993953999825], [47.34753568500014, -18.90915703899998]], [[47.34888198200008, -18.910520287999987], [47.34931135425675, -18.91054707124385], [47.34844485748357, -18.910077659397206], [47.34888198200008, -18.910520287999987]], [[47.350494514000104, -18.91062087399996], [47.350986815000056, -18.907315686999937], [47.34992117797393, -18.910585110630606], [47.350494514000104, -18.91062087399996]], [[47.39244703806187, -18.914302384651005], [47.39212631000021, -18.91416141799988], [47.38935197100005, -18.91639490799986], [47.39244703806187, -18.914302384651005]], [[47.394797961000165, -18.91629762799988], [47.39814948008367, -18.91680872647494], [47.39288223162399, -18.914493661269354], [47.394797961000165, -18.91629762799988]], [[47.4033147507205, -18.91983856250451], [47.40279596000016, -18.918850950999854], [47.40229474735508, -18.91863065762199], [47.4033147507205, -18.91983856250451]], [[47.414726388836634, -18.905831823726164], [47.41433882800004, -18.90606894199982], [47.41416881900011, -18.911012025], [47.414726388836634, -18.905831823726164]], [[47.41837212385869, -18.904255410062536], [47.417805581000096, -18.903947905999928], [47.416244077128695, -18.904903268532294], [47.41837212385869, -18.904255410062536]], [[47.469825326000034, -18.87165793199989], [47.490804720013344, -18.891970038218364], [47.50477568100018, -18.88781519500003], [47.53274707600025, -18.90583535499985], [47.53388804700006, -18.9174711039999], [47.51700640000007, -18.922323047999896], [47.502482908000104, -18.920837667999933], [47.49822922309218, -18.909535508551325], [47.49229394799994, -18.925546717999907], [47.498437414999955, -18.94628737199986], [47.5331512460001, -18.955877760999954], [47.57495740200005, -18.927227360999893], [47.56736906400016, -18.893838385999857], [47.5601582270001, -18.894495283000026], [47.56453923500004, -18.88071165399998], [47.530156321, -18.84707551500003], [47.50409248800008, -18.854215553999893], [47.50499999900012, -18.84743333699987], [47.50934531700011, -18.846945320999907], [47.51411123999998, -18.837843528999827], [47.50911114500008, -18.84660303200002], [47.499890590000234, -18.839360494999937], [47.47890487800004, -18.84142372799994], [47.469825326000034, -18.87165793199989]], [[47.49696330062334, -18.905055050076193], [47.49567241700015, -18.900486246999947], [47.491788992720736, -18.89369205828183], [47.49696330062334, -18.905055050076193]], [[47.62651666600016, -19.145233337000036], [47.63481996200011, -19.12759039699995], [47.640009216000124, -19.124702862999868], [47.634762487000046, -19.12758388999987], [47.62651666600016, -19.145233337000036]], [[47.68238933082896, -19.13971161881874], [47.68236790900005, -19.13969349499996], [47.677165701000035, -19.14125155900001], [47.68238933082896, -19.13971161881874]], [[47.69062131300012, -19.147089873999903], [47.69082643225056, -19.146849781382013], [47.682703233794086, -19.139977194670227], [47.69062131300012, -19.147089873999903]], [[47.7039643170001, -19.131471852999937], [47.70693368500014, -19.124789280000016], [47.70210785607378, -19.13364484535855], [47.7039643170001, -19.131471852999937]], [[47.226245312000174, -19.375056211999834], [47.22582804068019, -19.375592969312855], [47.233917333000136, -19.3716628009999], [47.226245312000174, -19.375056211999834]], [[47.24299986340233, -19.349208895597123], [47.23594363100011, -19.358403002999864], [47.24264709400012, -19.35038127499996], [47.24299986340233, -19.349208895597123]], [[47.244503012039814, -19.338711197081455], [47.243567891643686, -19.347321133772496], [47.24497793300014, -19.342635059999964], [47.244503012039814, -19.338711197081455]], [[47.3997379820155, -19.28242820938099], [47.39318054200021, -19.281945530999906], [47.392857266568896, -19.28210955486955], [47.3997379820155, -19.28242820938099]], [[47.41017591600024, -19.273983195999847], [47.40178255251503, -19.28252289599006], [47.40256948900014, -19.282559339999864], [47.41017591600024, -19.273983195999847]], [[47.41092621700005, -19.25991850999992], [47.41109362764494, -19.25991973733847], [47.41032402664307, -19.259161130981358], [47.41092621700005, -19.25991850999992]], [[47.406249064000235, -19.254036021999923], [47.40763589653778, -19.255780250970076], [47.40601506078119, -19.252074303847664], [47.406249064000235, -19.254036021999923]], [[47.405577984000104, -19.248410159999935], [47.405738858051734, -19.249758814726157], [47.406928373610455, -19.246566743298832], [47.405577984000104, -19.248410159999935]], [[47.40960128300003, -19.242917954999882], [47.408951089777574, -19.24380553369275], [47.410160572167804, -19.24293678741033], [47.40960128300003, -19.242917954999882]], [[47.4182962700001, -19.243210732999955], [47.412872182474146, -19.24302809287662], [47.4194439374205, -19.243838102984146], [47.4182962700001, -19.243210732999955]], [[47.424595782000154, -19.246654347999936], [47.42384307863136, -19.24624288428476], [47.424703833014206, -19.246901587011763], [47.424595782000154, -19.246654347999936]], [[47.427978544532515, -19.25368286200671], [47.42752439156918, -19.253296285703403], [47.427548074000185, -19.25335587299986], [47.427978544532515, -19.25368286200671]], [[47.43204857966388, -19.256199810500416], [47.43126776032189, -19.256181377755173], [47.431495894000136, -19.25635467], [47.43204857966388, -19.256199810500416]], [[47.447271760000206, -19.204210385999886], [47.443028497, -19.207421783999962], [47.447302158786634, -19.204211232262324], [47.447271760000206, -19.204210385999886]], [[47.46411327980593, -19.204679231873733], [47.44775207690257, -19.20422375739394], [47.46408826700008, -19.20488938399984], [47.46411327980593, -19.204679231873733]], [[47.46092016300014, -19.192493754999987], [47.464123158817344, -19.204596230579725], [47.464427220000175, -19.202041574999953], [47.46092016300014, -19.192493754999987]], [[47.45963734700024, -19.164819913999963], [47.45965827029171, -19.164881958032648], [47.459460111905166, -19.163582945289907], [47.45963734700024, -19.164819913999963]], [[47.456556687000045, -19.14331920599983], [47.456619592632094, -19.14375824037107], [47.45823040271311, -19.141812680266376], [47.456556687000045, -19.14331920599983]], [[47.45984804799997, -19.140356623999935], [47.45974322048097, -19.14045098014041], [47.460860884236986, -19.140277803067395], [47.45984804799997, -19.140356623999935]], [[47.471674619, -19.13475739599994], [47.47024511033869, -19.138823758592856], [47.470952911000154, -19.138714087999915], [47.471674619, -19.13475739599994]], [[47.54066445900014, -19.135641431999886], [47.53129792500016, -19.139321749000032], [47.530899294040076, -19.13967439633242], [47.54066445900014, -19.135641431999886]], [[47.845985278000114, -19.556592862], [47.853240493370286, -19.55526411399207], [47.85304615000007, -19.555055308999897], [47.845985278000114, -19.556592862]], [[47.83682936326367, -19.557092888046963], [47.83690792300018, -19.557245475], [47.84180490299997, -19.555036541999925], [47.83682936326367, -19.557092888046963]], [[47.772013882000124, -19.46298607999995], [47.77573293000423, -19.46303721779441], [47.77573196000009, -19.462964036999892], [47.772013882000124, -19.46298607999995]], [[47.70189178600015, -19.421046942999908], [47.70569423950603, -19.421326236587426], [47.70563709000004, -19.421269013999904], [47.70189178600015, -19.421046942999908]], [[47.692071365022706, -19.426388073410724], [47.69211082900006, -19.426424530999952], [47.69974838100018, -19.42394478999995], [47.692071365022706, -19.426388073410724]], [[47.63677273135914, -19.41938910671206], [47.63750050900012, -19.419737343], [47.63784841341524, -19.41960704590365], [47.63677273135914, -19.41938910671206]], [[47.628455578, -19.41101923599996], [47.633779075000234, -19.41795666400003], [47.63555078705826, -19.418804415285106], [47.628455578, -19.41101923599996]], [[47.607857318034334, -19.384255151071635], [47.61221999900005, -19.397630002999847], [47.608396431000244, -19.384677947999876], [47.607857318034334, -19.384255151071635]], [[47.598554541, -19.384668884999826], [47.607375885442714, -19.38387758971852], [47.60679343300012, -19.383420803999854], [47.598554541, -19.384668884999826]], [[47.5893524348563, -19.39199841360104], [47.59305537600022, -19.398638375999894], [47.58936596400014, -19.39200766499988], [47.5893524348563, -19.39199841360104]], [[47.584972921382686, -19.38900364716469], [47.58499120800019, -19.389257874999828], [47.58914217208598, -19.391854633272203], [47.584972921382686, -19.38900364716469]], [[47.58434378977683, -19.38025720916911], [47.584455908433945, -19.381815927366528], [47.58439967700019, -19.380334211999923], [47.58434378977683, -19.38025720916911]], [[47.561877707000065, -19.34306509599992], [47.56749785697905, -19.346581990576787], [47.56745443500017, -19.346442995999894], [47.561877707000065, -19.34306509599992]], [[47.55040319212182, -19.325267900921308], [47.55037135300017, -19.328693845000032], [47.55051406402596, -19.328829696754067], [47.55040319212182, -19.325267900921308]], [[47.54866468800009, -19.322806139999955], [47.550395746716916, -19.325028714877057], [47.55039504500019, -19.325006171999917], [47.54866468800009, -19.322806139999955]], [[47.400686462933066, -18.92824852678171], [47.40049868300025, -18.928575798999987], [47.40082824687405, -18.928745255821237], [47.400686462933066, -18.92824852678171]], [[47.40265210700005, -18.926257397999905], [47.404364859638285, -18.921837633821134], [47.40156995760813, -18.926708728264316], [47.40265210700005, -18.926257397999905]], [[47.52015, -18.77915000299987], [47.5182666660001, -18.786083335999876], [47.52114534851601, -18.77799645335344], [47.52015, -18.77915000299987]], [[47.598475121000206, -18.688811570999974], [47.59960772835777, -18.688410638512668], [47.59114999900004, -18.6880666699999], [47.598475121000206, -18.688811570999974]], [[47.686302523000165, -18.986331424999946], [47.6859499696622, -18.985663962787495], [47.68604678023828, -18.98902819833027], [47.686302523000165, -18.986331424999946]], [[47.685520328, -18.994579567000017], [47.685753022768694, -18.99212583168538], [47.68373564800015, -18.998816277], [47.685520328, -18.994579567000017]], [[47.67779787926713, -19.00765314108345], [47.67766406100003, -19.002622217999942], [47.677346340000156, -19.006904484999893], [47.67779787926713, -19.00765314108345]], [[47.680303223838195, -19.01082393435484], [47.679635300572954, -19.010699601799637], [47.67987953100004, -19.01110453799987], [47.680303223838195, -19.01082393435484]], [[47.6932050490002, -19.005862610999827], [47.693080313489375, -19.005951534433827], [47.69841732200007, -19.007043525999848], [47.6932050490002, -19.005862610999827]], [[47.70275836669294, -19.014147415837087], [47.70108752877495, -19.013230095426305], [47.70140337600003, -19.013961878000032], [47.70275836669294, -19.014147415837087]], [[47.71704877200011, -19.01336123999988], [47.71407930900017, -19.014100000999917], [47.718341943869724, -19.013882918827335], [47.71704877200011, -19.01336123999988]], [[47.72030457400001, -19.014674663999926], [47.719125083628505, -19.01419884545758], [47.72634877000007, -19.022643090999964], [47.72030457400001, -19.014674663999926]], [[47.61324409400015, -18.486657640999965], [47.61655689100007, -18.48333227099988], [47.61712893140121, -18.48170922773474], [47.61324409400015, -18.486657640999965]], [[47.6589578277825, -18.627514604778995], [47.658958991000134, -18.626763329000028], [47.65514794400019, -18.625930517999848], [47.6589578277825, -18.627514604778995]], [[47.658655073653826, -18.6325965097458], [47.65895089600008, -18.631991565999897], [47.658955231710245, -18.629191304092824], [47.658655073653826, -18.6325965097458]], [[47.65456950526941, -18.647478020918435], [47.654976986000065, -18.646496772000035], [47.65537056800014, -18.63931317999993], [47.65456950526941, -18.647478020918435]], [[47.65163822282409, -18.653662603417075], [47.652160996000134, -18.65327791999988], [47.653915291229026, -18.649053425032633], [47.65163822282409, -18.653662603417075]]]}}]}