{"type":"FeatureCollection","features":[{"type":"Feature","properties":{"slug":"aomori","member_count":6,"matched_count":6,"unmatched":[],"source":"Overture Maps division_area (CC-BY 4.0)"},"geometry":{"type":"Polygon","coordinates":[[[140.86046,40.606655],[140.866678,40.574044],[140.863848,40.556347],[140.851443,40.544958],[140.879267,40.510526],[140.845014,40.507365],[140.820019,40.495336],[140.810622,40.487135],[140.803396,40.448596],[140.78684,40.457237],[140.762707,40.451253],[140.751099,40.43863],[140.734087,40.439688],[140.733563,40.415809],[140.699221,40.429422],[140.661473,40.404454],[140.634045,40.402341],[140.625562,40.424104],[140.589723,40.436118],[140.599145,40.442656],[140.599989,40.466382],[140.584853,40.486808],[140.599479,40.493064],[140.610993,40.478805],[140.621186,40.497932],[140.648407,40.493858],[140.678914,40.511041],[140.677316,40.520829],[140.648464,40.53168],[140.644428,40.541127],[140.63308,40.535126],[140.598143,40.542842],[140.577813,40.53714],[140.553886,40.550018],[140.553759,40.53721],[140.54429,40.547271],[140.533222,40.52779],[140.485495,40.519295],[140.483909,40.50836],[140.462922,40.503227],[140.461521,40.480892],[140.42707,40.482597],[140.406109,40.474644],[140.386957,40.487062],[140.377941,40.476545],[140.361295,40.478397],[140.347802,40.467553],[140.327331,40.481437],[140.323277,40.509472],[140.302027,40.527578],[140.310819,40.564396],[140.303914,40.573699],[140.308811,40.57884],[140.298931,40.584487],[140.310489,40.591512],[140.299453,40.594855],[140.294914,40.607685],[140.25791,40.619114],[140.247654,40.602801],[140.237196,40.604309],[140.230799,40.590491],[140.210926,40.581691],[140.198046,40.556598],[140.178107,40.566788],[140.163208,40.556955],[140.155047,40.571441],[140.157103,40.587525],[140.190804,40.593546],[140.189382,40.605671],[140.203303,40.608249],[140.218943,40.624497],[140.214346,40.633994],[140.22009,40.64087],[140.279546,40.654582],[140.27817,40.66236],[140.332164,40.692903],[140.337126,40.699441],[140.308931,40.703862],[140.292571,40.693012],[140.288193,40.72694],[140.332847,40.761373],[140.374807,40.774363],[140.362033,40.787211],[140.372183,40.781595],[140.377921,40.789821],[140.414583,40.761744],[140.422377,40.764584],[140.417332,40.780536],[140.436807,40.788509],[140.43723,40.809588],[140.422894,40.806506],[140.418705,40.815239],[140.425079,40.821029],[140.399263,40.857903],[140.40435,40.881452],[140.421337,40.887261],[140.428816,40.909879],[140.417549,40.910843],[140.417313,40.928513],[140.408825,40.936572],[140.413923,40.937723],[140.379562,40.942836],[140.376744,40.957666],[140.392454,40.980622],[140.377868,41.006985],[140.362439,41.01027],[140.366573,40.999823],[140.359448,40.993775],[140.338294,41.008094],[140.31840303111795,40.999826141227956],[140.319084,41.093158],[140.30578381334107,41.10657142188523],[140.2408238,41.0593252],[140.1798196,41.0296449],[140.0264034,40.9854013],[139.8255596,41.0499426],[140.2336681,41.2665483],[140.349691,41.248769],[140.37657,41.199316],[140.36319,41.152803],[140.399236,41.122154],[140.461458,41.117319],[140.455188,41.099359],[140.464071,41.086595],[140.49479,41.07092],[140.49497,41.051559],[140.519304,41.028979],[140.521653,40.995694],[140.545779,40.983047],[140.547765,40.97056],[140.600739,40.962448],[140.614851,40.948126],[140.66043794829972,40.94843091966183],[140.677884,40.885924],[140.70115,40.852175],[140.736685,40.829803],[140.78903550000004,40.8339122],[140.847326,40.874769],[140.860514,40.889018],[140.854996,40.903404],[140.881426,40.902344],[140.896844,40.879191],[140.931285,40.856202],[140.932276,40.84281],[140.953654,40.833534],[140.954863,40.817957],[140.980605,40.806189],[140.953415,40.765579],[140.918063,40.760851],[140.901909,40.743476],[140.90984,40.729176],[140.953165,40.718702],[140.978962,40.697622],[140.969826,40.691425],[140.954991,40.646997],[140.936195,40.642762],[140.877516,40.657304],[140.883787,40.640672],[140.876681,40.613891],[140.86046,40.606655]],[[140.419006,40.921874],[140.419221,40.920424],[140.419573,40.921826],[140.419006,40.921874]],[[140.421736,40.919347],[140.421624,40.920302],[140.419141,40.920111],[140.421736,40.919347]],[[140.367003,41.012068],[140.368105,41.013236],[140.371009,41.016341],[140.367003,41.012068]],[[140.391246,41.127059],[140.389617,41.127224],[140.387052,41.127316],[140.391246,41.127059]],[[140.387052,41.127316],[140.386694,41.127149],[140.38651793610154,41.126998173929984],[140.387052,41.127316]],[[140.43798135760505,40.784631976527585],[140.4359421,40.7850338],[140.4371331,40.7843025],[140.43798135760505,40.784631976527585]],[[140.43924412761464,40.78305747184881],[140.4383152,40.7829797],[140.43908156759525,40.78213696944804],[140.43924412761464,40.78305747184881]],[[140.43967894593823,40.781191106953386],[140.4388942,40.7812871],[140.4392989,40.7809006],[140.43967894593823,40.781191106953386]],[[140.44028367802832,40.78106827256853],[140.4404954,40.7809469],[140.4405983843731,40.78100434878989],[140.44028367802832,40.78106827256853]],[[140.44144449511933,40.780832485092354],[140.4420379,40.7804408],[140.4423215514904,40.78065433565795],[140.44144449511933,40.780832485092354]],[[140.4440578575768,40.78030165371248],[140.4439696,40.7798618],[140.44401372677112,40.77950426210411],[140.44413,40.780287],[140.4440578575768,40.78030165371248]],[[140.4437420086554,40.777675087252646],[140.4435223,40.7768737],[140.4438862,40.7761547],[140.4437420086554,40.777675087252646]],[[140.4436451,40.7752389],[140.44404273745997,40.775150449721686],[140.44395299087043,40.77579581228415],[140.4436451,40.7752389]],[[140.44404446852218,40.77513800175291],[140.4439163,40.7744202],[140.44419720902195,40.774039653605975],[140.44404446852218,40.77513800175291]],[[140.44421433915318,40.77391647181774],[140.444211,40.773387],[140.44431720145914,40.77317679489297],[140.44421433915318,40.77391647181774]],[[140.444354,40.77291217870257],[140.444354,40.772679],[140.4444285212468,40.77237630070381],[140.444354,40.77291217870257]],[[140.444533,40.771625],[140.445083,40.77128],[140.445818260692,40.77163724335429],[140.444533,40.771625]],[[140.4470482454091,40.771648960151325],[140.447982,40.771552],[140.4486711848458,40.771664420223075],[140.4470482454091,40.771648960151325]],[[140.450081,40.771074],[140.453103,40.77005],[140.45510853700083,40.77191401994636],[140.450081,40.771074]],[[140.456011710125,40.771345253866635],[140.4563025,40.7709145],[140.45717517454997,40.77061257141389],[140.456011710125,40.771345253866635]],[[140.458953,40.769493],[140.4621511,40.7614003],[140.46219108317507,40.76140960270006],[140.458953,40.769493]],[[140.466292,40.7613503],[140.46742924869864,40.761391965016884],[140.46601965306195,40.762030438323976],[140.466292,40.7613503]],[[140.46996477158746,40.758299534069835],[140.470197,40.758009],[140.47171568372545,40.757158000523106],[140.46996477158746,40.758299534069835]],[[140.4720470334951,40.756941972048814],[140.472279,40.756671],[140.472909,40.75638],[140.4720470334951,40.756941972048814]],[[140.477297,40.75779550599781],[140.477775,40.757561],[140.4779850593248,40.75852883567442],[140.477297,40.75779550599781]],[[140.478771,40.759627],[140.47867446320691,40.75978204394039],[140.478794,40.759391],[140.478771,40.759627]],[[140.47795,40.762152],[140.47828,40.762577],[140.47845483498546,40.76293686064145],[140.47795,40.762152]],[[140.47896088516464,40.76335299598548],[140.479252,40.763358],[140.4792628813105,40.76336169458448],[140.47896088516464,40.76335299598548]],[[140.47966409291794,40.76337325095346],[140.480113,40.76314],[140.48087808736173,40.76340821845555],[140.47966409291794,40.76337325095346]],[[140.485839,40.76552],[140.48579669736614,40.76579790480301],[140.485863,40.764909],[140.485839,40.76552]],[[140.48570145884185,40.7670747467135],[140.485691,40.76758],[140.485568,40.768864],[140.48570145884185,40.7670747467135]],[[140.489725,40.767387],[140.4899027715156,40.76584309303317],[140.48966879768918,40.767889698446766],[140.489725,40.767387]],[[140.49063744877077,40.7625018316711],[140.49055,40.763637],[140.49012943344223,40.76396962991388],[140.49063744877077,40.7625018316711]],[[140.4907111,40.7613918],[140.49073960019734,40.76117580886719],[140.49071418925627,40.76150566708319],[140.4907111,40.7613918]],[[140.49078438509483,40.760594458245414],[140.490427,40.760099],[140.490865,40.759548],[140.49078438509483,40.760594458245414]],[[140.49212013477432,40.75883550116551],[140.492255,40.758737],[140.492764,40.75847],[140.49212013477432,40.75883550116551]],[[140.494047,40.756689],[140.494581,40.756072],[140.49313853224226,40.75797570813599],[140.494047,40.756689]],[[140.494581,40.756072],[140.496499,40.756408],[140.498985,40.756952],[140.494581,40.756072]],[[140.497846,40.759253],[140.497738,40.759471],[140.49784602860225,40.75925277702562],[140.497846,40.759253]],[[140.50382585800668,40.75967530990935],[140.5021,40.757517],[140.503505,40.757762],[140.50382585800668,40.75967530990935]],[[140.508429,40.757528],[140.509504,40.757086],[140.510791,40.758414],[140.508429,40.757528]],[[140.513378,40.755339],[140.51342520235775,40.75466850372182],[140.51359835948213,40.75609058323372],[140.513378,40.755339]],[[140.5132572588697,40.753289242000086],[140.512804,40.752383],[140.51299698851932,40.75115173172374],[140.5132572588697,40.753289242000086]],[[140.51278506501995,40.74941127739581],[140.512304,40.748802],[140.5126581889874,40.74836928846752],[140.51278506501995,40.74941127739581]],[[140.511822,40.747624],[140.511596,40.74737],[140.512584,40.74776],[140.511822,40.747624]],[[140.511596,40.74737],[140.511519,40.74601],[140.512091,40.744487],[140.511596,40.74737]],[[140.512953,40.74288394242221],[140.513025,40.742647],[140.51313381779036,40.742547676379274],[140.512953,40.74288394242221]],[[140.513602,40.741677],[140.513888,40.74146],[140.51410033418148,40.741394464758805],[140.513602,40.741677]],[[140.5144581315046,40.73948123799326],[140.513978,40.739257],[140.51363287824785,40.738487755818966],[140.5144581315046,40.73948123799326]],[[140.51260679144792,40.737252499930314],[140.512448,40.737136],[140.512412,40.737018],[140.51260679144792,40.737252499930314]],[[140.512495,40.736891],[140.5125048072788,40.73688568440174],[140.512412,40.737018],[140.512495,40.736891]],[[140.513906,40.734888],[140.512121,40.735432],[140.51777817742584,40.73255378119948],[140.513906,40.734888]],[[140.518448,40.73215],[140.5189778,40.7313104],[140.51915059099193,40.73118329777245],[140.518448,40.73215]],[[140.51960514389748,40.73055787371866],[140.519739,40.730283],[140.51996950969212,40.730056539045464],[140.51960514389748,40.73055787371866]],[[140.520233,40.729694],[140.520358,40.729095],[140.521275,40.728679],[140.520233,40.729694]],[[140.5214740994382,40.72785532232417],[140.521436,40.727382],[140.521719920777,40.72683835537121],[140.5214740994382,40.72785532232417]],[[140.52218,40.724935],[140.521471,40.723584],[140.521121,40.721962],[140.52218,40.724935]],[[140.521014,40.721527],[140.528597,40.700025],[140.520402,40.69435],[140.536199,40.688141],[140.518432,40.691685],[140.502337,40.70937],[140.492063,40.684583],[140.474643,40.680009],[140.478631,40.668819],[140.467044,40.671637],[140.460792,40.66139],[140.478013,40.645576],[140.494796,40.649715],[140.513831,40.615245],[140.52723,40.628507],[140.557033,40.623436],[140.582071,40.630959],[140.565068,40.660473],[140.575995,40.660188],[140.568235,40.668748],[140.57824,40.687322],[140.559176,40.688068],[140.550324,40.669717],[140.540726,40.687663],[140.547061,40.700258],[140.521014,40.721527]],[[140.463389,40.674161],[140.463706,40.676272],[140.463411,40.679094],[140.463389,40.674161]],[[140.46326495338187,40.68278378676519],[140.467499,40.683027],[140.466391,40.682999],[140.46326495338187,40.68278378676519]],[[140.46273326095428,40.68275324514699],[140.462519,40.682741],[140.462346,40.682731],[140.46273326095428,40.68275324514699]],[[140.460730463946,40.6855898081554],[140.4623381,40.6846941],[140.4614906,40.6852813],[140.460730463946,40.6855898081554]],[[140.456076,40.687575],[140.4553825,40.6888769],[140.4536890880277,40.69438396989683],[140.454771,40.689666],[140.456076,40.687575]],[[140.4534834764237,40.69474506797309],[140.451702,40.696127],[140.450769,40.696593],[140.4534834764237,40.69474506797309]],[[140.443496,40.701658],[140.441686,40.70552],[140.443883,40.700791],[140.443496,40.701658]],[[140.441686,40.70552],[140.44002,40.706478],[140.4387754381915,40.70677714637574],[140.441686,40.70552]],[[140.43514235094216,40.70890128206437],[140.433793,40.710901],[140.432956,40.711791],[140.43514235094216,40.70890128206437]],[[140.426806,40.721554],[140.42704410843965,40.72059045166432],[140.427024,40.720751],[140.426806,40.721554]],[[140.426806,40.721554],[140.426387,40.722253],[140.42555,40.722876],[140.426806,40.721554]],[[140.42555,40.722876],[140.423817,40.723342],[140.42321129293265,40.72343278343336],[140.42555,40.722876]],[[140.41806804087548,40.72713542029044],[140.419532,40.729501],[140.420043,40.731428],[140.41806804087548,40.72713542029044]],[[140.420043,40.731428],[140.420055,40.733134],[140.4200038439698,40.73336827452527],[140.420043,40.731428]],[[140.41995,40.736134],[140.419938,40.736631],[140.41994817143336,40.73612698125936],[140.41995,40.736134]],[[140.419938,40.736631],[140.418076,40.736886],[140.414726,40.736928],[140.419938,40.736631]],[[140.414726,40.736928],[140.41267,40.737532],[140.41148126207636,40.73749041400182],[140.414726,40.736928]],[[140.40974567589046,40.73779124506901],[140.410537,40.738228],[140.409768,40.738289],[140.40974567589046,40.73779124506901]],[[140.408749,40.737964],[140.40923706219698,40.73787940364128],[140.409217,40.737959],[140.408749,40.737964]],[[140.405954,40.734406],[140.405206,40.735261],[140.403378,40.734652],[140.405954,40.734406]],[[140.403762,40.737569],[140.401851,40.738223],[140.40260494219467,40.73645985161942],[140.403762,40.737569]],[[140.40051128271816,40.7456424011403],[140.401379,40.74603],[140.400696,40.746058],[140.40051128271816,40.7456424011403]],[[140.39955840200898,40.746505561410565],[140.399458,40.746602],[140.399357,40.746688],[140.39955840200898,40.746505561410565]],[[140.39730660745045,40.74738765107922],[140.395925,40.748106],[140.395008,40.748172],[140.39730660745045,40.74738765107922]],[[140.392973,40.744827],[140.3924220751014,40.744545000720684],[140.393152,40.744776],[140.392973,40.744827]],[[140.391828,40.744363],[140.391373,40.744213],[140.39184919649753,40.74436370187078],[140.391828,40.744363]],[[140.3893396926271,40.742833516278594],[140.38963978275208,40.74303711040703],[140.389348,40.742845],[140.3893396926271,40.742833516278594]],[[140.388396,40.742256],[140.38775,40.741755],[140.38850248944956,40.74226552140961],[140.388396,40.742256]],[[140.38722426067494,40.74278654235768],[140.387485,40.743921],[140.38639067680916,40.74442210018114],[140.38722426067494,40.74278654235768]],[[140.38528305247328,40.745262271531445],[140.384967,40.745767],[140.38365080343297,40.74584943076245],[140.38528305247328,40.745262271531445]],[[140.383071,40.746058],[140.383351,40.74681],[140.383222,40.747546],[140.383071,40.746058]],[[140.383222,40.747546],[140.381138,40.747529],[140.3790770367822,40.746403320866825],[140.383222,40.747546]],[[140.373092,40.747286],[140.372919,40.747688],[140.37305491154655,40.74718930510349],[140.373092,40.747286]],[[140.372919,40.747688],[140.370586,40.748174],[140.36909426089355,40.74814396324654],[140.372919,40.747688]],[[140.365487,40.748574],[140.36456,40.749524],[140.36322,40.749499],[140.365487,40.748574]],[[140.360398,40.748217],[140.358586,40.748893],[140.3577940854319,40.74884978735313],[140.360398,40.748217]],[[140.354334,40.752837],[140.35421310646,40.75295481533621],[140.35428080444643,40.7527766158581],[140.354334,40.752837]],[[140.3548006152171,40.753982605200605],[140.355189,40.754178],[140.3554193642238,40.754704528454674],[140.3548006152171,40.753982605200605]],[[140.35577662242753,40.75512135822283],[140.356552,40.755562],[140.35621,40.755627],[140.35577662242753,40.75512135822283]],[[140.353729,40.756085],[140.349559,40.757619],[140.346616,40.758485],[140.353729,40.756085]],[[140.346616,40.758485],[140.343131,40.759159],[140.34131704187388,40.75904601271203],[140.346616,40.758485]],[[140.430789,40.920161],[140.430805,40.920051],[140.43049,40.922265],[140.430789,40.920161]],[[140.435035,40.922595],[140.434393,40.922549],[140.43049,40.922265],[140.435035,40.922595]],[[140.43441162019175,40.92570073643929],[140.434453,40.925573],[140.434668,40.925252],[140.43441162019175,40.92570073643929]],[[140.4328988725597,40.92834846829694],[140.433959,40.926416],[140.4339985809593,40.92642367072855],[140.4328988725597,40.92834846829694]],[[140.43274720692753,40.930157076263974],[140.432479,40.930086],[140.431989,40.929941],[140.43274720692753,40.930157076263974]],[[140.44822608174513,40.93590368080937],[140.447498,40.936042],[140.447151,40.936107],[140.44822608174513,40.93590368080937]],[[140.45318303390792,40.93496622325669],[140.451015,40.93549],[140.4502888484383,40.93551357088851],[140.45318303390792,40.93496622325669]],[[140.456103,40.934414],[140.455485,40.934536],[140.45542405230526,40.93454240241814],[140.456103,40.934414]],[[140.46261612103393,40.93501777693277],[140.461655,40.934961],[140.46156221956878,40.934920078549645],[140.46261612103393,40.93501777693277]],[[140.46462991789977,40.93594296515514],[140.464036,40.935577],[140.46368030170163,40.935281940496765],[140.46462991789977,40.93594296515514]],[[140.46771,40.938087],[140.466543,40.937644],[140.46649336218874,40.93724010249012],[140.46771,40.938087]],[[140.472913,40.93952],[140.470887,40.938704],[140.47063923232798,40.93851054879174],[140.472913,40.93952]],[[140.4735227639396,40.94110807885279],[140.472896,40.940701],[140.473163474463,40.94017233965482],[140.4735227639396,40.94110807885279]],[[140.475294,40.942194],[140.47528206579474,40.94219272027225],[140.47532445495676,40.942187487042375],[140.475294,40.942194]],[[140.476358,40.94216],[140.476187,40.942081],[140.47636524842272,40.94216],[140.476358,40.94216]],[[140.479048,40.943349],[140.477377,40.943011],[140.477022,40.94245107340091],[140.479048,40.943349]],[[140.48272066504552,40.942394514407766],[140.481367,40.943106],[140.479048,40.943349],[140.48272066504552,40.942394514407766]],[[140.48708295024852,40.94236629319423],[140.485986,40.942559],[140.484458,40.941943],[140.48708295024852,40.94236629319423]],[[140.4884147942833,40.94380850830751],[140.488092,40.943619],[140.487874842785,40.94305787611673],[140.4884147942833,40.94380850830751]],[[140.49145791611187,40.94670883821571],[140.490885,40.946701],[140.490289,40.946414],[140.49145791611187,40.94670883821571]],[[140.49355132750267,40.9472368638567],[140.492831,40.947127],[140.49274700788325,40.94703398859556],[140.49355132750267,40.9472368638567]],[[140.496411,40.947213],[140.495486,40.947274],[140.493873,40.947318],[140.496411,40.947213]],[[140.49950267471036,40.94782389421814],[140.498407,40.947801],[140.496411,40.947213],[140.49950267471036,40.94782389421814]],[[140.50570703735397,40.9515812305906],[140.502846,40.950039],[140.502145,40.948346],[140.50570703735397,40.9515812305906]],[[140.506701,40.952484],[140.506411,40.95233],[140.5062442826863,40.95206918519666],[140.506701,40.952484]],[[140.511549,40.960167],[140.510738,40.959177],[140.50993567594634,40.95801571130253],[140.511549,40.960167]],[[140.51360693907978,40.964431155550834],[140.512905,40.963464],[140.51226520839222,40.9616510206016],[140.51360693907978,40.964431155550834]],[[140.513427,40.965984],[140.5134856153378,40.96576989607152],[140.513386,40.966217],[140.513427,40.965984]],[[140.51345898726035,40.96640621012072],[140.513415,40.966344],[140.513386,40.966217],[140.51345898726035,40.96640621012072]],[[140.51456790482845,40.96928093683181],[140.514108,40.968976],[140.51389138340943,40.967527141734806],[140.51456790482845,40.96928093683181]],[[140.513047,40.972937],[140.513731,40.971794],[140.515064,40.970567],[140.513047,40.972937]],[[140.51264095703618,40.97421254446894],[140.51285,40.973416],[140.513047,40.972937],[140.51264095703618,40.97421254446894]],[[140.512163,40.975714],[140.512174,40.975595],[140.5122390613608,40.97547506063471],[140.512163,40.975714]],[[140.51316356610255,40.9761387038092],[140.512337,40.975859],[140.512163,40.975714],[140.51316356610255,40.9761387038092]],[[140.51438,40.977514],[140.51441790040516,40.97735351547187],[140.51438247200434,40.977660397591826],[140.51438,40.977514]],[[140.51487482453305,40.979649699706435],[140.514364,40.97911],[140.514277,40.978574],[140.51487482453305,40.979649699706435]],[[140.515832,40.981372],[140.515685,40.981173],[140.515672050654,40.98108419403854],[140.515832,40.981372]],[[140.515852,40.985855],[140.515811,40.98495],[140.51692143287565,40.98443168611036],[140.515852,40.985855]],[[140.51645534391653,40.986559056656866],[140.516205,40.986377],[140.515852,40.985855],[140.51645534391653,40.986559056656866]],[[140.516318,40.989921],[140.516336,40.989253],[140.517146,40.987365],[140.516318,40.989921]],[[140.517074,40.991685],[140.516584,40.99061],[140.516318,40.989921],[140.517074,40.991685]],[[140.5179474440663,40.992218334628824],[140.517478,40.992002],[140.517074,40.991685],[140.5179474440663,40.992218334628824]],[[140.45310339683883,41.10463999299448],[140.453805,41.104589],[140.45475372389012,41.10504435984752],[140.45310339683883,41.10463999299448]],[[140.450227,41.103078],[140.45063731507202,41.10377736074672],[140.4501743298079,41.10301616977448],[140.450227,41.103078]],[[140.449493,41.101896],[140.449604,41.102057],[140.44961045182365,41.10208910175675],[140.449493,41.101896]],[[140.448591,41.097049],[140.448977,41.098506],[140.44890667854352,41.0987453347012],[140.448591,41.097049]],[[140.44774,41.094513],[140.44715797044879,41.09483651469613],[140.4478033871781,41.09444556683181],[140.44774,41.094513]],[[140.449409,41.093473],[140.448668,41.0941],[140.44820392656445,41.09420294836446],[140.449409,41.093473]],[[140.44933728134072,41.0916970666995],[140.449587,41.091851],[140.449409,41.093473],[140.44933728134072,41.0916970666995]],[[140.449384,41.090147],[140.44928957114072,41.09051564287217],[140.449268633499,41.08999717451863],[140.449384,41.090147]],[[140.4496842258628,41.089309987847976],[140.44991960082174,41.08920127825355],[140.449877,41.089232],[140.4496842258628,41.089309987847976]],[[140.452146,41.088173],[140.450695,41.088998],[140.45027844855488,41.089035541882495],[140.452146,41.088173]],[[140.45141207083887,41.08677540565127],[140.451786,41.087031],[140.452146,41.088173],[140.45141207083887,41.08677540565127]],[[140.453188,41.083197],[140.452304,41.084542],[140.450809,41.085627],[140.453188,41.083197]],[[140.452449,41.078807],[140.452624,41.080518],[140.451974,41.081892],[140.452449,41.078807]],[[140.4507775486384,41.077924440943185],[140.451868,41.078317],[140.452449,41.078807],[140.4507775486384,41.077924440943185]],[[140.445217,41.077361],[140.447289,41.076387],[140.448773,41.076866],[140.445217,41.077361]],[[140.442846,41.075797],[140.44395682510884,41.07656172317454],[140.4425001672296,41.075637825314296],[140.442846,41.075797]],[[140.437616,41.07254],[140.439968,41.073502],[140.44061523234208,41.07444228905687],[140.437616,41.07254]],[[140.43666089325913,41.07047795338631],[140.43649,41.070109],[140.436638,41.070363],[140.43666089325913,41.07047795338631]],[[140.432845,41.065271],[140.434551,41.067277],[140.43479958275302,41.06786531313009],[140.432845,41.065271]],[[140.427078,41.060114],[140.427829,41.060745],[140.4280863867786,41.06101572544083],[140.427078,41.060114]],[[140.422751,41.058745],[140.424543,41.059087],[140.427078,41.060114],[140.422751,41.058745]],[[140.421486,41.057642],[140.42199185977205,41.058150455965624],[140.421003,41.057376],[140.421486,41.057642]],[[140.417716,41.052479],[140.418487,41.053187],[140.419324,41.053977],[140.417716,41.052479]],[[140.417148,41.050726],[140.41727401793548,41.05152589235174],[140.41680436318813,41.050513110233034],[140.417148,41.050726]],[[140.4158225072176,41.04589164978545],[140.416233,41.046802],[140.416704,41.048183],[140.4158225072176,41.04589164978545]],[[140.415723,41.045086],[140.415761,41.04573176807227],[140.415376,41.044731],[140.415723,41.045086]],[[140.40752538417462,41.043779013030694],[140.409266,41.044283],[140.410208,41.044844],[140.40752538417462,41.043779013030694]],[[140.406318,41.043179],[140.40690788715688,41.04353386936485],[140.406014,41.043179],[140.406318,41.043179]],[[140.40332887336814,41.0439260372925],[140.404102,41.043451],[140.406014,41.043179],[140.40332887336814,41.0439260372925]],[[140.39513229457708,41.044765029921415],[140.39659,41.044394],[140.398739,41.045203],[140.39513229457708,41.044765029921415]],[[140.3890095673721,41.04402153384932],[140.390779,41.044152],[140.39429304107782,41.0446631175449],[140.3890095673721,41.04402153384932]],[[140.388225,41.043722],[140.388824,41.043999],[140.3878830992146,41.043710960089754],[140.388225,41.043722]],[[140.386103,41.040382],[140.3858300647614,41.0407207793655],[140.386266,41.040028],[140.386103,41.040382]],[[140.399219,41.040123],[140.393774,41.040253],[140.38938471413115,41.04005087329904],[140.399219,41.040123]],[[140.403062,41.039244],[140.403109,41.039657],[140.399219,41.040123],[140.403062,41.039244]],[[140.406104,41.036093],[140.404577,41.037775],[140.4034227532098,41.038870320393144],[140.406104,41.036093]],[[140.406949,41.034181],[140.40663642559113,41.03467332124381],[140.40719946895777,41.03317200214929],[140.406949,41.034181]],[[140.410443,41.031332],[140.40913689846116,41.03166827823594],[140.410793,41.031072],[140.410443,41.031332]],[[140.41533,41.027213],[140.41458071283535,41.02762512396749],[140.415416,41.026865],[140.41533,41.027213]],[[140.413991,41.023361],[140.414968,41.024706],[140.415416,41.026865],[140.413991,41.023361]],[[140.41385398504076,41.02267703733817],[140.414053,41.023018],[140.413991,41.023361],[140.41385398504076,41.02267703733817]],[[140.413539,41.020375],[140.41352421040162,41.02103084088461],[140.413375,41.020286],[140.413539,41.020375]],[[140.41159723808906,41.017556289367796],[140.411829,41.016557],[140.411759,41.016906],[140.41159723808906,41.017556289367796]],[[140.408208,41.017749],[140.408869,41.017259],[140.411829,41.016557],[140.408208,41.017749]],[[140.404804,41.022752],[140.406977,41.019554],[140.408208,41.017749],[140.404804,41.022752]],[[140.397514,41.018304],[140.398596,41.019772],[140.398791,41.02018],[140.397514,41.018304]],[[140.393382,41.018356],[140.395801,41.018197],[140.397514,41.018304],[140.393382,41.018356]],[[140.392034,41.019117],[140.392183,41.01884],[140.393382,41.018356],[140.392034,41.019117]],[[140.3857369959814,41.02158137752989],[140.382349,41.020056],[140.384355,41.020899],[140.3857369959814,41.02158137752989]],[[140.38394815831958,41.12704188206791],[140.38383,41.127065],[140.38379508189513,41.12707118949685],[140.38394815831958,41.12704188206791]],[[140.382379,41.127283],[140.3821574980151,41.127176436344065],[140.382741,41.127273],[140.382379,41.127283]],[[140.378404,41.127738],[140.377957,41.127886],[140.3786815421685,41.12760170783857],[140.378404,41.127738]],[[140.377696,41.127869],[140.37767852352368,41.12786691946711],[140.377957,41.127886],[140.377696,41.127869]],[[140.374031,41.127617],[140.372547,41.126842],[140.372009,41.125964],[140.374031,41.127617]],[[140.3675311286318,41.12520990778884],[140.36735,41.12522],[140.367021,41.125124],[140.3675311286318,41.12520990778884]],[[140.3624491251589,41.122843308228816],[140.360518,41.121881],[140.359177,41.121211],[140.3624491251589,41.122843308228816]],[[140.359177,41.121211],[140.35745,41.119201],[140.357127,41.118254],[140.359177,41.121211]],[[140.35570081699137,41.11710038766941],[140.354654,41.116302],[140.354312,41.115977],[140.35570081699137,41.11710038766941]],[[140.354312,41.115977],[140.354129,41.114446],[140.354091,41.113939],[140.354312,41.115977]],[[140.352465,41.112351],[140.352073,41.111585],[140.3520030514119,41.111140071324506],[140.352465,41.112351]],[[140.34792835788954,41.10960595219605],[140.347556,41.109872],[140.347316,41.109968],[140.34792835788954,41.10960595219605]],[[140.344134,41.110399],[140.343185,41.110408],[140.34452109090483,41.11026569063226],[140.344134,41.110399]],[[140.343185,41.110408],[140.341325,41.109757],[140.34009631929152,41.108794575962634],[140.343185,41.110408]],[[140.33498562183266,41.106831195478094],[140.334331,41.106995],[140.332513,41.106992],[140.33498562183266,41.106831195478094]],[[140.332007,41.106935],[140.33158966517166,41.1067200699806],[140.332513,41.106992],[140.332007,41.106935]],[[140.329654,41.10615],[140.328667,41.106581],[140.32768184334012,41.106739904099484],[140.329654,41.10615]],[[140.326129,41.108906],[140.324643,41.109374],[140.326712,41.10703],[140.326129,41.108906]],[[140.324643,41.109374],[140.322239,41.108743],[140.32185506116298,41.1085995324091],[140.324643,41.109374]],[[140.320784,41.108302],[140.318943,41.108609],[140.317703,41.108599],[140.320784,41.108302]],[[140.313538147784,41.10618174349524],[140.313536,41.10618],[140.313534,41.106178],[140.313538147784,41.10618174349524]],[[140.311257,41.107527],[140.310850772207,41.10768484152198],[140.31155870357625,41.107287282885814],[140.311257,41.107527]],[[140.310253,41.10845],[140.309897,41.109221],[140.310416,41.107929],[140.310253,41.10845]],[[140.309897,41.109221],[140.308872,41.108857],[140.30578401633286,41.10657155831056],[140.309897,41.109221]]]}}]}