{"type": "FeatureCollection", "features": [{"type": "Feature", "properties": {"slug": "ardabl", "members": 1, "country": "Iran", "input_hash": "d8d39af4abea3f78"}, "geometry": {"type": "Polygon", "coordinates": [[[47.9023285, 38.2874813], [47.899166, 38.256029], [47.9141802, 38.2473434], [47.9955648, 38.2595255], [48.1044314, 38.2293289], [48.1786696, 38.2475059], [48.1730318, 38.2153902], [48.1603074, 38.1949157], [48.1239878, 38.1779164], [48.1489055, 38.154174], [48.1464796, 38.1135324], [48.191383, 38.0880891], [48.1883265, 38.0578068], [48.197493, 38.0503124], [48.2230529, 38.0591997], [48.2319394, 38.0839198], [48.275552, 38.1142008], [48.2994451, 38.1194841], [48.3124984, 38.1414255], [48.3263668, 38.1477627], [48.3702812, 38.0864271], [48.3633346, 38.0683658], [48.3233354, 38.0225357], [48.3258355, 38.0086421], [48.3500017, 37.9994755], [48.341718, 37.9479947], [48.3876327, 37.949871], [48.4219328, 37.9237094], [48.4747538, 37.9403119], [48.5817749, 37.9365559], [48.5911524, 37.9419484], [48.5904693, 37.9701847], [48.6034449, 37.9941729], [48.5887527, 38.004448], [48.586774, 38.0166258], [48.6091803, 38.0428189], [48.6385344, 38.0533631], [48.6534689, 38.0857973], [48.6499071, 38.1035624], [48.6792442, 38.1585642], [48.6071204, 38.1833509], [48.5970745, 38.2112183], [48.5452154, 38.2012728], [48.4972162, 38.2250731], [48.4658553, 38.2198191], [48.43834, 38.24254], [48.4233369, 38.2678179], [48.441393, 38.3008734], [48.4452829, 38.3336483], [48.3627805, 38.3300376], [48.3294442, 38.3408782], [48.2861075, 38.3742075], [48.2969444, 38.4211491], [48.2849976, 38.4572661], [48.3072205, 38.491989], [48.2822207, 38.5142114], [48.2859163, 38.5403978], [48.3066788, 38.58023], [48.3321411, 38.6010417], [48.3102234, 38.6076539], [48.2952436, 38.6455236], [48.2422175, 38.6047706], [48.1338788, 38.6025441], [48.1002655, 38.5867173], [48.0749862, 38.5381025], [48.1233222, 38.5133761], [48.1283224, 38.4955981], [48.0994326, 38.4828209], [48.0658197, 38.4894923], [47.9488713, 38.4222618], [47.943038, 38.4155985], [47.9522046, 38.4055944], [47.9564652, 38.3686004], [47.9240799, 38.3406128], [47.8790317, 38.3199846], [47.8835249, 38.3013545], [47.9023285, 38.2874813]]]}}]}