{"type": "FeatureCollection", "features": [{"type": "Feature", "properties": {"slug": "arezzo", "members": 36, "country": "Italy", "input_hash": "cfe5409844d621fe"}, "geometry": {"type": "MultiPolygon", "coordinates": [[[[11.7880029, 43.234553], [11.7494262, 43.233715], [11.7186376, 43.2547863], [11.7225333, 43.258599], [11.7005687, 43.2859705], [11.6767236, 43.2860604], [11.6580243, 43.3217013], [11.6246482, 43.3433437], [11.5666644, 43.3621502], [11.5646081, 43.3744431], [11.5322886, 43.3906629], [11.5516899, 43.4589534], [11.5289405, 43.456548], [11.513514, 43.4686942], [11.5014532, 43.4605427], [11.4595295, 43.499776], [11.4613367, 43.5102501], [11.4358871, 43.5119486], [11.4251585, 43.5298114], [11.3974431, 43.5468309], [11.408452, 43.5610687], [11.4455846, 43.566472], [11.4631891, 43.5868787], [11.4930843, 43.5780569], [11.5215437, 43.5811446], [11.4944839, 43.6231535], [11.4843713, 43.6261892], [11.511206, 43.641824], [11.5507722, 43.6472889], [11.5388088, 43.661093], [11.609031, 43.6855727], [11.6075088, 43.69924], [11.5914781, 43.7171009], [11.5776679, 43.7202621], [11.5721141, 43.7332421], [11.5898444, 43.7469886], [11.5818713, 43.766104], [11.5955195, 43.7710922], [11.604479, 43.8104588], [11.6295143, 43.8218485], [11.6220668, 43.8318263], [11.6312005, 43.8473367], [11.6527979, 43.8416143], [11.6492676, 43.8601164], [11.6598899, 43.8715748], [11.7166504, 43.8764779], [11.7329274, 43.8620342], [11.7862304, 43.8465723], [11.8184142, 43.8164426], [11.8418885, 43.8075021], [11.8682822, 43.8175153], [11.8854435, 43.807937], [11.9105658, 43.8133372], [11.918949, 43.7935026], [11.9461666, 43.7905569], [11.9582997, 43.7738354], [11.9865851, 43.7619177], [12.0063721, 43.7665167], [12.0419979, 43.7536572], [12.0518542, 43.7573948], [12.0704869, 43.7407635], [12.1058236, 43.753516], [12.1406666, 43.7519387], [12.1624794, 43.7623362], [12.1953682, 43.7308081], [12.2079248, 43.7575394], [12.2520873, 43.7518346], [12.2569893, 43.760231], [12.2825775, 43.7651621], [12.3273254, 43.7505234], [12.3692455, 43.7145849], [12.3706674, 43.7072747], [12.358773, 43.7022184], [12.3303547, 43.7084172], [12.3364887, 43.6791885], [12.3231149, 43.6757721], [12.3161298, 43.6786281], [12.3204343, 43.6938362], [12.3085839, 43.7296559], [12.3010425, 43.7199093], [12.3059879, 43.6976646], [12.2916272, 43.6900943], [12.2947535, 43.6842305], [12.2727004, 43.6762095], [12.2441689, 43.6817804], [12.2502215, 43.6716207], [12.2328026, 43.6555382], [12.1856196, 43.642112], [12.2138068, 43.6108907], [12.1625387, 43.5608025], [12.1532945, 43.5287635], [12.1423406, 43.5357599], [12.1164737, 43.5270238], [12.1088474, 43.5320219], [12.0905382, 43.5115589], [12.0937708, 43.4983785], [12.1451121, 43.4789959], [12.1432871, 43.4697346], [12.1291411, 43.4722805], [12.1032787, 43.4597862], [12.0810035, 43.4325144], [12.0567912, 43.4383217], [12.0252105, 43.4155739], [12.032936, 43.4002249], [12.0773061, 43.4021445], [12.0774345, 43.3655679], [12.1031515, 43.3720565], [12.1223894, 43.3608262], [12.1374313, 43.3278452], [12.1248321, 43.305697], [12.1309371, 43.2932054], [12.1769421, 43.2816151], [12.1943655, 43.312115], [12.2246532, 43.2957978], [12.2096567, 43.2823191], [12.1751689, 43.2733593], [12.1468072, 43.2539607], [12.1205996, 43.2548469], [12.0922658, 43.235933], [12.0484493, 43.2527672], [12.0340498, 43.246458], [12.0446441, 43.2296919], [12.036207, 43.2255916], [12.0226897, 43.1862209], [11.9887863, 43.1817418], [11.9615158, 43.1670678], [11.9303796, 43.1766764], [11.9192806, 43.1676993], [11.9034459, 43.1745975], [11.8878478, 43.1563413], [11.8482381, 43.1887306], [11.8338218, 43.2243783], [11.7958575, 43.2220796], [11.7880029, 43.234553]]], [[[12.2435535, 43.7851663], [12.213435, 43.7839256], [12.1924049, 43.7718039], [12.1701183, 43.7940697], [12.1752303, 43.7997546], [12.1696903, 43.8063865], [12.1769099, 43.8113186], [12.1871077, 43.8039031], [12.2173654, 43.8027141], [12.224249, 43.8099654], [12.2334188, 43.8067623], [12.2435535, 43.7851663]]]]}}]}