{"type": "FeatureCollection", "features": [{"type": "Feature", "properties": {"slug": "ariquemes", "members": 1, "country": "Brazil", "input_hash": "6baba617ba331a0a"}, "geometry": {"type": "Polygon", "coordinates": [[[-62.493, -9.772], [-62.536, -9.732], [-62.5565658, -9.6691601], [-62.5653374, -9.6946751], [-62.5845035, -9.7034339], [-62.5829724, -9.7226258], [-62.5991734, -9.7365288], [-62.610146, -9.735995], [-62.6298393, -9.7691288], [-62.6546156, -9.7808774], [-62.66079, -9.8112681], [-62.68031, -9.8476602], [-62.7370872, -9.8138739], [-62.7945062, -9.8017216], [-62.8368993, -9.7510635], [-62.996, -9.752], [-63.02, -9.746], [-63.101, -9.752], [-63.089, -9.781], [-63.295, -9.787], [-63.285, -9.813], [-63.291, -9.833], [-63.499, -9.833], [-63.499, -9.715], [-63.572, -9.716], [-63.564, -9.752], [-63.58, -9.79], [-63.588, -9.86], [-63.579, -9.878], [-63.616, -9.929], [-63.616, -9.963], [-63.596, -10.0], [-63.1128933, -9.9999677], [-63.1137621, -10.0192458], [-63.1460847, -10.0725806], [-63.1472737, -10.0978801], [-63.1582138, -10.1115202], [-63.1745236, -10.1159926], [-63.1734541, -10.135827], [-63.1817572, -10.139917], [-63.1915147, -10.1332683], [-63.1942365, -10.1417579], [-63.2145084, -10.1509702], [-63.2059038, -10.1540571], [-63.2153323, -10.1629175], [-63.2103168, -10.1671801], [-62.8325019, -10.1674451], [-62.7467883, -10.234205], [-62.7394, -10.2480837], [-62.7264458, -10.2467313], [-62.6696647, -10.2878158], [-62.617, -10.195], [-62.592, -10.182], [-62.58, -10.129], [-62.586, -10.108], [-62.568, -10.099], [-62.576, -10.093], [-62.572, -10.067], [-62.5603518, -10.0536408], [-62.5347912, -10.0516947], [-62.524, -10.012], [-62.509236, -9.995486], [-62.5036138, -9.9641969], [-62.463, -9.93], [-62.463, -9.915], [-62.449, -9.893], [-62.455, -9.862], [-62.447, -9.822], [-62.422, -9.804], [-62.435, -9.78], [-62.493, -9.772]]]}}]}