{"type": "FeatureCollection", "features": [{"type": "Feature", "properties": {"slug": "arnhem-nijmegen", "members": 18, "country": "Netherlands", "input_hash": "4c4ac48df1b21a25"}, "geometry": {"type": "Polygon", "coordinates": [[[5.9559426, 51.7081309], [5.9666209, 51.6501778], [6.0226594, 51.6188515], [6.0249435, 51.5980637], [6.0481208, 51.5584625], [6.0316689, 51.5523388], [6.0042529, 51.5702435], [5.9066627, 51.5520309], [5.8914662, 51.5602047], [5.8202162, 51.5686737], [5.8005861, 51.5786218], [5.7866784, 51.5982084], [5.7586147, 51.5939465], [5.7343591, 51.677622], [5.6999602, 51.7114516], [5.7188116, 51.7329263], [5.6981163, 51.7385073], [5.7019239, 51.7555289], [5.6908582, 51.7591307], [5.715098668162726, 51.77501977459942], [5.6602083, 51.7962261], [5.6410077, 51.8180392], [5.5979766, 51.8280494], [5.6432002, 51.8449883], [5.6347015, 51.8510888], [5.6361774, 51.8673616], [5.6715208038289315, 51.862639197034866], [5.6850138, 51.8956485], [5.713051629777472, 51.89136532846509], [5.6962776, 51.9208522], [5.6760093, 51.921115], [5.6930307, 51.9346475], [5.6603509, 51.9296122], [5.6596188, 51.9370819], [5.6677586, 51.9388918], [5.6463228, 51.9410909], [5.6504522, 51.9474708], [5.722580821666981, 51.96409193485738], [5.7136083, 51.968243], [5.7243627, 52.0007083], [5.7358836, 52.0023201], [5.7451375, 52.0197687], [5.8133737, 52.0240706], [5.8083383, 52.0187599], [5.8379181, 52.0466318], [5.8994014, 52.0499582], [5.8981245, 52.063362], [5.9450591, 52.0778317], [5.9904799, 52.0791642], [6.0088486, 52.0740142], [6.007091179317855, 52.06640211858568], [6.0237378, 52.0672825], [6.0682805, 52.088246], [6.1357511, 52.0620586], [6.1113099, 52.0441594], [6.1125993, 52.0382351], [6.1755392, 52.0393776], [6.1765469, 52.0192284], [6.1645119, 52.0169701], [6.1539474, 52.003524], [6.1643094, 51.9990032], [6.1606736, 51.9810504], [6.14505793207932, 51.97966060789973], [6.1631427, 51.9553233], [6.2047086, 51.9366676], [6.2031231, 51.9421955], [6.2207531, 51.9445756], [6.3020664, 51.9441341], [6.3068889, 51.9378481], [6.2987141, 51.939038], [6.2897208, 51.9265911], [6.315671, 51.9183643], [6.3069966, 51.9042745], [6.3322792, 51.8932678], [6.3242285, 51.8889236], [6.3316329, 51.8748208], [6.3224926, 51.8686704], [6.2726957, 51.8747116], [6.2618415, 51.8681381], [6.215057, 51.8676262], [6.1835495, 51.8825312], [6.1910851, 51.8916571], [6.1562254, 51.9052449], [6.1178895, 51.9016591], [6.103448, 51.8924742], [6.1371272, 51.8858027], [6.1445392, 51.8697445], [6.1670004, 51.8616216], [6.1665599, 51.8407216], [6.1024285, 51.8487549], [6.0895559, 51.852597], [6.065647, 51.8646503], [6.062793452447986, 51.86572874930331], [6.0514237, 51.8566612], [6.0553047, 51.8523541], [6.0101423, 51.8351271], [5.9867375, 51.8306699], [5.9629783, 51.836914], [5.945479, 51.8242662], [5.9581508, 51.8169313], [5.9459267, 51.8151111], [5.9790653, 51.7976507], [5.9726325, 51.7895653], [5.9902267, 51.7834013], [5.9823598, 51.773697], [5.9905046, 51.7662793], [5.9524661, 51.7445538], [5.9327669, 51.7419384], [5.9382986, 51.7415931], [5.9194696, 51.7176715], [5.903650932336975, 51.719673114478496], [5.9559426, 51.7081309]], [[5.9536134, 51.9950016], [5.953048836759393, 51.999852708142555], [5.9481258, 52.0065868], [5.9536134, 51.9950016]], [[5.9591966, 51.989637], [5.959910187472728, 51.98936499813962], [5.955020824853302, 51.9936492802966], [5.9591966, 51.989637]], [[5.979989231785378, 51.98171136404919], [5.9796001, 51.9819578], [5.97634493041896, 51.98310048141651], [5.979989231785378, 51.98171136404919]], [[5.990301990313441, 51.974433783987266], [5.991192230714533, 51.9746165396303], [5.982286055335254, 51.9802567928303], [5.990301990313441, 51.974433783987266]], [[5.9646338, 51.9714241], [5.961943870755644, 51.970132501289896], [5.989402055455263, 51.974297284307646], [5.9646338, 51.9714241]], [[5.9554575, 51.967018], [5.9509733, 51.962832], [5.958575113529962, 51.968514955959854], [5.9554575, 51.967018]], [[5.9492494, 51.9574515], [5.949611245161603, 51.956466654936676], [5.9493334768032105, 51.95771391385212], [5.9492494, 51.9574515]], [[5.9508881, 51.9529914], [5.9552255, 51.9487535], [5.9403277, 51.9560398], [5.957447734390121, 51.9470656838047], [5.9508881, 51.9529914]], [[5.932283, 51.9597081], [5.932244896194367, 51.959585656583265], [5.9355972, 51.9604157], [5.932283, 51.9597081]], [[5.9150607, 51.949901], [5.9126293445974865, 51.948171322406594], [5.9157108832705605, 51.949932258115744], [5.9150607, 51.949901]], [[5.9113666, 51.947273], [5.910965, 51.9459069], [5.911940414032391, 51.947681213983685], [5.9113666, 51.947273]], [[5.902357904584229, 51.93400034448388], [5.9024272, 51.9339903], [5.9127671, 51.9452929], [5.902357904584229, 51.93400034448388]], [[5.8685004, 51.9421845], [5.897923377796332, 51.934355866518054], [5.898026272095332, 51.93446720397614], [5.8685004, 51.9421845]], [[5.856444428590556, 51.894601598065485], [5.8570832888353195, 51.89461975703733], [5.8568743, 51.8970117], [5.856444428590556, 51.894601598065485]], [[5.8577458, 51.8883272], [5.871481, 51.8886524], [5.857739498857397, 51.88839092730388], [5.8577458, 51.8883272]], [[5.8797864, 51.8694233], [5.8827383, 51.866144], [5.878406358928304, 51.872993739272395], [5.8797864, 51.8694233]], [[5.8815842, 51.8591004], [5.889315213617873, 51.86667988432982], [5.8867657, 51.865203], [5.8815842, 51.8591004]], [[5.8805306, 51.8203721], [5.880552968418259, 51.820340179040116], [5.8994436, 51.8247073], [5.8805306, 51.8203721]], [[5.875873250371115, 51.80971797078536], [5.879099977564441, 51.809530488144226], [5.885163103936146, 51.81032707869237], [5.875873250371115, 51.80971797078536]], [[5.6795712, 51.8605255], [5.672092072798005, 51.86212723221764], [5.6721845, 51.8620444], [5.6795712, 51.8605255]], [[5.680584099666146, 51.854091088583004], [5.6816631, 51.8568675], [5.6802646, 51.8545248], [5.680584099666146, 51.854091088583004]], [[5.6848204, 51.8487808], [5.682375127748499, 51.85165982054181], [5.684502973517047, 51.84877133237983], [5.6848204, 51.8487808]], [[5.764763797911008, 51.832276302464905], [5.764724549568408, 51.832283185933875], [5.7576206, 51.8239899], [5.764763797911008, 51.832276302464905]], [[5.7904611, 51.8021399], [5.781869618434524, 51.80871417647962], [5.7820066, 51.8084929], [5.7904611, 51.8021399]], [[5.7931972281160355, 51.798146480120515], [5.793038227580714, 51.79825880320854], [5.7931126, 51.7981468], [5.7931972281160355, 51.798146480120515]], [[5.8102212, 51.7905891], [5.7960757, 51.7981356], [5.8009487, 51.7951514], [5.8102212, 51.7905891]], [[5.860533084543151, 51.8087121620032], [5.8419725, 51.8074952], [5.8528159, 51.8075023], [5.860533084543151, 51.8087121620032]], [[5.7297455, 51.772851], [5.71946756187416, 51.77489571056391], [5.730464786580663, 51.77226675491349], [5.7297455, 51.772851]], [[5.7418377606674165, 51.76302898458963], [5.7478479, 51.7575995], [5.748850243355953, 51.757333051056094], [5.7418377606674165, 51.76302898458963]], [[5.765504010866552, 51.752906046338786], [5.766635, 51.7526054], [5.772708068249135, 51.752479824940345], [5.765504010866552, 51.752906046338786]], [[5.779511201617286, 51.75233915405645], [5.7811146, 51.752306], [5.8072198, 51.7563051], [5.779511201617286, 51.75233915405645]], [[5.846493646362386, 51.75917583391568], [5.8463545, 51.7591874], [5.8072198, 51.7563051], [5.846493646362386, 51.75917583391568]], [[5.863956211234163, 51.75772431556964], [5.8795605, 51.7499136], [5.8644689, 51.7576817], [5.863956211234163, 51.75772431556964]], [[5.8854041, 51.7283142], [5.88627136128166, 51.72748066169488], [5.8795605, 51.7499136], [5.8854041, 51.7283142]], [[5.8900332, 51.7238651], [5.894996752837269, 51.722337155323586], [5.888396188045081, 51.72543845764806], [5.8900332, 51.7238651]], [[5.8004849, 51.8753559], [5.7304571700696165, 51.8862871840638], [5.802359836644434, 51.87478058821461], [5.8004849, 51.8753559]], [[5.808128453176838, 51.87301052676408], [5.8256949, 51.8662135], [5.8170748, 51.8702654], [5.808128453176838, 51.87301052676408]], [[5.8254885, 51.8626888], [5.8236896, 51.8643135], [5.825458078475527, 51.86188963435249], [5.8254885, 51.8626888]], [[5.825391, 51.8601275], [5.825431112985839, 51.86118125785262], [5.8173746, 51.8494941], [5.825391, 51.8601275]], [[5.831228558300947, 51.973167465303895], [5.8220452, 51.9727055], [5.820307340137721, 51.97212891102411], [5.831228558300947, 51.973167465303895]], [[5.772151, 51.9601632], [5.7807511, 51.9590049], [5.7700404417806, 51.96089708353343], [5.772151, 51.9601632]], [[5.765591835438433, 51.96244395341424], [5.7448923, 51.9702216], [5.7437489578668535, 51.970039161177446], [5.765591835438433, 51.96244395341424]], [[5.7236082, 51.9642246], [5.7307734, 51.9679687], [5.722732072457964, 51.9641114658394], [5.7236082, 51.9642246]], [[5.836182341360406, 51.97341666345358], [5.8591209, 51.9695363], [5.8371134, 51.9734635], [5.836182341360406, 51.97341666345358]], [[5.9591628, 51.9453915], [5.957602776811602, 51.9469143371101], [5.9617943, 51.9387926], [5.9591628, 51.9453915]], [[5.9657755, 51.9387676], [5.9668940277586815, 51.93902353564352], [5.9617943, 51.9387926], [5.9657755, 51.9387676]], [[5.96775343266982, 51.9344951569766], [5.967407937304196, 51.93485239456537], [5.9674548, 51.93474], [5.96775343266982, 51.9344951569766]], [[5.9728875, 51.9291866], [5.972750364356328, 51.929328396422044], [5.9727984477928, 51.92916630413844], [5.9728875, 51.9291866]], [[6.000233, 51.9132249], [6.0153336, 51.9169469], [5.99721574506706, 51.91324526642498], [6.000233, 51.9132249]], [[6.038087034582548, 51.915043542640866], [6.0360342808375504, 51.91431251255791], [6.0374566, 51.9139622], [6.038087034582548, 51.915043542640866]], [[6.0053498958977825, 51.97892511413398], [6.0218183, 51.9782026], [6.0058268, 51.9791062], [6.0053498958977825, 51.97892511413398]], [[6.004645696859095, 51.97865772181721], [5.993439253868182, 51.9736044926015], [5.9961919, 51.9739559], [6.004645696859095, 51.97865772181721]], [[6.002842078768023, 51.980344952410306], [6.001836817335186, 51.97774258766766], [6.003188, 51.9802246], [6.002842078768023, 51.980344952410306]], [[6.0064136, 51.9910841], [6.000608302893964, 51.9788128725623], [6.002766501862845, 51.98037124701688], [6.0064136, 51.9910841]], [[6.0480303, 52.0097762], [6.0429357, 52.0021067], [6.048488696623799, 52.00994973431695], [6.0480303, 52.0097762]], [[6.0617808, 52.0149817], [6.06044972536633, 52.01447779766877], [6.065528322970738, 52.014512437828735], [6.0617808, 52.0149817]], [[6.077035236692452, 52.01008253147028], [6.068279, 52.014168], [6.067636764375315, 52.014248420289896], [6.077035236692452, 52.01008253147028]], [[6.0783338, 52.0008266], [6.084937101121147, 51.9948096284586], [6.078348773571677, 52.00101117547614], [6.0783338, 52.0008266]], [[6.091931131583815, 51.99312580080206], [6.087537410160512, 51.99394385484919], [6.0906921, 51.9928935], [6.091931131583815, 51.99312580080206]], [[6.110114902729549, 51.99726004729612], [6.108914313446745, 51.99630990588853], [6.1095906, 51.9964367], [6.110114902729549, 51.99726004729612]], [[6.0462848, 51.8709132], [6.033749743864074, 51.8737887463785], [6.0355775, 51.8730073], [6.052623652969426, 51.8695722504059], [6.041401974487884, 51.873813291117436], [6.0462848, 51.8709132]], [[5.9873850173813565, 51.913117153020245], [5.9878437, 51.9126677], [5.9967738, 51.9073908], [5.9873850173813565, 51.913117153020245]], [[6.019304084786589, 51.898394321231514], [6.019927354497754, 51.89803616903193], [6.0197722, 51.8982074], [6.019304084786589, 51.898394321231514]], [[6.020391399482356, 51.897524041616435], [6.028017908277672, 51.88458931332417], [6.0236606, 51.8939161], [6.020391399482356, 51.897524041616435]], [[6.030152802595589, 51.8809684851476], [6.0305828, 51.8802392], [6.032537836855358, 51.87907803112259], [6.030152802595589, 51.8809684851476]], [[6.0169158, 51.880986], [6.0092874, 51.8816034], [6.008470394189154, 51.88145325830693], [6.0169158, 51.880986]], [[6.005943359319868, 51.880988863453545], [6.0019587, 51.8802566], [6.0006852731749785, 51.87959405676391], [6.005943359319868, 51.880988863453545]], [[5.997789391330271, 51.878087376606835], [5.9950221, 51.8766476], [5.994027662603601, 51.87564691623457], [5.997789391330271, 51.878087376606835]], [[5.986732962722159, 51.86830639608573], [5.9847217, 51.8662825], [5.984071796212597, 51.8650251087122], [5.986732962722159, 51.86830639608573]], [[5.9210359, 51.8746505], [5.9091194, 51.87364], [5.90537148397486, 51.87275474449189], [5.9210359, 51.8746505]], [[5.902081326109456, 51.87197761118544], [5.8959678, 51.8705336], [5.892138351735339, 51.86831527408314], [5.902081326109456, 51.87197761118544]], [[6.1298191488874885, 51.97830435848375], [6.1293713, 51.9782645], [6.129310276067136, 51.97822863833437], [6.1298191488874885, 51.97830435848375]], [[6.1087913, 51.9671649], [6.1223347, 51.971484], [6.107098631227488, 51.96722740844756], [6.1087913, 51.9671649]], [[6.1430612, 51.9185018], [6.143258, 51.9136797], [6.143374410932233, 51.91361955241394], [6.1430612, 51.9185018]], [[6.157488811804593, 51.907209626103665], [6.157559, 51.9068716], [6.1582379441360215, 51.906484886230366], [6.157488811804593, 51.907209626103665]], [[5.991451657601576, 51.97470378062869], [5.9979388, 51.9768853], [6.000338520274493, 51.9786180701606], [5.991451657601576, 51.97470378062869]], [[5.984008875250406, 51.9723868152265], [5.9839934, 51.9723869], [5.9866364, 51.9685001], [5.984008875250406, 51.9723868152265]], [[5.98486787403042, 51.95227548057521], [5.9848305, 51.9521364], [5.984859517472424, 51.95211848611449], [5.98486787403042, 51.95227548057521]], [[5.9859895, 51.9452319], [5.985713498986592, 51.94552143173651], [5.9843639, 51.9430209], [5.9859895, 51.9452319]], [[5.9752412, 51.9417226], [5.971979825362965, 51.94018724112384], [5.9843639, 51.9430209], [5.9752412, 51.9417226]], [[6.1300312, 52.0299449], [6.129260741368405, 52.03036698150057], [6.130635454156349, 52.028914902698176], [6.1300312, 52.0299449]], [[6.1320219, 52.0265516], [6.13148251157595, 52.02747102871318], [6.132008244290214, 52.02530922373021], [6.1320219, 52.0265516]], [[6.13198, 52.0227396], [6.131992252975189, 52.02385435755174], [6.1276389, 52.0167037], [6.13198, 52.0227396]], [[6.0053617498948375, 52.058959932415], [6.005221216139835, 52.0588116624514], [6.0053593, 52.0589349], [6.0053617498948375, 52.058959932415]], [[6.000880500575687, 52.0549376460048], [5.999450517321409, 52.05443882028072], [6.0003238, 52.0544408], [6.000880500575687, 52.0549376460048]], [[5.9779593, 52.0543901], [5.995756996845083, 52.02619590088852], [5.9958049, 52.0262203], [5.9779593, 52.0543901]]]}}]}