{"type":"FeatureCollection","features":[{"type":"Feature","properties":{"slug":"arrecife","member_count":8,"matched_count":8,"unmatched":[],"source":"Overture Maps division_area (CC-BY 4.0)"},"geometry":{"type":"MultiPolygon","coordinates":[[[[-15.5896485,28.0689217],[-15.5562098,28.0782462],[-15.5685796,28.0516848],[-15.5645396,28.0326027],[-15.5862614,28.0145942],[-15.6000329,28.0115511],[-15.613826,28.0186558],[-15.5896485,28.0689217]]],[[[-13.8307944,28.8619098],[-13.8352724,28.855559],[-13.8541159,28.8620325],[-13.8726363,28.8547252],[-13.8823067,28.8855675],[-13.8581591,28.8974238],[-13.828984,28.9304052],[-13.8340784,28.9894892],[-13.8155193,29.03348],[-13.7792392,29.0621151],[-13.7607664,29.0672794],[-13.7558182,29.0777753],[-13.7232588,29.0853019],[-13.7072758,29.0798234],[-13.7019095,29.090323],[-13.6567652,29.1127894],[-13.6583379,29.1237321],[-13.6421122,29.1243687],[-13.6331013,29.1158429],[-13.5968785,29.1363761],[-13.5594496,29.1155617],[-13.545239,29.1196956],[-13.5242684,29.1417028],[-13.5222463,29.1687297],[-13.4970709,29.2182234],[-13.4703078,29.2410032],[-13.4659728,29.2265692],[-13.4511963,29.2217189],[-13.4524181,29.2268275],[-13.4235647,29.2085346],[-13.4200971,29.1842738],[-13.4280076,29.1555625],[-13.4646825,29.1277837],[-13.4475174,29.0891551],[-13.4665686,29.0551104],[-13.4647247,29.0191875],[-13.476251,29.0138853],[-13.4862031,28.9925528],[-13.5235567,28.9770433],[-13.5250762,28.9756117],[-13.5281178,28.9641894],[-13.5304372,28.9607942],[-13.5297255,28.9734816],[-13.5426052,28.9622418],[-13.5336167,28.9680724],[-13.5350395,28.9615164],[-13.5969839,28.9486872],[-13.6096879,28.9342704],[-13.64383,28.9192588],[-13.6907211,28.9199644],[-13.7360213,28.9068212],[-13.7489645,28.874696],[-13.7872053,28.8383842],[-13.8008495,28.8586491],[-13.8113352,28.8545704],[-13.8307944,28.8619098]]],[[[-13.554718,28.9552404],[-13.5520163,28.9546476],[-13.555005,28.954794],[-13.554718,28.9552404]]],[[[-13.5483519,28.9568069],[-13.54732,28.9561737],[-13.5487251,28.955746],[-13.5483519,28.9568069]]],[[[-13.5471895,28.9576536],[-13.5476625,28.9576475],[-13.5472336,28.958035],[-13.5471895,28.9576536]]],[[[-13.5445952,28.9583149],[-13.544621,28.9576461],[-13.5452789,28.9578228],[-13.5445952,28.9583149]]],[[[-13.5077493,29.2257273],[-13.533898,29.2165667],[-13.5487921,29.2259522],[-13.5261493,29.2423192],[-13.5286045,29.251761],[-13.5080479,29.290886],[-13.471948,29.2658102],[-13.5077493,29.2257273]]],[[[-13.339741,29.2753862],[-13.3349714,29.2774029],[-13.3393491,29.274222],[-13.339741,29.2753862]]],[[[-13.3320435,29.277674],[-13.3323047,29.2778706],[-13.3320838,29.2779016],[-13.3320435,29.277674]]],[[[-13.5393043,29.2885488],[-13.5387611,29.2886119],[-13.5386217,29.2884879],[-13.5393043,29.2885488]]],[[[-13.5395671,29.2910881],[-13.5401586,29.3023043],[-13.530284,29.3049941],[-13.5316104,29.2908986],[-13.5395671,29.2910881]]],[[[-13.5277225,29.3110049],[-13.5263085,29.3111294],[-13.527551,29.3100343],[-13.5277225,29.3110049]]],[[[-13.4929557,29.3953357],[-13.5265794,29.383632],[-13.5315644,29.3932992],[-13.523941,29.4107459],[-13.5184986,29.4101],[-13.5057679,29.4160647],[-13.4935561,29.4102396],[-13.4880316,29.4034256],[-13.4929557,29.3953357]]],[[[-13.5315483,29.4007355],[-13.5315662,29.4005036],[-13.5317172,29.4008002],[-13.5315483,29.4007355]]],[[[-13.5161837,29.4129568],[-13.5161069,29.4127138],[-13.5165445,29.4128631],[-13.5161837,29.4129568]]],[[[-13.5165394,29.4133247],[-13.5150703,29.4130058],[-13.5147248,29.4128832],[-13.5158535,29.4126045],[-13.5160378,29.4129501],[-13.5165394,29.4133247]]]]}}]}