{"type": "FeatureCollection", "features": [{"type": "Feature", "properties": {"slug": "arzamas", "members": 1, "country": "Russia", "input_hash": "21931ea5a139b628"}, "geometry": {"type": "Polygon", "coordinates": [[[43.4083906, 55.673808], [43.4018127, 55.6663553], [43.445589, 55.6654184], [43.3788799, 55.6106009], [43.3821285, 55.5832947], [43.3929742, 55.5775804], [43.3918462, 55.5663265], [43.4021342, 55.5659588], [43.3991736, 55.5371735], [43.4483105, 55.538732], [43.4445845, 55.520203], [43.4528822, 55.5163955], [43.4166953, 55.5122967], [43.4236302, 55.5024559], [43.3970905, 55.4888388], [43.3545207, 55.496126], [43.299612, 55.4909274], [43.2879688, 55.4833609], [43.3096083, 55.4719447], [43.3115358, 55.4603288], [43.3456146, 55.4540447], [43.3395068, 55.4489963], [43.3374423, 55.4436674], [43.3478714, 55.446869], [43.3407893, 55.4452525], [43.3457255, 55.4525549], [43.3639349, 55.4504655], [43.3627966, 55.4322502], [43.3782968, 55.4366205], [43.3686539, 55.4507123], [43.4080256, 55.4510021], [43.413304, 55.41924], [43.3765144, 55.4208274], [43.3752962, 55.4120702], [43.3683033, 55.4123982], [43.3748612, 55.3575479], [43.4328883, 55.3505357], [43.4415882, 55.3256632], [43.4742544, 55.2827615], [43.5124205, 55.2736306], [43.5692351, 55.2865578], [43.5740246, 55.2715178], [43.5259697, 55.2602269], [43.5909285, 55.2323551], [43.6413891, 55.2554761], [43.6344452, 55.2660216], [43.6568378, 55.2732573], [43.6546587, 55.2623708], [43.6615538, 55.2595723], [43.6512299, 55.2408868], [43.6721363, 55.2325092], [43.6652156, 55.2305531], [43.6746549, 55.2070246], [43.6908205, 55.2041909], [43.7175373, 55.215797], [43.7434189, 55.2069607], [43.7530331, 55.1934927], [43.7373047, 55.1865719], [43.743687, 55.1831827], [43.7349491, 55.1723288], [43.7435631, 55.1636346], [43.7880904, 55.1676611], [43.7783448, 55.1801465], [43.800231, 55.1948574], [43.8240725, 55.1868603], [43.8243791, 55.1969057], [43.8451775, 55.2024125], [43.8400524, 55.2110813], [43.846665, 55.212794], [43.8452284, 55.2213373], [43.8684345, 55.2255564], [43.8957286, 55.2434577], [43.9308866, 55.2453396], [43.913165, 55.2716355], [43.9921212, 55.2964394], [44.010911, 55.3111427], [44.0266492, 55.3051644], [44.0397815, 55.3214252], [44.1261768, 55.3441663], [44.1293511, 55.3194386], [44.2085457, 55.3011588], [44.2359796, 55.3224812], [44.2502117, 55.350252], [44.2078438, 55.3661179], [44.1485785, 55.368873], [44.1479042, 55.3771145], [44.1180134, 55.3764008], [44.1188992, 55.3703691], [44.0931403, 55.3742821], [44.0906591, 55.3974238], [44.0799503, 55.4023998], [44.0856069, 55.4117624], [44.0643054, 55.4206205], [44.0426986, 55.4190892], [43.9663791, 55.4761112], [44.0011053, 55.4955082], [44.0135008, 55.5176843], [44.0049747, 55.5220804], [44.0082549, 55.5302529], [44.0266648, 55.53744], [44.0173266, 55.5413042], [44.0089376, 55.5696226], [43.9988794, 55.5717976], [44.0012742, 55.6119463], [44.0529028, 55.6164191], [44.0188505, 55.6207767], [44.0289747, 55.6325203], [44.0118639, 55.646937], [44.0370358, 55.655782], [44.0215435, 55.6587352], [43.9917186, 55.6444713], [43.9932756, 55.683557], [43.9835636, 55.6905865], [43.7831164, 55.6967785], [43.7820993, 55.6909621], [43.7166443, 55.7204688], [43.6550282, 55.7201617], [43.6113313, 55.7293681], [43.5905739, 55.7229107], [43.5637345, 55.7269325], [43.5598215, 55.7350205], [43.5340249, 55.7220779], [43.5347962, 55.6893627], [43.5199695, 55.6736639], [43.4634104, 55.6791582], [43.4083906, 55.673808]]]}}]}