{"type":"FeatureCollection","features":[{"type":"Feature","properties":{"slug":"ascoli-piceno","member_count":33,"matched_count":33,"unmatched":[],"source":"Overture Maps division_area (CC-BY 4.0)"},"geometry":{"type":"Polygon","coordinates":[[[13.3566518,42.6948268],[13.2862766,42.7404064],[13.2644989,42.7401855],[13.2541525,42.7214521],[13.1875961,42.7336731],[13.1993648,42.7490135],[13.1951193,42.7619168],[13.234313,42.7731462],[13.2385338,42.7609418],[13.251325,42.7896642],[13.2595251,42.789692],[13.2514729,42.7943667],[13.2631311,42.8147586],[13.2313258,42.8750999],[13.2417553,42.8919997],[13.2630421,42.9002718],[13.2599168,42.9116132],[13.2811603,42.911634],[13.2918012,42.9254646],[13.3285095,42.9215409],[13.3590538,42.9137488],[13.3768298,42.8903766],[13.3841186,42.8945673],[13.3800209,42.9055508],[13.4017742,42.9127547],[13.4112076,42.9290198],[13.3919691,42.9398176],[13.3904737,42.9533663],[13.4012992,42.9609581],[13.3918157,42.9654915],[13.3981365,42.9717757],[13.4252435,42.9773124],[13.4548227,42.9658901],[13.4937244,42.9893365],[13.5563541,42.9884488],[13.5768604,42.9996029],[13.5748048,43.0058163],[13.5818419,43.0023427],[13.5780159,43.0107226],[13.5984338,43.0091348],[13.6338435,43.0341542],[13.6432393,43.0378239],[13.6565334,43.0281333],[13.6568948,43.0420934],[13.681636,43.0424501],[13.7851686,43.0797782],[13.7870799,43.0668511],[13.8029403,43.0608373],[13.8496502,43.0666869],[13.8798855,42.9678385],[13.89073,42.9573805],[13.8840599,42.958375],[13.8862581,42.953674],[13.8946665,42.9600184],[13.8874485,42.9499392],[13.9155337,42.8945104],[13.8768527,42.8947148],[13.7779647,42.8604455],[13.7224783,42.8553536],[13.7066022,42.8493121],[13.7108849,42.8433575],[13.6993033,42.8226156],[13.6542181,42.8048649],[13.6349122,42.8035205],[13.6243989,42.8165417],[13.5722476,42.8003732],[13.5344999,42.8166499],[13.5297334,42.7959893],[13.5042065,42.7747401],[13.5046155,42.7475995],[13.4934437,42.7366154],[13.4479874,42.7322172],[13.4369999,42.6989212],[13.4273969,42.7064253],[13.3899813,42.6871561],[13.3566518,42.6948268]]]}}]}