{"type": "FeatureCollection", "features": [{"type": "Feature", "properties": {"slug": "ashdod", "members": 4, "country": "Israel", "input_hash": "32d6508c9d3bb9bf"}, "geometry": {"type": "MultiPolygon", "coordinates": [[[[34.7086428, 31.8107901], [34.721501, 31.7891985], [34.7316456, 31.7880068], [34.7272653, 31.7778733], [34.7195659, 31.7820879], [34.7069533, 31.7697219], [34.6855866, 31.7818379], [34.6705692, 31.7801316], [34.6853221, 31.7956698], [34.6678005, 31.7805642], [34.6652436, 31.7677777], [34.6480018, 31.7531554], [34.637701, 31.7633314], [34.6088045, 31.7705804], [34.6289789, 31.8061403], [34.6278686, 31.8171594], [34.6113374, 31.8232775], [34.6207536, 31.8415995], [34.633064, 31.8417172], [34.6426537, 31.8728243], [34.66046459356745, 31.863993549556618], [34.6719716, 31.8877305], [34.720029, 31.8745863], [34.7128146, 31.8595193], [34.7177523, 31.8521926], [34.7284604, 31.8626375], [34.7398785, 31.8574694], [34.7258998, 31.8480988], [34.7356032, 31.8434921], [34.7290757, 31.836048], [34.7351385, 31.842501], [34.7665461, 31.8340456], [34.7596352, 31.8063032], [34.728356, 31.8216337], [34.7372403, 31.81532], [34.7293191, 31.8046765], [34.7086428, 31.8107901]], [[34.690749608051135, 31.802007813452633], [34.7026722, 31.8188293], [34.690719360769904, 31.80202591729209], [34.690749608051135, 31.802007813452633]], [[34.7096523, 31.8450409], [34.7102646, 31.8482364], [34.7097922, 31.8548483], [34.7096523, 31.8450409]], [[34.70773196543567, 31.810007140613898], [34.7089544, 31.8007999], [34.7087671, 31.8093196], [34.70773196543567, 31.810007140613898]]], [[[34.7724158, 31.8526933], [34.7613746, 31.8458878], [34.7537864, 31.8571169], [34.7607584, 31.8746093], [34.7724158, 31.8526933]]]]}}]}