{"type":"FeatureCollection","features":[{"type":"Feature","properties":{"slug":"assen","member_count":3,"matched_count":3,"unmatched":[],"source":"Overture Maps division_area (CC-BY 4.0)"},"geometry":{"type":"Polygon","coordinates":[[[6.737451,53.1194617],[6.9356929,52.9933445],[6.7277119,52.9547198],[6.7314012,52.9376533],[6.7241753,52.9372876],[6.7363371,52.8786913],[6.714564,52.8681588],[6.6863657,52.8752955],[6.6667522,52.9094133],[6.5858281,52.9194519],[6.5650714,52.9449808],[6.5429976,52.9553382],[6.5359148,52.9325906],[6.4969718,52.9515661],[6.4839477,52.9501731],[6.4957433,52.9689905],[6.4855021,52.9729847],[6.4990045,52.9902158],[6.4882121,53.0054053],[6.5130364,53.0105567],[6.4955278,53.0308977],[6.5028936,53.0322128],[6.5145159,53.0653793],[6.4802996,53.1207867],[6.5397113,53.1336282],[6.5353676,53.1716424],[6.5164544,53.1877348],[6.5120094,53.1962177],[6.5157152,53.1983082],[6.530492,53.1955593],[6.5417439,53.1786103],[6.5481883,53.1810976],[6.5636875,53.1576384],[6.5815148,53.1635845],[6.5879643,53.1454361],[6.6144005,53.135557],[6.6365972,53.1128429],[6.6348316,53.1062021],[6.6953669,53.121176],[6.737451,53.1194617]]]}}]}