{"type": "FeatureCollection", "features": [{"type": "Feature", "properties": {"slug": "assis", "members": 1, "country": "Brazil", "input_hash": "e2530025ce588d27"}, "geometry": {"type": "Polygon", "coordinates": [[[-50.3317927, -22.505613], [-50.3474035, -22.4822195], [-50.3971982, -22.444568], [-50.4280242, -22.4578492], [-50.449, -22.4580532], [-50.4406017, -22.4907813], [-50.418, -22.497], [-50.4153076, -22.5154884], [-50.436, -22.527], [-50.4553326, -22.5246135], [-50.4583945, -22.5498223], [-50.489812, -22.5807448], [-50.499, -22.605], [-50.519698, -22.6045971], [-50.5721102, -22.6412158], [-50.5686416, -22.6898203], [-50.5507876, -22.6856196], [-50.5377988, -22.7070422], [-50.529, -22.709], [-50.5200834, -22.695161], [-50.5082419, -22.7024811], [-50.5014742, -22.6934703], [-50.4934706, -22.699757], [-50.4539486, -22.6970946], [-50.4318797, -22.7117782], [-50.3250309, -22.6773865], [-50.31, -22.595], [-50.3204763, -22.5658845], [-50.3533387, -22.5540736], [-50.3005844, -22.5467353], [-50.321, -22.541], [-50.3317927, -22.505613]]]}}]}