{"type":"FeatureCollection","features":[{"type":"Feature","properties":{"slug":"astoria-or","member_count":7,"matched_count":1,"unmatched":["Balance of Clatsop County (US-OR, type='Balance')","Astoria city (US-OR, type='City')","Seaside city (US-OR, type='City')","Warrenton city (US-OR, type='City')","Gearhart city (US-OR, type='City')","Cannon Beach city (US-OR, type='City')"],"source":"Overture Maps division_area (CC-BY 4.0)"},"geometry":{"type":"Polygon","coordinates":[[[-123.720131,45.7733304],[-123.3610461,45.7796454],[-123.3596409,46.039494],[-123.3674383,46.0395275],[-123.3629192,46.1473045],[-123.3905625,46.1501097],[-123.4284818,46.1797763],[-123.4236225,46.2194148],[-123.4322626,46.2396925],[-123.4655428,46.2628037],[-123.5012674,46.2705536],[-123.5409904,46.2603866],[-123.6492704,46.2590803],[-123.6881321,46.2501076],[-123.7403017,46.2691347],[-123.8719736,46.2348275],[-123.9296162,46.2386596],[-124.02136,46.2923948],[-124.0365694,46.2909363],[-124.0306799,46.2712133],[-124.0353883,46.2639909],[-124.0846273,46.2498233],[-124.1568543,46.2498216],[-124.123418,46.202729],[-124.067313,46.183849],[-124.058451,46.173834],[-124.023064,46.116272],[-124.008265,46.074293],[-124.002783,46.027544],[-124.008125,46.00994],[-124.039544,45.985938],[-124.070819,45.973939],[-124.09192,45.943455],[-124.080158,45.908264],[-124.043353,45.887086],[-124.037704,45.841614],[-124.0562254,45.8185498],[-124.0651046,45.7835628],[-123.720131,45.7831477],[-123.720131,45.7733304]]]}}]}