{"type": "FeatureCollection", "features": [{"type": "Feature", "properties": {"slug": "asuncion", "members": 20, "country": "Paraguay", "input_hash": "c6d01fb96b5a092b"}, "geometry": {"type": "MultiPolygon", "coordinates": [[[[-57.5569916, -25.4399576], [-57.5976322, -25.4006852], [-57.6429976, -25.3811854], [-57.6466332, -25.3507427], [-57.6736232, -25.3170678], [-57.6711808, -25.2843032], [-57.591239, -25.2387862], [-57.5416703, -25.1762658], [-57.5372479, -25.1646311], [-57.5431609, -25.1487589], [-57.5318313, -25.1172001], [-57.5156468, -25.1009712], [-57.4948239, -25.0960456], [-57.4426646, -25.132249], [-57.4385182, -25.1269703], [-57.4263087, -25.1331868], [-57.4342588, -25.1443077], [-57.4084667, -25.1537767], [-57.4064988, -25.1703248], [-57.3964611, -25.1681779], [-57.4043575, -25.1806356], [-57.3952241, -25.1854545], [-57.3959526, -25.1925537], [-57.3497465, -25.2266554], [-57.3929447, -25.2571612], [-57.3498121, -25.2274224], [-57.3278498, -25.2478276], [-57.3412023, -25.2818945], [-57.330894, -25.3096426], [-57.3680491, -25.338273], [-57.3730817, -25.3532646], [-57.3901168, -25.3475448], [-57.402571418586305, -25.358086340518785], [-57.4058858, -25.3874711], [-57.398916, -25.4181125], [-57.4139006, -25.416554], [-57.3991555, -25.4182925], [-57.40144010800384, -25.44454581936811], [-57.3120273, -25.4612817], [-57.3298987, -25.5749547], [-57.3431247, -25.5860016], [-57.3430321, -25.6096114], [-57.3915134, -25.640248], [-57.3946608, -25.615808], [-57.4153863, -25.5975445], [-57.4270479, -25.5634263], [-57.419871, -25.5366769], [-57.4311983, -25.5234688], [-57.42374181082082, -25.477491963149607], [-57.4489052, -25.5273935], [-57.4653439, -25.5117288], [-57.4852575, -25.5076375], [-57.479308637152165, -25.497307942353324], [-57.4929471, -25.4880511], [-57.5673949, -25.4820931], [-57.5550043, -25.442605], [-57.5501942, -25.4474493], [-57.5569916, -25.4399576]], [[-57.5899675, -25.3965386], [-57.5723763, -25.3926708], [-57.5976322, -25.4006852], [-57.5899675, -25.3965386]], [[-57.57177160560449, -25.385145608480794], [-57.5678017, -25.3790435], [-57.5723763, -25.3926708], [-57.57177160560449, -25.385145608480794]], [[-57.5671848, -25.3739301], [-57.5689926, -25.3668873], [-57.5678017, -25.3790435], [-57.5671848, -25.3739301]], [[-57.58610682383519, -25.341382093665395], [-57.5861729, -25.3414365], [-57.614608, -25.3901007], [-57.58610682383519, -25.341382093665395]], [[-57.5471466, -25.454374], [-57.5446132, -25.4554322], [-57.54453366985439, -25.455274464247402], [-57.5471466, -25.454374]], [[-57.5740281, -25.2242594], [-57.5388565, -25.2370409], [-57.5385746511318, -25.236742569785697], [-57.5643959, -25.225475], [-57.5740281, -25.2242594]], [[-57.5250477, -25.2426453], [-57.5251432, -25.244298], [-57.5205391, -25.2300041], [-57.5250477, -25.2426453]], [[-57.540835400527115, -25.283154643086178], [-57.5405639, -25.2814394], [-57.542516, -25.2720497], [-57.540835400527115, -25.283154643086178]], [[-57.541828931355674, -25.291757174755276], [-57.536064, -25.2957174], [-57.5332979, -25.3026396], [-57.5322814, -25.2975695], [-57.541828931355674, -25.291757174755276]], [[-57.4748643, -25.3244841], [-57.473911989511976, -25.324265366345767], [-57.47586019067349, -25.323449665906715], [-57.4748643, -25.3244841]], [[-57.4702428, -25.3234226], [-57.46753699501126, -25.32040225465542], [-57.4721156431256, -25.323852768338813], [-57.4702428, -25.3234226]], [[-57.4640029, -25.3202044], [-57.4662338, -25.3257948], [-57.46204261386505, -25.318386956415736], [-57.4640029, -25.3202044]], [[-57.4829849, -25.3419605], [-57.48308316944101, -25.342358076163006], [-57.4783667, -25.3382664], [-57.4829849, -25.3419605]], [[-57.4836774, -25.3447622], [-57.48347307279501, -25.344979537571888], [-57.48335319626919, -25.34345054427062], [-57.4836774, -25.3447622]], [[-57.48168453010409, -25.346881964249107], [-57.481273, -25.3464417], [-57.48297871987049, -25.345505368012695], [-57.48168453010409, -25.346881964249107]], [[-57.4851818, -25.34991], [-57.48573218406314, -25.351212236356115], [-57.4828489271572, -25.34812766265405], [-57.4851818, -25.34991]], [[-57.4875017, -25.355399], [-57.487327497647335, -25.355730431938618], [-57.48707219270543, -25.354382764153673], [-57.4875017, -25.355399]], [[-57.5061574, -25.4022674], [-57.5156703, -25.4018169], [-57.504637, -25.4002882], [-57.5061574, -25.4022674]], [[-57.5166482, -25.4047422], [-57.51657851362397, -25.404762378787687], [-57.5156703, -25.4018169], [-57.5166482, -25.4047422]], [[-57.511086428726365, -25.42416182841101], [-57.51045219286626, -25.42408007417035], [-57.5110825, -25.4241588], [-57.511086428726365, -25.42416182841101]], [[-57.53448568401141, -25.443467190319286], [-57.53446019194695, -25.443744748887546], [-57.5315496, -25.4431221], [-57.53448568401141, -25.443467190319286]], [[-57.5667966, -25.3609791], [-57.5635405, -25.3655596], [-57.567739898729464, -25.35934771492539], [-57.5667966, -25.3609791]], [[-57.55320260489061, -25.36752434522219], [-57.5531602, -25.3675191], [-57.5533248, -25.3637957], [-57.55320260489061, -25.36752434522219]], [[-57.55201786184099, -25.363848869544334], [-57.55090615163623, -25.364888216541754], [-57.5509454, -25.3638925], [-57.55201786184099, -25.363848869544334]], [[-57.55017456396902, -25.365572183858056], [-57.5500202, -25.3657165], [-57.5402614, -25.3659316], [-57.55017456396902, -25.365572183858056]], [[-57.6157119, -25.3133957], [-57.6171275965907, -25.315840606276737], [-57.6146406, -25.3125378], [-57.6157119, -25.3133957]], [[-57.5090099, -25.1555631], [-57.5160708, -25.1536781], [-57.507729256420006, -25.15669436099217], [-57.5090099, -25.1555631]], [[-57.5060351, -25.1581909], [-57.50645026705771, -25.157824160725347], [-57.506346955202396, -25.158430195129604], [-57.5060351, -25.1581909]], [[-57.50828195317774, -25.159914972640895], [-57.507663825853626, -25.15944066643404], [-57.5086958, -25.1599098], [-57.50828195317774, -25.159914972640895]], [[-57.506027652811014, -25.16199077897943], [-57.5063676, -25.1599389], [-57.5062068, -25.1620271], [-57.506027652811014, -25.16199077897943]], [[-57.5014217, -25.161357], [-57.50196629267457, -25.161442224916907], [-57.5005725, -25.1629234], [-57.5014217, -25.161357]], [[-57.503943890514144, -25.170348156850583], [-57.50524190776712, -25.167844003722056], [-57.5053699, -25.1678437], [-57.503943890514144, -25.170348156850583]], [[-57.5035704, -25.1710687], [-57.50357504909084, -25.17105973090861], [-57.503590379090646, -25.171162344433327], [-57.5035704, -25.1710687]], [[-57.50546056997936, -25.18650213204614], [-57.505690034980155, -25.185216688479894], [-57.5058511, -25.1862948], [-57.50546056997936, -25.18650213204614]], [[-57.50191092827253, -25.186827913091648], [-57.505125220327, -25.186680168883065], [-57.5035889, -25.1874958], [-57.50191092827253, -25.186827913091648]], [[-57.5015934, -25.1903501], [-57.5011106, -25.1868647], [-57.50129560362093, -25.186856196350334], [-57.5015934, -25.1903501]], [[-57.4995227, -25.2033006], [-57.499577670099, -25.202731620183787], [-57.499549199939835, -25.203358481324614], [-57.4995227, -25.2033006]], [[-57.50027249769221, -25.20493831253378], [-57.499698422536085, -25.203684414197888], [-57.50058439803447, -25.20471135008282], [-57.50027249769221, -25.20493831253378]], [[-57.502815765752764, -25.208600085332343], [-57.502107267314294, -25.206476510760933], [-57.5034709, -25.2080571], [-57.502815765752764, -25.208600085332343]], [[-57.5000001, -25.4227746], [-57.500074500773955, -25.422783892711987], [-57.4970492, -25.4258169], [-57.5000001, -25.4227746]], [[-57.4638674, -25.4376019], [-57.45644304165515, -25.419522327531467], [-57.4717787, -25.4464146], [-57.4638674, -25.4376019]], [[-57.46484780718777, -25.464239442453735], [-57.4628936, -25.4568943], [-57.4374457, -25.460238], [-57.46251452343499, -25.456373628449708], [-57.463056, -25.4570857], [-57.46484780718777, -25.464239442453735]], [[-57.4759058, -25.4794439], [-57.471175176984254, -25.482834140048077], [-57.4710548, -25.4825419], [-57.4759058, -25.4794439]], [[-57.47134497467752, -25.4832463590977], [-57.47220576925949, -25.484974579619838], [-57.4716828, -25.4840665], [-57.47134497467752, -25.4832463590977]], [[-57.460434005961204, -25.316710621711106], [-57.4551809, -25.3156757], [-57.4599016, -25.3161558], [-57.460434005961204, -25.316710621711106]], [[-57.45293554472779, -25.31208797681503], [-57.4530447, -25.3120658], [-57.4551809, -25.3156757], [-57.45293554472779, -25.31208797681503]], [[-57.448692431408105, -25.312830745455965], [-57.4486088, -25.3128476], [-57.4447518, -25.310138], [-57.448692431408105, -25.312830745455965]], [[-57.44427913007918, -25.30799837660105], [-57.4442258927212, -25.307996395208722], [-57.44427328625001, -25.30797192348211], [-57.44427913007918, -25.30799837660105]], [[-57.4561613, -25.4188954], [-57.4507605, -25.4120987], [-57.45075557978483, -25.411999513685576], [-57.4561613, -25.4188954]], [[-57.42225301155905, -25.259517656655813], [-57.423765, -25.2581666], [-57.4253142, -25.2586904], [-57.42225301155905, -25.259517656655813]], [[-57.4342786, -25.2760302], [-57.43427225808423, -25.276007973302946], [-57.43494034094678, -25.276292710447656], [-57.4342786, -25.2760302]], [[-57.44284478556817, -25.279661587451077], [-57.4431313, -25.2797837], [-57.44371160804909, -25.280843611062384], [-57.44284478556817, -25.279661587451077]], [[-57.4474347, -25.2876437], [-57.4457778, -25.2864809], [-57.445894400264265, -25.28483039983666], [-57.4474347, -25.2876437]], [[-57.4458976, -25.3008165], [-57.4468339, -25.3045315], [-57.44680662743429, -25.304553000976806], [-57.4458976, -25.3008165]], [[-57.4446124, -25.3055826], [-57.44660628296254, -25.304710947313293], [-57.44452069223142, -25.306355172444686], [-57.4446124, -25.3055826]], [[-57.4080487, -25.25928], [-57.4031282, -25.2545327], [-57.40813906903366, -25.259290397102703], [-57.4080487, -25.25928]], [[-57.40285574532191, -25.1827459180466], [-57.4093191, -25.1831552], [-57.402897, -25.1827958], [-57.40285574532191, -25.1827459180466]], [[-57.415998839083095, -25.1968725885533], [-57.41672435823746, -25.196973041741305], [-57.4162394, -25.1973666], [-57.415998839083095, -25.1968725885533]], [[-57.46495958870113, -25.218984521336363], [-57.4738795, -25.2209296], [-57.4650925, -25.2190789], [-57.46495958870113, -25.218984521336363]], [[-57.4911492, -25.2133038], [-57.4955250030655, -25.211073844468594], [-57.495524, -25.211088], [-57.4911492, -25.2133038]]], [[[-57.1354495, -25.3629019], [-57.1393061, -25.3826091], [-57.1184496, -25.3749528], [-57.1278005, -25.3856532], [-57.121208, -25.3932591], [-57.1296924, -25.3875463], [-57.1347547, -25.3910833], [-57.1286582, -25.4023818], [-57.1461637, -25.4014518], [-57.1388517, -25.3929125], [-57.1507068, -25.4016447], [-57.1480141, -25.4170865], [-57.1551072, -25.4085691], [-57.1512938, -25.3970874], [-57.1599121, -25.3938229], [-57.1477886, -25.3877466], [-57.1594628, -25.3763226], [-57.1549663, -25.3709929], [-57.1509915, -25.3782154], [-57.1468813, -25.3690658], [-57.1404037, -25.3756882], [-57.1354495, -25.3629019]]]]}}]}