{"type": "FeatureCollection", "features": [{"type": "Feature", "properties": {"slug": "atafu", "members": 1, "country": "Tokelau", "input_hash": "b6cfa82ae16bc198"}, "geometry": {"type": "Polygon", "coordinates": [[[-172.7205711, -8.5704386], [-172.6969106, -8.6591844], [-172.6544016, -8.7248238], [-172.5881532, -8.7708412], [-172.5089928, -8.7879559], [-172.3999191, -8.7666433], [-172.3328479, -8.7285864], [-172.2801954, -8.6593275], [-172.2612911, -8.5761287], [-172.2740349, -8.4885657], [-172.3181274, -8.4170699], [-172.403204, -8.3525174], [-172.4465084, -8.3365324], [-172.4940929, -8.3306453], [-172.5890971, -8.343069], [-172.6323384, -8.3648663], [-172.6682793, -8.3952124], [-172.6959697, -8.4321246], [-172.7151185, -8.4761388], [-172.723521, -8.5246614], [-172.7205711, -8.5704386]]]}}]}