{"type": "FeatureCollection", "features": [{"type": "Feature", "properties": {"slug": "auckland", "members": 1, "country": "New Zealand", "input_hash": "15dbc97d3ea0121e"}, "geometry": {"type": "MultiPolygon", "coordinates": [[[[174.6648834, -36.858606], [174.6670032, -36.8581438], [174.6744274, -36.868906], [174.6648834, -36.858606]]], [[[174.8989408, -36.8278902], [174.8919298, -36.8360167], [174.8891506, -36.8286083], [174.8989408, -36.8278902]]], [[[174.9330705, -36.8025005], [174.9594773, -36.8114715], [174.9411614, -36.822587], [174.9420039, -36.808774], [174.9330705, -36.8025005]]], [[[174.8477283, -36.8091499], [174.8282586, -36.7900269], [174.8378385, -36.7689571], [174.8669416, -36.7629482], [174.8971354, -36.7757326], [174.894325, -36.7989107], [174.8477283, -36.8091499]]], [[[174.8930181, -36.769677], [174.8940784, -36.7588621], [174.9119467, -36.7501204], [174.9153055, -36.7297957], [174.9329334, -36.7389514], [174.9286338, -36.7461094], [174.9376416, -36.7676876], [174.9293273, -36.7675339], [174.9287537, -36.7839217], [174.9120362, -36.7970087], [174.8930181, -36.769677]]], [[[174.9438588, -36.7283485], [174.9451745, -36.7088587], [174.9529976, -36.711188], [174.9516469, -36.7280047], [174.9438588, -36.7283485]]], [[[174.4725653, -36.238821], [174.5253998, -36.2079117], [174.5222997, -36.1972245], [174.53294, -36.1847446], [174.5628288, -36.1790886], [174.5711471, -36.1661529], [174.5808966, -36.1663944], [174.5846708, -36.1431254], [174.5985632, -36.140282], [174.6059105, -36.1216236], [174.61853860757077, -36.11629026910957], [174.6594725, -36.1783596], [174.724155, -36.2413024], [174.7181272, -36.2541369], [174.7257323, -36.2421567], [174.778908, -36.2696276], [174.8221404, -36.2776455], [174.8170554, -36.2899964], [174.8053217, -36.2867425], [174.809539, -36.2934278], [174.7948855, -36.3033758], [174.8006542, -36.3204698], [174.7838042, -36.3197506], [174.7791791, -36.3128833], [174.7847237, -36.305477], [174.7651322, -36.3158778], [174.7575394, -36.3095833], [174.7419841, -36.3359187], [174.7581286, -36.3196633], [174.7647099, -36.3562504], [174.7768513, -36.3619212], [174.7824358, -36.3537086], [174.764502, -36.3409505], [174.7811615, -36.3188848], [174.7813418, -36.3397144], [174.7901704, -36.3501554], [174.8042556, -36.3485503], [174.8381354, -36.3693773], [174.8683844, -36.3656251], [174.846358, -36.3791051], [174.7950011, -36.3781695], [174.7911784, -36.3899295], [174.7807845, -36.3849375], [174.770385, -36.3918845], [174.764645, -36.3860096], [174.769223, -36.3812259], [174.7540008, -36.3791447], [174.7579013, -36.3912706], [174.7427887, -36.3973385], [174.7362429, -36.3906002], [174.7428008, -36.3890759], [174.7300064, -36.3865605], [174.7419417, -36.3742092], [174.7318632, -36.3705607], [174.7314931, -36.3598825], [174.7279797, -36.3787779], [174.7202711, -36.3570699], [174.7258318, -36.3806961], [174.7187689, -36.3890047], [174.7118887, -36.3819245], [174.7115837, -36.3905135], [174.7297592, -36.3885875], [174.7371088, -36.3991928], [174.7297041, -36.4100349], [174.7322825, -36.4243409], [174.7506276, -36.4374716], [174.7801681, -36.4376655], [174.7658161, -36.4467402], [174.7507719, -36.4933409], [174.736078, -36.5043803], [174.7357127, -36.4869396], [174.749601, -36.4823811], [174.7439044, -36.4708748], [174.7515612, -36.4650923], [174.7384039, -36.4547178], [174.7367339, -36.4753086], [174.7235222, -36.4858357], [174.734504, -36.4684347], [174.7236151, -36.4430534], [174.7296218, -36.4324798], [174.7172376, -36.4329287], [174.7198033, -36.4189205], [174.7092366, -36.4304802], [174.6817633, -36.4104468], [174.6904461, -36.4202508], [174.6833622, -36.4211631], [174.6936359, -36.4258663], [174.6864046, -36.4340289], [174.7081012, -36.4386193], [174.7086208, -36.4462054], [174.6940061, -36.445772], [174.7108054, -36.4525848], [174.6896988, -36.4643563], [174.7003092, -36.4700704], [174.7125649, -36.4622869], [174.7190975, -36.4710781], [174.7074405, -36.473169], [174.7175246, -36.47952], [174.7143756, -36.4875655], [174.7038901, -36.4738741], [174.6789912, -36.4849302], [174.7080587, -36.4855556], [174.7017296, -36.4946135], [174.7188475, -36.4955879], [174.729785, -36.5160181], [174.7086121, -36.5109898], [174.7211769, -36.5174552], [174.7214239, -36.5255383], [174.7111002, -36.524792], [174.7053587, -36.5294432], [174.6983468, -36.5222298], [174.6821062, -36.528712], [174.6752719, -36.5203456], [174.6779156, -36.5283863], [174.6720711, -36.5287732], [174.6790021, -36.5310174], [174.690353, -36.5269142], [174.7076736, -36.5346414], [174.7137249, -36.5267315], [174.7167144, -36.5417431], [174.6777015, -36.5397485], [174.7098733, -36.5431006], [174.7082679, -36.5625533], [174.6953854, -36.5613111], [174.6907534, -36.5743683], [174.7013638, -36.5983081], [174.6766493, -36.5911907], [174.6571294, -36.5996005], [174.7062996, -36.5997919], [174.7321549, -36.6213231], [174.7485671, -36.6190804], [174.7531482, -36.6274756], [174.7646054, -36.6255249], [174.7741686, -36.6066602], [174.8380145, -36.5926908], [174.8346219, -36.6188497], [174.8165818, -36.618028], [174.8087767, -36.6077338], [174.8013035, -36.6278873], [174.7888834, -36.623605], [174.7959217, -36.6216146], [174.7912815, -36.6144878], [174.7865307, -36.6259302], [174.7729923, -36.624563], [174.7669589, -36.636626], [174.7408726, -36.6480134], [174.7226055, -36.6367038], [174.709796, -36.6152403], [174.6767024, -36.6198262], [174.6904818, -36.6187976], [174.6863737, -36.6254233], [174.7027963, -36.6169822], [174.6971302, -36.6325003], [174.7090147, -36.6220375], [174.7126175, -36.6363538], [174.7278565, -36.6431496], [174.7319562, -36.6621401], [174.7137218, -36.6739473], [174.7032479, -36.6682414], [174.7089599, -36.6758543], [174.7039907, -36.6809505], [174.7246719, -36.6767521], [174.7437762, -36.6606054], [174.7489676, -36.6643465], [174.7515961, -36.6891016], [174.7618965, -36.6955579], [174.7501605, -36.7151292], [174.7702982, -36.7597427], [174.7648842, -36.7669519], [174.8138752, -36.8277305], [174.7728215, -36.8292593], [174.794441, -36.8180684], [174.7659493, -36.8216448], [174.7839121, -36.8072668], [174.7730344, -36.8057072], [174.7666414, -36.7902778], [174.7649909, -36.7977968], [174.7569924, -36.7935249], [174.7641726, -36.7978936], [174.7605709, -36.8043354], [174.7512912, -36.8005366], [174.7605313, -36.8046401], [174.7482286, -36.827257], [174.7414163, -36.8163588], [174.733663, -36.8230259], [174.7276638, -36.8178524], [174.7100805, -36.8262021], [174.6968908, -36.8230066], [174.6999568, -36.8129361], [174.6899517, -36.8124863], [174.6787037, -36.7899837], [174.6951447, -36.782577], [174.7061826, -36.7908668], [174.6973713, -36.778581], [174.7027082, -36.7714627], [174.6764037, -36.786693], [174.6622901, -36.7719343], [174.670575, -36.7627492], [174.6827158, -36.7635031], [174.6761248, -36.7571811], [174.6858423, -36.736809], [174.659725, -36.7707295], [174.6483301, -36.7654873], [174.6342656, -36.772281], [174.6360682, -36.7520658], [174.6317359, -36.7705159], [174.6143747, -36.7729859], [174.5984803, -36.7563012], [174.5946275, -36.7687821], [174.6062871, -36.7733205], [174.5915564, -36.7924068], [174.5968314, -36.7880802], [174.6022646, -36.7947174], [174.5981197, -36.7876696], [174.6107692, -36.7738536], [174.6188116, -36.780991], [174.6438162, -36.7747976], [174.6458267, -36.7824061], [174.6610167, -36.7742756], [174.6375845, -36.7971433], [174.6623163, -36.7857151], [174.673331, -36.7897219], [174.6745517, -36.796503], [174.6646074, -36.7999108], [174.6708415, -36.8048784], [174.6501397, -36.8015757], [174.6407157, -36.8110329], [174.6456699, -36.8180201], [174.630426, -36.8242946], [174.6615132, -36.8321804], [174.6540983, -36.8840043], [174.6670228, -36.8857747], [174.6581445, -36.8969004], [174.6672782, -36.8892], [174.6706396, -36.8994986], [174.6927104, -36.9046083], [174.6745298, -36.8961249], [174.6759713, -36.8844063], [174.6635104, -36.8794859], [174.6680192, -36.8739653], [174.6591208, -36.8598772], [174.6765923, -36.8708251], [174.6922679, -36.8715089], [174.6717093, -36.8745384], [174.6939818, -36.8868125], [174.695337, -36.873879], [174.7050316, -36.8738364], [174.6930207, -36.8720386], [174.6995733, -36.8706128], [174.702911, -36.8510621], [174.7114827, -36.8607], [174.7095431, -36.8540866], [174.7161582, -36.8583362], [174.7140513, -36.8522081], [174.7426994, -36.8349619], [174.7518461, -36.8437034], [174.7592572, -36.8364306], [174.7581183, -36.8451643], [174.7865755, -36.8400905], [174.7940241, -36.849596], [174.7871198, -36.8483929], [174.7933981, -36.8552191], [174.7881778, -36.8638165], [174.8061629, -36.8660863], [174.8055012, -36.860078], [174.8181758, -36.8656824], [174.8312794, -36.8649533], [174.8160826, -36.863502], [174.8049473, -36.8526702], [174.8242016, -36.8437883], [174.8541683, -36.8506053], [174.8637711, -36.8432224], [174.8805487, -36.8521869], [174.8798984, -36.8649765], [174.891014, -36.8716032], [174.8829594, -36.8682937], [174.8855652, -36.8729843], [174.869782, -36.8780703], [174.877642, -36.8786833], [174.8680323, -36.8878674], [174.8685176, -36.9024429], [174.843828, -36.9063974], [174.8554631, -36.905961], [174.8498637, -36.9128892], [174.8629474, -36.9261517], [174.8448432, -36.936149], [174.8663469, -36.9328638], [174.8460965, -36.9568223], [174.8452158, -36.9687159], [174.8600528, -36.9459863], [174.8677977, -36.9523875], [174.8844768, -36.9493244], [174.8783766, -36.9426365], [174.8619983, -36.9442844], [174.8747519, -36.9346139], [174.868731, -36.9277833], [174.8926196, -36.9301956], [174.8959509, -36.917867], [174.9047324, -36.9244976], [174.9049742, -36.9139361], [174.8990764, -36.9201762], [174.8931382, -36.91074], [174.8866346, -36.9258791], [174.8584677, -36.9161332], [174.8607837, -36.9069529], [174.8759865, -36.9053661], [174.8800094, -36.890876], [174.8966197, -36.8930095], [174.8877271, -36.8899225], [174.9056588, -36.8755605], [174.9011064, -36.8462142], [174.9153571, -36.8742116], [174.9513468, -36.8954112], [174.9545436, -36.9093524], [174.935315, -36.9242397], [174.959978, -36.9143142], [174.9581908, -36.9290638], [174.9673242, -36.9311351], [174.9640238, -36.9442883], [174.9749001, -36.9352068], [174.9631521, -36.9181252], [174.9724097, -36.9085918], [174.9906466, -36.9102412], [174.9911457, -36.9243157], [174.9977451, -36.9225221], [174.983567, -36.8814617], [174.9996079, -36.8764223], [175.0221931, -36.883597], [175.0195004, -36.877348], [175.0384718, -36.8743005], [175.0560423, -36.8822797], [175.0700495, -36.9043267], [175.099037, -36.9005532], [175.0808367, -36.9115065], [175.0865474, -36.9369638], [175.0732329, -36.9517529], [175.0844452, -36.9633558], [175.0810848, -36.9522169], [175.0951126, -36.9398268], [175.0983298, -36.9478924], [175.1170528, -36.9495839], [175.1165874, -36.9383672], [175.1328743, -36.9381512], [175.1408947, -36.927199], [175.1505323, -36.9463738], [175.1611974, -36.9507628], [175.1918884, -36.9297229], [175.233345, -36.9557629], [175.2494038, -36.9576103], [175.2535772, -36.9722777], [175.2871191, -36.9946043], [175.29509758666165, -37.02395893734521], [175.2077056, -37.0300623], [175.2066795, -37.0373463], [175.1847625, -37.0407649], [175.163879, -37.0160792], [175.152091, -37.0215584], [175.1556077, -37.0470429], [175.1475937, -37.0548823], [175.1504594, -37.0702959], [175.1408179, -37.0987316], [175.1542025, -37.1210205], [175.1538967, -37.1361128], [175.1452453, -37.1445908], [175.1439265, -37.1676552], [175.1339408, -37.1682075], [175.1419093, -37.1757611], [175.1326416, -37.1853846], [175.0544715, -37.1807925], [175.0373162, -37.1920591], [175.0291578, -37.1888475], [175.02963, -37.1961629], [175.014193, -37.1969236], [174.9902581, -37.2165855], [174.973221, -37.1947646], [174.9479864, -37.1957441], [174.9299437, -37.2062331], [174.9364505, -37.2146497], [174.9307639, -37.2331091], [174.8867901, -37.2306329], [174.8503582, -37.2511689], [174.8481176, -37.2341992], [174.8063189, -37.2268357], [174.7388824, -37.2679388], [174.7225277, -37.2581338], [174.6892892, -37.2661504], [174.6582036, -37.2819821], [174.65732346757918, -37.293379410191726], [174.5736487, -37.1302025], [174.5422519, -37.0846325], [174.5353664, -37.0590662], [174.5416891, -37.0477817], [174.5637702, -37.0427512], [174.6073632, -37.0489234], [174.6275369, -37.0359062], [174.6590218, -37.0445978], [174.6664824, -37.0568563], [174.6600581, -37.0672295], [174.6653883, -37.06738], [174.6430901, -37.0717391], [174.6416902, -37.0775873], [174.6508198, -37.0738079], [174.6581162, -37.0816583], [174.6395336, -37.0853857], [174.6523169, -37.0881358], [174.6567873, -37.1044522], [174.6689514, -37.1060653], [174.6430979, -37.1202701], [174.6665038, -37.1177242], [174.6708818, -37.1378506], [174.667101, -37.1295533], [174.6533918, -37.1345831], [174.6626012, -37.1371047], [174.6571282, -37.1427106], [174.666412, -37.1387389], [174.6896043, -37.1468345], [174.670351, -37.1614484], [174.699186, -37.1513281], [174.6824627, -37.1674315], [174.6907468, -37.1660954], [174.6837484, -37.1754225], [174.6967635, -37.1700524], [174.6932169, -37.184364], [174.6829788, -37.1884616], [174.7027724, -37.1863164], [174.6875595, -37.2028848], [174.703507, -37.1953797], [174.7003287, -37.2054369], [174.7063148, -37.2045128], [174.693841, -37.2156912], [174.7060319, -37.2080567], [174.7028315, -37.2196049], [174.7101046, -37.2128309], [174.7191643, -37.2162898], [174.7061913, -37.2253405], [174.7164805, -37.2243558], [174.7070627, -37.2365655], [174.7186413, -37.2274794], [174.7178913, -37.2420045], [174.728257, -37.2329825], [174.7305791, -37.2478941], [174.7298268, -37.2354253], [174.7426288, -37.2401606], [174.7326979, -37.2293387], [174.7388391, -37.2238681], [174.7281619, -37.2247871], [174.7189649, -37.2138127], [174.7131941, -37.1968905], [174.7268976, -37.1884022], [174.716296, -37.1827138], [174.715073, -37.1667651], [174.7035673, -37.1572343], [174.7245275, -37.1522174], [174.7265708, -37.1622054], [174.7343431, -37.1568223], [174.7316629, -37.1648779], [174.7415508, -37.1616606], [174.740169, -37.1801003], [174.7502067, -37.1877914], [174.7463032, -37.1699854], [174.7684767, -37.1709607], [174.7751069, -37.1629609], [174.7755612, -37.1715427], [174.7760797, -37.1645952], [174.7867704, -37.1632411], [174.7945658, -37.1739528], [174.7921848, -37.1631461], [174.7566251, -37.1580949], [174.7447462, -37.1657213], [174.736447, -37.1505902], [174.7417172, -37.1466448], [174.7045497, -37.1518491], [174.7050882, -37.1414954], [174.6897685, -37.1419491], [174.6905908, -37.1364857], [174.7394284, -37.1259568], [174.7779442, -37.0884436], [174.7927292, -37.0917789], [174.785205, -37.0936158], [174.7888741, -37.1045347], [174.7772184, -37.1044412], [174.7877671, -37.1073281], [174.7799335, -37.1166682], [174.7871519, -37.1160963], [174.7821537, -37.1355074], [174.7943255, -37.1341968], [174.7881442, -37.1249522], [174.792352, -37.1049554], [174.7995523, -37.1052789], [174.7968179, -37.0959503], [174.8568146, -37.0554766], [174.8545348, -37.0650722], [174.8696724, -37.0630975], [174.875854, -37.0733557], [174.8635094, -37.0848955], [174.8606637, -37.0992989], [174.8709841, -37.112511], [174.8639213, -37.0987298], [174.8675266, -37.0859744], [174.8765878, -37.0794442], [174.8779537, -37.0691409], [174.8967796, -37.0611617], [174.8978435, -37.0853709], [174.9032185, -37.087936], [174.9094296, -37.0863221], [174.9122267, -37.0966026], [174.8989246, -37.1158665], [174.9169093, -37.0943025], [174.9206443, -37.109999], [174.9271545, -37.095572], [174.9195101, -37.0914062], [174.9334987, -37.098886], [174.9395854, -37.0950447], [174.9430189, -37.1087611], [174.9454874, -37.0942931], [174.9375123, -37.0928816], [174.9335499, -37.0967037], [174.922095, -37.0843658], [174.9042237, -37.0870993], [174.8996611, -37.0810325], [174.91199, -37.0688646], [174.9043142, -37.0658146], [174.9076906, -37.0609782], [174.9130985, -37.0595494], [174.9105253, -37.0667299], [174.9232828, -37.0593986], [174.9336835, -37.0661225], [174.9375676, -37.0596548], [174.9265965, -37.0527871], [174.9227538, -37.0594775], [174.9205338, -37.0472989], [174.9060861, -37.0529114], [174.907393, -37.0427943], [174.8875539, -37.0589729], [174.8725798, -37.0549364], [174.8716858, -37.0487753], [174.8903898, -37.0427602], [174.8734054, -37.0377788], [174.8643362, -37.0528036], [174.8581689, -37.0513271], [174.8560186, -37.016963], [174.8400476, -37.0181461], [174.8527856, -37.0240642], [174.8480012, -37.0289043], [174.8276991, -37.0083553], [174.8160441, -37.0103378], [174.8191908, -37.0031391], [174.8088981, -37.001765], [174.8229856, -36.991895], [174.8328656, -36.9967008], [174.8280778, -36.9942395], [174.8347257, -36.9897947], [174.8204323, -36.9920075], [174.8192852, -36.9798593], [174.818679, -36.988523], [174.8120649, -36.9860028], [174.8165017, -36.9931582], [174.8076872, -36.9954536], [174.7990119, -36.9807317], [174.7994637, -36.9884765], [174.7912888, -36.9890474], [174.8063207, -36.997911], [174.8008347, -36.9981266], [174.8094943, -37.0071628], [174.8029062, -37.0137693], [174.8174692, -37.0172755], [174.8053297, -37.016272], [174.7940657, -37.0115661], [174.765179, -37.018538], [174.7736234, -37.0079894], [174.7418614, -36.992585], [174.7471261, -36.9809749], [174.7629198, -36.9795854], [174.7657691, -36.9674546], [174.7453303, -36.9739989], [174.7326843, -36.9613626], [174.7742111, -36.965918], [174.7755889, -36.9594628], [174.7560533, -36.9493402], [174.7611985, -36.9396291], [174.7895243, -36.9354601], [174.7996596, -36.946575], [174.7938829, -36.9518126], [174.816815, -36.9428561], [174.8104, -36.9526587], [174.8155492, -36.9530866], [174.8309644, -36.9414687], [174.822683, -36.9279382], [174.782546, -36.9333575], [174.7725574, -36.9250636], [174.7308997, -36.9388517], [174.7067004, -36.9257731], [174.6809885, -36.934202], [174.6516629, -36.964284], [174.6466199, -36.9501853], [174.6377616, -36.9555278], [174.645178, -36.968889], [174.6328499, -36.9791995], [174.6159308, -36.9639707], [174.6180579, -36.9885435], [174.6045319, -36.9925208], [174.6032047, -37.0014416], [174.6120941, -37.0201616], [174.60453, -37.0213203], [174.5923351, -37.0013789], [174.5934267, -37.0094589], [174.5734816, -37.0107843], [174.5664918, -36.9987324], [174.5567514, -37.0220223], [174.5028132, -37.050293], [174.485607, -37.0485034], [174.4751272, -37.0281425], [174.4645378, -36.9478228], [174.4439104, -36.9122235], [174.4433722, -36.8913712], [174.4341507, -36.8904269], [174.4376745, -36.8814765], [174.4299565, -36.8787305], [174.4348118, -36.8667645], [174.4239442, -36.8257797], [174.3118537, -36.6607258], [174.1595118, -36.4725398], [174.1631986, -36.4468008], [174.2100763, -36.4266866], [174.189044, -36.4549662], [174.1956087, -36.4775284], [174.2063353, -36.4402612], [174.2354993, -36.4279426], [174.2776316, -36.4875676], [174.2705087, -36.4992676], [174.2838867, -36.494535], [174.2928352, -36.5034236], [174.2997177, -36.5216954], [174.2951527, -36.5385198], [174.2988392, -36.5283574], [174.3148439, -36.5470557], [174.3423932, -36.5418637], [174.3555845, -36.5478164], [174.3400552, -36.5541219], [174.3280554, -36.5672846], [174.3494874, -36.5511254], [174.3774426, -36.5650828], [174.3779044, -36.5744963], [174.3651296, -36.5824113], [174.3374225, -36.5850336], [174.3621902, -36.5848702], [174.3560082, -36.600971], [174.3393693, -36.5994573], [174.3446202, -36.6032668], [174.33855, -36.6065967], [174.3497778, -36.6061986], [174.3399519, -36.6084762], [174.3436762, -36.6172574], [174.3527296, -36.6247391], [174.3649786, -36.6208058], [174.3630246, -36.6315384], [174.3934793, -36.6192087], [174.40228, -36.6314741], [174.3845758, -36.632823], [174.3904604, -36.6399281], [174.4072649, -36.6326076], [174.4123344, -36.6355809], [174.4070346, -36.6432003], [174.4159379, -36.6402598], [174.4165229, -36.6490928], [174.4281988, -36.634779], [174.4424694, -36.6495495], [174.4350434, -36.6393183], [174.4381205, -36.6274735], [174.4283696, -36.6229848], [174.4371245, -36.6178737], [174.4432793, -36.5901472], [174.4356463, -36.5940893], [174.4374476, -36.5875533], [174.4142531, -36.5818546], [174.4340499, -36.5787849], [174.4201891, -36.5686391], [174.4250601, -36.5611938], [174.4431797, -36.561548], [174.4460014, -36.5550404], [174.4490516, -36.5641925], [174.4624708, -36.5696603], [174.4535606, -36.5654727], [174.4706385, -36.5539961], [174.4613688, -36.5520453], [174.4672445, -36.5449918], [174.4611417, -36.5498117], [174.4536633, -36.5619837], [174.4499947, -36.553619], [174.4391431, -36.5539125], [174.4314013, -36.5361652], [174.4514439, -36.5323158], [174.431885, -36.5349746], [174.4274652, -36.5381809], [174.4253925, -36.5298716], [174.4351418, -36.5301641], [174.424552, -36.5270778], [174.4282017, -36.5124893], [174.4432445, -36.5038151], [174.4421823, -36.500598], [174.4494756, -36.5029368], [174.4420369, -36.4998758], [174.4392747, -36.5033662], [174.4356959, -36.4989733], [174.4293179, -36.5065819], [174.4304826, -36.4924339], [174.4209557, -36.4954928], [174.4115119, -36.4803971], [174.4231479, -36.4696869], [174.4111303, -36.4626271], [174.4112974, -36.4490687], [174.4319583, -36.4488594], [174.419868, -36.4423222], [174.4443979, -36.4237276], [174.4283968, -36.4270662], [174.4345312, -36.4094343], [174.4239793, -36.395508], [174.4483492, -36.3778235], [174.4307305, -36.3812082], [174.4395726, -36.3752582], [174.4215829, -36.3717212], [174.4244064, -36.3623439], [174.4151557, -36.356897], [174.4318839, -36.3513633], [174.4248831, -36.3484805], [174.4334116, -36.3409214], [174.4070068, -36.3503937], [174.4050424, -36.3382948], [174.3873369, -36.3353939], [174.3954851, -36.3448897], [174.3883983, -36.3507624], [174.3974479, -36.3498542], [174.3937895, -36.3601324], [174.4020079, -36.359165], [174.3989839, -36.3688597], [174.4062592, -36.3776583], [174.3867634, -36.3762086], [174.3883434, -36.3858585], [174.3705603, -36.3803998], [174.3701038, -36.3946872], [174.3784567, -36.3891028], [174.384321, -36.4035238], [174.3673868, -36.3999252], [174.3573852, -36.411345], [174.3106142, -36.3771545], [174.3120001, -36.3645626], [174.3046834, -36.3550056], [174.3084622, -36.3657262], [174.3005898, -36.3783708], [174.3078966, -36.3874691], [174.2748347, -36.3908404], [174.2508993, -36.3754693], [174.2595458, -36.3596605], [174.2716342, -36.3548086], [174.2742462, -36.332708], [174.2680875, -36.3175861], [174.2669111, -36.3266696], [174.2671594, -36.3114064], [174.2804511, -36.3315299], [174.2848837, -36.3267734], [174.277502, -36.3061417], [174.2982835, -36.3088051], [174.3092936, -36.3279211], [174.323659, -36.3193477], [174.3193612, -36.3315628], [174.3298871, -36.3213632], [174.3391445, -36.3240257], [174.3354977, -36.331629], [174.3469914, -36.3318082], [174.3423058, -36.3227697], [174.3602155, -36.3239726], [174.3588497, -36.3189759], [174.3691874, -36.3253939], [174.3661825, -36.3105909], [174.3841459, -36.3238608], [174.3794106, -36.3123199], [174.3907329, -36.310891], [174.3936714, -36.3195215], [174.3939467, -36.3021017], [174.4071393, -36.2946945], [174.4150296, -36.2775686], [174.4208656, -36.2954947], [174.4228322, -36.284523], [174.4327297, -36.2974115], [174.4246287, -36.2772973], [174.4300575, -36.2705433], [174.4399398, -36.2747009], [174.455307, -36.2552473], [174.4613402, -36.2639995], [174.4786, -36.2634778], [174.4798517, -36.2765978], [174.4837494, -36.2709526], [174.4976002, -36.2744229], [174.4807436, -36.2615871], [174.5070882, -36.2497991], [174.4909948, -36.2524371], [174.4980166, -36.2389993], [174.482115, -36.2580662], [174.4726235, -36.2590842], [174.4725653, -36.238821]]], [[[174.9728045, -36.6984524], [174.9778781, -36.6940041], [174.9731463, -36.6986264], [174.9728045, -36.6984524]]], [[[174.8997948, -36.6096464], [174.8901984, -36.6083835], [174.8793971, -36.5923571], [174.8919266, -36.594603], [174.8997948, -36.6096464]]], [[[174.8023654, -36.5008305], [174.7860678, -36.5133266], [174.7884885, -36.5055206], [174.8023654, -36.5008305]]], [[[174.7932959, -36.4758437], [174.7965427, -36.4749624], [174.8007091, -36.4751887], [174.7932959, -36.4758437]]], [[[174.8136519, -36.4690252], [174.8066121, -36.4739118], [174.8094632, -36.4672891], [174.8136519, -36.4690252]]], [[[174.2153867, -36.4342551], [174.2245915, -36.4258436], [174.2294736, -36.4272906], [174.2153867, -36.4342551]]], [[[174.8749738, -36.4122902], [174.8788006, -36.4477578], [174.8578485, -36.4403624], [174.8555015, -36.4469656], [174.8333434, -36.4485558], [174.8416861, -36.4407771], [174.8158967, -36.4281944], [174.8589565, -36.4247956], [174.8495926, -36.4214401], [174.8548739, -36.417389], [174.8421866, -36.422684], [174.818716, -36.4181687], [174.8417619, -36.4018613], [174.8242369, -36.4080615], [174.8400128, -36.3919362], [174.8749738, -36.4122902]]], [[[174.2459309, -36.3702849], [174.2483097, -36.4009979], [174.2368494, -36.3727368], [174.2370518, -36.3679859], [174.2452486, -36.3640613], [174.2385555, -36.3700248], [174.2459309, -36.3702849]]], [[[174.2695546, -36.3420654], [174.266883, -36.3411659], [174.2702301, -36.3402726], [174.2695546, -36.3420654]]], [[[174.2590444, -36.3265718], [174.2626095, -36.330662], [174.2618985, -36.3539464], [174.2590444, -36.3265718]]], [[[174.2603987, -36.3243297], [174.2578378, -36.3149411], [174.2622101, -36.3213152], [174.2603987, -36.3243297]]], [[[174.7998415, -36.2637587], [174.79655, -36.2677789], [174.7952862, -36.2651606], [174.7998415, -36.2637587]]], [[[175.0903948, -36.165528], [175.1141673, -36.1821204], [175.105471, -36.2289557], [175.0782661, -36.2303642], [175.0507974, -36.2193433], [175.0509261, -36.1844942], [175.0780184, -36.178349], [175.0903948, -36.165528]]], [[[175.1547782, -36.9075197], [175.1689539, -36.9031106], [175.1696119, -36.9087244], [175.1542103, -36.9190127], [175.1547782, -36.9075197]]], [[[175.1732799, -36.8358429], [175.1884807, -36.8300705], [175.1940256, -36.8396024], [175.2037092, -36.8318487], [175.2139035, -36.8349873], [175.1999476, -36.8419907], [175.1946755, -36.8616775], [175.2064509, -36.8794313], [175.2007369, -36.8970746], [175.1898254, -36.9011424], [175.1758475, -36.8946923], [175.1659326, -36.8708899], [175.1526158, -36.8619404], [175.1777963, -36.8599779], [175.1732799, -36.8358429]]], [[[175.2003286, -36.8248571], [175.1911589, -36.8108744], [175.1999779, -36.8066664], [175.2003286, -36.8248571]]], [[[175.1912498, -36.7919613], [175.1959409, -36.8001829], [175.1889597, -36.7936439], [175.1912498, -36.7919613]]], [[[175.0601783, -36.7650513], [175.0665556, -36.7851677], [175.0903478, -36.7874612], [175.1066717, -36.7817922], [175.1058215, -36.7636954], [175.1465402, -36.7648211], [175.1522237, -36.7501281], [175.1714605, -36.7378578], [175.1710059, -36.7503796], [175.1939133, -36.7518721], [175.203077, -36.7645055], [175.1933014, -36.7785877], [175.1798783, -36.773311], [175.1555934, -36.7850408], [175.1674344, -36.805244], [175.1646229, -36.8248478], [175.1606167, -36.8322576], [175.1466056, -36.8331063], [175.1531199, -36.8407757], [175.1439316, -36.8483774], [175.1377156, -36.84832], [175.1390973, -36.8362929], [175.1303539, -36.8365934], [175.1444456, -36.8225232], [175.1286893, -36.8237722], [175.1222775, -36.8395646], [175.1269028, -36.8481357], [175.1133459, -36.8474545], [175.1104627, -36.815194], [175.1034186, -36.8153865], [175.0971127, -36.8414998], [175.0628108, -36.8318731], [175.0717883, -36.8263573], [175.0684256, -36.818241], [175.0325127, -36.8179997], [175.0480004, -36.8059418], [175.0692447, -36.8024506], [175.0526108, -36.7964103], [175.0411521, -36.805344], [175.038775, -36.7978492], [175.0214955, -36.8133283], [175.02767, -36.7979162], [175.0115177, -36.7894427], [174.9879129, -36.8118112], [174.9904439, -36.7933289], [174.9820107, -36.7876029], [174.992866, -36.7814723], [174.984731, -36.7721657], [175.0149938, -36.7687233], [175.0090856, -36.7788308], [175.0179542, -36.7845467], [175.0364046, -36.7741913], [175.0453562, -36.779676], [175.0601783, -36.7650513]]], [[[175.5036632, -36.3476929], [175.504194, -36.3449083], [175.5066555, -36.3455064], [175.5036632, -36.3476929]]], [[[175.3077026, -36.2346091], [175.2974359, -36.2340837], [175.3040094, -36.2277632], [175.3077026, -36.2346091]]], [[[175.3105228, -36.2259389], [175.2949036, -36.2228369], [175.298113, -36.2167881], [175.3105228, -36.2259389]]], [[[175.2885162, -36.219262], [175.2853956, -36.2130489], [175.2932955, -36.217567], [175.2885162, -36.219262]]], [[[175.325774, -36.1886523], [175.3400259, -36.2158598], [175.3508212, -36.2149397], [175.3393867, -36.2109144], [175.3417851, -36.2025099], [175.360027, -36.2090127], [175.3464062, -36.1860561], [175.3698196, -36.1832756], [175.3510186, -36.1769127], [175.3626145, -36.1724265], [175.3627731, -36.1624309], [175.3504003, -36.1686067], [175.3389868, -36.158411], [175.3540318, -36.1497145], [175.3261607, -36.1383408], [175.3157872, -36.1476124], [175.3092651, -36.1397112], [175.3138496, -36.1246853], [175.3301456, -36.1348113], [175.3440475, -36.1249916], [175.3493963, -36.1308416], [175.3670642, -36.1278502], [175.3598577, -36.1223462], [175.3761248, -36.1165127], [175.349885, -36.1091292], [175.3389205, -36.095925], [175.3481165, -36.076832], [175.3387596, -36.0738681], [175.3434886, -36.0660958], [175.3540958, -36.0699095], [175.3674121, -36.065424], [175.3699733, -36.0556582], [175.3989303, -36.0499748], [175.4143141, -36.0627856], [175.403909, -36.0700797], [175.4108857, -36.0720997], [175.4023902, -36.0802599], [175.4065577, -36.0930619], [175.4211608, -36.0855803], [175.4252667, -36.107238], [175.442132, -36.1120122], [175.4272256, -36.1133091], [175.4252279, -36.1383506], [175.407563, -36.1337081], [175.4030663, -36.1485275], [175.4189234, -36.1413512], [175.4250978, -36.1486987], [175.4362676, -36.1408535], [175.4473769, -36.1530323], [175.4717053, -36.1626246], [175.4757833, -36.1574703], [175.4825005, -36.1706422], [175.5038422, -36.1702231], [175.4962826, -36.1878759], [175.4839285, -36.1917386], [175.4794805, -36.2092189], [175.4889648, -36.2181228], [175.4780238, -36.2257675], [175.4792415, -36.2465832], [175.4955496, -36.2671544], [175.509469, -36.2633048], [175.5300759, -36.2808756], [175.5508218, -36.3147039], [175.5399785, -36.3184564], [175.5297459, -36.3479202], [175.4739447, -36.33155], [175.4793051, -36.3187754], [175.4934597, -36.3229926], [175.4881462, -36.3021966], [175.4701084, -36.3011577], [175.4547827, -36.3135625], [175.4532651, -36.305402], [175.432531, -36.3096521], [175.4295745, -36.2813986], [175.4418542, -36.2708743], [175.4381665, -36.2589262], [175.4007795, -36.2685804], [175.3973801, -36.2369051], [175.3883997, -36.2425204], [175.3905108, -36.254956], [175.3657666, -36.2471137], [175.349847, -36.2286659], [175.3233335, -36.2194701], [175.3256438, -36.2263702], [175.3142684, -36.2255211], [175.3087581, -36.1857857], [175.3180731, -36.198761], [175.325774, -36.1886523]]], [[[175.32197, -36.1718684], [175.3407657, -36.1651015], [175.3346779, -36.1894173], [175.3122961, -36.181025], [175.3026899, -36.1670883], [175.32197, -36.1718684]]], [[[175.296161, -36.1658512], [175.3000448, -36.1639409], [175.2974917, -36.1671414], [175.296161, -36.1658512]]], [[[175.2819192, -36.1609148], [175.2938495, -36.1634436], [175.2844168, -36.1624919], [175.2819192, -36.1609148]]], [[[175.4960309, -36.1152813], [175.51266, -36.1237819], [175.4932424, -36.1375399], [175.486795, -36.1336196], [175.4960309, -36.1152813]]], [[[175.4009341, -36.0410514], [175.4051121, -36.0493586], [175.3997314, -36.0502971], [175.4009341, -36.0410514]]], [[[175.4138757, -36.0337025], [175.4040342, -36.0397266], [175.4109854, -36.0296254], [175.4138757, -36.0337025]]], [[[175.1494075, -35.9346065], [175.1557329, -35.9455691], [175.1415177, -35.9425948], [175.1494075, -35.9346065]]], [[[175.0963105, -35.9124842], [175.0968116, -35.9099731], [175.1023078, -35.9161818], [175.0963105, -35.9124842]]], [[[175.1051266, -35.909095], [175.1068315, -35.9112195], [175.1025577, -35.909376], [175.1051266, -35.909095]]], [[[175.1060204, -35.9049996], [175.1194507, -35.900338], [175.1084967, -35.9087063], [175.1060204, -35.9049996]]]]}}]}