{"type":"FeatureCollection","features":[{"type":"Feature","properties":{"slug":"avignon","member_count":151,"matched_count":151,"unmatched":[],"source":"Overture Maps division_area (CC-BY 4.0)"},"geometry":{"type":"MultiPolygon","coordinates":[[[[5.0300665,43.8271999],[4.9666139,43.8712257],[4.9026572,43.888347],[4.853161,43.9113788],[4.7396309,43.9245884],[4.7783571,43.937565],[4.8126382,43.9618924],[4.8119775,43.9870794],[4.8424593,43.9868284],[4.8437755,44.0082835],[4.8194305,44.0175342],[4.814279,44.0344283],[4.7880005,44.0527032],[4.7865502,44.0658915],[4.7609542,44.0763071],[4.7600566,44.0873167],[4.7208523,44.0812589],[4.7061511,44.1097656],[4.7198344,44.1457155],[4.7162232,44.1768155],[4.7223446,44.1874088],[4.7057031,44.1930741],[4.7057517,44.214644],[4.6740517,44.214501],[4.677655,44.234753],[4.6495051,44.261057],[4.650798,44.3289619],[4.6786497,44.3206908],[4.7130795,44.3205626],[4.71962,44.3268758],[4.779601,44.3193339],[4.804612,44.3038831],[4.8039752,44.2692139],[4.8126586,44.2577278],[4.8141933,44.2320671],[4.826693,44.2283299],[4.8740755,44.2597441],[4.9332947,44.262221],[4.9746267,44.2827812],[5.0606369,44.3080006],[5.0764798,44.2839344],[5.1081578,44.2772993],[5.1676951,44.3148497],[5.1738665,44.3083326],[5.1683364,44.2901258],[5.1498253,44.2819161],[5.1463805,44.2721212],[5.1606806,44.2667864],[5.1618212,44.2457497],[5.1493937,44.2356474],[5.1579208,44.2288437],[5.2304256,44.2118095],[5.2382597,44.2134114],[5.240459,44.2308515],[5.2533152,44.2312861],[5.3031199,44.2055067],[5.3183325,44.2098408],[5.3367951,44.2035182],[5.3549028,44.2145788],[5.3846065,44.2012899],[5.3830991,44.1553705],[5.4359416,44.1523836],[5.4510186,44.1210991],[5.4993293,44.1158605],[5.5026325,44.0635314],[5.5448419,44.070084],[5.5435837,44.0259489],[5.5180096,43.9926408],[5.5098274,43.9504663],[5.5448845,43.9388998],[5.5682339,43.9428791],[5.5815759,43.9148542],[5.6082879,43.9149109],[5.5728673,43.8623736],[5.5487104,43.8512569],[5.5444247,43.8183766],[5.5642062,43.8199353],[5.5759209,43.8303441],[5.6545749,43.8250442],[5.6858575,43.7870192],[5.7128039,43.7811789],[5.7163977,43.7556713],[5.7583526,43.7305772],[5.7315398,43.7139358],[5.7139115,43.6912881],[5.6725561,43.6934208],[5.6070439,43.6586727],[5.519575,43.6612418],[5.4237208,43.6867557],[5.339024,43.7202048],[5.3167421,43.7361362],[5.2475296,43.7487067],[5.1875434,43.7351153],[5.1740298,43.7384911],[5.0478374,43.7899695],[5.0300665,43.8271999]]],[[[5.010091,44.3328722],[5.0139204,44.3258552],[4.9963781,44.3200431],[4.9869882,44.2925426],[4.9219046,44.3089205],[4.8892902,44.304033],[4.8916565,44.3133342],[4.8816347,44.3248186],[4.8957357,44.3379942],[4.8695232,44.3450832],[4.908493,44.3764419],[4.9096671,44.3967278],[4.9185003,44.4078087],[4.9594648,44.4198104],[4.9730901,44.4315502],[5.0010966,44.4127119],[5.0183837,44.415976],[5.0157591,44.3927847],[5.0719081,44.3810155],[5.0547246,44.3648615],[5.022894,44.3599673],[5.0234242,44.3461765],[5.010091,44.3328722]]]]}}]}