{"type":"FeatureCollection","features":[{"type":"Feature","properties":{"slug":"aviles","member_count":10,"matched_count":10,"unmatched":[],"source":"Overture Maps division_area (CC-BY 4.0)"},"geometry":{"type":"MultiPolygon","coordinates":[[[[-6.3151154,43.5651865],[-6.3143371,43.565267],[-6.3149334,43.5648898],[-6.3151154,43.5651865]]],[[[-6.3095906,43.5657282],[-6.3097097,43.5655021],[-6.3099107,43.5655059],[-6.3095906,43.5657282]]],[[[-6.3092876,43.5673247],[-6.3099694,43.5670208],[-6.3092593,43.5675577],[-6.3092876,43.5673247]]],[[[-6.2965515,43.5706437],[-6.2975385,43.5690112],[-6.2987828,43.5692785],[-6.2965515,43.5706437]]],[[[-6.2937929,43.5704183],[-6.2937124,43.5701968],[-6.2939267,43.5703214],[-6.2937929,43.5704183]]],[[[-6.2975707,43.5707719],[-6.2980535,43.5701501],[-6.2982466,43.570325],[-6.2975707,43.5707719]]],[[[-6.2888475,43.5710322],[-6.2891633,43.5713647],[-6.2886748,43.5714612],[-6.2888475,43.5710322]]],[[[-6.2930774,43.5717993],[-6.2930948,43.5715061],[-6.2932832,43.5715845],[-6.2930774,43.5717993]]],[[[-6.2933321,43.5717336],[-6.293688,43.5718347],[-6.2931821,43.5719788],[-6.2933321,43.5717336]]],[[[-6.2830381,43.571816],[-6.2833503,43.5718919],[-6.2830964,43.5719883],[-6.2830381,43.571816]]],[[[-6.2934035,43.57264],[-6.2931173,43.5721753],[-6.2946074,43.5721252],[-6.2934035,43.57264]]],[[[-6.2878335,43.572365],[-6.2880407,43.5728012],[-6.2876756,43.572744],[-6.2878335,43.572365]]],[[[-6.2949235,43.5724294],[-6.2951957,43.5728692],[-6.294777,43.5728237],[-6.2949235,43.5724294]]],[[[-6.2808533,43.5731817],[-6.2818636,43.5740579],[-6.2812671,43.5741626],[-6.2808533,43.5731817]]],[[[-6.2491115,43.5835159],[-6.249034,43.5833339],[-6.2492943,43.5832669],[-6.2491115,43.5835159]]],[[[-6.246959,43.587473],[-6.2470937,43.5875115],[-6.2469625,43.5875372],[-6.246959,43.587473]]],[[[-6.2459136,43.5876399],[-6.2466472,43.5874037],[-6.2460057,43.5878452],[-6.2459136,43.5876399]]],[[[-6.2460589,43.5880942],[-6.2458853,43.5883817],[-6.2460057,43.5879556],[-6.2460589,43.5880942]]],[[[-6.2465267,43.5881532],[-6.2463459,43.5881199],[-6.2467145,43.5881096],[-6.2465267,43.5881532]]],[[[-6.2453643,43.5884587],[-6.2454636,43.588528],[-6.2453395,43.5885921],[-6.2453643,43.5884587]]],[[[-6.2459703,43.5889669],[-6.2460412,43.5887025],[-6.2461758,43.588723],[-6.2459703,43.5889669]]],[[[-6.2457111,43.5919421],[-6.2457691,43.5914697],[-6.2461451,43.5918681],[-6.2457111,43.5919421]]],[[[-6.2448837,43.5933798],[-6.2450917,43.5934404],[-6.2450295,43.5936326],[-6.2448837,43.5933798]]],[[[-6.2380367,43.593547],[-6.2373393,43.5932595],[-6.2382706,43.5932132],[-6.2380367,43.593547]]],[[[-6.2427795,43.595919],[-6.2445301,43.5954301],[-6.2444853,43.596125],[-6.2427795,43.595919]]],[[[-6.2439389,43.5963386],[-6.2438523,43.596575],[-6.2437713,43.5967769],[-6.2437362,43.5963805],[-6.2439389,43.5963386]]],[[[-6.1215272,43.4438312],[-6.1371826,43.4392696],[-6.1449002,43.4205815],[-6.1550377,43.4169435],[-6.1617056,43.4316066],[-6.1912506,43.449783],[-6.229907,43.4583576],[-6.2176639,43.4675448],[-6.2354625,43.495728],[-6.2687013,43.4953939],[-6.2692147,43.5353375],[-6.2591908,43.5426919],[-6.2741804,43.5490969],[-6.3492288,43.5208914],[-6.3525804,43.528005],[-6.3342953,43.5415415],[-6.3447589,43.5541291],[-6.2562308,43.5775854],[-6.2422843,43.5885843],[-6.2445692,43.5951596],[-6.2193557,43.5779196],[-6.20916,43.585139],[-6.2032606,43.5727181],[-6.1882257,43.5796911],[-6.1919541,43.5676907],[-6.1860392,43.5629173],[-6.1510893,43.5696815],[-6.1172092,43.5547072],[-6.092121,43.5580077],[-6.0773154,43.5703621],[-6.0776502,43.5646519],[-6.0646808,43.5650787],[-6.028197,43.5861077],[-6.0166664,43.5876579],[-5.9960957,43.5721326],[-5.9915785,43.5794728],[-5.9603483,43.5779417],[-5.9421507,43.58733],[-5.9465489,43.5925947],[-5.938921,43.5949612],[-5.9479876,43.5971774],[-5.9134307,43.6084394],[-5.9137581,43.6244256],[-5.8818417,43.6234393],[-5.8596569,43.6354843],[-5.857559,43.6403466],[-5.8611147,43.6496006],[-5.8521937,43.6584841],[-5.841052,43.6589263],[-5.8295972,43.6395353],[-5.821487,43.6445238],[-5.8112162,43.6423584],[-5.8107802,43.632175],[-5.7833743,43.6314807],[-5.7808535,43.6198037],[-5.7909848,43.6136765],[-5.7676376,43.6047879],[-5.7756293,43.592092],[-5.85491,43.5522597],[-5.8470742,43.5475392],[-5.8628128,43.528571],[-5.8180944,43.5005347],[-5.826396,43.4803884],[-5.8404079,43.4851912],[-5.8535235,43.4782735],[-5.9046195,43.5010986],[-5.9437472,43.4912644],[-5.9677168,43.4724785],[-5.9883905,43.4734304],[-6.0359737,43.402747],[-6.0644361,43.4022212],[-6.0820761,43.4123174],[-6.0922133,43.401833],[-6.1152947,43.4107771],[-6.1106498,43.4290735],[-6.1215272,43.4438312]]],[[[-6.118357,43.5558821],[-6.1183017,43.5558161],[-6.1183748,43.5558514],[-6.118357,43.5558821]]],[[[-6.0961568,43.5598342],[-6.0961448,43.5597282],[-6.0962722,43.5598011],[-6.0961568,43.5598342]]],[[[-6.100266,43.5602394],[-6.1000688,43.5598798],[-6.1003813,43.5599168],[-6.100266,43.5602394]]],[[[-6.1025784,43.5610872],[-6.1028182,43.5614098],[-6.1027288,43.5614556],[-6.1025444,43.5612344],[-6.1025784,43.5610872]]],[[[-6.1070541,43.5630408],[-6.1068949,43.5634495],[-6.1069492,43.5630271],[-6.1070541,43.5630408]]],[[[-6.1380643,43.5647665],[-6.1379309,43.5651848],[-6.1376688,43.5649526],[-6.1380643,43.5647665]]],[[[-6.1548092,43.569101],[-6.1547689,43.5698917],[-6.154302,43.5695688],[-6.1548092,43.569101]]],[[[-6.1500745,43.5705521],[-6.1500718,43.570317],[-6.1502757,43.5703869],[-6.1500745,43.5705521]]],[[[-6.1501502,43.570597],[-6.150177,43.5709759],[-6.1497532,43.5708302],[-6.1501502,43.570597]]],[[[-6.1497042,43.5715124],[-6.1494583,43.5714344],[-6.1495259,43.5713743],[-6.1497042,43.5715124]]],[[[-6.1912652,43.5797541],[-6.1910667,43.5792722],[-6.1913618,43.5792294],[-6.1912652,43.5797541]]],[[[-6.1920055,43.5803311],[-6.1918556,43.5799594],[-6.192274,43.5800138],[-6.1920055,43.5803311]]],[[[-6.1922313,43.5804773],[-6.1918826,43.5820916],[-6.1915122,43.5811121],[-6.1922313,43.5804773]]],[[[-6.1908013,43.5824791],[-6.1914881,43.582201],[-6.1915762,43.582349],[-6.1908013,43.5824791]]],[[[-6.2226038,43.5827601],[-6.2220999,43.5828939],[-6.2227758,43.5825442],[-6.2226038,43.5827601]]],[[[-6.2089126,43.5851735],[-6.2086302,43.5856443],[-6.2086387,43.5849893],[-6.2089126,43.5851735]]],[[[-6.2257318,43.586189],[-6.2255591,43.5864017],[-6.2256073,43.5862094],[-6.2257318,43.586189]]],[[[-6.2254589,43.5866735],[-6.2254067,43.5865586],[-6.2256419,43.5865898],[-6.2254589,43.5866735]]],[[[-6.2271403,43.5906333],[-6.2265904,43.5907119],[-6.2267564,43.5901335],[-6.2271403,43.5906333]]],[[[-6.2326562,43.5912275],[-6.2328708,43.5912469],[-6.2327015,43.5913835],[-6.2326562,43.5912275]]],[[[-6.2341012,43.5915931],[-6.2339928,43.5911158],[-6.2342409,43.5912755],[-6.2341012,43.5915931]]],[[[-6.2321185,43.5924516],[-6.2315177,43.5917445],[-6.2323011,43.5915018],[-6.2321185,43.5924516]]],[[[-6.2371488,43.593214],[-6.2367784,43.5937706],[-6.2364728,43.5936127],[-6.2371488,43.593214]]],[[[-6.0960603,43.5597545],[-6.0961998,43.5593414],[-6.0964184,43.5593453],[-6.0960603,43.5597545]]],[[[-6.0954809,43.5600499],[-6.0959382,43.5605698],[-6.095434,43.5605164],[-6.0954809,43.5600499]]],[[[-6.0895562,43.5630268],[-6.0897691,43.5628511],[-6.0897547,43.5629791],[-6.0895562,43.5630268]]],[[[-6.089647,43.5632792],[-6.0898661,43.5634727],[-6.0896351,43.5634469],[-6.089647,43.5632792]]],[[[-6.0606536,43.5675403],[-6.0606292,43.5676841],[-6.0604294,43.5676415],[-6.0606536,43.5675403]]],[[[-6.050899,43.5747752],[-6.0510987,43.5747934],[-6.0510386,43.574917],[-6.050899,43.5747752]]],[[[-5.9665318,43.5807347],[-5.9667321,43.5812483],[-5.9664508,43.5812462],[-5.9665318,43.5807347]]],[[[-6.0209232,43.5874808],[-6.020494,43.5878927],[-6.0204565,43.5878227],[-6.0209232,43.5874808]]],[[[-6.0203158,43.588088],[-6.0199746,43.5882006],[-6.0202427,43.58796],[-6.0203158,43.588088]]],[[[-6.0346909,43.5888349],[-6.0321997,43.590602],[-6.0305078,43.591782],[-6.0346909,43.5888349]]],[[[-6.0325299,43.5917838],[-6.0326607,43.5925304],[-6.0322684,43.5926251],[-6.0325299,43.5917838]]],[[[-5.9008491,43.6282333],[-5.9005952,43.6279733],[-5.9008429,43.6280652],[-5.9008491,43.6282333]]],[[[-5.8901465,43.6289155],[-5.8903689,43.6287667],[-5.8901534,43.629004],[-5.8901465,43.6289155]]],[[[-5.8778305,43.6290576],[-5.8777898,43.6287371],[-5.8779908,43.628785],[-5.8778305,43.6290576]]],[[[-5.8894401,43.6290569],[-5.890144,43.6287317],[-5.8899548,43.6290962],[-5.8894401,43.6290569]]],[[[-5.8769647,43.6290275],[-5.8772242,43.6290038],[-5.8771858,43.6296461],[-5.8769647,43.6290275]]],[[[-5.8803771,43.6305343],[-5.8801898,43.6309786],[-5.8798699,43.6308827],[-5.8803771,43.6305343]]],[[[-5.880795,43.6311309],[-5.8807604,43.6313457],[-5.8805472,43.6312852],[-5.880795,43.6311309]]],[[[-5.8671264,43.6623227],[-5.8672109,43.6624756],[-5.8670929,43.6624896],[-5.8671264,43.6623227]]],[[[-5.8670654,43.6629599],[-5.866909,43.6630336],[-5.8669665,43.6629351],[-5.8670654,43.6629599]]],[[[-5.765208,43.6050801],[-5.767328,43.6065745],[-5.765423,43.6055609],[-5.765208,43.6050801]]],[[[-5.767302,43.6068513],[-5.7676419,43.6070159],[-5.7676947,43.6072404],[-5.767302,43.6068513]]],[[[-5.7816724,43.6109944],[-5.7809769,43.611985],[-5.7806712,43.6112859],[-5.7816724,43.6109944]]],[[[-5.781589,43.6121638],[-5.7819902,43.6128688],[-5.7807673,43.6122597],[-5.781589,43.6121638]]],[[[-5.7891813,43.61344],[-5.7891623,43.6136095],[-5.7890468,43.6135341],[-5.7891813,43.61344]]],[[[-5.8607585,43.6432435],[-5.860787,43.6435127],[-5.8605976,43.6432586],[-5.8607585,43.6432435]]],[[[-5.8604422,43.6435517],[-5.8598442,43.6435645],[-5.8604298,43.6433411],[-5.8604422,43.6435517]]],[[[-5.8621796,43.6491768],[-5.862241,43.6493034],[-5.8620241,43.6493453],[-5.8621796,43.6491768]]],[[[-5.8359611,43.6521644],[-5.8342666,43.6542662],[-5.8340488,43.6544325],[-5.8354412,43.6519843],[-5.8359611,43.6521644]]],[[[-5.8557645,43.6582856],[-5.8555927,43.6567655],[-5.8563683,43.6578688],[-5.8557645,43.6582856]]],[[[-5.8420645,43.6596804],[-5.8401972,43.6603186],[-5.8418272,43.6592817],[-5.8420645,43.6596804]]],[[[-5.8391024,43.6624806],[-5.8394566,43.6620848],[-5.8395522,43.6621417],[-5.8391024,43.6624806]]],[[[-5.8640959,43.6622386],[-5.8651659,43.6631762],[-5.8637241,43.6638472],[-5.8633441,43.6645113],[-5.8640959,43.6622386]]],[[[-5.865634,43.6629284],[-5.8657896,43.6637123],[-5.8651727,43.6635493],[-5.865634,43.6629284]]],[[[-5.8668919,43.6636808],[-5.8668626,43.6635567],[-5.8669908,43.6635896],[-5.8668919,43.6636808]]],[[[-5.864495,43.6637997],[-5.8642901,43.663831],[-5.8646548,43.6636519],[-5.864495,43.6637997]]],[[[-5.8647094,43.663742],[-5.8647496,43.6639689],[-5.8646655,43.6640934],[-5.8647094,43.663742]]],[[[-5.8651288,43.6638717],[-5.8652235,43.663988],[-5.8650914,43.6639338],[-5.8651288,43.6638717]]],[[[-5.8654788,43.6644332],[-5.8656243,43.6643877],[-5.8655673,43.6644816],[-5.8654788,43.6644332]]],[[[-5.864997,43.6641585],[-5.8651587,43.6646083],[-5.8647919,43.6647082],[-5.864997,43.6641585]]],[[[-5.8381731,43.6645639],[-5.837847,43.6643695],[-5.8381757,43.6641996],[-5.8381731,43.6645639]]],[[[-5.8666691,43.6649889],[-5.8665683,43.6647588],[-5.8668902,43.6648205],[-5.8666691,43.6649889]]],[[[-5.8610898,43.6661411],[-5.8614676,43.6664017],[-5.8609889,43.6664318],[-5.8610898,43.6661411]]]]}}]}