{"type": "FeatureCollection", "features": [{"type": "Feature", "properties": {"slug": "ayacucho", "members": 1, "country": "Peru", "input_hash": "530fd207a3bfacf4"}, "geometry": {"type": "Polygon", "coordinates": [[[-74.10443, -13.00437], [-74.1277481, -13.0092969], [-74.1643516, -13.0431524], [-74.1835062, -13.0497423], [-74.1746171, -13.0662679], [-74.2082434, -13.0870414], [-74.2706786, -13.0674629], [-74.2815497, -13.0737946], [-74.3114461, -13.058869], [-74.3458764, -13.0258446], [-74.37991, -13.02449], [-74.41127, -13.07939], [-74.41087, -13.1197], [-74.38872, -13.12966], [-74.3965358, -13.1691435], [-74.4204257, -13.1595391], [-74.4584389, -13.1900381], [-74.4941719, -13.1865957], [-74.5170587, -13.1966919], [-74.5256114, -13.1895937], [-74.5422129, -13.200502], [-74.557796, -13.1855585], [-74.572327, -13.1847345], [-74.5859531, -13.2107597], [-74.5956347, -13.2128457], [-74.6006887, -13.2273855], [-74.6446542, -13.2741367], [-74.6634981, -13.2714844], [-74.6860565, -13.286371], [-74.6676286, -13.3266219], [-74.63283, -13.3447801], [-74.6008262, -13.3321582], [-74.5661094, -13.3414316], [-74.5764069, -13.3619192], [-74.5716804, -13.3871201], [-74.5327592, -13.4024574], [-74.5263954, -13.4242032], [-74.475752, -13.4531387], [-74.4173815, -13.4465138], [-74.4031114, -13.434207], [-74.3945957, -13.444793], [-74.3786412, -13.4191393], [-74.3671739, -13.4360625], [-74.3360176, -13.43875], [-74.3302816, -13.4247812], [-74.3120657, -13.4266761], [-74.2793632, -13.4083126], [-74.27412, -13.3917966], [-74.2619512, -13.3964454], [-74.2591055, -13.4152794], [-74.2472382, -13.4203437], [-74.1964302, -13.4030534], [-74.1936211, -13.4338047], [-74.172086, -13.4537424], [-74.1593945, -13.4984024], [-74.1498164, -13.5118496], [-74.110086, -13.5350879], [-74.0556301, -13.53574], [-74.0676777, -13.5158652], [-74.0658555, -13.4819707], [-74.0804687, -13.4505762], [-74.07058, -13.43408], [-74.07275, -13.42034], [-74.0588963, -13.4089433], [-74.0475182, -13.4167864], [-74.0448151, -13.4408971], [-73.9925133, -13.4413346], [-73.9944191, -13.4552485], [-73.9836322, -13.4626441], [-73.9923845, -13.4783834], [-73.9659721, -13.5002963], [-73.926082, -13.4993632], [-73.9055502, -13.4834096], [-73.8879602, -13.4839796], [-73.8650302, -13.4652296], [-73.8347991, -13.4701758], [-73.8385524, -13.4541676], [-73.8273867, -13.4337364], [-73.846961, -13.3974326], [-73.8287441, -13.3472676], [-73.8320984, -13.330157], [-73.8070455, -13.3148315], [-73.8298829, -13.3037396], [-73.8514624, -13.3094812], [-73.8681521, -13.303844], [-73.8658065, -13.2895661], [-73.8485401, -13.2747996], [-73.8465068, -13.2590324], [-73.8689591, -13.2608529], [-73.8953956, -13.2786404], [-73.9313589, -13.2827442], [-73.9450067, -13.2661646], [-73.9459402, -13.2290959], [-73.9628386, -13.2100899], [-73.960812, -13.1887125], [-73.9688025, -13.1728602], [-73.9939217, -13.1618816], [-73.9924345, -13.1499116], [-74.0179864, -13.117161], [-74.0214844, -13.0975351], [-74.0264149, -13.09237], [-74.0366279, -13.0982119], [-74.0499101, -13.0661316], [-74.0612834, -13.0571342], [-74.0520004, -13.0401441], [-74.0671187, -13.0305061], [-74.077381, -12.9849461], [-74.10443, -13.00437]]]}}]}