{"type": "FeatureCollection", "features": [{"type": "Feature", "properties": {"slug": "ayia-napa", "members": 1, "country": "Cyprus", "input_hash": "95fd616f27dffd96"}, "geometry": {"type": "MultiPolygon", "coordinates": [[[[34.028802, 34.9745989], [34.0285365, 34.9751317], [34.0291695, 34.9750886], [34.028802, 34.9745989]]], [[[33.9481078, 34.9804393], [33.9481168, 34.9803722], [33.9480342, 34.9803999], [33.9481078, 34.9804393]]], [[[34.0167779, 34.9823432], [34.0167677, 34.9824378], [34.0167806, 34.9824415], [34.0167779, 34.9823432]]], [[[33.9357325, 34.9928479], [33.9478167, 34.994084], [33.9628079, 35.0126961], [33.9754655, 35.0148263], [33.9808608, 35.0098208], [33.9691571, 35.0062985], [33.9882457, 35.0024181], [34.0074843, 35.0083063], [34.0397856, 34.9912873], [34.062178, 34.9893235], [34.0874769, 34.9604113], [34.0824798, 34.9562406], [34.0755438, 34.9647539], [34.0661667, 34.9589468], [34.0544683, 34.9683968], [34.0128374, 34.9839247], [33.9582364, 34.9870713], [33.9565561, 34.979985], [33.9489173, 34.982227], [33.9402056, 34.9767929], [33.9317034, 34.9827143], [33.9357325, 34.9928479]]]]}}]}