{"type": "FeatureCollection", "features": [{"type": "Feature", "properties": {"slug": "azogues", "members": 1, "country": "Ecuador", "input_hash": "62fc41239c44279c"}, "geometry": {"type": "Polygon", "coordinates": [[[-78.9126814, -2.8227193], [-78.922941, -2.8301219], [-78.8998318, -2.836655], [-78.8836597, -2.8347651], [-78.8747908, -2.8191107], [-78.8187756, -2.8251415], [-78.822642, -2.7983818], [-78.7995438, -2.7716118], [-78.7925638, -2.7443924], [-78.8007678, -2.7127278], [-78.7743715, -2.6753348], [-78.7513727, -2.6733186], [-78.7318919, -2.6907872], [-78.7056802, -2.686757], [-78.6876463, -2.6699468], [-78.6671974, -2.6773792], [-78.6583362, -2.6551073], [-78.6369237, -2.6484101], [-78.6170266, -2.6297864], [-78.6252717, -2.607787], [-78.6179089, -2.5906501], [-78.5715404, -2.5647485], [-78.5738751, -2.5423031], [-78.6003703, -2.5397558], [-78.6298257, -2.5059661], [-78.6530383, -2.4951614], [-78.6670772, -2.4673149], [-78.6639998, -2.4507413], [-78.6967671, -2.4491894], [-78.719295, -2.4371363], [-78.7162535, -2.4266194], [-78.7485162, -2.4371694], [-78.7427116, -2.5039935], [-78.7660117, -2.5541789], [-78.7662219, -2.588688], [-78.783158, -2.6167232], [-78.7803926, -2.6375308], [-78.8043193, -2.6524447], [-78.8371069, -2.6460664], [-78.8391821, -2.633214], [-78.8549214, -2.6300567], [-78.8777691, -2.6465872], [-78.8785533, -2.6867098], [-78.8642775, -2.7315712], [-78.8837566, -2.739131], [-78.8878758, -2.7345126], [-78.9053544, -2.7473972], [-78.8981849, -2.7535174], [-78.9034062, -2.7650049], [-78.8950705, -2.7939577], [-78.9085923, -2.7961888], [-78.9126814, -2.8227193]]]}}]}