{"type": "FeatureCollection", "features": [{"type": "Feature", "properties": {"slug": "bage", "members": 1, "country": "Brazil", "input_hash": "74041024648e154b"}, "geometry": {"type": "Polygon", "coordinates": [[[-53.6099091, -30.8956432], [-53.5972383, -30.8848374], [-53.5996309, -30.8573182], [-53.6607002, -30.870685], [-53.650395, -30.8575187], [-53.6575101, -30.8377909], [-53.6712605, -30.8529174], [-53.687365, -30.8503343], [-53.691218, -30.8576495], [-53.7008362, -30.8511304], [-53.6998414, -30.8587113], [-53.7200037, -30.8743081], [-53.7329401, -30.8748731], [-53.7347746, -30.8630549], [-53.7562886, -30.8748725], [-53.7625119, -30.8894723], [-53.7830589, -30.8894621], [-53.7816145, -30.8998774], [-53.7941029, -30.908365], [-53.8118162, -30.9018475], [-53.8421681, -30.9150846], [-53.8602998, -30.9063214], [-53.8663509, -30.9156185], [-53.8806202, -30.9106847], [-53.8872936, -30.9180484], [-53.8701918, -30.9250066], [-53.8886883, -30.9308784], [-53.8960268, -30.9455101], [-53.9133003, -30.9352589], [-53.9237931, -30.9391792], [-53.9360883, -30.9629181], [-53.926368, -30.9650525], [-53.9193942, -30.9546193], [-53.9139011, -30.9631389], [-53.9469888, -30.9857681], [-53.9417746, -30.9944872], [-53.9257457, -30.9879388], [-53.9287498, -31.0007409], [-53.9457657, -31.0006857], [-53.9254882, -31.0129161], [-53.9289109, -31.0291372], [-53.957977, -31.0195806], [-53.9599944, -31.0330909], [-53.9530642, -31.0385169], [-53.9749571, -31.0411097], [-53.9810468, -31.0554331], [-54.0160531, -31.0621539], [-54.0141334, -31.0756201], [-54.0278019, -31.0659343], [-54.0536584, -31.0891639], [-54.0772833, -31.0906707], [-54.0970673, -31.1064538], [-54.1003717, -31.1173295], [-54.0928401, -31.1268815], [-54.1030325, -31.1390773], [-54.1201557, -31.1395548], [-54.1186322, -31.1462397], [-54.1462564, -31.1609226], [-54.1695353, -31.1576519], [-54.1697516, -31.1422888], [-54.2612011, -31.1607727], [-54.3124502, -31.160293], [-54.3214467, -31.1879366], [-54.3644124, -31.1975271], [-54.377301, -31.2168799], [-54.4051699, -31.230316], [-54.4071514, -31.2659972], [-54.4253046, -31.2895728], [-54.4228659, -31.3019767], [-54.5060245, -31.3074956], [-54.5562743, -31.3428768], [-54.5540575, -31.3506608], [-54.5697213, -31.3711323], [-54.6364533, -31.3582198], [-54.6485823, -31.3757284], [-54.6502715, -31.3952855], [-54.7015547, -31.4354445], [-54.6705906, -31.454056], [-54.5865499, -31.4565453], [-54.5752544, -31.4822908], [-54.5157036, -31.5101944], [-54.4903825, -31.5504518], [-54.4936965, -31.5586934], [-54.4729713, -31.5706129], [-54.4690294, -31.5930244], [-54.4644073, -31.5880961], [-54.4526551, -31.5996738], [-54.4666472, -31.6128601], [-54.4536831, -31.6298598], [-54.4545898, -31.6528443], [-54.4161387, -31.6432397], [-54.3756974, -31.5922689], [-54.3542723, -31.5843838], [-54.3328214, -31.5875289], [-54.3262382, -31.5814205], [-54.3321401, -31.5740155], [-54.3178761, -31.5685584], [-54.3117553, -31.5512664], [-54.2931139, -31.546144], [-54.2944282, -31.5311729], [-54.2747569, -31.509575], [-54.2279791, -31.5166464], [-54.183, -31.485], [-54.1723493, -31.4915502], [-54.1427672, -31.4820055], [-54.11376, -31.4295145], [-54.0934989, -31.435643], [-54.0940404, -31.4470442], [-54.0710056, -31.4558947], [-54.0693534, -31.4715436], [-54.0413481, -31.4995577], [-54.0303794, -31.5013352], [-54.0417265, -31.5224639], [-54.0077698, -31.5386576], [-54.0093631, -31.5313329], [-53.9393984, -31.4805435], [-53.9219606, -31.455881], [-53.9593439, -31.421014], [-53.9661674, -31.4009474], [-53.9990289, -31.3788291], [-53.9864575, -31.3771411], [-53.9709087, -31.3620646], [-53.9754668, -31.3554259], [-53.9591938, -31.353516], [-53.95423, -31.3449864], [-54.0126303, -31.3136265], [-54.0095991, -31.3029796], [-53.9970625, -31.2987306], [-53.9965609, -31.2780253], [-53.981676, -31.2600061], [-53.9311105, -31.247911], [-53.9022248, -31.2273074], [-53.8629715, -31.2204085], [-53.823483, -31.2431132], [-53.7743643, -31.231287], [-53.7394976, -31.2336572], [-53.7334946, -31.2381919], [-53.7650485, -31.3118376], [-53.7394352, -31.3287426], [-53.7043059, -31.3274852], [-53.6863116, -31.3369488], [-53.674207, -31.3299193], [-53.650118, -31.3379404], [-53.6361551, -31.3286943], [-53.6172724, -31.3292625], [-53.6246968, -31.3171646], [-53.603239, -31.3075488], [-53.6055136, -31.2835022], [-53.5968018, -31.2784775], [-53.5890341, -31.2838323], [-53.5818243, -31.2777072], [-53.5868884, -31.2718386], [-53.5689497, -31.2723154], [-53.57337, -31.2660062], [-53.5577918, -31.2450214], [-53.5623837, -31.239114], [-53.5511888, -31.2294406], [-53.5513545, -31.2388205], [-53.536, -31.2397745], [-53.5356474, -31.2512586], [-53.5294186, -31.2481196], [-53.5201818, -31.2151275], [-53.5276776, -31.2067984], [-53.5138679, -31.2002114], [-53.514871, -31.1894002], [-53.5029369, -31.1772825], [-53.5038382, -31.1719217], [-53.5217982, -31.1759974], [-53.5155326, -31.1649081], [-53.5006839, -31.1644674], [-53.5024649, -31.1553599], [-53.488689, -31.1527891], [-53.4992015, -31.1313861], [-53.4866566, -31.1296177], [-53.4802776, -31.1137774], [-53.4967571, -31.1049223], [-53.4819084, -31.1017805], [-53.4863716, -31.0836261], [-53.4744197, -31.0883488], [-53.4893328, -31.0764773], [-53.4790545, -31.0674349], [-53.487423, -31.056774], [-53.4742051, -31.0559652], [-53.4906417, -31.0367725], [-53.4766298, -31.0334814], [-53.481608, -31.0262185], [-53.4724456, -31.0321024], [-53.4717375, -31.0250416], [-53.462575, -31.0286089], [-53.4630686, -31.0224489], [-53.4460526, -31.0151668], [-53.4629827, -31.0133646], [-53.4501081, -31.0054013], [-53.4591847, -30.9946231], [-53.4374267, -30.9908523], [-53.4364611, -30.9848554], [-53.4457951, -30.9877251], [-53.4419542, -30.9789686], [-53.4500652, -30.9820041], [-53.4480053, -30.9728055], [-53.4326845, -30.9758227], [-53.4289036, -30.9661548], [-53.4335176, -30.9589626], [-53.4518519, -30.9680705], [-53.4631386, -30.9569017], [-53.4559932, -30.9465229], [-53.4617439, -30.9441673], [-53.4765067, -30.9495594], [-53.4700051, -30.9559449], [-53.4796825, -30.9678314], [-53.4831129, -30.956617], [-53.4970417, -30.9603795], [-53.5018053, -30.9390878], [-53.5131994, -30.943468], [-53.5197225, -30.9332349], [-53.5272541, -30.9528533], [-53.5439697, -30.95151], [-53.5318246, -30.941646], [-53.5605135, -30.9368792], [-53.5424891, -30.9266455], [-53.5647192, -30.9302716], [-53.5623804, -30.9210496], [-53.5730877, -30.9076292], [-53.5875502, -30.9241053], [-53.6007467, -30.9193008], [-53.5877219, -30.8951276], [-53.6099091, -30.8956432]]]}}]}