{"type": "FeatureCollection", "features": [{"type": "Feature", "properties": {"slug": "baghdad", "members": 12, "country": "Iraq", "input_hash": "2046df092a00e037"}, "geometry": {"type": "Polygon", "coordinates": [[[44.5806572, 33.021276], [44.5852972, 33.008331], [44.5660242, 32.991609], [44.550807, 33.0100354], [44.5570991, 33.0215451], [44.5342589, 33.0193898], [44.5324742, 33.008061], [44.5385412, 32.991339], [44.5524612, 32.983652], [44.5595992, 32.951288], [44.5537702, 32.934511], [44.5844652, 32.934376], [44.5845595, 32.8362942], [44.4650241, 32.8361781], [44.4585459, 32.8936937], [44.3844159, 32.8933718], [44.3755463, 32.9216897], [44.341883, 32.9222742], [44.31634, 32.9492982], [44.28317, 32.9412882], [44.2205778, 32.9567413], [44.2043859, 32.9760272], [44.1700691, 32.989489], [44.1641091, 33.0005087], [44.173462, 33.0235756], [44.1449493, 33.0190708], [44.1362396, 33.0451801], [44.1132531, 33.0627327], [44.1140008, 33.086228], [44.0768021, 33.0905012], [44.0708845, 33.1132947], [44.0399447, 33.12931], [44.0173379, 33.1640764], [43.9847196, 33.16676], [43.9817213, 33.1505666], [43.9698235, 33.149933], [43.9456261, 33.1622478], [43.9223981, 33.205575], [43.8856465, 33.2143751], [43.8759671, 33.2092845], [43.8784873, 33.2019456], [43.9039946, 33.1903036], [43.8960288, 33.1784877], [43.8739198, 33.1772087], [43.8529449, 33.1902644], [43.8456961, 33.2427292], [43.8485798, 33.2561017], [43.8665534, 33.2666257], [43.9325047, 33.2334667], [43.9735507, 33.2266093], [43.9745567, 33.2318027], [43.9744944, 33.2404104], [43.9553092, 33.2450939], [43.9313507, 33.2639948], [43.910569, 33.2613538], [43.871714, 33.2780684], [43.8720016, 33.311929], [43.8801165, 33.3130882], [43.869195, 33.3560293], [43.9291323, 33.3548092], [43.9788894, 33.3434852], [43.9845482, 33.3707567], [44.0298285, 33.3930898], [44.0525909, 33.4248504], [44.0771835, 33.4183305], [44.0965525, 33.401783], [44.0859774, 33.4296295], [44.0640792, 33.4417563], [44.0841142, 33.4743817], [44.1588407, 33.4745414], [44.1581043, 33.5120451], [44.1545033, 33.5234587], [44.1391224, 33.5242522], [44.1333187, 33.5591033], [44.1682294, 33.5895801], [44.1324554, 33.558517], [44.084844, 33.646591], [44.152658, 33.697296], [44.1711909, 33.7369171], [44.2016293, 33.7328913], [44.2518943, 33.7446783], [44.3022203, 33.7386103], [44.335756, 33.748945], [44.3738956, 33.7747513], [44.3832117, 33.7724458], [44.391316, 33.739315], [44.434681, 33.717334], [44.4339952, 33.6982254], [44.399644, 33.680574], [44.402737, 33.616059], [44.386329422503835, 33.612174010930566], [44.3850732, 33.5921009], [44.4174793, 33.5760683], [44.4171359, 33.5626856], [44.4832764, 33.5709229], [44.4888916, 33.557312], [44.451635, 33.536024], [44.3869019, 33.5192871], [44.380579, 33.4479916], [44.4545288, 33.4483032], [44.4594286, 33.4205203], [44.5125509, 33.4693827], [44.5085613, 33.4948776], [44.5300357, 33.4966432], [44.5304137, 33.4804229], [44.5376134, 33.4780027], [44.582017, 33.4857607], [44.576093, 33.4675799], [44.5815995, 33.4558703], [44.5638138, 33.4482771], [44.5639721, 33.4229786], [44.5753795, 33.424972], [44.5722064, 33.4332903], [44.57852189815056, 33.42324988684644], [44.969163, 33.425916], [44.962025, 33.3742], [44.912771, 33.221411], [44.884396, 33.180955], [44.8800532, 33.1295481], [44.8325222, 33.130385], [44.7570342, 33.100043], [44.7400802, 33.072128], [44.7540002, 33.071319], [44.7343702, 33.030526], [44.666285, 33.0002527], [44.6302692, 33.030986], [44.6291982, 33.067936], [44.6142672, 33.082377], [44.5942802, 33.070915], [44.5939232, 33.040168], [44.5806572, 33.021276]], [[44.4768617, 33.4058839], [44.4804454, 33.4035909], [44.4594286, 33.4205203], [44.4768617, 33.4058839]], [[44.56249460608561, 33.14354025155626], [44.5596247, 33.1459094], [44.5446341, 33.1538806], [44.56249460608561, 33.14354025155626]], [[44.56133103543868, 33.128095110219206], [44.5640929, 33.1310263], [44.565118663866, 33.13368501280274], [44.56133103543868, 33.128095110219206]], [[44.5505828, 33.1137866], [44.550890623600566, 33.113515802721786], [44.5503835, 33.1164764], [44.5505828, 33.1137866]], [[44.57002402401613, 33.091197465788454], [44.5681908, 33.0949889], [44.5613631, 33.104303], [44.57002402401613, 33.091197465788454]], [[44.5747389, 33.0756125], [44.5734256, 33.0841624], [44.572671036835764, 33.08572297119615], [44.5747389, 33.0756125]], [[44.3445122, 33.622435], [44.3389282, 33.6043091], [44.345741342835005, 33.62401641062845], [44.3445122, 33.622435]], [[44.3226806, 33.582483], [44.32246794487425, 33.58184595646793], [44.3389282, 33.6043091], [44.3226806, 33.582483]], [[44.3209274, 33.577231], [44.32146539195738, 33.575258813221396], [44.32246192024657, 33.58182790870123], [44.3209274, 33.577231]], [[44.34825359194222, 33.538943158457485], [44.3485759, 33.5392716], [44.3479489, 33.541639], [44.34825359194222, 33.538943158457485]], [[44.39788859823364, 33.3618190453529], [44.3985334, 33.3622612], [44.4019069, 33.3687558], [44.39788859823364, 33.3618190453529]], [[44.3775907, 33.353589], [44.3939887, 33.3591448], [44.39677570778259, 33.36105591207641], [44.3775907, 33.353589]], [[44.3712496, 33.3465488], [44.372121186574546, 33.34547345968828], [44.371443297143514, 33.347553056789565], [44.3712496, 33.3465488]], [[44.373613, 33.3436329], [44.3842522, 33.34088], [44.373050234372855, 33.34432722524845], [44.373613, 33.3436329]], [[44.4545674, 33.2795973], [44.4498878, 33.2865058], [44.44832874471449, 33.287499958126055], [44.4545674, 33.2795973]], [[44.4805337, 33.192686], [44.4897348, 33.201493], [44.51282543696121, 33.22896192782308], [44.5111352, 33.2275641], [44.4805337, 33.192686]], [[44.37217906944192, 33.359882113023595], [44.3726369, 33.3537415], [44.3725248, 33.3597278], [44.37217906944192, 33.359882113023595]], [[44.2347146, 33.3618568], [44.2088891, 33.361698], [44.2184515, 33.3610957], [44.2347146, 33.3618568]], [[44.360302008615385, 33.34292543891886], [44.3483661, 33.3353286], [44.3602556, 33.3427231], [44.360302008615385, 33.34292543891886]], [[44.3617122, 33.349427], [44.36150124792604, 33.34815405398485], [44.361811881221875, 33.349508397455885], [44.3617122, 33.349427]], [[44.3670845, 33.3538139], [44.36351112297161, 33.35089596025615], [44.36772533357011, 33.35380554391065], [44.3670845, 33.3538139]], [[44.1986176, 33.2191781], [44.18213589241619, 33.220997859660386], [44.1999703, 33.2079174], [44.1846152, 33.2203846], [44.1986176, 33.2191781]], [[44.0953634, 33.2546792], [44.1330007, 33.2442649], [44.1188904, 33.2491909], [44.0953634, 33.2546792]], [[44.02381917584832, 33.236332366988684], [44.0259103, 33.2464289], [44.023761, 33.2365067], [44.02381917584832, 33.236332366988684]], [[44.30596127337466, 33.46226000243969], [44.30268866128736, 33.46469106090147], [44.3032837, 33.463501], [44.30596127337466, 33.46226000243969]], [[44.34306488292783, 33.4349200283982], [44.3423269, 33.4363057], [44.3275146, 33.4522705], [44.34306488292783, 33.4349200283982]], [[44.34505145969359, 33.430690481081086], [44.345042, 33.4312077], [44.34430484250904, 33.43259182172255], [44.34505145969359, 33.430690481081086]], [[44.34353892218664, 33.41765822427712], [44.3451908, 33.4230719], [44.345125198455555, 33.42665873498162], [44.34353892218664, 33.41765822427712]], [[44.3297728, 33.3912918], [44.3424467, 33.4140787], [44.3429645311797, 33.41577578077885], [44.3297728, 33.3912918]], [[44.35054507579819, 33.368524209017714], [44.3596954, 33.3797774], [44.3513771, 33.3706142], [44.35054507579819, 33.368524209017714]], [[44.3495368, 33.3608273], [44.349420150401684, 33.36569846917829], [44.3487672, 33.3640583], [44.3495368, 33.3608273]], [[44.3529965, 33.3594011], [44.354216030129194, 33.359640661992756], [44.3495368, 33.3608273], [44.3529965, 33.3594011]], [[44.36994434263117, 33.360879558702074], [44.3675221, 33.3619607], [44.366900484093556, 33.36184089819317], [44.36994434263117, 33.360879558702074]], [[44.5432177, 33.3684766], [44.54416636443024, 33.365175589663046], [44.54907022890702, 33.362663453741966], [44.5432177, 33.3684766]], [[44.55300615442087, 33.36355136519484], [44.55082474899416, 33.36125209402254], [44.5509365, 33.3611622], [44.55300615442087, 33.36355136519484]], [[44.5589581, 33.3742244], [44.55857018539337, 33.36997436461369], [44.5591682, 33.3706647], [44.5589581, 33.3742244]], [[44.56955834457345, 33.40170367287226], [44.560503, 33.3956173], [44.5669403, 33.3988419], [44.56955834457345, 33.40170367287226]], [[44.5596886, 33.4113111], [44.56988925215814, 33.40206538648046], [44.5699963, 33.4021824], [44.5596886, 33.4113111]], [[44.57817467218077, 33.41750581707423], [44.5670325, 33.4184396], [44.5781261, 33.4167023], [44.57817467218077, 33.41750581707423]], [[44.5075701, 33.4086327], [44.4937084, 33.4162092], [44.5116345, 33.4050509], [44.5075701, 33.4086327]], [[44.4769758, 33.37592], [44.47650117997567, 33.37514548522796], [44.5116345, 33.4050509], [44.4769758, 33.37592]], [[44.5415837, 33.3485353], [44.54264797483068, 33.36374474979531], [44.5418116, 33.3629566], [44.5415837, 33.3485353]], [[44.5334136, 33.3411411], [44.53760001562106, 33.33256674204455], [44.533814630687885, 33.341504045510135], [44.5334136, 33.3411411]], [[44.530160172793735, 33.324715370816655], [44.53387577940887, 33.328636502962766], [44.5300555, 33.3248493], [44.530160172793735, 33.324715370816655]], [[44.535910447471494, 33.26710965742082], [44.5361012, 33.2672142], [44.5406073, 33.2787811], [44.535910447471494, 33.26710965742082]], [[44.52823278129082, 33.26303984630414], [44.5286085, 33.2631078], [44.53104258883404, 33.26444181075555], [44.52823278129082, 33.26303984630414]], [[44.52370994590776, 33.26245252645993], [44.5240581, 33.2622848], [44.52739391134669, 33.2628881255842], [44.52370994590776, 33.26245252645993]], [[44.520703583826396, 33.27333276072921], [44.5244068, 33.2779469], [44.5207429, 33.2735204], [44.520703583826396, 33.27333276072921]], [[44.52798768548717, 33.25691777685494], [44.5279366, 33.2570499], [44.52716507289917, 33.25717848280372], [44.52798768548717, 33.25691777685494]], [[44.5295336832218, 33.25181555983246], [44.5297283, 33.252416], [44.5296390742293, 33.252646765919984], [44.5295336832218, 33.25181555983246]], [[44.52463371002663, 33.23923201680976], [44.5258981, 33.2405989], [44.527301382478434, 33.24492836827214], [44.52463371002663, 33.23923201680976]], [[44.51884507093742, 33.233940171731945], [44.520818, 33.235107], [44.52264743276249, 33.237084729136896], [44.51884507093742, 33.233940171731945]]]}}]}