{"type": "FeatureCollection", "features": [{"type": "Feature", "properties": {"slug": "baikonur", "members": 1, "country": "Kazakhstan", "input_hash": "2603ac6f59ffb02d"}, "geometry": {"type": "Polygon", "coordinates": [[[63.3227169, 45.6080709], [63.3364692, 45.6359098], [63.3222309, 45.6439518], [63.3303779, 45.6540528], [63.2976275, 45.6424207], [63.2868904, 45.6480805], [63.2697465, 45.6328304], [63.2466894, 45.6261019], [63.2314402, 45.6354194], [63.197228, 45.6198709], [63.190814, 45.6265706], [63.1814992, 45.6080939], [63.2233103, 45.613573], [63.2368755, 45.6017659], [63.2767332, 45.5956329], [63.3227169, 45.6080709]]]}}]}