{"type": "FeatureCollection", "features": [{"type": "Feature", "properties": {"slug": "baka-topola", "members": 1, "country": "Serbia", "input_hash": "c87deecd5007de8d"}, "geometry": {"type": "Polygon", "coordinates": [[[19.6418376, 45.7556276], [19.7428589, 45.7646211], [19.766882, 45.7319046], [19.8784399, 45.7634359], [19.8580008, 45.7830813], [19.8561319, 45.7976094], [19.8648057, 45.7985883], [19.8588078, 45.8192815], [19.827869, 45.810797], [19.8197453, 45.8480657], [19.7841928, 45.887323], [19.774077, 45.8828167], [19.7672087, 45.8915062], [19.7267917, 45.8689743], [19.7298882, 45.8506519], [19.7176822, 45.8490799], [19.7161555, 45.8581041], [19.698695, 45.8558564], [19.6854051, 45.9028748], [19.6061261, 45.888425], [19.5519927, 45.8660807], [19.5320352, 45.8821497], [19.5227661, 45.9098503], [19.4358935, 45.9439403], [19.3746166, 45.9411695], [19.3335669, 45.9146775], [19.3583095, 45.8821099], [19.3621749, 45.8402207], [19.4218089, 45.7952188], [19.4554715, 45.7531427], [19.50351, 45.7264119], [19.5467255, 45.7545662], [19.5850401, 45.7275177], [19.6418376, 45.7556276]]]}}]}