{"type": "FeatureCollection", "features": [{"type": "Feature", "properties": {"slug": "baku", "members": 15, "country": "Azerbaijan", "input_hash": "b6a0f09875cf901d"}, "geometry": {"type": "MultiPolygon", "coordinates": [[[[49.4350118, 39.6387609], [49.4381138, 39.6426672], [49.4383311, 39.6395825], [49.4350118, 39.6387609]]], [[[49.4295403, 39.8288486], [49.4252842, 39.8401188], [49.4410426, 39.8215652], [49.4295403, 39.8288486]]], [[[49.4891827, 39.9501046], [49.4749491, 39.94674], [49.4403317, 39.9405899], [49.4891827, 39.9501046]]], [[[49.2722963, 39.9978641], [49.1880417, 40.1117643], [49.1212729, 40.170901], [49.0086074, 40.1812243], [48.9564779, 40.2123263], [48.9511667, 40.2631823], [48.8922755, 40.2784554], [48.8654869, 40.3128556], [48.8740268, 40.3233392], [48.9445306, 40.2936837], [48.9713633, 40.3206776], [48.9825259, 40.3490406], [49.0188362, 40.3521696], [49.0302027, 40.3595509], [49.0287343, 40.3695503], [49.1184961, 40.4079629], [49.1437127, 40.4259929], [49.1404061, 40.4445849], [49.1686321, 40.454331], [49.1920928, 40.4494983], [49.2194382, 40.4675844], [49.2422094, 40.4623385], [49.2425723, 40.4789029], [49.2943349, 40.4788396], [49.3073605, 40.5142512], [49.2299062, 40.5252825], [49.169209, 40.5774555], [49.1669686, 40.5971453], [49.0875108, 40.642864], [49.0371905, 40.6590301], [48.9929453, 40.7057591], [48.8865774, 40.7750632], [48.8220668, 40.7810452], [48.8222571, 40.8002061], [48.8076169, 40.8134909], [48.801706, 40.8510349], [48.7914305, 40.8624049], [48.8031215, 40.88258], [48.8036597, 40.8939728], [48.7913481, 40.8988547], [48.7981351, 40.9130607], [48.8265338, 40.8917351], [48.8629189, 40.9175434], [48.8835854, 40.922059], [48.8850745, 40.9133933], [48.9021282, 40.9139047], [48.9069267, 40.9216415], [48.9260333, 40.9133041], [48.9429505, 40.9243986], [48.9528095, 40.9187947], [48.9839649, 40.9279005], [48.9989929, 40.9215715], [49.0196818, 40.9328672], [49.015724, 40.9372475], [49.0395687, 40.9435698], [49.0305053, 40.956808], [49.0342675, 40.973899], [49.0920032, 40.9968888], [49.1094707, 40.9644111], [49.0877718, 40.9375997], [49.1543235, 40.9251472], [49.1807489, 40.9050287], [49.230797, 40.886437], [49.2518019, 40.8999406], [49.2895497, 40.9016494], [49.3259658, 40.8835653], [49.347933, 40.8828859], [49.35409345725389, 40.901867636641384], [49.4069731, 40.852615], [49.4944388, 40.8327453], [49.5212401, 40.8171947], [49.5530605, 40.7838397], [49.5475459, 40.7664853], [49.5309677, 40.7546242], [49.5508569, 40.7802251], [49.5268128, 40.7990504], [49.534706, 40.7712011], [49.5164752, 40.7548482], [49.5128654, 40.7310697], [49.5220127, 40.6767229], [49.5498472, 40.6358166], [49.6251181, 40.6124891], [49.6729338, 40.6169902], [49.7039323, 40.5778423], [49.7795474, 40.5779871], [49.8092737, 40.5666414], [49.9107813, 40.5779934], [49.9656666, 40.5958486], [50.0075193, 40.5856071], [50.0671854, 40.5967237], [50.069855, 40.5739413], [50.1159413, 40.5264675], [50.2094132, 40.5088439], [50.2152979, 40.5040065], [50.2095325, 40.5013725], [50.2263795, 40.5037457], [50.2648664, 40.4496003], [50.2769321, 40.4481103], [50.273577, 40.4537316], [50.2900213, 40.4455654], [50.2791965, 40.4417381], [50.2895005, 40.427366], [50.3379143, 40.4030572], [50.346407, 40.4062683], [50.3382926, 40.4001992], [50.3666335, 40.3590414], [50.3682482, 40.3162685], [50.3594506, 40.2966711], [50.3698575, 40.2703988], [50.3647023, 40.2571142], [50.3722071, 40.2488576], [50.3666934, 40.2449706], [50.3700762, 40.2248001], [50.3448701, 40.2983404], [50.3088336, 40.3220529], [50.2411115, 40.3452113], [50.1307544, 40.3672531], [50.0898886, 40.3615512], [50.0799222, 40.3449083], [50.0784058, 40.3526324], [50.0679044, 40.3478099], [50.043025, 40.355485], [50.0015866, 40.3353496], [50.0068098, 40.3139491], [50.0241681, 40.3115058], [50.0236085, 40.3044055], [49.9870634, 40.3125543], [50.0059596, 40.3136894], [49.9992513, 40.3356106], [49.9819484, 40.3301577], [49.9862967, 40.3386539], [49.9747112, 40.3404491], [49.9596512, 40.3340282], [49.9504766, 40.3501399], [49.9430498, 40.3492468], [49.945655, 40.355639], [49.9224321, 40.3680247], [49.8727981, 40.3746113], [49.837763, 40.3631971], [49.8394472, 40.3479816], [49.8481396, 40.3521963], [49.8477101, 40.3455767], [49.8612296, 40.3457159], [49.8376562, 40.33889], [49.8450925, 40.336773], [49.8378441, 40.3124665], [49.822099, 40.313822], [49.8345521, 40.3075046], [49.8309392, 40.3027161], [49.7852893, 40.3031686], [49.7224192, 40.2734725], [49.6929296, 40.2769145], [49.6777188, 40.2703905], [49.6777667, 40.2549093], [49.673956, 40.2613801], [49.6524039, 40.2514363], [49.6669398, 40.2425246], [49.6435439, 40.2487799], [49.6404672, 40.2440307], [49.6557583, 40.2405606], [49.6466313, 40.2384062], [49.6526938, 40.2308829], [49.636655, 40.2339798], [49.6434036, 40.223312], [49.6298042, 40.2332021], [49.6237635, 40.2291199], [49.6291709, 40.2250406], [49.5910639, 40.2281288], [49.5709658, 40.2104165], [49.538275, 40.2074773], [49.4802332, 40.1793897], [49.4725405, 40.1697185], [49.4732943, 40.1424799], [49.4983032, 40.1062873], [49.4916133, 40.1141474], [49.4768216, 40.1107369], [49.4826908, 40.101718], [49.4747775, 40.1111909], [49.4617097, 40.111035], [49.4171047, 40.0780509], [49.4381225, 40.0352133], [49.4831682, 39.9970426], [49.4523405, 39.9712971], [49.4446958, 39.9770839], [49.4233437, 39.9603129], [49.4118085, 39.9408962], [49.4395919, 39.8631329], [49.4119911, 39.8506046], [49.4080429, 39.8372928], [49.4058113, 39.8441467], [49.3843351, 39.7814597], [49.3920784, 39.750769], [49.4217409, 39.6995885], [49.3626353, 39.6806063], [49.3214178, 39.6352634], [49.3212076, 39.6671485], [49.3353686, 39.7162338], [49.344687, 39.8662278], [49.3158624, 39.9350654], [49.2907509, 39.949391], [49.2885701, 39.9776392], [49.3297249, 40.0520537], [49.2951484, 39.9913656], [49.2722963, 39.9978641]], [[49.7653802, 40.5550527], [49.780009, 40.5564032], [49.76512084250161, 40.55513942461482], [49.7653802, 40.5550527]], [[49.7929885, 40.5575146], [49.792533658852435, 40.557475653164495], [49.8072584, 40.5561916], [49.7929885, 40.5575146]], [[49.8076797, 40.5588463], [49.82780700205207, 40.55532120619061], [49.82776, 40.5553537], [49.8076797, 40.5588463]], [[49.5173272, 40.6650187], [49.4823609, 40.7077159], [49.5020722, 40.6835784], [49.5173272, 40.6650187]], [[49.3011489, 40.2866815], [49.29671050259097, 40.29401005404728], [49.3012090121217, 40.284950025718075], [49.3011489, 40.2866815]], [[49.2939477117942, 40.295812945151546], [49.2927718, 40.2965803], [49.2846007, 40.2959519], [49.2939477117942, 40.295812945151546]], [[49.4912314, 40.6667817], [49.49911786610873, 40.6579655937455], [49.4990527, 40.6591316], [49.4912314, 40.6667817]], [[49.49915707695592, 40.65726400063288], [49.4612805, 40.6419512], [49.4991964, 40.6565604], [49.49915707695592, 40.65726400063288]]], [[[49.5785857, 39.7573683], [49.5873955, 39.753398], [49.5793669, 39.7533814], [49.5785857, 39.7573683]]], [[[49.5362531, 39.8344344], [49.5275441, 39.8347137], [49.5342519, 39.8396584], [49.5362531, 39.8344344]]], [[[49.6267167, 39.9832613], [49.6391058, 40.0068591], [49.6475843, 40.0041142], [49.6555048, 39.9885245], [49.6267167, 39.9832613]]], [[[49.591915, 40.0394806], [49.5810413, 40.0360656], [49.5855474, 40.0454725], [49.591915, 40.0394806]]], [[[49.9876637, 40.2847379], [49.9790971, 40.2909865], [49.9897168, 40.3004339], [49.9827394, 40.2892174], [49.9876637, 40.2847379]]], [[[49.9034419, 40.2950249], [49.9079051, 40.2988177], [49.9390946, 40.2958242], [49.9227546, 40.2903863], [49.9034419, 40.2950249]]], [[[50.3704402, 40.2108585], [50.3786123, 40.2552937], [50.3813159, 40.2504462], [50.3704402, 40.2108585]]], [[[50.0436384, 40.3046031], [50.0756698, 40.3077011], [50.0673151, 40.30604], [50.0436384, 40.3046031]]], [[[50.5683303, 40.3085926], [50.5630088, 40.3130105], [50.5677596, 40.3225625], [50.5464102, 40.333314], [50.5534252, 40.3371869], [50.5365138, 40.350759], [50.5693904, 40.3274048], [50.5683303, 40.3085926]]], [[[50.3583669, 40.3889362], [50.3542771, 40.409283], [50.3475872, 40.4069351], [50.3542561, 40.411889], [50.3491456, 40.426792], [50.3016563, 40.4787072], [50.3208268, 40.4879623], [50.3222966, 40.4829479], [50.3237879, 40.4912995], [50.3428306, 40.4853423], [50.351377, 40.4696035], [50.3505318, 40.4424054], [50.3693758, 40.4261016], [50.357371, 40.4099058], [50.3583669, 40.3889362]]], [[[50.8470159, 40.2357015], [50.8657159, 40.2255668], [50.8639387, 40.2223713], [50.8470159, 40.2357015]]], [[[50.8613143, 40.2330017], [50.8800496, 40.223629], [50.8550909, 40.23411], [50.8362657, 40.2510217], [50.8586815, 40.243054], [50.8613143, 40.2330017]]], [[[50.5553328, 40.2927972], [50.5687038, 40.3078373], [50.5723087, 40.3167383], [50.5806987, 40.3242803], [50.5724072, 40.35024], [50.6209201, 40.3233556], [50.6120288, 40.3222593], [50.618159, 40.3109161], [50.5894995, 40.3120712], [50.5569339, 40.2901204], [50.5549829, 40.2906855], [50.5464168, 40.2867054], [50.5415279, 40.2855253], [50.5291218, 40.2866524], [50.5553328, 40.2927972]]]]}}]}