{"type": "FeatureCollection", "features": [{"type": "Feature", "properties": {"slug": "balakovo", "members": 1, "country": "Russia", "input_hash": "84fb9b130a57f531"}, "geometry": {"type": "Polygon", "coordinates": [[[48.2210039, 52.2048773], [48.2348723, 52.1944431], [48.2222124, 52.193834], [48.209484, 52.214184], [48.1689927, 52.2162888], [48.1684311, 52.2305199], [48.1008287, 52.2265247], [48.1014802, 52.2340837], [48.1306568, 52.2375415], [48.1354094, 52.2453333], [48.0503381, 52.2789201], [48.0157839, 52.2630488], [47.864378, 52.1528314], [47.8460322, 52.1506035], [47.9005664, 52.1153172], [47.8705889, 52.1185804], [47.8459131, 52.1066054], [47.8355315, 52.1099108], [47.8299047, 52.0961322], [47.7842376, 52.1115146], [47.7687397, 52.0702978], [47.6951734, 52.0118226], [47.6478574, 52.0036808], [47.589972, 52.0379294], [47.578273, 52.0096638], [47.5393561, 52.0004997], [47.5104848, 52.0096708], [47.4923027, 51.9894768], [47.4990646, 51.983374], [47.4750396, 51.980899], [47.460474, 52.0086998], [47.4315112, 51.9999771], [47.4022699, 52.0156748], [47.2774614, 51.9874422], [47.2530566, 51.9770027], [47.2517444, 51.9553241], [47.3108562, 51.9720405], [47.3105993, 51.9631671], [47.3533445, 51.9436723], [47.3953693, 51.9027763], [47.4188525, 51.8951964], [47.4570845, 51.8403264], [47.4391779, 51.8268986], [47.4448138, 51.8155471], [47.430996, 51.8084532], [47.4040408, 51.8371351], [47.3447954, 51.8166797], [47.3969307, 51.7634362], [47.4517712, 51.7405354], [47.4490311, 51.7270583], [47.4236684, 51.7004596], [47.4279833, 51.7047948], [47.5470116, 51.6710087], [47.5262745, 51.6429572], [47.5553873, 51.6416514], [47.5803951, 51.6551837], [47.6205029, 51.7002949], [47.6227204, 51.6936033], [47.7008681, 51.6909514], [47.7004276, 51.6109054], [47.7714411, 51.608625], [47.7752488, 51.6362995], [47.7678805, 51.6452851], [47.87993, 51.6426477], [47.8780208, 51.6228027], [48.0219889, 51.6091084], [48.0269003, 51.6224004], [48.0195992, 51.6294838], [48.0290942, 51.6293717], [48.0311477, 51.6419676], [48.0170333, 51.6478582], [48.030973, 51.6567189], [47.994357, 51.6587911], [48.0017943, 51.6695347], [47.9859452, 51.6707072], [47.9976384, 51.6762023], [47.9854021, 51.6837357], [48.0125572, 51.6791237], [48.0410268, 51.6953529], [48.062443, 51.6793709], [48.1960484, 51.6863531], [48.1730261, 51.705211], [48.1775051, 51.714119], [48.1594335, 51.7263488], [48.1692717, 51.7698947], [48.1562028, 51.7708935], [48.1576121, 51.778561], [48.1118373, 51.7827263], [48.1014579, 51.7971242], [48.0839604, 51.8037613], [48.0839383, 51.8122476], [48.149622, 51.8103764], [48.1376173, 51.8252678], [48.1451367, 51.8419438], [48.1603048, 51.837364], [48.1638765, 51.8271238], [48.1860545, 51.8280365], [48.1550831, 51.857644], [48.178759, 51.8598531], [48.1813018, 51.8726781], [48.1963564, 51.8841945], [48.2246061, 51.8716767], [48.1985876, 51.862371], [48.2153903, 51.8617332], [48.2234397, 51.8384942], [48.2659151, 51.8639901], [48.2643897, 51.8521343], [48.2803783, 51.8522769], [48.2900118, 51.8418605], [48.3083056, 51.8422933], [48.3129026, 51.8337112], [48.3357993, 51.8280658], [48.3472009, 51.8325694], [48.3454439, 51.8394804], [48.3133396, 51.8599344], [48.3329456, 51.8730586], [48.2989674, 51.8835441], [48.2986665, 51.8939737], [48.3323423, 51.9100115], [48.3347861, 51.9010555], [48.3104885, 51.8967268], [48.3079971, 51.888078], [48.3415982, 51.8932418], [48.3442104, 51.9051353], [48.3760482, 51.9124391], [48.3828342, 51.9054795], [48.3651101, 51.8989193], [48.3766076, 51.8785858], [48.3845583, 51.878246], [48.3864671, 51.8876818], [48.4077524, 51.8873526], [48.3883727, 51.9038521], [48.3973074, 51.9179187], [48.3839644, 52.0006299], [48.387756, 52.0163516], [48.3370365, 52.0277404], [48.3229469, 52.0400005], [48.3090632, 52.0366812], [48.3215578, 52.0897305], [48.3178469, 52.1031325], [48.330894, 52.1049045], [48.3273583, 52.1174994], [48.4174921, 52.1181811], [48.4163868, 52.1911994], [48.4014196, 52.1830783], [48.3777767, 52.193], [48.3450883, 52.1851723], [48.3388055, 52.1970915], [48.3502877, 52.2016054], [48.3296134, 52.213401], [48.2907942, 52.1928786], [48.2918655, 52.2050177], [48.2789418, 52.2024817], [48.2612487, 52.2188598], [48.2322134, 52.1999151], [48.2210039, 52.2048773]]]}}]}