{"type":"FeatureCollection","features":[{"type":"Feature","properties":{"slug":"balashov","member_count":1,"matched_count":1,"unmatched":["[recovered via metro-name fallback: Balashov]"],"source":"Overture Maps division_area (CC-BY 4.0)"},"geometry":{"type":"Polygon","coordinates":[[[43.1342595,51.5594038],[43.1199868,51.548657],[43.1316598,51.5348778],[43.1228622,51.5218221],[43.1466748,51.5207039],[43.1608798,51.504786],[43.167875,51.5064154],[43.1550862,51.5168051],[43.1666948,51.5194889],[43.166808,51.5294442],[43.2064,51.5201729],[43.2444391,51.5221689],[43.2341662,51.5364658],[43.2507476,51.5483431],[43.2374653,51.5588033],[43.2219394,51.5524419],[43.2130975,51.5668885],[43.1342595,51.5594038]]]}}]}