{"type": "FeatureCollection", "features": [{"type": "Feature", "properties": {"slug": "balikpapan", "members": 1, "country": "Indonesia", "input_hash": "cc15494e42b8eff5"}, "geometry": {"type": "MultiPolygon", "coordinates": [[[[117.0167488, -1.1665703], [117.0015085, -1.1991281], [116.9723971, -1.2145393], [116.9718137, -1.2246329], [116.935679, -1.2517785], [116.883954, -1.2767177], [116.8110368, -1.2823322], [116.8056482, -1.2719801], [116.8218715, -1.2386898], [116.8132147, -1.2386918], [116.808368, -1.2225091], [116.8191679, -1.2195526], [116.810613, -1.2108923], [116.819137, -1.2006298], [116.8062705, -1.1988492], [116.7991854, -1.2149952], [116.7834985, -1.2125376], [116.7888549, -1.1735748], [116.7792767, -1.1445137], [116.7457786, -1.1141462], [116.7507648, -1.107088], [116.7356506, -1.1094854], [116.7287975, -1.1017728], [116.741781, -1.071669], [116.765027, -1.071392], [116.774962, -1.04843], [116.783816, -1.042631], [116.800587, -1.050594], [116.824407, -1.021725], [116.845402, -1.013378], [116.8516719, -1.0158181], [116.8393439, -1.0289681], [116.83916, -1.047797], [116.860436, -1.05872], [116.901839, -1.063252], [116.9306651, -1.1098875], [116.9466654, -1.1168872], [116.9406389, -1.1205833], [116.9453031, -1.1260749], [117.000859, -1.125173], [117.0184761, -1.1347438], [117.0167488, -1.1665703]]], [[[116.7321345, -1.0805314], [116.7311646, -1.0769873], [116.7331387, -1.0702593], [116.7321345, -1.0805314]]]]}}]}