{"type": "FeatureCollection", "features": [{"type": "Feature", "properties": {"slug": "balkanabat", "members": 1, "country": "Turkmenistan", "input_hash": "582a0152997ca5df"}, "geometry": {"type": "MultiPolygon", "coordinates": [[[[53.0714666, 38.7938135], [53.0624666, 38.8028135], [53.0557166, 38.8175634], [53.0575, 38.865], [53.0345, 38.8995], [53.03675, 39.054], [53.06175, 39.1015], [53.0939877, 39.1077264], [53.1021857, 39.1058074], [53.093, 39.0955], [53.0862662, 39.0989328], [53.09225, 39.106], [53.07475, 39.10225], [53.05925, 39.08575], [53.0555, 39.0015], [53.072113, 38.7978657], [53.0577166, 38.8180634], [53.0714666, 38.7938135]]], [[[53.6529349, 39.5674556], [53.6426352, 39.5532949], [53.6409186, 39.5641473], [53.6529349, 39.5674556]]], [[[53.5128592, 39.5572655], [53.48608, 39.5964297], [53.5061644, 39.6179871], [53.4987829, 39.6055561], [53.5049627, 39.6010592], [53.508396, 39.6089946], [53.530712, 39.5993397], [53.518524, 39.5891543], [53.529682, 39.5777766], [53.5581778, 39.5747334], [53.5561178, 39.5601771], [53.5365484, 39.5419113], [53.5411833, 39.5624269], [53.5181807, 39.5567361], [53.5260771, 39.5452207], [53.5178374, 39.5325118], [53.5065077, 39.5341006], [53.4994696, 39.5466768], [53.5128592, 39.5572655]]], [[[53.5877035, 39.6011914], [53.5767172, 39.5921968], [53.581867, 39.5779089], [53.5765455, 39.5633533], [53.562126, 39.6017205], [53.5564612, 39.5900803], [53.5556029, 39.6070109], [53.5665892, 39.6145489], [53.5676192, 39.6029109], [53.5877035, 39.6011914]]], [[[54.1977528, 39.7120021], [54.2374409, 39.7250301], [54.3639439, 39.8816661], [54.4269322, 39.90906], [54.5623733, 40.0289214], [54.5947601, 40.0471635], [55.3034221, 40.2967624], [55.1762061, 40.0118035], [55.1302924, 39.9528411], [55.1275467, 39.8429187], [55.0975202, 39.6706874], [55.0817045, 39.6430574], [54.9995588, 39.6334866], [54.9137739, 39.6100209], [54.6769634, 39.4938239], [54.5449274, 39.4707595], [54.5344883, 39.4233485], [54.5590473, 39.4200599], [54.5953937, 39.3898889], [54.6259495, 39.3790978], [54.6829144, 39.3902082], [54.7383038, 39.1175333], [54.7728216, 39.0124262], [54.6172304, 38.9632795], [54.4946467, 38.9390165], [54.3802117, 38.9265796], [54.2897776, 38.9281984], [54.02390883936158, 38.899052841156404], [54.0262405, 38.9087307], [53.9990257, 38.9191773], [54.006283, 38.9533298], [54.0178946, 38.9536119], [54.0200718, 38.9620769], [54.0095487, 38.9696946], [53.9921313, 38.9581267], [53.9830597, 38.9609483], [53.9906798, 38.9804143], [53.984874, 38.983517], [53.9678194, 38.9694124], [53.9645536, 38.9815426], [53.9728995, 38.9984648], [53.9591107, 38.9905683], [53.9406046, 38.9967728], [53.9239129, 38.988594], [53.9181071, 38.9615126], [53.9028668, 38.9671554], [53.894158, 38.9837991], [53.8898037, 39.0596333], [53.8723862, 39.0311698], [53.8226739, 39.0441348], [53.8165052, 39.0731565], [53.7885647, 39.0562521], [53.7889275, 39.0734382], [53.760987, 39.0830155], [53.7606241, 39.0979423], [53.7497382, 39.095971], [53.7598984, 39.0751284], [53.755544, 39.0480802], [53.7457467, 39.0517436], [53.731595, 39.0962527], [53.7228863, 39.1027295], [53.7159919, 39.0776637], [53.6974858, 39.1345418], [53.7214348, 39.1438294], [53.7355865, 39.1865928], [53.6978487, 39.1685903], [53.7101861, 39.1837803], [53.7214348, 39.2242706], [53.7149033, 39.2310168], [53.6938572, 39.2279249], [53.6626509, 39.1879991], [53.659748, 39.1660584], [53.6695453, 39.1556482], [53.6615623, 39.1162444], [53.6528536, 39.1153998], [53.654305, 39.1595874], [53.6307189, 39.169153], [53.6361618, 39.1756231], [53.6129385, 39.1950299], [53.6227359, 39.2231462], [53.6455963, 39.2425399], [53.6416048, 39.2473172], [53.5933439, 39.2234273], [53.5973354, 39.2360759], [53.5911667, 39.2428209], [53.5741121, 39.2408537], [53.566492, 39.2501273], [53.5966097, 39.3088314], [53.5516146, 39.2829964], [53.5527031, 39.292826], [53.5407286, 39.2973191], [53.5588718, 39.3354988], [53.5262141, 39.3088314], [53.5258512, 39.3209032], [53.5516146, 39.3655226], [53.5066194, 39.343918], [53.4855733, 39.3203417], [53.4746874, 39.3242717], [53.497185, 39.350372], [53.4881134, 39.3582283], [53.4547299, 39.3380247], [53.4693238, 39.3674193], [53.4031966, 39.3389327], [53.4017435, 39.3452836], [53.4186375, 39.3541192], [53.4040381, 39.3627071], [53.4051203, 39.3861367], [53.3494994, 39.3677668], [53.3037785, 39.3736576], [53.2830953, 39.3795479], [53.281944, 39.389167], [53.2482504, 39.3957399], [53.2157898, 39.3920748], [53.1854723, 39.3738886], [53.1681965, 39.3766863], [53.2198207, 39.3577938], [53.2149648, 39.3415604], [53.1872992, 39.3147272], [53.172059, 39.2689517], [53.1872992, 39.2312978], [53.1883878, 39.2194917], [53.1789534, 39.2163993], [53.1571815, 39.3422342], [53.1350829, 39.3906913], [53.1023855, 39.4172466], [53.0988956, 39.4074746], [53.102374, 39.4463015], [53.2366487, 39.6074845], [53.273298, 39.688789], [53.2980844, 39.7023115], [53.332298, 39.6886909], [53.2986984, 39.6795737], [53.2767871, 39.6431637], [53.2615173, 39.6329294], [53.2504784, 39.608359], [53.2557065, 39.5998396], [53.2352037, 39.5825846], [53.2356397, 39.5699589], [53.2277633, 39.5705605], [53.232563, 39.5458258], [53.442478, 39.5662647], [53.4829901, 39.5454855], [53.4904574, 39.5374103], [53.4877109, 39.5243027], [53.522129, 39.5190061], [53.5108852, 39.5045706], [53.5198115, 39.4935764], [53.5427283, 39.5003321], [53.5632419, 39.5174832], [53.5699367, 39.5113914], [53.5680484, 39.4912581], [53.593111, 39.5039083], [53.5828113, 39.5089413], [53.5955142, 39.5190061], [53.5741424, 39.5271495], [53.5729407, 39.5402565], [53.5940551, 39.5634856], [53.6022948, 39.5632871], [53.5954284, 39.5431689], [53.6246966, 39.5405213], [53.6236426, 39.5187991], [53.6504459, 39.5288708], [53.6367988, 39.5147684], [53.6413478, 39.5086432], [53.6501884, 39.5261564], [53.6500167, 39.5195688], [53.6619043, 39.5265537], [53.6528492, 39.5275467], [53.6596298, 39.5496549], [53.6882114, 39.5610373], [53.6865806, 39.5477357], [53.6924171, 39.5476033], [53.7175248, 39.5759677], [53.7272263, 39.5719785], [53.7185156, 39.5516679], [53.7364875, 39.5468542], [53.7412832, 39.5668979], [53.7303227, 39.5674036], [53.7485573, 39.5855025], [53.7416333, 39.5893139], [53.7291185, 39.5728072], [53.7111872, 39.5805508], [53.706665, 39.5683819], [53.6938762, 39.5880959], [53.6695003, 39.5699698], [53.6581706, 39.5732778], [53.6366701, 39.6096889], [53.6577844, 39.6105154], [53.6592435, 39.6024479], [53.6710023, 39.6105815], [53.6552953, 39.6192762], [53.6530208, 39.6480965], [53.6305332, 39.6401325], [53.6053848, 39.6568195], [53.6056464, 39.6281317], [53.587017, 39.6446268], [53.5717391, 39.6263833], [53.5610961, 39.6394715], [53.576862235282206, 39.65862228130794], [54.1977528, 39.7120021]]], [[[53.6397169, 39.61402], [53.6038398, 39.5750641], [53.5871886, 39.579695], [53.6068439, 39.5992074], [53.5959433, 39.6083334], [53.6004065, 39.6190449], [53.6228941, 39.6199705], [53.6414335, 39.6394055], [53.6397169, 39.61402]]], [[[53.52124593960689, 39.65806226532692], [53.5224722, 39.6498479], [53.51626580122613, 39.65810771718336], [53.52124593960689, 39.65806226532692]]]]}}]}