{"type": "FeatureCollection", "features": [{"type": "Feature", "properties": {"slug": "bamako", "members": 4, "country": "Mali", "input_hash": "eeae72adbbce646c"}, "geometry": {"type": "Polygon", "coordinates": [[[-8.5148738, 13.3671582], [-8.4932338, 13.3936152], [-8.4878084, 13.388929], [-8.4781398, 13.3989461], [-8.4702614, 13.3924719], [-8.4474803, 13.403692], [-8.4545797, 13.4146923], [-8.4610437, 13.4113756], [-8.461194, 13.4296465], [-8.4493525, 13.436791], [-8.4643577, 13.4491056], [-8.4631619, 13.4725367], [-8.4742723, 13.478743], [-8.4684, 13.5048], [-8.4553, 13.518], [-8.4274, 13.4915], [-8.4067, 13.4938], [-8.3597, 13.4755], [-8.353, 13.4423], [-8.3331, 13.4394], [-8.3228, 13.4169], [-8.315, 13.418], [-8.3068, 13.4027], [-8.24, 13.3511], [-8.2302, 13.3252], [-8.238, 13.294], [-8.234, 13.244], [-8.206, 13.203], [-8.132, 13.184], [-8.112, 13.132], [-8.0471, 13.1129], [-8.0516144, 13.0632953], [-8.0121707, 13.0552822], [-8.0159862, 13.0477251], [-7.9969304, 13.0318045], [-8.002, 12.997], [-7.9785942, 12.9752835], [-7.9183646, 13.02881], [-7.8696351, 13.0222933], [-7.8595955, 13.0007358], [-7.823, 12.962], [-7.80809, 12.92879], [-7.865592, 12.8627597], [-7.83, 12.783], [-7.7489952, 12.7254446], [-7.7150309, 12.743613], [-7.6892066, 12.7778612], [-7.6584347, 12.790449], [-7.6500678, 12.8056916], [-7.6323483, 12.8073451], [-7.507474, 12.7653669], [-7.4883692, 12.7554029], [-7.483, 12.707], [-7.456, 12.642], [-7.45, 12.58], [-7.474, 12.508], [-7.47, 12.436], [-7.427, 12.399], [-7.424, 12.337], [-7.4621359, 12.1668068], [-7.4832882, 12.1664139], [-7.492455, 12.1440276], [-7.5023797, 12.1480715], [-7.5203668, 12.1210741], [-7.5184, 12.1092], [-7.5328, 12.0813], [-7.5179, 12.0326], [-7.5526, 11.9924], [-7.5892, 11.9814], [-7.6015, 11.971], [-7.5948, 11.9642], [-7.6285, 11.9417], [-7.69, 11.9529], [-7.7233, 11.9174], [-7.8421005, 11.8696794], [-7.86199, 11.84301], [-7.937, 11.787], [-7.963, 11.778], [-8.035, 11.707], [-8.071, 11.686], [-8.2298075, 11.6878412], [-8.2215071, 11.7117038], [-8.1853188, 11.7357089], [-8.1767357, 11.7540271], [-8.1769103, 11.7656548], [-8.196858, 11.7940412], [-8.1876394, 11.8277403], [-8.1989724, 11.8572357], [-8.1939332, 11.8839647], [-8.2030587, 11.9198899], [-8.239942, 11.9781943], [-8.3123052, 12.0066176], [-8.3391193, 12.063398], [-8.453, 12.096], [-8.459, 12.117], [-8.44, 12.181], [-8.458, 12.21], [-8.453, 12.254], [-8.46, 12.271], [-8.48, 12.288], [-8.481, 12.342], [-8.504, 12.356], [-8.5558067, 12.3411291], [-8.606, 12.359], [-8.72, 12.279], [-8.759, 12.267], [-8.803, 12.278], [-8.871, 12.364], [-8.964829, 12.358627], [-9.00592, 12.392127], [-9.003023, 12.40602], [-9.012551, 12.418954], [-9.0441433, 12.4295736], [-8.95069, 12.50195], [-8.8974083, 12.5182658], [-8.8705027, 12.6060984], [-8.833504, 12.6112554], [-8.8174977, 12.6051693], [-8.8116978, 12.5921489], [-8.7853554, 12.5944896], [-8.74619, 12.6440649], [-8.7371712, 12.6461806], [-8.7346829, 12.6667008], [-8.7110135, 12.6854876], [-8.6908403, 12.6906754], [-8.6832895, 12.7130165], [-8.6673814, 12.7226662], [-8.6669223, 12.7340184], [-8.6483351, 12.7405682], [-8.6440403, 12.7509037], [-8.6351593, 12.7484311], [-8.6107952, 12.7750298], [-8.6156434, 12.7838617], [-8.6056412, 12.7935897], [-8.6097752, 12.8106064], [-8.6347652, 12.8243353], [-8.6344835, 12.8369019], [-8.6472671, 12.8484667], [-8.6433325, 12.857086], [-8.6589905, 12.8653661], [-8.6455521, 12.8827038], [-8.621002, 12.8882487], [-8.624505, 12.9034922], [-8.6356149, 12.9085459], [-8.6337495, 12.9291909], [-8.6164364, 12.9400088], [-8.6041601, 12.9327328], [-8.5914414, 12.9475779], [-8.5966252, 12.9616649], [-8.5909287, 12.978894], [-8.5789064, 12.9863613], [-8.5852204, 12.9966792], [-8.5763782, 13.0102995], [-8.583689, 13.0262017], [-8.5732304, 13.0444036], [-8.5996178, 13.0980125], [-8.589366, 13.1054898], [-8.5897549, 13.1237579], [-8.5733516, 13.1243227], [-8.5676268, 13.1402705], [-8.5851226, 13.165494], [-8.5710264, 13.1902655], [-8.5740777, 13.2067408], [-8.5651148, 13.2184968], [-8.5679136, 13.2281391], [-8.5515306, 13.2330233], [-8.5541791, 13.2433361], [-8.5319396, 13.2533372], [-8.5360168, 13.267629], [-8.5236965, 13.2734119], [-8.5184447, 13.2877889], [-8.5305054, 13.2891847], [-8.537847, 13.2995331], [-8.5148797, 13.3169856], [-8.5186154, 13.3432748], [-8.4984891, 13.3433878], [-8.5011799, 13.3595348], [-8.5148738, 13.3671582]], [[-7.904464981884564, 12.630082023022181], [-7.9091879, 12.622864], [-7.9044756, 12.629677], [-7.904464981884564, 12.630082023022181]], [[-7.919866472642791, 12.575419973282587], [-7.91907725851234, 12.573256658612404], [-7.9194393, 12.5749413], [-7.919866472642791, 12.575419973282587]], [[-7.918814042829833, 12.572031870714532], [-7.9193815, 12.559819], [-7.9186118, 12.5710908], [-7.918814042829833, 12.572031870714532]], [[-7.9150865, 12.5221495], [-7.924871139207554, 12.515589721005751], [-7.9232723, 12.5163256], [-7.9150865, 12.5221495]], [[-7.9312607, 12.6827596], [-7.930925093954039, 12.68270728702105], [-7.932149161052984, 12.684135249646697], [-7.9312607, 12.6827596]]]}}]}