{"type": "FeatureCollection", "features": [{"type": "Feature", "properties": {"slug": "bamenda", "members": 3, "country": "Cameroon", "input_hash": "53658fa60944d7c2"}, "geometry": {"type": "Polygon", "coordinates": [[[10.2363093, 5.8850856], [10.0770131, 5.8903411], [10.0683504, 5.9240222], [10.0577534, 5.9339076], [10.0545143, 5.9909232], [10.0427062, 5.9902774], [10.0456592, 6.0005989], [10.0284029, 6.0288552], [10.037941, 6.0459651], [10.0923711, 6.0460026], [10.1359541, 6.0324244], [10.1428123, 5.9764721], [10.1579318, 5.9466007], [10.2000363, 5.9639155], [10.2281457, 5.9597588], [10.2355423, 5.9231095], [10.2546935, 5.9163009], [10.2668946, 5.8959554], [10.2864338, 5.8876687], [10.279733, 5.8598251], [10.2363093, 5.8850856]]]}}]}