{"type":"FeatureCollection","features":[{"type":"Feature","properties":{"slug":"bandrma","member_count":3,"matched_count":3,"unmatched":[],"source":"Overture Maps division_area (CC-BY 4.0)"},"geometry":{"type":"MultiPolygon","coordinates":[[[[27.8523724,40.1752753],[27.8476592,40.1599774],[27.8251716,40.1608039],[27.8151441,40.1478471],[27.8210399,40.1387095],[27.8156248,40.1216545],[27.8242142,40.1150634],[27.7827002,40.0801822],[27.7939573,40.0522617],[27.7764918,40.0434257],[27.7733698,40.0342062],[27.7843431,40.0160887],[27.7677136,39.9719207],[27.7553849,39.9567161],[27.7450355,39.955923],[27.7525667,39.9491323],[27.7423171,39.9362878],[27.683465,39.9314877],[27.5988007,39.931607],[27.5369796,39.9408572],[27.5196349,39.9557044],[27.5167641,39.9776625],[27.4885864,39.9727454],[27.4533675,39.9817913],[27.4478095,39.9948454],[27.4792005,40.0354116],[27.491659,40.0991922],[27.4229451,40.1147409],[27.4252797,40.1332363],[27.4114244,40.1387367],[27.3794153,40.1332946],[27.4444648,40.2212736],[27.5017867,40.2617506],[27.5157635,40.2641454],[27.5140443,40.3038463],[27.5536144,40.3033563],[27.6331223,40.3275307],[27.6755744,40.3081222],[27.7093273,40.3158308],[27.7611369,40.3063774],[27.8794277,40.3729205],[27.8755835,40.3818117],[27.8210451,40.4002763],[27.79559,40.3840739],[27.7851587,40.4075456],[27.7455341,40.4307439],[27.7552482,40.4421779],[27.7505471,40.4503975],[27.7175054,40.4559575],[27.7084349,40.4672608],[27.6870517,40.4726061],[27.684029,40.502165],[27.7184678,40.5226561],[27.7328719,40.5178956],[27.7369595,40.5259492],[27.7446228,40.5169075],[27.7532071,40.5282889],[27.7529315,40.521674],[27.7639244,40.5203528],[27.7769907,40.526337],[27.7747668,40.5119348],[27.7873203,40.5060508],[27.7945124,40.520478],[27.8052932,40.5130372],[27.8286055,40.517917],[27.836492,40.509763],[27.8430557,40.5163381],[27.870554,40.516444],[28.031835,40.481354],[28.0244967,40.453371],[28.0059547,40.4398469],[27.9708041,40.4229277],[27.9519103,40.4226824],[27.9458584,40.4133724],[27.9261786,40.4117438],[27.8966636,40.3904473],[27.9018745,40.3789322],[27.9130377,40.3836182],[27.927872,40.3627413],[27.9596198,40.3518902],[27.9689095,40.3567021],[27.9600195,40.3578637],[27.958407,40.3586536],[28.0614147,40.3818375],[28.2332191,40.4001469],[28.2351771,40.3516563],[28.1986954,40.332395],[28.1926671,40.3149764],[28.1672838,40.3045667],[28.1741821,40.269126],[28.1673878,40.248726],[28.1499594,40.246326],[28.121183,40.2664196],[28.1139809,40.2601608],[28.1063004,40.266261],[28.0876836,40.2521424],[28.0928074,40.2371772],[28.1199631,40.2267189],[28.1139511,40.2100984],[28.118916,40.2034909],[28.1354148,40.2044703],[28.1413495,40.1951808],[28.1417053,40.1850678],[28.1175022,40.1788193],[28.1488376,40.146186],[28.132368,40.1365853],[28.1302624,40.1208959],[28.1414148,40.1111797],[28.1279555,40.1009193],[28.0622924,40.1275812],[28.0410803,40.123469],[28.0169081,40.1428372],[27.9443635,40.1648706],[27.8523724,40.1752753]]],[[[27.561935,40.46109],[27.5611707,40.4597006],[27.5608829,40.4608537],[27.561935,40.46109]]],[[[27.5644314,40.4651996],[27.5654884,40.469817],[27.5695827,40.4665912],[27.5644314,40.4651996]]],[[[27.598365,40.5089767],[27.6213593,40.5108853],[27.6231431,40.4983267],[27.6503063,40.4938442],[27.6326881,40.4692843],[27.6502562,40.4528116],[27.6637118,40.466697],[27.6668238,40.4461423],[27.6254568,40.4617893],[27.5777677,40.4630716],[27.5826597,40.4827314],[27.6078335,40.4811045],[27.598365,40.5089767]]],[[[27.589783,40.494469],[27.5892736,40.4928716],[27.5876679,40.4944857],[27.589783,40.494469]]],[[[27.5864195,40.4974864],[27.58722,40.4979299],[27.587623,40.497561],[27.5864195,40.4974864]]],[[[27.5807682,40.5075701],[27.5868,40.5066368],[27.5819698,40.4941789],[27.5717527,40.4982346],[27.583188,40.5218104],[27.5807682,40.5075701]]],[[[27.5827464,40.5282212],[27.5843569,40.5223844],[27.5810773,40.5263148],[27.5827464,40.5282212]]]]}}]}