{"type": "FeatureCollection", "features": [{"type": "Feature", "properties": {"slug": "bandar-lampung", "members": 2, "country": "Indonesia", "input_hash": "47edc0ceaaa40552"}, "geometry": {"type": "MultiPolygon", "coordinates": [[[[105.4281296, -6.1637419], [105.4201931, -6.1415991], [105.4302005, -6.1455187], [105.4451219, -6.1330656], [105.4572914, -6.1352039], [105.4648889, -6.1504808], [105.4490874, -6.1678386], [105.4281296, -6.1637419]]], [[[105.4357049, -6.1029952], [105.4230879, -6.1087309], [105.4171121, -6.0923178], [105.4310722, -6.093921], [105.4357049, -6.1029952]]], [[[105.4534815, -6.1083085], [105.4508664, -6.0803119], [105.4654723, -6.0879665], [105.4534815, -6.1083085]]], [[[105.4040441, -6.0739829], [105.3637469, -6.1123284], [105.3580792, -6.1087534], [105.3841735, -6.0783461], [105.4040441, -6.0739829]]], [[[105.5076353, -5.9239108], [105.5164638, -5.9456977], [105.5127436, -5.9547734], [105.5022132, -5.9674983], [105.4860744, -5.9716812], [105.46231, -5.9538997], [105.4770662, -5.9260211], [105.4956096, -5.9208334], [105.5076353, -5.9239108]]], [[[105.5150288, -5.9293759], [105.5140376, -5.9296635], [105.5143251, -5.9287787], [105.5150288, -5.9293759]]], [[[105.5420521, -5.8840458], [105.5386403, -5.8829372], [105.5391271, -5.8788017], [105.5420521, -5.8840458]]], [[[105.522775, -5.8942551], [105.5054533, -5.9024939], [105.4926109, -5.8765391], [105.5050135, -5.8736255], [105.5060568, -5.8565493], [105.5184299, -5.8618803], [105.5242985, -5.8461218], [105.5328548, -5.8462072], [105.529274, -5.8615735], [105.5445036, -5.8646899], [105.522775, -5.8942551]]], [[[105.6821653, -5.8495612], [105.6839275, -5.849289], [105.6827125, -5.8522908], [105.6821653, -5.8495612]]], [[[105.5493201, -5.8182291], [105.5478213, -5.8199833], [105.5475746, -5.8185531], [105.5493201, -5.8182291]]], [[[105.5455221, -5.8162332], [105.5447604, -5.8150591], [105.544946, -5.8150735], [105.5455221, -5.8162332]]], [[[105.5435191, -5.8142409], [105.5411051, -5.8148173], [105.5431832, -5.8132446], [105.5435191, -5.8142409]]], [[[105.3411171, -5.5627702], [105.3431033, -5.5544971], [105.3445815, -5.5669711], [105.3411171, -5.5627702]]], [[[105.3516528, -5.5533839], [105.3506067, -5.5583787], [105.3471764, -5.5547759], [105.3516528, -5.5533839]]], [[[105.3432991, -5.5451547], [105.3447193, -5.5486987], [105.3427345, -5.5472571], [105.3432991, -5.5451547]]], [[[105.1950843, -5.352941], [105.1959153, -5.3405561], [105.1763718, -5.3302264], [105.1566932, -5.3316361], [105.1451896, -5.3141725], [105.1231228, -5.316413], [105.1151581, -5.3065125], [105.1449745, -5.2525702], [105.1636083, -5.2677559], [105.1807893, -5.2662302], [105.1646978, -5.2337667], [105.1532082, -5.229993], [105.1558605, -5.2108304], [105.1689332, -5.1963553], [105.1948188, -5.2003844], [105.2185984, -5.1793702], [105.2380542, -5.1834752], [105.2799577, -5.1748638], [105.2774367, -5.2010669], [105.2845763, -5.2134572], [105.2989488, -5.212734], [105.304164, -5.2211038], [105.321353, -5.2089791], [105.3302034, -5.236336], [105.3567078, -5.2307298], [105.3796299, -5.2077455], [105.393474, -5.2081724], [105.3945641, -5.2151443], [105.404861, -5.2112211], [105.4373731, -5.235437], [105.4324009, -5.2473596], [105.4574553, -5.2479827], [105.4555796, -5.2762138], [105.4140425, -5.3019636], [105.4150737, -5.3139902], [105.4310126, -5.3059179], [105.465543, -5.3069525], [105.4738375, -5.2884291], [105.4844921, -5.28533], [105.4837187, -5.303365], [105.4964495, -5.3163491], [105.516371, -5.3187593], [105.5297182, -5.3383929], [105.5416373, -5.3400157], [105.5305024, -5.3471497], [105.5222125, -5.3696038], [105.5354034, -5.4243722], [105.514822, -5.4609892], [105.5280075, -5.4688392], [105.5410108, -5.4507052], [105.5838882, -5.4539593], [105.5891752, -5.4651134], [105.5798002, -5.4806436], [105.6163887, -5.4921444], [105.6557335, -5.4931127], [105.6576254, -5.5481889], [105.6690429, -5.5653167], [105.6902256, -5.5862405], [105.7363257, -5.5921093], [105.7338095, -5.6008018], [105.7400343, -5.5953725], [105.7414741, -5.6016408], [105.7483901, -5.5881323], [105.753003, -5.5996867], [105.7563358, -5.5911711], [105.7538621, -5.6079522], [105.7645235, -5.6033514], [105.7646964, -5.6187372], [105.7744778, -5.6126435], [105.7719791, -5.6208384], [105.7842458, -5.6167029], [105.7852937, -5.6089167], [105.7925614, -5.6142409], [105.7891401, -5.5999048], [105.7984822, -5.6035008], [105.8051147, -5.5826463], [105.8263689, -5.57934], [105.8094656, -5.6837883], [105.7924497, -5.7209772], [105.7990037, -5.7945033], [105.7824957, -5.8077947], [105.7783186, -5.837501], [105.7599201, -5.8566025], [105.7560175, -5.8693418], [105.7369456, -5.8805926], [105.7249309, -5.9036994], [105.7149269, -5.9058308], [105.7180015, -5.8795389], [105.7055891, -5.8484725], [105.6870174, -5.849217], [105.6741737, -5.8376901], [105.615153, -5.8348109], [105.5847019, -5.805819], [105.5801475, -5.7661431], [105.5894574, -5.735501], [105.5548006, -5.6980354], [105.561254, -5.6696023], [105.5343246, -5.671484], [105.523923, -5.6946351], [105.5035329, -5.6698505], [105.4676744, -5.658093], [105.470252, -5.6472215], [105.4565513, -5.6487376], [105.4461068, -5.6363098], [105.4102617, -5.6228673], [105.381829, -5.5922429], [105.3642625, -5.5397567], [105.3262523, -5.5034906], [105.3245155, -5.4863847], [105.3153022, -5.4788381], [105.3203997, -5.4695866], [105.3061679, -5.4535544], [105.2905682, -5.4456923], [105.2715191, -5.448771], [105.2670103, -5.4610639], [105.2543691, -5.4621052], [105.2536523, -5.4820974], [105.2248954, -5.4897166], [105.2215631, -5.4460756], [105.1836086, -5.4515573], [105.1809024, -5.4392021], [105.1879776, -5.436219], [105.1793932, -5.4330104], [105.1912399, -5.4292463], [105.1817838, -5.4234348], [105.1784437, -5.4064751], [105.1955765, -5.38454], [105.2068643, -5.3890657], [105.2112111, -5.3594943], [105.1950843, -5.352941]], [[105.3407167, -5.4152354], [105.34151583478447, -5.419808778969437], [105.3418085, -5.4195919], [105.3407167, -5.4152354]], [[105.3298675, -5.4793897], [105.33132114454902, -5.4807624430128445], [105.3277247, -5.4733547], [105.3298675, -5.4793897]], [[105.3474671, -5.513711], [105.34758597396625, -5.516248720014351], [105.3479629, -5.5159312], [105.3474671, -5.513711]], [[105.34698400596731, -5.51675581390161], [105.34609266239448, -5.517015601120297], [105.3464287, -5.5172236], [105.34698400596731, -5.51675581390161]]], [[[105.2656853, -5.4622728], [105.2646077, -5.4662771], [105.2632928, -5.4621987], [105.2656853, -5.4622728]]], [[[105.7668748, -5.8878865], [105.7563096, -5.8989722], [105.749006, -5.9010399], [105.7563901, -5.8841432], [105.7647049, -5.8793807], [105.7668748, -5.8878865]]], [[[105.7395793, -5.8899916], [105.7382356, -5.8868166], [105.7393473, -5.8870381], [105.7395793, -5.8899916]]], [[[105.7756064, -5.8845709], [105.7877566, -5.8829674], [105.7885753, -5.8903685], [105.7839571, -5.8899191], [105.7756064, -5.8845709]]], [[[105.7714165, -5.8850517], [105.7710524, -5.8853398], [105.770933, -5.8848456], [105.7714165, -5.8850517]]], [[[105.7701918, -5.8777232], [105.7706318, -5.8833276], [105.7687615, -5.8818243], [105.7701918, -5.8777232]]], [[[105.7571451, -5.8724447], [105.7568661, -5.8736186], [105.7563082, -5.8735546], [105.7571451, -5.8724447]]], [[[105.7723334, -5.871673], [105.7724662, -5.8741636], [105.7711557, -5.8738882], [105.7723334, -5.871673]]], [[[105.7674807, -5.871599], [105.769824, -5.8729861], [105.7677454, -5.8732044], [105.7674807, -5.871599]]], [[[105.7927067, -5.8497171], [105.7873138, -5.8677236], [105.7732528, -5.8614918], [105.7852207, -5.8455026], [105.7927067, -5.8497171]]], [[[105.7669118, -5.8519224], [105.7674793, -5.8526916], [105.7666878, -5.8526788], [105.7669118, -5.8519224]]], [[[105.6934856, -5.8530459], [105.6934896, -5.8504977], [105.694374, -5.8504731], [105.6934856, -5.8530459]]], [[[105.7752245, -5.845687], [105.7774776, -5.845132], [105.7747954, -5.8475228], [105.7752245, -5.845687]]], [[[105.7930179, -5.8454145], [105.7951849, -5.8455886], [105.7930723, -5.8463453], [105.7930179, -5.8454145]]], [[[105.8039697, -5.7804326], [105.8037989, -5.7796685], [105.8042798, -5.7801066], [105.8039697, -5.7804326]]], [[[105.8066255, -5.7515967], [105.8072458, -5.7529628], [105.8047052, -5.7509795], [105.8066255, -5.7515967]]], [[[105.8050642, -5.7439448], [105.8047267, -5.7425188], [105.8053671, -5.7425282], [105.8050642, -5.7439448]]], [[[105.8107601, -5.7425954], [105.8088588, -5.7389521], [105.8115426, -5.7408099], [105.8107601, -5.7425954]]], [[[105.8387399, -5.6792084], [105.8359844, -5.6800782], [105.8373204, -5.6778177], [105.8387399, -5.6792084]]]]}}]}