{"type": "FeatureCollection", "features": [{"type": "Feature", "properties": {"slug": "baoding", "members": 6, "country": "China", "input_hash": "c47e744106c2c0dd"}, "geometry": {"type": "MultiPolygon", "coordinates": [[[[115.2353579, 38.4782071], [115.2509398, 38.4624064], [115.2384555, 38.4593194], [115.2347947, 38.4499104], [115.2277547, 38.4534389], [115.2251264, 38.4142482], [115.1940564, 38.4136598], [115.2104831, 38.4049805], [115.2102954, 38.3892374], [115.1952766, 38.3881338], [115.1733117, 38.3687073], [115.2082303, 38.3505271], [115.2062591, 38.3212967], [115.2228736, 38.3162888], [115.2228736, 38.3013367], [115.234607, 38.3006001], [115.2425955, 38.2854517], [115.216807, 38.2782648], [115.2172808, 38.2587533], [115.2006134, 38.2322419], [115.184368, 38.2353077], [115.1601053, 38.2569309], [115.1470245, 38.2562682], [115.1376359, 38.2462444], [115.1242387, 38.2614039], [115.0934356, 38.2583391], [115.0852074, 38.262315], [115.0861568, 38.2860002], [115.0697004, 38.2778024], [115.0643204, 38.29428], [115.0545098, 38.2972604], [115.0499738, 38.2836817], [115.0578855, 38.2771399], [115.0586239, 38.2613211], [115.0382644, 38.251795], [115.0301417, 38.2633089], [114.9859414, 38.251795], [114.984148, 38.269438], [114.963894, 38.2773883], [114.9419521, 38.2731648], [114.9222254, 38.2796242], [114.90598, 38.2574279], [114.8801664, 38.2638987], [114.8785526, 38.2825225], [114.8982792, 38.2899746], [114.9018659, 38.305125], [114.9170564, 38.3105883], [114.9206431, 38.3223412], [114.9295043, 38.3215136], [114.937416, 38.3371538], [114.9276054, 38.338395], [114.9188345, 38.3805468], [114.9138808, 38.3902612], [114.9046111, 38.3899753], [114.8960924, 38.4135511], [114.8876703, 38.4203348], [114.8711371, 38.4174936], [114.8494078, 38.432391], [114.8510414, 38.4466256], [114.8420568, 38.4546213], [114.8338889, 38.4559006], [114.8327064, 38.4341274], [114.8253679, 38.428177], [114.8241448, 38.4449847], [114.8151755, 38.4456569], [114.8247671, 38.4668289], [114.8069351, 38.4806813], [114.8108979, 38.4988524], [114.805026, 38.503234], [114.8330198, 38.5145608], [114.8440498, 38.5359962], [114.8553838, 38.5363762], [114.8622999, 38.5569999], [114.8538858, 38.5632855], [114.8828099, 38.5881816], [114.8676983, 38.5941413], [114.8743247, 38.6083018], [114.8695083, 38.6163868], [114.8812566, 38.6249725], [114.8414522, 38.646575], [114.8459343, 38.6643754], [114.8847746, 38.6664326], [114.9227225, 38.6540206], [114.9374721, 38.6674388], [114.9701112, 38.6716824], [114.9803338, 38.6605331], [114.9807869, 38.6368402], [114.9730071, 38.6303256], [114.9814966, 38.6237903], [115.0042974, 38.6228351], [115.0114834, 38.6441363], [115.0311933, 38.6456195], [115.0196517, 38.6292052], [115.0233191, 38.6223028], [115.0663034, 38.6138764], [115.0922107, 38.6193771], [115.1207785, 38.6135372], [115.1384872, 38.6242906], [115.1442046, 38.6461867], [115.1771021, 38.645701], [115.1839164, 38.6271482], [115.2279342, 38.5969285], [115.2356476, 38.5325642], [115.259739, 38.5306583], [115.2510337, 38.4912859], [115.243055, 38.4868776], [115.2442753, 38.4771048], [115.2353579, 38.4782071]]], [[[115.7527411, 38.8814271], [115.757372, 38.871384], [115.7472832, 38.8572185], [115.6890659, 38.8474297], [115.687412, 38.8311979], [115.6763309, 38.831069], [115.6867505, 38.8217921], [115.6803002, 38.8096786], [115.6733539, 38.812385], [115.6569802, 38.7994966], [115.6492069, 38.8029767], [115.6468914, 38.7784835], [115.6755039, 38.7735839], [115.6748424, 38.765589], [115.680631, 38.7686839], [115.6781715, 38.7639429], [115.6500339, 38.7675233], [115.6609496, 38.7691997], [115.6604534, 38.7750022], [115.6454029, 38.7750022], [115.6356449, 38.7542398], [115.6458578, 38.7460899], [115.6440114, 38.7297782], [115.6213626, 38.7273128], [115.6176351, 38.6879495], [115.646645, 38.6752981], [115.6341227, 38.6648402], [115.615007, 38.6688825], [115.6006702, 38.6620415], [115.5956257, 38.6459731], [115.5616422, 38.620671], [115.5599165, 38.6122695], [115.5761118, 38.601896], [115.5701381, 38.5916248], [115.5419955, 38.5888233], [115.5280569, 38.574399], [115.4880998, 38.5784464], [115.4866395, 38.5666149], [115.4527534, 38.5820981], [115.4578223, 38.5603751], [115.4418649, 38.5647789], [115.4313517, 38.5581731], [115.4238424, 38.566834], [115.4140802, 38.5631642], [115.4123906, 38.5744664], [115.39587, 38.5765212], [115.393054, 38.5694761], [115.3403007, 38.5671275], [115.3380479, 38.5600815], [115.3050037, 38.5515364], [115.2922124, 38.5836619], [115.3030709, 38.6008893], [115.2837849, 38.6478637], [115.2526681, 38.6649491], [115.2502371, 38.69759], [115.2682265, 38.7035346], [115.2675782, 38.718963], [115.2546129, 38.7279402], [115.2531543, 38.7037876], [115.2307891, 38.7044199], [115.2277098, 38.7364107], [115.2345275, 38.764568], [115.2261465, 38.7730387], [115.2376316, 38.8030411], [115.2585843, 38.8102979], [115.237166, 38.8568444], [115.2778297, 38.8822206], [115.278761, 38.9092786], [115.2640165, 38.916766], [115.248496, 38.9079501], [115.2478752, 38.8961132], [115.2143509, 38.9069839], [115.2041074, 38.9237696], [115.205349, 38.9391028], [115.1957263, 38.9352397], [115.1705831, 38.9441729], [115.1623573, 38.9637256], [115.1747736, 38.9814631], [115.1670134, 39.0014879], [115.1508721, 39.008845], [115.123556, 39.0101716], [115.1168822, 39.0008848], [115.103845, 38.9997993], [115.0814955, 39.0127042], [115.0481264, 39.0059505], [115.0257769, 39.0190954], [115.009033, 39.0119806], [114.9952015, 39.015719], [114.9792154, 39.0328407], [114.9579524, 39.0345285], [114.9537618, 39.0563462], [114.9640053, 39.0751449], [114.9481744, 39.0982749], [114.9548483, 39.1115231], [114.9828482, 39.1215448], [114.9975924, 39.1048126], [115.0189649, 39.1084532], [115.0326919, 39.0878212], [115.0283479, 39.082696], [115.0465927, 39.0724445], [115.0438951, 39.0596555], [115.0522541, 39.0518375], [115.102481, 39.0668558], [115.1129066, 39.0505299], [115.1476097, 39.0461383], [115.172346, 39.0730181], [115.1857256, 39.0742322], [115.1951112, 39.0727856], [115.202754, 39.0588525], [115.2267329, 39.053995], [115.2580097, 39.0639794], [115.2410266, 39.0871519], [115.258842, 39.1193212], [115.3013123, 39.1268001], [115.3296719, 39.1211723], [115.3790494, 39.1560519], [115.4254095, 39.1331485], [115.4440688, 39.1587835], [115.4827972, 39.1662061], [115.5084339, 39.1590142], [115.5126754, 39.136582], [115.5749151, 39.1117215], [115.590497, 39.1160913], [115.605328, 39.1048748], [115.6224118, 39.10706], [115.6593955, 39.1283255], [115.6789198, 39.1123041], [115.7046394, 39.10706], [115.7067632, 39.0957298], [115.7429409, 39.1058459], [115.7593238, 39.0972452], [115.7595491, 39.0744938], [115.769763, 39.0600081], [115.7586425, 39.0380322], [115.7608098, 39.0091844], [115.7766509, 39.0066959], [115.780642, 38.9982249], [115.7612443, 38.9733397], [115.7569654, 38.9461923], [115.7366983, 38.9376674], [115.7292557, 38.9214562], [115.7436446, 38.9096172], [115.7449678, 38.8807834], [115.7527411, 38.8814271]], [[115.3748665, 38.7880967], [115.37457702878808, 38.788954423949846], [115.3743803, 38.7858228], [115.3748665, 38.7880967]], [[115.3798464, 38.8076478], [115.3789685, 38.8091871], [115.3800659, 38.7950752], [115.3798464, 38.8076478]], [[115.3952243, 38.8158573], [115.3868287, 38.8149167], [115.38525473060416, 38.81423465293681], [115.3952243, 38.8158573]], [[115.4272154, 38.8322307], [115.4212891, 38.8308201], [115.4195881, 38.8301789], [115.4272154, 38.8322307]], [[115.47720106557729, 38.92346269895395], [115.4749141, 38.9225398], [115.47702453369743, 38.922542091643265], [115.47720106557729, 38.92346269895395]], [[115.47400699015486, 38.92651780594971], [115.4740427, 38.9241355], [115.4749141, 38.9225398], [115.47400699015486, 38.92651780594971]], [[115.4799988, 38.9267521], [115.4788943, 38.9269064], [115.47876796897035, 38.92547978130733], [115.4799988, 38.9267521]], [[115.50932161031379, 38.94016756178522], [115.5093807, 38.940811], [115.5023902, 38.942148], [115.50932161031379, 38.94016756178522]], [[115.48951262544668, 38.796270973724155], [115.4895452, 38.7952381], [115.4934945, 38.795265], [115.48951262544668, 38.796270973724155]], [[115.4422863, 38.7846859], [115.4442311, 38.7834225], [115.4503897, 38.7832962], [115.4422863, 38.7846859]], [[115.4714981, 38.9375202], [115.4703537913725, 38.93883958230285], [115.47207215780156, 38.93500274815853], [115.4714981, 38.9375202]], [[115.4509756, 38.9516893], [115.44930228801957, 38.95260968294811], [115.45104739205755, 38.950609714940384], [115.4509756, 38.9516893]]]]}}]}