{"type": "FeatureCollection", "features": [{"type": "Feature", "properties": {"slug": "baotou", "members": 9, "country": "China", "input_hash": "e93c78e8e65e5c18"}, "geometry": {"type": "Polygon", "coordinates": [[[109.4405708, 40.5359858], [109.4185033, 40.5474129], [109.4268933, 40.5560734], [109.4120012, 40.5972582], [109.4264938, 40.5965959], [109.426834, 40.6221474], [109.4030361, 40.6270113], [109.3947751, 40.639588], [109.4104666, 40.6459469], [109.4042718, 40.6751086], [109.4097518, 40.6827216], [109.4028882, 40.6937012], [109.4091356, 40.7072881], [109.4346776, 40.714938], [109.4353005, 40.7256088], [109.4567309, 40.7396764], [109.466307, 40.737127], [109.4723619, 40.7489614], [109.5043, 40.7327783], [109.5224477, 40.731998], [109.5409815, 40.7425305], [109.6210374, 40.737362], [109.6575285, 40.747833], [109.7297332, 40.7467604], [109.7532866, 40.7594354], [109.7686027, 40.7532932], [109.7861069, 40.7587529], [109.7983341, 40.7753244], [109.7918987, 40.7937431], [109.7964035, 40.8040709], [109.8104325, 40.8063116], [109.8677828, 40.8653679], [109.8977438, 40.8738779], [109.8576203, 40.9260139], [109.8262023, 40.9465024], [109.8163528, 40.9945754], [109.7695618, 41.0115774], [109.7450178, 41.0026779], [109.7311933, 41.0298614], [109.6956633, 41.0333254], [109.6809923, 41.0476839], [109.6719968, 41.1028519], [109.7116468, 41.1143339], [109.7161178, 41.1368254], [109.6804578, 41.1720624], [109.6571428, 41.2189599], [109.6361693, 41.2386819], [109.6315538, 41.2596319], [109.6345293, 41.2711219], [109.6897963, 41.3208654], [109.6722103, 41.3582689], [109.6816408, 41.3776514], [109.6588593, 41.3957444], [109.6608278, 41.4104159], [109.6370773, 41.4390104], [109.6628038, 41.5023764], [109.6372528, 41.5101284], [109.5853273, 41.4935794], [109.5187683, 41.4968409], [109.4224168, 41.5314634], [109.4194033, 41.5389479], [109.4353638, 41.5623779], [109.4269868, 41.6006204], [109.3929673, 41.6895484], [109.3724898, 41.7060394], [109.3795778, 41.7215119], [109.3624573, 41.7378389], [109.3587418, 41.7642899], [109.3151093, 41.7933084], [109.3012238, 41.8124429], [109.2626493, 41.8195989], [109.2772978, 41.8373029], [109.2738493, 41.8799894], [109.3319703, 41.9009209], [109.3546678, 41.9263344], [109.3681028, 42.0125999], [109.3804778, 42.0357284], [109.4045713, 42.0584144], [109.4449233, 42.0656469], [109.4572068, 42.0748174], [109.4715728, 42.1219824], [109.5018463, 42.1546019], [109.4713898, 42.2946129], [109.4774018, 42.3169134], [109.4641188, 42.3257904], [109.4536513, 42.3598749], [109.4354398, 42.3766519], [109.4389878, 42.3899874], [109.4306488, 42.4069634], [109.4115218, 42.4228059], [109.3863373, 42.4263994], [109.3796233, 42.4322054], [109.3822306, 42.4462842], [109.469223, 42.453476], [109.4953918, 42.4663467], [109.5284805, 42.4674568], [109.6688232, 42.5512848], [109.9002839, 42.6317381], [110.1008301, 42.6391068], [110.1363297, 42.6720772], [110.331192, 42.7359581], [110.3852463, 42.7071419], [110.4422838, 42.6977654], [110.4698563, 42.6855089], [110.4821623, 42.6755944], [110.4924163, 42.6418839], [110.5171128, 42.6167869], [110.6710508, 42.5159874], [110.6987533, 42.4879114], [110.7458418, 42.3610304], [110.7326583, 42.3135949], [110.7684633, 42.2718584], [110.7913133, 42.1651994], [110.8426513, 42.1155549], [110.9180528, 42.0208049], [110.9677733, 41.9338194], [110.9876328, 41.9138869], [111.0151368, 41.8522834], [111.0601623, 41.7907977], [111.0721465, 41.7875412], [111.0782163, 41.7619439], [111.1031575, 41.7473698], [111.1555633, 41.7365724], [111.1549073, 41.7041089], [111.1794663, 41.6921274], [111.2293473, 41.6869009], [111.2661973, 41.6605604], [111.2863923, 41.6576799], [111.2968673, 41.6437799], [111.3524933, 41.6412694], [111.3690718, 41.6230429], [111.3765333, 41.5967864], [111.4302368, 41.5283929], [111.4363328, 41.4594079], [111.4290008, 41.4346619], [111.4199293, 41.4295614], [111.4234468, 41.4147299], [111.3779373, 41.3777924], [111.3901673, 41.3584099], [111.4133303, 41.3484344], [111.4168013, 41.3196449], [111.3910063, 41.3104094], [111.3617708, 41.3224144], [111.3242568, 41.2902639], [111.2811203, 41.2905349], [111.2678833, 41.2705839], [111.2487718, 41.2668379], [111.2610473, 41.2476959], [111.2386628, 41.2375299], [111.2207413, 41.2376669], [111.1599578, 41.2821504], [111.0989913, 41.3055649], [111.0412828, 41.3026809], [111.0121003, 41.3317449], [110.9819868, 41.3324469], [110.9615173, 41.3416709], [110.9372178, 41.3133734], [110.9123613, 41.3083799], [110.8657073, 41.3436699], [110.8281023, 41.3591309], [110.8059003, 41.3811109], [110.7634963, 41.3674774], [110.7106933, 41.3793294], [110.6837618, 41.3502654], [110.6580428, 41.3420104], [110.6256333, 41.3165319], [110.6053238, 41.3131219], [110.5802233, 41.3229139], [110.5714798, 41.3187064], [110.5705033, 41.3054349], [110.5452883, 41.2873304], [110.5110773, 41.2881569], [110.526329, 41.2697865], [110.5462798, 41.2656209], [110.5506668, 41.2583539], [110.5433733, 41.2420424], [110.5512083, 41.2277259], [110.6047363, 41.2033804], [110.6185993, 41.1728934], [110.6426163, 41.1500509], [110.6368868, 41.1113549], [110.6611633, 41.0521659], [110.6496423, 41.0349044], [110.6519322, 41.0066334], [110.618942, 40.9785173], [110.6272391, 40.9567355], [110.6210421, 40.9529454], [110.6237718, 40.9335939], [110.6293868, 40.9219934], [110.6467208, 40.9157714], [110.6901018, 40.9235189], [110.7056428, 40.9348714], [110.7328263, 40.9145584], [110.7340393, 40.8944509], [110.7192533, 40.8735084], [110.7251893, 40.8395044], [110.6968078, 40.8211744], [110.7227323, 40.7818759], [110.7765428, 40.7926599], [110.7867128, 40.7561799], [110.7859423, 40.7243959], [110.7973633, 40.7046129], [110.7798233, 40.6886824], [110.7967073, 40.6646039], [110.8053893, 40.6013639], [110.8388978, 40.5680544], [110.8521118, 40.5217629], [110.9026718, 40.4876634], [110.9428633, 40.4902609], [110.9574813, 40.4704854], [111.0264663, 40.4430959], [111.0322418, 40.4353639], [111.0209428, 40.4270589], [111.0254593, 40.4243469], [111.083406, 40.425058], [111.0821803, 40.4017984], [111.0940605, 40.3826966], [111.1174436, 40.3755859], [111.1210266, 40.356261], [111.1147598, 40.3390693], [111.0501556, 40.3191964], [111.0702915, 40.3015875], [111.0672234, 40.2882826], [111.0784241, 40.276025], [111.1041591, 40.2809588], [111.1150265, 40.2747533], [111.1201199, 40.2494508], [111.0455226, 40.2649136], [111.0359825, 40.2713891], [111.0438614, 40.2953902], [110.9738996, 40.2544766], [110.9661428, 40.273627], [110.9571489, 40.277187], [110.9132719, 40.2459995], [110.8795825, 40.2632675], [110.8483475, 40.262309], [110.8595211, 40.2830194], [110.8545326, 40.2894877], [110.8416757, 40.2814476], [110.8401914, 40.2660161], [110.7995237, 40.2591049], [110.7868318, 40.272175], [110.7605369, 40.2810342], [110.7695619, 40.2980246], [110.7641264, 40.3038896], [110.7444684, 40.3028133], [110.730144, 40.2916068], [110.7148873, 40.3134928], [110.6906404, 40.3077448], [110.6888756, 40.3228737], [110.6396936, 40.2993547], [110.6293081, 40.3040379], [110.6183279, 40.3266648], [110.599511, 40.3125933], [110.5795602, 40.3204497], [110.5736276, 40.3361995], [110.5543195, 40.3304718], [110.508617, 40.3913657], [110.4890334, 40.3655225], [110.4696271, 40.3816755], [110.4812968, 40.3951757], [110.4757422, 40.4048813], [110.4554604, 40.3905641], [110.428111, 40.3955725], [110.3896215, 40.4325994], [110.3635441, 40.437315], [110.3602001, 40.4596606], [110.3266936, 40.4439603], [110.3065792, 40.4437728], [110.3153196, 40.4934342], [110.3062996, 40.4936727], [110.3088523, 40.5103065], [110.2866597, 40.519324], [110.274653, 40.5064458], [110.2625777, 40.5154653], [110.2557985, 40.5087008], [110.2410433, 40.5339739], [110.2107773, 40.5522039], [110.1719963, 40.5502164], [110.1598868, 40.5137377], [110.1357365, 40.5067373], [110.0827958, 40.528143], [110.0576351, 40.5153674], [110.0419877, 40.5280718], [110.0239028, 40.5306549], [110.0038298, 40.5070769], [109.9835813, 40.5250089], [109.9265615, 40.5302438], [109.8603117, 40.5069422], [109.8168182, 40.5137134], [109.8017986, 40.498835], [109.7858988, 40.5067683], [109.7240061, 40.4936887], [109.722866, 40.4693242], [109.7169748, 40.4689635], [109.6857528, 40.4944799], [109.6717058, 40.4969943], [109.6707308, 40.5065294], [109.639647, 40.5101922], [109.64163, 40.5447316], [109.6310992, 40.540965], [109.6268768, 40.5289775], [109.5906539, 40.5533664], [109.539189, 40.5428689], [109.5146027, 40.5126404], [109.4494638, 40.5208275], [109.429841, 40.508969], [109.4194102, 40.5169798], [109.4405708, 40.5359858]]]}}]}