{"type": "FeatureCollection", "features": [{"type": "Feature", "properties": {"slug": "barahona", "members": 1, "country": "Dominican Republic", "input_hash": "fbf628d3ba4a0f89"}, "geometry": {"type": "Polygon", "coordinates": [[[-71.2081753, 18.1242681], [-71.2028231, 18.1154375], [-71.2004353, 18.1215395], [-71.1679091, 18.126643], [-71.1279607, 18.1239281], [-71.0887053, 18.1407191], [-71.0931838, 18.1528771], [-71.0847253, 18.1608657], [-71.0552084, 18.1548508], [-71.0923542, 18.2083578], [-71.0833883, 18.2178403], [-71.089191, 18.227815], [-71.1201452, 18.2410761], [-71.1311069, 18.2245104], [-71.1326358, 18.2317116], [-71.1478169, 18.2338375], [-71.1804621, 18.2563788], [-71.2077557, 18.2559336], [-71.2046381, 18.2377286], [-71.2119694, 18.2220137], [-71.2020509, 18.2012063], [-71.2016828, 18.1747606], [-71.2081753, 18.1242681]]]}}]}