{"type": "FeatureCollection", "features": [{"type": "Feature", "properties": {"slug": "barinas", "members": 1, "country": "Venezuela", "input_hash": "1c81147f57e11856"}, "geometry": {"type": "Polygon", "coordinates": [[[-69.6413674, 7.9501892], [-69.5791257, 7.946334], [-69.5801497, 7.956451], [-69.5676828, 7.972304], [-69.5238447, 8.0020533], [-69.4780755, 8.0122101], [-69.4769597, 8.0500832], [-69.4572562, 8.056218], [-69.4582889, 8.0627617], [-69.4657883, 8.0608895], [-69.520146, 8.0938269], [-69.5332459, 8.088006], [-69.5828533, 8.1038698], [-69.6133956, 8.1320508], [-69.6492058, 8.1303488], [-69.6590495, 8.1427354], [-69.6843132, 8.1486112], [-69.7064629, 8.1769033], [-69.7385877, 8.1737386], [-69.7482365, 8.1879257], [-69.7755593, 8.1985112], [-69.7857893, 8.1909211], [-69.8091513, 8.2294517], [-69.8352814, 8.2442746], [-69.8381835, 8.2630096], [-69.8504788, 8.2606684], [-69.8555106, 8.2733137], [-69.8709118, 8.2648676], [-69.8834592, 8.2882783], [-69.9066657, 8.2883261], [-69.9168956, 8.315674], [-69.9356638, 8.3197234], [-69.9369704, 8.3395304], [-69.9497849, 8.3481524], [-69.9620158, 8.3337898], [-69.9676323, 8.3369214], [-69.9650601, 8.3479135], [-69.9801636, 8.3661924], [-69.9849808, 8.4094501], [-69.9950445, 8.4256565], [-70.0135088, 8.4289465], [-70.0199032, 8.4465053], [-70.0296825, 8.4413635], [-70.0504535, 8.4635485], [-70.0470632, 8.4694434], [-70.0611234, 8.4752003], [-70.0652915, 8.489998], [-70.0939536, 8.5179258], [-70.084877, 8.5239632], [-70.1571679, 8.6013682], [-70.2705181, 8.6770605], [-70.29513, 8.7094394], [-70.3309536, 8.7207443], [-70.3570408, 8.7160198], [-70.3686762, 8.7257073], [-70.393146, 8.7219108], [-70.4138902, 8.7399517], [-70.443652, 8.6948729], [-70.4505157, 8.6970073], [-70.4433462, 8.6856964], [-70.4700261, 8.6721022], [-70.462355, 8.6592738], [-70.4536218, 8.6665869], [-70.4511809, 8.6620209], [-70.4597157, 8.6326345], [-70.4659599, 8.6353818], [-70.4709327, 8.6274157], [-70.466255, 8.6205791], [-70.4792047, 8.6035853], [-70.477885, 8.589402], [-70.4887426, 8.5668477], [-70.4974115, 8.5642803], [-70.4881847, 8.5477402], [-70.4981947, 8.5336291], [-70.4873157, 8.537125], [-70.4837537, 8.5236661], [-70.4718769, 8.5265415], [-70.4358816, 8.4952718], [-70.4075575, 8.4828778], [-70.3808963, 8.4531858], [-70.3906167, 8.4416925], [-70.3793621, 8.4427431], [-70.3708756, 8.4276995], [-70.3618795, 8.4311381], [-70.3563058, 8.4229608], [-70.3525829, 8.4304218], [-70.3500509, 8.4154785], [-70.3439999, 8.422653], [-70.3380239, 8.4154201], [-70.3171349, 8.4160251], [-70.3239155, 8.4052365], [-70.3024578, 8.4137326], [-70.2904737, 8.3993671], [-70.2874374, 8.407927], [-70.2855277, 8.396252], [-70.2586466, 8.3840193], [-70.2587164, 8.3729433], [-70.2473545, 8.3760109], [-70.2411586, 8.3610124], [-70.2339649, 8.3626843], [-70.2276349, 8.3433862], [-70.2176464, 8.3438055], [-70.218038, 8.3508115], [-70.2092296, 8.3476906], [-70.2169168, 8.3380148], [-70.2051097, 8.3310138], [-70.2040637, 8.3184182], [-70.1978088, 8.325637], [-70.195857, 8.311577], [-70.2164394, 8.2691836], [-70.2097446, 8.2599677], [-70.2173755, 8.2568328], [-70.2050293, 8.2475874], [-70.2090901, 8.2341981], [-70.20357, 8.2383051], [-70.2429514, 8.1971849], [-70.2381277, 8.1848813], [-70.2268463, 8.1797732], [-70.2226406, 8.1857388], [-70.211893, 8.1699685], [-70.2017355, 8.1714155], [-70.1880401, 8.1466942], [-70.1662794, 8.1380808], [-70.14925, 8.1172529], [-70.1323414, 8.1240452], [-70.123179, 8.1093983], [-70.0890666, 8.0960946], [-70.0822699, 8.1088487], [-70.0658682, 8.0965089], [-70.0676653, 8.0877856], [-70.0586826, 8.0869544], [-70.0532243, 8.0652899], [-70.037595, 8.0627883], [-70.0365356, 8.0514271], [-69.9943015, 8.0299758], [-69.9850613, 8.0167306], [-69.9755287, 8.0216468], [-69.9738818, 8.0109378], [-69.9474433, 7.9920769], [-69.9260393, 7.9981807], [-69.9075696, 7.9870116], [-69.9067944, 7.9783231], [-69.8605827, 7.9573169], [-69.8445591, 7.9654162], [-69.8327547, 7.9613838], [-69.7983983, 7.9789526], [-69.6802363, 7.9511113], [-69.675292, 7.9393933], [-69.6413674, 7.9501892]]]}}]}