{"type":"FeatureCollection","features":[{"type":"Feature","properties":{"slug":"barnsley","member_count":30,"matched_count":2,"unmatched":["Barnsley Town & Park Road (GB-ENG, type='MSOA')","Wilthorpe & Barugh Green (GB-ENG, type='MSOA')","Darfield & Great Houghton (GB-ENG, type='MSOA')","Honeywell (GB-ENG, type='MSOA')","Athersley (GB-ENG, type='MSOA')","Wombwell South (GB-ENG, type='MSOA')","Thurnscoe (GB-ENG, type='MSOA')","Worsbrough (GB-ENG, type='MSOA')","Birdwell (GB-ENG, type='MSOA')","Mapplewell & Staincross (GB-ENG, type='MSOA')","Elsecar (GB-ENG, type='MSOA')","Monk Bretton (GB-ENG, type='MSOA')","Lundwood (GB-ENG, type='MSOA')","Hoyland (GB-ENG, type='MSOA')","Grimethorpe & Brierley (GB-ENG, type='MSOA')","Bolton-upon-Dearne (GB-ENG, type='MSOA')","Wombwell North (GB-ENG, type='MSOA')","Darton & Kexborough (GB-ENG, type='MSOA')","Goldthorpe (GB-ENG, type='MSOA')","Royston West (GB-ENG, type='MSOA')","Worsbrough Common (GB-ENG, type='MSOA')","Ardsley & Stairfoot (GB-ENG, type='MSOA')","Ingbirchworth, Dunford Bridge & Thurgoland (GB-ENG, type='MSOA')","Cudworth Village (GB-ENG, type='MSOA')","Kendray (GB-ENG, type='MSOA')","Shafton & Upper Cudworth (GB-ENG, type='MSOA')","Silkstone, Hoylandswaine & Cawthorne (GB-ENG, type='MSOA')","Royston East & Carlton (GB-ENG, type='MSOA')"],"source":"Overture Maps division_area (CC-BY 4.0)"},"geometry":{"type":"MultiPolygon","coordinates":[[[[-1.6275141,53.5073111],[-1.690033,53.510779],[-1.6904598,53.5277486],[-1.6725129,53.5422764],[-1.6243375,53.5523205],[-1.5894195,53.5496549],[-1.5833866,53.5340032],[-1.6135484,53.5252904],[-1.6275141,53.5073111]]],[[[-1.5346034,53.5579913],[-1.5099376,53.53536],[-1.5294232,53.5331848],[-1.5473903,53.5407298],[-1.5515305,53.5535916],[-1.5346034,53.5579913]]]]}}]}