{"type": "FeatureCollection", "features": [{"type": "Feature", "properties": {"slug": "barretos", "members": 1, "country": "Brazil", "input_hash": "35b595426a73fe8d"}, "geometry": {"type": "Polygon", "coordinates": [[[-48.56, -20.313], [-48.588, -20.328], [-48.6202923, -20.3271815], [-48.622, -20.32], [-48.659, -20.337], [-48.694, -20.367], [-48.704, -20.369], [-48.708, -20.358], [-48.732, -20.366], [-48.739, -20.379], [-48.806, -20.382], [-48.8169597, -20.3897392], [-48.836, -20.383], [-48.867, -20.398], [-48.886, -20.436], [-48.883, -20.447], [-48.894, -20.462], [-48.887, -20.489], [-48.867, -20.511], [-48.867, -20.531], [-48.858, -20.533], [-48.831, -20.568], [-48.845, -20.625], [-48.8404095, -20.652505], [-48.795, -20.658], [-48.786, -20.688], [-48.8, -20.714], [-48.7754437, -20.7389329], [-48.753179, -20.7424672], [-48.662, -20.688], [-48.632, -20.687], [-48.627, -20.699], [-48.604, -20.7], [-48.568, -20.677], [-48.569, -20.659], [-48.562, -20.652], [-48.525, -20.635], [-48.517, -20.616], [-48.492, -20.606], [-48.479, -20.583], [-48.432, -20.561], [-48.41, -20.575], [-48.401, -20.564], [-48.377, -20.58], [-48.3447262, -20.5747528], [-48.3504762, -20.561114], [-48.3794138, -20.5477388], [-48.3868099, -20.5300089], [-48.411275, -20.5182476], [-48.4194011, -20.4947222], [-48.4772944, -20.4287886], [-48.4853854, -20.3894549], [-48.4814223, -20.3476742], [-48.5024893, -20.3274316], [-48.51, -20.298], [-48.546, -20.3], [-48.557, -20.293], [-48.56, -20.313]]]}}]}