{"type": "FeatureCollection", "features": [{"type": "Feature", "properties": {"slug": "barranquilla", "members": 10, "country": "Colombia", "input_hash": "21a4cda2cc3a6b4d"}, "geometry": {"type": "Polygon", "coordinates": [[[-74.72598593700002, 10.736007395654182], [-74.72363896500002, 10.66699342365631], [-74.74641705, 10.651145415656819], [-74.811382272, 10.657156429656595], [-74.82241663299999, 10.669832690656236], [-74.83735564300002, 10.671995373656157], [-74.83513805899997, 10.690515151655585], [-74.83968232500001, 10.687517625655673], [-74.84939462199998, 10.70830529965505], [-74.84230676800001, 10.70739216465506], [-74.84729682199998, 10.708677088655026], [-74.85760330800002, 10.707500561655074], [-74.8756189898991, 10.725623354172807], [-74.887759662, 10.714551035654843], [-74.90232680899999, 10.718896441654731], [-74.90558868900001, 10.704949671655143], [-74.942112828, 10.714144546654854], [-74.92602288699999, 10.755257013653598], [-74.93086281, 10.76648075865325], [-74.95477614200001, 10.78615249665265], [-74.99383285800002, 10.795001433652413], [-74.99297905499998, 10.818787196651666], [-74.97160814400002, 10.816567488651748], [-74.96308707700001, 10.838445557651047], [-74.944583287, 10.858365956650431], [-74.93709002499997, 10.857487167650447], [-74.94481372799999, 10.858419992650425], [-74.929823145, 10.877389138649862], [-74.92262598100001, 10.942552224647848], [-74.90771480500001, 10.95046390364763], [-74.91839993100001, 10.945286750647812], [-74.93112922900002, 10.952492808647534], [-74.92336614099997, 10.974328598646883], [-74.950259201, 10.970929862646976], [-74.95820076500002, 10.980759862646705], [-74.978074441, 10.975435936646852], [-74.98388899000003, 10.983269027646614], [-74.95605329799997, 10.993476729646309], [-74.94257957299999, 11.018390373645524], [-74.92186018400002, 11.028728373645256], [-74.92128938399998, 11.045503624644697], [-74.88295813299999, 11.044679039644748], [-74.846637826, 11.058294041644327], [-74.854570211, 11.105370386642878], [-74.836736427, 11.05562329964439], [-74.77312118999998, 11.007217217645886], [-74.75925812899999, 10.985240093646565], [-74.75384961399999, 10.93612818664807], [-74.71833160300002, 10.90874503764891], [-74.734530426, 10.893293793649367], [-74.74131935899999, 10.84557240265084], [-74.72511406500001, 10.77172623465311], [-74.73291520100003, 10.748658040653803], [-74.72598593700002, 10.736007395654182]], [[-74.76367799000002, 10.945216695647776], [-74.76051326599998, 10.944137397647832], [-74.75729559299998, 10.94536810464778], [-74.76367799000002, 10.945216695647776]], [[-74.87181682426228, 10.852878643991646], [-74.87159270436813, 10.853477889157478], [-74.87182400799998, 10.8531043146506], [-74.87181682426228, 10.852878643991646]], [[-74.87151857499998, 10.843509411650908], [-74.86976150999999, 10.83911223065103], [-74.87152143594454, 10.843599285651129], [-74.87151857499998, 10.843509411650908]], [[-74.879390134, 10.81304345065183], [-74.80815313512441, 10.812288367857267], [-74.88233915199999, 10.81312509765182], [-74.879390134, 10.81304345065183]], [[-74.80815213057127, 10.810883743367587], [-74.767864675, 10.825455765651453], [-74.80779571061338, 10.812284336535056], [-74.80815213057127, 10.810883743367587]], [[-74.834346374, 10.742033473653988], [-74.83583834900003, 10.733127990654285], [-74.833691322, 10.74384206765395], [-74.834346374, 10.742033473653988]], [[-74.82322545699998, 10.77085952965312], [-74.82324536503808, 10.77060785555868], [-74.819459344, 10.77565684765296], [-74.82322545699998, 10.77085952965312]], [[-74.80001242600002, 10.776453198652955], [-74.80479750110064, 10.774504664730305], [-74.80423366999997, 10.774227638653025], [-74.80001242600002, 10.776453198652955]], [[-74.87569827507099, 10.725665309215428], [-74.87572964600002, 10.725681909654497], [-74.87687555100001, 10.724576086654553], [-74.87569827507099, 10.725665309215428]], [[-74.80848832200002, 10.779843648652836], [-74.81141236299999, 10.778364645652895], [-74.81148012010583, 10.778104340425399], [-74.80848832200002, 10.779843648652836]], [[-74.8769927255949, 10.807671402041844], [-74.87658712799998, 10.807840523652024], [-74.880214851, 10.80914165065195], [-74.8769927255949, 10.807671402041844]], [[-74.88663762343621, 10.784096652031103], [-74.881575898, 10.79381946665241], [-74.886675718, 10.784113058652713], [-74.88663762343621, 10.784096652031103]], [[-74.89597403110828, 10.752758332821898], [-74.89594366483234, 10.754976624901198], [-74.895956582, 10.754928006653602], [-74.89597403110828, 10.752758332821898]], [[-74.894356705, 10.742539378653985], [-74.89602909453836, 10.74591158275457], [-74.89603055200001, 10.745730357653905], [-74.894356705, 10.742539378653985]], [[-74.89236577324861, 10.741812594544804], [-74.89222632600001, 10.741989854654], [-74.894356705, 10.742539378653985], [-74.89236577324861, 10.741812594544804]], [[-74.89189079099998, 10.73804598865413], [-74.89480771888928, 10.738418214504053], [-74.89492076300002, 10.738273724654125], [-74.89189079099998, 10.73804598865413]], [[-74.88308591952736, 10.727826538399501], [-74.88339395354924, 10.72807004754263], [-74.88339519099998, 10.727987535654444], [-74.88308591952736, 10.727826538399501]], [[-74.88138411800003, 10.7269406326545], [-74.8795893144693, 10.728257436371068], [-74.88182590741134, 10.727170614688992], [-74.88138411800003, 10.7269406326545]], [[-74.87651181506075, 10.726317564893915], [-74.876503916, 10.726355383654475], [-74.87807542412604, 10.727324169803172], [-74.87651181506075, 10.726317564893915]], [[-74.78043937926421, 10.874579719741599], [-74.78059069139864, 10.874557686578667], [-74.78048969399998, 10.874460161649937], [-74.78043937926421, 10.874579719741599]], [[-74.82654056865529, 10.914012522193037], [-74.826674948, 10.91391609664877], [-74.82825682100002, 10.908275225648918], [-74.82654056865529, 10.914012522193037]], [[-74.83169801399998, 10.886893024649572], [-74.83880204256856, 10.885532905623085], [-74.83882068999998, 10.8854283116496], [-74.83169801399998, 10.886893024649572]], [[-74.84495381300002, 10.877950730649841], [-74.84477959186523, 10.877774468021814], [-74.83882068999998, 10.8854283116496], [-74.84495381300002, 10.877950730649841]], [[-74.8427315105966, 10.875702387689673], [-74.84273415299998, 10.87577983764994], [-74.84295059528012, 10.875924039569778], [-74.8427315105966, 10.875702387689673]], [[-74.84264504897527, 10.873168161014961], [-74.8426913808492, 10.874526167827716], [-74.842757791, 10.873208670649973], [-74.84264504897527, 10.873168161014961]], [[-74.84261360461035, 10.86914626216371], [-74.84134275999997, 10.869566990650098], [-74.838853787, 10.871805912650036], [-74.84261360461035, 10.86914626216371]], [[-74.86706918697702, 10.860783744085856], [-74.86692731113068, 10.860914344865238], [-74.86698887, 10.860913462650345], [-74.86706918697702, 10.860783744085856]], [[-74.773651767, 10.944118898647806], [-74.76834611846283, 10.945305838242518], [-74.76838491, 10.945328356647778], [-74.773651767, 10.944118898647806]], [[-74.83234664999998, 11.030658724645194], [-74.827123733, 11.03725934964497], [-74.82714158378597, 11.037365924797454], [-74.83234664999998, 11.030658724645194]]]}}]}