{"type": "FeatureCollection", "features": [{"type": "Feature", "properties": {"slug": "batam", "members": 1, "country": "Indonesia", "input_hash": "ffb89df22d49bd1d"}, "geometry": {"type": "MultiPolygon", "coordinates": [[[[103.8172508, 0.9215872], [103.8173316, 0.9240601], [103.8181177, 0.9215957], [103.8172508, 0.9215872]]], [[[103.7630153, 0.9358844], [103.7632889, 0.9351576], [103.7626947, 0.9356779], [103.7630153, 0.9358844]]], [[[103.7692326, 0.9336249], [103.7699997, 0.9384683], [103.7709117, 0.9381519], [103.7692326, 0.9336249]]], [[[103.77545, 0.942001], [103.773901, 0.9323014], [103.7705308, 0.9312944], [103.7725398, 0.9393346], [103.7674583, 0.946589], [103.77545, 0.942001]]], [[[103.7865651, 0.9437006], [103.7899554, 0.9360574], [103.7847814, 0.9438106], [103.7865651, 0.9437006]]], [[[103.765381, 0.9487827], [103.7657565, 0.9456275], [103.7639165, 0.9459453], [103.765381, 0.9487827]]], [[[103.8320607, 0.9612245], [103.8328612, 0.9582083], [103.8285266, 0.9636258], [103.8320607, 0.9612245]]], [[[103.7854305, 0.9613873], [103.7881288, 0.9670675], [103.7944347, 0.9572949], [103.7854305, 0.9613873]]], [[[103.7651825, 0.96611], [103.7672424, 0.9662602], [103.7659362, 0.9645814], [103.7651825, 0.96611]]], [[[103.7990695, 0.9674966], [103.8071886, 0.9667885], [103.8023096, 0.9608228], [103.7990695, 0.9674966]]], [[[103.8156961, 0.96668], [103.8159082, 0.9660774], [103.8153948, 0.9662374], [103.8156961, 0.96668]]], [[[103.8206677, 0.9710064], [103.8247852, 0.96375], [103.8227145, 0.9653015], [103.8206677, 0.9710064]]], [[[103.763316, 0.969645], [103.7642602, 0.9700097], [103.7636379, 0.9690872], [103.763316, 0.969645]]], [[[103.8058624, 0.9733032], [103.8064572, 0.9735232], [103.8068493, 0.9729699], [103.8058624, 0.9733032]]], [[[103.8147675, 0.9744805], [103.8143294, 0.9736744], [103.8135676, 0.9747617], [103.8147675, 0.9744805]]], [[[103.7719899, 0.9696206], [103.7659872, 0.9774327], [103.7736261, 0.9771913], [103.7719899, 0.9696206]]], [[[103.821037, 0.9771064], [103.8226644, 0.9783388], [103.8212352, 0.9767415], [103.821037, 0.9771064]]], [[[103.7793696, 0.9789096], [103.7796891, 0.9807216], [103.7806081, 0.9785822], [103.7793696, 0.9789096]]], [[[103.8181239, 0.9822895], [103.8200169, 0.9833508], [103.8183787, 0.9783043], [103.8181239, 0.9822895]]], [[[103.8132812, 0.9846347], [103.8095932, 0.9798021], [103.8089253, 0.9874137], [103.8132812, 0.9846347]]], [[[103.8285926, 0.9972044], [103.8228714, 0.9991017], [103.8278121, 1.0059081], [103.8285926, 0.9972044]]], [[[103.8087456, 0.9998097], [103.8097635, 1.0001342], [103.8102248, 0.9980692], [103.8087456, 0.9998097]]], [[[103.766603, 1.007646], [103.7715758, 1.0084732], [103.7685346, 1.0005462], [103.766603, 1.007646]]], [[[103.8211267, 1.0063667], [103.8197266, 1.0076138], [103.8208182, 1.0085913], [103.8211267, 1.0063667]]], [[[103.7875146, 1.0380278], [103.7914038, 1.0461375], [103.7961674, 1.0272042], [103.7994879, 1.0246941], [103.7963068, 0.9973291], [103.8052922, 0.9729085], [103.7962049, 0.9690198], [103.7746882, 0.9892139], [103.7713784, 1.0102553], [103.7489605, 1.0294623], [103.7662876, 1.0309319], [103.7742001, 1.0504337], [103.7875146, 1.0380278]]], [[[103.7670946, 1.0095569], [103.7651103, 1.0097314], [103.7651604, 1.010082], [103.7670946, 1.0095569]]], [[[103.7606147, 1.0063024], [103.7549311, 1.007064], [103.7568207, 1.0174224], [103.7567845, 1.0145569], [103.7606147, 1.0063024]]], [[[103.7579024, 1.0140943], [103.7598824, 1.0149699], [103.7619786, 1.0097686], [103.7579024, 1.0140943]]], [[[103.802409, 1.0146837], [103.8025208, 1.0153421], [103.8029903, 1.0153441], [103.802409, 1.0146837]]], [[[103.8062847, 1.0178528], [103.8063356, 1.0147393], [103.8024464, 1.0203429], [103.8062847, 1.0178528]]], [[[103.7561823, 1.0171985], [103.7563848, 1.0183382], [103.7570634, 1.0179628], [103.7561823, 1.0171985]]], [[[103.7572691, 1.0181664], [103.7576272, 1.0185245], [103.7576421, 1.0181962], [103.7572691, 1.0181664]]], [[[103.7969362, 1.0279825], [103.7990697, 1.0296903], [103.7984296, 1.0269762], [103.7969362, 1.0279825]]], [[[103.8018791, 1.0256407], [103.8012649, 1.0335962], [103.8049395, 1.0314213], [103.8018791, 1.0256407]]], [[[103.8093343, 1.0358543], [103.8018349, 1.0370409], [103.8018751, 1.0391542], [103.8041939, 1.0400566], [103.8093343, 1.0358543]]], [[[103.8227253, 1.0415021], [103.827462, 1.0363678], [103.8204394, 1.0391797], [103.8227253, 1.0415021]]], [[[103.7981936, 1.0425375], [103.7991473, 1.0399328], [103.796975, 1.0408814], [103.7981936, 1.0425375]]], [[[103.8031144, 1.0416475], [103.8029487, 1.0413818], [103.8025619, 1.0415399], [103.8031144, 1.0416475]]], [[[103.7953359, 1.041659], [103.7976694, 1.0452096], [103.7957275, 1.0411816], [103.7953359, 1.041659]]], [[[103.8194366, 1.0446127], [103.8195336, 1.0460122], [103.8213433, 1.0454249], [103.8194366, 1.0446127]]], [[[103.8186537, 1.0477814], [103.8289681, 1.0541077], [103.8318025, 1.0519924], [103.8314699, 1.0447973], [103.8186537, 1.0477814]]], [[[103.8107076, 1.0560225], [103.8134623, 1.0598748], [103.8146438, 1.0573258], [103.8107076, 1.0560225]]], [[[103.8131726, 1.0627751], [103.8179415, 1.0676157], [103.8249555, 1.0594524], [103.8191351, 1.0562102], [103.8131726, 1.0627751]]], [[[103.8178155, 1.0708284], [103.8285309, 1.077345], [103.8258809, 1.0668728], [103.8178155, 1.0708284]]], [[[103.824293, 1.0860405], [103.8227347, 1.0874766], [103.8236895, 1.0880692], [103.824293, 1.0860405]]], [[[103.780455, 1.0912699], [103.7825444, 1.0918498], [103.7798797, 1.0883616], [103.780455, 1.0912699]]], [[[103.8285794, 1.093427], [103.8271213, 1.0929996], [103.828094, 1.0948987], [103.8285794, 1.093427]]], [[[103.7914681, 1.0978093], [103.7946868, 1.1084181], [103.8148034, 1.0869751], [103.7996757, 1.0863261], [103.7914681, 1.0978093]]], [[[103.7806508, 1.0970074], [103.7783521, 1.0986486], [103.7792517, 1.0992808], [103.7806508, 1.0970074]]], [[[103.823947, 1.1041247], [103.8241958, 1.1011259], [103.8228205, 1.102926], [103.823947, 1.1041247]]], [[[103.7180909, 1.1051063], [103.7179206, 1.1061025], [103.7190941, 1.1055024], [103.7180909, 1.1051063]]], [[[103.7154436, 1.116179], [103.7129357, 1.1168092], [103.7112758, 1.1173455], [103.7154436, 1.116179]]], [[[103.7026173, 1.1259376], [103.7034595, 1.1242428], [103.7020835, 1.1254147], [103.7026173, 1.1259376]]], [[[103.8264911, 1.1257593], [103.8284755, 1.1292116], [103.8288206, 1.1241469], [103.8264911, 1.1257593]]], [[[103.8299069, 1.1354871], [103.8292149, 1.1365249], [103.829923, 1.1368655], [103.8299069, 1.1354871]]], [[[103.6563143, 1.1488607], [103.6562768, 1.1529395], [103.6605199, 1.1409802], [103.6563143, 1.1488607]]], [[[103.8308273, 0.9412049], [103.8324807, 0.9418434], [103.8319334, 0.9408686], [103.8308273, 0.9412049]]], [[[103.842237, 0.9609046], [103.8496774, 0.9633934], [103.8491249, 0.9617253], [103.842237, 0.9609046]]], [[[103.8356146, 1.0291887], [103.8356441, 1.028651], [103.8346168, 1.0286953], [103.8356146, 1.0291887]]], [[[103.8505001, 1.031205], [103.849975, 1.031009], [103.8500404, 1.031303], [103.8505001, 1.031205]]], [[[103.8666334, 1.033487], [103.8666336, 1.0329519], [103.8661369, 1.033015], [103.8666334, 1.033487]]], [[[103.8639535, 1.0361776], [103.863995, 1.0336872], [103.8630616, 1.0342182], [103.8639535, 1.0361776]]], [[[103.8358882, 1.029001], [103.8328332, 1.0633007], [103.8434762, 1.075213], [103.8820571, 1.0535928], [103.8697994, 1.0481408], [103.8757136, 1.0391435], [103.8454503, 1.0396369], [103.8464373, 1.0274885], [103.8358882, 1.029001]]], [[[103.8326091, 1.0542066], [103.8324416, 1.0561339], [103.8331394, 1.0540169], [103.8326091, 1.0542066]]], [[[103.8324141, 1.0601139], [103.8330389, 1.0599157], [103.8325633, 1.059745], [103.8324141, 1.0601139]]], [[[103.8669084, 1.0666105], [103.8594433, 1.0699828], [103.8574304, 1.0825072], [103.8685866, 1.0724158], [103.8669084, 1.0666105]]], [[[103.8728785, 1.0736898], [103.8720041, 1.0736549], [103.8721007, 1.0747437], [103.8728785, 1.0736898]]], [[[103.872174, 1.0777542], [103.874997, 1.0750883], [103.8700382, 1.0761507], [103.872174, 1.0777542]]], [[[103.8726483, 1.0788017], [103.8736709, 1.0785837], [103.8729386, 1.078276], [103.8726483, 1.0788017]]], [[[103.8701636, 1.0834394], [103.8697518, 1.0765067], [103.8675308, 1.0812421], [103.8701636, 1.0834394]]], [[[103.8501656, 1.0810485], [103.850812, 1.0818718], [103.851736, 1.0805068], [103.8501656, 1.0810485]]], [[[103.866055, 1.0856879], [103.8688821, 1.0838804], [103.8682061, 1.0837034], [103.866055, 1.0856879]]], [[[103.8716839, 1.0857253], [103.869751, 1.0852065], [103.8697617, 1.0860968], [103.8716839, 1.0857253]]], [[[103.8535882, 1.0888858], [103.8521258, 1.0905188], [103.8515796, 1.0876465], [103.8535882, 1.0888858]]], [[[103.8651444, 1.0888577], [103.8649097, 1.0893551], [103.8652825, 1.0894798], [103.8651444, 1.0888577]]], [[[103.8641768, 1.0907967], [103.8648411, 1.0875193], [103.8598617, 1.0933306], [103.8641768, 1.0907967]]], [[[103.8700582, 1.0879714], [103.8627398, 1.0952294], [103.868874, 1.0983349], [103.8705423, 1.0923761], [103.8737771, 1.0915179], [103.8700582, 1.0879714]]], [[[103.8305936, 1.0963165], [103.8315191, 1.0948385], [103.8301311, 1.0948187], [103.8305936, 1.0963165]]], [[[103.8511346, 1.0964969], [103.8506454, 1.0974059], [103.8510389, 1.0973581], [103.8511346, 1.0964969]]], [[[103.8702608, 1.0957993], [103.8712317, 1.0989007], [103.872039, 1.097643], [103.8702608, 1.0957993]]], [[[103.8488135, 1.0981679], [103.8484206, 1.0985115], [103.8489187, 1.0983643], [103.8488135, 1.0981679]]], [[[103.8590142, 1.0959991], [103.8621308, 1.1008618], [103.868208, 1.1013772], [103.8676161, 1.0986299], [103.8590142, 1.0959991]]], [[[103.8721798, 1.1004172], [103.8724816, 1.1001718], [103.8722536, 1.0998192], [103.8721798, 1.1004172]]], [[[103.8471942, 1.1022474], [103.8475201, 1.102212], [103.8474328, 1.101836], [103.8471942, 1.1022474]]], [[[103.8589686, 1.1026605], [103.8593235, 1.101574], [103.8586002, 1.1022393], [103.8589686, 1.1026605]]], [[[103.8597867, 1.1026524], [103.8612565, 1.1033765], [103.860476, 1.1024057], [103.8597867, 1.1026524]]], [[[103.8575202, 1.1053502], [103.8557821, 1.1028777], [103.8561416, 1.1059831], [103.8575202, 1.1053502]]], [[[103.8447825, 1.1064405], [103.8453437, 1.1068694], [103.8455098, 1.1066649], [103.8447825, 1.1064405]]], [[[103.8604116, 1.1075868], [103.8595641, 1.1103409], [103.8624662, 1.1085576], [103.8604116, 1.1075868]]], [[[103.842757, 1.109806], [103.8434244, 1.1098417], [103.8430443, 1.1091053], [103.842757, 1.109806]]], [[[103.8439066, 1.1096703], [103.843472, 1.1097588], [103.8435337, 1.1099975], [103.8439066, 1.1096703]]], [[[103.8426414, 1.1113379], [103.8423193, 1.1111815], [103.8417237, 1.1117882], [103.8426414, 1.1113379]]], [[[103.8470033, 1.1131996], [103.847692, 1.1129547], [103.8472232, 1.1113009], [103.8470033, 1.1131996]]], [[[103.8419168, 1.1167767], [103.8413362, 1.1179537], [103.841691, 1.1179537], [103.8419168, 1.1167767]]], [[[103.8718097, 1.1194024], [103.8731816, 1.1179194], [103.8725258, 1.1171631], [103.8718097, 1.1194024]]], [[[103.8318259, 1.1216205], [103.8331403, 1.1203528], [103.8328729, 1.1194673], [103.8318259, 1.1216205]]], [[[103.8346083, 1.1207795], [103.8405512, 1.1253624], [103.836135, 1.1161092], [103.8346083, 1.1207795]]], [[[103.8442867, 1.1259734], [103.8435281, 1.1256765], [103.8435361, 1.1268414], [103.8442867, 1.1259734]]], [[[103.8513324, 1.1268856], [103.8501938, 1.1331554], [103.8546221, 1.1276486], [103.8513324, 1.1268856]]], [[[103.8697538, 1.131199], [103.8692903, 1.1303455], [103.8686764, 1.1309796], [103.8697538, 1.131199]]], [[[103.8735759, 1.1327196], [103.8726291, 1.129153], [103.8713846, 1.1303088], [103.8735759, 1.1327196]]], [[[103.8712607, 1.1331788], [103.8712056, 1.1324561], [103.8708476, 1.1326316], [103.8712607, 1.1331788]]], [[[103.8407559, 1.1331917], [103.8409733, 1.1327304], [103.8406153, 1.1328333], [103.8407559, 1.1331917]]], [[[103.8354993, 1.1326097], [103.835274, 1.1335992], [103.8359743, 1.1325764], [103.8354993, 1.1326097]]], [[[103.849644, 1.1339562], [103.8491806, 1.1347112], [103.8497799, 1.1344853], [103.849644, 1.1339562]]], [[[103.8405298, 1.1345733], [103.8360733, 1.1367341], [103.8373876, 1.1383968], [103.8405298, 1.1345733]]], [[[103.8358024, 1.1407808], [103.8360518, 1.1390591], [103.8338122, 1.1395928], [103.8358024, 1.1407808]]], [[[103.8340356, 1.142876], [103.8343021, 1.1422517], [103.8338973, 1.1424694], [103.8340356, 1.142876]]], [[[103.8314917, 1.1450991], [103.8301981, 1.1451847], [103.8301667, 1.1459411], [103.8314917, 1.1450991]]], [[[103.8764271, 1.1468574], [103.8699871, 1.1470318], [103.8692039, 1.1527357], [103.8735545, 1.1553262], [103.8764271, 1.1468574]]], [[[103.8649513, 1.155003], [103.8642284, 1.1586675], [103.867659, 1.1615744], [103.8649513, 1.155003]]], [[[103.8659196, 1.1635347], [103.8662173, 1.1644344], [103.8663755, 1.1641756], [103.8659196, 1.1635347]]], [[[103.9531329, 0.8947056], [103.950727, 0.8942645], [103.9519125, 0.8956939], [103.9531329, 0.8947056]]], [[[103.9515974, 0.9003523], [103.9580534, 0.9039715], [103.9597379, 0.8934599], [103.9556663, 0.8943691], [103.9515974, 0.9003523]]], [[[103.951124, 0.8999796], [103.9508879, 0.900414], [103.9512849, 0.900402], [103.951124, 0.8999796]]], [[[103.9380348, 0.9063343], [103.9426723, 0.9065998], [103.9399123, 0.9025501], [103.9380348, 0.9063343]]], [[[103.9656079, 0.9097563], [103.9468485, 0.9013192], [103.9474654, 0.9241151], [103.9646191, 0.9187983], [103.9656079, 0.9097563]]], [[[103.9023292, 0.9163698], [103.9054406, 0.9181935], [103.9029662, 0.915289], [103.9023292, 0.9163698]]], [[[103.9448905, 0.9214788], [103.9457971, 0.9173219], [103.9439946, 0.9200762], [103.9448905, 0.9214788]]], [[[103.9461109, 0.9231871], [103.9464784, 0.9207735], [103.945199, 0.9217255], [103.9461109, 0.9231871]]], [[[103.9538115, 0.926164], [103.9481896, 0.9269149], [103.9545411, 0.9280788], [103.9538115, 0.926164]]], [[[103.8900688, 0.9402625], [103.8929133, 0.9351254], [103.8871747, 0.9365106], [103.8900688, 0.9402625]]], [[[103.9438542, 0.9097762], [103.8332114, 0.9787357], [103.8340031, 1.017415], [103.8590942, 1.00692], [103.8479014, 1.022429], [103.8545021, 1.0229175], [103.8529863, 1.0333023], [103.8673893, 1.0319281], [103.867759, 1.0378361], [103.8837727, 1.0278125], [103.8748464, 1.018761], [103.8777498, 1.0121503], [103.8840935, 1.0151149], [103.9001693, 0.9993825], [103.9222667, 1.0089791], [103.9276007, 0.9987245], [103.9378402, 0.9973992], [103.9677248, 0.9654319], [103.9656142, 0.9611853], [103.9649736, 0.9435571], [103.961668, 0.9347139], [103.9426982, 0.9255437], [103.9438542, 0.9097762]]], [[[103.942396, 0.999095], [103.9713585, 0.9857383], [103.978225, 0.9811899], [103.9754891, 0.9743245], [103.942396, 0.999095]]], [[[103.9287007, 1.0057875], [103.9337325, 0.9991527], [103.9294249, 0.9991044], [103.9287007, 1.0057875]]], [[[103.9604849, 1.0023387], [103.9604312, 1.0027088], [103.9605653, 1.0026551], [103.9604849, 1.0023387]]], [[[103.9547932, 1.0034181], [103.9538732, 1.0050888], [103.9556341, 1.0033242], [103.9547932, 1.0034181]]], [[[103.9256993, 1.0183731], [103.9271235, 1.0186171], [103.9309993, 1.0135861], [103.9256993, 1.0183731]]], [[[103.8849673, 1.0168069], [103.8876387, 1.0206177], [103.8904899, 1.0103599], [103.8849673, 1.0168069]]], [[[103.9257556, 1.0192393], [103.9245124, 1.0210307], [103.9259729, 1.0192259], [103.9257556, 1.0192393]]], [[[103.9013904, 1.0035026], [103.8847795, 1.0302145], [103.8948002, 1.0304733], [103.8957135, 1.0391367], [103.9196616, 1.0125214], [103.9013904, 1.0035026]]], [[[103.9121059, 1.0249756], [103.9153299, 1.0213311], [103.9117545, 1.0231199], [103.9121059, 1.0249756]]], [[[103.9223814, 1.0240156], [103.9188422, 1.0235731], [103.9184949, 1.0258204], [103.9223814, 1.0240156]]], [[[103.9172906, 1.028824], [103.9167327, 1.0299664], [103.9173764, 1.0299074], [103.9172906, 1.028824]]], [[[103.8900849, 1.0406466], [103.8826887, 1.0328299], [103.8758826, 1.0456172], [103.8835725, 1.0366816], [103.8900849, 1.0406466]]], [[[103.8903022, 1.051324], [103.8911712, 1.050069], [103.8906455, 1.0497686], [103.8903022, 1.051324]]], [[[103.9008835, 1.0397683], [103.8926049, 1.059797], [103.8947251, 1.0650781], [103.9008835, 1.0397683]]], [[[103.8728356, 1.0721505], [103.8758855, 1.0716508], [103.8727686, 1.06934], [103.8728356, 1.0721505]]], [[[103.8802227, 1.0768951], [103.8799273, 1.0777234], [103.8804753, 1.0775715], [103.8802227, 1.0768951]]], [[[103.8866776, 1.0868474], [103.8871036, 1.086453], [103.8864094, 1.0862322], [103.8866776, 1.0868474]]], [[[103.8854311, 1.0888668], [103.8859518, 1.0881568], [103.8856047, 1.087936], [103.8854311, 1.0888668]]], [[[103.8852357, 1.09016], [103.8846332, 1.0893345], [103.8839191, 1.0900708], [103.8852357, 1.09016]]], [[[103.8830935, 1.0969201], [103.8833836, 1.092815], [103.8817546, 1.096697], [103.8830935, 1.0969201]]], [[[103.9154237, 1.1012365], [103.9140397, 1.1013062], [103.9146835, 1.1024164], [103.9154237, 1.1012365]]], [[[103.8729429, 1.1028616], [103.8747051, 1.1030654], [103.8721502, 1.1021724], [103.8729429, 1.1028616]]], [[[103.9185351, 1.1028616], [103.9197904, 1.1038378], [103.9199191, 1.1030976], [103.9185351, 1.1028616]]], [[[103.9215533, 1.1029568], [103.9236092, 1.104842], [103.9240108, 1.1020169], [103.9215533, 1.1029568]]], [[[103.878579, 1.1053009], [103.8795257, 1.1050011], [103.8785947, 1.104654], [103.878579, 1.1053009]]], [[[103.8772851, 1.1069573], [103.8782792, 1.1068469], [103.8766855, 1.1058215], [103.8772851, 1.1069573]]], [[[103.9055854, 1.0977663], [103.8955378, 1.1027383], [103.903657, 1.1144395], [103.9110303, 1.1101344], [103.9141524, 1.1181581], [103.9116901, 1.1203785], [103.9106441, 1.1221001], [103.9051496, 1.1173443], [103.9128684, 1.1276272], [103.9181811, 1.1165383], [103.9118457, 1.1077906], [103.9194095, 1.1114645], [103.9206755, 1.1060636], [103.9055854, 1.0977663]]], [[[103.9067452, 1.1147401], [103.9095914, 1.1154916], [103.9066492, 1.1141223], [103.9067452, 1.1147401]]], [[[103.9049051, 1.1162454], [103.9056559, 1.1169844], [103.9058621, 1.1153811], [103.9049051, 1.1162454]]], [[[103.8753623, 1.1191101], [103.880555, 1.1164579], [103.8753864, 1.1177558], [103.8753623, 1.1191101]]], [[[103.9081389, 1.1181044], [103.9082301, 1.1188338], [103.9102739, 1.1181688], [103.9081389, 1.1181044]]], [[[103.8885748, 1.1186253], [103.8861877, 1.1201023], [103.888941, 1.1212273], [103.8885748, 1.1186253]]], [[[103.8835283, 1.1220532], [103.8807079, 1.1265276], [103.8852972, 1.1264861], [103.8835283, 1.1220532]]], [[[103.89373, 1.1255434], [103.8895632, 1.127125], [103.8932714, 1.130518], [103.89373, 1.1255434]]], [[[103.8760583, 1.1303557], [103.8780686, 1.1248221], [103.8736054, 1.1246263], [103.8760583, 1.1303557]]], [[[103.8804115, 1.1330924], [103.8812739, 1.1324541], [103.880775, 1.1319942], [103.8804115, 1.1330924]]], [[[103.8800776, 1.1328792], [103.8799489, 1.1328993], [103.8800132, 1.133028], [103.8800776, 1.1328792]]], [[[103.8780995, 1.1349588], [103.8756157, 1.1362648], [103.8772801, 1.1369862], [103.8780995, 1.1349588]]], [[[103.8845783, 1.1542133], [103.8946366, 1.1521765], [103.8907702, 1.1437789], [103.8745147, 1.1437306], [103.8845783, 1.1542133]]], [[[103.905222, 1.1509101], [103.9067111, 1.1499387], [103.9061267, 1.1496821], [103.905222, 1.1509101]]], [[[103.8751504, 1.1589088], [103.8825969, 1.1600515], [103.8763439, 1.1552604], [103.8751504, 1.1589088]]], [[[103.9051911, 1.1561856], [103.8999635, 1.1560113], [103.8957122, 1.1664497], [103.8985044, 1.1652027], [103.9051911, 1.1561856]]], [[[103.8905929, 1.170604], [103.889232, 1.1722072], [103.8925981, 1.1690455], [103.8905929, 1.170604]]], [[[103.8871337, 1.1750331], [103.8871125, 1.1752513], [103.8871696, 1.1754025], [103.8871337, 1.1750331]]], [[[103.8832046, 1.1848565], [103.8827996, 1.1846286], [103.8827701, 1.1850577], [103.8832046, 1.1848565]]], [[[104.0750023, 0.6319492], [104.0751722, 0.6309866], [104.074436, 0.6322748], [104.0750023, 0.6319492]]], [[[104.032895, 0.6331335], [104.0361609, 0.6322585], [104.0335728, 0.6304963], [104.032895, 0.6331335]]], [[[104.0738839, 0.6328835], [104.0735724, 0.6336338], [104.0738414, 0.6337612], [104.0738839, 0.6328835]]], [[[104.0416698, 0.6331581], [104.0365306, 0.6336141], [104.0399444, 0.6379026], [104.0416698, 0.6331581]]], [[[104.0787153, 0.6371805], [104.0775512, 0.6383887], [104.0787676, 0.6381138], [104.0787153, 0.6371805]]], [[[104.0373764, 0.88924], [104.0369238, 0.8855229], [104.0309535, 0.8879222], [104.0373764, 0.88924]]], [[[104.0445721, 0.9160453], [104.0567493, 0.9167507], [104.0513956, 0.9007774], [104.0355599, 0.8926031], [104.0324968, 0.9009088], [104.0445721, 0.9160453]]], [[[104.0289482, 0.9184105], [104.0290979, 0.9181655], [104.0283732, 0.9185874], [104.0289482, 0.9184105]]], [[[104.0327291, 0.9199146], [104.0322365, 0.9198771], [104.0322797, 0.9202948], [104.0327291, 0.9199146]]], [[[103.964991, 0.9197007], [103.9665091, 0.9217067], [103.9679146, 0.919454], [103.964991, 0.9197007]]], [[[103.9678448, 0.9236404], [103.9700764, 0.9229753], [103.9675391, 0.9232394], [103.9678448, 0.9236404]]], [[[104.0283765, 0.9241394], [104.0277415, 0.9242439], [104.0280027, 0.9245774], [104.0283765, 0.9241394]]], [[[104.038278, 0.9266859], [104.0372625, 0.9242952], [104.0366532, 0.9258367], [104.038278, 0.9266859]]], [[[103.965795, 0.9335093], [103.9609194, 0.9323349], [103.9641917, 0.934522], [103.965795, 0.9335093]]], [[[104.0405903, 0.9342768], [104.0404147, 0.9347229], [104.041231, 0.9348178], [104.0405903, 0.9342768]]], [[[103.9808214, 0.9369236], [103.982259, 0.9409142], [103.9821517, 0.9344992], [103.9808214, 0.9369236]]], [[[104.0126163, 0.9392461], [104.0068359, 0.9429451], [104.0077025, 0.944245], [104.0126163, 0.9392461]]], [[[104.0796903, 0.9492333], [104.0734166, 0.9426198], [104.0798593, 0.9353004], [104.0704232, 0.9156591], [104.0550086, 0.9326675], [104.0464497, 0.9301546], [104.0451327, 0.9626156], [104.0589595, 0.9684674], [104.0575379, 0.9728924], [104.063487, 0.9640638], [104.0609175, 0.9575791], [104.068948, 0.9625781], [104.0796903, 0.9492333]]], [[[104.0333111, 0.9536757], [104.0336049, 0.9536735], [104.0335165, 0.9528408], [104.0333111, 0.9536757]]], [[[104.036129, 0.953466], [104.0362394, 0.954038], [104.0364294, 0.9540159], [104.036129, 0.953466]]], [[[103.9800918, 0.9531729], [103.977989, 0.9516469], [103.9761275, 0.9586465], [103.9800918, 0.9531729]]], [[[104.0212396, 0.9599928], [104.029714, 0.9577521], [104.0280832, 0.9519754], [104.0212396, 0.9599928]]], [[[103.9744538, 0.9538514], [103.966155, 0.9608403], [103.9686602, 0.9656193], [103.9744538, 0.9538514]]], [[[103.9920437, 0.9574075], [103.9949405, 0.9659357], [103.9978373, 0.9513626], [103.9920437, 0.9574075]]], [[[103.9776081, 0.9621329], [103.9820498, 0.959907], [103.9799201, 0.9572841], [103.9776081, 0.9621329]]], [[[103.9911479, 0.9456747], [103.9803918, 0.9658494], [103.9826186, 0.9759306], [103.9926875, 0.9628058], [103.9913024, 0.9553312], [103.9954774, 0.9489664], [103.9911479, 0.9456747]]], [[[104.0408143, 0.961378], [104.0401103, 0.9605466], [104.0404992, 0.9630816], [104.0408143, 0.961378]]], [[[104.0701175, 0.9655764], [104.0756589, 0.9612097], [104.0716068, 0.9623883], [104.0701175, 0.9655764]]], [[[104.040424, 0.9644537], [104.0406905, 0.9646709], [104.0411842, 0.9638318], [104.040424, 0.9644537]]], [[[104.0333524, 0.9677084], [104.0360682, 0.9682072], [104.034776, 0.9630226], [104.0333524, 0.9677084]]], [[[104.0455657, 0.966959], [104.0453357, 0.9673801], [104.0456755, 0.9669731], [104.0455657, 0.966959]]], [[[103.9772165, 0.9641201], [103.9767364, 0.9705243], [103.9792442, 0.9651553], [103.9772165, 0.9641201]]], [[[104.0200943, 0.9684875], [104.0263465, 0.9692659], [104.0260166, 0.9663836], [104.0200943, 0.9684875]]], [[[104.0466494, 0.9691221], [104.0470376, 0.9695433], [104.0479917, 0.968701], [104.0466494, 0.9691221]]], [[[104.0196544, 0.974126], [104.0186056, 0.9712618], [104.0181524, 0.9727288], [104.0196544, 0.974126]]], [[[104.0485793, 0.9704573], [104.0566944, 0.9759952], [104.0573153, 0.9690279], [104.0485793, 0.9704573]]], [[[104.0302505, 0.973469], [104.0288919, 0.9751532], [104.0309009, 0.9740201], [104.0302505, 0.973469]]], [[[104.0398742, 0.978665], [104.0476607, 0.9771431], [104.0399721, 0.9739155], [104.0398742, 0.978665]]], [[[104.0785839, 0.9755005], [104.0716732, 0.9788246], [104.069581, 0.9816914], [104.076414, 0.9825617], [104.0785839, 0.9755005]]], [[[104.0799041, 0.9794125], [104.080754, 0.9794732], [104.0801703, 0.979123], [104.0799041, 0.9794125]]], [[[103.9879882, 0.9828205], [103.9871353, 0.982858], [103.9872909, 0.9832764], [103.9879882, 0.9828205]]], [[[103.9846314, 0.9823149], [103.9799792, 0.9866233], [103.9866827, 0.9841205], [103.9846314, 0.9823149]]], [[[104.0686503, 0.9840032], [104.0733254, 0.9887661], [104.0751426, 0.9853427], [104.0686503, 0.9840032]]], [[[103.9741534, 0.9851858], [103.977187, 0.9868365], [103.9781539, 0.9837926], [103.9741534, 0.9851858]]], [[[103.9709538, 0.9894558], [103.9684711, 0.989888], [103.968369, 0.9904066], [103.9709538, 0.9894558]]], [[[104.0534518, 0.9927996], [104.0544747, 0.9929968], [104.0544377, 0.9922883], [104.0534518, 0.9927996]]], [[[103.962227, 0.9942624], [103.9647241, 0.9931883], [103.9662053, 0.992182], [103.962227, 0.9942624]]], [[[103.9784396, 0.9979217], [103.9705968, 0.9977501], [103.9773238, 1.0006062], [103.9784396, 0.9979217]]], [[[103.9672574, 1.0034328], [103.9666405, 1.0008556], [103.9610977, 1.0024553], [103.9672574, 1.0034328]]], [[[103.9678623, 1.0034234], [103.9718038, 1.0021979], [103.96735, 1.0012861], [103.9678623, 1.0034234]]], [[[103.968856, 1.0052162], [103.9729089, 1.0073214], [103.9707792, 1.004755], [103.968856, 1.0052162]]], [[[103.9935297, 1.0019806], [103.9814651, 1.0055179], [103.9926848, 1.0115962], [103.9935297, 1.0019806]]], [[[104.0823886, 1.0198695], [104.08539, 1.0258338], [104.0884718, 1.0189175], [104.0823886, 1.0198695]]], [[[104.0669686, 0.9835955], [104.0522384, 0.9962865], [104.0341195, 0.9802245], [104.0208721, 0.9886132], [104.0087056, 0.9858563], [104.0045321, 1.0023977], [103.9888197, 1.0178689], [103.9811647, 1.0081823], [103.9419293, 1.0079758], [103.933711, 1.0235302], [103.9105743, 1.038532], [103.9083159, 1.0668299], [103.8895404, 1.0933308], [103.9116418, 1.0981686], [103.9159119, 1.0876634], [103.9091313, 1.0878923], [103.9237279, 1.0826307], [103.9236689, 1.0712065], [103.9372849, 1.0837877], [103.9294977, 1.1115781], [103.9401286, 1.1119905], [103.9244226, 1.1255595], [103.9207305, 1.1433786], [103.9452714, 1.1342991], [103.945899, 1.1448194], [103.9538598, 1.1365732], [103.9622095, 1.1423066], [103.9661765, 1.1257097], [103.9780346, 1.1375949], [103.9807141, 1.1289975], [103.988471, 1.1333766], [103.985998, 1.1283404], [103.9879458, 1.1239985], [103.9884791, 1.1309202], [104.0001739, 1.120312], [104.0039373, 1.1261249], [103.9983497, 1.1227356], [103.9901099, 1.1392522], [103.9851169, 1.1425641], [103.9847615, 1.1440471], [104.0011632, 1.1482693], [103.9937441, 1.1578374], [104.0020683, 1.1676675], [103.9928618, 1.1679997], [104.0029791, 1.1702308], [103.9981911, 1.1776515], [104.0137696, 1.1919977], [104.0250349, 1.1906863], [104.0253514, 1.1768625], [104.0412285, 1.1777], [104.0483327, 1.1646225], [104.058015, 1.163355], [104.0504299, 1.1487472], [104.0531485, 1.1328224], [104.0624464, 1.1367261], [104.0612461, 1.1311602], [104.0723115, 1.1290779], [104.0699243, 1.1336207], [104.0737545, 1.1311482], [104.0750205, 1.1208237], [104.0848336, 1.128214], [104.0790117, 1.1445941], [104.0882071, 1.1403764], [104.0942884, 1.1566968], [104.0707864, 1.1616258], [104.0718321, 1.1869512], [104.0980232, 1.1996054], [104.1439663, 1.1629854], [104.1464558, 1.1272678], [104.1558867, 1.1271396], [104.1558677, 1.1195204], [104.1358769, 1.0928134], [104.13993, 1.0498973], [104.132828, 1.0343083], [104.1197625, 1.0311142], [104.1159189, 1.0391059], [104.1098093, 1.0332647], [104.1057131, 1.0434691], [104.0994287, 1.0415852], [104.100472, 1.0289876], [104.0870476, 1.0289527], [104.0793845, 1.0244366], [104.0825254, 1.0086355], [104.096269, 0.9859354], [104.1008221, 0.9826462], [104.0840945, 0.9851483], [104.0715337, 0.9990025], [104.0669686, 0.9835955]]], [[[103.9739388, 1.1441275], [103.9773627, 1.1467394], [103.9751619, 1.1427035], [103.9739388, 1.1441275]]], [[[104.0770378, 1.2032023], [104.0775847, 1.201062], [104.0785369, 1.2047218], [104.0770378, 1.2032023]]], [[[104.1925442, 0.5705501], [104.1985685, 0.5425143], [104.185144, 0.5862308], [104.1940516, 0.6083431], [104.2003843, 0.608449], [104.2021197, 0.5948711], [104.2160779, 0.5926772], [104.2293978, 0.5712903], [104.2072642, 0.5753993], [104.1976082, 0.5612272], [104.1925442, 0.5705501]]], [[[104.1766468, 0.582555], [104.1811676, 0.5848348], [104.1775896, 0.5817021], [104.1766468, 0.582555]]], [[[104.0983823, 0.6046745], [104.0986088, 0.6018433], [104.098085, 0.6022255], [104.0983823, 0.6046745]]], [[[104.1004238, 0.6079984], [104.1022316, 0.6091504], [104.1036156, 0.6075183], [104.1004238, 0.6079984]]], [[[104.102, 0.62625], [104.0905, 0.617], [104.0835, 0.60275], [104.07875, 0.64025], [104.08875, 0.642], [104.102, 0.62625]]], [[[104.2077899, 0.7144469], [104.2082351, 0.714361], [104.2081118, 0.7142538], [104.2077899, 0.7144469]]], [[[104.1921049, 0.7243833], [104.1918474, 0.7237397], [104.1916328, 0.724437], [104.1921049, 0.7243833]]], [[[104.1866594, 0.7357741], [104.1879469, 0.7354522], [104.1871208, 0.7354308], [104.1866594, 0.7357741]]], [[[104.1829746, 0.7380347], [104.1810863, 0.7375197], [104.1822451, 0.7394937], [104.1829746, 0.7380347]]], [[[104.1803568, 0.7387856], [104.180507, 0.7405665], [104.1811722, 0.7402232], [104.1803568, 0.7387856]]], [[[104.1797025, 0.7431381], [104.1794188, 0.7416691], [104.1786759, 0.7423141], [104.1797025, 0.7431381]]], [[[104.1852486, 0.776921], [104.1841704, 0.7789807], [104.1860908, 0.7780259], [104.1852486, 0.776921]]], [[[104.1806352, 0.7794044], [104.1782615, 0.7816922], [104.1787999, 0.7820214], [104.1806352, 0.7794044]]], [[[104.1889836, 0.7842615], [104.1885933, 0.7833764], [104.1867185, 0.784822], [104.1889836, 0.7842615]]], [[[104.2052297, 0.7986421], [104.2022699, 0.8021233], [104.204995, 0.801906], [104.2052297, 0.7986421]]], [[[104.147585, 0.8131782], [104.1504282, 0.7895986], [104.1426444, 0.8196873], [104.147585, 0.8131782]]], [[[104.1172966, 0.9558326], [104.1259754, 0.9526177], [104.1235642, 0.9365516], [104.1399047, 0.9430888], [104.1541444, 0.9273376], [104.1568758, 0.9082392], [104.1492683, 0.8941394], [104.1647345, 0.9049476], [104.1698922, 0.8985853], [104.166963, 0.867073], [104.1808747, 0.8781572], [104.1825929, 0.8678645], [104.2006763, 0.8803185], [104.2240087, 0.8800294], [104.239109, 0.8695217], [104.2371505, 0.8604748], [104.2559689, 0.866403], [104.2658334, 0.8597388], [104.2587491, 0.837596], [104.243128, 0.832017], [104.2451146, 0.8199367], [104.2138296, 0.8031665], [104.2021799, 0.8060421], [104.1811022, 0.7828481], [104.1682316, 0.7865878], [104.1444099, 0.8566612], [104.130369, 0.8651869], [104.120754, 0.8618998], [104.1163665, 0.8776335], [104.0993138, 0.8795037], [104.0919301, 0.8703964], [104.094514, 0.9264125], [104.0779906, 0.9438954], [104.0839451, 0.9517785], [104.0776128, 0.9599946], [104.088587, 0.9531451], [104.1049747, 0.9611496], [104.1105429, 0.9537982], [104.1196456, 0.962304], [104.1172966, 0.9558326]]], [[[104.1845693, 0.8847703], [104.1848741, 0.877274], [104.1803439, 0.8801849], [104.1845693, 0.8847703]]], [[[104.2122585, 0.9221787], [104.2064595, 0.9046769], [104.1935956, 0.9016088], [104.2043459, 0.9225488], [104.2122585, 0.9221787]]], [[[104.1709095, 0.9380607], [104.1895348, 0.9314097], [104.1884619, 0.9189337], [104.1614145, 0.9103678], [104.1582173, 0.9253702], [104.1709095, 0.9380607]]], [[[104.1877485, 0.9353735], [104.1848839, 0.9355451], [104.1883493, 0.9379695], [104.1877485, 0.9353735]]], [[[104.2056323, 0.942814], [104.2026926, 0.9460536], [104.2052997, 0.9476091], [104.2056323, 0.942814]]], [[[104.1975492, 0.9485212], [104.1541457, 0.9334265], [104.1420355, 0.954436], [104.14902, 0.9579224], [104.1566402, 0.957606], [104.1686887, 0.9610682], [104.1975492, 0.9485212]]], [[[104.0862925, 0.9612988], [104.0881332, 0.9575248], [104.0841494, 0.9600437], [104.0862925, 0.9612988]]], [[[104.0988405, 0.9664976], [104.0980884, 0.9609564], [104.09624, 0.9644614], [104.0988405, 0.9664976]]], [[[104.0928116, 0.9695817], [104.0915658, 0.9576623], [104.082634, 0.9723232], [104.0928116, 0.9695817]]], [[[104.1736239, 0.9675073], [104.1564202, 0.9577213], [104.1426551, 0.9736433], [104.172323, 0.9736661], [104.1736239, 0.9675073]]], [[[104.0896332, 0.9716185], [104.0916985, 0.9740925], [104.0926212, 0.9721173], [104.0896332, 0.9716185]]], [[[104.0870289, 0.9726409], [104.0874949, 0.9740084], [104.0883994, 0.9730448], [104.0870289, 0.9726409]]], [[[104.1129443, 0.981619], [104.113521, 0.9743111], [104.1206932, 0.9654503], [104.1032454, 0.9742252], [104.1129443, 0.981619]]], [[[104.1747022, 0.9756412], [104.1762853, 0.9729071], [104.1741738, 0.9732812], [104.1747022, 0.9756412]]], [[[104.1004871, 0.987379], [104.095897, 0.9894334], [104.0965022, 0.9905843], [104.1004871, 0.987379]]], [[[104.1274068, 0.9953231], [104.1163427, 0.9868512], [104.115892, 0.9964012], [104.1274068, 0.9953231]]], [[[104.1385862, 0.9992144], [104.1486391, 0.9902303], [104.1455546, 0.9848479], [104.1385862, 0.9992144]]], [[[104.1350412, 0.9999785], [104.1345041, 0.999647], [104.1342753, 1.0001045], [104.1350412, 0.9999785]]], [[[104.132106, 1.0075628], [104.1292387, 1.0027463], [104.1292173, 1.0061441], [104.132106, 1.0075628]]], [[[104.1367221, 1.0103304], [104.1355365, 1.0090083], [104.1364726, 1.0105798], [104.1367221, 1.0103304]]], [[[104.1414119, 1.0104578], [104.1393641, 1.0077519], [104.1412389, 1.0113656], [104.1414119, 1.0104578]]], [[[104.1444859, 1.0105079], [104.1471653, 1.0097418], [104.1459918, 1.0090861], [104.1444859, 1.0105079]]], [[[104.1719556, 0.9963422], [104.1547251, 0.9996622], [104.1531157, 1.0122613], [104.1653681, 1.0136397], [104.1778082, 1.0280999], [104.1838109, 1.0145569], [104.1719556, 0.9963422]]], [[[104.1145617, 1.0183221], [104.1082451, 1.0050097], [104.0999222, 1.0049373], [104.1012043, 1.0137189], [104.1145617, 1.0183221]]], [[[104.0952176, 1.0065142], [104.0979642, 1.0237769], [104.1042781, 1.0217495], [104.0952176, 1.0065142]]], [[[104.1415796, 1.0195906], [104.1404986, 1.0140393], [104.1383851, 1.014569], [104.1415796, 1.0195906]]], [[[104.121176, 1.0196469], [104.1183664, 1.0167654], [104.1194031, 1.0225218], [104.121176, 1.0196469]]], [[[104.1403498, 1.0191454], [104.1400963, 1.0190932], [104.1402224, 1.0205856], [104.1403498, 1.0191454]]], [[[104.1446078, 1.0209463], [104.1413442, 1.0202188], [104.1426659, 1.0219023], [104.1446078, 1.0209463]]], [[[104.1531278, 1.0185648], [104.1536884, 1.0230649], [104.1567475, 1.0221236], [104.1531278, 1.0185648]]], [[[104.087289, 1.022857], [104.0903574, 1.0206151], [104.0882412, 1.0201189], [104.087289, 1.022857]]], [[[104.1418853, 1.0265257], [104.1418438, 1.0246552], [104.1409452, 1.02622], [104.1418853, 1.0265257]]], [[[104.12911, 1.0296433], [104.138428, 1.0308729], [104.1292863, 1.0262186], [104.12911, 1.0296433]]], [[[104.111909, 1.0306825], [104.1161334, 1.0357296], [104.1176046, 1.0319831], [104.111909, 1.0306825]]], [[[104.1510706, 1.0339569], [104.1524948, 1.0334004], [104.1514809, 1.0323572], [104.1510706, 1.0339569]]], [[[104.1563451, 1.0353568], [104.1562915, 1.0346595], [104.1560125, 1.0349384], [104.1563451, 1.0353568]]], [[[104.176419, 1.062373], [104.1839182, 1.0508145], [104.1808873, 1.0355351], [104.168116, 1.0222603], [104.1609921, 1.0296272], [104.1635764, 1.0407793], [104.1549537, 1.0417186], [104.1655451, 1.0478793], [104.1661298, 1.0662453], [104.182363, 1.068358], [104.176419, 1.062373]]], [[[104.145399, 1.1620799], [104.1450168, 1.1620638], [104.1455439, 1.1623239], [104.145399, 1.1620799]]], [[[104.1462895, 1.1623186], [104.1458832, 1.1623105], [104.1459288, 1.1623896], [104.1462895, 1.1623186]]], [[[104.301002, 0.4625473], [104.301753, 0.464575], [104.3036789, 0.4630354], [104.301002, 0.4625473]]], [[[104.2993176, 0.4648003], [104.3004602, 0.4649719], [104.299913, 0.4641244], [104.2993176, 0.4648003]]], [[[104.3049878, 0.4656907], [104.3056744, 0.4656854], [104.3056959, 0.4654493], [104.3049878, 0.4656907]]], [[[104.2776673, 0.4765074], [104.2776781, 0.4762392], [104.277206, 0.4767005], [104.2776673, 0.4765074]]], [[[104.2764442, 0.4786477], [104.2766374, 0.4784761], [104.2765944, 0.4780898], [104.2764442, 0.4786477]]], [[[104.2762082, 0.4799995], [104.2749422, 0.4796347], [104.2759078, 0.4803643], [104.2762082, 0.4799995]]], [[[104.2743628, 0.4822954], [104.2753499, 0.4821023], [104.275028, 0.4815873], [104.2743628, 0.4822954]]], [[[104.2581832, 0.498198], [104.2624104, 0.5041522], [104.2741477, 0.4841276], [104.2659241, 0.4959235], [104.2581832, 0.498198]]], [[[104.295482, 0.4750191], [104.2821595, 0.527052], [104.291212, 0.5187536], [104.295482, 0.4750191]]], [[[104.2494934, 0.5063432], [104.2499226, 0.5056351], [104.2489784, 0.505839], [104.2494934, 0.5063432]]], [[[104.248442, 0.5067294], [104.2486887, 0.506826], [104.248678, 0.5065792], [104.248442, 0.5067294]]], [[[104.2485385, 0.5073838], [104.248045, 0.5070727], [104.2479377, 0.5073195], [104.2485385, 0.5073838]]], [[[104.2371445, 0.5220388], [104.237005, 0.5229722], [104.2376273, 0.5217706], [104.2371445, 0.5220388]]], [[[104.2357176, 0.5249355], [104.2362862, 0.5246995], [104.2362111, 0.5242596], [104.2357176, 0.5249355]]], [[[104.3037164, 0.5307721], [104.3032859, 0.5311046], [104.3060285, 0.5321507], [104.3037164, 0.5307721]]], [[[104.2215416, 0.5562117], [104.2403251, 0.532333], [104.2294192, 0.5381559], [104.2251156, 0.5325181], [104.2215416, 0.5562117]]], [[[104.2404123, 0.5558939], [104.2313598, 0.5567132], [104.2350492, 0.5624824], [104.2404123, 0.5558939]]], [[[104.2066915, 0.566193], [104.2203225, 0.5602905], [104.2114095, 0.5564651], [104.2066915, 0.566193]]], [[[104.2135298, 0.5703892], [104.2078033, 0.5701612], [104.2073876, 0.5737444], [104.2135298, 0.5703892]]], [[[104.3076834, 0.598111], [104.3078698, 0.596019], [104.3075024, 0.5961022], [104.3076834, 0.598111]]], [[[104.2973547, 0.6158418], [104.2973547, 0.6164426], [104.2983632, 0.6151337], [104.2973547, 0.6158418]]], [[[104.2962384, 0.618956], [104.2927274, 0.6237515], [104.2963766, 0.6215415], [104.2962384, 0.618956]]], [[[104.2908014, 0.6316613], [104.2888077, 0.6297842], [104.288807, 0.6308119], [104.2908014, 0.6316613]]], [[[104.2624416, 0.6342052], [104.2579552, 0.6328551], [104.2603091, 0.636989], [104.2624416, 0.6342052]]], [[[104.2436577, 0.6350872], [104.2427659, 0.6357134], [104.2443162, 0.6364885], [104.2436577, 0.6350872]]], [[[104.2554339, 0.6420627], [104.2558533, 0.6425386], [104.2562046, 0.6414181], [104.2554339, 0.6420627]]], [[[104.2401347, 0.6472864], [104.250142, 0.6369606], [104.2429657, 0.636927], [104.2401347, 0.6472864]]], [[[104.2343062, 0.6519853], [104.2358632, 0.6572542], [104.2399563, 0.6474661], [104.2343062, 0.6519853]]], [[[104.2429174, 0.6520752], [104.2423207, 0.6528919], [104.2442894, 0.6533103], [104.2429174, 0.6520752]]], [[[104.2411244, 0.655653], [104.2420511, 0.6551622], [104.2410909, 0.6555069], [104.2411244, 0.655653]]], [[[104.2395907, 0.658969], [104.239183, 0.6598487], [104.2403632, 0.6601277], [104.2395907, 0.658969]]], [[[104.2628574, 0.6374449], [104.2121211, 0.6984511], [104.211662, 0.7187763], [104.2418737, 0.6889031], [104.2611227, 0.6763155], [104.2602611, 0.6884027], [104.2813657, 0.6685123], [104.2887321, 0.610818], [104.2732118, 0.6248254], [104.2639265, 0.6219036], [104.2628574, 0.6374449]]], [[[104.2210124, 0.6684315], [104.227248, 0.6661103], [104.2275913, 0.6645976], [104.2210124, 0.6684315]]], [[[104.3057501, 0.6726926], [104.3073206, 0.6706636], [104.3048478, 0.6691876], [104.3057501, 0.6726926]]], [[[104.3024947, 0.6727884], [104.3041166, 0.6724378], [104.3026154, 0.6719773], [104.3024947, 0.6727884]]], [[[104.3181663, 0.68652], [104.3266775, 0.6787324], [104.3291161, 0.6598677], [104.3081703, 0.6688371], [104.3181663, 0.68652]]], [[[104.342469, 0.6718136], [104.3307283, 0.6734268], [104.3338953, 0.6788298], [104.342469, 0.6718136]]], [[[104.2762426, 0.6741698], [104.2760199, 0.6765769], [104.2767629, 0.6742663], [104.2762426, 0.6741698]]], [[[104.3019273, 0.6748533], [104.2970833, 0.673418], [104.2978606, 0.6799866], [104.3019273, 0.6748533]]], [[[104.3008878, 0.6786171], [104.3068608, 0.6769462], [104.3029168, 0.6749178], [104.3008878, 0.6786171]]], [[[104.3437725, 0.6761846], [104.341783, 0.6792663], [104.3480969, 0.6770087], [104.3437725, 0.6761846]]], [[[104.3052889, 0.6802721], [104.3063626, 0.6804346], [104.30612, 0.6800595], [104.3052889, 0.6802721]]], [[[104.2706192, 0.6831483], [104.3002315, 0.6862336], [104.2940143, 0.6721667], [104.2706192, 0.6831483]]], [[[104.3369812, 0.6847284], [104.320869, 0.6849609], [104.3086554, 0.6984827], [104.3227703, 0.698614], [104.3231531, 0.6905462], [104.3369812, 0.6847284]]], [[[104.2104426, 0.7189473], [104.2078918, 0.7176854], [104.2089969, 0.7197143], [104.2104426, 0.7189473]]], [[[104.3706473, 0.7377718], [104.364776, 0.7384709], [104.3684552, 0.7394592], [104.3706473, 0.7377718]]], [[[104.2787504, 0.7095817], [104.2737642, 0.7015659], [104.2605704, 0.7031449], [104.2491066, 0.7243917], [104.2509574, 0.7120733], [104.2625338, 0.6996261], [104.2527544, 0.6925751], [104.2187997, 0.724798], [104.210798, 0.7194501], [104.2004728, 0.7287929], [104.1962088, 0.7214462], [104.1883905, 0.7329617], [104.1940043, 0.7394568], [104.1897185, 0.75304], [104.1714258, 0.7816694], [104.189626, 0.774939], [104.1860908, 0.7792462], [104.2016678, 0.7960057], [104.2129827, 0.782714], [104.2126581, 0.7909556], [104.219546, 0.7906553], [104.216786, 0.784704], [104.2398959, 0.7886572], [104.2509976, 0.800431], [104.260846, 0.8011705], [104.2614488, 0.7934056], [104.2765205, 0.7966179], [104.2575368, 0.7655896], [104.2635128, 0.7436471], [104.3089534, 0.706897], [104.2787504, 0.7095817]]], [[[104.3564875, 0.7403455], [104.2986041, 0.7562644], [104.3076298, 0.7630525], [104.329825, 0.7602177], [104.3568456, 0.7482078], [104.3564875, 0.7403455]]], [[[104.2086428, 0.7966923], [104.2120385, 0.7964402], [104.2109656, 0.7956035], [104.2086428, 0.7966923]]], [[[104.2141896, 0.7950563], [104.2225152, 0.7977115], [104.2223275, 0.7936349], [104.2141896, 0.7950563]]], [[[104.2300451, 0.8066077], [104.2317667, 0.8103475], [104.2353147, 0.8079297], [104.2300451, 0.8066077]]], [[[104.2803021, 0.8218449], [104.2805515, 0.8156483], [104.2776353, 0.816243], [104.2803021, 0.8218449]]], [[[104.2992519, 0.8214198], [104.2985076, 0.8183691], [104.2930332, 0.8196216], [104.2992519, 0.8214198]]]]}}]}