{"type":"FeatureCollection","features":[{"type":"Feature","properties":{"slug":"bath","member_count":27,"matched_count":5,"unmatched":["Widcombe, Bathwick Hill & Claverton Down (GB-ENG, type='MSOA')","Central Bath & Lansdown (GB-ENG, type='MSOA')","Bathavon North & South (GB-ENG, type='MSOA')","Peasedown & Bathavon West (GB-ENG, type='MSOA')","High Littleton & Paulton (GB-ENG, type='MSOA')","Saltford, Farmborough & Timsbury (GB-ENG, type='MSOA')","Oldfield Park West (GB-ENG, type='MSOA')","Pensford, Clutton & Temple Cloud (GB-ENG, type='MSOA')","Keynsham South (GB-ENG, type='MSOA')","Keynsham North (GB-ENG, type='MSOA')","Chew, Bishop Sutton & East Harptree (GB-ENG, type='MSOA')","Combe Down (GB-ENG, type='MSOA')","Midsomer Norton North (GB-ENG, type='MSOA')","Midsomer Norton Redfield (GB-ENG, type='MSOA')","Oldfield Park East (GB-ENG, type='MSOA')","Odd Down (GB-ENG, type='MSOA')","Walcot (GB-ENG, type='MSOA')","Twerton (GB-ENG, type='MSOA')","Keynsham East (GB-ENG, type='MSOA')","Southdown (GB-ENG, type='MSOA')","Lambridge & Fairfield Park (GB-ENG, type='MSOA')","Bloomfield (GB-ENG, type='MSOA')"],"source":"Overture Maps division_area (CC-BY 4.0)"},"geometry":{"type":"MultiPolygon","coordinates":[[[[-2.456289,51.2738341],[-2.4825736,51.2806597],[-2.458729,51.2956617],[-2.4759673,51.2975861],[-2.4765362,51.3013905],[-2.4469404,51.3055852],[-2.4175823,51.293386],[-2.456289,51.2738341]]],[[[-3.1194571,51.6659473],[-3.1680974,51.6480319],[-3.1693665,51.6681173],[-3.1268177,51.6790813],[-3.0716535,51.6741751],[-3.0727975,51.6649959],[-3.1194571,51.6659473]]],[[[-0.1973029,51.9581776],[-0.1761931,51.9817051],[-0.1591672,51.9744607],[-0.1292605,51.9483741],[-0.1242236,51.9292086],[-0.1452918,51.9340465],[-0.1552698,51.9255225],[-0.1774169,51.9360077],[-0.1973029,51.9581776]]],[[[-2.5196357,53.2500303],[-2.5131135,53.238915],[-2.5303178,53.2377305],[-2.5196357,53.2500303]]]]}}]}