{"type": "FeatureCollection", "features": [{"type": "Feature", "properties": {"slug": "bayreuth", "members": 34, "country": "Germany", "input_hash": "321ed1ad862b9a6b"}, "geometry": {"type": "Polygon", "coordinates": [[[11.6337582, 49.7613677], [11.5938938, 49.7533251], [11.5977804, 49.7391196], [11.5870603, 49.7285374], [11.5523853, 49.7338069], [11.5642866, 49.7238343], [11.5550064, 49.7042977], [11.5610542, 49.6976282], [11.5407445, 49.6933237], [11.5642138, 49.6857306], [11.5556665, 49.6774488], [11.5647297, 49.6644944], [11.5573933, 49.6598838], [11.557334, 49.6424312], [11.4996839, 49.64849], [11.4887266, 49.6396686], [11.472822, 49.6446033], [11.4562327, 49.6269728], [11.4289998, 49.6280118], [11.4264739, 49.6138511], [11.4142527, 49.6260129], [11.4023214, 49.6229792], [11.3911493, 49.6327278], [11.387625, 49.6540996], [11.3710066, 49.6588236], [11.3774616, 49.6685465], [11.3468051, 49.6760775], [11.3762192, 49.6890495], [11.3666372, 49.6991468], [11.3832467, 49.7004361], [11.3558672, 49.7045093], [11.36692, 49.7126386], [11.3555647, 49.7234705], [11.3662833, 49.7334101], [11.362919, 49.7386212], [11.3746136, 49.7514314], [11.3883854, 49.7529859], [11.3800041, 49.7781547], [11.347356, 49.7836647], [11.3668209, 49.8036297], [11.3291963, 49.8176522], [11.3319559, 49.8051729], [11.2965186, 49.8041274], [11.2567048, 49.8566909], [11.2703356, 49.8606601], [11.2612649, 49.8740235], [11.2384625, 49.8709468], [11.1925402, 49.8810929], [11.1991058, 49.8927813], [11.1841671, 49.9088791], [11.2035196, 49.9134507], [11.215273, 49.9388569], [11.1934478, 49.9511484], [11.2168504, 49.9627132], [11.2188574, 49.9732089], [11.2526562, 49.9788084], [11.2447714, 49.9858993], [11.2550802, 50.0008199], [11.2845608, 49.9880589], [11.2802456, 49.9652521], [11.3167051, 49.9636659], [11.3845973, 49.9337903], [11.396841, 49.9457218], [11.3965427, 49.9612213], [11.4276047, 49.9575716], [11.4278859, 49.9659746], [11.4155821, 49.9734629], [11.4181431, 49.9889991], [11.4420674, 49.9906879], [11.4373772, 49.9839368], [11.4609515, 49.9803499], [11.4764917, 49.9953392], [11.504395, 49.9917587], [11.5265229, 50.0058619], [11.5361158, 50.005153], [11.5347846, 49.9991509], [11.5669689, 50.0127508], [11.578632, 50.0082919], [11.6040467, 50.0176079], [11.6014259, 50.0263466], [11.6176218, 50.0398182], [11.6284654, 50.0334915], [11.6277712, 50.042267], [11.6507115, 50.0427461], [11.6522033, 50.054176], [11.6423786, 50.0544512], [11.6361684, 50.0587025], [11.6433222, 50.0629491], [11.6316378, 50.0677228], [11.6411918, 50.0742059], [11.6515612, 50.069374], [11.6879376, 50.0897713], [11.6756086, 50.0962672], [11.6778948, 50.1245726], [11.6994032, 50.1339305], [11.7083006, 50.1222609], [11.7451106, 50.116767], [11.7755507, 50.1267823], [11.7899013, 50.1165544], [11.7855395, 50.1050514], [11.8183991, 50.0881478], [11.7968927, 50.0764814], [11.8332259, 50.0652256], [11.8351218, 50.0543489], [11.8667446, 50.0423742], [11.8737185, 50.0328905], [11.8588858, 50.0232278], [11.8996188, 49.9983528], [11.9012925, 49.9703141], [11.8648446, 49.9598983], [11.8112024, 49.9611163], [11.8207268, 49.9404387], [11.8119, 49.9328535], [11.8281986, 49.9344654], [11.839404, 49.9076365], [11.8229171, 49.9025417], [11.8548547, 49.892271], [11.8390493, 49.8786854], [11.8455685, 49.8754223], [11.8422536, 49.865145], [11.8619394, 49.8520092], [11.8368796, 49.8519183], [11.824652, 49.8416092], [11.8040056, 49.8489809], [11.7852504, 49.8359122], [11.7335856, 49.8392462], [11.739178, 49.8348616], [11.7213119, 49.8274519], [11.723527, 49.8183386], [11.7004277, 49.8200357], [11.7000752, 49.8071658], [11.6928097, 49.8042528], [11.69838, 49.8022282], [11.6732448, 49.8110485], [11.6589239, 49.8021154], [11.6445715, 49.8074319], [11.634068, 49.7878475], [11.6452235, 49.7860613], [11.6467735, 49.7764991], [11.6302619, 49.7737565], [11.6337582, 49.7613677]], [[11.475575536863118, 49.95351072151304], [11.4767799, 49.9553751], [11.4760172, 49.9553111], [11.475575536863118, 49.95351072151304]], [[11.479308638896843, 49.947888447680775], [11.4792163, 49.9474939], [11.4862107, 49.9501838], [11.479308638896843, 49.947888447680775]], [[11.482953610239814, 49.95011046154692], [11.4795997, 49.9491321], [11.47931172769624, 49.94790164557116], [11.482953610239814, 49.95011046154692]], [[11.4912847, 49.9551633], [11.4869777, 49.9526445], [11.486912055799747, 49.95251127422754], [11.4912847, 49.9551633]], [[11.6079066, 49.8945274], [11.6132968, 49.8928038], [11.601356433244643, 49.89391507220815], [11.6079066, 49.8945274]], [[11.593284841018649, 49.89408368176729], [11.5988357, 49.8946429], [11.5939683, 49.8944265], [11.593284841018649, 49.89408368176729]], [[11.5555527, 49.9038908], [11.55534950766655, 49.901483714599564], [11.5561323, 49.9015514], [11.5555527, 49.9038908]], [[11.561522079985895, 49.909592906945704], [11.562942900599804, 49.907649926752995], [11.5635173, 49.9083959], [11.561522079985895, 49.909592906945704]], [[11.5530037, 49.911758], [11.560393120556023, 49.91027021183911], [11.5596884, 49.910693], [11.5530037, 49.911758]], [[11.54588, 49.9190931], [11.54488589057038, 49.91952707502131], [11.5530037, 49.911758], [11.54588, 49.9190931]], [[11.53469308966148, 49.92366128933057], [11.540279477864654, 49.92153798850082], [11.535392, 49.9236716], [11.53469308966148, 49.92366128933057]], [[11.531976888794615, 49.923388965109844], [11.532613677310271, 49.92363061281573], [11.5319214, 49.9236204], [11.531976888794615, 49.923388965109844]], [[11.49455755031319, 49.94748789187316], [11.4945181, 49.9470997], [11.495808, 49.9456086], [11.49455755031319, 49.94748789187316]], [[11.497892594802053, 49.95673764381804], [11.4976909, 49.9566109], [11.4985685, 49.9549325], [11.497892594802053, 49.95673764381804]], [[11.637973230610537, 49.93010445945931], [11.6473237, 49.9323905], [11.6385122, 49.9312172], [11.637973230610537, 49.93010445945931]], [[11.6321183, 49.9254869], [11.634361202159308, 49.92914579645367], [11.6342832, 49.9291427], [11.6321183, 49.9254869]], [[11.6235169, 49.9190309], [11.6197974, 49.9153805], [11.619739276254904, 49.91494144410614], [11.6235169, 49.9190309]], [[11.619544381461756, 49.91250125021163], [11.619478999989713, 49.912975365903904], [11.6194276, 49.9125871], [11.619544381461756, 49.91250125021163]], [[11.622620725167616, 49.9098507273381], [11.6227512, 49.9100773], [11.622679744624088, 49.910125000156114], [11.622620725167616, 49.9098507273381]], [[11.6259917, 49.9078306], [11.622290336768936, 49.90831535980746], [11.6222248, 49.9080108], [11.6259917, 49.9078306]], [[11.6167014, 49.895703], [11.615940030503497, 49.89949942036043], [11.6155058, 49.8993837], [11.6167014, 49.895703]], [[11.8064258, 49.9501056], [11.8077122, 49.9537334], [11.8033956, 49.9523189], [11.8064258, 49.9501056]]]}}]}