{"type": "FeatureCollection", "features": [{"type": "Feature", "properties": {"slug": "beasain", "members": 18, "country": "Spain", "input_hash": "455010080d8f2123"}, "geometry": {"type": "Polygon", "coordinates": [[[-2.2775319, 42.9315721], [-2.3112208, 42.9395773], [-2.3371857, 42.9624066], [-2.3407838, 42.9720007], [-2.3120877, 42.9972085], [-2.3176335, 43.0155858], [-2.3116649, 43.0329195], [-2.3275154, 43.061812], [-2.2877184, 43.0697921], [-2.261926828886197, 43.05350962191356], [-2.2466021, 43.0583349], [-2.2404823, 43.0457685], [-2.2488875, 43.0732892], [-2.2401847, 43.0747894], [-2.2444471, 43.0867583], [-2.2349217, 43.0936376], [-2.2445141, 43.0995282], [-2.2419299, 43.1084781], [-2.2271546, 43.114614], [-2.1902557, 43.0987592], [-2.1688629, 43.0983067], [-2.1635806, 43.1066892], [-2.1331935, 43.0950082], [-2.1257012, 43.0826674], [-2.1432386918616, 43.07407491921587], [-2.146346902633815, 43.057827202225745], [-2.1180323, 43.0649959], [-2.1137858, 43.052032], [-2.1221128597295364, 43.041418065198165], [-2.1102695, 43.0099157], [-2.1139172, 42.9885947], [-2.1249365, 42.9842358], [-2.1144992, 42.9709392], [-2.0952354, 42.9725533], [-2.1039039, 42.9490375], [-2.1809603, 42.9351265], [-2.1911299, 42.9483913], [-2.2139205, 42.9539444], [-2.258727038169152, 42.94693757320126], [-2.2625735, 42.9371432], [-2.2775319, 42.9315721]], [[-2.1287793, 42.9856579], [-2.1282084, 42.990652], [-2.1330269, 42.9861556], [-2.1287793, 42.9856579]], [[-2.1300563, 42.9919666], [-2.1320112242968903, 42.99235460293511], [-2.1282084, 42.990652], [-2.1300563, 42.9919666]], [[-2.1679407, 43.0835527], [-2.1678669, 43.0896833], [-2.16828449276431, 43.08993792642161], [-2.1679407, 43.0835527]], [[-2.1647685, 43.0789355], [-2.163890263167742, 43.07865235769205], [-2.1679407, 43.0835527], [-2.1647685, 43.0789355]], [[-2.1571592790249388, 43.076482297959906], [-2.1584142, 43.0774754], [-2.16056539411129, 43.07758042462833], [-2.1571592790249388, 43.076482297959906]], [[-2.161998, 43.0651111], [-2.1650421, 43.0661329], [-2.157428731700066, 43.069423021910445], [-2.161998, 43.0651111]], [[-2.1726547, 43.0635499], [-2.172540709953506, 43.06310339695283], [-2.1670986, 43.0639237], [-2.1726547, 43.0635499]], [[-2.1722931, 43.0621335], [-2.169627, 43.0594937], [-2.1723591838559067, 43.06239235280284], [-2.1722931, 43.0621335]], [[-2.1687691567323086, 43.042202195456206], [-2.1684463709748005, 43.04104555139272], [-2.1676052424557293, 43.04338533013485], [-2.1687691567323086, 43.042202195456206]], [[-2.1681869, 43.0397804], [-2.1624007, 43.0382793], [-2.168334796286504, 43.0405015257174], [-2.1681869, 43.0397804]], [[-2.1543296, 43.0217408], [-2.1658523, 43.0190164], [-2.1540938, 43.0152398], [-2.1616955, 43.0189724], [-2.1543296, 43.0217408]], [[-2.2590079, 43.0204151], [-2.261577043878237, 43.01808558604684], [-2.261577043878236, 43.01808558604684], [-2.2590079, 43.0204151]], [[-2.248310262885004, 43.02070413553696], [-2.2477662, 43.0254294], [-2.2486791873437806, 43.0206941677022], [-2.248310262885004, 43.02070413553696]], [[-2.2456671, 43.0314579], [-2.246448370323452, 43.02921413450768], [-2.2453736, 43.0293668], [-2.2456671, 43.0314579]], [[-2.2359472, 43.0352744], [-2.2399029, 43.03205], [-2.234409824029902, 43.035456137433414], [-2.2359472, 43.0352744]], [[-2.2306855, 43.0358964], [-2.2310781404022495, 43.03584998490028], [-2.2196362, 43.035029], [-2.2306855, 43.0358964]], [[-2.2215359, 43.0265322], [-2.2176012381765324, 43.0413272200696], [-2.2185992, 43.0403168], [-2.2196362, 43.035029], [-2.2215359, 43.0265322]], [[-2.1972982, 43.0357115], [-2.1976084, 43.0392256], [-2.198137693618083, 43.03821760314193], [-2.1972982, 43.0357115]], [[-2.2906271, 42.9965544], [-2.288062, 42.9945303], [-2.287026880295509, 42.994830941451106], [-2.2906271, 42.9965544]], [[-2.2583490400485426, 43.00969330356581], [-2.2579808, 43.0099175], [-2.2580333775899186, 43.01000293211173], [-2.2583490400485426, 43.00969330356581]], [[-2.2121025945160135, 43.006248435972076], [-2.2110939, 43.0052537], [-2.2075397, 43.0039864], [-2.2121025945160135, 43.006248435972076]], [[-2.2054602, 43.0002628], [-2.202182032479285, 43.00483736586239], [-2.2075397, 43.0039864], [-2.2054602, 43.0002628]], [[-2.2590086, 42.9591716], [-2.2626913, 42.9680114], [-2.2689443, 42.9815142], [-2.2590086, 42.9591716]], [[-2.2712344132563143, 42.99105945137883], [-2.2714457, 42.9919401], [-2.2738299, 42.9946838], [-2.2712344132563143, 42.99105945137883]], [[-2.2449933049506074, 43.00926978444277], [-2.2473499, 42.9962504], [-2.2445291, 43.0071819], [-2.2449933049506074, 43.00926978444277]], [[-2.1903473, 43.0284765], [-2.190408509708534, 43.02854021149653], [-2.1933338, 43.0206993], [-2.1903473, 43.0284765]], [[-2.2304839193377597, 43.04029988551078], [-2.230249981179473, 43.039541745744536], [-2.2301781, 43.0401434], [-2.2304839193377597, 43.04029988551078]], [[-2.2706966, 43.0386084], [-2.2859176, 43.0398033], [-2.2714175, 43.0399368], [-2.2706966, 43.0386084]], [[-2.2616420261514687, 43.05259674659407], [-2.2641561, 43.0517137], [-2.2613806, 43.0517588], [-2.2616420261514687, 43.05259674659407]], [[-2.206043370195771, 43.08422842481523], [-2.1894842337066294, 43.07975375151915], [-2.1906181, 43.080608], [-2.206043370195771, 43.08422842481523]], [[-2.1753265, 43.0603005], [-2.175130449930063, 43.06041896765286], [-2.1758066095385713, 43.060462019112926], [-2.1753265, 43.0603005]], [[-2.178554, 43.0613863], [-2.177910672941295, 43.06116987102391], [-2.1790055513021938, 43.06229000499407], [-2.178554, 43.0613863]], [[-2.1819272, 43.0681372], [-2.1802473664097017, 43.0647752918461], [-2.1820854667567104, 43.06961624897303], [-2.1819272, 43.0681372]], [[-2.1840495066077383, 43.07478888969956], [-2.1845124, 43.076008], [-2.1870896738193575, 43.07794970358338], [-2.1840495066077383, 43.07478888969956]], [[-2.1354279, 43.0082675], [-2.1407274, 43.0047507], [-2.1361267841546137, 43.00704091600332], [-2.1354279, 43.0082675]], [[-2.140967869268364, 43.00379398813756], [-2.1396362238147364, 43.004438257868266], [-2.1407274, 43.0047507], [-2.140967869268364, 43.00379398813756]], [[-2.1247231, 43.0038451], [-2.1312594599320933, 43.004517199104804], [-2.1309789, 43.0041288], [-2.1247231, 43.0038451]], [[-2.1265381, 43.0019088], [-2.125403851225052, 43.000454589839265], [-2.1247231, 43.0038451], [-2.1265381, 43.0019088]], [[-2.1252202783074785, 42.99946321622056], [-2.1254212355237465, 43.000368006607104], [-2.136171113466484, 43.00344607486563], [-2.1252202783074785, 42.99946321622056]], [[-2.1163268, 42.9942792], [-2.125257958427068, 42.995616539496105], [-2.1212586, 42.98989], [-2.1163268, 42.9942792]], [[-2.1379262, 42.9992951], [-2.1420263, 42.999583], [-2.136434883902564, 42.998348105497364], [-2.1379262, 42.9992951]], [[-2.1291948, 43.0434248], [-2.131432691317597, 43.04295663131294], [-2.1251979369128464, 43.042292251016406], [-2.1291948, 43.0434248]], [[-2.157152683956912, 43.06148232598018], [-2.1572656, 43.0618254], [-2.1574810444586845, 43.061930477650165], [-2.157152683956912, 43.06148232598018]]]}}]}