{"type": "FeatureCollection", "features": [{"type": "Feature", "properties": {"slug": "beaumont", "members": 4, "country": "United States", "input_hash": "bca7289fe6e07e93"}, "geometry": {"type": "Polygon", "coordinates": [[[-93.8431885, 29.8780585], [-93.9059038, 29.8384398], [-93.9280671, 29.8053631], [-93.9252251, 29.7879391], [-93.8909471, 29.7641362], [-93.8912408, 29.7455896], [-93.8719567, 29.7369717], [-93.858768, 29.7199703], [-93.83947498237126, 29.691020665865505], [-93.8400486, 29.6783944], [-94.0003176, 29.6807889], [-94.1140764, 29.6544957], [-94.354156, 29.561556], [-94.357976, 29.887464], [-94.4422636, 29.8869703], [-94.4451195, 30.11272], [-94.5962662, 30.1121876], [-94.7326967, 30.490098], [-94.5378866, 30.491233], [-94.5454603, 30.526951], [-94.0688391, 30.5277035], [-94.083999, 30.5089287], [-94.0788106, 30.4887165], [-94.0858819, 30.490217], [-94.1032877, 30.4682378], [-94.0940433, 30.4654069], [-94.1079948, 30.4502506], [-94.1068581, 30.4369682], [-94.1199896, 30.4265923], [-94.1123066, 30.4150444], [-94.120697, 30.4106056], [-94.1128587, 30.4060756], [-94.1162656, 30.3966712], [-94.103313, 30.3938448], [-94.1028252, 30.3683755], [-94.0827439, 30.3451506], [-94.0969106, 30.3392423], [-94.1031035, 30.3249991], [-94.0978804, 30.3226658], [-94.1067838, 30.3223078], [-94.0991244, 30.3184545], [-94.1035731, 30.3079485], [-94.1180289, 30.3003651], [-94.1139309, 30.262807], [-94.0962135, 30.2581507], [-94.1189023, 30.2420034], [-93.90133622225737, 30.243237308606226], [-93.8656172, 30.9471925], [-93.9110732, 31.1581824], [-93.6002436, 31.1762314], [-93.5877223, 31.1655736], [-93.5503446, 31.1866168], [-93.5339814, 31.1853739], [-93.5322154, 31.1753639], [-93.5432206, 31.1706098], [-93.5364405, 31.1584039], [-93.5488662, 31.1504686], [-93.5385092, 31.1176118], [-93.5564051, 31.0949135], [-93.5492499, 31.0908589], [-93.5524668, 31.0786976], [-93.5290935, 31.0744608], [-93.5193255, 31.0644434], [-93.5322724, 31.0545442], [-93.5189283, 31.0430871], [-93.5245638, 31.0377231], [-93.5078217, 31.0306396], [-93.5340258, 31.0189045], [-93.5399903, 31.0078915], [-93.5555921, 31.0037191], [-93.5669728, 31.0133324], [-93.5778272, 30.9997156], [-93.5639248, 30.9890294], [-93.5733648, 30.9707276], [-93.5316795, 30.9580167], [-93.5262304, 30.9390695], [-93.532129, 30.9243416], [-93.5427093, 30.920316], [-93.5455929, 30.9270692], [-93.5586182, 30.9134495], [-93.5490795, 30.897203], [-93.565372, 30.8953307], [-93.5739569, 30.8850563], [-93.5583879, 30.8688803], [-93.5575876, 30.8526168], [-93.5685955, 30.8443052], [-93.5531033, 30.8352491], [-93.5549494, 30.8219753], [-93.5635084, 30.8181936], [-93.5629502, 30.8060752], [-93.584507, 30.8007394], [-93.5813494, 30.7901346], [-93.5890242, 30.7854817], [-93.582972, 30.7777388], [-93.5916336, 30.7762317], [-93.5918091, 30.7646255], [-93.6105137, 30.7560707], [-93.6087814, 30.7452725], [-93.6184298, 30.7424833], [-93.6084514, 30.7307064], [-93.6180448, 30.7287288], [-93.6204016, 30.6944419], [-93.6304647, 30.6782807], [-93.6545137, 30.6706925], [-93.6829198, 30.6413077], [-93.6816484, 30.6193333], [-93.688874, 30.6115804], [-93.6787799, 30.5937103], [-93.6862808, 30.5855516], [-93.6935565, 30.5945443], [-93.7221882, 30.5805855], [-93.7286504, 30.5452117], [-93.7396608, 30.5406903], [-93.7052908, 30.5122678], [-93.7164421, 30.4940992], [-93.7095187, 30.4831387], [-93.717182, 30.4836397], [-93.6990192, 30.4582376], [-93.7068939, 30.4571443], [-93.7069643, 30.4442508], [-93.6972928, 30.4423979], [-93.7025073, 30.4297303], [-93.7124431, 30.4331631], [-93.7171291, 30.4229553], [-93.7264659, 30.430505], [-93.7222556, 30.4198563], [-93.7583872, 30.3900309], [-93.7591678, 30.3677287], [-93.7508716, 30.3595709], [-93.7626308, 30.3535407], [-93.7596785, 30.3415868], [-93.7660191, 30.3437906], [-93.758568, 30.3391714], [-93.7660903, 30.3327019], [-93.75508, 30.3309533], [-93.7423872, 30.3009791], [-93.715011, 30.2958076], [-93.7125975, 30.2874261], [-93.7048638, 30.290978], [-93.7088468, 30.2653745], [-93.7026262, 30.2605353], [-93.7105456, 30.2450845], [-93.7035825, 30.2379497], [-93.7096928, 30.2380195], [-93.7044234, 30.233816], [-93.7110243, 30.2352637], [-93.7211311, 30.2094228], [-93.7141021, 30.2085663], [-93.7176831, 30.1934595], [-93.7109885, 30.1798613], [-93.7000193, 30.1748153], [-93.7095024, 30.1468135], [-93.6975809, 30.1529259], [-93.6884273, 30.1411219], [-93.7014092, 30.1374477], [-93.7005925, 30.1236374], [-93.7078017, 30.1208139], [-93.7027294, 30.1125976], [-93.7232311, 30.0956684], [-93.7241195, 30.0827174], [-93.7339858, 30.0870304], [-93.7019981, 30.066499], [-93.7000024, 30.0581003], [-93.7104411, 30.0552326], [-93.7185146, 30.0658809], [-93.7411352, 30.0228111], [-93.8029379, 29.9754387], [-93.8213172, 29.9104547], [-93.8431885, 29.8780585]], [[-94.43930468876425, 30.11573334676604], [-94.4398518, 30.1158714], [-94.44056855777845, 30.115442599866547], [-94.43930468876425, 30.11573334676604]], [[-94.40547840771633, 30.0996261], [-94.4055524, 30.0996759], [-94.40569790754586, 30.0996261], [-94.40547840771633, 30.0996261]], [[-94.4014556, 30.0970779], [-94.3992937, 30.0973767], [-94.40158301390262, 30.09716563370083], [-94.4014556, 30.0970779]], [[-94.37572920985534, 30.109032080950467], [-94.3759039, 30.1091245], [-94.3771643, 30.1076355], [-94.37572920985534, 30.109032080950467]], [[-94.3446249, 30.1030488], [-94.34412137728214, 30.103147432240863], [-94.34460379964804, 30.103148962758343], [-94.3446249, 30.1030488]], [[-94.3002917, 30.1138672], [-94.2981719, 30.1153651], [-94.30045347004854, 30.113968362738397], [-94.3002917, 30.1138672]], [[-94.277882, 30.160597], [-94.27799578564102, 30.160860734837268], [-94.2794, 30.160166], [-94.277882, 30.160597]], [[-94.2759122882665, 30.169282768343905], [-94.277782, 30.167303], [-94.278892, 30.162938], [-94.2759122882665, 30.169282768343905]], [[-94.27465906629129, 30.170439399194475], [-94.274792, 30.170469], [-94.27486220312687, 30.170394664515165], [-94.27465906629129, 30.170439399194475]], [[-94.20944618060014, 30.187565999561745], [-94.2099735, 30.1874632], [-94.2103555, 30.1856882], [-94.20944618060014, 30.187565999561745]], [[-94.20293828086238, 30.18859325625329], [-94.2031255, 30.1887982], [-94.20702014393174, 30.188038949175105], [-94.20293828086238, 30.18859325625329]], [[-94.19462507678232, 30.188889882708754], [-94.1947749, 30.1890213], [-94.1962945, 30.1880272], [-94.19462507678232, 30.188889882708754]], [[-94.1870697, 30.1789017], [-94.18668917064447, 30.179387929876896], [-94.18746049151169, 30.179075136161156], [-94.1870697, 30.1789017]], [[-94.1691075, 30.1739372], [-94.16870490933466, 30.173706254496935], [-94.1655285, 30.1762372], [-94.1691075, 30.1739372]], [[-94.1660185, 30.1721652], [-94.16292899403653, 30.171871502824995], [-94.16763672763132, 30.173093493739945], [-94.1660185, 30.1721652]], [[-94.1478932, 30.1666579], [-94.14743657660291, 30.166789612955373], [-94.1483239, 30.1685707], [-94.1478932, 30.1666579]], [[-94.1403028, 30.1652021], [-94.14022260913038, 30.165340611845583], [-94.1403311190454, 30.165396700959338], [-94.1403028, 30.1652021]], [[-94.1313991, 30.1671679], [-94.1378956, 30.1688331], [-94.13791432909561, 30.168801174760745], [-94.1313991, 30.1671679]], [[-94.12012980676579, 30.16562956757413], [-94.122057, 30.1664478], [-94.12275948344832, 30.16609150662055], [-94.12012980676579, 30.16562956757413]], [[-94.11741835360596, 30.163755259794026], [-94.1182421, 30.1648281], [-94.11867937522499, 30.165013754848598], [-94.11741835360596, 30.163755259794026]], [[-94.11508198753296, 30.1601980558221], [-94.11498023506938, 30.160579875219504], [-94.11519062462241, 30.160853884760595], [-94.11508198753296, 30.1601980558221]], [[-94.1096056, 30.1664082], [-94.11008738605852, 30.166948063301106], [-94.1105819, 30.1645809], [-94.1096056, 30.1664082]], [[-94.11024129926834, 30.188738219767203], [-94.1105068, 30.1887883], [-94.11057293649758, 30.188329964409505], [-94.11024129926834, 30.188738219767203]], [[-94.1025031, 30.1914498], [-94.1064727, 30.1936383], [-94.1067303907366, 30.193313190665283], [-94.1025031, 30.1914498]], [[-94.1130924, 30.2166704], [-94.11474092262814, 30.216268429498058], [-94.11282557242706, 30.216317374010966], [-94.1130924, 30.2166704]], [[-94.1153562, 30.2212502], [-94.1175127, 30.2161976], [-94.11703597836224, 30.21620978205858], [-94.1153562, 30.2212502]], [[-93.8610434, 29.977158], [-93.86249880258832, 29.977699034669783], [-93.857977, 29.975061], [-93.8610434, 29.977158]], [[-93.870306, 29.9806013], [-93.87150612360024, 29.980779130962404], [-93.86794765961808, 29.979724605180287], [-93.870306, 29.9806013]], [[-93.87439640277134, 29.981207404455656], [-93.9031930864567, 29.985474416597363], [-93.902336, 29.9849034], [-93.87439640277134, 29.981207404455656]], [[-93.9070674, 29.9880556], [-93.9101936, 29.9935819], [-93.91089666659917, 29.99398860339822], [-93.9070674, 29.9880556]], [[-93.9184757, 29.99603], [-93.91996947716251, 29.995438172400295], [-93.9144111, 29.9960216], [-93.9184757, 29.99603]], [[-93.92133023029464, 29.994899048305886], [-93.93038025518892, 29.991313470319497], [-93.9285816, 29.9911502], [-93.92133023029464, 29.994899048305886]], [[-93.93238919822444, 29.991495829213676], [-93.94360301239676, 29.995684289183128], [-93.9343498, 29.9916738], [-93.93238919822444, 29.991495829213676]], [[-93.9528911914624, 29.99970993347578], [-93.95376955014672, 30.000519152189437], [-93.9536119, 30.0000223], [-93.9528911914624, 29.99970993347578]], [[-93.9576296, 30.0115482], [-93.9603362, 30.0130955], [-93.9573958238686, 30.01066832497428], [-93.9576296, 30.0115482]], [[-94.0935763120542, 30.08400102198464], [-94.0938734, 30.0865918], [-94.094215, 30.0843781], [-94.0935763120542, 30.08400102198464]], [[-94.11211616546433, 30.147244272354204], [-94.11314144020339, 30.148483206854113], [-94.1129851, 30.1475394], [-94.11211616546433, 30.147244272354204]]]}}]}