{"type": "FeatureCollection", "features": [{"type": "Feature", "properties": {"slug": "bechar", "members": 1, "country": "Algeria", "input_hash": "0fabc23542e32c7c"}, "geometry": {"type": "Polygon", "coordinates": [[[-1.5958875, 31.2953658], [-1.3536167, 31.4450083], [-1.5244491, 31.7150644], [-1.7201596, 31.8259192], [-1.8240459, 31.9442822], [-1.8210237, 31.9880553], [-1.8535162, 32.0281029], [-1.9082419, 32.048555], [-1.9974414, 32.0062745], [-2.0525776, 31.9916137], [-2.0201255, 31.9012045], [-2.4054716, 31.6963552], [-2.3268158, 31.5644115], [-2.3009575, 31.3687699], [-2.2762826, 31.2849573], [-2.2816236, 31.2364278], [-2.2696343, 31.1832712], [-1.9926115, 31.1937432], [-1.9844997, 31.2151155], [-1.989358, 31.2293193], [-2.0092859, 31.2347666], [-2.0470501, 31.2266318], [-2.058094, 31.2537826], [-2.0954181, 31.274694], [-2.1155132, 31.3018566], [-2.0421631, 31.3543864], [-2.0160486, 31.3829169], [-1.9814326, 31.3918519], [-1.8748535, 31.4424862], [-1.7063579, 31.3424011], [-1.5958875, 31.2953658]]]}}]}