{"type": "FeatureCollection", "features": [{"type": "Feature", "properties": {"slug": "beer-sheva", "members": 6, "country": "Israel", "input_hash": "f0bc6645160b6fd0"}, "geometry": {"type": "MultiPolygon", "coordinates": [[[[34.8511445, 31.1842457], [34.8267838, 31.1784543], [34.8083953, 31.1834538], [34.8091317, 31.1945293], [34.82579665082367, 31.211945337342033], [34.814511, 31.211919], [34.8086832, 31.1998262], [34.8021994, 31.2087538], [34.8041363, 31.1958492], [34.793365, 31.1926365], [34.7623859, 31.1948586], [34.7415252, 31.2063089], [34.7420376, 31.199166], [34.7007044, 31.1783045], [34.6626765, 31.1995305], [34.6988707, 31.2273135], [34.6912723, 31.2382995], [34.6988053, 31.2404037], [34.7008396, 31.2564455], [34.6937971, 31.2563141], [34.6923458, 31.2710901], [34.6987596, 31.2755145], [34.698549, 31.296065], [34.7093395, 31.3039555], [34.6996266, 31.3293965], [34.6602179, 31.3326514], [34.6158144, 31.3793194], [34.6423292, 31.3930252], [34.6801383, 31.3890151], [34.6934884, 31.4182209], [34.6907658, 31.4299975], [34.71042, 31.44392], [34.7328242, 31.4421201], [34.7305267, 31.4800839], [34.7651949, 31.4830935], [34.7796174, 31.4610176], [34.823922, 31.4452076], [34.8421326, 31.4250887], [34.8692726, 31.4127752], [34.8744385, 31.4130897], [34.8659269, 31.4382287], [34.9005102, 31.4378254], [34.8800552, 31.3923293], [34.9099183, 31.3505986], [34.9329895, 31.3433952], [34.9108636, 31.3154767], [34.906419, 31.3226145], [34.9136062, 31.3358759], [34.904688, 31.340653], [34.8861137, 31.3281256], [34.9181192, 31.2977261], [34.8891611, 31.2898901], [34.89168995376628, 31.26543151354081], [34.9034388, 31.2527026], [34.9080606, 31.206328], [34.8926898, 31.2107298], [34.8771801, 31.1983483], [34.8433155, 31.2107713], [34.8511445, 31.1842457]], [[34.87324388652672, 31.287703156455965], [34.8772334, 31.2887738], [34.8776142248916, 31.289054088103377], [34.87324388652672, 31.287703156455965]], [[34.8679865, 31.2690079], [34.86807322763087, 31.268755250769605], [34.86812896431323, 31.269694542964242], [34.8679865, 31.2690079]], [[34.8847183, 31.2581123], [34.88478127166469, 31.258238844272608], [34.8802265, 31.2590762], [34.8847183, 31.2581123]], [[34.88056896264077, 31.236746028284376], [34.88125, 31.2367215], [34.888191, 31.2397985], [34.88056896264077, 31.236746028284376]], [[34.8735311, 31.2379237], [34.869297, 31.237152], [34.87868480775551, 31.236813888125262], [34.8735311, 31.2379237]], [[34.84434414529344, 31.24208534859526], [34.8437374, 31.2432659], [34.839431, 31.2435271], [34.84434414529344, 31.24208534859526]], [[34.8308092, 31.2244547], [34.83003727133488, 31.224020312953886], [34.8497039, 31.2203596], [34.8308092, 31.2244547]], [[34.8293115, 31.2236119], [34.826026688699955, 31.21262501610321], [34.82984724531885, 31.223913379705365], [34.8293115, 31.2236119]], [[34.8287363, 31.2503424], [34.8351085, 31.2488575], [34.8372825, 31.2495505], [34.8287363, 31.2503424]], [[34.759018, 31.3134135], [34.75813336489143, 31.31465227239519], [34.7576954, 31.314656], [34.759018, 31.3134135]], [[34.7339823, 31.2441981], [34.73645688038462, 31.264753929428252], [34.7364004, 31.2645393], [34.7339823, 31.2441981]], [[34.73767874664461, 31.211676704349333], [34.7348637, 31.2209698], [34.7364979, 31.2133246], [34.73767874664461, 31.211676704349333]], [[34.8579159, 31.3352085], [34.8531472, 31.3245965], [34.8584229, 31.3134322], [34.8785725, 31.3164878], [34.8758161, 31.3065843], [34.8858634, 31.309493], [34.8882285, 31.3186828], [34.8726281, 31.3343066], [34.8579159, 31.3352085]], [[34.7345786, 31.3493933], [34.73437231536026, 31.349275308396724], [34.7365962, 31.3497262], [34.7345786, 31.3493933]], [[34.7274311, 31.3383166], [34.72789168520837, 31.337985755218053], [34.72819227487569, 31.338345921133122], [34.7274311, 31.3383166]], [[34.7291511, 31.3370811], [34.729400156297835, 31.337594151420085], [34.728168661243934, 31.33778679946693], [34.7291511, 31.3370811]], [[34.7459222, 31.3479906], [34.7440102, 31.3465884], [34.74448856002261, 31.345672172313794], [34.7459222, 31.3479906]], [[34.7917958, 31.3489047], [34.801246, 31.3486512], [34.8022372, 31.3571466], [34.8294585, 31.3481482], [34.8214585, 31.3589618], [34.8291074, 31.3692962], [34.7903048, 31.3934894], [34.7962002, 31.3633689], [34.7917958, 31.3489047]], [[34.7842353, 31.4238624], [34.7554509, 31.4246699], [34.7273016, 31.3908533], [34.7124259, 31.3891764], [34.7436885, 31.3649366], [34.7351625, 31.3607207], [34.736493, 31.3497584], [34.7932793, 31.3727301], [34.7842353, 31.4238624]]], [[[34.9996322, 31.2567766], [34.9796855, 31.2374408], [34.9616134, 31.248052], [34.9513662, 31.2444413], [34.944174, 31.2660696], [34.9768375, 31.2669372], [34.9996322, 31.2567766]]], [[[34.9187095, 31.2740334], [34.900496, 31.2848326], [34.9031902, 31.2905802], [34.9214995, 31.2933829], [34.9301366, 31.2866224], [34.9187095, 31.2740334]]], [[[35.0614762, 31.2588473], [35.0301133, 31.2654889], [35.0432656, 31.279452], [35.0477845, 31.3030916], [35.0548515, 31.3039442], [35.0572512, 31.2952558], [35.0824853, 31.3129584], [35.0802224, 31.3039611], [35.0897327, 31.2971069], [35.0821612, 31.2824723], [35.0644331, 31.2714655], [35.0614762, 31.2588473]]]]}}]}