{"type": "FeatureCollection", "features": [{"type": "Feature", "properties": {"slug": "beihai", "members": 4, "country": "China", "input_hash": "0795f98a3455e9f2"}, "geometry": {"type": "MultiPolygon", "coordinates": [[[[109.0302515, 21.6142055], [109.0146732, 21.5921204], [109.0133428, 21.6025548], [109.0302515, 21.6142055]]], [[[109.0287261, 21.6189656], [109.0349772, 21.6214296], [109.0332227, 21.6200389], [109.0287261, 21.6189656]]], [[[108.8524444, 21.710488], [108.85352, 21.72426], [108.85798, 21.72046], [108.8524444, 21.710488]]], [[[108.8656323, 21.7486967], [108.86564694905735, 21.74877885410958], [108.86623545695556, 21.74879650403828], [108.8656323, 21.7486967]]], [[[109.0925485, 21.0206892], [109.0984118, 21.0085256], [109.0855157, 21.0170037], [109.0859985, 21.057349], [109.1280127, 21.0712605], [109.139294, 21.0580048], [109.1262209, 21.0213451], [109.0996672, 21.0282454], [109.0925485, 21.0206892]]], [[[109.089594, 21.4264027], [109.0775102, 21.4315312], [109.090243, 21.4267784], [109.089594, 21.4264027]]], [[[109.0847439, 21.4855092], [109.1086285, 21.488078], [109.1004715, 21.4843135], [109.0847439, 21.4855092]]], [[[109.0671, 21.63372], [109.05931, 21.6193401], [109.0363799, 21.60517], [109.03267, 21.61452], [109.0671, 21.63372]]], [[[109.2134115, 20.9157857], [109.2169172, 20.9068359], [109.2074288, 20.9040321], [109.2027551, 20.915822], [109.2134115, 20.9157857]]], [[[109.76115819674456, 21.54701050844313], [109.7612637, 21.5469049], [109.76129204374304, 21.546839977198104], [109.76115819674456, 21.54701050844313]]], [[[108.9429647, 21.7739786], [108.9615031, 21.7927793], [108.964211, 21.813921], [108.9542226, 21.8120419], [108.9518068, 21.8260523], [108.9663302, 21.8349532], [108.9724833, 21.8312846], [108.9637945, 21.8266334], [108.9682883, 21.8167744], [108.9826934, 21.8377857], [109.0025989, 21.8418623], [109.0205149, 21.8354105], [109.0317439, 21.8526708], [109.060228, 21.8460608], [109.0727249, 21.8583064], [109.0836556, 21.8546251], [109.0808074, 21.8615774], [109.1002215, 21.8820945], [109.1281407, 21.8535371], [109.1500574, 21.8619616], [109.1554271, 21.8526586], [109.1634862, 21.8593378], [109.185301, 21.8438257], [109.2015432, 21.8575211], [109.2186183, 21.8586561], [109.2184401, 21.8506226], [109.2287237, 21.8604148], [109.2197847, 21.8656284], [109.2589144, 21.8673161], [109.2541542, 21.8938907], [109.2745504, 21.8931453], [109.260488, 21.9066128], [109.2619212, 21.9146753], [109.2762339, 21.9173748], [109.2875865, 21.9189835], [109.2954185, 21.90608], [109.3215489, 21.902496], [109.3357805, 21.9114179], [109.3576405, 21.8937995], [109.3675009, 21.9009292], [109.3823091, 21.8970467], [109.3801191, 21.8912825], [109.3868866, 21.8934162], [109.3882855, 21.9128384], [109.410392, 21.9067057], [109.4297832, 21.9214336], [109.439278, 21.9159672], [109.4422693, 21.897165], [109.4582429, 21.8886008], [109.4760552, 21.9054845], [109.4886971, 21.8841105], [109.5150626, 21.873528], [109.5359585, 21.9051627], [109.5623438, 21.8973295], [109.5816635, 21.9100658], [109.5761029, 21.9152041], [109.6039278, 21.9120469], [109.6159214, 21.8988562], [109.6315012, 21.910819], [109.648897, 21.9081632], [109.6545086, 21.8960446], [109.6927536, 21.9045328], [109.7005857, 21.8957653], [109.7007886, 21.8764851], [109.6917066, 21.8629188], [109.7038285, 21.8402249], [109.6936505, 21.8070595], [109.7037456, 21.8028752], [109.6850691, 21.7767148], [109.6906114, 21.7504074], [109.6854224, 21.7335715], [109.6938005, 21.7186149], [109.6837305, 21.6909273], [109.7024318, 21.6624499], [109.7175764, 21.6732678], [109.7445605, 21.6578266], [109.7532951, 21.6748721], [109.7613087, 21.6700814], [109.7387426, 21.6173983], [109.77195, 21.4859499], [109.7584899, 21.49975], [109.7537809, 21.45966], [109.7155178, 21.4717556], [109.6903101, 21.49408], [109.6746, 21.4973], [109.6652174, 21.5113769], [109.647381, 21.5166377], [109.6662319, 21.5320822], [109.67148, 21.55315], [109.6744399, 21.57583], [109.66558, 21.5963499], [109.69146, 21.6112299], [109.6749999, 21.6046601], [109.68072, 21.61192], [109.67356, 21.6119901], [109.64232, 21.59616], [109.63578, 21.5601901], [109.6091799, 21.5786401], [109.6196478, 21.6004524], [109.6029124, 21.5866836], [109.6148523, 21.5975202], [109.6003217, 21.6226895], [109.6058708, 21.6209185], [109.6058499, 21.6385999], [109.61869, 21.6500299], [109.5833699, 21.6275899], [109.58233, 21.6505], [109.5710101, 21.6534899], [109.5796901, 21.6669499], [109.56316, 21.6675801], [109.5727199, 21.6753899], [109.55928, 21.6842799], [109.57172, 21.69264], [109.55327, 21.6924701], [109.5634799, 21.71933], [109.5841201, 21.72066], [109.6004701, 21.74024], [109.60287, 21.74772], [109.59542, 21.74946], [109.59154, 21.7378501], [109.5805278, 21.7357722], [109.5807587, 21.7453869], [109.5641935, 21.7264939], [109.5669645, 21.7352248], [109.5606369, 21.7275404], [109.5609909, 21.7360466], [109.5478901, 21.7352801], [109.5282001, 21.72159], [109.5245983, 21.7039915], [109.51837, 21.71198], [109.5132399, 21.70202], [109.4910576, 21.7081376], [109.508142, 21.7009582], [109.5119494, 21.6894879], [109.5216445, 21.6945005], [109.5233201, 21.68602], [109.5313756, 21.6892344], [109.5349765, 21.6834919], [109.52804, 21.68066], [109.5344401, 21.6758199], [109.52804, 21.66856], [109.5336701, 21.6701499], [109.53697, 21.6568001], [109.5076699, 21.6536999], [109.4929701, 21.6643799], [109.4820535, 21.6598239], [109.5330901, 21.64595], [109.5575026, 21.6130572], [109.5694134, 21.6135196], [109.56709, 21.60403], [109.5747635, 21.6027098], [109.5699299, 21.5953], [109.5854733, 21.5813343], [109.5857001, 21.5710407], [109.5729559, 21.5728024], [109.5899334, 21.5703867], [109.579248, 21.5671045], [109.5767977, 21.5560336], [109.5639266, 21.5543227], [109.5885158, 21.5478552], [109.5641211, 21.5536205], [109.5589297, 21.5401724], [109.5783616, 21.5350179], [109.5873986, 21.5457072], [109.5995403, 21.5343755], [109.5979196, 21.5288408], [109.5706724, 21.5366845], [109.561691, 21.5176712], [109.5525688, 21.5181447], [109.5496605, 21.5082588], [109.561152, 21.5033706], [109.549794, 21.4775785], [109.5192128, 21.4906767], [109.5214217, 21.4793254], [109.5091261, 21.4860624], [109.5291078, 21.4699747], [109.5083934, 21.4857314], [109.4990153, 21.479781], [109.5041516, 21.4709951], [109.5188573, 21.4737389], [109.5105083, 21.4584059], [109.5356488, 21.4511545], [109.5328511, 21.4449879], [109.5086034, 21.4559513], [109.4982889, 21.4794729], [109.47382, 21.46843], [109.4574427, 21.4712711], [109.4484589, 21.4534259], [109.39029, 21.4608299], [109.3345799, 21.45088], [109.3293159, 21.4540449], [109.33619, 21.4664701], [109.3272169, 21.4809136], [109.3203518, 21.4551453], [109.2882901, 21.4353599], [109.2509599, 21.43073], [109.23645, 21.44821], [109.24533, 21.464], [109.2428751, 21.4919469], [109.2414735, 21.4694908], [109.2254949, 21.4594143], [109.2318115, 21.4539174], [109.2255364, 21.4464743], [109.2326649, 21.4352557], [109.2273039, 21.4240321], [109.2014352, 21.422965], [109.1790162, 21.4103406], [109.1672507, 21.4151912], [109.1554059, 21.4016954], [109.1241795, 21.4130089], [109.1242012, 21.4248244], [109.1170923, 21.4202885], [109.1220514, 21.4139689], [109.0861406, 21.4338881], [109.0543568, 21.4363863], [109.0648305, 21.4441338], [109.0555318, 21.444775], [109.0523578, 21.4360771], [109.042536, 21.4500594], [109.0489123, 21.4593331], [109.0432146, 21.4695859], [109.0534715, 21.4634291], [109.0740918, 21.486312], [109.0837945, 21.4821273], [109.0768765, 21.4773845], [109.1008196, 21.483263], [109.1316799, 21.4943941], [109.1556843, 21.5082842], [109.1480288, 21.5052869], [109.1681201, 21.53602], [109.1581749, 21.556255], [109.1453826, 21.5620347], [109.1504473, 21.5807523], [109.1397799, 21.59014], [109.1396695, 21.575346], [109.1244668, 21.5736237], [109.1309658, 21.5891225], [109.1195288, 21.5774649], [109.1182709, 21.5816502], [109.1244346, 21.5920281], [109.1235924, 21.5964124], [109.1175172, 21.5813185], [109.1184479, 21.5722369], [109.1015768, 21.5638906], [109.0965235, 21.571768], [109.0882623, 21.5701017], [109.0849686, 21.5812262], [109.07027, 21.5725063], [109.0578031, 21.5791111], [109.0567561, 21.5974753], [109.0460122, 21.6039588], [109.0650263, 21.6237581], [109.06943, 21.6347701], [109.0677399, 21.63707], [109.0173098, 21.6152378], [109.0041482, 21.6443401], [108.9947042, 21.645791], [109.0051675, 21.6415827], [109.0116397, 21.6182974], [109.0072703, 21.6298445], [109.0044916, 21.6250822], [109.0108269, 21.6179508], [109.0165696, 21.6143875], [109.0025601, 21.60271], [108.9703768, 21.5963074], [108.90905, 21.6170001], [108.9064411, 21.637379], [108.88532, 21.6593], [108.89626, 21.6651], [108.8729175, 21.6583505], [108.86609, 21.6750201], [108.84913, 21.68586], [108.8518299, 21.69902], [108.87023, 21.7116101], [108.8608988, 21.7237551], [108.86745, 21.7229], [108.8589665, 21.7319013], [108.8624801, 21.7418632], [108.8854444, 21.7393603], [108.9057755, 21.7547815], [108.9420796, 21.7635383], [108.9429647, 21.7739786]]]]}}]}