{"type": "FeatureCollection", "features": [{"type": "Feature", "properties": {"slug": "beirut", "members": 6, "country": "Lebanon", "input_hash": "cd0b548780b5f52c"}, "geometry": {"type": "Polygon", "coordinates": [[[35.7584582, 33.7223615], [35.7419961, 33.6946335], [35.7123308, 33.676585], [35.7135486, 33.6534946], [35.6950307, 33.6656931], [35.6730973, 33.6318605], [35.6695241, 33.6077802], [35.6618356, 33.605148], [35.6543756, 33.5832262], [35.6543815, 33.5639387], [35.6320568, 33.5314239], [35.631516, 33.5086774], [35.6218089, 33.4936304], [35.6135816, 33.4964568], [35.6171496, 33.5352718], [35.6022075, 33.549489], [35.6055476, 33.5713556], [35.5930972, 33.5920111], [35.5778289, 33.5833956], [35.5773108, 33.5914732], [35.5485606, 33.5900452], [35.5337334, 33.5799633], [35.4757358, 33.5714271], [35.4731905, 33.564369], [35.3859571, 33.5888678], [35.3883013, 33.6062329], [35.3992176, 33.6177207], [35.3979233, 33.6470259], [35.4149593, 33.6533952], [35.4158717, 33.6885227], [35.4366655, 33.6986398], [35.4507512, 33.7563017], [35.4782182, 33.7920839], [35.4768779, 33.8425158], [35.4840352, 33.84182], [35.4793595, 33.8674292], [35.5032062, 33.867727], [35.480767, 33.8678908], [35.4678021, 33.8993507], [35.512795, 33.9042835], [35.5329368, 33.9161128], [35.5077224, 33.9007089], [35.5424908, 33.9086096], [35.5507398, 33.8979338], [35.5769244, 33.9085009], [35.5877194, 33.9467504], [35.6121352, 33.9803999], [35.6079346, 33.9845607], [35.6319933, 33.9843234], [35.6433043, 33.9977137], [35.6428835, 34.011869], [35.6215068, 34.0231099], [35.6442612, 34.0656396], [35.6519471, 34.0612808], [35.6576062, 34.0717951], [35.6908956, 34.0852705], [35.7356071, 34.0753147], [35.789144, 34.0824149], [35.7922861, 34.0742959], [35.7793876, 34.055403], [35.7931571, 34.0473501], [35.788393, 34.0406761], [35.8199487, 34.0534309], [35.8438071, 34.049857], [35.8577013, 34.0616192], [35.9158828, 34.0594693], [35.9259962, 34.0688339], [35.9644436, 34.043352], [35.926494, 34.0094673], [35.8815845, 33.9505772], [35.8997842, 33.936689], [35.8941906, 33.9217302], [35.8589887, 33.9146954], [35.847766, 33.8829615], [35.8190486, 33.8841707], [35.8462633, 33.8825598], [35.7962251, 33.8404522], [35.7985656, 33.8275402], [35.7876698, 33.8098951], [35.7659447, 33.8083094], [35.7803642, 33.7902943], [35.8102369, 33.7880289], [35.7841031, 33.7405226], [35.75412, 33.7401654], [35.7584582, 33.7223615]], [[35.5063856, 33.8623309], [35.5105227, 33.862947], [35.5030232, 33.8631508], [35.5063856, 33.8623309]], [[35.509345211626965, 33.86709702625074], [35.5088696, 33.8657288], [35.5105227, 33.862947], [35.509345211626965, 33.86709702625074]], [[35.51070623655311, 33.868261642955325], [35.5095115, 33.8675754], [35.509428511664396, 33.86733666147293], [35.51070623655311, 33.868261642955325]], [[35.52251275647054, 33.876808719396884], [35.5187372, 33.8748981], [35.51799699093191, 33.87353962795243], [35.52251275647054, 33.876808719396884]], [[35.52974456862437, 33.877341902091665], [35.530007349054344, 33.87805346650705], [35.52294394347114, 33.87702692146947], [35.52974456862437, 33.877341902091665]], [[35.5319737, 33.8653529], [35.5315167, 33.8719259], [35.53033169328668, 33.874404997969236], [35.5319737, 33.8653529]], [[35.4641769, 33.73926], [35.4732656, 33.7429518], [35.4681158, 33.7412924], [35.4641769, 33.73926]], [[35.4647952, 33.7617383], [35.459545510600464, 33.76222792991566], [35.4597601, 33.7614768], [35.4647952, 33.7617383]], [[35.53171727997925, 33.88268366670517], [35.5392739, 33.9031457], [35.5339705, 33.8902216], [35.53171727997925, 33.88268366670517]]]}}]}