{"type": "FeatureCollection", "features": [{"type": "Feature", "properties": {"slug": "bekescsaba", "members": 1, "country": "Hungary", "input_hash": "c0f16816e5d4dc73"}, "geometry": {"type": "Polygon", "coordinates": [[[20.9730719, 46.7306223], [20.9298432, 46.7142047], [20.943209, 46.700653], [20.9463414, 46.6796457], [20.9864535, 46.6869715], [21.0033867, 46.6504927], [20.9967145, 46.6494606], [21.0014133, 46.6417664], [20.9936868, 46.6118054], [21.0539511, 46.61228], [21.0588294, 46.6243826], [21.156466, 46.6469876], [21.1812743, 46.6728062], [21.1994564, 46.6709439], [21.2050545, 46.6633261], [21.2358719, 46.6683378], [21.227899, 46.6764959], [21.2354862, 46.6995886], [21.219491, 46.7147515], [21.1935243, 46.7163859], [21.1847021, 46.7314078], [21.1360682, 46.7342157], [21.121508, 46.7158203], [21.0916211, 46.716362], [21.0856081, 46.7477055], [21.0755104, 46.7444576], [21.0762882, 46.7356832], [21.0606106, 46.7458633], [20.9980095, 46.7157204], [20.9730719, 46.7306223]]]}}]}