{"type":"FeatureCollection","features":[{"type":"Feature","properties":{"slug":"belem","member_count":4,"matched_count":4,"unmatched":[],"source":"Overture Maps division_area (CC-BY 4.0)"},"geometry":{"type":"Polygon","coordinates":[[[-48.6692059,-1.6899954],[-48.702124,-1.6806665],[-48.7467976,-1.6097326],[-48.755221,-1.6127486],[-48.7656338,-1.6015976],[-48.7918821,-1.6013275],[-48.7929457,-1.6097131],[-48.8103009,-1.6046848],[-48.8328242,-1.5598402],[-48.8373952,-1.5214693],[-48.7683962,-1.4658694],[-48.6515865,-1.2320554],[-48.4855193,-1.0314986],[-48.4694837,-1.0194267],[-48.3237638,-1.0596596],[-48.2961242,-1.1274753],[-48.3022396,-1.1564548],[-48.3514064,-1.2140207],[-48.3508513,-1.229787],[-48.333788,-1.2434317],[-48.3534238,-1.2624345],[-48.3386716,-1.2678191],[-48.351675,-1.2778963],[-48.3403346,-1.2904137],[-48.3489981,-1.2950903],[-48.3529249,-1.3127602],[-48.340038,-1.3290563],[-48.3202047,-1.3237288],[-48.3019106,-1.3358143],[-48.2933882,-1.3525593],[-48.2968164,-1.3639761],[-48.2772815,-1.3941909],[-48.2888905,-1.4092848],[-48.2850032,-1.4366157],[-48.2931245,-1.4689318],[-48.3549897,-1.4706785],[-48.3728782,-1.4899567],[-48.4103749,-1.5094423],[-48.435373,-1.5101717],[-48.4574326,-1.5217957],[-48.4997645,-1.5047915],[-48.5078917,-1.530556],[-48.4397805,-1.6494877],[-48.4471596,-1.6594969],[-48.468542,-1.6618513],[-48.4898807,-1.6766578],[-48.5227926,-1.6755071],[-48.5319843,-1.6865509],[-48.5304107,-1.6993218],[-48.6692059,-1.6899954]]]}}]}