{"type": "FeatureCollection", "features": [{"type": "Feature", "properties": {"slug": "belluno", "members": 60, "country": "Italy", "input_hash": "346cebbac06972b8"}, "geometry": {"type": "Polygon", "coordinates": [[[12.690854, 46.6566708], [12.7321585, 46.6341734], [12.7048282, 46.619304], [12.7085782, 46.602128], [12.6877813, 46.6004257], [12.6554098, 46.5708931], [12.6373591, 46.5733813], [12.6189181, 46.5406629], [12.6300772, 46.5010857], [12.6534771, 46.4852018], [12.6615667, 46.4677338], [12.6242067, 46.4752252], [12.6063812, 46.4640075], [12.5686079, 46.4766687], [12.5400182, 46.4563324], [12.5307856, 46.4646812], [12.5304459, 46.4485979], [12.5141142, 46.4463749], [12.4944709, 46.4267195], [12.4991835, 46.4124757], [12.4685179, 46.3899619], [12.4549382, 46.3915468], [12.4632678, 46.3694263], [12.4513469, 46.3706098], [12.4549647, 46.3648296], [12.4284437, 46.3517052], [12.417679, 46.3547782], [12.4210023, 46.3423474], [12.4108376, 46.3307502], [12.3782393, 46.3312578], [12.3529746, 46.3188005], [12.3562776, 46.2938683], [12.3296532, 46.2838514], [12.3224569, 46.2725831], [12.3244799, 46.2557194], [12.3344958, 46.2515345], [12.3381416, 46.2383689], [12.3760606, 46.2228799], [12.4018827, 46.2290303], [12.4092287, 46.221861], [12.4004526, 46.2112495], [12.406001, 46.2070791], [12.4463026, 46.2078812], [12.4471701, 46.1800039], [12.49629, 46.1519215], [12.4986298, 46.1366823], [12.4843355, 46.1043094], [12.4373256, 46.0848924], [12.4101651, 46.0590295], [12.4058438, 46.0425889], [12.3992217, 46.0414395], [12.399894, 46.0629091], [12.3866696, 46.0631022], [12.3903193, 46.071869], [12.3130184, 46.0802323], [12.2738156, 46.0427285], [12.225251, 46.011932], [12.1913766, 46.0044935], [12.1667508, 46.0137218], [12.1697387, 46.00595], [12.1552483, 46.0008647], [12.1102094, 46.0034575], [12.1021321, 45.9874125], [12.0602696, 45.960209], [12.0311733, 45.9737213], [12.0191638, 45.9616845], [12.0007451, 45.9680436], [11.9626026, 45.9547066], [11.9513461, 45.9477141], [11.9451325, 45.9270725], [11.949841, 45.8964793], [11.8691869, 45.8804429], [11.8476668, 45.8837424], [11.846865, 45.8968306], [11.8267212, 45.9079775], [11.8000771, 45.8809479], [11.7743122, 45.8889449], [11.7799465, 45.9084577], [11.7935991, 45.9185807], [11.7692632, 45.921888], [11.745523, 45.9356261], [11.7292455, 45.9338291], [11.7252046, 45.9511639], [11.7099465, 45.9602787], [11.7169723, 45.9714478], [11.6844928, 45.9840327], [11.6898685, 45.9887851], [11.6665863, 46.0170003], [11.6818818, 46.0283422], [11.6664845, 46.0377506], [11.6789671, 46.0462223], [11.7065361, 46.0458096], [11.6862911, 46.066524], [11.685035, 46.0934105], [11.7029718, 46.0902699], [11.7185434, 46.1032305], [11.7414643, 46.105213], [11.7592698, 46.094491], [11.772947, 46.1072704], [11.8153965, 46.1027149], [11.8869558, 46.1179248], [11.9218608, 46.149982], [11.9285973, 46.1758103], [11.9514543, 46.1695236], [11.9477393, 46.1784035], [11.9625021, 46.1879117], [11.9626255, 46.199794], [11.9391377, 46.1990819], [11.9115675, 46.2231359], [11.9290752, 46.2488073], [11.9044341, 46.256169], [11.8943161, 46.2510484], [11.8849445, 46.2607319], [11.8835817, 46.2788979], [11.8380252, 46.2703457], [11.8262644, 46.2849703], [11.8418465, 46.306505], [11.8338357, 46.3107702], [11.8319817, 46.3250644], [11.8028557, 46.3329505], [11.8013712, 46.3440207], [11.7740051, 46.3576871], [11.7922561, 46.3676372], [11.8151399, 46.3677164], [11.8204762, 46.3764141], [11.8361759, 46.3653645], [11.8319452, 46.3872002], [11.8459044, 46.4296702], [11.8906075, 46.4440378], [11.8866732, 46.4648536], [11.8771623, 46.4717816], [11.8134114, 46.4779316], [11.8154569, 46.5003155], [11.9105676, 46.5330354], [11.9413282, 46.5284178], [11.9648248, 46.5448246], [11.9877233, 46.5456032], [11.9982959, 46.5334512], [12.0466256, 46.5838379], [12.044572, 46.6077473], [12.0640604, 46.6216124], [12.0747656, 46.643354], [12.0662431, 46.6538208], [12.0700423, 46.6749953], [12.1441805, 46.6332573], [12.161412, 46.6368489], [12.1825029, 46.6203463], [12.1939667, 46.6220542], [12.1923369, 46.5943804], [12.260832, 46.6298972], [12.2843824, 46.617394], [12.3378379, 46.633129], [12.3599058, 46.6194018], [12.3850639, 46.6226065], [12.3899843, 46.6275169], [12.3779252, 46.6370212], [12.3800294, 46.6432253], [12.4054953, 46.642623], [12.4339209, 46.6684585], [12.4779748, 46.6797883], [12.5160131, 46.6786072], [12.5669009, 46.6515572], [12.6310439, 46.6613938], [12.6417216, 46.651999], [12.690854, 46.6566708]]]}}]}