{"type":"FeatureCollection","features":[{"type":"Feature","properties":{"slug":"bellinzona","member_count":7,"matched_count":6,"unmatched":["Distretto di Bellinzona (CH-TI, type='District')"],"source":"Overture Maps division_area (CC-BY 4.0)"},"geometry":{"type":"Polygon","coordinates":[[[9.054839134118765,46.12203979480074],[9.002706527784085,46.13037872339942],[8.97229099303496,46.10807418857297],[8.963459968902498,46.11408615105506],[8.944480895876666,46.11020278942726],[8.943717956918249,46.12511825600279],[8.924833297418786,46.14397048954652],[8.936289787044075,46.1454277042252],[8.935584068350124,46.151470184301616],[8.918366431765435,46.15737152117879],[8.929428101026076,46.17001724280158],[8.942029952820121,46.22527313254909],[8.916111946509147,46.237560271989025],[8.924073219203763,46.25224304168307],[8.948973656109388,46.26614761362151],[8.98905754047314,46.27381897006944],[8.995965003781976,46.28909683195326],[8.99804210675785,46.27267456028278],[9.01327323896885,46.26610565215418],[9.01145935046867,46.249065398749224],[9.037760227075333,46.23633701237085],[9.0550972,46.2423462],[9.0626295,46.2760616],[9.0777614,46.2603043],[9.074148178295843,46.23386764487594],[9.088027954126858,46.21519088704986],[9.117650985604541,46.20138549774259],[9.158367157218606,46.16719436622708],[9.1345112,46.1532585],[9.1209473,46.1345213],[9.0999736,46.1266173],[9.07919719621355,46.12124740778382],[9.065914153815186,46.13273620621101],[9.054839134118765,46.12203979480074]]]}}]}