{"type": "FeatureCollection", "features": [{"type": "Feature", "properties": {"slug": "belovo", "members": 1, "country": "Russia", "input_hash": "c6128cc1c342c14d"}, "geometry": {"type": "Polygon", "coordinates": [[[86.3069697, 54.5826082], [86.3352852, 54.5554195], [86.3202343, 54.5524338], [86.3326023, 54.5363985], [86.3321302, 54.5189636], [86.2630648, 54.5267898], [86.2223494, 54.5620014], [86.165897, 54.5441575], [86.1764716, 54.5207298], [86.1378704, 54.5067619], [86.167634, 54.4962421], [86.1548037, 54.4598912], [86.154894, 54.4313308], [86.1715616, 54.416063], [86.0776013, 54.3816154], [86.0996096, 54.3590659], [86.1503299, 54.3465663], [86.1551042, 54.3386438], [86.1379805, 54.3425588], [86.1340974, 54.3358788], [86.1658223, 54.2950485], [86.2129048, 54.2964387], [86.238403, 54.3268451], [86.2824326, 54.3336057], [86.2963774, 54.3231148], [86.3081184, 54.3326677], [86.2984696, 54.3375357], [86.3128823, 54.3447077], [86.283365, 54.3574682], [86.2908717, 54.3624188], [86.2790253, 54.381491], [86.2120473, 54.431722], [86.2304573, 54.4379663], [86.2668355, 54.4289657], [86.2798919, 54.4343426], [86.2825189, 54.4512683], [86.3007788, 54.4468019], [86.321876, 54.4739155], [86.3446465, 54.4706071], [86.3441102, 54.4851536], [86.3582327, 54.4833124], [86.3641547, 54.49446], [86.3473936, 54.5204839], [86.3487915, 54.5420774], [86.3591317, 54.5381554], [86.3824859, 54.5475759], [86.4026036, 54.5399112], [86.4157975, 54.5188438], [86.3891532, 54.4999706], [86.3783763, 54.5005803], [86.3846055, 54.4873397], [86.3584467, 54.4815105], [86.3271538, 54.4362745], [86.3866185, 54.4293193], [86.4106517, 54.4391997], [86.4020065, 54.4628738], [86.4169961, 54.4706807], [86.4351543, 54.4561162], [86.4287503, 54.4518281], [86.4385838, 54.4459277], [86.4327395, 54.4403016], [86.4605279, 54.4370658], [86.4505072, 54.4215892], [86.4647765, 54.4197703], [86.46375, 54.41275], [86.47425, 54.4135], [86.4710187, 54.40883], [86.4842648, 54.4071217], [86.4937414, 54.3957071], [86.4451646, 54.4183668], [86.42144, 54.4097726], [86.3825588, 54.4258465], [86.3654608, 54.4187238], [86.3627915, 54.4261942], [86.3516713, 54.4244079], [86.3508653, 54.407207], [86.3730499, 54.3942863], [86.3793327, 54.3563639], [86.3691548, 54.3492838], [86.3780888, 54.3340687], [86.3555548, 54.3310058], [86.3806011, 54.3125352], [86.3550234, 54.3101315], [86.3733743, 54.3064961], [86.3763379, 54.2953002], [86.3503335, 54.2930333], [86.3548708, 54.2885677], [86.3480942, 54.2871245], [86.3233504, 54.3037996], [86.2786834, 54.2778015], [86.2786883, 54.2864205], [86.2659367, 54.2784447], [86.2215962, 54.2811972], [86.2197685, 54.2616263], [86.2027877, 54.2522992], [86.2084057, 54.2435871], [86.1658693, 54.2545695], [86.1482017, 54.2315505], [86.1424586, 54.2333946], [86.1635521, 54.2556948], [86.1066479, 54.2469685], [86.0985377, 54.2532863], [86.1078306, 54.2638714], [86.0935238, 54.2715421], [86.0777253, 54.2599932], [86.0681298, 54.2641021], [86.0604314, 54.2576502], [86.0844664, 54.2403497], [86.069937, 54.2393665], [86.0772804, 54.2328659], [86.0804705, 54.2003061], [86.0305289, 54.1690849], [86.0046024, 54.1784138], [86.0076111, 54.1904402], [85.9609264, 54.1961066], [85.9439973, 54.177652], [85.9151015, 54.1820003], [85.8831931, 54.2090424], [85.8717271, 54.197851], [85.8717271, 54.1661774], [85.9494704, 54.1723031], [85.9864917, 54.1579523], [85.8163432, 54.0959556], [85.8712534, 54.0375565], [85.9098397, 54.0417932], [85.9139406, 54.0254142], [86.0465339, 54.0101874], [86.0198556, 54.0380856], [86.0595141, 54.0502253], [86.0634299, 54.0641697], [86.0898685, 54.0793185], [86.0956398, 54.0861615], [86.0741237, 54.0955898], [86.0963836, 54.1067473], [86.0886344, 54.115205], [86.0925237, 54.120696], [86.1193503, 54.1177136], [86.1542576, 54.1296576], [86.2265744, 54.1249029], [86.2154481, 54.1443749], [86.2055755, 54.1474547], [86.2067144, 54.1559422], [86.2202807, 54.1565774], [86.2336136, 54.1725973], [86.2786486, 54.1664677], [86.2730461, 54.1501091], [86.2807314, 54.1310191], [86.3413832, 54.1573578], [86.3615351, 54.151502], [86.4005753, 54.1710948], [86.3816216, 54.1685314], [86.4065228, 54.1929598], [86.3965149, 54.1980625], [86.4068851, 54.2044528], [86.3880295, 54.2165788], [86.3913569, 54.22337], [86.4372944, 54.2212805], [86.4561534, 54.2291535], [86.4770248, 54.2236344], [86.5162211, 54.2314677], [86.5066246, 54.2422031], [86.5552613, 54.2755295], [86.5864723, 54.271507], [86.607784, 54.2805072], [86.6184715, 54.2785776], [86.6132731, 54.2702709], [86.6817549, 54.2705061], [86.7381582, 54.3018137], [86.7788859, 54.3116141], [86.7818051, 54.3202848], [86.8138785, 54.3244807], [86.8437159, 54.3433463], [86.844103, 54.3582047], [86.88666, 54.3900599], [87.0052819, 54.3146817], [87.009703, 54.320484], [87.0597865, 54.3148117], [87.0796281, 54.3511524], [87.0689098, 54.3663179], [87.4642032, 54.3668705], [87.4561036, 54.3742642], [87.4626167, 54.3771338], [87.4701317, 54.3653138], [87.4847444, 54.3690596], [87.5082082, 54.3935691], [87.5031146, 54.3964859], [87.5146378, 54.4115043], [87.513834, 54.4232918], [87.5008993, 54.4226451], [87.5124192, 54.4255258], [87.5011014, 54.4329913], [87.5182803, 54.4298172], [87.5130809, 54.4639675], [87.4821654, 54.4572572], [87.4930269, 54.4668778], [87.5120009, 54.4682918], [87.4814637, 54.4787271], [87.4564259, 54.5021255], [87.41947, 54.4779434], [87.4023072, 54.4720764], [87.4296292, 54.4947333], [87.4196586, 54.4982275], [87.4440695, 54.5029693], [87.4292823, 54.5162639], [87.4512314, 54.50729], [87.4576572, 54.5244916], [87.4378225, 54.528738], [87.4145218, 54.5483511], [87.3998639, 54.5407205], [87.2515973, 54.6129177], [87.1428795, 54.5966508], [87.0265642, 54.6189244], [86.9221787, 54.6540828], [86.8803408, 54.6469667], [86.8607517, 54.663821], [86.8156351, 54.6676663], [86.7528865, 54.6358361], [86.7291538, 54.6144483], [86.7135007, 54.6170003], [86.7188197, 54.6355533], [86.7083513, 54.6312592], [86.6995268, 54.6410237], [86.6163577, 54.6586444], [86.5282225, 54.6511813], [86.5244388, 54.635726], [86.4923884, 54.6462878], [86.4347422, 54.64178], [86.4124682, 54.6319294], [86.3837732, 54.643712], [86.3404823, 54.6253814], [86.2942491, 54.618494], [86.306477, 54.6049848], [86.3272552, 54.6043198], [86.3086391, 54.5975943], [86.3191724, 54.5891362], [86.3069697, 54.5826082]]]}}]}