{"type": "FeatureCollection", "features": [{"type": "Feature", "properties": {"slug": "beni-suef", "members": 4, "country": "Egypt", "input_hash": "6773f8de5445c84b"}, "geometry": {"type": "MultiPolygon", "coordinates": [[[[31.161044916000037, 29.11125770500007], [31.13795333300004, 29.071369133000076], [31.148293049000074, 29.074609529000043], [31.160312414000032, 29.06559347500007], [31.157422688000054, 29.040980631000025], [31.083352542000057, 29.00351498400005], [31.07331033500003, 29.016853758000025], [31.10850331000006, 29.03986499000007], [31.06706035800005, 29.026670144000036], [31.128275055000074, 29.070459979000077], [31.154009322000036, 29.113957637000055], [31.161044916000037, 29.11125770500007]]], [[[31.131838688000073, 29.083473], [31.05796896800007, 29.029122973000028], [31.031391838000047, 29.027497888000028], [31.020578985000043, 29.015642694000064], [31.004888907000066, 29.018440097000052], [31.005196064000074, 29.033799696000074], [30.993101764000073, 29.045256935000054], [31.00301238000003, 29.065393063000045], [30.994908477000024, 29.08367915100007], [31.01991004100006, 29.12557457500003], [31.010368953000068, 29.131857625000066], [31.008746074000044, 29.15486240100006], [30.979496478000044, 29.156808625000053], [30.974768484000037, 29.16501792200006], [30.980900329000065, 29.180501220000053], [30.99036293000006, 29.18064817000004], [30.996165219000034, 29.171229530000062], [31.01060519200007, 29.177621086000045], [31.043799806000038, 29.157003149000047], [31.05646547200007, 29.164895499000068], [31.05001346000006, 29.172771316000023], [31.058881288000066, 29.17967876000006], [31.07381610300007, 29.16611172200004], [31.066018297000028, 29.134711631000073], [31.081001428000036, 29.11402481300007], [31.090633797000066, 29.146433899000044], [31.103244285000073, 29.14234282600006], [31.103504530000066, 29.131599814000026], [31.115653055000053, 29.13210956200004], [31.119415866000054, 29.12019529400004], [31.13270143300008, 29.13116166800006], [31.134717360000025, 29.11952707000006], [31.148606121000057, 29.114874274000044], [31.131838688000073, 29.083473]], [[31.073939395000025, 29.06200847300005], [31.07075555700004, 29.06441028900008], [31.074216432940634, 29.06120597584104], [31.073939395000025, 29.06200847300005]], [[31.079714255000056, 29.081452865000074], [31.077700501000038, 29.092779756000027], [31.079279555478415, 29.08109458745503], [31.079714255000056, 29.081452865000074]]]]}}]}