{"type": "FeatureCollection", "features": [{"type": "Feature", "properties": {"slug": "berdychiv", "members": 1, "country": "Ukraine", "input_hash": "cf18b976bf461d08"}, "geometry": {"type": "Polygon", "coordinates": [[[29.2525343, 49.5901193], [29.2757057, 49.5900906], [29.2757808, 49.6271199], [29.3277593, 49.6280498], [29.3399577, 49.6142667], [29.3543373, 49.6277913], [29.3799712, 49.6198319], [29.4099221, 49.6592075], [29.4269189, 49.6520225], [29.4311848, 49.662138], [29.5052255, 49.6491931], [29.5134814, 49.6628506], [29.4889911, 49.6689197], [29.4907462, 49.7078007], [29.4980338, 49.7135546], [29.4453545, 49.7134413], [29.4351659, 49.7293503], [29.4446173, 49.7320799], [29.462044, 49.7619157], [29.4304236, 49.8171391], [29.4097466, 49.8090996], [29.38484, 49.8238104], [29.3969725, 49.8306927], [29.3647214, 49.8584895], [29.3280843, 49.8593295], [29.3313522, 49.8527239], [29.3194514, 49.8487734], [29.3303746, 49.8415775], [29.3224158, 49.8322108], [29.3085541, 49.8333299], [29.2962045, 49.859335], [29.2494025, 49.8621591], [29.2508475, 49.8816813], [29.2355169, 49.8818301], [29.2483434, 49.8922651], [29.2348163, 49.9313492], [29.2107541, 49.9431409], [29.220667, 49.9625006], [29.2128072, 49.9665145], [29.2789716, 49.9641981], [29.2826202, 49.9867932], [29.2725565, 49.994143], [29.2781987, 50.0031626], [29.2692011, 50.0122735], [29.3007353, 50.0243857], [29.2771593, 50.0501052], [29.2505777, 50.0542237], [29.2570606, 50.0658223], [29.2730702, 50.0717731], [29.2707246, 50.0990375], [29.22213, 50.1104253], [29.2349414, 50.1237874], [29.2237471, 50.1254365], [29.2190019, 50.136635], [29.1914069, 50.1353844], [29.1991464, 50.1477027], [29.1626054, 50.1428029], [29.164327, 50.0903342], [29.1402814, 50.0874344], [29.1219235, 50.0637517], [29.1086969, 50.0702996], [29.0968816, 50.0614838], [29.0778813, 50.0752803], [29.0634372, 50.0630072], [29.0145058, 50.0801428], [28.9938144, 50.0627927], [28.9822175, 50.0645188], [28.9569623, 50.0500048], [28.9236793, 50.0549765], [28.9306822, 50.0611923], [28.9288144, 50.077459], [28.9374748, 50.083949], [28.9299831, 50.0927933], [28.9488021, 50.0990289], [28.9382357, 50.1178869], [28.9620125, 50.1485084], [28.942099, 50.1534355], [28.8561572, 50.104786], [28.8724792, 50.0979499], [28.8719074, 50.0902762], [28.835867, 50.0822694], [28.8184808, 50.0897422], [28.8084948, 50.0769199], [28.7795147, 50.0704149], [28.7698236, 50.0383455], [28.7151513, 50.0608401], [28.6793729, 50.0623719], [28.6396637, 50.0379154], [28.6412517, 50.0440873], [28.6152108, 50.0480314], [28.5940989, 50.0358491], [28.5195753, 50.0508227], [28.464836, 50.0488013], [28.4644861, 50.0313315], [28.4269229, 50.0287316], [28.4192748, 50.0122546], [28.3841436, 49.9853578], [28.3904391, 49.966757], [28.3857919, 49.9460185], [28.342903, 49.9053673], [28.2859742, 49.9201691], [28.2832178, 49.9136082], [28.2746646, 49.9238858], [28.2457898, 49.9023517], [28.2253105, 49.9015639], [28.2179119, 49.8879355], [28.1828778, 49.8862963], [28.1455893, 49.8701676], [28.1342064, 49.8577474], [28.1426631, 49.8560275], [28.1421891, 49.8475383], [28.1254495, 49.8427376], [28.1319363, 49.8565262], [28.0865331, 49.8504946], [28.0823979, 49.8743351], [28.0717683, 49.8813265], [28.0822003, 49.8864685], [28.0684828, 49.8919019], [28.0682553, 49.902648], [28.0196507, 49.903021], [27.9959173, 49.9177461], [27.9650365, 49.9200607], [27.9689307, 49.90265], [27.9314787, 49.8937169], [27.9275067, 49.87971], [27.8966246, 49.8683531], [27.8738352, 49.8337476], [27.8877645, 49.8266128], [27.8796331, 49.8017464], [27.8879893, 49.7911676], [27.8843147, 49.7857069], [27.9267177, 49.7752755], [27.9188396, 49.7669476], [27.9803703, 49.7801209], [28.0421653, 49.7704903], [28.1096666, 49.7736331], [28.1541745, 49.7890948], [28.2132071, 49.7917928], [28.2261284, 49.7851912], [28.2282347, 49.7949607], [28.2447995, 49.7975765], [28.2433628, 49.8139158], [28.2493898, 49.8150445], [28.2618132, 49.8100458], [28.2626483, 49.7995359], [28.297482, 49.8014065], [28.3790964, 49.7803565], [28.406665, 49.7919769], [28.421866, 49.8249026], [28.4694868, 49.8227535], [28.4819698, 49.8071598], [28.528529, 49.8204857], [28.5698352, 49.7740313], [28.6011352, 49.7818806], [28.6022153, 49.8101529], [28.6282936, 49.815416], [28.6397755, 49.8092951], [28.6363941, 49.8173172], [28.6900831, 49.7994223], [28.6875229, 49.8049405], [28.7063002, 49.8095414], [28.7339902, 49.7982339], [28.7461337, 49.8175979], [28.7589755, 49.8183008], [28.7502605, 49.8227639], [28.7507105, 49.8444329], [28.7848203, 49.8426035], [28.7839097, 49.8515749], [28.8439089, 49.8599461], [28.8572808, 49.8885749], [28.8807905, 49.8883196], [28.8987358, 49.8817681], [28.8955011, 49.8731831], [28.9100809, 49.8665214], [28.9031332, 49.8632904], [28.9386467, 49.8529699], [28.9537469, 49.8399143], [28.9444017, 49.8195432], [28.9608282, 49.8208747], [28.9702209, 49.803634], [28.9421847, 49.7838344], [28.965803, 49.7764963], [28.9640647, 49.7549733], [29.002173, 49.7385919], [29.0047973, 49.7265993], [28.9956572, 49.7275418], [28.9948431, 49.7166287], [28.9760564, 49.6981745], [28.9644689, 49.6995184], [28.9576316, 49.6842917], [28.9457578, 49.6791227], [28.9636986, 49.6725719], [28.9855499, 49.6500865], [28.9790924, 49.6491045], [28.9823718, 49.6447502], [29.0100628, 49.6325427], [28.9851989, 49.6031197], [29.0267814, 49.5904308], [29.1050655, 49.5933369], [29.1167416, 49.5836448], [29.1507524, 49.5930193], [29.1881851, 49.5872378], [29.2037533, 49.594123], [29.2129954, 49.5876265], [29.2415363, 49.6034981], [29.2525343, 49.5901193]]]}}]}