{"type": "FeatureCollection", "features": [{"type": "Feature", "properties": {"slug": "bergen", "members": 2, "country": "Norway", "input_hash": "02618f68b64b89fc"}, "geometry": {"type": "MultiPolygon", "coordinates": [[[[4.852675, 60.5040761], [4.846621, 60.4993043], [4.8413566, 60.5036708], [4.852675, 60.5040761]]], [[[4.8342319, 60.5048514], [4.8277065, 60.5026132], [4.8260283, 60.5042376], [4.8342319, 60.5048514]]], [[[4.8398255, 60.509873], [4.8426358, 60.5132385], [4.8475872, 60.5102539], [4.8398255, 60.509873]]], [[[4.8463798, 60.544391], [4.8461151, 60.5373934], [4.8378732, 60.540094], [4.8463798, 60.544391]]], [[[4.8022681, 60.5432452], [4.7946734, 60.5440025], [4.7994713, 60.5450553], [4.8022681, 60.5432452]]], [[[4.814207, 60.5446465], [4.8060444, 60.5423284], [4.8004795, 60.5467923], [4.8056702, 60.5476643], [4.814207, 60.5446465]]], [[[4.8240184, 60.5464445], [4.8289399, 60.5452868], [4.8262125, 60.5443163], [4.8240184, 60.5464445]]], [[[4.8018153, 60.5480651], [4.7957989, 60.5522488], [4.8255276, 60.5677043], [4.8160015, 60.5505556], [4.8155122, 60.5556878], [4.8018153, 60.5480651]]], [[[4.7951001, 60.5619865], [4.7892648, 60.5641571], [4.8005538, 60.5643635], [4.7951001, 60.5619865]]], [[[4.8209126, 60.5709952], [4.8079192, 60.5641593], [4.7960852, 60.5715148], [4.8133757, 60.5758466], [4.8209126, 60.5709952]]], [[[4.8002104, 60.577271], [4.792774, 60.5750941], [4.7903911, 60.5788104], [4.7931328, 60.5807767], [4.8002104, 60.577271]]], [[[4.7796271, 60.5840304], [4.7810231, 60.5801048], [4.7771845, 60.5838867], [4.7796271, 60.5840304]]], [[[4.8329935, 60.5838874], [4.8258686, 60.5807896], [4.821049, 60.5833329], [4.8329935, 60.5838874]]], [[[4.8013565, 60.5853411], [4.7909331, 60.583578], [4.7916781, 60.5864081], [4.8013565, 60.5853411]]], [[[4.7910428, 60.5866584], [4.7854366, 60.5834482], [4.7851221, 60.5866626], [4.7910428, 60.5866584]]], [[[4.7841144, 60.5864889], [4.7772825, 60.5845222], [4.77585, 60.5854918], [4.7841144, 60.5864889]]], [[[4.818757, 60.5871882], [4.8273044, 60.5886128], [4.829656, 60.5870832], [4.818757, 60.5871882]]], [[[4.7675186, 60.5987692], [4.7713564, 60.5975144], [4.7706017, 60.5953185], [4.7675186, 60.5987692]]], [[[4.794857, 60.6024749], [4.7879479, 60.59792], [4.7934845, 60.5926843], [4.7751482, 60.5932054], [4.775091, 60.5993695], [4.794857, 60.6024749]]], [[[4.7909237, 60.6220966], [4.8361957, 60.628843], [4.8463023, 60.6192854], [4.8410682, 60.6355267], [4.8611883, 60.615232], [4.8474015, 60.6088046], [4.8385572, 60.6136075], [4.8496826, 60.5987223], [4.8392933, 60.5814013], [4.8266934, 60.5918471], [4.8155355, 60.5927119], [4.8120062, 60.5842377], [4.8058403, 60.5850295], [4.8106857, 60.591459], [4.7944225, 60.588124], [4.8030387, 60.5935559], [4.79512, 60.6046545], [4.802562, 60.6085104], [4.7909237, 60.6220966]]], [[[4.7826147, 60.6127213], [4.7860718, 60.6188297], [4.7931598, 60.6116386], [4.7914949, 60.6095697], [4.7826147, 60.6127213]]], [[[4.7745536, 60.6251369], [4.7801535, 60.6304987], [4.7806585, 60.6304831], [4.7745536, 60.6251369]]], [[[4.7949279, 60.6436471], [4.7849671, 60.6497382], [4.8053499, 60.6612923], [4.8238707, 60.6511105], [4.8271702, 60.65257], [4.8383047, 60.6368952], [4.8000008, 60.6247873], [4.7940924, 60.6305531], [4.8051386, 60.639297], [4.789721, 60.6302329], [4.7949279, 60.6436471]]], [[[4.7929201, 60.6578176], [4.7855177, 60.6542912], [4.7837476, 60.6564211], [4.7929201, 60.6578176]]], [[[4.8179952, 60.6623317], [4.824253, 60.6518987], [4.8133005, 60.6605022], [4.8179952, 60.6623317]]], [[[4.7847982, 60.658698], [4.7840989, 60.6601119], [4.7885149, 60.6627321], [4.7847982, 60.658698]]], [[[4.7319092, 60.6625966], [4.7298167, 60.6701554], [4.7459323, 60.6668061], [4.7319092, 60.6625966]]], [[[4.7943885, 60.6750362], [4.8114642, 60.6679046], [4.8070588, 60.6612014], [4.8039546, 60.6618359], [4.7924722, 60.6589976], [4.7943885, 60.6750362]]], [[[4.7565865, 60.6663123], [4.7494203, 60.6708606], [4.75822, 60.6681869], [4.7565865, 60.6663123]]], [[[4.7640228, 60.680153], [4.7581037, 60.678312], [4.7551987, 60.6793521], [4.7640228, 60.680153]]], [[[4.748847, 60.6863873], [4.7392221, 60.6842056], [4.7343604, 60.6852046], [4.7363183, 60.6865612], [4.748847, 60.6863873]]], [[[4.7507674, 60.6909142], [4.7651121, 60.6872565], [4.7408709, 60.6872707], [4.7507674, 60.6909142]]], [[[4.7238845, 60.6913673], [4.740689, 60.6913118], [4.720705, 60.687965], [4.7238845, 60.6913673]]], [[[4.7154175, 60.6917], [4.7020446, 60.6930828], [4.7079647, 60.694918], [4.7154175, 60.6917]]], [[[4.7468079, 60.7025531], [4.7515055, 60.697735], [4.7432206, 60.6941948], [4.746021, 60.6966405], [4.7468079, 60.7025531]]], [[[4.7455381, 60.6994849], [4.7244784, 60.7074067], [4.7281871, 60.7079269], [4.7455381, 60.6994849]]], [[[4.7319255, 60.7129449], [4.7492656, 60.7061342], [4.7198192, 60.7159597], [4.7319255, 60.7129449]]], [[[4.7308439, 60.7146734], [4.7241892, 60.7201628], [4.7444923, 60.7099627], [4.7308439, 60.7146734]]], [[[4.9344389, 60.2677156], [4.9295463, 60.2662123], [4.9284307, 60.2684695], [4.9344389, 60.2677156]]], [[[4.9000008, 60.330144], [4.8889665, 60.3312047], [4.9030558, 60.3344542], [4.906805, 60.3251162], [4.8987118, 60.3241742], [4.9000008, 60.330144]]], [[[4.9246722, 60.3586705], [4.9206688, 60.3603615], [4.9262755, 60.3605903], [4.9246722, 60.3586705]]], [[[4.9292289, 60.3756634], [4.9337622, 60.3772726], [4.9327192, 60.3739643], [4.9292289, 60.3756634]]], [[[4.9172342, 60.3887028], [4.9220459, 60.3903051], [4.9186944, 60.3880666], [4.9172342, 60.3887028]]], [[[4.9018159, 60.4061201], [4.8989111, 60.408877], [4.9050096, 60.4093197], [4.9018159, 60.4061201]]], [[[4.9290999, 60.4086622], [4.9172166, 60.4059013], [4.9254352, 60.4124264], [4.9290999, 60.4086622]]], [[[4.9248652, 60.4130208], [4.9152271, 60.4077541], [4.9123324, 60.4132046], [4.9248652, 60.4130208]]], [[[4.9009448, 60.4105618], [4.9025405, 60.4162575], [4.9079813, 60.4104739], [4.9009448, 60.4105618]]], [[[4.9337, 60.4215793], [4.9376212, 60.4141651], [4.9160637, 60.4232676], [4.9337, 60.4215793]]], [[[4.9176642, 60.4181139], [4.9103288, 60.4181854], [4.9115688, 60.4205497], [4.9176642, 60.4181139]]], [[[4.9139245, 60.4203681], [4.9100052, 60.4230041], [4.9176352, 60.4200048], [4.9139245, 60.4203681]]], [[[4.8808859, 60.4369222], [4.8827628, 60.4413626], [4.8872356, 60.4391337], [4.8808859, 60.4369222]]], [[[4.9013166, 60.4368122], [4.9066979, 60.4372551], [4.9029414, 60.443704], [4.9133421, 60.4368897], [4.9013166, 60.4368122]]], [[[4.9212605, 60.4545964], [4.9272146, 60.4437857], [4.9189889, 60.4422361], [4.9189247, 60.4345467], [4.9049439, 60.4545985], [4.9212605, 60.4545964]]], [[[4.8818083, 60.4495384], [4.8860557, 60.4467108], [4.8741201, 60.4455923], [4.8818083, 60.4495384]]], [[[4.8930482, 60.4537497], [4.904816, 60.4524819], [4.8983995, 60.448743], [4.8930482, 60.4537497]]], [[[4.9341228, 60.4578324], [4.9277799, 60.4533267], [4.9212135, 60.4609193], [4.9341228, 60.4578324]]], [[[4.9265753, 60.4715055], [4.9238895, 60.467683], [4.9220864, 60.4710979], [4.9265753, 60.4715055]]], [[[4.9027844, 60.4877704], [4.8972911, 60.4874611], [4.888794, 60.4871016], [4.9027844, 60.4877704]]], [[[4.8654184, 60.4897546], [4.8627877, 60.4874451], [4.8575048, 60.4892673], [4.8654184, 60.4897546]]], [[[4.924857, 60.4899995], [4.9318873, 60.4879749], [4.9241681, 60.4876478], [4.924857, 60.4899995]]], [[[4.8787418, 60.493305], [4.8877864, 60.4918514], [4.8790294, 60.4897805], [4.8787418, 60.493305]]], [[[4.8962349, 60.4946352], [4.8980102, 60.4922037], [4.8929283, 60.4938424], [4.8962349, 60.4946352]]], [[[4.9057704, 60.4956745], [4.9062553, 60.4930475], [4.903504, 60.492488], [4.9057704, 60.4956745]]], [[[4.9035113, 60.5016359], [4.9080826, 60.4991579], [4.9030352, 60.4983793], [4.9035113, 60.5016359]]], [[[4.8721734, 60.5029061], [4.8690757, 60.4995116], [4.8669436, 60.5026644], [4.8721734, 60.5029061]]], [[[4.916031, 60.4930993], [4.9117961, 60.498478], [4.9185656, 60.5002629], [4.9109715, 60.5000135], [4.9067847, 60.5120029], [4.9019823, 60.5057914], [4.8927296, 60.5146597], [4.9154206, 60.5176908], [4.9331678, 60.5025211], [4.916031, 60.4930993]]], [[[4.8919867, 60.5144176], [4.8958039, 60.5075235], [4.8859179, 60.5024827], [4.8974115, 60.4992298], [4.8820773, 60.4968166], [4.873377, 60.503742], [4.8900422, 60.5062983], [4.8681226, 60.5112297], [4.8919867, 60.5144176]]], [[[4.8886628, 60.5158407], [4.869395, 60.5150719], [4.8807935, 60.5254235], [4.8886628, 60.5158407]]], [[[4.8514124, 60.5207484], [4.8461366, 60.5281196], [4.8499426, 60.5280671], [4.8514124, 60.5207484]]], [[[4.852482, 60.5317316], [4.8517976, 60.527856], [4.8492128, 60.5301414], [4.852482, 60.5317316]]], [[[4.877867, 60.5247439], [4.8562245, 60.5153556], [4.8556872, 60.532899], [4.8619671, 60.5229774], [4.8701569, 60.5281949], [4.8646534, 60.5260556], [4.8511547, 60.5448168], [4.874897, 60.5617821], [4.8838198, 60.5585842], [4.8811425, 60.5636401], [4.8911984, 60.5569742], [4.883457, 60.5489495], [4.8937232, 60.5487863], [4.894643, 60.5369088], [4.9042211, 60.5383931], [4.9164995, 60.5236368], [4.8931579, 60.5169841], [4.8767944, 60.5354449], [4.877867, 60.5247439]]], [[[4.8704626, 60.5611156], [4.8669081, 60.559408], [4.8657116, 60.5633793], [4.8704626, 60.5611156]]], [[[4.8638336, 60.5555786], [4.8526854, 60.563483], [4.8632369, 60.5550881], [4.8316007, 60.5439522], [4.826774, 60.5665288], [4.8681344, 60.5821759], [4.8730079, 60.5651572], [4.8647281, 60.5693376], [4.8638336, 60.5555786]]], [[[4.8612881, 60.5896771], [4.8671487, 60.5860875], [4.8480344, 60.5794646], [4.8612881, 60.5896771]]], [[[4.8481174, 60.5914046], [4.8551121, 60.5883252], [4.8479594, 60.5854713], [4.8481174, 60.5914046]]], [[[4.8627746, 60.6120532], [4.8686909, 60.608792], [4.8650086, 60.607371], [4.8627746, 60.6120532]]], [[[4.9951462, 60.1675699], [4.9986852, 60.1652382], [4.9944576, 60.1659205], [4.9951462, 60.1675699]]], [[[4.9799197, 60.1696966], [4.9848733, 60.1714646], [4.9860874, 60.1697836], [4.9799197, 60.1696966]]], [[[4.9976028, 60.1752026], [5.0028551, 60.1712804], [4.9958976, 60.1716234], [4.9976028, 60.1752026]]], [[[4.985848, 60.1814712], [4.9815781, 60.1841923], [4.9846891, 60.1853622], [4.985848, 60.1814712]]], [[[4.9961208, 60.216275], [5.0090916, 60.2156222], [4.9777206, 60.2276328], [5.0212928, 60.2221394], [5.0128747, 60.2107261], [4.9961208, 60.216275]]], [[[4.9767637, 60.2491572], [4.9779001, 60.2463091], [4.9704527, 60.2477074], [4.9767637, 60.2491572]]], [[[4.9610714, 60.2485866], [4.9567542, 60.2511249], [4.958696, 60.2513166], [4.9610714, 60.2485866]]], [[[4.9349031, 60.2644074], [4.9363435, 60.2687481], [4.9385252, 60.265154], [4.9349031, 60.2644074]]], [[[5.0034829, 60.2882925], [4.9950068, 60.289441], [4.9940844, 60.2920707], [5.0034829, 60.2882925]]], [[[4.9452215, 60.294789], [4.9488331, 60.2918607], [4.9446956, 60.291855], [4.9452215, 60.294789]]], [[[4.9839113, 60.2960017], [4.9930923, 60.2906381], [4.9779466, 60.2974247], [4.9908038, 60.2972501], [4.9839113, 60.2960017]]], [[[4.9385611, 60.3129073], [4.9347632, 60.3025955], [4.9246745, 60.3074167], [4.9385611, 60.3129073]]], [[[4.9944045, 60.3149346], [4.9820345, 60.3134006], [4.9985605, 60.3072134], [4.9829274, 60.3041253], [4.9711849, 60.3139197], [4.9944045, 60.3149346]]], [[[4.9475555, 60.309269], [4.9440122, 60.3131439], [4.9470198, 60.3118665], [4.9475555, 60.309269]]], [[[4.962589, 60.3142764], [4.969375, 60.3116668], [4.9501487, 60.3101812], [4.962589, 60.3142764]]], [[[4.953084, 60.3183671], [4.9520183, 60.3208672], [4.9568265, 60.3212486], [4.953084, 60.3183671]]], [[[4.9706547, 60.324511], [4.9773954, 60.3206561], [4.9694048, 60.3215338], [4.9706547, 60.324511]]], [[[4.9664917, 60.3374508], [4.9827916, 60.3250316], [4.9725203, 60.3263043], [4.9634461, 60.3187927], [4.9462567, 60.3307857], [4.9664917, 60.3374508]]], [[[4.9909879, 60.333143], [4.9918679, 60.3242605], [4.9858074, 60.3300803], [4.9909879, 60.333143]]], [[[4.9566219, 60.3378342], [4.9621048, 60.3433222], [4.9681609, 60.3416134], [4.961899, 60.3380197], [4.9566219, 60.3378342]]], [[[4.9852313, 60.3366004], [4.9766116, 60.3335892], [4.9708676, 60.3468669], [4.9791372, 60.3478555], [4.9852313, 60.3366004]]], [[[4.9227984, 60.3409163], [4.950056, 60.3435993], [4.9201697, 60.3476348], [4.9400705, 60.3501483], [4.9480569, 60.3544123], [4.9234914, 60.3519897], [4.9508496, 60.3617708], [4.9759414, 60.3518341], [4.9485834, 60.3366074], [4.9249527, 60.3345754], [4.9227984, 60.3409163]]], [[[4.9281807, 60.3610634], [4.9372065, 60.3618919], [4.9419425, 60.3600489], [4.9281807, 60.3610634]]], [[[4.9536855, 60.3639232], [4.9452845, 60.3647265], [4.9456977, 60.3681309], [4.9536855, 60.3639232]]], [[[4.9448835, 60.3680735], [4.9416421, 60.364951], [4.935918, 60.3650049], [4.9448835, 60.3680735]]], [[[4.9645499, 60.3700561], [4.9668385, 60.3729888], [4.9666919, 60.3692757], [4.9645499, 60.3700561]]], [[[4.9494386, 60.3695586], [4.9376732, 60.371682], [4.9397056, 60.3804325], [4.9442462, 60.3800606], [4.9494386, 60.3695586]]], [[[4.9547916, 60.3737193], [4.958577, 60.3778648], [4.9593398, 60.3743639], [4.9547916, 60.3737193]]], [[[4.9466924, 60.3834201], [4.9607264, 60.3809193], [4.9516008, 60.376897], [4.9466924, 60.3834201]]], [[[4.9434982, 60.3903985], [4.9395573, 60.3906606], [4.9395099, 60.3926487], [4.9434982, 60.3903985]]], [[[4.9654791, 60.3979448], [4.9694264, 60.399486], [4.9694349, 60.3971046], [4.9654791, 60.3979448]]], [[[4.9477524, 60.4046038], [4.9486602, 60.4009267], [4.9462675, 60.4036968], [4.9477524, 60.4046038]]], [[[4.9308244, 60.4001824], [4.9341961, 60.4058061], [4.9365294, 60.4009796], [4.9308244, 60.4001824]]], [[[4.9563223, 60.3996246], [4.9516419, 60.4053872], [4.9583583, 60.4071126], [4.9563223, 60.3996246]]], [[[4.9632099, 60.4068678], [4.960257, 60.4051602], [4.9592064, 60.409096], [4.9632099, 60.4068678]]], [[[4.9468208, 60.4416682], [4.9420979, 60.4379491], [4.9396182, 60.4424432], [4.9468208, 60.4416682]]], [[[4.9516527, 60.4496227], [4.9686951, 60.4504995], [4.9638738, 60.4385161], [4.9516527, 60.4496227]]], [[[4.9360552, 60.4635829], [4.9278861, 60.4749081], [4.9388436, 60.4745513], [4.9292624, 60.4832594], [4.9443467, 60.477772], [4.9325036, 60.4908967], [4.9359775, 60.4998128], [4.9578166, 60.49736], [4.9671221, 60.4864875], [4.9616501, 60.4820765], [4.9669354, 60.47087], [4.9584972, 60.4687293], [4.9636031, 60.4620554], [4.9464244, 60.4554221], [4.9282005, 60.4659758], [4.9360552, 60.4635829]]], [[[5.0090747, 60.1580455], [5.0151316, 60.1555794], [5.0041388, 60.1539612], [5.0090747, 60.1580455]]], [[[4.9998669, 60.161165], [5.0025306, 60.1665188], [5.010497, 60.1652177], [4.9998669, 60.161165]]], [[[5.0179706, 60.1672829], [5.02589, 60.1652447], [5.0153045, 60.1658528], [5.0179706, 60.1672829]]], [[[5.0573662, 60.1659737], [5.0300359, 60.1622964], [5.0372908, 60.1755394], [5.0573662, 60.1659737]]], [[[5.1111005, 60.1757476], [5.1161051, 60.1741107], [5.10606, 60.1730873], [5.1111005, 60.1757476]]], [[[5.000907, 60.1785867], [5.0207406, 60.1734888], [5.0082424, 60.1712406], [5.000907, 60.1785867]]], [[[5.0142868, 60.178372], [5.0247397, 60.1768092], [5.0200697, 60.1758875], [5.0142868, 60.178372]]], [[[5.0643336, 60.1617747], [5.0704598, 60.166703], [5.0411416, 60.1763071], [5.0558036, 60.2115822], [5.0694887, 60.2086496], [5.0770123, 60.1908556], [5.0703951, 60.1894634], [5.0727371, 60.1823015], [5.0855599, 60.1749863], [5.077757, 60.1630434], [5.0643336, 60.1617747]]], [[[5.0084315, 60.1862893], [5.0153874, 60.1876345], [5.0200369, 60.1860699], [5.0084315, 60.1862893]]], [[[5.0216485, 60.1859363], [5.0197555, 60.1879643], [5.0229337, 60.1883085], [5.0216485, 60.1859363]]], [[[5.0292054, 60.1958468], [5.0347353, 60.1936164], [5.0056621, 60.1941678], [5.0114946, 60.197977], [5.0357495, 60.1959566], [5.0292054, 60.1958468]]], [[[5.0321447, 60.2014531], [5.0187364, 60.2023334], [5.0114742, 60.2044608], [5.0248302, 60.2036882], [5.0321447, 60.2014531]]], [[[5.0129053, 60.2086934], [5.0317815, 60.2035402], [5.0110437, 60.2061481], [5.0129053, 60.2086934]]], [[[5.0618983, 60.2135649], [5.0603212, 60.2191439], [5.0645203, 60.2132551], [5.0618983, 60.2135649]]], [[[5.1802169, 60.226264], [5.2021151, 60.2241406], [5.1951226, 60.2204906], [5.1802169, 60.226264]]], [[[5.213983, 60.2298754], [5.2210483, 60.2334119], [5.2184782, 60.2286978], [5.213983, 60.2298754]]], [[[5.1856581, 60.2415759], [5.1988996, 60.2317209], [5.1884701, 60.2258427], [5.1711071, 60.2298168], [5.1646628, 60.2408595], [5.1856581, 60.2415759]]], [[[5.2065091, 60.2456889], [5.2216621, 60.2504092], [5.2224183, 60.2400057], [5.2072795, 60.2339417], [5.2065091, 60.2456889]]], [[[5.2232681, 60.2558635], [5.2261728, 60.2507305], [5.2206729, 60.2538342], [5.2232681, 60.2558635]]], [[[5.0965733, 60.2673643], [5.0942168, 60.2711959], [5.0977848, 60.2698907], [5.0965733, 60.2673643]]], [[[5.1730275, 60.2911278], [5.1785177, 60.2926586], [5.1790393, 60.2909984], [5.1730275, 60.2911278]]], [[[5.1649827, 60.2999999], [5.167377, 60.2920998], [5.1511757, 60.2873269], [5.1492435, 60.2946095], [5.1649827, 60.2999999]]], [[[5.0137425, 60.2954936], [5.0176227, 60.2947141], [5.0104431, 60.2943901], [5.0137425, 60.2954936]]], [[[4.9990537, 60.3006461], [5.0109484, 60.2980891], [5.0074325, 60.2935468], [4.9990537, 60.3006461]]], [[[5.0049616, 60.3040325], [5.009727, 60.3032213], [5.0073359, 60.301169], [5.0049616, 60.3040325]]], [[[4.9799796, 60.4324615], [4.9893193, 60.4278736], [4.9834964, 60.4228478], [4.9999455, 60.423885], [4.9833565, 60.4461129], [4.98648, 60.458899], [4.9960214, 60.4438609], [5.0181283, 60.4345362], [5.0003279, 60.4223454], [5.005771, 60.412989], [5.0107589, 60.4169417], [5.0161235, 60.4077688], [5.0497322, 60.3990603], [5.0373125, 60.4013178], [5.0448725, 60.3896999], [5.028429, 60.373172], [5.0485535, 60.3825219], [5.0417035, 60.3848423], [5.0519972, 60.3940187], [5.0673598, 60.3678137], [5.133486, 60.333401], [5.1246745, 60.3343796], [5.1384161, 60.3204009], [5.1322664, 60.2947605], [5.1401529, 60.2815214], [5.1320983, 60.2729183], [5.1025067, 60.273791], [5.0921174, 60.2925711], [5.0898926, 60.280269], [5.0692265, 60.285498], [5.088372, 60.2764209], [5.1013523, 60.2582297], [5.0984588, 60.2714067], [5.1206694, 60.2639121], [5.161067, 60.2216693], [5.1641646, 60.2166573], [5.1545981, 60.217667], [5.1697874, 60.1989068], [5.1450323, 60.2152179], [5.1600795, 60.2044394], [5.1592375, 60.190298], [5.1297146, 60.1776427], [5.1088394, 60.1864631], [5.1118531, 60.1767259], [5.0984189, 60.1726106], [5.061444, 60.2262013], [5.0610441, 60.2410484], [5.0692838, 60.2424765], [5.0451098, 60.2404479], [5.0573544, 60.2175943], [5.048652, 60.2169179], [5.0532614, 60.2106135], [5.041043, 60.2025648], [5.0166593, 60.2118515], [5.0229338, 60.2232204], [4.980443, 60.2300888], [4.9914239, 60.233373], [4.9798839, 60.242153], [4.997849, 60.2412978], [4.9796363, 60.2436416], [4.994601, 60.2444356], [4.9834601, 60.2486444], [4.9950812, 60.2676193], [4.9807972, 60.2516167], [4.9563304, 60.2556632], [4.9640766, 60.2611886], [4.954743, 60.2658506], [4.9645373, 60.2672139], [4.948172, 60.2761871], [4.9657823, 60.2757703], [4.9473324, 60.2844489], [4.9680805, 60.2935715], [4.9477465, 60.3030555], [4.9729907, 60.301914], [4.9752352, 60.2884091], [4.9933098, 60.2838873], [5.0050162, 60.2844806], [5.0127448, 60.2936922], [5.0441027, 60.2938844], [5.059808, 60.2741962], [5.0524137, 60.2933357], [5.0699453, 60.3089877], [5.0632691, 60.3121025], [5.0664988, 60.318356], [5.0582722, 60.3058449], [5.045602, 60.3064258], [5.0551895, 60.3041236], [5.0444849, 60.2974886], [5.0489892, 60.2949236], [5.040506, 60.294688], [5.037272, 60.3066738], [5.0294887, 60.2996944], [5.0155266, 60.3022974], [4.9916007, 60.3346657], [4.9956721, 60.3404836], [4.984645, 60.3432936], [4.9919846, 60.3523915], [4.9810392, 60.3548652], [4.9835844, 60.3755592], [4.976869, 60.3693879], [4.9636784, 60.3835566], [4.9679325, 60.392524], [4.985964, 60.3844863], [4.9892772, 60.4048103], [4.9828362, 60.4038315], [4.9877446, 60.3982645], [4.9799136, 60.3996802], [4.9851557, 60.3916496], [4.9706902, 60.394722], [4.9710076, 60.4042331], [4.9564681, 60.4188707], [4.9754141, 60.4506307], [4.9924876, 60.4329736], [4.9799796, 60.4324615]]], [[[5.1764824, 60.3373447], [5.1880524, 60.333077], [5.1800527, 60.3248029], [5.1867555, 60.3272817], [5.1922687, 60.3185062], [5.1828854, 60.3167872], [5.1827735, 60.3003213], [5.1744599, 60.3055194], [5.1692896, 60.2999278], [5.1610363, 60.3041391], [5.1650649, 60.3132406], [5.1570789, 60.3219525], [5.1738641, 60.3264903], [5.1764824, 60.3373447]]], [[[5.1046923, 60.3626283], [5.118657, 60.3440662], [5.092607, 60.3631985], [5.1046923, 60.3626283]]], [[[5.5833918, 60.3583806], [5.5912216, 60.3416383], [5.5434994, 60.3174987], [5.5432874, 60.309701], [5.5251307, 60.2969497], [5.5207097, 60.2796868], [5.4912289, 60.2886793], [5.466216, 60.2653773], [5.4231135, 60.2442661], [5.4212906, 60.2496878], [5.391243, 60.2414688], [5.3653095, 60.2215763], [5.3325579, 60.2224985], [5.3207835, 60.2089143], [5.2532247, 60.1760905], [5.2100775, 60.1887951], [5.209425, 60.2022605], [5.2380227, 60.2300422], [5.227478, 60.23812], [5.232951, 60.2553005], [5.2205586, 60.2587681], [5.2024758, 60.2507547], [5.1555362, 60.2537436], [5.1445788, 60.263853], [5.1611379, 60.27539], [5.1876727, 60.2744474], [5.2031627, 60.3214004], [5.1912704, 60.3355678], [5.1717172, 60.3407227], [5.1701262, 60.3817748], [5.2802587, 60.4090806], [5.243199, 60.4712918], [5.2372385, 60.4953832], [5.2626692, 60.5147228], [5.2614631, 60.5235966], [5.2876423, 60.5329028], [5.3174331, 60.5360925], [5.3814714, 60.5120501], [5.5260627, 60.4254134], [5.6203244, 60.4379593], [5.6357289, 60.4337488], [5.6431181, 60.4428979], [5.686446, 60.4357554], [5.6867918, 60.4259014], [5.6559516, 60.4186835], [5.6434227, 60.402987], [5.5907071, 60.3876504], [5.579202, 60.3775481], [5.5875989, 60.3745437], [5.5833918, 60.3583806]]], [[[5.0924763, 60.3858301], [5.1083897, 60.3773444], [5.1005872, 60.3926212], [5.1104707, 60.3995106], [5.1215719, 60.3875709], [5.1349545, 60.3961731], [5.1529184, 60.3894954], [5.1639562, 60.362383], [5.1515238, 60.3597465], [5.1334164, 60.3698509], [5.1630327, 60.3446695], [5.1499953, 60.3333331], [5.1337588, 60.3366947], [5.1147258, 60.3564208], [5.1107093, 60.3714885], [5.1194923, 60.3728977], [5.1096, 60.3764578], [5.1015019, 60.3691651], [5.077955, 60.3788949], [5.0924763, 60.3858301]]], [[[5.0923753, 60.3654112], [5.0778694, 60.3653901], [5.074718, 60.3693594], [5.0923753, 60.3654112]]], [[[5.0874142, 60.3712655], [5.0937527, 60.3704502], [5.0959628, 60.3684963], [5.0874142, 60.3712655]]], [[[5.0514273, 60.3967134], [5.047851, 60.3946918], [5.0444879, 60.3962834], [5.0514273, 60.3967134]]], [[[5.0714432, 60.4027735], [5.0812346, 60.3927772], [5.0668158, 60.3892175], [5.0714432, 60.4027735]]], [[[5.0891773, 60.4052305], [5.0957711, 60.4057059], [5.0945944, 60.4033546], [5.0891773, 60.4052305]]]]}}]}