{"type":"FeatureCollection","features":[{"type":"Feature","properties":{"slug":"berlin","member_count":356,"matched_count":302,"unmatched":["Berlin-Mitte (DE-BE, type='Borough')","Tempelhof - Sch\u00f6neberg (DE-BE, type='Borough')","Charlottenburg - Wilmersdorf (DE-BE, type='Borough')","Steglitz - Zehlendorf (DE-BE, type='Borough')","Treptow - K\u00f6penick (DE-BE, type='Borough')","Marzahn - Hellersdorf (DE-BE, type='Borough')","Friedrichshain - Kreuzberg (DE-BE, type='Borough')","Gesundbrunnen (DE-BE, type='Quarter')","Wedding (DE-BE, type='Quarter')","Moabit (DE-BE, type='Quarter')","Tiergarten (DE-BE, type='Quarter')","Hansaviertel (DE-BE, type='Quarter')","Charlottenburg (DE-BE, type='Quarter')","Wilmersdorf (DE-BE, type='Quarter')","Westend (DE-BE, type='Quarter')","Schmargendorf (DE-BE, type='Quarter')","Charlottenburg-Nord (DE-BE, type='Quarter')","Halensee (DE-BE, type='Quarter')","Grunewald (DE-BE, type='Quarter')","Kreuzberg (DE-BE, type='Quarter')","Friedrichshain (DE-BE, type='Quarter')","Marzahn (DE-BE, type='Quarter')","Hellersdorf (DE-BE, type='Quarter')","Biesdorf (DE-BE, type='Quarter')","Mahlsdorf (DE-BE, type='Quarter')","Kaulsdorf (DE-BE, type='Quarter')","Lichterfelde (DE-BE, type='Quarter')","Steglitz (DE-BE, type='Quarter')","Zehlendorf (DE-BE, type='Quarter')","Lankwitz (DE-BE, type='Quarter')","Dahlem (DE-BE, type='Quarter')","Nikolassee (DE-BE, type='Quarter')","Wannsee (DE-BE, type='Quarter')","Sch\u00f6neberg (DE-BE, type='Quarter')","Tempelhof (DE-BE, type='Quarter')","Mariendorf (DE-BE, type='Quarter')","Lichtenrade (DE-BE, type='Quarter')","Marienfelde (DE-BE, type='Quarter')","Friedenau (DE-BE, type='Quarter')","K\u00f6penick (DE-BE, type='Quarter')","Altglienicke (DE-BE, type='Quarter')","Obersch\u00f6neweide (DE-BE, type='Quarter')","Adlershof (DE-BE, type='Quarter')","Johannisthal (DE-BE, type='Quarter')","Baumschulenweg (DE-BE, type='Quarter')","Friedrichshagen (DE-BE, type='Quarter')","Niedersch\u00f6neweide (DE-BE, type='Quarter')","Bohnsdorf (DE-BE, type='Quarter')","Alt-Treptow (DE-BE, type='Quarter')","Pl\u00e4nterwald (DE-BE, type='Quarter')","Rahnsdorf (DE-BE, type='Quarter')","Gr\u00fcnau (DE-BE, type='Quarter')","M\u00fcggelheim (DE-BE, type='Quarter')","Schm\u00f6ckwitz (DE-BE, type='Quarter')"],"source":"Overture Maps division_area (CC-BY 4.0)"},"geometry":{"type":"MultiPolygon","coordinates":[[[[12.843499,51.9675426],[12.7761426,51.9649666],[12.7765127,51.9761681],[12.7562435,51.9864987],[12.7303955,51.988589],[12.6671964,52.013186],[12.6486142,52.0081222],[12.644636,51.9943092],[12.6139735,51.9917011],[12.615214,51.982329],[12.539432,51.9849224],[12.5358185,52.0029283],[12.4940434,52.0116148],[12.4807278,52.0331749],[12.4607652,52.0345856],[12.4491521,52.0165009],[12.429478,52.0183326],[12.3895152,52.0435958],[12.3597523,52.0465778],[12.331956,52.0671859],[12.3157201,52.092546],[12.2764918,52.1039277],[12.2650322,52.1305836],[12.243153,52.1409383],[12.2336795,52.1627983],[12.2158471,52.1711175],[12.2282561,52.1862376],[12.2475664,52.1837044],[12.241742,52.1955216],[12.2531301,52.2046776],[12.2451958,52.20745],[12.2489495,52.211627],[12.2811686,52.2168069],[12.2963663,52.2289157],[12.2628639,52.2343232],[12.2756827,52.2367968],[12.245404,52.2498615],[12.2628686,52.2950612],[12.3080899,52.3446322],[12.2841224,52.3641988],[12.3065734,52.3776965],[12.2917108,52.386111],[12.3022689,52.4053087],[12.2745991,52.4160343],[12.2972821,52.4239009],[12.2891822,52.4306741],[12.3025129,52.4343574],[12.3042824,52.4508321],[12.3167689,52.45272],[12.3144141,52.4597577],[12.324546,52.4637797],[12.330686,52.4784899],[12.316058,52.4751093],[12.3094317,52.4863675],[12.3305043,52.4961897],[12.271846,52.4875012],[12.2620807,52.4952736],[12.2700289,52.5008758],[12.2595031,52.5043088],[12.2579581,52.5181973],[12.2353138,52.5239094],[12.2217465,52.5003233],[12.1846731,52.4957216],[12.1671225,52.5146963],[12.1887401,52.532226],[12.1736576,52.538741],[12.1431085,52.5280636],[12.1432487,52.5365803],[12.1611784,52.5628164],[12.1815198,52.575218],[12.1736287,52.5815685],[12.1720182,52.6256986],[12.2034023,52.6185778],[12.2367038,52.6286784],[12.2311638,52.63993],[12.2379889,52.6457589],[12.2343866,52.664145],[12.2404522,52.665306],[12.2264953,52.6832634],[12.2325903,52.6887657],[12.2216359,52.6890216],[12.2172953,52.6996483],[12.2240333,52.7028571],[12.2052017,52.7121534],[12.2097562,52.7175783],[12.1973631,52.7189021],[12.2061815,52.724929],[12.2011006,52.728975],[12.2221618,52.7398259],[12.2058479,52.7604904],[12.2151685,52.763705],[12.2126626,52.7732271],[12.2238108,52.7762978],[12.2200413,52.7897638],[12.2438402,52.7863117],[12.265015,52.8004144],[12.3347205,52.7945776],[12.374446,52.8053891],[12.3958281,52.8021644],[12.3960549,52.7933329],[12.406847,52.7889909],[12.3784203,52.7701597],[12.3984762,52.7697249],[12.4032758,52.7538787],[12.4875088,52.7607756],[12.5203429,52.7520214],[12.5465859,52.7532286],[12.5497392,52.7630648],[12.5406036,52.7659414],[12.5512388,52.7725327],[12.5329143,52.7853882],[12.5479825,52.8105864],[12.5826806,52.80824],[12.6098004,52.7902403],[12.6455624,52.8016112],[12.6459753,52.7926704],[12.6698054,52.7821956],[12.672263,52.76954],[12.7206551,52.7561209],[12.7154734,52.7483813],[12.7227667,52.7437073],[12.7077652,52.7292746],[12.7276773,52.72249],[12.7405692,52.70316],[12.840728,52.6822989],[12.8246251,52.708563],[12.846216,52.7054673],[12.8825411,52.7178562],[12.8649779,52.7225719],[12.9209038,52.7457988],[12.9226104,52.7702104],[12.9102654,52.7723248],[12.9189757,52.7944402],[12.9377938,52.7932149],[12.9442316,52.8011224],[12.9379706,52.8041361],[12.9798672,52.8177182],[12.9857831,52.8285901],[12.9525249,52.8340074],[12.9862543,52.8363748],[12.9674932,52.8397468],[12.9869308,52.8437146],[12.975185,52.862238],[13.0057283,52.8577259],[12.999093,52.8654479],[13.0152946,52.8656651],[13.0390267,52.8546683],[13.0408884,52.860875],[13.0394927,52.8775114],[13.024251,52.8787071],[13.0180658,52.9060825],[13.0464072,52.9173165],[13.0569159,52.9555638],[13.0476741,52.97784],[13.051,52.9904547],[13.0274143,52.9889683],[13.0066256,52.9989228],[13.0126426,53.0118896],[13.0326673,53.0240814],[13.0230716,53.0315085],[13.0261061,53.0718401],[12.9723758,53.072807],[12.9664906,53.0850098],[12.9434703,53.0904197],[12.9380729,53.1041635],[12.9518678,53.1064335],[12.9470175,53.115964],[12.963556,53.1328468],[12.9916656,53.1293965],[13.0089301,53.1452896],[13.0281611,53.1472276],[12.994807,53.1471819],[13.0067857,53.155906],[12.9889544,53.1576462],[12.9840996,53.1670523],[13.0070589,53.1677963],[13.0200412,53.1755905],[13.0188398,53.1854593],[13.0434534,53.1968641],[13.0795158,53.1995645],[13.0870386,53.2152068],[13.1064782,53.215104],[13.1040602,53.2357403],[13.117542,53.2415255],[13.13112,53.2372315],[13.1521132,53.2512124],[13.152274,53.246089],[13.1844354,53.2492702],[13.2057826,53.2201555],[13.2297912,53.2166134],[13.2452959,53.2361543],[13.2520374,53.2198674],[13.2415945,53.213031],[13.2474669,53.205117],[13.2738528,53.2028141],[13.2779233,53.1957689],[13.2718474,53.1901968],[13.2896038,53.1971437],[13.2935209,53.1922937],[13.2835484,53.1868087],[13.3135934,53.1770483],[13.2941102,53.1587219],[13.3032794,53.1550473],[13.2872235,53.139541],[13.2978697,53.143138],[13.3021226,53.1413155],[13.28745,53.1362737],[13.3112174,53.1213533],[13.3267212,53.0995665],[13.3630579,53.0872952],[13.3694889,53.0686714],[13.4141537,53.0565621],[13.4024562,53.0312295],[13.4066373,53.0253538],[13.4444156,53.0295648],[13.4607342,53.0077374],[13.4853719,53.0087445],[13.4868503,53.0017307],[13.5011948,52.9984959],[13.4914468,52.9869832],[13.5648941,52.989425],[13.6225712,53.0033328],[13.6753893,53.0010892],[13.6913409,53.0116696],[13.6645167,53.0158549],[13.6817793,53.0293917],[13.676286,53.0371306],[13.682071,53.0425022],[13.7111237,53.0346469],[13.7346057,53.0444316],[13.8124941,53.0456553],[13.8193959,53.0502229],[13.8164305,53.057704],[13.854639,53.0585794],[13.88551,53.0530256],[13.8533134,53.0322921],[13.8545929,53.0175368],[13.8284397,53.020509],[13.8208706,52.9874421],[13.8513865,52.9854382],[13.8620151,52.9735865],[13.9002803,52.9733063],[13.9126014,52.9771627],[13.9030128,52.9828423],[13.9310504,52.9833539],[13.9269778,52.9790785],[13.9531442,52.9613504],[13.9439674,52.955101],[13.9836527,52.9669066],[13.9911784,52.9598031],[13.9782579,52.9489881],[13.9953877,52.9360192],[13.9917256,52.9319007],[14.0143109,52.9316136],[14.0273389,52.9565231],[14.0705804,52.9491136],[14.0728982,52.9587546],[14.0844248,52.9619487],[14.1417242,52.9628588],[14.1426417,52.9331612],[14.1616111,52.8881242],[14.1578195,52.8748346],[14.1236789,52.845356],[14.1302857,52.828132],[14.2174898,52.8168681],[14.2788068,52.7744591],[14.351042,52.7515101],[14.4239928,52.6961761],[14.4326819,52.681683],[14.4577508,52.673931],[14.4651029,52.661322],[14.5962113,52.6106429],[14.6142877,52.5862639],[14.6390136,52.5733174],[14.6153787,52.5540644],[14.6038381,52.5310308],[14.6122974,52.5107862],[14.6323097,52.5012805],[14.6339257,52.4914836],[14.5788254,52.4415686],[14.5481154,52.4323373],[14.5465301,52.4126915],[14.5343762,52.3949997],[14.430983,52.3942016],[14.4078174,52.3538706],[14.4362913,52.3429005],[14.3980054,52.3079783],[14.3957997,52.2987116],[14.4039497,52.2940891],[14.3948254,52.2687541],[14.4671895,52.2761181],[14.4920149,52.2528709],[14.5073606,52.2547714],[14.5017781,52.2628568],[14.5349207,52.2560518],[14.533311,52.2631448],[14.5494005,52.2612775],[14.5529216,52.2705585],[14.5820171,52.2769153],[14.5759811,52.2870349],[14.5910275,52.268979],[14.6139092,52.2716503],[14.6988057,52.2523481],[14.7162554,52.2337473],[14.708392,52.2116715],[14.6858141,52.193906],[14.7055672,52.1689142],[14.680016,52.1433834],[14.6818121,52.1156403],[14.7002558,52.0981084],[14.741175,52.0851873],[14.759094,52.065383],[14.745449,52.054332],[14.7484224,52.031928],[14.7132621,51.9997229],[14.6992309,52.0070422],[14.7099158,52.0130061],[14.7038068,52.0149702],[14.6801577,52.0017537],[14.6611981,52.0109578],[14.6658202,52.0154623],[14.6496341,52.0278333],[14.5906513,52.0340333],[14.5630189,52.019775],[14.5573397,52.005214],[14.5002144,52.0080203],[14.4793109,52.0458234],[14.4824913,52.0579135],[14.4453898,52.0399872],[14.4535504,52.0142611],[14.3696544,52.0012148],[14.3932291,51.935186],[14.3178905,51.9348888],[14.2234903,51.9041967],[14.2256088,51.888376],[14.2147378,51.8693202],[14.1811529,51.8644991],[14.1737177,51.8570166],[14.1336939,51.8718857],[14.030048,51.8843499],[13.9818294,51.8998836],[13.9227006,51.9026761],[13.8990553,51.8924501],[13.8637212,51.8921392],[13.8637465,51.878711],[13.8476045,51.8763412],[13.8273245,51.857458],[13.8430325,51.8485775],[13.8361746,51.8439486],[13.8544959,51.8387805],[13.8328916,51.8288339],[13.8424689,51.8213014],[13.829851,51.8182145],[13.838763,51.8116915],[13.8377946,51.7894689],[13.8054281,51.7847106],[13.8305467,51.7578591],[13.853623,51.7560071],[13.8440817,51.7351028],[13.8157831,51.7427089],[13.7823337,51.7349816],[13.7826762,51.7543404],[13.7757942,51.7595288],[13.7516394,51.7542813],[13.7297247,51.7596388],[13.6963013,51.7422274],[13.6956689,51.7267394],[13.664456,51.732926],[13.661572,51.7472702],[13.6090443,51.7410257],[13.5788902,51.7562832],[13.5492007,51.7459921],[13.5277169,51.7622269],[13.5203972,51.7822661],[13.5076199,51.7919647],[13.4868459,51.7909677],[13.4746834,51.7992686],[13.4634395,51.793345],[13.4424645,51.8020482],[13.4448246,51.8091432],[13.421028,51.8113978],[13.4187049,51.8199115],[13.3962371,51.8155683],[13.3546328,51.8326487],[13.3102311,51.8305228],[13.3037766,51.8187969],[13.2812883,51.8267594],[13.2487955,51.8220742],[13.2222274,51.8499842],[13.2301075,51.8781659],[13.1650574,51.8843151],[13.1627227,51.8606841],[13.1508331,51.8596696],[13.149538,51.8723723],[13.1324132,51.8824829],[13.0803977,51.8673644],[13.0394518,51.8708904],[13.0269088,51.8810495],[13.0375713,51.8802329],[13.0374309,51.8908342],[13.0482244,51.8917312],[13.0455042,51.9006867],[12.9730658,51.9009989],[12.9765306,51.919889],[12.9562839,51.9227233],[12.9606384,51.9349328],[12.9169648,51.9393281],[12.9149381,51.9312473],[12.896212,51.9274525],[12.8888155,51.9348281],[12.8525581,51.9351164],[12.843499,51.9675426]],[[13.4777288,52.5147204],[13.4422774,52.5310256],[13.4236421,52.527915],[13.4271997,52.5056674],[13.3776503,52.5079658],[13.3630442,52.4995624],[13.3338593,52.506505],[13.3361484,52.5143777],[13.3264936,52.5239589],[13.3168021,52.5209231],[13.3114285,52.5356243],[13.3291366,52.5382348],[13.317956,52.548241],[13.2705931,52.5494336],[13.2808473,52.5300598],[13.222042,52.5261289],[13.2097289,52.5029068],[13.1898203,52.4975432],[13.1852946,52.4625632],[13.1485072,52.4433709],[13.1241178,52.4406731],[13.088345,52.4196325],[13.090275,52.4122142],[13.1096241,52.4129411],[13.1063827,52.40869],[13.1247813,52.3968694],[13.1381026,52.3978562],[13.1272922,52.3916083],[13.131305,52.3872254],[13.1418185,52.3970996],[13.1687694,52.3943952],[13.1577955,52.3963564],[13.1592412,52.4027742],[13.2250586,52.4210782],[13.2459511,52.4211746],[13.2497798,52.4049784],[13.2742071,52.4047899],[13.2967517,52.4162514],[13.3120638,52.3991062],[13.3433453,52.411724],[13.3719482,52.3937967],[13.3703524,52.3884274],[13.3872981,52.3885717],[13.3884283,52.3778616],[13.4208126,52.3761384],[13.42746,52.3857818],[13.4197674,52.4104759],[13.3994933,52.4180204],[13.4168347,52.4522419],[13.4265871,52.4567698],[13.4060789,52.4809987],[13.4078874,52.4888602],[13.4253551,52.4879987],[13.4207201,52.4958348],[13.4705734,52.4769091],[13.4749713,52.4587633],[13.4569705,52.459118],[13.5205057,52.4265574],[13.5241327,52.4135961],[13.516005,52.4017887],[13.5384314,52.4006334],[13.5354929,52.3889916],[13.5926921,52.3938149],[13.6058208,52.3736244],[13.6285136,52.381356],[13.6426777,52.3775085],[13.6471893,52.3670283],[13.6363196,52.3468193],[13.6477328,52.3382448],[13.6711913,52.3664872],[13.6922028,52.3672074],[13.6999584,52.3755917],[13.686831,52.3853033],[13.7390343,52.4073353],[13.729807,52.4163459],[13.7400963,52.4324723],[13.729727,52.4339755],[13.7263139,52.4351868],[13.7228074,52.4371442],[13.7611609,52.4377097],[13.7564462,52.4461766],[13.7290816,52.4507847],[13.7012591,52.4682238],[13.7046132,52.4547613],[13.6954345,52.464186],[13.648307,52.4787311],[13.62534,52.4736998],[13.6227589,52.4664541],[13.6113673,52.470652],[13.6297148,52.4930366],[13.6240057,52.4941989],[13.6331597,52.5117314],[13.6585034,52.5259465],[13.6256871,52.5301844],[13.6248253,52.5380997],[13.6373759,52.5422554],[13.5863822,52.5497848],[13.5749716,52.5738347],[13.541038,52.5659291],[13.5253557,52.5553184],[13.5322649,52.5393146],[13.5168837,52.5355476],[13.518553,52.5139115],[13.5373233,52.5121052],[13.5525971,52.4736503],[13.5306615,52.4678355],[13.5077876,52.4749148],[13.4685734,52.4996572],[13.4777288,52.5147204]]],[[[12.2369798,53.1982729],[12.228783,53.1921025],[12.2104367,53.1992884],[12.1878847,53.1952264],[12.1757395,53.2085583],[12.1899605,53.2233565],[12.2155595,53.2308018],[12.2332763,53.2163267],[12.2369798,53.1982729]]],[[[14.6428852,51.6123167],[14.6773361,51.6175308],[14.707095,51.5767262],[14.6929257,51.5763113],[14.6911201,51.5623028],[14.6769532,51.5517597],[14.6383634,51.5543328],[14.6367727,51.5714334],[14.6516428,51.5761045],[14.6541752,51.5876888],[14.6435304,51.5930118],[14.6428852,51.6123167]]]]}}]}