{"type":"FeatureCollection","features":[{"type":"Feature","properties":{"slug":"besancon","member_count":252,"matched_count":252,"unmatched":[],"source":"Overture Maps division_area (CC-BY 4.0)"},"geometry":{"type":"MultiPolygon","coordinates":[[[[4.6978311,46.6560187],[4.6793215,46.6576846],[4.6789293,46.6454229],[4.659531,46.6611217],[4.6978311,46.6560187]]],[[[5.5165395,46.7983879],[5.5119549,46.7940752],[5.5259064,46.7885592],[5.5193853,46.7813698],[5.5248925,46.7790852],[5.5103989,46.7796087],[5.5024682,46.7593499],[5.4942646,46.7613864],[5.5039693,46.7888654],[5.4924149,46.8014096],[5.5165395,46.7983879]]],[[[5.3016036,46.8351576],[5.3266131,46.864676],[5.3423215,46.8639333],[5.3512387,46.8538426],[5.3459562,46.8498037],[5.3576604,46.8423131],[5.3536838,46.8362978],[5.369733,46.8322671],[5.3752523,46.8247328],[5.3515968,46.8138324],[5.3416566,46.8255031],[5.3417948,46.8198409],[5.3145315,46.8228132],[5.3016036,46.8351576]]],[[[5.8973111,46.9956752],[5.8556709,47.008848],[5.8467911,47.0032281],[5.8397098,47.0158248],[5.8137039,47.0174629],[5.8142157,47.0466508],[5.7981227,47.0434482],[5.7916269,47.0225101],[5.7629064,47.0114848],[5.7434746,47.0225665],[5.7415155,47.0306051],[5.753185,47.0397251],[5.7357879,47.0553875],[5.7455538,47.0572543],[5.7635484,47.0446717],[5.7844883,47.0550076],[5.76913,47.0912438],[5.7872176,47.0956046],[5.8282704,47.1410401],[5.8133918,47.1496901],[5.8115535,47.1690434],[5.7850687,47.1706307],[5.7860395,47.1878791],[5.7602909,47.1940015],[5.753965,47.2065157],[5.7275956,47.1955921],[5.713013,47.2017995],[5.7066642,47.1928898],[5.7003855,47.2134512],[5.7229093,47.225828],[5.6988292,47.2649261],[5.7135756,47.2706692],[5.7426362,47.2611741],[5.7422284,47.2694353],[5.7721702,47.2775301],[5.7833379,47.2907494],[5.844146,47.3000602],[5.860804,47.3157254],[5.8738014,47.3139765],[5.882235,47.3215776],[5.8978044,47.3105769],[5.903065,47.3157508],[5.8963539,47.3288798],[5.9036721,47.3344444],[5.9311954,47.3282874],[5.9275168,47.3452189],[5.9604361,47.3413583],[5.9793385,47.3255205],[5.9936877,47.3289825],[5.9977858,47.340408],[6.0236953,47.3322694],[6.0533943,47.3520951],[6.0742962,47.3510248],[6.084072,47.3601066],[6.0812385,47.3722531],[6.100143,47.3718269],[6.1020177,47.3615701],[6.1130839,47.3617403],[6.1196516,47.3686364],[6.1016438,47.3807559],[6.1174392,47.3966256],[6.1334304,47.3870954],[6.1681812,47.3885712],[6.1594714,47.3911918],[6.1703672,47.3897131],[6.1772592,47.4018718],[6.1907574,47.402428],[6.1704068,47.4122566],[6.1946056,47.4141189],[6.2021901,47.429996],[6.2430647,47.4115079],[6.2336191,47.4301906],[6.2560309,47.4245523],[6.2648607,47.4470527],[6.2876721,47.4463144],[6.2824686,47.4516885],[6.3015366,47.4685224],[6.3028598,47.4912865],[6.3286103,47.4727309],[6.3148917,47.4680697],[6.3296539,47.4569113],[6.3200887,47.453293],[6.3222208,47.4446589],[6.3325163,47.4418168],[6.3367997,47.460264],[6.3448195,47.4555867],[6.3459952,47.4635932],[6.3686618,47.4658337],[6.3763304,47.4940153],[6.3997713,47.5201157],[6.4627649,47.5120816],[6.47427,47.4755222],[6.4971221,47.4739073],[6.467818,47.4462049],[6.4676515,47.4333133],[6.4543288,47.4168934],[6.4307071,47.4078637],[6.4413713,47.3925734],[6.469388,47.3865248],[6.4520854,47.3749098],[6.4502235,47.3523691],[6.4650382,47.352942],[6.4644701,47.3265457],[6.483124,47.328562],[6.47951,47.3079522],[6.5003327,47.2854792],[6.4105984,47.2679249],[6.4052518,47.2544307],[6.3571865,47.2667501],[6.3451868,47.2477855],[6.3280891,47.2520105],[6.3210466,47.2450408],[6.3301176,47.2366868],[6.3112795,47.2261128],[6.3152599,47.2177014],[6.32455,47.217868],[6.3212128,47.2062816],[6.3107587,47.199708],[6.2709552,47.2014631],[6.2253423,47.1734758],[6.2290185,47.1631589],[6.202187,47.1698294],[6.1820948,47.1514806],[6.1947693,47.1350706],[6.1790761,47.130522],[6.1867577,47.1242753],[6.1786018,47.110919],[6.1863357,47.1083471],[6.2279313,47.1237666],[6.2178366,47.1342871],[6.2274212,47.1442643],[6.2556138,47.1465543],[6.2601063,47.1239197],[6.2677507,47.1246644],[6.259102,47.1133876],[6.2861557,47.0862881],[6.2766858,47.0671451],[6.3019317,47.0658958],[6.2752652,47.052991],[6.2959402,47.0424302],[6.2977935,47.0332272],[6.3157715,47.0409579],[6.2902849,47.0258574],[6.3006399,47.0235365],[6.2967427,47.016235],[6.2766312,47.0264656],[6.2575746,47.0099107],[6.2437784,47.0148269],[6.1786628,46.9993212],[6.174029,47.003066],[6.185826,47.0099693],[6.17566,47.0178246],[6.1788928,47.0130221],[6.1594342,47.0083134],[6.1589269,46.9963415],[6.1042513,46.9804239],[6.0725867,46.985908],[6.0543253,46.9779914],[6.070184,46.9675454],[6.0672942,46.9547259],[6.0270387,46.9528174],[5.9972351,46.9342078],[5.9560467,46.9488202],[5.9794219,46.9633924],[5.9759627,46.9758718],[5.9439372,46.9798902],[5.949739,46.9902012],[5.9174474,46.9790496],[5.9218899,46.9853256],[5.9132675,46.9893517],[5.9214893,47.0141863],[5.9110493,46.9994177],[5.8973111,46.9956752]],[[5.8869639,47.1867039],[5.8748639,47.1854798],[5.8586224,47.1721365],[5.8849239,47.155717],[5.9026191,47.1668199],[5.8869639,47.1867039]],[[5.9609056,47.1141058],[5.9520725,47.1153213],[5.9464089,47.100336],[5.9565834,47.0856926],[5.9784838,47.1011241],[5.9589561,47.104669],[5.9609056,47.1141058]],[[5.8509966,47.0988598],[5.8350033,47.0916656],[5.837294,47.0661306],[5.8675478,47.0702029],[5.8646392,47.0853103],[5.8545141,47.0873109],[5.8509966,47.0988598]],[[6.2926693,47.3750309],[6.2933747,47.3822832],[6.2725887,47.3901865],[6.2577267,47.3695716],[6.2926693,47.3750309]],[[6.354405,47.4399347],[6.3986303,47.4359374],[6.4031636,47.4466341],[6.3933058,47.4546593],[6.3675052,47.4512135],[6.354405,47.4399347]]],[[[5.6611743,47.1343211],[5.6734688,47.1282239],[5.6816781,47.1291995],[5.658221,47.1239259],[5.6536722,47.1293668],[5.6611743,47.1343211]]],[[[3.3667521,47.4066348],[3.3899356,47.418117],[3.4205667,47.4170309],[3.4147172,47.3983495],[3.405253,47.3951407],[3.4153272,47.3911807],[3.4135924,47.3842509],[3.3691398,47.394601],[3.3667521,47.4066348]]],[[[4.2280202,47.6428542],[4.2502559,47.6598026],[4.2275109,47.6703082],[4.2327754,47.6686842],[4.2275758,47.6788575],[4.3011062,47.6855009],[4.2892835,47.6733672],[4.2660195,47.6685754],[4.2477977,47.6455284],[4.2280202,47.6428542]]],[[[6.3498763,47.5022459],[6.3459934,47.4932457],[6.3200536,47.4883128],[6.3350135,47.5063652],[6.3789776,47.5114699],[6.3703606,47.5003738],[6.3498763,47.5022459]]]]}}]}