{"type": "FeatureCollection", "features": [{"type": "Feature", "properties": {"slug": "bethlehem", "members": 1, "country": "Palestine", "input_hash": "3ff2ba021f339468"}, "geometry": {"type": "Polygon", "coordinates": [[[35.1879139, 31.6930732], [35.2136615, 31.6951797], [35.2231444, 31.7153585], [35.1964962, 31.7224175], [35.1982145, 31.7101113], [35.1830014, 31.701722], [35.1879139, 31.6930732]], [[35.2015662, 31.7163764], [35.2026182, 31.7142304], [35.2009737, 31.7141199], [35.2015662, 31.7163764]]]}}]}