{"type":"FeatureCollection","features":[{"type":"Feature","properties":{"slug":"beziers","member_count":261,"matched_count":261,"unmatched":[],"source":"Overture Maps division_area (CC-BY 4.0)"},"geometry":{"type":"MultiPolygon","coordinates":[[[[2.696055,42.830524],[2.5519631,42.8466463],[2.516737,42.8426892],[2.4998343,42.8501518],[2.4738792,42.8746002],[2.4662516,42.8906964],[2.4764304,42.9019979],[2.4656917,42.9215155],[2.4543208,42.9325823],[2.4375438,42.9350038],[2.4265976,42.9278785],[2.4090528,42.9350741],[2.4050578,42.944164],[2.4124212,42.9570911],[2.3860818,42.9719844],[2.4272071,43.0002006],[2.4336288,43.022584],[2.452306,43.0203878],[2.455891,43.0311704],[2.4895826,43.0349967],[2.4803818,43.0485688],[2.4987032,43.0452377],[2.4906621,43.0343444],[2.5157564,43.0336862],[2.5524222,43.0343069],[2.5651597,43.0493437],[2.5753735,43.0476868],[2.5831256,43.0665771],[2.5789015,43.0782142],[2.5393564,43.09026],[2.5468929,43.0998138],[2.5590952,43.0913977],[2.6118824,43.123332],[2.6069899,43.1289165],[2.6170911,43.1458061],[2.6269031,43.1467941],[2.6256202,43.1753737],[2.6339472,43.1780974],[2.6206455,43.2150366],[2.6320754,43.2251875],[2.6560234,43.225399],[2.6659327,43.2442083],[2.7409976,43.2646387],[2.6989015,43.2801234],[2.7068873,43.2943334],[2.6890805,43.3229709],[2.6593729,43.2927688],[2.6319168,43.2983746],[2.6171701,43.2843337],[2.6014208,43.2981391],[2.5856697,43.3334793],[2.5515887,43.3341558],[2.5395642,43.3457772],[2.5572866,43.3661967],[2.5517396,43.3785585],[2.5599085,43.3933393],[2.5930006,43.4034043],[2.593994,43.4120408],[2.5656843,43.4228252],[2.606708,43.431456],[2.604688,43.440623],[2.61749,43.4380299],[2.646208,43.4589718],[2.6381404,43.4649967],[2.6425984,43.4691584],[2.6649759,43.4620595],[2.6680011,43.4700921],[2.6545991,43.4967523],[2.658542,43.5169341],[2.6763509,43.5135533],[2.6155245,43.5665612],[2.631926,43.584357],[2.6143168,43.5997386],[2.6285318,43.6109893],[2.6455361,43.6605424],[2.6527408,43.6489209],[2.6844718,43.6538238],[2.7101738,43.6417333],[2.7217442,43.6445173],[2.754349,43.6137823],[2.7812147,43.626243],[2.7945013,43.624475],[2.8133894,43.6410857],[2.8733128,43.6450347],[2.8798176,43.6576445],[2.9067262,43.654513],[2.9190861,43.6632807],[2.9214211,43.6899506],[2.9836102,43.7090642],[3.0273861,43.6926189],[3.0607126,43.692689],[3.0691722,43.7072854],[3.0533861,43.7162275],[3.0586364,43.7268029],[3.0518778,43.7322645],[3.0592794,43.7380915],[3.0525927,43.745878],[3.0758346,43.7684799],[3.0588114,43.7795032],[3.0483775,43.8015049],[3.0636869,43.80917],[3.0575145,43.8185131],[3.0617796,43.8336737],[3.0855124,43.8358422],[3.1789935,43.8015272],[3.1879564,43.7766097],[3.2378843,43.7704473],[3.2522445,43.7164078],[3.2620819,43.7072752],[3.2475041,43.6908728],[3.2543637,43.6809422],[3.2512405,43.6633253],[3.2706407,43.6559309],[3.2644341,43.632818],[3.2940146,43.5865782],[3.3135843,43.5772339],[3.3104822,43.5598914],[3.3424839,43.5543545],[3.3602708,43.5316126],[3.4159203,43.5000588],[3.4397909,43.5024984],[3.4483606,43.5162991],[3.4665717,43.5123812],[3.4930051,43.5301286],[3.5560032,43.49744],[3.5490049,43.4955131],[3.5509693,43.4879024],[3.5679615,43.4752879],[3.5419917,43.4597502],[3.5336825,43.4462318],[3.5371191,43.4351017],[3.5255757,43.4300173],[3.5519642,43.4034978],[3.5274583,43.3956407],[3.5298583,43.3880178],[3.5013179,43.3700974],[3.492829,43.3527576],[3.5114982,43.3306833],[3.5251302,43.3298081],[3.5208923,43.315577],[3.5308744,43.3156161],[3.5394075,43.3023828],[3.506273,43.2678136],[3.5012507,43.2743288],[3.4439283,43.2796236],[3.4308936,43.2899713],[3.3525847,43.2727213],[3.269037,43.2329057],[3.1701291,43.1594074],[3.0839397,43.0588063],[3.0682664,43.0266571],[3.0799001,43.0219098],[3.0827648,43.0114688],[3.079074,43.0221196],[3.0684605,43.0259512],[3.06396,43.0202845],[3.0773708,43.0124632],[3.062089,43.0098285],[3.039163,42.9405625],[3.0401981,42.929939],[3.0606821,42.9176443],[3.0435887,42.8382293],[2.9827022,42.8681641],[2.9175675,42.8846161],[2.8834982,42.9006255],[2.8650512,42.9186456],[2.791806,42.894594],[2.7632002,42.8737677],[2.737319,42.835552],[2.696055,42.830524]],[[2.9303348,43.6003037],[2.942302,43.5774705],[2.9383855,43.5400842],[2.9521561,43.5363778],[2.9739545,43.5569633],[2.9945235,43.5590806],[3.0019327,43.5527407],[3.0200495,43.5563891],[3.0091211,43.5580119],[3.0061047,43.5722195],[2.9846798,43.5639682],[2.9771003,43.5680951],[2.9748691,43.6002448],[2.9627427,43.5832809],[2.9511514,43.5881773],[2.950134,43.605868],[2.9303348,43.6003037]],[[2.6795575,42.9103331],[2.6242955,42.9192426],[2.5823225,42.9114383],[2.6101329,42.8846186],[2.6278856,42.8938446],[2.662978,42.8951383],[2.6795575,42.9103331]],[[2.6952866,43.0590301],[2.7137581,43.0235278],[2.7516372,43.0222138],[2.7568159,43.0315345],[2.7197546,43.0615321],[2.6952866,43.0590301]],[[2.8145815,43.3772388],[2.8203819,43.3708989],[2.816813,43.3581336],[2.7984585,43.3427163],[2.8195448,43.3226533],[2.8460939,43.3256929],[2.8332413,43.3371929],[2.8434195,43.359934],[2.8389278,43.3715646],[2.8145815,43.3772388]],[[3.1735551,43.4509276],[3.1770319,43.4439698],[3.1660931,43.434511],[3.1827398,43.4224714],[3.2047019,43.4276169],[3.1885719,43.4518774],[3.1735551,43.4509276]],[[3.0306897,43.3032146],[3.0060316,43.2998727],[3.0047617,43.285104],[3.0141656,43.2816742],[3.0093905,43.2747485],[3.0247007,43.2822431],[3.0542618,43.2799151],[3.0306897,43.3032146]],[[2.9301087,43.117515],[2.9780999,43.1022244],[2.9867031,43.0882274],[3.0123877,43.0899463],[2.997,43.14375],[2.9526823,43.1353026],[2.9301087,43.117515]],[[3.2643263,43.5711988],[3.235684,43.5852107],[3.2266852,43.5804745],[3.2340613,43.5501608],[3.2504179,43.5537916],[3.2643263,43.5711988]]],[[[0.7136755,42.8829331],[0.7502165,42.8843005],[0.7467952,42.8659245],[0.7812355,42.8567448],[0.8008625,42.8406806],[0.7677381,42.8382537],[0.7086465,42.8615226],[0.7136755,42.8829331]]],[[[1.8744411,42.9862652],[1.8600189,43.0026973],[1.8739336,43.0125497],[1.8890279,43.0135573],[1.8858949,43.0091446],[1.896276,43.0042016],[1.8744411,42.9862652]]],[[[1.482279,42.9999992],[1.4545467,43.0016055],[1.4578844,43.0130576],[1.4823609,43.0137941],[1.482279,42.9999992]]],[[[1.4472654,43.1238205],[1.4896767,43.1229369],[1.4877637,43.1067452],[1.4672996,43.1067609],[1.4529036,43.0974336],[1.468988,43.082259],[1.4545287,43.0687605],[1.4142102,43.0815008],[1.4260131,43.0959873],[1.4040416,43.1118958],[1.4377667,43.1142429],[1.4472654,43.1238205]]],[[[0.1506482,43.1315722],[0.1226986,43.1224584],[0.1133795,43.1117845],[0.080478,43.1096468],[0.0832952,43.1254283],[0.0988328,43.1318896],[0.1506482,43.1315722]]],[[[1.0136624,43.4952556],[0.9925464,43.4948771],[0.977325,43.4856395],[0.9662358,43.4942587],[0.9726904,43.5050767],[1.0128411,43.5008912],[1.0136624,43.4952556]]],[[[1.5925908,43.5953892],[1.5562221,43.6083723],[1.5421562,43.6164021],[1.5575353,43.6229805],[1.5969692,43.6133028],[1.5925908,43.5953892]]],[[[2.1737695,43.6670831],[2.1399686,43.6388319],[2.1223495,43.6361384],[2.1145881,43.6496189],[2.1602179,43.6821251],[2.1737695,43.6670831]]],[[[0.8753971,43.8201313],[0.8774895,43.8052198],[0.8753936,43.7980813],[0.8651115,43.7987416],[0.8697292,43.792799],[0.8593715,43.7945051],[0.8457772,43.814815],[0.8110989,43.8104501],[0.8315223,43.8283634],[0.8487178,43.8199277],[0.8672879,43.8234396],[0.8753971,43.8201313]]],[[[2.9024689,42.622355],[2.9144444,42.6086802],[2.9070695,42.5960393],[2.8915832,42.5881284],[2.8684125,42.5959945],[2.8672002,42.6212693],[2.9024689,42.622355]]],[[[3.5016969,43.2628457],[3.5016082,43.2637627],[3.5023832,43.2632807],[3.5016969,43.2628457]]],[[[3.4359793,43.5227228],[3.4109362,43.5297891],[3.4259817,43.5505292],[3.439891,43.5409648],[3.4359793,43.5227228]]]]}}]}