{"type":"FeatureCollection","features":[{"type":"Feature","properties":{"slug":"bhubaneswar","member_count":1,"matched_count":1,"unmatched":[],"source":"Overture Maps division_area (CC-BY 4.0)"},"geometry":{"type":"Polygon","coordinates":[[[85.3728246,20.2760056],[85.329287,20.2781995],[85.324974,20.2580705],[85.3406381,20.2513468],[85.3261757,20.2447839],[85.3223777,20.2298049],[85.2552366,20.226674],[85.2549577,20.2141197],[85.2435851,20.2093977],[85.2335751,20.2120658],[85.2296162,20.2229592],[85.218941,20.2200597],[85.1994252,20.1887965],[85.2041352,20.1738827],[85.2133727,20.1699148],[85.203942,20.1531559],[85.2129006,20.1309255],[85.2418685,20.1160363],[85.2711904,20.1484825],[85.3124535,20.155271],[85.3123462,20.1686257],[85.3275704,20.1797739],[85.3403592,20.1714254],[85.3465605,20.1873264],[85.3613341,20.1874774],[85.3701424,20.1748796],[85.3557551,20.1437484],[85.3764832,20.1464378],[85.3857422,20.1556739],[85.3884888,20.1361535],[85.4071677,20.1356499],[85.4163194,20.1250123],[85.4005694,20.0903245],[85.3843152,20.0916444],[85.3802919,20.0706246],[85.3971791,20.0376685],[85.4148388,20.0332738],[85.4155254,20.0247663],[85.4360175,20.0286774],[85.4155254,19.9939783],[85.4371762,19.9961762],[85.4552865,19.9714934],[85.4363394,19.9403118],[85.4225421,19.9384762],[85.4179072,19.9238915],[85.3844332,19.939747],[85.3834247,19.9516678],[85.3596711,19.9558227],[85.3288793,19.9256062],[85.3050613,19.9266351],[85.2463746,19.9059766],[85.2222776,19.9118879],[85.1626897,19.9038985],[85.1239371,19.9330701],[85.0512171,19.9148738],[85.0260043,19.9011545],[84.975965,19.9038783],[84.94071,19.8969376],[84.9354744,19.8750241],[84.9696779,19.8541167],[84.9857068,19.8189957],[84.999547,19.8148978],[85.0059414,19.8034714],[85.0447154,19.8053691],[85.0722456,19.7941439],[85.085206,19.7687027],[85.1380777,19.7383698],[85.1445794,19.7201108],[85.1839971,19.6719284],[85.2094459,19.6802528],[85.2106475,19.6960113],[85.1990604,19.7021527],[85.2027511,19.7175051],[85.2204322,19.7397231],[85.2509021,19.7434392],[85.2527045,19.7671075],[85.2876376,19.7814845],[85.3296088,19.7849574],[85.360422,19.8226697],[85.3876304,19.8311477],[85.4387855,19.8831362],[85.5035876,19.8848311],[85.5012702,19.8681226],[85.5646348,19.8530067],[85.5720806,19.9022037],[85.5636692,19.9079134],[85.569334,19.9152571],[85.5341005,19.9265544],[85.5362248,19.9368826],[85.5279207,19.943519],[85.5210113,19.9309117],[85.5076003,19.9273815],[85.5205822,19.9388594],[85.5074072,19.9524746],[85.5175781,19.9741757],[85.5285859,19.9776645],[85.5324697,19.9586262],[85.547533,19.9567706],[85.5519104,19.9629221],[85.5517816,19.9521518],[85.5634331,19.953483],[85.5665016,19.9720783],[85.5562019,19.9753655],[85.5704069,19.9793786],[85.5625105,19.9970433],[85.5707073,19.99787],[85.572381,20.0252905],[85.5920362,19.9980313],[85.6143951,20.0193633],[85.6075716,19.9990395],[85.6132364,19.9927483],[85.6311321,20.0215003],[85.6132793,20.037225],[85.6186437,20.065203],[85.6447362,20.0840672],[85.6329774,20.1019619],[85.6496286,20.0967226],[85.6504011,20.0674201],[85.681858,20.0705239],[85.6716013,20.0877349],[85.6913423,20.0964405],[85.6755065,20.1129637],[85.6753778,20.1250527],[85.6912994,20.1583732],[85.7025861,20.1434664],[85.7196664,20.1424592],[85.7150316,20.1372213],[85.7248592,20.1283165],[85.7217693,20.1417339],[85.7285929,20.1494696],[85.7589555,20.1396388],[85.7532263,20.1469313],[85.764234,20.1536394],[85.7635474,20.1680618],[85.7810569,20.1669338],[85.780499,20.1571645],[85.799253,20.1507588],[85.8057332,20.1605889],[85.8262253,20.1600249],[85.8380914,20.1900754],[85.8446145,20.1754738],[85.8568239,20.1749502],[85.8567595,20.1909615],[85.8430052,20.1963385],[85.8528757,20.2017959],[85.8869934,20.1836106],[85.9036445,20.151061],[85.883882,20.126201],[85.8730674,20.1241661],[85.8813715,20.111392],[85.8989239,20.1105457],[85.9054041,20.1251131],[85.9289002,20.1125204],[85.9483194,20.118968],[85.9525895,20.1124196],[85.9600997,20.1213253],[85.9988737,20.1073822],[86.005032,20.1143136],[86.0235929,20.0994229],[86.0324549,20.1052463],[86.0814213,20.1029895],[86.0642981,20.124287],[86.035223,20.1350052],[86.0320258,20.1420562],[86.0446644,20.1412303],[86.0530543,20.1641944],[86.0374975,20.1792402],[86.0217261,20.1673165],[86.0277772,20.1813952],[86.016941,20.1864302],[86.0038733,20.2251539],[85.9906554,20.2258586],[85.9704637,20.242831],[85.9507441,20.2705709],[85.9315824,20.2711345],[85.9384274,20.2825873],[85.9233427,20.2932543],[85.910275,20.3189528],[85.9186864,20.3266596],[85.9191584,20.3166186],[85.9273124,20.3131977],[85.9270549,20.33006],[85.8996534,20.3537004],[85.8974218,20.3724291],[85.8931088,20.3611036],[85.8788181,20.3564867],[85.8777451,20.3792078],[85.8664584,20.3991401],[85.8599138,20.3961434],[85.8423829,20.4102214],[85.8251738,20.4076674],[85.8164191,20.4303508],[85.8048105,20.4352973],[85.7935238,20.4278373],[85.7849836,20.4331055],[85.7799196,20.4237351],[85.7851124,20.4114281],[85.7713151,20.4041278],[85.7665944,20.4154903],[85.7586121,20.4071646],[85.7326913,20.4103823],[85.7138085,20.4020764],[85.6775665,20.3243255],[85.6655931,20.3315087],[85.6424832,20.3254724],[85.6225705,20.2927311],[85.5806637,20.3025522],[85.5706,20.2980643],[85.5509662,20.3131776],[85.5480265,20.3017874],[85.5266332,20.3063356],[85.5220628,20.2938179],[85.5109477,20.2913223],[85.4593634,20.2971386],[85.4489994,20.2644718],[85.4239583,20.273711],[85.4069209,20.2580503],[85.3974795,20.2587549],[85.3944969,20.2786021],[85.3812361,20.286975],[85.3728246,20.2760056]]]}}]}