{"type": "FeatureCollection", "features": [{"type": "Feature", "properties": {"slug": "bialystok", "members": 16, "country": "Poland", "input_hash": "080fdba2ac39ac7a"}, "geometry": {"type": "Polygon", "coordinates": [[[22.7600675, 52.8762795], [22.7335243, 52.9032385], [22.7125896, 52.9094592], [22.7094787, 52.9272013], [22.7149783, 52.9336406], [22.7422851, 52.9253752], [22.7669915, 52.9282649], [22.7679941, 52.9499325], [22.788024, 52.965941], [22.7615024, 52.9910745], [22.7783539, 53.0018058], [22.7613218, 53.0067893], [22.7863652, 53.0322753], [22.8628739, 53.0552754], [22.8669349, 53.0761987], [22.8412675, 53.0709996], [22.8155823, 53.0789005], [22.802783, 53.1009715], [22.811665, 53.120644], [22.7492202, 53.1136627], [22.7260995, 53.1255329], [22.6820544, 53.1305933], [22.6864546, 53.1353177], [22.658378, 53.1437831], [22.6163023, 53.1313768], [22.5975934, 53.0958967], [22.5840469, 53.0951009], [22.5888683, 53.0994385], [22.5492591, 53.1094678], [22.5557804, 53.1162624], [22.5503046, 53.1253752], [22.5138459, 53.1335969], [22.5129855, 53.1417958], [22.4945791, 53.1522616], [22.4989194, 53.1652129], [22.4837184, 53.1650151], [22.4856631, 53.1785181], [22.4782818, 53.1792768], [22.4690742, 53.2033696], [22.4863288, 53.2057091], [22.4790315, 53.2130544], [22.5456095, 53.2205905], [22.5639118, 53.2092633], [22.6031335, 53.2115396], [22.620469, 53.201364], [22.6177109, 53.2321153], [22.6096502, 53.2366035], [22.6418269, 53.2491089], [22.6656129, 53.2447622], [22.7076853, 53.2773047], [22.7396079, 53.2677919], [22.7467854, 53.2405708], [22.7603894, 53.245878], [22.7706978, 53.2373839], [22.7784278, 53.2228702], [22.7738122, 53.2138886], [22.8155296, 53.2248771], [22.829453, 53.2164233], [22.8535238, 53.2290559], [22.8845334, 53.2263223], [22.9215165, 53.2603429], [22.9551591, 53.2623488], [22.9528468, 53.2736727], [22.9319152, 53.2739038], [22.9143854, 53.2851197], [22.9314264, 53.2966422], [22.9482302, 53.3035649], [22.959117, 53.2952926], [22.9338636, 53.2904606], [22.9438663, 53.2805421], [22.9877714, 53.2904182], [22.9993254, 53.2821158], [23.0246486, 53.2805396], [23.0280328, 53.2996592], [23.0774583, 53.3061303], [23.0813029, 53.3276048], [23.109699, 53.3196209], [23.1312113, 53.3264982], [23.1177678, 53.3392245], [23.1202248, 53.3527728], [23.1526773, 53.3500024], [23.1748879, 53.3615127], [23.1554832, 53.3631464], [23.1602047, 53.3831687], [23.2055662, 53.3773652], [23.2198225, 53.384746], [23.319094, 53.3670044], [23.3071137, 53.3542916], [23.3405678, 53.3499138], [23.3280664, 53.3337952], [23.3652777, 53.3519279], [23.3672836, 53.3410849], [23.3536006, 53.3360518], [23.3666572, 53.3356146], [23.3609527, 53.3235586], [23.3862546, 53.3171128], [23.3788241, 53.3126034], [23.3934956, 53.3120123], [23.3977028, 53.3024465], [23.3916705, 53.2968666], [23.4037308, 53.2944146], [23.4031925, 53.2840664], [23.3938387, 53.2815849], [23.398519, 53.2773567], [23.3884492, 53.278488], [23.3851648, 53.273297], [23.4150737, 53.2731126], [23.4366465, 53.2629282], [23.424974, 53.2547682], [23.4450964, 53.2675071], [23.4450634, 53.2733042], [23.4513273, 53.2736876], [23.4511977, 53.2661488], [23.5125631, 53.255882], [23.4812356, 53.2201291], [23.4622803, 53.2184456], [23.4914665, 53.1929717], [23.4940334, 53.2150805], [23.524818, 53.216316], [23.5162584, 53.2092439], [23.5395121, 53.1953415], [23.5357864, 53.2103188], [23.7116642, 53.1695634], [23.7130663, 53.1572859], [23.7371954, 53.1486798], [23.7672973, 53.1600795], [23.8379534, 53.149728], [23.8418078, 53.1626267], [23.8702494, 53.1598516], [23.8722117, 53.1678507], [23.9137322, 53.1668973], [23.9182613, 53.157623], [23.9097186, 53.1499225], [23.9157859, 53.1429686], [23.8968118, 53.1306733], [23.8828028, 53.0935303], [23.871878, 53.0840897], [23.8861673, 53.0621822], [23.9025996, 53.0581567], [23.8996904, 53.0480742], [23.9164299, 53.0399859], [23.9100022, 53.0328225], [23.925382, 53.0246258], [23.9311037, 52.9762265], [23.9462763, 52.9587295], [23.9164612, 52.9388441], [23.9153961, 52.9041195], [23.8203786, 52.9113889], [23.8017151, 52.9212386], [23.7913123, 52.9376751], [23.7303175, 52.9453335], [23.7133141, 52.9466262], [23.7009227, 52.9335817], [23.6190796, 52.9310393], [23.6155549, 52.954272], [23.6345498, 52.9669127], [23.6012413, 52.9675355], [23.5825641, 52.9562301], [23.5612348, 52.955119], [23.5833562, 52.9636126], [23.5481475, 52.9784069], [23.5138886, 52.9725305], [23.4932553, 52.9903118], [23.4339462, 52.974673], [23.4328145, 52.9581809], [23.4188945, 52.9639031], [23.3694904, 52.9608842], [23.3758716, 52.9597743], [23.3703926, 52.9209541], [23.3862442, 52.9208148], [23.3907074, 52.9043609], [23.368499, 52.8931244], [23.2990317, 52.8920489], [23.2667942, 52.9059544], [23.1875483, 52.9011904], [23.1790842, 52.9123228], [23.1589961, 52.9140693], [23.1291191, 52.9059701], [23.106802, 52.9142043], [23.0621325, 52.9014001], [22.9949227, 52.9079896], [22.9405676, 52.9266523], [22.9345383, 52.9215985], [22.9384852, 52.8877653], [22.9214053, 52.8849267], [22.9064915, 52.8681641], [22.8749369, 52.8834162], [22.8565407, 52.8785178], [22.8697996, 52.8645558], [22.8225385, 52.8606997], [22.8181123, 52.8504523], [22.7893102, 52.8588892], [22.7585673, 52.8498965], [22.7600675, 52.8762795]]]}}]}