{"type":"FeatureCollection","features":[{"type":"Feature","properties":{"slug":"bielefeld","member_count":28,"matched_count":28,"unmatched":[],"source":"Overture Maps division_area (CC-BY 4.0)"},"geometry":{"type":"MultiPolygon","coordinates":[[[[7.1184612,51.380722],[7.1498113,51.3769662],[7.1595866,51.3651128],[7.1474885,51.3525734],[7.1532023,51.3493216],[7.1454752,51.3420498],[7.1482962,51.3339524],[7.1135809,51.3272556],[7.0867307,51.3381513],[7.09538,51.3472677],[7.0903265,51.3686336],[7.1184612,51.380722]]],[[[8.5341884,51.8318653],[8.5202701,51.8091287],[8.4681693,51.7919334],[8.4169122,51.7588153],[8.4031488,51.7192034],[8.3467195,51.724425],[8.350664,51.7413961],[8.3670659,51.7483694],[8.3587853,51.7707755],[8.3461508,51.7743595],[8.362309,51.7829351],[8.3613582,51.7900597],[8.339573,51.7939472],[8.3339346,51.8049004],[8.3030546,51.7917133],[8.2595625,51.7906128],[8.2574443,51.802878],[8.2407993,51.8089962],[8.2335915,51.8222036],[8.2000902,51.8277399],[8.2053872,51.8363855],[8.2184814,51.8366969],[8.2144531,51.8530071],[8.18476,51.8623412],[8.1725498,51.8881967],[8.1588219,51.8910121],[8.1618719,51.8997389],[8.1503993,51.8986133],[8.17033,51.9112285],[8.1686263,51.9276139],[8.1129437,51.9558685],[8.1055316,51.9686908],[8.1143901,51.9717867],[8.1110159,52.0010716],[8.090951,51.9970876],[8.0755848,52.0107366],[8.0964236,52.057073],[8.1518059,52.0764281],[8.1940306,52.0727973],[8.2199615,52.1055088],[8.2465208,52.1216602],[8.2627882,52.1203187],[8.267788,52.1319122],[8.2873638,52.1348616],[8.2851765,52.1255177],[8.310497,52.1182495],[8.3243485,52.1258184],[8.3635809,52.1182951],[8.372884,52.1096778],[8.4052865,52.1114346],[8.4109,52.1366642],[8.4813148,52.1598233],[8.5173184,52.1851628],[8.4549098,52.1994463],[8.4424991,52.2131447],[8.4612348,52.2290774],[8.4596501,52.2428997],[8.4685127,52.247606],[8.4587927,52.258055],[8.4661358,52.267701],[8.4721968,52.2597686],[8.5290555,52.2639027],[8.5711903,52.2533996],[8.6351449,52.2608258],[8.6709036,52.2475929],[8.6841706,52.2320435],[8.6980143,52.2488331],[8.7148053,52.2517471],[8.7206964,52.241993],[8.7519184,52.2328729],[8.756354,52.2150945],[8.7845818,52.2063838],[8.7840665,52.1796612],[8.7695125,52.1695888],[8.7778763,52.1630935],[8.8270344,52.1731367],[8.8258291,52.1787507],[8.8391057,52.1747338],[8.847457,52.1803565],[8.8449884,52.1874368],[8.8604513,52.186454],[8.8722065,52.1959111],[8.9000276,52.1969045],[8.926719,52.1847832],[8.8976342,52.1555141],[8.9029732,52.144643],[8.892262,52.1350691],[8.9020177,52.1280827],[8.8945891,52.1158026],[8.864097,52.1026345],[8.8790309,52.0902963],[8.8984698,52.0888936],[8.8958907,52.0777525],[8.908769,52.0688018],[8.9446275,52.0649688],[8.9484856,52.0706546],[8.9541348,52.0617631],[8.9706202,52.0583335],[8.9778584,52.0466624],[8.9651709,52.0409063],[8.9826262,52.0327566],[8.9789629,52.0263832],[8.9917679,52.0224868],[8.9971731,52.0112649],[8.9793046,52.0064837],[8.98437,51.9978747],[8.9636946,51.9813423],[8.941046,51.9758594],[8.8722612,51.9981771],[8.8727869,51.9897562],[8.8576137,51.9881045],[8.8773515,51.9834363],[8.874777,51.9755679],[8.8466385,51.9751438],[8.8427445,51.965827],[8.8253333,51.9717624],[8.8059555,51.9673896],[8.8043847,51.9562697],[8.7855501,51.9571371],[8.7606815,51.9211187],[8.7101297,51.9354323],[8.6923217,51.9274574],[8.7017446,51.9216519],[8.6838248,51.9156364],[8.7199575,51.8914191],[8.7483439,51.8585842],[8.6624739,51.8519865],[8.6379141,51.8782361],[8.6282141,51.862472],[8.5341884,51.8318653]]]]}}]}