{"type":"FeatureCollection","features":[{"type":"Feature","properties":{"slug":"bilbao","member_count":114,"matched_count":113,"unmatched":["Arrankudiaga (Arrancudiaga) (ES-PV, type='Municipality')"],"source":"Overture Maps division_area (CC-BY 4.0)"},"geometry":{"type":"MultiPolygon","coordinates":[[[[-3.122627,42.9694849],[-3.1226463,42.9687524],[-3.1230211,42.9696929],[-3.122627,42.9694849]]],[[[-3.0411645,42.9823208],[-3.0602574,43.0035101],[-3.0770974,43.0085249],[-3.0891521,43.0015039],[-3.090481,43.0094696],[-3.0653267,43.0230014],[-3.0500418,43.0467146],[-3.0284709,43.0462116],[-3.029203,43.0368014],[-3.0183435,43.0373508],[-3.0327194,43.0201943],[-2.9857892,43.0116275],[-2.9916336,43.0005571],[-2.985696,42.9921687],[-2.9555792,42.9988994],[-2.9736166,42.9890907],[-3.0010802,42.9894995],[-3.0043252,42.9825599],[-3.0411645,42.9823208]]],[[[-3.0166686,43.2026172],[-3.0266429,43.161111],[-3.1106588,43.1431058],[-3.1418851,43.1611547],[-3.1482871,43.1738681],[-3.1687436,43.1783153],[-3.1869478,43.1692173],[-3.207732,43.1797919],[-3.224508,43.1699827],[-3.2532734,43.1987474],[-3.2779494,43.1945308],[-3.3099285,43.1719992],[-3.3416121,43.1661627],[-3.3507014,43.1535768],[-3.4176076,43.1333163],[-3.4334518,43.1710449],[-3.4330452,43.206398],[-3.450912,43.2362448],[-3.4184394,43.2410687],[-3.4134616,43.2499022],[-3.398904,43.2457747],[-3.3831016,43.2703653],[-3.3385913,43.2780633],[-3.342022,43.2934725],[-3.3591394,43.3068761],[-3.3730373,43.3496218],[-3.3478815,43.3805687],[-3.324607,43.3868771],[-3.3352584,43.414602],[-3.3237448,43.4191295],[-3.3261094,43.4032435],[-3.3191518,43.3989356],[-3.3044909,43.4096673],[-3.2282034,43.3964507],[-3.2216234,43.3938294],[-3.2243304,43.3852764],[-3.2173881,43.3864178],[-3.2088965,43.3811482],[-3.2174778,43.3837616],[-3.2129094,43.3750279],[-3.1614565,43.3508901],[-3.1290196,43.3549366],[-3.1195363,43.3478001],[-3.1124178,43.3505605],[-3.1091701,43.3646999],[-3.0840266,43.3779698],[-3.1043893,43.36465],[-3.0774631,43.3633738],[-3.0861693,43.3604668],[-3.0812006,43.3518493],[-3.0751229,43.3551054],[-3.0721809,43.3626299],[-3.0458679,43.3592581],[-3.0707402,43.3544851],[-3.0535079,43.3536938],[-3.0575448,43.3466317],[-3.0461499,43.3433115],[-3.0404104,43.3493849],[-3.0453527,43.351822],[-3.0318328,43.3466422],[-3.0409545,43.340807],[-3.0314115,43.3372719],[-3.0437506,43.3391452],[-3.0187321,43.3267314],[-3.0109073,43.3381065],[-3.0277951,43.3419629],[-3.0148207,43.3406051],[-3.0126101,43.3478638],[-3.0395796,43.3733896],[-2.9945667,43.3886042],[-2.9704133,43.4126708],[-2.9462151,43.4114723],[-2.9554459,43.4219412],[-2.9466132,43.4361209],[-2.8077662,43.429894],[-2.784664,43.4443977],[-2.7859274,43.448047],[-2.7766871,43.4447657],[-2.7520347,43.4568595],[-2.7387009,43.4294127],[-2.7096232,43.4225064],[-2.7235629,43.418403],[-2.7005744,43.4153339],[-2.693985,43.3998786],[-2.6779742,43.4122014],[-2.6428641,43.415139],[-2.6380004,43.4028554],[-2.6174203,43.3912907],[-2.6015301,43.3945575],[-2.5828257,43.3879978],[-2.5845192,43.3836075],[-2.5837274,43.382234],[-2.5627349,43.3909593],[-2.5437418,43.3727015],[-2.5094161,43.3772035],[-2.5025946,43.3642348],[-2.4875609,43.3632906],[-2.4599561,43.3354464],[-2.4324992,43.3339638],[-2.4127205,43.321225],[-2.4397021,43.2960736],[-2.4178747,43.2674531],[-2.4390291,43.2517348],[-2.4367334,43.2437508],[-2.4625483,43.223027],[-2.4939142,43.2258879],[-2.4977259,43.2201427],[-2.4994103,43.2096092],[-2.4869246,43.2014305],[-2.4924815,43.1808794],[-2.4852192,43.1723201],[-2.5097345,43.1612343],[-2.5008349,43.1520842],[-2.49631,43.1233706],[-2.5007154,43.0962591],[-2.5859825,43.081368],[-2.6326869,43.0870087],[-2.6612407,43.0739055],[-2.6611327,43.0657571],[-2.6334444,43.0451864],[-2.6336965,43.0199924],[-2.666634,43.0313883],[-2.6866358,43.0218475],[-2.7036789,43.0311637],[-2.7299077,43.0239443],[-2.7405029,43.0341827],[-2.7695408,43.0268358],[-2.8641643,43.0517352],[-2.89408,43.0465266],[-2.9751173,43.0990401],[-2.9355285,43.1360228],[-2.9382159,43.1568723],[-2.9263046,43.158738],[-2.9077832,43.1412129],[-2.9065673,43.1775518],[-2.9275118,43.1891197],[-2.9211155,43.1962112],[-2.9397975,43.1976003],[-2.9569197,43.212682],[-3.0065053,43.1960268],[-3.0272493,43.216969],[-3.0373503,43.2137561],[-3.0166686,43.2026172]],[[-3.3036988,43.2554089],[-3.2925886,43.2408275],[-3.2973063,43.2065027],[-3.2848167,43.1971702],[-3.267251,43.2039979],[-3.2697736,43.2320499],[-3.2520163,43.2461191],[-3.2491749,43.259649],[-3.2673825,43.2674466],[-3.3036988,43.2554089]],[[-2.8512385,43.2124415],[-2.8590998,43.1924488],[-2.8501468,43.1825584],[-2.8574154,43.1747379],[-2.8416831,43.1689729],[-2.8499213,43.1830941],[-2.834332,43.2076387],[-2.8003699,43.2267014],[-2.8194917,43.229598],[-2.8268925,43.2177975],[-2.8512385,43.2124415]]],[[[-3.1132461,43.3519372],[-3.1129267,43.3519746],[-3.1129444,43.3518998],[-3.1132461,43.3519372]]],[[[-3.0782179,43.3539246],[-3.0789881,43.3549015],[-3.0779638,43.3546182],[-3.0782179,43.3539246]]],[[[-3.1682274,43.3561355],[-3.1683203,43.3560032],[-3.1684033,43.3560578],[-3.1682274,43.3561355]]],[[[-3.077111,43.3790213],[-3.0778434,43.3795771],[-3.0769527,43.3793514],[-3.077111,43.3790213]]],[[[-2.9355835,43.4402343],[-2.9346887,43.4394767],[-2.935326,43.438922],[-2.9355835,43.4402343]]],[[[-2.6808343,43.4233581],[-2.6872965,43.4268972],[-2.6878895,43.4275665],[-2.6808343,43.4233581]]],[[[-2.7903557,43.4435876],[-2.7902323,43.4438096],[-2.7900258,43.443683],[-2.7903557,43.4435876]]],[[[-2.7889355,43.4444084],[-2.7888335,43.4441104],[-2.789142,43.4443704],[-2.7889355,43.4444084]]],[[[-2.77486,43.4504892],[-2.7757704,43.4529507],[-2.7743265,43.4505356],[-2.77486,43.4504892]]],[[[-2.4969112,43.3669664],[-2.4936188,43.368369],[-2.4962111,43.3651333],[-2.4969112,43.3669664]]]]}}]}