{"type": "FeatureCollection", "features": [{"type": "Feature", "properties": {"slug": "birgunj", "members": 1, "country": "Nepal", "input_hash": "a2142b44b1b8f452"}, "geometry": {"type": "Polygon", "coordinates": [[[84.8552118, 26.9856333], [84.8804103, 26.9891389], [84.9113453, 27.0182971], [84.9171854, 27.0343524], [84.8986704, 27.033566], [84.9000786, 27.0462087], [84.9175827, 27.0726648], [84.9354033, 27.0697128], [84.9241702, 27.0841473], [84.9402755, 27.0931966], [84.9413888, 27.1116843], [84.9548896, 27.1266123], [84.9468121, 27.1410525], [84.9506678, 27.1623306], [84.9448655, 27.1633102], [84.960679, 27.1956111], [84.973756, 27.2656121], [84.956427, 27.2994627], [84.9686875, 27.319217], [84.9650644, 27.3633983], [84.9267229, 27.3641439], [84.9082423, 27.3778327], [84.9013636, 27.3752468], [84.8768334, 27.3981176], [84.8521117, 27.3991416], [84.8403644, 27.4152409], [84.8100131, 27.4162045], [84.7896706, 27.4385796], [84.7537899, 27.4362538], [84.7249, 27.4447888], [84.7176514, 27.432298], [84.6471553, 27.4292264], [84.6422504, 27.4442813], [84.6280125, 27.4509918], [84.5605802, 27.462079], [84.5476994, 27.4177356], [84.5323571, 27.4141858], [84.5453391, 27.4103449], [84.5466265, 27.4036015], [84.5351681, 27.4033348], [84.5396742, 27.3861886], [84.5040821, 27.3814945], [84.4837985, 27.366753], [84.4862269, 27.3589062], [84.5040863, 27.3545753], [84.6221253, 27.3364549], [84.6893337, 27.2229126], [84.6807348, 27.2008663], [84.6855092, 27.1804261], [84.6754145, 27.1713609], [84.6864953, 27.1581013], [84.6767284, 27.1151731], [84.6688274, 27.109239], [84.6745018, 27.0965617], [84.6461974, 27.0757952], [84.6427204, 27.0470261], [84.757532, 27.0027579], [84.7733137, 27.01773], [84.7887445, 27.0095462], [84.7861763, 26.9986239], [84.7932429, 26.9958807], [84.8082216, 27.0162932], [84.8253891, 27.0209814], [84.8540968, 27.0083656], [84.8552118, 26.9856333]]]}}]}