{"type":"FeatureCollection","features":[{"type":"Feature","properties":{"slug":"birmingham-al","member_count":153,"matched_count":16,"unmatched":["Balance of Bibb County (US-AL, type='Balance')","Brent city (US-AL, type='City')","Centreville city (US-AL, type='City')","Woodstock town (US-AL, type='Town')","West Blocton town (US-AL, type='Town')","Vance city (US-AL, type='City')","Balance of Blount County (US-AL, type='Balance')","Oneonta city (US-AL, type='City')","Blountsville town (US-AL, type='Town')","Hayden town (US-AL, type='Town')","Cleveland town (US-AL, type='Town')","Locust Fork town (US-AL, type='Town')","Snead town (US-AL, type='Town')","Susan Moore town (US-AL, type='Town')","Allgood town (US-AL, type='Town')","Highland Lake town (US-AL, type='Town')","Nectar town (US-AL, type='Town')","Rosa town (US-AL, type='Town')","County Line town (US-AL, type='Town')","Altoona town (US-AL, type='Town')","Garden City town (US-AL, type='Town')","Trafford town (US-AL, type='Town')","Balance of Chilton County (US-AL, type='Balance')","Clanton city (US-AL, type='City')","Jemison city (US-AL, type='City')","Thorsby city (US-AL, type='City')","Maplesville town (US-AL, type='Town')","Calera city (US-AL, type='City')","Balance of Coosa County (US-AL, type='Balance')","Goodwater town (US-AL, type='Town')","Rockford town (US-AL, type='Town')","Kellyton town (US-AL, type='Town')","Balance of Cullman County (US-AL, type='Balance')","Hanceville city (US-AL, type='City')","Good Hope city (US-AL, type='City')","Holly Pond town (US-AL, type='Town')","Baileyton town (US-AL, type='Town')","West Point town (US-AL, type='Town')","South Vinemont town (US-AL, type='Town')","Dodge City town (US-AL, type='Town')","Garden City town (US-AL, type='Town')","Fairview town (US-AL, type='Town')","Berlin town (US-AL, type='Town')","Colony town (US-AL, type='Town')","Arab city (US-AL, type='City')","Birmingham city (US-AL, type='City')","Balance of Jefferson County (US-AL, type='Balance')","Hoover city (US-AL, type='City')","Vestavia Hills city (US-AL, type='City')","Homewood city (US-AL, type='City')","Trussville city (US-AL, type='City')","Mountain Brook city (US-AL, type='City')","Gardendale city (US-AL, type='City')","Hueytown city (US-AL, type='City')","Center Point city (US-AL, type='City')","Irondale city (US-AL, type='City')","Leeds city (US-AL, type='City')","Fairfield city (US-AL, type='City')","Pleasant Grove city (US-AL, type='City')","Fultondale city (US-AL, type='City')","Pinson city (US-AL, type='City')","Tarrant city (US-AL, type='City')","Midfield city (US-AL, type='City')","Kimberly city (US-AL, type='City')","Adamsville city (US-AL, type='City')","Warrior city (US-AL, type='City')","Helena city (US-AL, type='City')","Morris city (US-AL, type='City')","Brighton city (US-AL, type='City')","Lipscomb city (US-AL, type='City')","Graysville city (US-AL, type='City')","Sylvan Springs town (US-AL, type='Town')","Brookside town (US-AL, type='Town')","Mulga town (US-AL, type='Town')","Trafford town (US-AL, type='Town')","West Jefferson town (US-AL, type='Town')","Lake View city (US-AL, type='City')","Maytown town (US-AL, type='Town')","North Johns town (US-AL, type='Town')","County Line town (US-AL, type='Town')","Argo city (US-AL, type='City')","Cardiff town (US-AL, type='Town')","Sumiton city (US-AL, type='City')","Balance of Shelby County (US-AL, type='Balance')","Alabaster city (US-AL, type='City')","Hoover city (US-AL, type='City')","Pelham city (US-AL, type='City')","Helena city (US-AL, type='City')","Calera city (US-AL, type='City')","Chelsea city (US-AL, type='City')","Montevallo city (US-AL, type='City')","Columbiana city (US-AL, type='City')","Indian Springs Village city (US-AL, type='City')","Vincent town (US-AL, type='Town')","Westover town (US-AL, type='Town')","Birmingham city (US-AL, type='City')","Wilsonville town (US-AL, type='Town')","Harpersville town (US-AL, type='Town')","Wilton town (US-AL, type='Town')","Leeds city (US-AL, type='City')","Vestavia Hills city (US-AL, type='City')","Balance of St. Clair County (US-AL, type='Balance')","Pell City city (US-AL, type='City')","Moody city (US-AL, type='City')","Margaret city (US-AL, type='City')","Odenville city (US-AL, type='City')","Springville city (US-AL, type='City')","Argo city (US-AL, type='City')","Ashville city (US-AL, type='City')","Riverside city (US-AL, type='City')","Leeds city (US-AL, type='City')","Trussville city (US-AL, type='City')","Ragland town (US-AL, type='Town')","Steele town (US-AL, type='Town')","Vincent town (US-AL, type='Town')","Balance of Talladega County (US-AL, type='Balance')","Sylacauga city (US-AL, type='City')","Childersburg city (US-AL, type='City')","Oxford city (US-AL, type='City')","Munford town (US-AL, type='Town')","Oak Grove town (US-AL, type='Town')","Waldo town (US-AL, type='Town')","Bon Air town (US-AL, type='Town')","Talladega Springs town (US-AL, type='Town')","Vincent town (US-AL, type='Town')","Balance of Walker County (US-AL, type='Balance')","Jasper city (US-AL, type='City')","Sumiton city (US-AL, type='City')","Dora city (US-AL, type='City')","Carbon Hill city (US-AL, type='City')","Cordova town (US-AL, type='Town')","Parrish town (US-AL, type='Town')","Oakman town (US-AL, type='Town')","Sipsey town (US-AL, type='Town')","Nauvoo town (US-AL, type='Town')","Kansas town (US-AL, type='Town')","Eldridge town (US-AL, type='Town')"],"source":"Overture Maps division_area (CC-BY 4.0)"},"geometry":{"type":"MultiPolygon","coordinates":[[[[-86.374016,32.75153],[-86.412735,32.749287],[-86.4131899,32.7072923],[-86.7143173,32.7055661],[-86.7135396,32.6616859],[-87.01635,32.663441],[-87.019157,32.837034],[-87.319305,32.83152],[-87.319214,32.87569],[-87.4212,32.874508],[-87.421936,33.003379],[-87.318539,33.006179],[-87.3119418,33.0942139],[-87.281945,33.13306],[-87.199317,33.130657],[-87.199153,33.196554],[-87.143344,33.236186],[-87.1218638,33.2357395],[-87.1215907,33.221423],[-87.1042026,33.221423],[-87.0767397,33.2467853],[-87.0657963,33.2467853],[-87.0657105,33.2760674],[-87.0874256,33.279691],[-87.0876402,33.2907047],[-87.1269507,33.2907405],[-87.1272511,33.305483],[-87.1619696,33.3061645],[-87.1622271,33.3207967],[-87.1796936,33.3209402],[-87.1800799,33.342884],[-87.1975464,33.3430274],[-87.1975893,33.3581194],[-87.2319711,33.365819],[-87.232154,33.3948779],[-87.2496453,33.39555],[-87.2537437,33.4181242],[-87.284079,33.4260344],[-87.2843351,33.4406619],[-87.3143045,33.4417917],[-87.3141582,33.4557754],[-87.3355283,33.4561723],[-87.335327,33.470833],[-87.342476,33.470783],[-87.3307862,33.4916733],[-87.3029189,33.4898391],[-87.2877562,33.4794804],[-87.2877304,33.5007575],[-87.2665647,33.4978878],[-87.261131,33.506173],[-87.2670563,33.5128395],[-87.318169,33.514172],[-87.318382,33.587856],[-87.370728,33.587017],[-87.370895,33.602028],[-87.42382,33.602524],[-87.423195,33.689396],[-87.528084,33.6926],[-87.531509,33.868092],[-87.636116,33.872566],[-87.635796,34.00259],[-87.235687,33.994919],[-87.199593,33.985142],[-87.189774,34.002922],[-87.17318,34.005749],[-87.150909,33.993149],[-87.111572,33.992455],[-87.110222,34.314236],[-86.47718,34.30265],[-86.476631,34.289474],[-86.459389,34.289471],[-86.458839,34.274929],[-86.451057,34.274471],[-86.4562977,34.2633768],[-86.4442791,34.2590688],[-86.444962,34.249931],[-86.406113,34.201733],[-86.303516,34.099073],[-86.332388,34.04648],[-86.333658,33.982095],[-86.370152,33.93977],[-86.325622,33.940147],[-86.318783,33.955736],[-86.277828,33.989302],[-86.251585,33.965604],[-86.230207,33.982787],[-86.198781,33.988841],[-86.189766,33.983454],[-86.192154,33.97308],[-86.167976,33.965109],[-86.167005,33.928508],[-86.147561,33.91908],[-86.142717,33.899391],[-86.110325,33.903351],[-86.111774,33.886398],[-86.100345,33.86315],[-86.069872,33.866198],[-86.056979,33.85778],[-86.05469,33.84584],[-86.0654992,33.8402198],[-86.05357,33.8285286],[-86.0639544,33.8126289],[-86.0635253,33.7970827],[-86.0442625,33.7630479],[-86.0638299,33.7594447],[-86.0994459,33.73611],[-86.1220118,33.710744],[-86.137803,33.7150988],[-86.1457072,33.7049313],[-86.145562,33.679098],[-86.050669,33.67459],[-86.025797,33.646285],[-86.021707,33.601172],[-85.995585,33.600885],[-85.994935,33.586475],[-85.794559,33.585565],[-85.796616,33.542221],[-85.852112,33.492054],[-85.869179,33.491695],[-85.869293,33.477139],[-85.887459,33.476784],[-85.887512,33.469505],[-85.782417,33.469357],[-85.78228,33.48391],[-85.765221,33.483803],[-85.765625,33.499268],[-85.643448,33.496151],[-85.649712,33.324234],[-85.640923,33.324165],[-85.640991,33.317345],[-85.641663,33.306427],[-85.650452,33.306492],[-85.653145,33.106735],[-85.974693,33.105934],[-85.974251,33.090458],[-86.0093,33.090614],[-86.0074388,32.8244204],[-86.0136959,32.8197651],[-86.0071591,32.8009888],[-85.9993019,32.801683],[-86.0073777,32.7963328],[-86.0070201,32.7550624],[-86.3193558,32.7536819],[-86.318901,32.767845],[-86.336357,32.768326],[-86.336929,32.754211],[-86.3780973,32.754699],[-86.374016,32.75153]]],[[[-124.002821,44.961479],[-124.002608,44.961646],[-124.002607,44.961631],[-124.002821,44.961479]]],[[[-124.025886,44.9285355],[-124.0103492,45.0242563],[-124.0045279,45.0154021],[-123.99199,45.0232035],[-123.992,45.0160796],[-123.9817962,45.0160199],[-123.9779758,45.0100242],[-123.9944943,45.0125011],[-123.9822168,45.0052991],[-123.9963831,44.996884],[-123.9902396,44.9841693],[-123.9976857,44.9831618],[-123.9960846,44.9739638],[-124.0096449,44.9691818],[-124.0042696,44.9538616],[-124.0161338,44.9475489],[-124.0094983,44.9449081],[-124.0103421,44.9327319],[-123.999474,44.9320886],[-124.0102236,44.9308391],[-124.010249,44.913613],[-124.0203961,44.9167598],[-124.0141706,44.9260592],[-124.025886,44.9285355]],[[-124.0043987,45.0017206],[-124.0020113,45.0039613],[-124.004179,45.0035302],[-124.0043987,45.0017206]],[[-124.0020191,45.0052374],[-124.0045052,45.0082752],[-124.0042623,45.0052013],[-124.0020191,45.0052374]],[[-123.9866462,45.012923],[-123.985509,45.0137294],[-123.9866495,45.01373],[-123.9866462,45.012923]]],[[[-81.259673,35.27579],[-81.256985,35.285892],[-81.250095,35.283492],[-81.252491,35.278746],[-81.259673,35.27579]]],[[[-81.276401,35.293864],[-81.259052,35.30265],[-81.252988,35.300654],[-81.263501,35.293778],[-81.260639,35.277343],[-81.266288,35.273991],[-81.261215,35.276462],[-81.259612,35.2656],[-81.27181,35.276156],[-81.282815,35.270156],[-81.320149,35.275421],[-81.319515,35.283708],[-81.306414,35.282407],[-81.300233,35.297564],[-81.29877,35.291533],[-81.288346,35.292697],[-81.28321,35.305126],[-81.272858,35.301735],[-81.276401,35.293864]],[[-81.30573,35.281657],[-81.305775,35.281654],[-81.305723,35.281574],[-81.30573,35.281657]],[[-81.278192,35.299766],[-81.277345,35.299763],[-81.277999,35.300039],[-81.278192,35.299766]]],[[[-81.309596,35.305628],[-81.305709,35.304103],[-81.309062,35.303121],[-81.309596,35.305628]]]]}}]}