{"type":"FeatureCollection","features":[{"type":"Feature","properties":{"slug":"bitlis","member_count":7,"matched_count":7,"unmatched":[],"source":"Overture Maps division_area (CC-BY 4.0)"},"geometry":{"type":"Polygon","coordinates":[[[42.6622008,38.3130516],[42.6702063,38.2675066],[42.6850132,38.2565978],[42.7037294,38.2565936],[42.7404156,38.2152088],[42.7324596,38.1893372],[42.7019804,38.1806117],[42.6857356,38.1503809],[42.6721403,38.143882],[42.663579,38.1097221],[42.6904006,38.0869395],[42.6766638,38.0464312],[42.6839635,38.0303549],[42.6542178,38.0166553],[42.6495266,37.9943449],[42.6140569,37.9811463],[42.5962023,37.9846243],[42.5828958,37.9767613],[42.5675386,37.98242],[42.5483321,37.9692375],[42.5327833,37.9710912],[42.4867915,37.9940659],[42.4896239,38.0203059],[42.4403571,38.056945],[42.4489402,38.0701901],[42.39148,38.0691268],[42.3748166,38.0888374],[42.3706537,38.1079925],[42.2480963,38.1229439],[42.256441,38.1523298],[42.2363234,38.1802386],[42.2481676,38.192128],[42.2451781,38.2097255],[42.2620009,38.2277976],[42.2615828,38.2399799],[42.2269819,38.2476178],[42.2138578,38.2363026],[42.1742819,38.2357533],[42.166245,38.2223781],[42.1559141,38.2202456],[42.1143721,38.2256399],[42.1055185,38.1994776],[42.0507288,38.2153228],[42.0368671,38.2010923],[42.0076,38.19381],[41.9976966,38.1988767],[41.9703071,38.1577338],[41.9313513,38.185063],[41.8545508,38.1913099],[41.8240244,38.2028061],[41.80158,38.23768],[41.76192,38.23261],[41.74899,38.23955],[41.746,38.22448],[41.70587,38.23168],[41.69563,38.24655],[41.66042,38.26073],[41.6424,38.25849],[41.63735,38.26841],[41.64698,38.2865],[41.64451,38.33449],[41.63332,38.33693],[41.63674,38.35502],[41.6184,38.35437],[41.59745,38.37252],[41.596,38.38355],[41.61356,38.41584],[41.60927,38.44101],[41.62641,38.45617],[41.64154,38.45585],[41.64106,38.47264],[41.657217,38.478252],[41.649503,38.491866],[41.66457,38.49517],[41.60863,38.5059],[41.60058,38.5216],[41.58775,38.5132],[41.57332,38.5246],[41.55977,38.52266],[41.549242,38.534521],[41.56445,38.53957],[41.52235,38.53058],[41.48718,38.54212],[41.52581,38.58554],[41.55858,38.60035],[41.60051,38.60192],[41.60848,38.61451],[41.63275,38.60417],[41.65342,38.6084],[41.66794,38.59853],[41.7037,38.61835],[41.74436,38.60285],[41.76288,38.60934],[41.77497,38.59613],[41.82271,38.6015],[41.87549,38.5834],[41.89117,38.56046],[41.91603,38.55826],[41.9382,38.57363],[41.95409,38.57487],[41.94946,38.59336],[41.93545,38.60775],[41.9391442,38.6360735],[41.9842632,38.6532241],[41.9987158,38.649856],[42.0389342,38.6610219],[42.0420327,38.6713276],[42.0304837,38.6887622],[42.0369624,38.6992209],[42.0788529,38.7100235],[42.117523,38.7346056],[42.1185779,38.7481092],[42.0719557,38.7661032],[42.0769393,38.7969919],[42.1193192,38.7906445],[42.1093746,38.8112377],[42.1170004,38.8165588],[42.1190491,38.8361548],[42.131873,38.846065],[42.1657248,38.8442569],[42.1745648,38.8567614],[42.1702989,38.8763348],[42.239565,38.8914751],[42.2621906,38.8862227],[42.2756866,38.8941012],[42.2735034,38.9050678],[42.2953352,38.9129441],[42.2917627,38.9294662],[42.3276858,38.9485313],[42.3777996,38.9263783],[42.4219592,38.957406],[42.4555999,38.9547823],[42.4737567,38.9505481],[42.4830129,38.9349564],[42.5033451,38.9230347],[42.5628243,38.9328319],[42.5707144,38.9138265],[42.584875,38.906129],[42.5929765,38.9243015],[42.6141128,38.9202948],[42.6349273,38.9364036],[42.6523085,38.9370713],[42.6591751,38.9259709],[42.673874,38.9493381],[42.6946398,38.9576246],[42.7146572,38.935095],[42.909638,38.9307798],[42.9396342,38.9630795],[42.9358296,38.9973915],[42.9649865,39.0240651],[43.0007683,39.0188218],[43.035294,39.0016003],[43.083645,38.9203727],[43.1598324,38.9159018],[43.2009955,38.89387],[43.1839392,38.8290688],[43.1346278,38.7826879],[43.0709766,38.7607993],[43.0263675,38.7338524],[42.9287715,38.6238444],[42.8787426,38.5466274],[42.7530212,38.4675906],[42.7467349,38.4394072],[42.7645612,38.4304967],[42.778068,38.4109281],[42.7850628,38.3657759],[42.7946097,38.355186],[42.7897167,38.329425],[42.773107,38.3193373],[42.7134846,38.3272581],[42.6826462,38.3117496],[42.6622008,38.3130516]],[[42.4635093,38.6435733],[42.4636494,38.6420377],[42.4655967,38.6429313],[42.4635093,38.6435733]]]}}]}