{"type":"FeatureCollection","features":[{"type":"Feature","properties":{"slug":"biysk","member_count":1,"matched_count":1,"unmatched":["[recovered via metro-name fallback: Biysk]"],"source":"Overture Maps division_area (CC-BY 4.0)"},"geometry":{"type":"Polygon","coordinates":[[[85.1656067,52.4605272],[85.183926,52.4843948],[85.1840762,52.4999813],[85.3264223,52.5458814],[85.3649724,52.548347],[85.3646231,52.5579097],[85.3259182,52.5503407],[85.3054005,52.5673177],[85.3065596,52.5748218],[85.2941368,52.5767086],[85.2451247,52.5677004],[85.2484345,52.5606536],[85.1779246,52.5438816],[85.1801348,52.5528001],[85.215615,52.553622],[85.2356472,52.5653764],[85.2167742,52.5615589],[85.1654483,52.5925948],[85.115736,52.5574668],[85.066288,52.5741563],[85.0755368,52.5685322],[85.0658338,52.5341979],[85.0733565,52.5260583],[85.028182,52.5338324],[84.9680041,52.5059302],[84.9366759,52.4824667],[84.9329852,52.453865],[84.9851789,52.4317711],[85.0361472,52.4309239],[85.0483345,52.4333769],[85.0890313,52.4759531],[85.1656067,52.4605272]]]}}]}