{"type": "FeatureCollection", "features": [{"type": "Feature", "properties": {"slug": "bizerte", "members": 2, "country": "Tunisia", "input_hash": "a9fb2a34f3b5f29f"}, "geometry": {"type": "MultiPolygon", "coordinates": [[[[9.7756474, 37.2042001], [9.7758928, 37.2062328], [9.7785562, 37.2046253], [9.7756474, 37.2042001]]], [[[9.6695039, 37.3407369], [9.7035211, 37.334227], [9.7558004, 37.3469444], [9.7701396, 37.3314608], [9.7579292, 37.3211301], [9.7710027, 37.3316843], [9.7981148, 37.3271971], [9.8369083, 37.3387147], [9.8631899, 37.3343074], [9.8759457, 37.2877], [9.8908253, 37.2784152], [9.8837057, 37.2752689], [9.8846812, 37.2783483], [9.8779547, 37.2790778], [9.875113, 37.278194], [9.8830349, 37.2748362], [9.850372, 37.2612399], [9.8594026, 37.2572794], [9.8193041, 37.2447635], [9.8240927, 37.2371559], [9.8055929, 37.2409779], [9.8022053, 37.23568], [9.8107561, 37.2342471], [9.7987694, 37.2181481], [9.7826251, 37.2177679], [9.8026666, 37.2388127], [9.7772029, 37.2393768], [9.7803801, 37.2188593], [9.7713679, 37.2237334], [9.7673634, 37.2179323], [9.7743116, 37.2138098], [9.7748226, 37.2045152], [9.7776443, 37.2019121], [9.7856399, 37.2096358], [9.7821511, 37.186218], [9.7524208, 37.1690117], [9.6800118, 37.1844075], [9.6545094, 37.2021502], [9.6369999, 37.1967492], [9.6346396, 37.1845101], [9.6145552, 37.1847494], [9.6185893, 37.1745258], [9.6108216, 37.1679259], [9.6073025, 37.1832108], [9.5529851, 37.2047673], [9.5366639, 37.1980141], [9.5262354, 37.2050215], [9.5072668, 37.1946981], [9.4958428, 37.2134825], [9.4806701, 37.2213754], [9.4742113, 37.2681041], [9.5584434, 37.3054683], [9.5739734, 37.2942369], [9.5922768, 37.2975015], [9.6695039, 37.3407369]], [[9.815665617673409, 37.29340875547807], [9.8149395, 37.2936112], [9.81467542735103, 37.29357676227869], [9.815665617673409, 37.29340875547807]], [[9.8349993, 37.2795644], [9.8369953, 37.2853358], [9.836658176435678, 37.285393918114835], [9.8349993, 37.2795644]]], [[[9.74225, 37.3472214], [9.7422623, 37.3472591], [9.7423319, 37.3472351], [9.74225, 37.3472214]]], [[[8.9110397, 37.5297628], [8.9445941, 37.5422598], [8.9586517, 37.5272214], [8.9533876, 37.5177237], [8.9382595, 37.5242455], [8.9122294, 37.5136941], [8.8986735, 37.5186439], [8.9110397, 37.5297628]]]]}}]}