{"type": "FeatureCollection", "features": [{"type": "Feature", "properties": {"slug": "bluefield", "members": 2, "country": "United States", "input_hash": "4735931aa439ca8d"}, "geometry": {"type": "Polygon", "coordinates": [[[-81.2432358, 37.2242116], [-81.2847035, 37.2157343], [-81.2638642, 37.1730177], [-81.3330984, 37.14919], [-81.3281403, 37.1389494], [-81.2651741, 37.1253699], [-81.2613179, 37.1147269], [-81.2703438, 37.0926345], [-81.3438254, 37.062076], [-81.3775975, 37.0534602], [-81.3992841, 37.0576795], [-81.4576452, 37.0390177], [-81.4622794, 37.0354018], [-81.4367297, 37.0101348], [-81.4805194, 36.986291], [-81.4685685, 37.0144372], [-81.4745392, 37.0184755], [-81.5338108, 36.9960587], [-81.5763735, 36.9896745], [-81.6414304, 36.9481713], [-81.6827863, 36.9329342], [-81.7087879, 36.9770106], [-81.7805453, 36.9586293], [-81.8184013, 37.042743], [-81.8896728, 37.1108869], [-81.9018682, 37.1401375], [-81.8974693, 37.152225], [-81.8679393, 37.1571437], [-81.8717303, 37.165987], [-81.8573143, 37.174429], [-81.7999714, 37.1849843], [-81.7739173, 37.2038599], [-81.7631569, 37.2008321], [-81.7387566, 37.2383295], [-81.7195633, 37.2383388], [-81.6781083, 37.2014139], [-81.5561024, 37.2073496], [-81.5445226, 37.2206315], [-81.5075922, 37.2336605], [-81.4988991, 37.2580325], [-81.4804799, 37.2510316], [-81.4478996, 37.2721291], [-81.416395, 37.2731707], [-81.3941074, 37.3163613], [-81.3728552, 37.3200091], [-81.3652762, 37.3377501], [-81.320105, 37.299323], [-81.362092, 37.3377545], [-81.311201, 37.424509], [-81.2926482, 37.4131749], [-81.2826503, 37.4194095], [-81.3074311, 37.4592356], [-81.2772045, 37.4731124], [-81.2583315, 37.4988295], [-81.2137642, 37.5084046], [-81.2103615, 37.53065], [-81.199986, 37.5394326], [-81.198908, 37.5752968], [-81.1440185, 37.5965166], [-81.0942072, 37.5886098], [-80.859556, 37.429568], [-80.862761, 37.411829], [-80.883248, 37.383933], [-80.849451, 37.346909], [-80.900535, 37.315], [-80.973889, 37.291444], [-80.981322, 37.293465], [-80.979589, 37.302279], [-81.09482, 37.28264], [-81.167029, 37.262881], [-81.2432358, 37.2242116]]]}}]}