{"type": "FeatureCollection", "features": [{"type": "Feature", "properties": {"slug": "boa-vista", "members": 1, "country": "Brazil", "input_hash": "ae9f647983ea4f5a"}, "geometry": {"type": "Polygon", "coordinates": [[[-60.578, 3.479], [-60.606, 3.449], [-60.594, 3.402], [-60.602, 3.402], [-60.621, 3.424], [-60.654, 3.437], [-60.666, 3.455], [-60.695, 3.474], [-60.723, 3.479], [-60.743, 3.499], [-60.788, 3.496], [-60.801, 3.485], [-60.85, 3.478], [-60.887, 3.479], [-60.909, 3.464], [-60.928, 3.48], [-60.946, 3.48], [-61.0, 3.448], [-61.0005115, 2.6816681], [-60.9788555, 2.6644358], [-60.9714461, 2.6661742], [-60.9615391, 2.6448296], [-60.9424268, 2.6504476], [-60.9173256, 2.6278381], [-60.9154116, 2.5655461], [-60.9291037, 2.5618655], [-60.9274879, 2.5493596], [-60.9445597, 2.520941], [-60.8958057, 2.5102418], [-60.8955031, 2.4911465], [-60.9146729, 2.46807], [-60.9059804, 2.4666122], [-60.8985388, 2.4769559], [-60.869, 2.462], [-60.8574581, 2.4436993], [-60.8696482, 2.4351626], [-60.852437, 2.4288555], [-60.8366528, 2.4349504], [-60.8292091, 2.4558419], [-60.824, 2.547], [-60.775, 2.644], [-60.6985061, 2.7330723], [-60.644438, 2.8404059], [-60.6056899, 2.8518507], [-60.5389826, 2.9160933], [-60.504, 2.974], [-60.4922122, 3.0218709], [-60.448, 3.046], [-60.4430787, 3.0668926], [-60.4056435, 3.1291665], [-60.3730249, 3.1656516], [-60.3852068, 3.1804997], [-60.3846123, 3.2093852], [-60.412008, 3.2592032], [-60.4084031, 3.2878238], [-60.40188, 3.2972496], [-60.3457467, 3.3185002], [-60.346684, 3.3406221], [-60.321, 3.3714677], [-60.3213142, 3.4181601], [-60.2985605, 3.429311], [-60.3008736, 3.4391082], [-60.2865206, 3.4551337], [-60.3028134, 3.4765436], [-60.2994124, 3.4864195], [-60.3104695, 3.4940764], [-60.3107055, 3.5071904], [-60.3224472, 3.5064236], [-60.3323434, 3.5169331], [-60.3220094, 3.5239044], [-60.3383945, 3.5454305], [-60.3522937, 3.5517334], [-60.3601676, 3.5416408], [-60.380797, 3.5531276], [-60.3787038, 3.565397], [-60.3966529, 3.5728602], [-60.4075891, 3.5670492], [-60.4106833, 3.5787081], [-60.4282517, 3.5861608], [-60.4379763, 3.58267], [-60.4357683, 3.5771919], [-60.4519346, 3.5799459], [-60.471, 3.605], [-60.483, 3.606], [-60.49, 3.584], [-60.513, 3.567], [-60.514, 3.543], [-60.528, 3.555], [-60.538, 3.526], [-60.552, 3.519], [-60.554, 3.509], [-60.546, 3.502], [-60.5533559, 3.477563], [-60.578, 3.479]]]}}]}