{"type":"FeatureCollection","features":[{"type":"Feature","properties":{"slug":"bocholt","member_count":2,"matched_count":2,"unmatched":[],"source":"Overture Maps division_area (CC-BY 4.0)"},"geometry":{"type":"Polygon","coordinates":[[[6.7213956,51.8963647],[6.7431251,51.90547],[6.7490434,51.8851217],[6.7656483,51.8736564],[6.7612253,51.8625723],[6.7440039,51.8619636],[6.7628608,51.8505865],[6.7355941,51.8407904],[6.7326933,51.8328153],[6.7450171,51.818554],[6.7477881,51.7935446],[6.7612488,51.7912249],[6.7464702,51.7702174],[6.7075046,51.7719289],[6.7072113,51.7748097],[6.71254,51.775834],[6.7137879,51.780508],[6.6682965,51.7771671],[6.6342624,51.799099],[6.6092341,51.7942308],[6.6089159,51.799967],[6.5927769,51.8022579],[6.5686591,51.7898183],[6.5256758,51.8100904],[6.5323314,51.8187186],[6.5169364,51.8288532],[6.5145302,51.8477095],[6.4725078,51.853823],[6.5441507,51.8846098],[6.5606111,51.8822192],[6.683994,51.9175765],[6.7213956,51.8963647]]]}}]}