{"type":"FeatureCollection","features":[{"type":"Feature","properties":{"slug":"bognor-regis","member_count":19,"matched_count":4,"unmatched":["Wick & Toddington (GB-ENG, type='MSOA')","Westergate, Eastergate & Walberton (GB-ENG, type='MSOA')","Angmering South (GB-ENG, type='MSOA')","Bognor Regis Central (GB-ENG, type='MSOA')","Rustington North (GB-ENG, type='MSOA')","Nyetimber & Pagham (GB-ENG, type='MSOA')","North Bersted (GB-ENG, type='MSOA')","Littlehampton East (GB-ENG, type='MSOA')","East Preston & Rustington East (GB-ENG, type='MSOA')","Hawthorn Road (GB-ENG, type='MSOA')","South Bersted (GB-ENG, type='MSOA')","Littlehampton West and River (GB-ENG, type='MSOA')","Yapton & Climping (GB-ENG, type='MSOA')","Ferring & Kingston Gorse (GB-ENG, type='MSOA')","Angmering North, Patching & Findon (GB-ENG, type='MSOA')"],"source":"Overture Maps division_area (CC-BY 4.0)"},"geometry":{"type":"MultiPolygon","coordinates":[[[[-0.7288964,50.7717098],[-0.7246415,50.7874165],[-0.7008181,50.7945702],[-0.6878421,50.7816539],[-0.7288964,50.7717098]]],[[[-0.5959288,50.7911588],[-0.659392,50.7834573],[-0.6637066,50.796669],[-0.6552793,50.8043881],[-0.6350036,50.7999897],[-0.6295838,50.8067456],[-0.59268,50.8016883],[-0.5959288,50.7911588]]],[[[-0.6103384,50.8650913],[-0.5858871,50.8771891],[-0.5389291,50.8574155],[-0.569736,50.8318833],[-0.5828073,50.8319367],[-0.5911924,50.8579318],[-0.6103384,50.8650913]]]]}}]}