{"type": "FeatureCollection", "features": [{"type": "Feature", "properties": {"slug": "bolu", "members": 9, "country": "Turkey", "input_hash": "024d20569390b44f"}, "geometry": {"type": "Polygon", "coordinates": [[[31.069078, 40.349619], [31.067405, 40.326917], [31.058618, 40.318451], [31.066148, 40.311621], [31.05453, 40.280442], [31.060967, 40.276055], [31.055818, 40.269343], [31.074271, 40.261385], [31.0764599, 40.2500859], [31.0652375, 40.2391779], [31.073327, 40.2290216], [31.0443377, 40.2174384], [30.95472, 40.212129], [30.943294, 40.180709], [30.8749224, 40.1787886], [30.8447708, 40.1605009], [30.826864, 40.134397], [30.810814, 40.147061], [30.757384, 40.158344], [30.716658, 40.156376], [30.690823, 40.17484], [30.686145, 40.186636], [30.666575, 40.18007], [30.658722, 40.167068], [30.637436, 40.166314], [30.627995, 40.173856], [30.6500637, 40.2005269], [30.6395066, 40.2126783], [30.613747, 40.213588], [30.61409, 40.241405], [30.604777, 40.251462], [30.6038098, 40.2680935], [30.582678, 40.301114], [30.564566, 40.311014], [30.572119, 40.328585], [30.6030853, 40.3260795], [30.60967, 40.329043], [30.607716, 40.339688], [30.577124, 40.346286], [30.562442, 40.359994], [30.583802, 40.381041], [30.57332, 40.416567], [30.575247, 40.435471], [30.584192, 40.440813], [30.575222, 40.447116], [30.587697, 40.454523], [30.592553, 40.475409], [30.607996, 40.477346], [30.61542, 40.491055], [30.641557, 40.485643], [30.643401, 40.496603], [30.700696, 40.504187], [30.740063, 40.500769], [30.7464211, 40.487562], [30.755735, 40.499064], [30.781148, 40.507266], [30.792274, 40.503064], [30.852084, 40.519174], [30.86395408726616, 40.51441606618102], [30.882804, 40.536079], [30.870761, 40.548064], [30.873095, 40.568084], [30.8874017, 40.575675], [30.871689, 40.5788], [30.876861, 40.609424], [30.8960248, 40.6294343], [30.898018, 40.654499], [30.9192292, 40.6597981], [30.921621, 40.653783], [30.989228, 40.677501], [31.01522, 40.677579], [31.086958, 40.697003], [31.100478, 40.695761], [31.114013, 40.658923], [31.162182, 40.662744], [31.183577, 40.652969], [31.192706, 40.635662], [31.211429, 40.634343], [31.225512, 40.621751], [31.245632, 40.64535], [31.283104, 40.63918], [31.334892, 40.655336], [31.345664, 40.650434], [31.372318, 40.663224], [31.373777, 40.679922], [31.392815, 40.708844], [31.378627, 40.718152], [31.3991833, 40.7367058], [31.403918, 40.7614562], [31.500506, 40.798672], [31.52941, 40.802538], [31.510849, 40.869489], [31.6098976, 40.8958677], [31.6374922, 40.9158152], [31.6766524, 40.9070098], [31.6863084, 40.9138855], [31.683111, 40.926719], [31.711029, 40.928567], [31.743847, 40.945842], [31.757537, 40.942439], [31.787825, 40.970761], [31.86239, 41.00952], [31.9044149, 41.0057956], [31.933893, 41.012957], [31.944108, 41.035203], [31.956804, 41.041605], [31.981673, 41.046184], [32.02755, 41.021355], [32.103167, 41.009245], [32.113252, 41.012612], [32.119013, 41.030785], [32.139173, 41.030841], [32.1525836, 41.0453429], [32.1441722, 41.0657953], [32.1516609, 41.0842358], [32.18889, 41.0768926], [32.2116995, 41.0916752], [32.2584772, 41.0980789], [32.2691309, 41.0848504], [32.289088, 41.082038], [32.3127329, 41.0583206], [32.339222, 41.062576], [32.333922, 40.986201], [32.320219, 40.980252], [32.3252649, 40.9674395], [32.3160151, 40.9519098], [32.3701856, 40.9680778], [32.3852075, 40.9625521], [32.379708, 40.929744], [32.352161, 40.923987], [32.362375, 40.915264], [32.3522391, 40.9106088], [32.3326953, 40.9119838], [32.3131227, 40.8834106], [32.3322084, 40.880514], [32.3383434, 40.8669079], [32.365097, 40.880643], [32.363405, 40.875557], [32.3814038, 40.8655132], [32.3877313, 40.8699877], [32.391214, 40.861667], [32.297587, 40.8583996], [32.414174, 40.862089], [32.472006, 40.8824053], [32.4865449, 40.8771464], [32.5091502, 40.8827157], [32.528297, 40.852717], [32.5287487, 40.8383306], [32.5741766, 40.8224964], [32.567554, 40.803772], [32.582145, 40.779404], [32.570343, 40.767932], [32.5687556, 40.7460955], [32.5118725, 40.740562], [32.5148205, 40.7227811], [32.5040729, 40.6990372], [32.5155711, 40.6913096], [32.4972271, 40.6811998], [32.5002685, 40.6768826], [32.4925143, 40.6861794], [32.4840533, 40.6755441], [32.4537956, 40.6828592], [32.4348082, 40.7031826], [32.418855, 40.689454], [32.4055174, 40.691959], [32.4208259, 40.6329425], [32.441159, 40.624997], [32.433322, 40.617866], [32.440236, 40.61294], [32.4312151, 40.6062606], [32.437399, 40.598643], [32.4319275, 40.5911138], [32.4550279, 40.5793938], [32.4645434, 40.5834475], [32.450531, 40.561079], [32.39733, 40.546499], [32.3865721, 40.5518373], [32.36186, 40.540743], [32.359242, 40.56973], [32.3748709, 40.5861803], [32.3578204, 40.5957903], [32.33558, 40.584942], [32.3234536, 40.5926543], [32.297916, 40.578531], [32.2959698, 40.568002], [32.2695245, 40.5699099], [32.2543698, 40.5619476], [32.2538385, 40.5461393], [32.2317404, 40.5445885], [32.2168996, 40.5538466], [32.1820498, 40.545396], [32.1585509, 40.5489563], [32.116041, 40.533674], [32.107501, 40.513375], [32.088919, 40.500486], [32.068552, 40.5057594], [32.0426667, 40.5000457], [32.028837, 40.507045], [31.992531, 40.482797], [31.999869, 40.469021], [32.009997, 40.473983], [32.031884, 40.464189], [32.030554, 40.444694], [32.019911, 40.431563], [32.022786, 40.419312], [32.034459, 40.413627], [32.012658, 40.391273], [32.011735, 40.379342], [31.969399, 40.364793], [31.964722, 40.353282], [31.938243, 40.343797], [31.916571, 40.34589], [31.922708, 40.338988], [31.916013, 40.333722], [31.908803, 40.341474], [31.891508, 40.336797], [31.892238, 40.327342], [31.8540751, 40.305095], [31.762891, 40.333198], [31.702487, 40.308953], [31.696420031594773, 40.31309736062241], [31.6541901, 40.3003337], [31.590315, 40.2692435], [31.5096008, 40.307842], [31.4194193, 40.2886794], [31.4010769, 40.3112681], [31.4380716, 40.3304215], [31.4361359, 40.3236111], [31.4485144, 40.3278328], [31.4408576, 40.3447404], [31.4481536, 40.3611655], [31.4088821, 40.3706208], [31.3793671, 40.3705064], [31.3826159, 40.3626416], [31.3728326, 40.3501097], [31.345565, 40.341461], [31.337385, 40.353314], [31.32421, 40.353805], [31.312065, 40.330286], [31.278248, 40.342619], [31.226578, 40.335521], [31.205163, 40.340199], [31.2000346, 40.353576], [31.11238, 40.356421], [31.069078, 40.349619]], [[31.374292, 40.583771], [31.374528998616825, 40.58386471095443], [31.371924, 40.597651], [31.374292, 40.583771]], [[31.505502939923208, 40.52571917016702], [31.50602284519506, 40.52703965707152], [31.505688, 40.5269314], [31.505502939923208, 40.52571917016702]], [[31.8297641007089, 40.57632904992368], [31.829495, 40.574685], [31.830310713708904, 40.57360071592833], [31.8297641007089, 40.57632904992368]], [[30.88068947879086, 40.51155717186718], [30.865569058919757, 40.51376873073394], [30.868632, 40.512541], [30.88068947879086, 40.51155717186718]], [[31.470135801895516, 40.501979490694495], [31.4811789, 40.5034517], [31.4717092, 40.5030574], [31.470135801895516, 40.501979490694495]], [[31.4668763, 40.496608], [31.469895911007608, 40.501815145371054], [31.4695572, 40.5015831], [31.4668763, 40.496608]], [[31.9713696, 40.6651512], [31.964917105189635, 40.65713060719962], [31.9655016, 40.6574326], [31.9713696, 40.6651512]], [[31.965693, 40.749711], [31.9810735, 40.7300346], [31.97445, 40.739219], [31.965693, 40.749711]], [[32.01273658623072, 40.75190590933018], [31.997509, 40.749435], [32.011027, 40.751353], [32.01273658623072, 40.75190590933018]], [[32.04956304554032, 40.75496584683828], [32.04809898921897, 40.75500048110656], [32.048251, 40.7547304], [32.04956304554032, 40.75496584683828]], [[32.063666, 40.758751], [32.053098221499965, 40.75560023488116], [32.054908, 40.755925], [32.063666, 40.758751]], [[32.090966793617945, 40.77076646996173], [32.066192, 40.763384], [32.089793, 40.770167], [32.090966793617945, 40.77076646996173]]]}}]}