{"type": "FeatureCollection", "features": [{"type": "Feature", "properties": {"slug": "boma", "members": 1, "country": "Congo DR", "input_hash": "8a352b844e2d53a1"}, "geometry": {"type": "Polygon", "coordinates": [[[13.100222535000057, -5.877672587999939], [13.10965714100007, -5.876907350999943], [13.104441360000067, -5.82893846199994], [13.114369080000074, -5.770890394999981], [13.109118120000062, -5.759643880999931], [12.997918800000036, -5.76732680899994], [12.999999960000025, -5.799999992999972], [12.984788196000068, -5.857142731999943], [13.083208748000061, -5.862047081999947], [13.100222535000057, -5.877672587999939]]]}}]}