{"type": "FeatureCollection", "features": [{"type": "Feature", "properties": {"slug": "bournemouth", "members": 67, "country": "United Kingdom"}, "geometry": {"type": "MultiPolygon", "coordinates": [[[[-1.988044863605286, 50.69246028715186], [-1.965267516225682, 50.69483318153342], [-1.956247585404749, 50.69197356760767], [-1.961591707608824, 50.6862930290363], [-1.988044863605286, 50.69246028715186]]], [[[-1.724462051840667, 50.73403641823012], [-1.742345229197881, 50.723535378615985], [-1.757325226853148, 50.731065166237016], [-1.76127804277375, 50.71802290603804], [-1.746128626152982, 50.715516384134744], [-1.739488065409806, 50.72444512495172], [-1.748751185824388, 50.71107721077849], [-1.804180129017749, 50.72007044154212], [-1.86687569824091, 50.71712759963869], [-1.912773313715228, 50.70443440411051], [-1.946873198998385, 50.682660001821546], [-1.934005270690869, 50.69915815338093], [-1.952279277366019, 50.704144195831425], [-1.958199728360267, 50.715616511250985], [-1.992137156024147, 50.71269854937822], [-1.984303996920089, 50.719311260713965], [-1.995016567647308, 50.72986831497179], [-1.989821345746082, 50.73725635050424], [-2.011508545463284, 50.73128816979719], [-1.988469098609564, 50.707495156110646], [-2.040751882796187, 50.719057067018596], [-2.027519367544887, 50.7292542010218], [-2.053817486067744, 50.72900741111689], [-2.041819581067453, 50.725947866837615], [-2.042736947961757, 50.714533970639536], [-2.067519487655142, 50.71508229666346], [-2.071906439010487, 50.70792509000387], [-2.057682096067039, 50.70560391293349], [-2.073738764816298, 50.705971665461625], [-2.07891896951666, 50.689532830274494], [-2.065812986062542, 50.687000911782135], [-2.054460606119593, 50.69986444071028], [-2.026092878427372, 50.707439564882065], [-2.018493358144926, 50.700751521598285], [-2.034772199182325, 50.70210617602907], [-2.024727707956351, 50.6876336636638], [-2.052979489444536, 50.67789622546789], [-2.025160857325513, 50.68447585583587], [-2.026633307438199, 50.678099031188545], [-2.047135676548882, 50.670439672675386], [-2.028989800085309, 50.674399956669255], [-2.027066781430969, 50.66807264092281], [-2.021649221717996, 50.68211242558207], [-2.011425912408342, 50.682720503871614], [-2.010493174124246, 50.67094875748732], [-1.999804047667776, 50.67575835755222], [-1.993291642315556, 50.667269962019574], [-1.978323814862521, 50.67695532126208], [-1.98352609767197, 50.66705791726938], [-1.968104561460718, 50.660441558646916], [-1.970967031038013, 50.669270516959855], [-1.94981799812014, 50.68019864309202], [-1.941127251227703, 50.672079926446486], [-1.949818523606557, 50.646150434560305], [-1.923771929348557, 50.64210697697623], [-1.956620452357466, 50.61735381405154], [-1.955981023609117, 50.60857437151896], [-1.943943663214962, 50.60752856810293], [-1.951328634852313, 50.59441105762977], [-2.026352001976334, 50.58901393325877], [-2.054956068388452, 50.57650647282101], [-2.063965584562254, 50.593537610063535], [-2.11457219615682, 50.59908256629792], [-2.134551191467418, 50.612661231199795], [-2.187447543839376, 50.61493559859555], [-2.198506954257588, 50.622991116455886], [-2.244669777272172, 50.61637007862256], [-2.394856007819387, 50.63668090372328], [-2.439433403918152, 50.627554356085355], [-2.452524811247824, 50.61410626746449], [-2.444922273280005, 50.60937454900719], [-2.459674542183896, 50.60780886426116], [-2.441439942722248, 50.609694190486145], [-2.450984487477518, 50.603792893243835], [-2.43238228085416, 50.596247907167296], [-2.450316377891009, 50.601084567132304], [-2.470402919148645, 50.58315957979733], [-2.517488523652874, 50.61787602013627], [-2.535147835061638, 50.61852778076859], [-2.560438743741483, 50.63915344981491], [-2.611527881994661, 50.65407227767027], [-2.469536791714498, 50.58242115848986], [-2.460507523816633, 50.57102170042335], [-2.422184205277286, 50.56927497515795], [-2.418101180564666, 50.54287195842766], [-2.456733301657081, 50.513097443194596], [-2.450303342002017, 50.561231502369296], [-2.531128300369926, 50.612065172943595], [-2.637417087160994, 50.66401001007067], [-2.793350901843034, 50.71812261606139], [-2.911749631728486, 50.733795531626065], [-2.947712440873715, 50.71824952950386], [-2.953061545847253, 50.728508605816415], [-2.93505778044747, 50.75427687013796], [-2.954327600251654, 50.767720686624585], [-2.886640674974386, 50.79481700276559], [-2.892799779030921, 50.80478616678465], [-2.961297214213528, 50.81556450939747], [-2.930153844750071, 50.840937354527966], [-2.886240595996646, 50.85059837935797], [-2.828955247892989, 50.84866784985038], [-2.811423837726017, 50.86341767467786], [-2.792293290472538, 50.8528263490199], [-2.757497763505039, 50.86691057255818], [-2.714554760377053, 50.863902720771186], [-2.714388510411055, 50.871151755169215], [-2.660609965517841, 50.88711298244585], [-2.616099990940286, 50.88164174673031], [-2.609571262625684, 50.891562366636194], [-2.624064073173559, 50.90787466715047], [-2.604039348917963, 50.92673195801968], [-2.616093362164813, 50.94058842514369], [-2.598200000698843, 50.948581322421354], [-2.603385544579048, 50.97635099302436], [-2.586021942095567, 50.976875614604225], [-2.574628486181215, 50.98669973310585], [-2.556205859500439, 50.97954110953335], [-2.545422076995427, 50.985086261517225], [-2.547432887393017, 50.999547308913094], [-2.502346003125011, 50.99384199664796], [-2.490345718460805, 50.9727781323118], [-2.456204613140854, 50.94935026807332], [-2.44286884179235, 50.959666439078305], [-2.447179214243697, 50.96785641308964], [-2.427993452767621, 50.971393073306054], [-2.414929686914298, 50.960590040237804], [-2.344560094990623, 50.9788360451904], [-2.354900800829002, 50.99088707201483], [-2.376924488657713, 50.99077129776321], [-2.381352072090535, 51.004928745227694], [-2.330018692543036, 51.04135084788847], [-2.349980778818486, 51.0688069724308], [-2.325856221714462, 51.07968178731438], [-2.268624649319211, 51.06874724273699], [-2.242278588206855, 51.07118423431752], [-2.193214007668441, 51.03771876339921], [-2.172571230952693, 51.00107903748725], [-2.119770343839678, 50.978196976902204], [-2.120677094938266, 50.96154592161162], [-2.101798360684996, 50.94499207827437], [-2.068319353894626, 50.951200493323014], [-2.036565825391436, 50.97218308292669], [-1.994043678190039, 50.97573437958244], [-1.985217100824163, 50.9847618762407], [-1.956828450677955, 50.98983640867713], [-1.9499482, 50.9823176], [-1.927867, 50.9977056], [-1.8737944, 51.0062421], [-1.8739913, 50.9844499], [-1.8533936, 51.0046874], [-1.8358177, 51.0094299], [-1.8154297, 50.9859294], [-1.8003632, 50.9914054], [-1.7544086, 50.9779008], [-1.7196275, 50.9767884], [-1.661663, 50.9452881], [-1.6349709, 50.9592502], [-1.590089, 50.9512736], [-1.5840806, 50.9621307], [-1.5445381, 50.9692861], [-1.5310897, 50.9512425], [-1.5099615, 50.95011], [-1.5030914, 50.9362022], [-1.4756737, 50.9281857], [-1.4623607, 50.9062512], [-1.4188885, 50.8978437], [-1.3331859, 50.8484757], [-1.3389297, 50.8447778], [-1.3170734, 50.8231965], [-1.3255358, 50.8177492], [-1.3260131, 50.8164733], [-1.3152746, 50.8233087], [-1.3012726, 50.8159987], [-1.3472557, 50.7836298], [-1.3749728, 50.7850375], [-1.415253, 50.7672425], [-1.516362, 50.7421257], [-1.5560504, 50.7169109], [-1.5509611, 50.7060857], [-1.6471474, 50.7332747], [-1.724462051840667, 50.73403641823012]], [[-1.7389558, 50.7631523], [-1.7390117969872265, 50.76314486002953], [-1.7390189942187322, 50.763123007542376], [-1.7389558, 50.7631523]], [[-1.7433771905736133, 50.749890498655176], [-1.7423479, 50.7492583], [-1.7426273, 50.7496399], [-1.7433771905736133, 50.749890498655176]], [[-1.6818326743560077, 50.75185911762009], [-1.7179816, 50.7521756], [-1.7441752683465568, 50.74746628788031], [-1.6818326743560077, 50.75185911762009]], [[-1.681829873962295, 50.75185397801522], [-1.6885869080742761, 50.74274174732653], [-1.6898182141457427, 50.741081263631216], [-1.683923, 50.7445705], [-1.681829873962295, 50.75185397801522]], [[-1.955473121495334, 50.97827273599799], [-1.9554074322738715, 50.97824075136526], [-1.9554753353484289, 50.97829162459928], [-1.955473121495334, 50.97827273599799]], [[-1.940378473023657, 50.970923025089576], [-1.9448317, 50.9757523], [-1.9551125832379916, 50.9780971868974], [-1.940378473023657, 50.970923025089576]], [[-1.9284676084560033, 50.965123525259834], [-1.9297882, 50.9677522], [-1.93693835720152, 50.96924800385065], [-1.9284676084560033, 50.965123525259834]], [[-1.9208487071281324, 50.96141381831935], [-1.9209937, 50.961502], [-1.9211988441274803, 50.961584302960205], [-1.9208487071281324, 50.96141381831935]], [[-1.9208323044929339, 50.961398490972066], [-1.9208421, 50.9614098], [-1.9208486247821184, 50.9614137682382], [-1.9208323044929339, 50.961398490972066]], [[-1.873651995082606, 50.91723345595824], [-1.8788094, 50.9243291], [-1.8850562657652823, 50.92790888433721], [-1.873651995082606, 50.91723345595824]], [[-1.8452632295044604, 50.9301354562142], [-1.8510409, 50.928849], [-1.8564899, 50.9256865], [-1.855939835328289, 50.92528319975759], [-1.8452632295044604, 50.9301354562142]], [[-1.844117314458044, 50.930656246601565], [-1.8439324, 50.9307891], [-1.8441441, 50.9307336], [-1.844117314458044, 50.930656246601565]], [[-1.8418633826376123, 50.93168060353755], [-1.8420244, 50.931626], [-1.842090284714689, 50.93157748208803], [-1.8418633826376123, 50.93168060353755]], [[-1.8415479365355132, 50.93164473215946], [-1.8416341, 50.9316849], [-1.8418418581915472, 50.93168693047814], [-1.8415479365355132, 50.93164473215946]], [[-1.839429510414982, 50.931340589818454], [-1.8401879, 50.9318738], [-1.8413311373387173, 50.931613606308716], [-1.839429510414982, 50.931340589818454]], [[-1.8114595293429454, 50.927324940918204], [-1.811442, 50.9278132], [-1.8134707675745025, 50.927613694298906], [-1.8114595293429454, 50.927324940918204]], [[-1.810733110540175, 50.92694290558974], [-1.8105602, 50.9268082], [-1.8105574, 50.926881], [-1.810733110540175, 50.92694290558974]], [[-1.8165556657059685, 50.90395321228966], [-1.8165486, 50.9039548], [-1.8165492345842182, 50.90395603684666], [-1.8165556657059685, 50.90395321228966]], [[-1.831480299748899, 50.897398293691914], [-1.8249546, 50.8957758], [-1.816921980579893, 50.90379232632269], [-1.831480299748899, 50.897398293691914]], [[-1.848562963753399, 50.88989556554059], [-1.8529036340025293, 50.86687639135406], [-1.8452801, 50.8780047], [-1.848562963753399, 50.88989556554059]], [[-1.8535419699317068, 50.86349120770732], [-1.8516602, 50.8642205], [-1.8530833719730955, 50.8659232160574], [-1.8535419699317068, 50.86349120770732]], [[-1.830015821066157, 50.85528245326366], [-1.8300117019473503, 50.8552838998046], [-1.8300362759893727, 50.855289569518696], [-1.830015821066157, 50.85528245326366]], [[-1.807117089016839, 50.86332396767136], [-1.8127948, 50.8645779], [-1.8147607478379302, 50.860639688366945], [-1.807117089016839, 50.86332396767136]], [[-1.806606700223225, 50.86108392229311], [-1.8064195, 50.8615096], [-1.8069861082773089, 50.862749106303134], [-1.806606700223225, 50.86108392229311]], [[-1.8048406163759303, 50.85333275688895], [-1.8032681, 50.8539208], [-1.8063313407558852, 50.85987539712585], [-1.8048406163759303, 50.85333275688895]], [[-1.803047455464802, 50.84546275295923], [-1.7999516, 50.8484563], [-1.8043181427445782, 50.851039672366305], [-1.803047455464802, 50.84546275295923]], [[-1.8014942930786069, 50.84241907833517], [-1.7986573798438628, 50.840828592318374], [-1.7969216, 50.8409684], [-1.8014942930786069, 50.84241907833517]], [[-1.7906248873122002, 50.83632525859101], [-1.7908852, 50.8367503], [-1.7917027847735674, 50.83692957063653], [-1.7906248873122002, 50.83632525859101]], [[-1.802004462383146, 50.831004421836106], [-1.7944469, 50.8310437], [-1.7906241487496564, 50.83632241132285], [-1.802004462383146, 50.831004421836106]], [[-1.803407825125836, 50.83034863425836], [-1.8034108169410208, 50.830340991065896], [-1.8034033433200365, 50.83035072859397], [-1.803407825125836, 50.83034863425836]], [[-1.8045859446252002, 50.82733889150466], [-1.8043102, 50.827759], [-1.8042090576610768, 50.8283017249098], [-1.8045859446252002, 50.82733889150466]], [[-1.8118996986566882, 50.80865443868772], [-1.802937, 50.8133572], [-1.804613505728553, 50.8272684811336], [-1.8118996986566882, 50.80865443868772]], [[-1.8108674752908607, 50.80701246123747], [-1.8106009, 50.8071852], [-1.8112363942741387, 50.80759787553055], [-1.8108674752908607, 50.80701246123747]], [[-1.8039124249055345, 50.795975929941456], [-1.8013717, 50.7997147], [-1.8094752872263955, 50.804803285704274], [-1.8039124249055345, 50.795975929941456]], [[-1.80312619176744, 50.794642901654775], [-1.8024004917017817, 50.79341248062439], [-1.8008471, 50.7942287], [-1.80312619176744, 50.794642901654775]], [[-1.8015184556708905, 50.791916992704074], [-1.8011303635817006, 50.79125898440166], [-1.8009042, 50.7917758], [-1.8015184556708905, 50.791916992704074]], [[-1.7962299, 50.7863632], [-1.7972164809221747, 50.784623014856344], [-1.7956671, 50.785862], [-1.7962299, 50.7863632]], [[-1.7957404454556645, 50.78212040370123], [-1.7898042288915106, 50.772055576581735], [-1.7897065, 50.7721118], [-1.7878556, 50.778837], [-1.7957404454556645, 50.78212040370123]], [[-1.7890065, 50.7711939], [-1.7890081614352222, 50.77070584797322], [-1.7885103, 50.7711592], [-1.7890065, 50.7711939]], [[-1.7877821, 50.7705856], [-1.7879851920191179, 50.768971408164575], [-1.7872101, 50.7704263], [-1.7877821, 50.7705856]], [[-1.7855838163339564, 50.76489988704352], [-1.7857395, 50.765275], [-1.7858750658015172, 50.76539369913881], [-1.7855838163339564, 50.76489988704352]], [[-1.785503150691989, 50.76476311882893], [-1.7855001295538746, 50.76476433407647], [-1.7855081247072726, 50.76477155224833], [-1.785503150691989, 50.76476311882893]], [[-1.785017734348332, 50.76495837670674], [-1.7842341, 50.7659659], [-1.7852638, 50.7657519], [-1.785017734348332, 50.76495837670674]], [[-1.7790412234338875, 50.76736241780069], [-1.7804941, 50.7671956], [-1.7815861228370284, 50.76633873645338], [-1.7790412234338875, 50.76736241780069]], [[-1.7699459, 50.771345], [-1.74656005419211, 50.77574221661272], [-1.7456935, 50.7762673], [-1.7486464, 50.7793802], [-1.7488527, 50.7795096], [-1.7489754, 50.7795364], [-1.7563688, 50.7784839], [-1.7699459, 50.771345]], [[-1.7389749862862613, 50.76329530564034], [-1.7396864, 50.7653495], [-1.7449704168738491, 50.773133660641385], [-1.7389749862862613, 50.76329530564034]]]]}}]}