{"type": "FeatureCollection", "features": [{"type": "Feature", "properties": {"slug": "bozeman", "members": 1, "country": "United States", "input_hash": "da864a5765c5f858"}, "geometry": {"type": "Polygon", "coordinates": [[[-111.373039, 45.350975], [-111.377015, 44.751443], [-111.352977, 44.726178], [-111.337113, 44.733204], [-111.323626, 44.729072], [-111.322484, 44.718776], [-111.29626, 44.702271], [-111.296879, 44.691444], [-111.266804, 44.667512], [-111.278477, 44.651265], [-111.252597, 44.65125], [-111.219319, 44.622521], [-111.240889, 44.614525], [-111.227631, 44.576687], [-111.18103, 44.569231], [-111.17864, 44.552477], [-111.158894, 44.546264], [-111.150571, 44.534971], [-111.131382, 44.532429], [-111.138618, 44.516854], [-111.127383, 44.49762], [-111.0524623, 44.4761567], [-111.0545859, 45.0009381], [-111.0442149, 45.0009368], [-111.0466104, 45.1763265], [-111.0386538, 45.1763638], [-111.0381388, 45.3514053], [-110.9179758, 45.3512847], [-110.9192418, 45.524915], [-110.8582525, 45.5248785], [-110.856773, 45.589626], [-110.794296, 45.590237], [-110.788857, 46.142483], [-110.783607, 46.142494], [-110.782509, 46.193325], [-111.346652, 46.187785], [-111.349372, 46.122607], [-111.378628, 46.113302], [-111.38408, 46.104219], [-111.398561, 46.105787], [-111.391909, 46.090866], [-111.405801, 46.085097], [-111.424126, 46.060721], [-111.422198, 46.029008], [-111.429906, 46.019676], [-111.41586, 46.001678], [-111.442899, 45.990694], [-111.460645, 45.997041], [-111.471285, 45.951475], [-111.506778, 45.925902], [-111.534579, 45.924427], [-111.533031, 45.918228], [-111.542421, 45.919761], [-111.545346, 45.910589], [-111.559431, 45.914843], [-111.587696, 45.906682], [-111.625736, 45.861772], [-111.636982, 45.861396], [-111.638042, 45.847919], [-111.650685, 45.85078], [-111.656329, 45.834562], [-111.665134, 45.832928], [-111.661518, 45.827834], [-111.680834, 45.821582], [-111.703019, 45.796617], [-111.726992, 45.793468], [-111.756081, 45.804237], [-111.787671, 45.792541], [-111.805259, 45.798306], [-111.80538, 45.786748], [-111.764587, 45.787704], [-111.764954, 45.772606], [-111.723816, 45.77161], [-111.723297, 45.74371], [-111.660667, 45.743347], [-111.659752, 45.72826], [-111.643456, 45.728855], [-111.643204, 45.714222], [-111.62104, 45.714409], [-111.621437, 45.69931], [-111.599274, 45.699493], [-111.600327, 45.684849], [-111.579475, 45.685017], [-111.578583, 45.670391], [-111.558395, 45.671009], [-111.558159, 45.656376], [-111.536011, 45.656548], [-111.535782, 45.641457], [-111.352089, 45.641365], [-111.353577, 45.350643], [-111.373039, 45.350975]]]}}]}