{"type": "FeatureCollection", "features": [{"type": "Feature", "properties": {"slug": "brasov", "members": 18, "country": "Romania", "input_hash": "18d2b73af91ead77"}, "geometry": {"type": "Polygon", "coordinates": [[[25.5149676, 45.472554], [25.4549132, 45.4471433], [25.4322171, 45.448971], [25.4365752, 45.4695882], [25.4107291, 45.4768106], [25.4116242, 45.4962796], [25.4226625, 45.4960881], [25.4295853, 45.5078492], [25.4292691, 45.5257777], [25.420883, 45.5288481], [25.4255674, 45.5419939], [25.4127195, 45.5592192], [25.3770142, 45.5273172], [25.362016, 45.5411049], [25.333585, 45.5224223], [25.2923824, 45.5295419], [25.2994429, 45.5458435], [25.2529137, 45.5570371], [25.2284425, 45.5458056], [25.2038738, 45.5199064], [25.1889737, 45.5227788], [25.1037646, 45.5842023], [25.1157564, 45.596103], [25.1049036, 45.6243237], [25.1213817, 45.6416729], [25.1470475, 45.6383005], [25.1551959, 45.6538516], [25.2102788, 45.65557], [25.2635597, 45.6248803], [25.2648872, 45.6094331], [25.2831351, 45.584735], [25.3160768, 45.5714736], [25.3232149, 45.5758984], [25.3161045, 45.5832807], [25.3205601, 45.5890816], [25.337938, 45.5981489], [25.3542707, 45.6211715], [25.3763788, 45.6286447], [25.3694236, 45.6507526], [25.3980074, 45.6547318], [25.3885414, 45.6667455], [25.4032102, 45.709593], [25.3719386, 45.7122737], [25.3525541, 45.7280006], [25.3322207, 45.7270678], [25.2960246, 45.7074385], [25.2783356, 45.7207717], [25.3418535, 45.7714086], [25.4167435, 45.7558823], [25.4383936, 45.7611001], [25.4515078, 45.7471584], [25.4748658, 45.7576921], [25.4851884, 45.7501642], [25.5060386, 45.7529793], [25.5010717, 45.7586856], [25.5115151, 45.7594305], [25.5105982, 45.7651706], [25.4733275, 45.7682771], [25.4350245, 45.8058288], [25.4009542, 45.8093817], [25.3852755, 45.8456261], [25.4023221, 45.8649529], [25.441089436104825, 45.85973157600593], [25.4630204, 45.8685419], [25.4745106, 45.884065], [25.5275006, 45.8676403], [25.5464064, 45.8697384], [25.5531649, 45.8784016], [25.5672404, 45.8365534], [25.6237919, 45.8240518], [25.6162581, 45.8211691], [25.6220999, 45.8095797], [25.6439205, 45.8086647], [25.6418616, 45.7981252], [25.66489, 45.7886875], [25.677358, 45.7583861], [25.6651048, 45.7520989], [25.6641663, 45.7464855], [25.6644135, 45.7478413], [25.6721574, 45.7459308], [25.67693596113247, 45.74670869255185], [25.7027273, 45.7737581], [25.743569, 45.7700449], [25.7658009, 45.7564512], [25.7900636, 45.764567], [25.7878589, 45.7535666], [25.8332358, 45.7475477], [25.8210822, 45.7333101], [25.8216003, 45.7257987], [25.8325434, 45.7234583], [25.818959, 45.7163215], [25.8266337, 45.7110438], [25.814160417869445, 45.69001589168627], [25.846355, 45.671389], [25.8725575, 45.6736235], [25.9246733, 45.6526241], [25.9281775, 45.6402719], [25.9200708, 45.6176127], [25.893275385697596, 45.60109787675293], [25.9142433, 45.5943281], [25.9130956, 45.5874883], [25.9376842, 45.5846846], [25.9535692, 45.5673746], [25.94534775876621, 45.55542243352634], [25.948397, 45.5463347], [25.9817652, 45.5441541], [25.9935558, 45.5244023], [25.9674061, 45.5077708], [25.9210372, 45.5219638], [25.8909976, 45.4879068], [25.8973223, 45.4781629], [25.8874597, 45.4668084], [25.8898049, 45.4469899], [25.8600666, 45.4219213], [25.8224121, 45.4316347], [25.8284048, 45.438751], [25.8198598, 45.4556095], [25.7864721, 45.4818238], [25.7659406, 45.4655682], [25.726, 45.465569], [25.6810187, 45.5006276], [25.6427665, 45.4921109], [25.6299803, 45.4960713], [25.6030743, 45.4633906], [25.5723537, 45.4676772], [25.5329235, 45.4589423], [25.5149676, 45.472554]], [[25.452614088696436, 45.797590678820626], [25.4524701, 45.7975698], [25.4498634, 45.7937933], [25.452614088696436, 45.797590678820626]], [[25.629592437002465, 45.79968370238747], [25.6297314, 45.7998398], [25.6248092, 45.8079133], [25.629592437002465, 45.79968370238747]], [[25.5342841, 45.5207442], [25.534366070678892, 45.52058306834718], [25.53474793023881, 45.52089945858201], [25.5342841, 45.5207442]], [[25.4673541, 45.7938238], [25.4551328, 45.7979559], [25.45282863670324, 45.79762178896651], [25.4673541, 45.7938238]], [[25.5146349, 45.8015104], [25.521306594015886, 45.80176562636892], [25.4828582, 45.803913], [25.5146349, 45.8015104]], [[25.52448145226868, 45.801887080911314], [25.5249835, 45.8105833], [25.524479158875604, 45.80188699317732], [25.52448145226868, 45.801887080911314]], [[25.6269649, 45.79696], [25.6269483238895, 45.796713561043994], [25.628361851900387, 45.798301381914705], [25.6269649, 45.79696]], [[25.624790070359253, 45.78808654189803], [25.6258207, 45.7890167], [25.62598578890657, 45.79031232505916], [25.624790070359253, 45.78808654189803]], [[25.612203714098285, 45.77693338749445], [25.6126526, 45.7771323], [25.614674595246868, 45.77895717984689], [25.612203714098285, 45.77693338749445]], [[25.5937992024478, 45.75923143464477], [25.5965113, 45.7614667], [25.606068, 45.7742145], [25.5937992024478, 45.75923143464477]], [[25.576990488643002, 45.747509130821626], [25.582296149310352, 45.74975081100838], [25.58753256547544, 45.75406657746373], [25.576990488643002, 45.747509130821626]], [[25.60021, 45.723212], [25.6074086, 45.7368218], [25.6087605, 45.739848], [25.60021, 45.723212]], [[25.6536242, 45.6790294], [25.6549197, 45.6767091], [25.6554007, 45.6800698], [25.6536242, 45.6790294]], [[25.685676323326856, 45.67827152216887], [25.6887724, 45.6794312], [25.675092, 45.6755907], [25.685676323326856, 45.67827152216887]], [[25.6509103, 45.6058397], [25.651138449561667, 45.603948132725066], [25.651758173323678, 45.60495546641597], [25.6509103, 45.6058397]], [[25.6404752, 45.6020636], [25.6431309, 45.5994112], [25.643423775380985, 45.59965321730039], [25.6404752, 45.6020636]], [[25.5740047, 45.5271158], [25.5757917, 45.5282846], [25.5790747, 45.5341192], [25.5740047, 45.5271158]], [[25.5626697, 45.5332825], [25.562211285246896, 45.533151272762574], [25.572192, 45.5307741], [25.5626697, 45.5332825]], [[25.4642528, 45.660342], [25.4679514, 45.6677363], [25.463819814736343, 45.66020327162859], [25.4642528, 45.660342]], [[25.524808739186586, 45.646768025523045], [25.5168212, 45.6515698], [25.524808739186582, 45.646768025523045], [25.524808739186586, 45.646768025523045]], [[25.5202741, 45.6386737], [25.515435296202334, 45.643003829458465], [25.5153383, 45.6429674], [25.5202741, 45.6386737]], [[25.5239352, 45.6176702], [25.5231299, 45.6238333], [25.52372595742909, 45.61735360491887], [25.5239352, 45.6176702]], [[25.50377071022713, 45.59565220330451], [25.5096904, 45.6040186], [25.5035642, 45.5959474], [25.50377071022713, 45.59565220330451]], [[25.520787891103975, 45.55897576939216], [25.5192037, 45.5630259], [25.520229, 45.5591951], [25.520787891103975, 45.55897576939216]], [[25.551316480879812, 45.55853894250209], [25.5457461, 45.5570613], [25.550677, 45.5580673], [25.551316480879812, 45.55853894250209]], [[25.5593156, 45.5653135], [25.55240208418225, 45.5593396179781], [25.560259855864224, 45.565135036127316], [25.5593156, 45.5653135]], [[25.5658396, 45.5580401], [25.5622015, 45.5602964], [25.565852038850228, 45.55760425013279], [25.5658396, 45.5580401]], [[25.4067387, 45.6680202], [25.39219804438774, 45.668642971244516], [25.3931539, 45.6679002], [25.4067387, 45.6680202]], [[25.458409262515406, 45.657868615515824], [25.4573687714449, 45.65746745153113], [25.456240546729738, 45.65585765497098], [25.458409262515406, 45.657868615515824]], [[25.410020002582982, 45.59457721429548], [25.410761903064685, 45.59484356323258], [25.4102449, 45.5947701], [25.410020002582982, 45.59457721429548]], [[25.43593848686843, 45.625288219503965], [25.43604394635381, 45.62536046823325], [25.4359045, 45.6254375], [25.43593848686843, 45.625288219503965]], [[25.4417104, 45.6362815], [25.441558353209512, 45.63859945214961], [25.4414433, 45.6384652], [25.4417104, 45.6362815]], [[25.443569096847188, 45.641349058890604], [25.4439282, 45.6417162], [25.4423659, 45.6428302], [25.443569096847188, 45.641349058890604]], [[25.45514592438191, 45.65185991430239], [25.4559791, 45.6523682], [25.4543274, 45.6531279], [25.45514592438191, 45.65185991430239]], [[25.483275, 45.5990012], [25.487579, 45.596842], [25.49105367855631, 45.596750896187906], [25.483275, 45.5990012]], [[25.495455113128493, 45.595477599583], [25.4977594, 45.5939926], [25.49975670635622, 45.594233186207596], [25.495455113128493, 45.595477599583]], [[25.3852792, 45.5952409], [25.39159191645365, 45.600143455332024], [25.391697, 45.600538], [25.3852792, 45.5952409]], [[25.3936756, 45.5860827], [25.393533209587734, 45.58641943176457], [25.3906325, 45.5793909], [25.3936756, 45.5860827]], [[25.394512085949604, 45.550612577087165], [25.3924954, 45.5483342], [25.392820325404315, 45.54815119363041], [25.394512085949604, 45.550612577087165]], [[25.546295740009693, 45.729742971337735], [25.54707749307863, 45.7299945154892], [25.5463413, 45.7297988], [25.546295740009693, 45.729742971337735]], [[25.56481923704997, 45.73570326433867], [25.5675477, 45.7365812], [25.568238997098423, 45.73743096188339], [25.56481923704997, 45.73570326433867]], [[25.575218339807613, 45.74601016671279], [25.57587156764701, 45.74681313278968], [25.5757675, 45.7467484], [25.575218339807613, 45.74601016671279]], [[25.5027096, 45.6953293], [25.50300282227782, 45.69890584927286], [25.5025551, 45.6985354], [25.5027096, 45.6953293]], [[25.5083776, 45.7059843], [25.5112663, 45.7069989], [25.511137351309696, 45.70805272931287], [25.5083776, 45.7059843]], [[25.5250309, 45.7271035], [25.5287685, 45.7255787], [25.5321407, 45.7281725], [25.5250309, 45.7271035]], [[25.5440213, 45.7269559], [25.541387, 45.7230695], [25.54435923835996, 45.72737000558773], [25.5440213, 45.7269559]], [[25.540634093472473, 45.71010265788257], [25.5397606, 45.7099572], [25.5402583, 45.7036306], [25.540634093472473, 45.71010265788257]], [[25.6816746, 45.6645148], [25.6820502, 45.6634375], [25.683195, 45.6606046], [25.6816746, 45.6645148]], [[25.7343001, 45.6850948], [25.7351364, 45.6781766], [25.736819, 45.6694696], [25.7343001, 45.6850948]], [[25.7829294, 45.6779513], [25.784561501686195, 45.684086296336076], [25.7736695, 45.6854021], [25.7843598, 45.6833821], [25.7829294, 45.6779513]], [[25.798660736631778, 45.681865969377114], [25.7962187, 45.6827451], [25.7974286, 45.6814473], [25.798660736631778, 45.681865969377114]], [[25.8000276, 45.6813739], [25.79905787529215, 45.68172299987645], [25.79682182291344, 45.68023504855461], [25.8000276, 45.6813739]], [[25.814743442843962, 45.64802334143598], [25.8163041, 45.6507544], [25.8146667, 45.6481928], [25.814743442843962, 45.64802334143598]], [[25.81858046770762, 45.64480975282937], [25.814991381894416, 45.647475858527045], [25.8155493, 45.6462439], [25.81858046770762, 45.64480975282937]], [[25.87785782655351, 45.59958916395415], [25.876448604398316, 45.60026240849597], [25.8768506, 45.5994906], [25.87785782655351, 45.59958916395415]], [[25.6375385, 45.5049165], [25.62562733860604, 45.5000367318827], [25.6264728, 45.499647], [25.6375385, 45.5049165]], [[25.589172208595173, 45.5397926923189], [25.58899305973563, 45.53873964031634], [25.590151275510692, 45.536731126317726], [25.589172208595173, 45.5397926923189]], [[25.590634315053535, 45.53576342524726], [25.5906508, 45.5357304], [25.59129051535985, 45.53555772045366], [25.590634315053535, 45.53576342524726]], [[25.60417753220378, 45.53207910424108], [25.6045306, 45.5319838], [25.6206416, 45.5399656], [25.60417753220378, 45.53207910424108]], [[25.62318584664702, 45.546647795806045], [25.624461930875093, 45.54999929660766], [25.623082, 45.5486445], [25.62318584664702, 45.546647795806045]], [[25.625853773097827, 45.55136578760789], [25.63013208796722, 45.55204898979101], [25.6270185, 45.5525093], [25.625853773097827, 45.55136578760789]], [[25.640325910282353, 45.54801158698926], [25.6369582, 45.5468118], [25.6406487, 45.5480434], [25.640325910282353, 45.54801158698926]], [[25.642280229711695, 45.5453747870029], [25.6415922, 45.5465779], [25.6369582, 45.5468118], [25.642280229711695, 45.5453747870029]], [[25.642322755190555, 45.54530042545215], [25.6363065, 45.5438579], [25.6423982, 45.5451685], [25.642322755190555, 45.54530042545215]], [[25.6414782, 45.5408083], [25.6423095, 45.5364367], [25.64323336164101, 45.53551835821979], [25.6414782, 45.5408083]], [[25.649738, 45.5357131], [25.643471311789718, 45.535281829768486], [25.6492219, 45.5295656], [25.644327, 45.5346046], [25.649738, 45.5357131]], [[25.701902450389923, 45.495445721973475], [25.7022327, 45.4963297], [25.6990787, 45.5000368], [25.701902450389923, 45.495445721973475]], [[25.6605739, 45.5278134], [25.6650561, 45.5276718], [25.659094466717246, 45.52910525955864], [25.6605739, 45.5278134]], [[25.6001659, 45.5617224], [25.599918209612223, 45.56112151994433], [25.6015153006738, 45.562417217194664], [25.6001659, 45.5617224]], [[25.678231900872284, 45.746812885822145], [25.676503, 45.7397695], [25.6783776, 45.7468246], [25.678231900872284, 45.746812885822145]], [[25.7530197, 45.7571752], [25.753165126427472, 45.757433418436925], [25.752800932643872, 45.75735687734231], [25.7530197, 45.7571752]], [[25.746325912585394, 45.76115965317839], [25.7459391, 45.7614011], [25.745854935280043, 45.76117172758455], [25.746325912585394, 45.76115965317839]], [[25.74567135702502, 45.760671425465105], [25.7452959, 45.7596482], [25.74786881299394, 45.758437676251106], [25.74567135702502, 45.760671425465105]], [[25.7497754, 45.7564996], [25.749435548060774, 45.756845064943484], [25.749215557106385, 45.75633000735888], [25.7497754, 45.7564996]], [[25.7426569, 45.7543432], [25.744656605389405, 45.75494896872961], [25.74166293888739, 45.75454240132087], [25.7426569, 45.7543432]], [[25.7407527, 45.7572824], [25.7377546, 45.758275], [25.73618455591169, 45.75762915770166], [25.7407527, 45.7572824]], [[25.73566770654936, 45.75741655018155], [25.735283, 45.7572583], [25.735571, 45.737017], [25.73566770654936, 45.75741655018155]]]}}]}