{"type": "FeatureCollection", "features": [{"type": "Feature", "properties": {"slug": "bratislava", "members": 8, "country": "Slovakia", "input_hash": "e8de11b8326191ee"}, "geometry": {"type": "Polygon", "coordinates": [[[17.226627, 48.016229], [17.201029, 48.019992], [17.1607728, 48.0066643], [17.11006, 48.031224], [17.089866, 48.019783], [17.067423, 48.031428], [17.08779, 48.045676], [17.06825, 48.055395], [17.086791, 48.065356], [17.0722296, 48.0704568], [17.078914, 48.078236], [17.0715723, 48.0809405], [17.0931398, 48.091431], [17.087769, 48.096557], [17.0927073, 48.0996453], [17.062786, 48.12148], [17.068816, 48.124208], [17.0571997, 48.1437267], [17.0271885, 48.1407868], [16.9762313, 48.1721643], [16.9764373, 48.189369], [16.96178, 48.220827], [16.946073, 48.236194], [16.957306078955327, 48.263669527860145], [16.9210911, 48.2729467], [16.894659, 48.310219], [16.908784, 48.325955], [16.871656, 48.337952], [16.872974, 48.348845], [16.84406, 48.350492], [16.8331891, 48.3805241], [16.8504859, 48.3832588], [16.8559114, 48.396247], [16.8505075, 48.4100352], [16.8636325, 48.4193684], [16.850008, 48.449159], [16.863119, 48.453035], [16.859476, 48.459367], [16.8807221, 48.4774916], [16.889987, 48.47636], [16.8960647, 48.4965462], [16.91698, 48.495458], [16.913047, 48.509962], [16.922235, 48.513534], [16.920394, 48.519638], [16.9420443, 48.5210124], [16.949779, 48.535802], [16.970887, 48.537648], [16.96658, 48.54722], [17.058747, 48.555554], [17.05231, 48.563816], [17.106184, 48.562832], [17.125258, 48.546733], [17.235787, 48.567414], [17.234492, 48.580757], [17.265737, 48.589503], [17.282448, 48.608472], [17.296166, 48.607437], [17.327629, 48.654032], [17.358629, 48.642766], [17.376605, 48.612041], [17.359935, 48.591629], [17.334265, 48.575932], [17.324677, 48.577976], [17.333014, 48.563682], [17.320117, 48.567971], [17.318358, 48.561835], [17.304003, 48.557821], [17.28592, 48.548048], [17.271946, 48.538639], [17.279684, 48.543507], [17.300439, 48.536347], [17.326209, 48.51468], [17.355047, 48.506589], [17.33661, 48.497687], [17.342066, 48.49229], [17.33545, 48.482596], [17.314128, 48.481076], [17.302179, 48.465943], [17.316894, 48.451533], [17.3464378, 48.4518655], [17.361562, 48.438548], [17.394104, 48.437628], [17.379882, 48.429181], [17.404386, 48.417371], [17.400916, 48.406233], [17.417223, 48.404998], [17.410615, 48.400578], [17.431119, 48.380879], [17.426309, 48.374989], [17.452167, 48.374494], [17.477524, 48.35258], [17.462121, 48.325131], [17.449266, 48.319614], [17.45963326564956, 48.305929396336325], [17.464738, 48.310543], [17.513744, 48.279077], [17.482684, 48.252881], [17.473277, 48.235083], [17.520557, 48.225548], [17.50074, 48.205313], [17.529199, 48.196497], [17.521445, 48.194397], [17.514437, 48.175067], [17.48224, 48.171067], [17.467401, 48.152296], [17.436964, 48.144055], [17.398975, 48.153339], [17.410229, 48.164179], [17.40038, 48.174089], [17.380068, 48.170071], [17.37418, 48.160364], [17.38128, 48.157677], [17.37384, 48.152666], [17.3909734, 48.1429904], [17.378969, 48.130462], [17.3667437, 48.1336927], [17.340467, 48.118445], [17.303309, 48.121434], [17.313432, 48.115333], [17.307123, 48.099408], [17.326551, 48.08884], [17.343434, 48.096056], [17.353677, 48.092173], [17.34971, 48.085072], [17.333831, 48.081328], [17.331638, 48.069178], [17.324001, 48.070828], [17.314056, 48.059949], [17.2965011, 48.0661604], [17.306407, 48.049786], [17.281716, 48.042792], [17.269252, 48.028641], [17.253501, 48.028918], [17.258852, 48.022608], [17.24743, 48.012014], [17.241718805344263, 48.022392550414374], [17.226627, 48.016229]], [[17.077903, 48.167237], [17.077864365486484, 48.16726229864035], [17.076414, 48.16462], [17.077903, 48.167237]], [[17.073921, 48.172134], [17.073915112559256, 48.17216351188585], [17.072135, 48.171014], [17.073921, 48.172134]], [[17.073495802790607, 48.17426537966908], [17.073232333964647, 48.174389204885784], [17.07387275799345, 48.17237582198209], [17.073495802790607, 48.17426537966908]], [[17.081794, 48.167029], [17.082187225466946, 48.16681274734093], [17.08010323854105, 48.168967964613756], [17.081794, 48.167029]], [[17.085478, 48.165003], [17.099933, 48.162627], [17.082910519405456, 48.16641497494152], [17.085478, 48.165003]], [[17.108167, 48.158881], [17.115185276001185, 48.159454417195825], [17.11476, 48.159609], [17.108167, 48.158881]], [[17.118169, 48.157354], [17.123825702807874, 48.156313724089756], [17.115591438700015, 48.159306781851335], [17.118169, 48.157354]], [[17.125151, 48.15607], [17.12802, 48.158371], [17.1250806649576, 48.15608293471705], [17.125151, 48.15607]], [[17.124763, 48.146527], [17.126757, 48.152331], [17.125151, 48.15607], [17.124763, 48.146527]], [[17.155344, 48.1675509], [17.166271845646897, 48.176937953226044], [17.15421981822603, 48.16708937066347], [17.155344, 48.1675509]], [[17.167301, 48.177822], [17.174616, 48.187041], [17.167155957605953, 48.17769740813469], [17.167301, 48.177822]], [[17.224380954234416, 48.19174299211083], [17.181609, 48.18912], [17.17967941679937, 48.18854634012954], [17.224380954234416, 48.19174299211083]], [[17.228584, 48.194752], [17.224854, 48.194112], [17.224755382563885, 48.19355269487671], [17.228584, 48.194752]], [[17.458325, 48.304747], [17.458506807201978, 48.30491131538167], [17.424516, 48.286443], [17.458325, 48.304747]], [[17.223361, 48.039402], [17.223205414660978, 48.03946422116656], [17.231963, 48.029581], [17.223361, 48.039402]], [[17.234221, 48.169848], [17.232023193465967, 48.1698299228034], [17.237288, 48.16814], [17.234221, 48.169848]], [[17.237459182262157, 48.14416673987519], [17.238984, 48.148447], [17.237439, 48.1441786], [17.237459182262157, 48.14416673987519]], [[17.21758014946852, 48.10361191965083], [17.236059, 48.11158], [17.217588, 48.103637], [17.21758014946852, 48.10361191965083]], [[17.219999967951335, 48.04074613265564], [17.187371, 48.053795], [17.176385386853735, 48.057286938066916], [17.219999967951335, 48.04074613265564]], [[17.175358762202272, 48.05767628489], [17.156720851781195, 48.073619102246084], [17.157072, 48.073043], [17.175358762202272, 48.05767628489]], [[17.143341363202886, 48.09556981424924], [17.153507324745366, 48.07889129229019], [17.147879, 48.09003], [17.143341363202886, 48.09556981424924]], [[17.138279, 48.110201], [17.138807, 48.103009], [17.139448628545196, 48.10195632871692], [17.138279, 48.110201]], [[17.145749, 48.119744], [17.14589548812691, 48.12106601908594], [17.138279, 48.110201], [17.145749, 48.119744]], [[17.144766, 48.129623], [17.146067720321156, 48.122620372007276], [17.146355, 48.125213], [17.144766, 48.129623]], [[17.137042694775285, 48.13529397598146], [17.137921607000056, 48.13498926569336], [17.137649, 48.135203], [17.137042694775285, 48.13529397598146]], [[17.189599, 48.230205], [17.18729819650562, 48.23113372081901], [17.209258, 48.218475], [17.189599, 48.230205]], [[16.969698, 48.263642], [16.9584771, 48.2650685], [16.9702920327113, 48.26325586517836], [16.969698, 48.263642]], [[17.073883551472537, 48.23564130687294], [17.069621, 48.237433], [17.073779, 48.235631], [17.073883551472537, 48.23564130687294]], [[17.081415, 48.249849], [17.081604144748624, 48.24944352405334], [17.091048, 48.246694], [17.081415, 48.249849]], [[17.099352, 48.249376], [17.09924127815526, 48.24937201173458], [17.1205, 48.244372], [17.099352, 48.249376]], [[17.137305, 48.24752], [17.137587991004676, 48.247629247593224], [17.129266, 48.247963], [17.137305, 48.24752]], [[17.138976, 48.242065], [17.134222, 48.242837], [17.132210469546443, 48.2427148355049], [17.138976, 48.242065]], [[17.121579381384436, 48.24180525251656], [17.12349758938507, 48.24218568388112], [17.122202, 48.242107], [17.121579381384436, 48.24180525251656]], [[17.295194, 48.447213], [17.303653, 48.453997], [17.296964, 48.448758], [17.295194, 48.447213]], [[17.295079079826476, 48.4439437509035], [17.295383, 48.444229], [17.295194, 48.447213], [17.295079079826476, 48.4439437509035]], [[17.187477528712357, 48.322326644281404], [17.1882643, 48.3240627], [17.187271208941915, 48.32539503388175], [17.187477528712357, 48.322326644281404]], [[17.1828901, 48.3202275], [17.1873096, 48.3219561], [17.18739531216015, 48.32214522876985], [17.1828901, 48.3202275]], [[17.17397761272165, 48.311101064326465], [17.1759472, 48.3120074], [17.1828901, 48.3202275], [17.17397761272165, 48.311101064326465]], [[17.160849, 48.314], [17.1734544, 48.3108603], [17.173679794406493, 48.31096401867927], [17.160849, 48.314]], [[17.15628008495336, 48.26593483897042], [17.156901, 48.266402], [17.154726, 48.268503], [17.15628008495336, 48.26593483897042]]]}}]}