{"type": "FeatureCollection", "features": [{"type": "Feature", "properties": {"slug": "bregenz", "members": 40, "country": "Austria", "input_hash": "329d5b1bb2b1f037"}, "geometry": {"type": "Polygon", "coordinates": [[[9.7470841, 47.555687], [9.7480649, 47.5705239], [9.7656021, 47.5890994], [9.802334, 47.5959391], [9.8273748, 47.5786381], [9.8207568, 47.5708563], [9.8259626, 47.5604206], [9.815755, 47.5476954], [9.8745052, 47.5285372], [9.8812471, 47.5481426], [9.9066603, 47.5421716], [9.9218947, 47.5296364], [9.9410791, 47.5382227], [9.9636997, 47.5347198], [9.9588525, 47.5431711], [9.9707109, 47.5457143], [9.965262, 47.5208928], [9.9956949, 47.5027787], [9.9873585, 47.4984652], [10.0007641, 47.4821056], [10.0447745, 47.4876222], [10.0534684, 47.4668571], [10.0699906, 47.4559503], [10.091638, 47.4589276], [10.0938486, 47.4404644], [10.1055856, 47.4287167], [10.0937374, 47.4168811], [10.0691405, 47.410176], [10.0862396, 47.3995221], [10.0998516, 47.3547618], [10.1193354, 47.375613], [10.1416871, 47.36718], [10.1658749, 47.3688749], [10.1693975, 47.3858299], [10.181849, 47.3924258], [10.2125912, 47.3803897], [10.227051, 47.388895], [10.2371623, 47.3735651], [10.1995092, 47.3264601], [10.2159718, 47.311064], [10.1991314, 47.2975423], [10.1796106, 47.2960256], [10.172077, 47.2790762], [10.1742128, 47.2638805], [10.2236076, 47.2499906], [10.1977408, 47.2366053], [10.1574569, 47.2514304], [10.134503, 47.25125], [10.1251913, 47.2429723], [10.1291498, 47.2383065], [10.1072567, 47.2387405], [10.1008281, 47.2265563], [10.0835341, 47.2262927], [10.0643324, 47.2294875], [10.0692457, 47.2473481], [10.0453032, 47.247321], [10.0049617, 47.2739117], [9.9713508, 47.2680368], [9.9698833, 47.2783281], [9.9486901, 47.2782362], [9.9388877, 47.2947044], [9.8949633, 47.2781082], [9.8559128, 47.2760348], [9.852371, 47.2678827], [9.8307583, 47.2718428], [9.824218, 47.281258], [9.8486222, 47.2925], [9.8454977, 47.3024456], [9.8168466, 47.3109473], [9.8268883, 47.3236115], [9.8175979, 47.3326377], [9.8252983, 47.3341298], [9.8108194, 47.3455228], [9.8443186, 47.3602996], [9.833765, 47.3682635], [9.8395913, 47.3775211], [9.816269, 47.3918706], [9.8013993, 47.4153849], [9.8135245, 47.4417126], [9.7773389, 47.4448319], [9.7604916, 47.4365018], [9.7252654, 47.4489334], [9.7007018, 47.447471], [9.6815806, 47.4629068], [9.6594498, 47.4513821], [9.6223413, 47.457472], [9.609044, 47.4705422], [9.5972223, 47.4622658], [9.561444, 47.497785], [9.5587204, 47.5418932], [9.6803596, 47.5233576], [9.7367935, 47.5354098], [9.7351711, 47.5466141], [9.7470841, 47.555687]]]}}]}