{"type": "FeatureCollection", "features": [{"type": "Feature", "properties": {"slug": "bridgetown", "members": 3, "country": "Barbados", "input_hash": "26293c896bc3b16a"}, "geometry": {"type": "Polygon", "coordinates": [[[-59.5991243, 13.0811489], [-59.598769, 13.0873782], [-59.5685508, 13.093842], [-59.5705742, 13.1021166], [-59.5089698, 13.1204226], [-59.4966629, 13.115864], [-59.4886682, 13.0869573], [-59.4723252, 13.0786305], [-59.494634, 13.066788], [-59.5042435, 13.0520551], [-59.5270229, 13.0447137], [-59.5450985, 13.0640634], [-59.6128556, 13.0786155], [-59.6106922, 13.0907608], [-59.632353, 13.1020607], [-59.632993, 13.1067234], [-59.6297355, 13.1009637], [-59.630338, 13.107547], [-59.622043, 13.1068042], [-59.6196631, 13.0991499], [-59.6179369, 13.1049456], [-59.6066639, 13.1028079], [-59.608492, 13.0852825], [-59.5991243, 13.0811489]]]}}]}