{"type":"FeatureCollection","features":[{"type":"Feature","properties":{"slug":"bridgwater","member_count":9,"matched_count":9,"unmatched":[],"source":"Overture Maps division_area (CC-BY 4.0)"},"geometry":{"type":"Polygon","coordinates":[[[-2.55782200558844,51.30266567354539],[-2.497219602252353,51.2908456948522],[-2.506354748883896,51.27899566899804],[-2.451722904365232,51.27425577348334],[-2.400918659964735,51.30480453581667],[-2.387182358916055,51.294647812548895],[-2.289093097930276,51.325275776493875],[-2.273097251447744,51.322882804359466],[-2.271956925665144,51.314257902796804],[-2.285069912927779,51.3094610638712],[-2.280682684102328,51.29346717172571],[-2.253499989524498,51.28983897213034],[-2.245344960620697,51.25388097848043],[-2.298373656718691,51.175442429123905],[-2.34630716382516,51.13051648735597],[-2.344541769158925,51.12468401424576],[-2.364529467916223,51.11888464947947],[-2.362531216401212,51.10162961800615],[-2.325856221714462,51.07968178731438],[-2.349980778818486,51.0688069724308],[-2.330018692543036,51.04135084788847],[-2.381352072090535,51.004928745227694],[-2.376924488657713,50.99077129776321],[-2.354900800829002,50.99088707201483],[-2.344560094990623,50.9788360451904],[-2.414929686914298,50.960590040237804],[-2.427993452767621,50.971393073306054],[-2.447179214243697,50.96785641308964],[-2.44286884179235,50.959666439078305],[-2.456204613140854,50.94935026807332],[-2.490345718460805,50.9727781323118],[-2.502346003125011,50.99384199664796],[-2.547432887393017,50.999547308913094],[-2.545422076995427,50.985086261517225],[-2.556205859500439,50.97954110953335],[-2.574628486181215,50.98669973310585],[-2.586021942095567,50.976875614604225],[-2.603385544579048,50.97635099302436],[-2.598200000698843,50.948581322421354],[-2.616093362164813,50.94058842514369],[-2.604039348917963,50.92673195801968],[-2.624064073173559,50.90787466715047],[-2.609571262625684,50.891562366636194],[-2.616099990940286,50.88164174673031],[-2.660609965517841,50.88711298244585],[-2.714388510411055,50.871151755169215],[-2.714554760377053,50.863902720771186],[-2.757497763505039,50.86691057255818],[-2.792293290472538,50.8528263490199],[-2.811423837726017,50.86341767467786],[-2.828955247892989,50.84866784985038],[-2.886240595996646,50.85059837935797],[-2.930153844750071,50.840937354527966],[-2.954315702682397,50.821182096260614],[-2.969821050459946,50.834189953688295],[-2.97357523132595,50.85572141581699],[-3.036799255303491,50.8510742180069],[-3.032624712460708,50.861648093407844],[-3.054778312467155,50.87462700706974],[-3.052415331606263,50.90827209726314],[-3.12633209140914,50.901725199297395],[-3.144168524843138,50.89140250214578],[-3.187860359240116,50.91042815310113],[-3.166468462462104,50.94772001546546],[-3.254819254476299,50.94185243141595],[-3.293835679915191,50.95514507953333],[-3.333657637489159,50.9827940299942],[-3.37865060551565,50.97751435259675],[-3.380474652975285,51.01849084462486],[-3.414160361916396,51.019707566099555],[-3.42129008380494,51.03078281671817],[-3.460179384663398,51.02522138615987],[-3.483350895022022,51.03383590425819],[-3.504252911255553,51.030117182842005],[-3.520412986278564,51.02587556582706],[-3.518865925602821,51.01480032694766],[-3.535033778682877,51.00335233171195],[-3.603191230621466,51.00723805132025],[-3.614637619633659,51.015495016670606],[-3.594455355860243,51.0551981121126],[-3.646692676091293,51.05806260982443],[-3.692390512704899,51.08059527444384],[-3.719937366880411,51.08081809733847],[-3.804271049088274,51.115687582842526],[-3.834473238220122,51.138382610632604],[-3.839157760947012,51.17692396338323],[-3.786287055855556,51.17192865572287],[-3.7249681140519,51.17959391045609],[-3.733185291941055,51.22272595712349],[-3.720782948111487,51.233083693727764],[-3.631961203094009,51.22361008087655],[-3.621225896451501,51.21664470037792],[-3.578694466565453,51.23214361660164],[-3.542150907874343,51.23225879105318],[-3.495717536514017,51.22364765795009],[-3.470393658711069,51.208152235928225],[-3.447587932410829,51.208903652230994],[-3.400794970859747,51.182385107213165],[-3.277353915540095,51.179571761562265],[-3.153932919589855,51.20877653369491],[-3.125488326784919,51.21136273410588],[-3.076313364577247,51.20125642256027],[-3.019254017958777,51.21848077193362],[-3.032541021394397,51.19458077552103],[-3.022646203259775,51.1962871134922],[-3.002256293320614,51.225958872748706],[-2.984276304142387,51.22043092974748],[-2.999080407049249,51.22498274590975],[-3.000498956082252,51.241623499096974],[-3.021530279743547,51.26547791120899],[-3.012055416156549,51.32103296349351],[-3.035462351566043,51.32853867794927],[-2.994269894403681,51.32106887727037],[-2.986350617546297,51.31246774909319],[-2.993155611883511,51.30101494189261],[-2.973446244812545,51.29568430280171],[-2.962032107574281,51.30479492348293],[-2.936631356560015,51.30306043125825],[-2.897096856030743,51.290618528709665],[-2.884913143378808,51.30666841123372],[-2.87713943149393,51.30006655777217],[-2.81023082957414,51.30142819182385],[-2.81866736631234,51.326368958218836],[-2.694875680490298,51.3180980311809],[-2.638696266545893,51.29482689106387],[-2.627491361356128,51.282875137174734],[-2.55782200558844,51.30266567354539]]]}}]}