{"type":"FeatureCollection","features":[{"type":"Feature","properties":{"slug":"bridgend","member_count":19,"matched_count":19,"unmatched":[],"source":"Overture Maps division_area (CC-BY 4.0)"},"geometry":{"type":"MultiPolygon","coordinates":[[[[-3.6023573,51.5066903],[-3.5802164,51.5244914],[-3.5681264,51.4990233],[-3.5547511,51.4927662],[-3.5965429,51.4833969],[-3.5818371,51.4936424],[-3.5964693,51.4959278],[-3.5857523,51.502392],[-3.6023573,51.5066903]]],[[[-3.7404849,51.4987729],[-3.7588651,51.5101819],[-3.7699253,51.5357373],[-3.6536124,51.5179978],[-3.7124918,51.4995915],[-3.7404849,51.4987729]]],[[[-3.2220932,51.4750414],[-3.2480435,51.4645549],[-3.2698906,51.46534],[-3.232082,51.4839163],[-3.2220932,51.4750414]]]]}}]}