{"type":"FeatureCollection","features":[{"type":"Feature","properties":{"slug":"broome","member_count":1,"matched_count":1,"unmatched":[],"source":"Overture Maps division_area (CC-BY 4.0)"},"geometry":{"type":"MultiPolygon","coordinates":[[[[123.228612,-16.617907],[123.402942,-16.858686],[123.439975,-17.076323],[123.486257,-17.182822],[123.366477,-17.230537],[123.368739,-17.236635],[123.360894,-17.239352],[123.356693,-17.234003],[123.028946,-17.233089],[123.028969,-17.36598],[123.114143,-17.365974],[123.114142,-17.45975],[123.165244,-17.459745],[123.165244,-17.537266],[122.996082,-17.53727],[122.996091,-17.815081],[123.148296,-17.815081],[123.148296,-18.272126],[123.348624,-18.272215],[123.348626,-18.498191],[123.515724,-18.498191],[123.515726,-18.663259],[123.404249,-18.66326],[123.40425,-18.754132],[123.565957,-18.75413],[123.565961,-19.794125],[121.696853,-19.79414],[121.696854,-19.852856],[121.596698,-19.852917],[121.501312,-19.852923],[121.501311,-19.82677],[121.423203,-19.826922],[121.42314,-19.794402],[121.113928,-19.794669],[121.113929,-19.906643],[120.786689,-19.906643],[120.786689,-19.875024],[120.684807,-19.875029],[120.666869,-20.070016],[120.064133,-20.070018],[120.064133,-19.91622],[120.0439733,-19.8493253],[120.0518326,-19.8437134],[120.0780643,-19.8364093],[120.206149,-19.8450058],[120.3102391,-19.8147984],[120.3279807,-19.7883927],[120.3747063,-19.7669244],[120.4039478,-19.7635772],[120.4314364,-19.7728849],[120.6621909,-19.6916847],[120.9666626,-19.5515363],[121.0342778,-19.5052637],[121.1869959,-19.3794536],[121.4543514,-19.067672],[121.4666756,-19.0129297],[121.5023614,-18.968459],[121.5034296,-18.9196861],[121.5386824,-18.8825847],[121.5627948,-18.8309773],[121.5740565,-18.7749375],[121.5377079,-18.7209838],[121.5356578,-18.6987173],[121.5444673,-18.6768359],[121.5741405,-18.6563642],[121.6893945,-18.6459502],[121.7034802,-18.635931],[121.7004826,-18.6233581],[121.6544275,-18.5785685],[121.6514796,-18.5535048],[121.6622063,-18.5290347],[121.6914156,-18.5081688],[121.7177339,-18.5026878],[121.7307136,-18.4564445],[121.782525,-18.4013425],[121.8390737,-18.3892993],[121.8699082,-18.3952188],[121.8902137,-18.4099612],[121.9800301,-18.3511117],[122.0279524,-18.2871768],[122.1005059,-18.2590973],[122.1071592,-18.2105817],[122.0988159,-18.1739187],[122.123197,-17.9636106],[122.1314032,-17.9351617],[122.1539366,-17.914684],[122.1569479,-17.876767],[122.1295285,-17.7848011],[122.1487674,-17.7055279],[122.1335851,-17.6796234],[122.1262048,-17.6311709],[122.0918891,-17.5680471],[122.0943734,-17.5370742],[122.0851761,-17.4866535],[122.094377,-17.4549145],[122.0901398,-17.3401921],[122.1037208,-17.2859978],[122.1371961,-17.2151768],[122.1682403,-17.1820576],[122.1667223,-17.1095417],[122.1988408,-17.0719886],[122.2270777,-17.0573245],[122.2546065,-17.0223311],[122.3022719,-17.0051148],[122.3046809,-16.9664214],[122.3230803,-16.9408732],[122.4154606,-16.8965847],[122.4329307,-16.8648748],[122.5020269,-16.7936436],[122.5240926,-16.744916],[122.5464424,-16.7219095],[122.5833553,-16.7091118],[122.6247787,-16.7138129],[122.6507476,-16.728964],[122.6575674,-16.7248793],[122.6558005,-16.6933466],[122.6794525,-16.6595178],[122.676641,-16.6217692],[122.6904858,-16.5853718],[122.7314637,-16.556948],[122.8122966,-16.4758803],[122.828904,-16.431502],[122.8544168,-16.4054833],[122.8791717,-16.3535666],[123.0202738,-16.2401231],[123.0704111,-16.1858667],[123.267182,-16.358608],[123.228612,-16.617907]]],[[[119.0186224,-17.4952288],[119.0310615,-17.6092841],[119.0137578,-17.6570373],[118.9926887,-17.6857165],[118.959867,-17.7063424],[118.9266881,-17.7109591],[118.8905582,-17.6960593],[118.8586957,-17.6674417],[118.8361661,-17.631659],[118.8320497,-17.5967859],[118.8497386,-17.5516805],[118.890229,-17.4806869],[118.9260753,-17.4501551],[118.9674815,-17.4469008],[119.0028736,-17.4689839],[119.0186224,-17.4952288]]],[[[119.4303388,-17.2895547],[119.4331887,-17.3722723],[119.4021462,-17.4256503],[119.3781723,-17.440425],[119.3523498,-17.4446948],[119.3264994,-17.4390785],[119.299977,-17.4222574],[119.2656311,-17.36983],[119.2595138,-17.3157662],[119.2767056,-17.2435173],[119.2927918,-17.2189306],[119.3315054,-17.1949172],[119.3756975,-17.2021418],[119.4169347,-17.2462768],[119.4303388,-17.2895547]]],[[[122.2117541,-16.8030412],[122.2472061,-16.8391908],[122.2675056,-16.9090969],[122.2512193,-16.9569362],[122.2135893,-16.9814584],[122.1763146,-16.9803701],[122.112382,-16.9420465],[122.0476493,-16.8929803],[122.0249147,-16.8609501],[122.02961,-16.8200007],[122.0614128,-16.7934679],[122.0993291,-16.7936248],[122.1420484,-16.7824397],[122.2117541,-16.8030412]]],[[[121.848907,-14.043058],[121.8142758,-14.106578],[121.789698,-14.119157],[121.7948313,-14.1461368],[121.8277876,-14.1563465],[121.919527,-14.108427],[121.926548,-14.098162],[121.916862,-14.069972],[121.923532,-14.04125],[121.945202,-14.020939],[121.974384,-14.01545],[121.999376,-14.024242],[122.0170672,-14.0437794],[122.0296948,-14.0762313],[122.0310986,-14.1085163],[122.0164125,-14.1513796],[121.9832266,-14.1881084],[121.846534,-14.2600975],[121.8112534,-14.2616644],[121.7464739,-14.2430067],[121.6758006,-14.1860181],[121.6647885,-14.1446972],[121.6753968,-14.0786759],[121.6976697,-14.0379311],[121.7352365,-13.9998118],[121.778598,-13.990145],[121.810379,-13.992832],[121.832166,-14.004441],[121.848907,-14.043058]]]]}}]}