{"type":"FeatureCollection","features":[{"type":"Feature","properties":{"slug":"brownwood","member_count":6,"matched_count":6,"unmatched":[],"source":"Overture Maps division_area (CC-BY 4.0)"},"geometry":{"type":"Polygon","coordinates":[[[-98.6684509,31.7008258],[-98.7599793,31.6879297],[-98.7800834,31.6105541],[-99.0061922,31.48019],[-99.0101834,31.4714607],[-99.0191098,31.4696489],[-99.0410876,31.4906218],[-99.0619296,31.4712658],[-99.0603921,31.4648209],[-99.0726732,31.4670977],[-99.0862927,31.4559391],[-99.0914479,31.4606386],[-99.0953907,31.4486903],[-99.1164425,31.4684041],[-99.1244247,31.4564165],[-99.1350892,31.4656963],[-99.1596797,31.4682128],[-99.1843045,31.4537789],[-99.188639,31.470453],[-99.2028912,31.4671464],[-99.1960434,32.0797858],[-98.924378,32.0779893],[-98.6684509,31.7008258]]]}}]}