{"type":"FeatureCollection","features":[{"type":"Feature","properties":{"slug":"brussels","member_count":111,"matched_count":19,"unmatched":["Bruxelles-Capitale (BE-BRU, type='Arrondissement')","Halle-Vilvoorde (BE-VBR, type='Arrondissement')","Leuven (BE-VBR, type='Arrondissement')","Nivelles (BE-WBR, type='Arrondissement')","Vilvoorde (Vilvorde) (BE-VBR, type='Municipality')","Dilbeek (BE-VBR, type='Municipality')","Halle (Hal) (BE-VBR, type='Municipality')","Grimbergen (BE-VBR, type='Municipality')","Zaventem (BE-VBR, type='Municipality')","Sint-Pieters-Leeuw (BE-VBR, type='Municipality')","Asse (BE-VBR, type='Municipality')","Beersel (BE-VBR, type='Municipality')","Overijse (BE-VBR, type='Municipality')","Pajottegem (BE-VBR, type='Municipality')","Zemst (BE-VBR, type='Municipality')","Meise (BE-VBR, type='Municipality')","Londerzeel (BE-VBR, type='Municipality')","Sint-Genesius-Rode (Rhode-Saint-Gen\u00e8se) (BE-VBR, type='Municipality')","Merchtem (BE-VBR, type='Municipality')","Wemmel (BE-VBR, type='Municipality')","Machelen (BE-VBR, type='Municipality')","Ternat (BE-VBR, type='Municipality')","Opwijk (BE-VBR, type='Municipality')","Wezembeek-Oppem (BE-VBR, type='Municipality')","Liedekerke (BE-VBR, type='Municipality')","Kraainem (BE-VBR, type='Municipality')","Affligem (BE-VBR, type='Municipality')","Steenokkerzeel (BE-VBR, type='Municipality')","Kampenhout (BE-VBR, type='Municipality')","Roosdaal (BE-VBR, type='Municipality')","Hoeilaart (BE-VBR, type='Municipality')","Kapelle-op-den-Bos (BE-VBR, type='Municipality')","Lennik (BE-VBR, type='Municipality')","Drogenbos (BE-VBR, type='Municipality')","Linkebeek (BE-VBR, type='Municipality')","Pepingen (BE-VBR, type='Municipality')","Bever (Bi\u00e9v\u00e8ne) (BE-VBR, type='Municipality')","Tienen (Tirlemont) (BE-VBR, type='Municipality')","Aarschot (BE-VBR, type='Municipality')","Diest (BE-VBR, type='Municipality')","Scherpenheuvel-Zichem (Montaigu-Zichem) (BE-VBR, type='Municipality')","Tervuren (BE-VBR, type='Municipality')","Herent (BE-VBR, type='Municipality')","Kortenberg (BE-VBR, type='Municipality')","Rotselaar (BE-VBR, type='Municipality')","Landen (BE-VBR, type='Municipality')","Haacht (BE-VBR, type='Municipality')","Tremelo (BE-VBR, type='Municipality')","Lubbeek (BE-VBR, type='Municipality')","Boortmeerbeek (BE-VBR, type='Municipality')","Keerbergen (BE-VBR, type='Municipality')","Tielt-Winge (BE-VBR, type='Municipality')","Oud-Heverlee (BE-VBR, type='Municipality')","Bierbeek (BE-VBR, type='Municipality')","Begijnendijk (BE-VBR, type='Municipality')","Bertem (BE-VBR, type='Municipality')","Holsbeek (BE-VBR, type='Municipality')","Huldenberg (BE-VBR, type='Municipality')","Zoutleeuw (L\u00e9au) (BE-VBR, type='Municipality')","Boutersem (BE-VBR, type='Municipality')","Kortenaken (BE-VBR, type='Municipality')","Linter (BE-VBR, type='Municipality')","Hoegaarden (BE-VBR, type='Municipality')","Bekkevoort (BE-VBR, type='Municipality')","Geetbets (BE-VBR, type='Municipality')","Glabbeek (BE-VBR, type='Municipality')","Braine-l'Alleud (Eigenbrakel) (BE-WBR, type='Municipality')","Wavre (Waver) (BE-WBR, type='Municipality')","Ottignies-Louvain-la-Neuve (BE-WBR, type='Municipality')","Waterloo (BE-WBR, type='Municipality')","Tubize (Tubeke) (BE-WBR, type='Municipality')","Rixensart (BE-WBR, type='Municipality')","Genappe (Genepien) (BE-WBR, type='Municipality')","Jodoigne (Geldenaken) (BE-WBR, type='Municipality')","Lasne (BE-WBR, type='Municipality')","Grez-Doiceau (Graven) (BE-WBR, type='Municipality')","Chaumont-Gistoux (BE-WBR, type='Municipality')","Rebecq (BE-WBR, type='Municipality')","Villers-la-Ville (BE-WBR, type='Municipality')","Court-Saint-\u00c9tienne (BE-WBR, type='Municipality')","Braine-le-Ch\u00e2teau (Kasteelbrakel) (BE-WBR, type='Municipality')","Perwez (Perwijs) (BE-WBR, type='Municipality')","Orp-Jauche (BE-WBR, type='Municipality')","Mont-Saint-Guibert (BE-WBR, type='Municipality')","Chastre (BE-WBR, type='Municipality')","Walhain (BE-WBR, type='Municipality')","La Hulpe (Terhulpen) (BE-WBR, type='Municipality')","Beauvechain (Bevekom) (BE-WBR, type='Municipality')","Ittre (Itter) (BE-WBR, type='Municipality')","Ramillies (BE-WBR, type='Municipality')","Incourt (BE-WBR, type='Municipality')","H\u00e9l\u00e9cine (BE-WBR, type='Municipality')"],"source":"Overture Maps division_area (CC-BY 4.0)"},"geometry":{"type":"Polygon","coordinates":[[[4.3387943,50.8401335],[4.3096335,50.8130092],[4.2942334,50.8081935],[4.2437658,50.8195819],[4.2563639,50.8349343],[4.2829404,50.8378502],[4.2904469,50.8490625],[4.3307309,50.8439734],[4.3466503,50.8590294],[4.3405232,50.8713633],[4.3327706,50.857113],[4.3070423,50.8642396],[4.314013,50.8674615],[4.2915308,50.8752766],[4.2988999,50.8799278],[4.2937616,50.8890454],[4.3407441,50.9023204],[4.3774577,50.897],[4.3877622,50.9099444],[4.4034684,50.9139045],[4.4328648,50.894694],[4.4272125,50.8898556],[4.4370662,50.8787817],[4.4273484,50.8774674],[4.4220018,50.8570183],[4.4117824,50.8520416],[4.3883873,50.8810629],[4.3637347,50.8712579],[4.3552484,50.8562056],[4.369566,50.84712],[4.3854097,50.8516136],[4.4075628,50.8388739],[4.4121918,50.8304644],[4.3895599,50.8224708],[4.375975,50.8398028],[4.3553981,50.8356569],[4.4009077,50.7963454],[4.3753778,50.7997349],[4.367222,50.8229941],[4.3387943,50.8401335]]]}}]}