{"type": "FeatureCollection", "features": [{"type": "Feature", "properties": {"slug": "buenaventura", "members": 1, "country": "Colombia", "input_hash": "1e980f73a92c9a3c"}, "geometry": {"type": "MultiPolygon", "coordinates": [[[[-76.78845813200002, 3.218196757894066], [-76.809391521, 3.207540155894433], [-76.86387473100001, 3.212639417894246], [-76.90804959899998, 3.201370375894637], [-76.91548259400003, 3.14946404489634], [-76.92601513699998, 3.142607342896575], [-76.92624936800001, 3.127658761897064], [-76.938485969, 3.1139620388975], [-76.971881795, 3.118785590897349], [-76.99675426300001, 3.154809285896152], [-77.063904536, 3.169211414895702], [-77.098391113, 3.185972449895154], [-77.129645202, 3.161248338895946], [-77.138679406, 3.171626359895615], [-77.159298965, 3.174311546895525], [-77.158834065, 3.165123462895814], [-77.172673342, 3.165339403895825], [-77.19261222, 3.140314917896644], [-77.199914368, 3.144142465896515], [-77.20263272099999, 3.134074694896826], [-77.21709901999998, 3.135999675896761], [-77.216246001, 3.120399146897295], [-77.22768801500001, 3.11153845789757], [-77.234734253, 3.115760605897428], [-77.234102344, 3.108080017897706], [-77.24408862500002, 3.114867870897475], [-77.24470335500001, 3.12631102189708], [-77.25232444099998, 3.115159639897464], [-77.26158721000002, 3.135143345896816], [-77.27187722999997, 3.140955812896621], [-77.27715371099998, 3.130869457896955], [-77.27877993200002, 3.139542789896671], [-77.28831858400002, 3.138622511896682], [-77.288496269, 3.147099120896415], [-77.27807089200002, 3.14915890289635], [-77.279865514, 3.159373828896014], [-77.29091870000002, 3.157087669896103], [-77.31717676099998, 3.174220741895522], [-77.34620389999998, 3.140151946896632], [-77.36583777800001, 3.146511867896443], [-77.36541414499999, 3.165954638895806], [-77.383881063, 3.177427404895429], [-77.382079535, 3.203387495894577], [-77.39242422, 3.213805278894218], [-77.40348517799998, 3.213232262894263], [-77.41606295600002, 3.242993919893276], [-77.429070367, 3.253708731892935], [-77.45172943900002, 3.243190663893265], [-77.455248536, 3.233451709893585], [-77.47071315699998, 3.236963294893485], [-77.462064672, 3.226700084893808], [-77.47638008500002, 3.209756281894363], [-77.50406668900001, 3.222277583893935], [-77.49872201, 3.234021126893571], [-77.54832375199999, 3.225895401893829], [-77.54832375199999, 3.234676008893543], [-77.495490201, 3.304931973891244], [-77.48406521800001, 3.30856508989113], [-77.47989997299999, 3.323103918890652], [-77.427388442, 3.368004477889172], [-77.41975989000002, 3.368407003889172], [-77.413213993, 3.355615020889593], [-77.406434908, 3.383897293888661], [-77.36459261599998, 3.447973799886562], [-77.36596259100003, 3.424994453887312], [-77.35566904299998, 3.410341135887791], [-77.33245859099998, 3.426580956887258], [-77.33704941399998, 3.448745114886544], [-77.37074723299997, 3.475059761885678], [-77.300393933, 3.569990211882561], [-77.23667952199997, 3.585434728882047], [-77.23594759399998, 3.577383559882314], [-77.195711604, 3.610706874881241], [-77.18916570699997, 3.653163596879842], [-77.165630459, 3.644685574880107], [-77.16541392800002, 3.684760456878797], [-77.17736848099997, 3.692834520878559], [-77.189115738, 3.681389652878915], [-77.19696498500002, 3.720842010877635], [-77.19696498500002, 3.750506749876665], [-77.178369482, 3.748491386876729], [-77.165997786, 3.757543654876441], [-77.18179564500002, 3.809402271874739], [-77.13486060600002, 3.804849621874896], [-77.127963578, 3.817310543874489], [-77.11534259500002, 3.821358598874351], [-77.10634704799998, 3.848804132873434], [-77.05402353800002, 3.86771385787283], [-77.05287072300001, 3.874846508872609], [-77.07346592300001, 3.879513573872431], [-77.08674104800002, 3.905189838871607], [-77.09574687999998, 3.899717607871791], [-77.097486592, 3.875339928872591], [-77.132744001, 3.872541742872674], [-77.166802185, 3.845626292873559], [-77.17710706399998, 3.845737896873545], [-77.18047382100002, 3.831657042874015], [-77.201159189, 3.839929750873739], [-77.20506537, 3.833624056873953], [-77.223159362, 3.835688751873883], [-77.22589368899997, 3.830066638874059], [-77.23543593300002, 3.835870108873857], [-77.24961019699998, 3.828027249874123], [-77.281592601, 3.839440356873757], [-77.28576987399998, 3.851262905873358], [-77.302715434, 3.861533151873029], [-77.30512725699998, 3.873671413872635], [-77.292005814, 3.877214406872516], [-77.28628828400002, 3.895259410871915], [-77.30911825200002, 3.909540159871467], [-77.32076095399998, 3.902544545871694], [-77.320835907, 3.925167863870957], [-77.31101706200002, 3.932788086870714], [-77.317525482, 3.950327093870123], [-77.29830003199999, 3.958347069869876], [-77.290017724, 3.979121544869187], [-77.28262058799999, 3.973271625869365], [-77.271173529, 3.98710647586894], [-77.24865173500001, 3.980646529869143], [-77.24958855, 3.988274664868897], [-77.22360795999998, 3.996051038868644], [-77.19848974799999, 4.030602906867514], [-77.194599929, 4.052762862866783], [-77.21307817299999, 4.061689671866492], [-77.22870726600001, 4.059066313866587], [-77.23233163200001, 4.081427527865862], [-77.242584867, 4.083075199865793], [-77.261581825, 4.060422178866534], [-77.26859614400001, 4.077049024866004], [-77.28586660399998, 4.050195254866883], [-77.30721077800001, 4.042318809867109], [-77.32461502199999, 3.996374821868634], [-77.319559384, 3.995575814868652], [-77.324383264, 3.972686956869413], [-77.33336148400002, 3.975880613869303], [-77.34762747899998, 3.931835152870742], [-77.35933275899998, 3.926698243870925], [-77.38766592600001, 3.973362220869381], [-77.43246964100001, 4.00848394686824], [-77.449621594, 4.038513452867258], [-77.42890547399998, 4.093080150865451], [-77.442141226, 4.136683773864053], [-77.43580591099999, 4.145785213863753], [-77.390328463, 4.148491848863642], [-77.38925175700001, 4.162066674863222], [-77.36312527500002, 4.192262033862241], [-77.342286655, 4.195999340862114], [-77.30545259799999, 4.166482125863083], [-77.286928494, 4.183364400862527], [-77.27911196500003, 4.222661199861249], [-77.25348516999998, 4.234153998860866], [-77.249880286, 4.187718814862361], [-77.22182644100002, 4.156345621863409], [-77.210906938, 4.159307323863307], [-77.204954945, 4.172733385862873], [-77.159565316, 4.183728669862507], [-77.11632581499998, 4.133346161864164], [-77.119883109, 4.116440091864716], [-77.10447609900001, 4.107624185865004], [-77.08618869999998, 4.122609050864492], [-77.06798114700001, 4.096010138865357], [-77.05758766100001, 4.102477513865154], [-77.035944084, 4.091284529865523], [-77.01986844499999, 4.101192604865203], [-77.00475410899998, 4.098855974865276], [-76.994998319, 4.120390096864562], [-76.98593257200002, 4.114298678864782], [-76.97608755300001, 4.122228230864531], [-76.954434457, 4.12065183886457], [-76.914745256, 4.097745227865328], [-76.91333963800002, 4.081836840865824], [-76.90648324199998, 4.084813419865728], [-76.901186984, 4.073030274866134], [-76.89098450300003, 4.073358723866112], [-76.87261809799998, 4.038437675867258], [-76.860315776, 4.031196712867477], [-76.860313927, 4.014694319868017], [-76.88840499100002, 3.992865936868717], [-76.78091688299997, 3.821592393874329], [-76.76747569399998, 3.778853610875726], [-76.79371638999999, 3.75069982787665], [-76.816319684, 3.746969185876775], [-76.81301948599997, 3.734959800877171], [-76.822407774, 3.723522290877542], [-76.82165718800002, 3.705627354878124], [-76.802445047, 3.697070595878416], [-76.793638826, 3.682864767878873], [-76.79900359599998, 3.650331924879926], [-76.82401250499998, 3.625441415880753], [-76.866849941, 3.631537593880563], [-76.89046021000001, 3.606292052881382], [-76.88468674400002, 3.597314470881679], [-76.870840982, 3.602583357881501], [-76.85177066, 3.590104122881913], [-76.846716685, 3.578378137882301], [-76.854968655, 3.549263052883251], [-76.81319483800002, 3.539421601883568], [-76.80751255000001, 3.521651624884149], [-76.786326799, 3.499166850884869], [-76.77798916699999, 3.467462913885929], [-76.75988622800003, 3.465368989885991], [-76.748702761, 3.434483584887008], [-76.715314164, 3.423776008887348], [-76.70586695499998, 3.42779780688721], [-76.69586618699998, 3.400365981888097], [-76.68768378599998, 3.396270254888246], [-76.694240343, 3.367966597889189], [-76.73476530300002, 3.329987474890418], [-76.75126445400002, 3.27343045289228], [-76.76297140100002, 3.256888440892818], [-76.782064198, 3.250197394893028], [-76.78845813200002, 3.218196757894066]]], [[[-77.23958691899998, 4.036381460867338], [-77.226428499, 4.039938755867231], [-77.23256750899998, 4.03144407986751], [-77.23203213, 4.037273758867303], [-77.23958691899998, 4.036381460867338]]]]}}]}