{"type": "FeatureCollection", "features": [{"type": "Feature", "properties": {"slug": "buffalo", "members": 3, "country": "United States", "input_hash": "e9b292b4a976b163"}, "geometry": {"type": "Polygon", "coordinates": [[[-78.46388, 42.536365], [-78.464557, 42.519164], [-78.308841, 42.521215], [-78.3081348, 41.9992397], [-79.0612743, 41.9994966], [-79.060725, 42.53784], [-79.053366, 42.536143], [-79.086069, 42.548188], [-79.081928, 42.556168], [-79.107429, 42.569944], [-79.134967, 42.56853], [-79.2979689, 42.6924604], [-78.9353817, 42.8282908], [-78.9059228, 42.900285], [-78.9060611, 42.9237539], [-78.9327428, 42.9560158], [-78.9617555, 42.9578503], [-79.0201819, 42.9948219], [-79.0234241, 43.0162881], [-78.9996403, 43.0559897], [-79.0073964, 43.0659167], [-79.0740736, 43.0778478], [-79.0578728, 43.1070959], [-79.0696492, 43.1203219], [-79.0422989, 43.1436633], [-79.0533047, 43.1739052], [-79.0486941, 43.200158], [-79.0565586, 43.2103169], [-79.0559323, 43.2546736], [-79.0703912, 43.2623992], [-79.2006667, 43.4504722], [-78.6903889, 43.6311389], [-78.4628701, 43.6327877], [-78.464383, 42.867318], [-78.486255, 42.867507], [-78.487958, 42.780469], [-78.463322, 42.780465], [-78.461739, 42.606567], [-78.469002, 42.533283], [-78.46388, 42.536365]], [[-78.563665, 42.508782], [-78.560252, 42.513234], [-78.56386899342814, 42.50883796183349], [-78.563665, 42.508782]], [[-78.56879903361855, 42.51270189449591], [-78.568854, 42.512816], [-78.573351, 42.510579], [-78.56879903361855, 42.51270189449591]], [[-78.5828837095509, 42.513860978341235], [-78.583729, 42.514152], [-78.584414450861, 42.513560548712896], [-78.5828837095509, 42.513860978341235]], [[-78.585758, 42.509847], [-78.58519985859081, 42.51288284818155], [-78.586026, 42.51217], [-78.585758, 42.509847]], [[-78.587348, 42.508992], [-78.5864352245045, 42.50948283210607], [-78.5875714719603, 42.50906720172996], [-78.587348, 42.508992]], [[-78.59141782233853, 42.51036155741601], [-78.597242, 42.512615], [-78.59764670794192, 42.512457672617614], [-78.59141782233853, 42.51036155741601]], [[-78.693286, 42.471828], [-78.69324389692812, 42.471961716779724], [-78.69341273250231, 42.47187962971942], [-78.693286, 42.471828]], [[-78.71409089162593, 42.48564422959242], [-78.714058, 42.486724], [-78.71500789477841, 42.48674940488318], [-78.71409089162593, 42.48564422959242]], [[-78.7153440916186, 42.48675839644903], [-78.715591, 42.486765], [-78.71572038995012, 42.48660609280596], [-78.7153440916186, 42.48675839644903]], [[-78.915672, 42.443658], [-78.91544904942555, 42.44394976415085], [-78.91811284205512, 42.44309406016196], [-78.915672, 42.443658]], [[-78.920446, 42.442555], [-78.92021040912365, 42.442609431658276], [-78.922106, 42.445135], [-78.920446, 42.442555]], [[-78.9612880057739, 42.494027444677535], [-78.961247, 42.494178], [-78.966338, 42.493426], [-78.9612880057739, 42.494027444677535]], [[-78.99097, 42.525198], [-78.986404, 42.519114], [-78.99145723986813, 42.527893794352295], [-78.99097, 42.525198]], [[-78.99259984040292, 42.52987901531628], [-78.992723, 42.530093], [-78.99430865040804, 42.53107999188446], [-78.99259984040292, 42.52987901531628]], [[-79.003153, 42.532557], [-78.99548169774567, 42.531810158002074], [-79.00351028143913, 42.532892080154106], [-79.003153, 42.532557]], [[-78.46795, 43.087696], [-78.465311, 43.085857], [-78.46768993285481, 43.08775939136664], [-78.46795, 43.087696]], [[-78.8348863908985, 43.0233475724123], [-78.83724582132882, 43.021537024020695], [-78.835857, 43.022239], [-78.8348863908985, 43.0233475724123]], [[-78.84147797761747, 43.01939789208656], [-78.84978718527897, 43.01920755360707], [-78.842374, 43.018945], [-78.84147797761747, 43.01939789208656]], [[-78.85129145252812, 43.01926083040744], [-78.85382325035032, 43.020505996116356], [-78.851748, 43.019277], [-78.85129145252812, 43.01926083040744]], [[-78.857593, 43.02236], [-78.85985229499866, 43.022572128376574], [-78.85703881296108, 43.02208744478602], [-78.857593, 43.02236]], [[-78.868201, 43.023356], [-78.878924, 43.021682], [-78.86313471318265, 43.022880319224164], [-78.868201, 43.023356]], [[-78.944282, 43.066634], [-78.94446500520476, 43.0666432104296], [-78.911704, 43.054562], [-78.944282, 43.066634]]]}}]}