{"type":"FeatureCollection","features":[{"type":"Feature","properties":{"slug":"bugulma","member_count":1,"matched_count":1,"unmatched":["[recovered via metro-name fallback: Bugulma]"],"source":"Overture Maps division_area (CC-BY 4.0)"},"geometry":{"type":"Polygon","coordinates":[[[52.7872466,54.5593724],[52.7297401,54.5397584],[52.7438163,54.5215174],[52.7796105,54.518684],[52.7748428,54.5155998],[52.7951324,54.5126788],[52.7901649,54.5070433],[52.7981257,54.5048007],[52.8333807,54.5151778],[52.8691882,54.5080369],[52.8591031,54.5137563],[52.8691399,54.5156605],[52.8477788,54.5200353],[52.8571986,54.5387128],[52.8079319,54.5482349],[52.8266429,54.5627068],[52.8213214,54.5725592],[52.7920531,54.5739896],[52.7872466,54.5593724]]]}}]}