{"type":"FeatureCollection","features":[{"type":"Feature","properties":{"slug":"bulle","member_count":26,"matched_count":24,"unmatched":["District de la Gruy\u00e8re (CH-FR, type='District')","Le P\u00e2quier (FR) (CH-FR, type='Commune')"],"source":"Overture Maps division_area (CC-BY 4.0)"},"geometry":{"type":"Polygon","coordinates":[[[7.1084798,46.4928531],[7.0610898,46.4872734],[7.0219808,46.4611151],[7.0178593,46.4470664],[6.9839428,46.4379936],[6.9921152,46.4489109],[6.9799641,46.4591176],[6.9778291,46.4728904],[6.9913314,46.5015934],[7.0029892,46.5076728],[7.0009791,46.5340755],[7.0107741,46.545762],[6.9826061,46.5536909],[6.9999832,46.5735706],[6.9806003,46.5822965],[6.9627788,46.6050615],[6.9521922,46.6012929],[6.9418567,46.6170901],[6.951666,46.6196188],[6.9434852,46.6410986],[6.949022,46.6557003],[6.9757314,46.6620069],[6.9824406,46.6557929],[7.003912,46.6582626],[7.0478987,46.6928784],[7.0607112,46.6913037],[7.0809901,46.7088188],[7.1050153,46.7102626],[7.1139651,46.7205142],[7.2167119,46.6956306],[7.237688,46.7100268],[7.2515898,46.6895951],[7.2471564,46.6750286],[7.2597061,46.6655952],[7.2761881,46.6596571],[7.2925682,46.6700381],[7.3182981,46.6521026],[7.3031079,46.640778],[7.3132658,46.6366248],[7.3207037,46.5918347],[7.3080479,46.5813188],[7.2813586,46.5841108],[7.2076536,46.5329056],[7.1921777,46.5465571],[7.1634618,46.5285459],[7.1483542,46.528463],[7.1362354,46.5086078],[7.1084798,46.4928531]],[[7.0350738,46.5775854],[7.0558909,46.579794],[7.0690295,46.5933391],[7.0546976,46.6037656],[7.0436854,46.5982609],[7.0431921,46.6113378],[7.0330004,46.6053396],[7.0473671,46.5892191],[7.0350738,46.5775854]]]}}]}