{"type": "FeatureCollection", "features": [{"type": "Feature", "properties": {"slug": "buon-ma-thut", "members": 1, "country": "Vietnam", "input_hash": "b6348c4374371532"}, "geometry": {"type": "Polygon", "coordinates": [[[108.0569489, 12.6868025], [108.0785796, 12.7222448], [108.0792702, 12.7419283], [108.0310066, 12.7442108], [108.0139317, 12.7349613], [107.9937386, 12.7416248], [107.9781765, 12.7359005], [107.9713154, 12.744152], [107.9650632, 12.7390766], [107.9838896, 12.6995561], [108.0313499, 12.685307], [108.024714, 12.6725844], [108.0064014, 12.6766634], [108.0034134, 12.6607988], [108.0289148, 12.658557], [108.0393241, 12.6669957], [108.0706778, 12.6550544], [108.0609816, 12.6628295], [108.0569489, 12.6868025]]]}}]}