{"type": "FeatureCollection", "features": [{"type": "Feature", "properties": {"slug": "buraidah", "members": 1, "country": "Saudi Arabia", "input_hash": "4814e6d988641151"}, "geometry": {"type": "MultiPolygon", "coordinates": [[[[44.18778, 25.5653899], [44.18697, 25.6113599], [44.170384, 25.6096687], [44.1858801, 25.6583706], [44.21926, 25.6786399], [44.25874, 25.6743099], [44.2734, 25.6824799], [44.30769, 25.6739199], [44.33186, 25.6891499], [44.35002, 25.6728199], [44.36817, 25.6734799], [44.3943, 25.6396899], [44.4123099, 25.64024], [44.43445, 25.6153699], [44.42647, 25.6008099], [44.4288418, 25.5736639], [44.3836833, 25.5174667], [44.2336333, 25.4674833], [44.2268531, 25.4696519], [44.23909, 25.4979099], [44.20662, 25.5308999], [44.18778, 25.5653899]]], [[[43.0361498, 25.2213601], [43.0663003, 25.2335196], [43.0671303, 25.2540401], [43.0837903, 25.2876501], [43.1069403, 25.3069701], [43.1062703, 25.3254601], [43.1365898, 25.3632801], [43.1650698, 25.4637101], [43.1742298, 25.4693701], [43.1887203, 25.5063501], [43.2050665, 25.5886102], [43.2444606, 25.676322], [43.2499802, 25.6987769], [43.2250698, 25.6901701], [43.2224303, 25.7037601], [43.2065698, 25.7109301], [43.2153698, 25.7545301], [43.1863898, 25.7808401], [43.2328598, 25.8278101], [43.1809698, 25.8630196], [43.1476603, 25.9269401], [43.23102, 25.9690999], [43.247, 25.9934799], [43.20983, 26.0038699], [43.15907, 26.0002699], [43.12456, 26.0233799], [43.07552, 26.0348699], [43.06369, 26.0754599], [43.04715, 26.0943999], [43.06812, 26.1160999], [43.0389, 26.1610799], [42.97968, 26.2034999], [42.95469, 26.1369099], [42.9642, 26.0972299], [42.9607, 26.0690799], [42.97167, 26.0519399], [42.95771, 26.0356999], [42.94421, 25.9857999], [42.94713, 25.9726499], [42.8818003, 25.9662196], [42.8304303, 25.9887101], [42.7854698, 25.9642301], [42.7590998, 25.9709301], [42.7243703, 25.9598601], [42.7105198, 25.9482401], [42.6985303, 25.9184201], [42.7161803, 25.8882801], [42.7180435, 25.8691897], [42.6557023, 25.9052313], [42.6034682, 25.953707], [42.5309344, 25.9857132], [42.5144994, 25.9852725], [42.5000489, 26.004932], [42.4674098, 26.0254896], [42.4778598, 26.0878301], [42.4413003, 26.0993301], [42.4154703, 26.1182201], [42.3798303, 26.1631901], [42.3790198, 26.1797501], [42.3978098, 26.1964996], [42.4054803, 26.2173201], [42.3993098, 26.2256496], [42.3576903, 26.2380401], [42.3562098, 26.2709501], [42.3716598, 26.2892801], [42.4141503, 26.3030201], [42.4628898, 26.3413301], [42.5208498, 26.3573896], [42.5528898, 26.4115601], [42.5911698, 26.4000101], [42.6084503, 26.4067701], [42.6165998, 26.4424896], [42.6322098, 26.4544901], [42.6639803, 26.4321901], [42.7124398, 26.4252701], [42.7144903, 26.4042501], [42.6996198, 26.3850201], [42.7775498, 26.3086201], [42.8054698, 26.2997701], [42.8182898, 26.3087701], [42.8439503, 26.2991401], [42.8840803, 26.3069301], [42.9067603, 26.2963201], [42.9468803, 26.3011101], [42.9741903, 26.2712901], [42.9890203, 26.2737901], [43.0111698, 26.2944301], [43.1456898, 26.3424601], [43.2580998, 26.3022601], [43.2818303, 26.3178496], [43.2966903, 26.3611801], [43.3402703, 26.3524601], [43.4258998, 26.3686101], [43.4633303, 26.3670701], [43.4811903, 26.3451901], [43.4149498, 26.3033447], [43.4067406, 26.240527], [43.3863962, 26.2465946], [43.378544, 26.2341024], [43.3803286, 26.2223241], [43.4042422, 26.2041212], [43.4452879, 26.143445], [43.4662453, 26.1415682], [43.47845, 26.0655899], [43.48922, 26.0530299], [43.48413, 26.0005799], [43.47583, 25.9896299], [43.4886698, 25.9613101], [43.4456103, 25.9786801], [43.3859403, 25.9749801], [43.3967603, 25.9483201], [43.3746203, 25.9450696], [43.4052703, 25.9180101], [43.3968998, 25.9063701], [43.4290798, 25.8575501], [43.3979403, 25.8468901], [43.3436298, 25.7734401], [43.3414698, 25.7646201], [43.3629503, 25.7288001], [43.3396198, 25.6939901], [43.3372298, 25.6490001], [43.3396398, 25.6365601], [43.3783903, 25.6223901], [43.4120098, 25.5978401], [43.4770498, 25.5014401], [43.4863794, 25.3958539], [43.470829, 25.4290562], [43.4012503, 25.4661101], [43.3864098, 25.4582201], [43.3731645, 25.4616756], [43.3499173, 25.4470523], [43.3455098, 25.4066001], [43.3638303, 25.3692696], [43.3552903, 25.3560001], [43.3808482, 25.3463864], [43.4112167, 25.3514478], [43.438211, 25.3435745], [43.4567695, 25.3671944], [43.4690298, 25.3533102], [43.4708603, 25.3300601], [43.4857103, 25.3257501], [43.4841179, 25.2089898], [43.4517273, 25.1812361], [43.4243103, 25.1862501], [43.4076003, 25.1657701], [43.3984403, 25.1749301], [43.3784898, 25.1711601], [43.3800998, 25.1393501], [43.3687898, 25.1334201], [43.3466898, 25.1420501], [43.2491098, 25.0741301], [43.2000503, 25.0940696], [43.1790303, 25.1107801], [43.1531599, 25.0859901], [43.1450698, 25.0989201], [43.1014003, 25.1237201], [43.0814603, 25.1285701], [43.0561198, 25.1094701], [43.0441498, 25.1210101], [43.0094403, 25.1323901], [43.0044998, 25.1435801], [43.0238203, 25.1627301], [43.0361498, 25.2213601]]], [[[44.38343, 26.0418599], [44.41319, 26.0403399], [44.4465, 25.9945399], [44.44719, 25.9705299], [44.40615, 25.9585599], [44.38853, 25.9610199], [44.36071, 25.9437599], [44.26511, 25.9519499], [44.2257, 25.9301899], [44.17179, 25.9283899], [44.15013, 25.9173599], [44.1048491, 25.9423383], [44.1137713, 25.963224], [44.16967, 25.9916999], [44.19048, 25.9888999], [44.19248, 26.0061099], [44.21249, 26.0065099], [44.19208, 26.0385299], [44.20689, 26.0401299], [44.25651, 26.0221199], [44.27253, 26.0377099], [44.2676009, 26.0506269], [44.3387174, 26.0471038], [44.35754, 26.0282999], [44.38343, 26.0418599]]], [[[43.68431, 26.0294399], [43.6715, 25.9935499], [43.6574, 25.9832999], [43.62973, 25.9717899], [43.57535, 25.9722699], [43.59023, 26.0371299], [43.5792, 26.0794299], [43.591, 26.1040399], [43.5895376, 26.138304], [43.5997848, 26.1352797], [43.5957032, 26.1179732], [43.6960003, 26.0977001], [43.7233003, 26.0619401], [43.67499, 26.0594999], [43.6715, 26.0419999], [43.68431, 26.0294399]]], [[[43.5430825, 27.5683498], [43.6892953, 27.467744], [43.7606783, 27.439488], [43.8036304, 27.4087755], [43.8212304, 27.3406649], [43.7978504, 27.3193649], [43.7679004, 27.3127049], [43.7666104, 27.3049249], [43.7873504, 27.2734449], [43.8499604, 27.2286349], [43.8525604, 27.2084149], [43.8340704, 27.1751949], [43.8262704, 27.1405249], [43.8480804, 27.0719849], [43.8999404, 26.9958749], [43.9215504, 26.9453149], [43.9240004, 26.9203249], [43.9604804, 26.9369949], [43.9810404, 26.9255149], [43.9738204, 26.9006949], [43.9477604, 26.8626149], [43.9671504, 26.8536649], [43.9857604, 26.8192549], [43.9540004, 26.7857049], [43.9156704, 26.7731149], [43.9253004, 26.7494149], [43.9554804, 26.7138649], [44.0028904, 26.7364549], [44.0269604, 26.7381149], [44.1065804, 26.6014649], [44.1147304, 26.6160849], [44.1575004, 26.6414549], [44.2106504, 26.5807149], [44.2119404, 26.5683149], [44.2311194, 26.5836753], [44.25812, 26.4186499], [44.25553, 26.3842999], [44.24928, 26.3666099], [44.20453, 26.3280999], [44.18235, 26.2897599], [44.1321, 26.2674399], [44.1557, 26.2215099], [44.1575167, 26.1963042], [44.0551868, 26.2182233], [44.0327249, 26.2154771], [44.0143498, 26.1987772], [44.0064565, 26.2040456], [43.86348, 26.1425999], [43.82616, 26.1596899], [43.7696203, 26.1646301], [43.7430498, 26.2243201], [43.7625298, 26.2431401], [43.7507103, 26.2661294], [43.7603698, 26.2927801], [43.7417098, 26.3110995], [43.7473798, 26.3179296], [43.7362198, 26.32942], [43.7370498, 26.3524096], [43.7191003, 26.3639301], [43.7081298, 26.3835801], [43.68875, 26.3904399], [43.68092, 26.4098699], [43.7227, 26.4270699], [43.71273, 26.4686699], [43.73698, 26.4714899], [43.73154, 26.4895099], [43.77219, 26.5116399], [43.77736, 26.5256299], [43.76537, 26.5399599], [43.77135, 26.5611099], [43.7582, 26.5804299], [43.70621, 26.5943599], [43.69175, 26.6112399], [43.7059003, 26.6567201], [43.7030603, 26.6778701], [43.6878003, 26.6989001], [43.6550998, 26.7208401], [43.5926403, 26.7270001], [43.5889903, 26.7363196], [43.5679898, 26.7463301], [43.5614898, 26.7263401], [43.5230198, 26.7331701], [43.4758798, 26.7190101], [43.4658898, 26.7318496], [43.4360698, 26.7433301], [43.3741103, 26.7359996], [43.3153203, 26.6915301], [43.2672503, 26.7420601], [43.3123598, 26.8027701], [43.3631998, 26.9052101], [43.3411903, 26.9359501], [43.2979398, 26.9575796], [43.1810703, 26.9387101], [43.1256803, 26.9519796], [43.1304398, 26.9381801], [43.1247298, 26.9296201], [43.0771398, 26.8991601], [43.0461203, 26.8892201], [43.0221698, 26.9086301], [42.9870498, 26.9048701], [42.9760103, 26.9134401], [42.9492693, 26.9132906], [43.0667168, 26.9508836], [43.1001338, 26.9841836], [43.1172668, 27.0167501], [43.1673168, 27.0509331], [43.2342998, 27.1667501], [43.3000333, 27.1340831], [43.3002833, 27.1837336], [43.3169833, 27.2003501], [43.3010192, 27.2167624], [43.3505003, 27.2338001], [43.4340168, 27.3005666], [43.4342168, 27.3168166], [43.4504168, 27.3174166], [43.4341333, 27.3668001], [43.4336833, 27.4004501], [43.4175003, 27.4003501], [43.4172498, 27.4501331], [43.3926004, 27.6202998], [43.5415096, 27.7082749], [43.5734361, 27.6204103], [43.5673659, 27.5989602], [43.5430825, 27.5683498]]]]}}]}