{"type": "FeatureCollection", "features": [{"type": "Feature", "properties": {"slug": "burgas", "members": 13, "country": "Bulgaria", "input_hash": "d338be9bd25bc032"}, "geometry": {"type": "MultiPolygon", "coordinates": [[[[27.828377, 41.997792], [27.8186094, 41.9866092], [27.818849, 41.9756527], [27.8260779, 41.9742506], [27.8201409, 41.96341], [27.8336345, 41.9615757], [27.8364814, 41.9487514], [27.8137058, 41.953999], [27.813732, 41.9426136], [27.8019846, 41.9531378], [27.7930076, 41.9477028], [27.7786986, 41.9535635], [27.7861328, 41.9606353], [27.778816, 41.9659381], [27.7705859, 41.9596915], [27.7664136, 41.9676751], [27.7433351, 41.96783], [27.7485414, 41.9724945], [27.7375304, 41.9798394], [27.7327071, 41.9736548], [27.6964779, 41.9780777], [27.7033614, 41.9700625], [27.6841538, 41.9715765], [27.6721426, 41.9563956], [27.6673292, 41.9621844], [27.6425788, 41.9541336], [27.6220261, 41.9588561], [27.6296323, 41.9498498], [27.6126099, 41.9385165], [27.6041967, 41.9474373], [27.5887617, 41.9313915], [27.5743385, 41.9374709], [27.566526, 41.9238054], [27.5765893, 41.9196741], [27.5612528, 41.9152127], [27.5716432, 41.9126179], [27.5722841, 41.9049128], [27.560005, 41.9051269], [27.5405164, 41.916179], [27.5107947, 41.9581813], [27.4898604, 41.951474], [27.4677216, 41.9584506], [27.4635107, 41.9687886], [27.4475301, 41.9667746], [27.4326681, 41.9913064], [27.420379, 41.9884736], [27.4132037, 41.999822], [27.3936994, 42.0058785], [27.3657044, 42.057045], [27.3360775, 42.0598428], [27.3263303, 42.0800491], [27.2999687, 42.0865527], [27.293666, 42.0971656], [27.2720924, 42.0978394], [27.2706222, 42.1043297], [27.2217625, 42.0984335], [27.2164015, 42.0851323], [27.1983659, 42.0787054], [27.2041637, 42.0597696], [27.1914346, 42.0604216], [27.1836495, 42.0700294], [27.132808, 42.0665466], [27.1087646, 42.0870684], [27.0669436, 42.093398], [27.0596437, 42.088287], [27.046007, 42.100143], [26.984151, 42.100603], [26.976434, 42.125105], [26.969793, 42.126238], [26.973627, 42.134667], [26.943049, 42.144311], [26.934945, 42.168491], [26.940142, 42.188341], [26.971412, 42.198524], [26.975198, 42.2078], [26.989847, 42.207169], [26.958851, 42.214448], [26.935817, 42.240776], [26.968169, 42.283334], [26.926015, 42.288959], [26.909648, 42.307093], [26.920162, 42.319783], [26.911906, 42.336307], [26.917061, 42.341514], [26.879881, 42.367064], [26.861316, 42.367601], [26.868418, 42.394628], [26.904436, 42.406637], [26.95723, 42.410179], [26.970276, 42.419592], [26.969718, 42.433095], [26.94716, 42.437699], [26.947113, 42.453181], [26.896019, 42.450647], [26.897694, 42.444367], [26.880629, 42.451472], [26.884018, 42.477557], [26.869603, 42.479957], [26.881006, 42.495892], [26.866326, 42.492559], [26.838676, 42.507364], [26.843751, 42.522138], [26.806791, 42.545099], [26.811547, 42.568348], [26.785914, 42.582653], [26.79058, 42.587316], [26.781524, 42.601324], [26.790639, 42.605043], [26.782718, 42.624105], [26.776309, 42.622979], [26.772174, 42.636904], [26.757136, 42.637005], [26.756281, 42.648969], [26.740255, 42.65382], [26.744376104234053, 42.663605479294915], [26.71843, 42.674777], [26.720159, 42.682255], [26.706254, 42.694956], [26.706285, 42.705273], [26.714567, 42.704201], [26.710428, 42.723058], [26.698432, 42.718369], [26.686653, 42.725493], [26.686832, 42.743973], [26.66832, 42.744374], [26.666025, 42.759302], [26.653082, 42.756364], [26.631072, 42.77112], [26.598078, 42.779046], [26.609533, 42.779802], [26.611635, 42.789834], [26.594463, 42.800826], [26.600683, 42.807969], [26.578653, 42.81485], [26.603147, 42.828089], [26.591173, 42.834143], [26.599004, 42.839798], [26.5968853, 42.8527524], [26.583903, 42.870317], [26.602578, 42.904496], [26.603238, 42.913133], [26.589986, 42.920118], [26.596133, 42.927039], [26.627561, 42.931636], [26.633704, 42.923549], [26.663043, 42.932009], [26.670249, 42.917506], [26.663692, 42.923366], [26.652429, 42.903701], [26.682513, 42.896747], [26.699986, 42.905675], [26.729948, 42.897975], [26.73486, 42.904345], [26.75883, 42.904831], [26.781059, 42.922343], [26.796106, 42.949503], [26.855667, 42.939436], [26.895809, 42.949289], [26.910388, 42.934881], [26.994199, 42.946023], [27.005518, 42.921929], [27.0678, 42.938304], [27.102976, 42.956661], [27.14491, 42.957728], [27.174726, 42.976924], [27.245215, 42.982977], [27.27062, 42.979616], [27.2874724, 42.9642781], [27.323411, 42.963393], [27.326022, 42.954606], [27.312532, 42.935787], [27.339109, 42.934185], [27.361935, 42.910568], [27.403632, 42.904722], [27.410883, 42.892401], [27.434786, 42.881784], [27.453962, 42.881284], [27.469709, 42.892525], [27.488955, 42.883465], [27.509827, 42.887554], [27.512922770263323, 42.87549291137203], [27.544609, 42.870384], [27.552574, 42.875602], [27.545089, 42.875465], [27.550659, 42.880046], [27.543877, 42.880954], [27.545655, 42.886769], [27.545508, 42.88367], [27.557021, 42.879632], [27.550249, 42.885836], [27.577697, 42.889627], [27.587172, 42.883793], [27.599345, 42.885862], [27.599427, 42.897171], [27.622834, 42.898801], [27.662283, 42.884138], [27.68613, 42.884136], [27.705761, 42.873995], [27.700637, 42.868594], [27.719043, 42.854744], [27.790523, 42.828978], [27.828471, 42.826389], [27.849059, 42.836576], [27.8822987, 42.8386641], [27.9007508, 42.7720447], [27.8890206, 42.7526945], [27.9002897, 42.700843], [27.7313844, 42.7090122], [27.7165034, 42.6952315], [27.7123442, 42.6717354], [27.7260831, 42.6596891], [27.7410065, 42.6593974], [27.718635, 42.65739], [27.7104855, 42.6455316], [27.6917372, 42.6513498], [27.6767397, 42.6356699], [27.6444905, 42.6374156], [27.6361606, 42.6268788], [27.6340634, 42.5763819], [27.6500263, 42.5523867], [27.63899, 42.551014], [27.6374644, 42.5581801], [27.6182984, 42.5650164], [27.5997161, 42.5579106], [27.5874427, 42.5647602], [27.5568351, 42.5506586], [27.5399972, 42.5589201], [27.5188215, 42.5559115], [27.4889063, 42.5242648], [27.4834907, 42.4815168], [27.4796875, 42.4888044], [27.4699427, 42.487628], [27.4794657, 42.4835399], [27.4769873, 42.4729922], [27.4787004, 42.4834289], [27.4695056, 42.4767121], [27.4679743, 42.486699], [27.4597793, 42.4812022], [27.45682, 42.4897992], [27.4465838, 42.4737514], [27.456051, 42.4598412], [27.4426143, 42.4618539], [27.4685664, 42.4432474], [27.4794174, 42.4614223], [27.508909, 42.438168], [27.5101458, 42.4275308], [27.5317905, 42.437005], [27.5366712, 42.4572105], [27.570464976092353, 42.44439273977923], [27.5827368, 42.4483519], [27.5747254, 42.4526018], [27.5852283, 42.4634833], [27.5978013, 42.4499382], [27.6188998, 42.4440186], [27.629365, 42.459643], [27.6363698, 42.4483302], [27.6517773, 42.4506551], [27.6469701, 42.4389118], [27.6560639, 42.4308831], [27.645457, 42.423364], [27.661781, 42.410821], [27.6847319, 42.4132931], [27.6920485, 42.4269758], [27.7014939, 42.4258017], [27.6949252, 42.420437], [27.7030858, 42.4197895], [27.705981, 42.4089634], [27.729548, 42.409826], [27.724829, 42.400408], [27.707525, 42.397587], [27.709616, 42.383328], [27.724108, 42.378698], [27.710764, 42.371374], [27.71303, 42.361177], [27.7391661, 42.3282879], [27.7846251, 42.3359121], [27.7826102, 42.3247607], [27.7715969, 42.3205139], [27.7943236, 42.3067591], [27.7690079, 42.3006569], [27.773101, 42.295008], [27.7548795, 42.2871916], [27.75795, 42.271238], [27.7668825, 42.2658196], [27.7544592, 42.2647585], [27.7529271, 42.2500477], [27.7849382, 42.2375669], [27.77821487791934, 42.22557641896159], [27.7932483, 42.2153741], [27.8056811, 42.2169321], [27.8285301, 42.1934014], [27.8411901, 42.1944069], [27.8363487, 42.1898104], [27.8464419, 42.1863544], [27.8428745, 42.1812803], [27.859266, 42.1736401], [27.8521764, 42.1658826], [27.8743247, 42.1609653], [27.8769359, 42.1478463], [27.8955767, 42.1435435], [27.9123742, 42.1258545], [27.9136322, 42.1110934], [27.928621, 42.1017969], [27.9462515, 42.1043864], [27.9439658, 42.0985064], [27.9646276, 42.0831234], [27.9692702, 42.0697609], [27.9915252, 42.0632094], [27.987104, 42.0540641], [28.015149, 42.0274713], [28.0100188, 42.022872], [28.0350387, 41.9832685], [27.9930408, 41.980487], [27.9760647, 41.9899752], [27.9572162, 41.9762019], [27.9335752, 41.9848802], [27.9257104, 41.9761507], [27.9216534, 41.9827238], [27.9153167, 41.9725156], [27.9008704, 41.9806751], [27.8998969, 41.9918689], [27.8790201, 41.9946146], [27.8635027, 42.0065211], [27.8547256, 41.9907741], [27.8553298, 42.0014554], [27.8452282, 41.9906313], [27.828377, 41.997792]], [[27.507564506182533, 42.17953393471444], [27.50551983032577, 42.18024516932548], [27.505758, 42.180015], [27.507564506182533, 42.17953393471444]], [[27.508995, 42.179153], [27.514524, 42.180413], [27.508887518745574, 42.17918162182308], [27.508995, 42.179153]], [[27.526877966166285, 42.17750665224981], [27.526743, 42.177573], [27.52655983959661, 42.17742814242721], [27.526877966166285, 42.17750665224981]], [[27.529306667802075, 42.17613535148645], [27.52918, 42.176375], [27.527338019500537, 42.17728049554303], [27.529306667802075, 42.17613535148645]], [[27.553185, 42.151635], [27.558259, 42.154925], [27.552861396591148, 42.1516999246335], [27.553185, 42.151635]], [[27.578625, 42.160417], [27.579119887150433, 42.16083599391331], [27.575669, 42.161936], [27.578625, 42.160417]], [[27.579877, 42.161477], [27.580604, 42.165333], [27.579356198201296, 42.16103606556979], [27.579877, 42.161477]], [[27.57889296423219, 42.1703016220675], [27.578849, 42.170165], [27.580604, 42.165333], [27.57889296423219, 42.1703016220675]], [[27.61403588764597, 42.18766997722758], [27.613809, 42.187761], [27.602769, 42.186589], [27.61403588764597, 42.18766997722758]], [[27.619463, 42.178534], [27.624562, 42.175316], [27.619331242903183, 42.17877435179955], [27.619463, 42.178534]], [[27.624199, 42.164449], [27.627653, 42.165628], [27.62415614590699, 42.164639615925445], [27.624199, 42.164449]], [[27.630946, 42.163966], [27.63145499993256, 42.16443659599105], [27.630823474794024, 42.164027839323516], [27.630946, 42.163966]], [[27.635954990280325, 42.16859706298117], [27.635653, 42.16862], [27.635586534419932, 42.1682564070406], [27.635954990280325, 42.16859706298117]], [[27.64111939809919, 42.16820481155101], [27.641203, 42.1681], [27.646594, 42.167789], [27.64111939809919, 42.16820481155101]], [[27.65538438719379, 42.167245945145865], [27.653355, 42.16713], [27.643425, 42.164124], [27.65538438719379, 42.167245945145865]], [[27.662315158939542, 42.16682629229187], [27.662124, 42.167631], [27.65944870593056, 42.16747815220335], [27.662315158939542, 42.16682629229187]], [[27.66342863165273, 42.15976452341197], [27.663703, 42.160984], [27.663007581806667, 42.163911450747996], [27.66342863165273, 42.15976452341197]], [[27.66453583637047, 42.134155129313264], [27.664874, 42.134186], [27.664865381996876, 42.134263041647976], [27.66453583637047, 42.134155129313264]], [[27.649152914979567, 42.129117869434914], [27.652611, 42.129668], [27.655661195575004, 42.131249057646], [27.649152914979567, 42.129117869434914]], [[27.640662, 42.12802], [27.64055608366495, 42.12775023976671], [27.641387299321707, 42.127882473976186], [27.640662, 42.12802]], [[27.686651, 42.056441], [27.68729980406399, 42.05651242797035], [27.68659564185662, 42.05666117596386], [27.686651, 42.056441]], [[27.755779, 41.996698], [27.756100761867838, 41.99657790746643], [27.742723, 42.004444], [27.755779, 41.996698]], [[27.759814, 41.995192], [27.763331, 41.995913], [27.75650723738246, 41.99642619690261], [27.759814, 41.995192]], [[27.796728, 42.007464], [27.783358, 42.010752], [27.78319579562119, 42.01070838533762], [27.796728, 42.007464]], [[27.82491015627156, 41.999045504264465], [27.823028, 42.000473], [27.82117050796094, 42.0003976462911], [27.82491015627156, 41.999045504264465]], [[27.645824, 42.873906], [27.646150575789903, 42.87391679589388], [27.643169, 42.87532], [27.645824, 42.873906]], [[27.655262, 42.874218], [27.659251, 42.876139], [27.654980214932465, 42.87420868479116], [27.655262, 42.874218]], [[27.665581, 42.871622], [27.668604, 42.873899], [27.667931895655222, 42.874059965864674], [27.665581, 42.871622]], [[27.577416, 42.798798], [27.5775107106041, 42.79845816286595], [27.57758576407971, 42.79886702358437], [27.577416, 42.798798]], [[27.629375, 42.683091], [27.632217005222522, 42.68068792764034], [27.623353, 42.692928], [27.629375, 42.683091]], [[27.632716, 42.680266], [27.639496, 42.679923], [27.632592888229794, 42.680370097800306], [27.632716, 42.680266]], [[27.719843, 42.329531], [27.719945930757774, 42.32937927997458], [27.728537, 42.334383], [27.719843, 42.329531]], [[27.700045, 42.31307], [27.721163, 42.317133], [27.721227745713914, 42.31717065533235], [27.700045, 42.31307]], [[27.69573, 42.324693], [27.690996, 42.315531], [27.691130248069406, 42.31549448939123], [27.69573, 42.324693]], [[27.511648305183208, 42.210464535133504], [27.511671, 42.210484], [27.502839, 42.219209], [27.511648305183208, 42.210464535133504]], [[27.502089, 42.198061], [27.502402882042954, 42.197418393629995], [27.50252910090529, 42.19921370668616], [27.502089, 42.198061]], [[27.502443, 42.190595], [27.502429959301015, 42.19045563394728], [27.502471384277808, 42.19062897098119], [27.502443, 42.190595]], [[27.50274767452055, 42.182924205747234], [27.502525, 42.183212], [27.502465982378826, 42.18319643557861], [27.50274767452055, 42.182924205747234]], [[27.022069, 42.458193], [27.010271, 42.457237], [27.028089214248215, 42.458207680561785], [27.022069, 42.458193]], [[27.047494, 42.458255], [27.04059349757178, 42.4582381728161], [27.061959, 42.456696], [27.047494, 42.458255]], [[27.105732, 42.453025], [27.078145, 42.455253], [27.10601758015784, 42.452915112282795], [27.105732, 42.453025]], [[27.152504, 42.437695], [27.131185, 42.443231], [27.11134886082366, 42.45086370133552], [27.125536, 42.444529], [27.152504, 42.437695]], [[27.172894, 42.426167], [27.173502267646445, 42.42601402132762], [27.152504, 42.437695], [27.172894, 42.426167]], [[27.100506, 42.557108], [27.10052980460882, 42.55707416680837], [27.101324, 42.559263], [27.100506, 42.557108]], [[27.159918, 42.610787], [27.161168, 42.611822], [27.156279, 42.610236], [27.159918, 42.610787]], [[27.232405, 42.615842], [27.232303151254015, 42.615735030009716], [27.232434616916112, 42.6157813268874], [27.232405, 42.615842]], [[27.234534548289044, 42.609672161327815], [27.240871, 42.616366], [27.234918961271887, 42.61106507259845], [27.234534548289044, 42.609672161327815]], [[27.263041, 42.592012], [27.234399047404146, 42.60926519383304], [27.234384, 42.60922], [27.263041, 42.592012]], [[27.295674, 42.520499], [27.317155, 42.518863], [27.295660127792516, 42.5205119380521], [27.295674, 42.520499]], [[27.269648, 42.531737], [27.276891, 42.532649], [27.26787742738589, 42.532589497925315], [27.269648, 42.531737]], [[27.266867, 42.533076], [27.26779565798594, 42.53262886837714], [27.266957, 42.537901], [27.266867, 42.533076]], [[27.361132, 42.403159], [27.358880878117304, 42.40749847137604], [27.366183, 42.393116], [27.361132, 42.403159]], [[27.365718199942997, 42.38790408052022], [27.366121, 42.388012], [27.366183, 42.393116], [27.365718199942997, 42.38790408052022]], [[27.388905, 42.396124], [27.387656812548546, 42.40091618302346], [27.387621, 42.400851], [27.388905, 42.396124]], [[27.43192, 42.382238], [27.431504876800307, 42.38231238321446], [27.434488, 42.372457], [27.43192, 42.382238]], [[27.547792936037023, 42.41572296542654], [27.538, 42.415254], [27.546777, 42.414896], [27.547792936037023, 42.41572296542654]], [[27.551134, 42.420469], [27.548970956376404, 42.41668186643697], [27.550836, 42.4182], [27.551134, 42.420469]], [[27.566873, 42.443411], [27.566665119997893, 42.443166822653374], [27.568737898534597, 42.44383554658478], [27.566873, 42.443411]], [[27.293817, 42.199819], [27.291194, 42.199577], [27.299696952562, 42.1985296411451], [27.293817, 42.199819]], [[27.313246, 42.204893], [27.300835606745316, 42.19902954515148], [27.314019494265697, 42.20481767493456], [27.313246, 42.204893]], [[27.316932764829122, 42.20453397238426], [27.332181, 42.199483], [27.319818, 42.204253], [27.316932764829122, 42.20453397238426]], [[27.362295, 42.200963], [27.363552096333958, 42.203379506218106], [27.363519, 42.203374], [27.362295, 42.200963]], [[27.367444, 42.204027], [27.368749812765117, 42.20570216292363], [27.368143, 42.205824], [27.367444, 42.204027]], [[27.374086276604785, 42.20463069707819], [27.377651766039612, 42.20387366576737], [27.377606, 42.203924], [27.374086276604785, 42.20463069707819]], [[27.446273281599158, 42.17792805619472], [27.446359, 42.17774], [27.45242, 42.184889], [27.446273281599158, 42.17792805619472]], [[27.496202, 42.180421], [27.4971925426202, 42.18271047092315], [27.497049, 42.182711], [27.496202, 42.180421]], [[27.341581941683955, 42.354839865148044], [27.333797, 42.358763], [27.341010611667887, 42.35441612640037], [27.341581941683955, 42.354839865148044]], [[27.326655, 42.341684], [27.330114805294226, 42.34873713652177], [27.32457111476482, 42.34026524158377], [27.326655, 42.341684]], [[27.322021017879916, 42.33852907523613], [27.321988220757923, 42.33852001543709], [27.321993, 42.33851], [27.322021017879916, 42.33852907523613]], [[27.282649287246574, 42.31940862240237], [27.281892, 42.318316], [27.282174, 42.311823], [27.282649287246574, 42.31940862240237]], [[27.29095, 42.201744], [27.28597, 42.203636], [27.28585629622306, 42.20363092094381], [27.29095, 42.201744]], [[27.285582626576648, 42.203618696340975], [27.281224, 42.203424], [27.278836675728055, 42.201961102466996], [27.285582626576648, 42.203618696340975]], [[27.273368, 42.175533], [27.26337, 42.178075], [27.27327716179681, 42.17543401199834], [27.273368, 42.175533]], [[27.28448, 42.107932], [27.287088, 42.120075], [27.284257211458208, 42.1077752897058], [27.28448, 42.107932]], [[27.34982, 42.382097], [27.354767, 42.38497], [27.34952418143204, 42.38209292536408], [27.34982, 42.382097]], [[26.926569, 42.761219], [26.93143628658496, 42.76537329541343], [26.931427, 42.765376], [26.926569, 42.761219]], [[26.968618, 42.748495], [26.972327, 42.748875], [26.97239630395525, 42.74911829163887], [26.968618, 42.748495]], [[26.97266434451586, 42.75005924842902], [26.97466, 42.757065], [26.972466, 42.75258], [26.97266434451586, 42.75005924842902]], [[26.976577, 42.795867], [26.977439745759696, 42.788947936809706], [26.976610526558687, 42.79595099015595], [26.976577, 42.795867]], [[26.99028316723552, 42.804875898467714], [26.996201, 42.802324], [26.990599, 42.804982], [26.99028316723552, 42.804875898467714]], [[27.014445, 42.801253], [27.027315301077152, 42.804508770377666], [27.027019, 42.804668], [27.014445, 42.801253]], [[27.034039783414784, 42.800895092043184], [27.036014, 42.799725], [27.036150848539542, 42.799760624002225], [27.034039783414784, 42.800895092043184]], [[27.04648, 42.803231], [27.036886361734584, 42.79995209059577], [27.042868237838032, 42.801360097707956], [27.04648, 42.803231]], [[27.036233494157493, 42.7929797170505], [27.035997, 42.792681], [27.036116068447857, 42.792507222272015], [27.036233494157493, 42.7929797170505]], [[27.037314318555776, 42.7907584031259], [27.038983, 42.788323], [27.042509, 42.786644], [27.037314318555776, 42.7907584031259]], [[27.051342, 42.788229], [27.063693, 42.787095], [27.073707732733336, 42.786103697821], [27.069922, 42.786865], [27.051342, 42.788229]], [[27.180838961590613, 42.7554167868311], [27.18092, 42.755394], [27.18558892257656, 42.75645284640494], [27.180838961590613, 42.7554167868311]], [[27.18631104220536, 42.7566166130471], [27.186617, 42.756686], [27.185483, 42.758188], [27.18631104220536, 42.7566166130471]], [[27.19252917093356, 42.76823279539181], [27.21086350573799, 42.76635647904072], [27.19257, 42.768291], [27.19252917093356, 42.76823279539181]], [[27.226866, 42.773816], [27.21642167588729, 42.76578766181094], [27.216477, 42.765782], [27.226866, 42.773816]], [[27.229310774869155, 42.77396689648304], [27.238565489563925, 42.774512527685815], [27.238515, 42.774535], [27.229310774869155, 42.77396689648304]], [[27.430663, 42.71963], [27.432161169563614, 42.712242917224266], [27.432161169563617, 42.712242917224266], [27.430663, 42.71963]], [[27.412728, 42.707638], [27.409957, 42.70378], [27.40996504649494, 42.70372843537826], [27.412728, 42.707638]], [[27.409619696579835, 42.697521584175114], [27.409411, 42.697197], [27.41319123032374, 42.693941056184144], [27.409619696579835, 42.697521584175114]], [[27.413326102377944, 42.693824889762205], [27.413355, 42.6938], [27.417115, 42.693446], [27.413326102377944, 42.693824889762205]], [[27.425498, 42.679509], [27.425402844264582, 42.67957444231774], [27.416356, 42.677785], [27.425498, 42.679509]], [[27.413564, 42.66966], [27.413587044453294, 42.66969208983222], [27.412863635370957, 42.66993603469656], [27.413564, 42.66966]], [[27.40817589096341, 42.671516815476764], [27.408119, 42.671536], [27.407773156618205, 42.67091408114635], [27.40817589096341, 42.671516815476764]], [[27.407327973642012, 42.670113523145844], [27.407311, 42.670083], [27.409356, 42.66666], [27.407327973642012, 42.670113523145844]], [[27.408588050375943, 42.66186749642345], [27.409444, 42.662157], [27.409356, 42.66666], [27.408588050375943, 42.66186749642345]], [[27.406582, 42.661189], [27.408226546310633, 42.661745226704646], [27.405270220049612, 42.66255981388152], [27.406582, 42.661189]], [[27.40326037661917, 42.66311360684665], [27.402123, 42.663427], [27.402107995759398, 42.66321134733476], [27.40326037661917, 42.66311360684665]], [[27.40106906883484, 42.66094392891953], [27.400121, 42.660886], [27.400692, 42.65891], [27.40106906883484, 42.66094392891953]], [[27.392719156723224, 42.65783812922164], [27.393859, 42.657582], [27.400692, 42.65891], [27.392719156723224, 42.65783812922164]], [[27.388848, 42.658708], [27.39137974990409, 42.6581391014983], [27.389302765444228, 42.659422823905665], [27.388848, 42.658708]], [[27.373987, 42.664937], [27.363622, 42.666853], [27.363559251869297, 42.66679753189602], [27.373987, 42.664937]], [[27.272562, 42.653433], [27.265878, 42.656285], [27.265019050787803, 42.65566802189023], [27.272562, 42.653433]], [[27.26501831113541, 42.65566749060231], [27.264987, 42.655645], [27.270066, 42.653765], [27.26501831113541, 42.65566749060231]], [[27.278373, 42.643526], [27.27520642576412, 42.64742904003866], [27.27888413622258, 42.64081622634942], [27.278373, 42.643526]], [[27.278917, 42.640642], [27.278895771986967, 42.64075453968674], [27.275649, 42.644196], [27.278917, 42.640642]], [[27.0838074, 42.740036], [27.084751869398822, 42.73729960202153], [27.083988458918085, 42.74125962991744], [27.0838074, 42.740036]], [[27.0844673, 42.7559558], [27.08433817551464, 42.756058655399286], [27.0851175, 42.7488899], [27.0844673, 42.7559558]], [[27.04413, 42.756566], [27.041159327190215, 42.75899204946133], [27.040983, 42.758999], [27.04413, 42.756566]], [[27.09839, 42.645126], [27.098352588234704, 42.64516147614635], [27.092788, 42.643467], [27.09839, 42.645126]], [[27.09455252024643, 42.65259000660225], [27.094806676373615, 42.65327265480022], [27.09444, 42.652953], [27.09455252024643, 42.65259000660225]], [[27.101262, 42.654735], [27.101628689154587, 42.6553152178595], [27.10107835665627, 42.65495096601682], [27.101262, 42.654735]], [[27.102981, 42.657455], [27.103231, 42.665506], [27.101813972124262, 42.65560839393717], [27.102981, 42.657455]], [[27.501923, 42.869327], [27.50327075236625, 42.870108672402914], [27.500498974759196, 42.86906135868108], [27.501923, 42.869327]], [[27.49600837551976, 42.867364589722875], [27.494403, 42.866758], [27.49460138100403, 42.86550671446923], [27.49600837551976, 42.867364589722875]], [[27.078642, 42.823865], [27.07856356918119, 42.82383988428513], [27.082024237309493, 42.82247891861142], [27.078642, 42.823865]], [[27.087651, 42.823863], [27.087770495333256, 42.82396785773426], [27.082956439157954, 42.82270822332886], [27.087651, 42.823863]], [[27.08217, 42.842423], [27.075057, 42.842296], [27.082820465180042, 42.8419205465427], [27.08217, 42.842423]], [[27.075278, 42.841251], [27.07074747347819, 42.84051798071366], [27.071057, 42.840018], [27.075278, 42.841251]], [[27.052370128399215, 42.84767747310987], [27.043964, 42.846598], [27.050297, 42.846913], [27.052370128399215, 42.84767747310987]], [[27.041617, 42.893923], [27.041474538892604, 42.8939856815436], [27.039993, 42.89123], [27.041617, 42.893923]], [[27.036232, 42.89995], [27.035832291787365, 42.899933725091586], [27.037376, 42.895789], [27.036232, 42.89995]], [[27.654428127196315, 42.17355298921594], [27.654719, 42.173767], [27.654746, 42.178344], [27.654428127196315, 42.17355298921594]], [[27.706472, 42.220755], [27.710966136409738, 42.22412115755701], [27.710899, 42.224117], [27.706472, 42.220755]], [[27.747753567791808, 42.21860821520333], [27.748106, 42.218526], [27.756402, 42.220766], [27.747753567791808, 42.21860821520333]], [[27.77509101805018, 42.219883984606106], [27.776299, 42.219797], [27.776351222187543, 42.22001767460393], [27.77509101805018, 42.219883984606106]], [[27.77666396569133, 42.221339230671894], [27.777415551506074, 42.224515196861596], [27.776266, 42.222989], [27.77666396569133, 42.221339230671894]]], [[[27.552883, 42.468486], [27.553484, 42.467211], [27.552387, 42.467012], [27.552883, 42.468486]]], [[[27.949143, 42.100197], [27.94897, 42.100186], [27.949131, 42.1004], [27.949143, 42.100197]]], [[[27.7653277, 42.2897363], [27.7662976, 42.2902757], [27.7652501, 42.2895702], [27.7653277, 42.2897363]]], [[[27.734133, 42.341097], [27.73284, 42.341252], [27.735167, 42.341546], [27.734133, 42.341097]]], [[[27.729221, 42.404413], [27.728615, 42.404096], [27.728946, 42.404542], [27.729221, 42.404413]]], [[[27.729607, 42.404142], [27.729647, 42.404504], [27.729792, 42.404416], [27.729607, 42.404142]]], [[[27.729677, 42.405126], [27.729414, 42.404709], [27.729128, 42.404982], [27.729677, 42.405126]]], [[[27.697371, 42.438106], [27.698353, 42.438902], [27.698159, 42.437889], [27.697371, 42.438106]]], [[[27.692698, 42.43643], [27.689251, 42.440392], [27.697054, 42.438502], [27.692698, 42.43643]]]]}}]}