{"type": "FeatureCollection", "features": [{"type": "Feature", "properties": {"slug": "buriram", "members": 1, "country": "Thailand", "input_hash": "8bdc74201fd9cdca"}, "geometry": {"type": "Polygon", "coordinates": [[[102.978341, 15.4821817], [103.0124451, 15.4297003], [103.0014181, 15.4278605], [102.9934035, 15.414392], [102.9835966, 15.426906], [102.9781501, 15.4169844], [102.9764879, 15.4294421], [102.9647194, 15.4192734], [102.9670584, 15.4075193], [102.9580714, 15.4034756], [102.9572379, 15.4105445], [102.9517831, 15.4038319], [102.9550974, 15.382734], [102.9863581, 15.3739473], [102.9774121, 15.3440712], [102.984832, 15.3216083], [102.952144, 15.3133048], [102.9677266, 15.2922254], [102.9550137, 15.2714192], [102.9608734, 15.2636499], [102.9591562, 15.2188934], [102.9745626, 15.2069238], [102.9663804, 15.19284], [102.9321592, 15.1821498], [102.9173892, 15.1823973], [102.917311, 15.188292], [102.8989385, 15.1754268], [102.8871606, 15.1846727], [102.8657496, 15.1642204], [102.8469789, 15.1689286], [102.8236956, 15.1550489], [102.7800041, 15.0902487], [102.7613025, 15.0782824], [102.775122, 15.0656556], [102.7850304, 15.0691427], [102.7867603, 15.0525324], [102.8046471, 15.0398084], [102.7798025, 15.0254958], [102.7813056, 15.0123376], [102.7368716, 15.0010793], [102.7139632, 14.9852001], [102.6966125, 14.9337202], [102.6008187, 14.9353715], [102.5703596, 14.9578561], [102.5457876, 14.9468773], [102.5635336, 14.9377322], [102.5676054, 14.9273189], [102.5438608, 14.9043687], [102.5407101, 14.8888715], [102.5507601, 14.8810245], [102.5455367, 14.8702548], [102.5524716, 14.8623188], [102.5331813, 14.8132942], [102.500472, 14.8024914], [102.4707314, 14.8166653], [102.4578993, 14.8350979], [102.4470586, 14.8197306], [102.4451732, 14.8014447], [102.4397003, 14.802], [102.4438357, 14.7792595], [102.4724032, 14.763253], [102.4764166, 14.7492408], [102.4769059, 14.7318516], [102.4621678, 14.7151995], [102.4600646, 14.699059], [102.4754585, 14.6553887], [102.4666764, 14.5860971], [102.4955017, 14.5648021], [102.481348, 14.5119687], [102.4933402, 14.5046678], [102.6105985, 14.4940871], [102.5993837, 14.4476009], [102.5833751, 14.4457264], [102.5694626, 14.4267162], [102.5629427, 14.3751354], [102.5691386, 14.3624981], [102.5834629, 14.3579775], [102.5872563, 14.3350704], [102.6026613, 14.3225171], [102.6427991, 14.3266047], [102.6862954, 14.2991738], [102.6264883, 14.266201], [102.5779026, 14.2267309], [102.5487388, 14.2166005], [102.5383211, 14.2021696], [102.5121782, 14.2012171], [102.4988192, 14.1860753], [102.4769364, 14.200028], [102.468838, 14.1919099], [102.45318, 14.1937294], [102.4327877, 14.1517698], [102.4374279, 14.1436336], [102.4528541, 14.1437678], [102.4734852, 14.1312382], [102.4830026, 14.142473], [102.5028969, 14.1322681], [102.5213531, 14.1433599], [102.5502245, 14.134842], [102.6081278, 14.1714898], [102.6335782, 14.1488983], [102.6525877, 14.1652451], [102.6605166, 14.1541426], [102.6684711, 14.1586619], [102.6891604, 14.1470506], [102.6882084, 14.1344657], [102.6967012, 14.1300799], [102.7625032, 14.138476], [102.7775376, 14.1551822], [102.8123406, 14.1607168], [102.8150534, 14.1701927], [102.8293061, 14.1577467], [102.8306579, 14.1675981], [102.8714061, 14.1466881], [102.8786588, 14.1757327], [102.9046225, 14.1645917], [102.9364765, 14.1800807], [102.9388319, 14.19539], [102.9561679, 14.1967371], [102.9539741, 14.2083069], [102.9972019, 14.2135188], [103.0132755, 14.2308243], [103.0220781, 14.2285059], [103.0331698, 14.2390512], [103.0318699, 14.2502283], [103.0568556, 14.2743196], [103.0572852, 14.2850322], [103.1240909, 14.3026828], [103.130606, 14.3066293], [103.1286138, 14.3198343], [103.1419206, 14.3263238], [103.1536104, 14.3138719], [103.1688132, 14.3348519], [103.2261993, 14.3267099], [103.2213832, 14.3785882], [103.2341536, 14.39338], [103.220457, 14.4030873], [103.235788, 14.4107402], [103.2466563, 14.4417533], [103.2346893, 14.4827318], [103.2136558, 14.5050169], [103.2210351, 14.5178078], [103.2109998, 14.5423695], [103.2232505, 14.546629], [103.2221903, 14.5650518], [103.209973, 14.5763928], [103.2128227, 14.5936423], [103.2385715, 14.6177245], [103.2292892, 14.6377308], [103.2339375, 14.6480178], [103.2596746, 14.6711065], [103.2566088, 14.6824064], [103.2683961, 14.6992636], [103.2653845, 14.7177827], [103.2706518, 14.7158474], [103.2744585, 14.7368025], [103.2662197, 14.7668395], [103.2915342, 14.7848854], [103.2893081, 14.8084167], [103.3134541, 14.8105889], [103.3292282, 14.8328156], [103.3462109, 14.830866], [103.3408381, 14.8383784], [103.3517274, 14.840224], [103.3642648, 14.858501], [103.3755502, 14.859681], [103.376516, 14.8706637], [103.3845541, 14.8710151], [103.378816, 14.8760668], [103.3924169, 14.8861564], [103.3895237, 14.894604], [103.4048733, 14.8975423], [103.3981876, 14.9014049], [103.4019584, 14.9196475], [103.4167838, 14.9183618], [103.4255901, 14.9284064], [103.4277825, 14.9419555], [103.4168399, 14.9587833], [103.4296438, 14.9707367], [103.4211181, 14.9773673], [103.4306903, 14.9787647], [103.4199157, 14.9860661], [103.4267968, 14.9934226], [103.4095299, 15.0034119], [103.4219932, 15.0306251], [103.4355925, 15.02899], [103.4480809, 15.0450782], [103.4227494, 15.0658645], [103.4417399, 15.0858062], [103.4287513, 15.0829533], [103.4313982, 15.0997435], [103.4422016, 15.1062512], [103.4261351, 15.1058649], [103.4333746, 15.1223111], [103.4242658, 15.130431], [103.4291796, 15.1408809], [103.4209796, 15.151978], [103.4294359, 15.1596442], [103.4204321, 15.1682623], [103.4290255, 15.1841298], [103.4182613, 15.1883843], [103.4189517, 15.2010086], [103.4361602, 15.206792], [103.4285186, 15.2138294], [103.4373749, 15.2206127], [103.4364969, 15.2426377], [103.4476802, 15.2572098], [103.4415031, 15.2634351], [103.4591914, 15.2567941], [103.4628849, 15.2830717], [103.4690375, 15.2802481], [103.480507, 15.2956723], [103.5053255, 15.2922585], [103.4970154, 15.3015272], [103.50345, 15.3132163], [103.4961248, 15.3078692], [103.4906741, 15.3171827], [103.4858757, 15.3109801], [103.4690535, 15.3244914], [103.4720425, 15.3371009], [103.4534086, 15.3368328], [103.4453357, 15.345207], [103.4422567, 15.3381401], [103.4510012, 15.335527], [103.4357907, 15.3353488], [103.429725, 15.3087412], [103.4188868, 15.3167001], [103.4038993, 15.3085192], [103.3863413, 15.3184819], [103.3745178, 15.3392684], [103.3604774, 15.3383182], [103.3615243, 15.3451476], [103.3494545, 15.3472855], [103.3501319, 15.340278], [103.3423111, 15.3438412], [103.3397247, 15.3359427], [103.3136145, 15.3273313], [103.3158314, 15.3180662], [103.3059784, 15.3191946], [103.2888364, 15.2985984], [103.280681, 15.3070804], [103.2860164, 15.3168605], [103.2679876, 15.3178776], [103.266242, 15.3108742], [103.2498097, 15.3066243], [103.2526182, 15.320702], [103.219215, 15.3212989], [103.2235648, 15.3306105], [103.2102976, 15.3310626], [103.2122609, 15.3426924], [103.1970904, 15.3350979], [103.1872375, 15.3578717], [103.1966076, 15.3582839], [103.1944258, 15.3657343], [103.1817014, 15.3681137], [103.1783578, 15.3595254], [103.1708154, 15.3635809], [103.1565423, 15.3524918], [103.163913, 15.3643894], [103.1477535, 15.3762577], [103.1542981, 15.384554], [103.1413205, 15.3883566], [103.146128, 15.4018657], [103.1391339, 15.4115666], [103.1351374, 15.4005944], [103.1175138, 15.4019254], [103.0899022, 15.4194803], [103.1107563, 15.4506339], [103.1072298, 15.4637809], [103.1155118, 15.4672392], [103.1108787, 15.4842604], [103.0728057, 15.4975847], [103.0905893, 15.5333557], [103.0809016, 15.5469603], [103.077371, 15.5425378], [103.0459694, 15.5643508], [103.0527679, 15.5927024], [103.0259432, 15.6003693], [103.0127647, 15.6152088], [103.0124066, 15.6283542], [102.9744937, 15.6607862], [102.9758117, 15.671012], [103.0073184, 15.6890804], [103.0054122, 15.7286388], [102.9860712, 15.7343019], [102.9710253, 15.7573131], [102.9413433, 15.7661281], [102.9397845, 15.7843297], [102.9251747, 15.7952915], [102.8773987, 15.7716172], [102.8808749, 15.7466587], [102.8738641, 15.738498], [102.8763841, 15.706311], [102.8688585, 15.6866836], [102.8835341, 15.6724871], [102.8824969, 15.6645583], [102.8721579, 15.6630539], [102.8552874, 15.6361269], [102.7872778, 15.6369225], [102.7671654, 15.6264803], [102.784355, 15.5848403], [102.7805212, 15.5636413], [102.7925679, 15.5565626], [102.7966238, 15.531279], [102.8120952, 15.524588], [102.8155699, 15.5124477], [102.8254115, 15.5140811], [102.8299316, 15.5053637], [102.83654, 15.5170119], [102.8643546, 15.5080757], [102.8825452, 15.5231009], [102.8878708, 15.5137388], [102.8953282, 15.5217929], [102.9132179, 15.5074356], [102.9258911, 15.5105951], [102.9320531, 15.5055215], [102.9228088, 15.5018996], [102.9279017, 15.4908182], [102.9392293, 15.4970193], [102.9451375, 15.488227], [102.9368412, 15.4764088], [102.978341, 15.4821817]]]}}]}