{"type":"FeatureCollection","features":[{"type":"Feature","properties":{"slug":"bursa","member_count":17,"matched_count":17,"unmatched":[],"source":"Overture Maps division_area (CC-BY 4.0)"},"geometry":{"type":"MultiPolygon","coordinates":[[[[29.2607253,39.7376195],[29.2858101,39.7242398],[29.2857956,39.7148499],[29.2757124,39.6980411],[29.2486372,39.6907135],[29.2362199,39.6539201],[29.1964474,39.5992687],[29.1571416,39.5935135],[29.0681669,39.6026498],[29.0423054,39.6120725],[28.9893124,39.5938437],[28.9871316,39.6065459],[28.9948484,39.6108405],[28.9838162,39.6071793],[28.9407216,39.6231045],[28.8969303,39.6243132],[28.8666053,39.612893],[28.7962797,39.6244217],[28.7880689,39.6302885],[28.7916306,39.6386783],[28.7799353,39.6355907],[28.7888333,39.6436548],[28.7566022,39.6558618],[28.7806035,39.6816001],[28.7793235,39.6963201],[28.7613324,39.6977427],[28.741208,39.6868537],[28.7264243,39.6908288],[28.7311686,39.7032304],[28.7247644,39.7385158],[28.7321048,39.761583],[28.7183608,39.750213],[28.6693868,39.7758507],[28.5628863,39.7523824],[28.527387,39.7538622],[28.4880486,39.7774884],[28.4920055,39.7944958],[28.4834818,39.8095332],[28.4511106,39.8133313],[28.4498703,39.8485107],[28.4357304,39.8595496],[28.3764589,39.8550762],[28.3326751,39.865248],[28.3383614,39.8760675],[28.3264703,39.8898316],[28.2660353,39.92889],[28.2527736,39.9683223],[28.2055595,39.9935653],[28.1942743,40.0256278],[28.1983295,40.0347134],[28.1886066,40.0410994],[28.1969131,40.059918],[28.1919228,40.0742828],[28.1617999,40.1071838],[28.1485712,40.1066668],[28.1302624,40.1208959],[28.132368,40.1365853],[28.1488376,40.146186],[28.1175022,40.1788193],[28.1417053,40.1850678],[28.1413495,40.1951808],[28.1354148,40.2044703],[28.118916,40.2034909],[28.1139511,40.2100984],[28.1199631,40.2267189],[28.0928074,40.2371772],[28.0876836,40.2521424],[28.1063004,40.266261],[28.1139809,40.2601608],[28.121183,40.2664196],[28.1499594,40.246326],[28.1673878,40.248726],[28.1741821,40.269126],[28.1672838,40.3045667],[28.1926671,40.3149764],[28.1986954,40.332395],[28.2351771,40.3516563],[28.2362902,40.400819],[28.5151458,40.3940316],[28.5805812,40.3735983],[28.6574239,40.361007],[28.676073,40.3648665],[28.6756414,40.374605],[28.7228309,40.3776511],[28.777691,40.394381],[28.8477306,40.3808222],[28.8693427,40.3847756],[28.929678,40.3554619],[29.0579915,40.3641587],[29.0688176,40.3753432],[29.0676605,40.3903847],[29.0828579,40.4094015],[29.0758184,40.4139038],[29.08255,40.4121407],[29.0801802,40.417821],[29.15577,40.4244258],[29.1508817,40.436653],[29.0909494,40.474805],[29.0333907,40.4800572],[29.0106272,40.4701128],[28.9906459,40.4889324],[29.0158699,40.5638629],[29.0319438,40.5797473],[29.0619069,40.5616104],[29.0850034,40.5764285],[29.0968638,40.5778509],[29.100141,40.5676566],[29.1486749,40.5759544],[29.1577262,40.5665896],[29.1528884,40.5542594],[29.1667775,40.5428756],[29.2052728,40.5351361],[29.2135562,40.5242022],[29.2293973,40.5205935],[29.2564811,40.5360192],[29.2888028,40.535332],[29.3150028,40.5245527],[29.3330341,40.5583791],[29.3470994,40.5683402],[29.4451867,40.5416585],[29.4572032,40.564306],[29.4700065,40.5679418],[29.4917338,40.5556367],[29.4985694,40.52354],[29.5442213,40.5335323],[29.5527184,40.5255926],[29.5607334,40.5408914],[29.5679372,40.5342487],[29.5810551,40.5437954],[29.6253949,40.5449641],[29.6841252,40.5897674],[29.6833906,40.6055796],[29.7046693,40.6144126],[29.812077,40.5843234],[29.8583959,40.584227],[29.9026167,40.5707129],[29.9100426,40.5525886],[29.9033199,40.5445484],[29.9034373,40.5076831],[29.8513075,40.4659835],[29.8582035,40.4529841],[29.8802471,40.4542499],[29.886317,40.4458573],[29.8922445,40.4326679],[29.8860048,40.4154732],[29.861193,40.4111474],[29.84405,40.3989138],[29.8422803,40.3871451],[29.7980765,40.3697995],[29.8525008,40.3280368],[29.8276977,40.2665249],[29.8286008,40.2433108],[29.7970297,40.2234186],[29.7908166,40.2016492],[29.7774769,40.1888075],[29.7261279,40.1645134],[29.7216003,40.0994972],[29.7541251,40.0017906],[29.7401811,39.9867761],[29.7598645,39.9665329],[29.7602421,39.9556695],[29.7980751,39.9318655],[29.7595878,39.9158754],[29.747256,39.9023095],[29.7416306,39.8854732],[29.7604957,39.8678206],[29.6467573,39.865404],[29.5605848,39.8788571],[29.5262374,39.8770094],[29.5088778,39.8716419],[29.4716972,39.8384283],[29.4238387,39.8269099],[29.4253899,39.8171407],[29.4019949,39.7938285],[29.3422457,39.7759972],[29.3139649,39.7828027],[29.3203839,39.7703862],[29.3131925,39.7641352],[29.2614139,39.7465005],[29.2607253,39.7376195]]],[[[28.5171249,40.5226918],[28.5269983,40.5500334],[28.5182719,40.5654052],[28.5544812,40.565052],[28.5356432,40.5489917],[28.545175,40.5265371],[28.5418944,40.5164102],[28.5240832,40.5090406],[28.5171249,40.5226918]]]]}}]}