{"type":"FeatureCollection","features":[{"type":"Feature","properties":{"slug":"burton","member_count":15,"matched_count":2,"unmatched":["Burton Central (GB-ENG, type='MSOA')","Rolleston-on-Dove & Tutbury (GB-ENG, type='MSOA')","Burton Horninglow (GB-ENG, type='MSOA')","Abbots Bromley, Yoxall & Marchington (GB-ENG, type='MSOA')","Burton Shobnall (GB-ENG, type='MSOA')","Burton Winshill (GB-ENG, type='MSOA')","Burton Stapenhill (GB-ENG, type='MSOA')","Burton Eton Park (GB-ENG, type='MSOA')","Burton Stretton (GB-ENG, type='MSOA')","Mayfield, Rocester & Bramshall (GB-ENG, type='MSOA')","Uttoxeter Heath (GB-ENG, type='MSOA')","Uttoxeter Town (GB-ENG, type='MSOA')","Burton Brizlincote (GB-ENG, type='MSOA')"],"source":"Overture Maps division_area (CC-BY 4.0)"},"geometry":{"type":"MultiPolygon","coordinates":[[[[-1.692349,52.7439688],[-1.7639858,52.7632582],[-1.7792927,52.7817826],[-1.7784202,52.7912739],[-1.7581518,52.7846064],[-1.7612715,52.7775308],[-1.7030783,52.7725425],[-1.7004523,52.7657641],[-1.6825313,52.7694635],[-1.6969348,52.7526008],[-1.692349,52.7439688]]],[[[-1.6733589,52.7745276],[-1.6847601,52.7783448],[-1.6796261,52.7892884],[-1.70044,52.8012628],[-1.7042898,52.8123143],[-1.6675592,52.8100588],[-1.6693436,52.7987496],[-1.6382481,52.786711],[-1.6499354,52.7794645],[-1.6652347,52.7852906],[-1.6733589,52.7745276]]]]}}]}