{"type": "FeatureCollection", "features": [{"type": "Feature", "properties": {"slug": "buxton", "members": 11, "country": "United Kingdom", "input_hash": "88feb8af0cb8e8b4"}, "geometry": {"type": "Polygon", "coordinates": [[[-2.0046598, 53.3460096], [-2.0089981, 53.362011], [-2.0317284, 53.3657293], [-2.0338084, 53.3754373], [-2.0046428, 53.3863273], [-1.9923295, 53.4151932], [-2.0237097, 53.4205517], [-2.0197243, 53.4251187], [-2.0274294, 53.432246], [-2.0136556, 53.4398832], [-2.004216, 53.4359218], [-2.0082348, 53.4415493], [-1.9857924, 53.4552268], [-1.9805947, 53.4632088], [-1.9880925, 53.480332], [-1.9742778, 53.4883845], [-1.9715863, 53.504342], [-1.9219728, 53.5099547], [-1.9167664, 53.5144958], [-1.9267807, 53.5209488], [-1.9224447, 53.530815], [-1.908929, 53.5387158], [-1.8941109, 53.5335956], [-1.8734938, 53.5404139], [-1.8418219, 53.5198927], [-1.8271519, 53.5234921], [-1.8195247, 53.513412], [-1.8007794, 53.5113626], [-1.8103998, 53.506324], [-1.7960382, 53.502625], [-1.8014715, 53.4809756], [-1.7452789, 53.4620933], [-1.746573, 53.4260008], [-1.7299517, 53.4159691], [-1.7043654, 53.4153324], [-1.700646, 53.403345], [-1.6538185, 53.3918938], [-1.661861, 53.3914224], [-1.6733132, 53.3693737], [-1.6712144, 53.3493475], [-1.6968685, 53.3347853], [-1.7004502, 53.3236053], [-1.7276052, 53.3191226], [-1.7249817, 53.3314907], [-1.7352924, 53.3347437], [-1.7302074, 53.3386109], [-1.7606649, 53.3382201], [-1.8226274, 53.3027931], [-1.8175172, 53.2825455], [-1.7902877, 53.2563929], [-1.8443791, 53.250392], [-1.8742814, 53.2268197], [-1.831255, 53.2106292], [-1.8316071, 53.1975671], [-1.8422501, 53.1946755], [-1.8727105, 53.215638], [-1.8826487, 53.203284], [-1.8869479, 53.2177125], [-1.8954056, 53.2185832], [-1.897601, 53.2104322], [-1.9107587, 53.2216743], [-1.9185599, 53.2179657], [-1.900075, 53.2083435], [-1.8986365, 53.1999386], [-1.9567108, 53.2137294], [-1.9623677, 53.226224], [-1.9874205, 53.2136093], [-1.9902646, 53.2229989], [-1.9748588, 53.231061], [-1.9997312, 53.2450489], [-2.0094818, 53.2606524], [-2.0093291, 53.3023141], [-2.0015517, 53.3189056], [-2.0102666, 53.3228808], [-2.0143192, 53.3400585], [-2.0046598, 53.3460096]]]}}]}