{"type": "FeatureCollection", "features": [{"type": "Feature", "properties": {"slug": "cadiz", "members": 5, "country": "Spain", "input_hash": "15d4fe75207ba6c2"}, "geometry": {"type": "MultiPolygon", "coordinates": [[[[-6.224682, 36.3919971], [-6.2239386, 36.3899172], [-6.224415, 36.3899869], [-6.224682, 36.3919971]]], [[[-6.2253316, 36.3932695], [-6.2250646, 36.3936297], [-6.2247109, 36.3921482], [-6.2253316, 36.3932695]]], [[[-6.2252883, 36.3938969], [-6.2256348, 36.3940945], [-6.2255048, 36.394292], [-6.2252883, 36.3938969]]], [[[-6.2255409, 36.3948962], [-6.2258224, 36.3960291], [-6.2249347, 36.3952913], [-6.2255409, 36.3948962]]], [[[-6.2255409, 36.3965636], [-6.2252955, 36.3965578], [-6.2256997, 36.3962673], [-6.2255409, 36.3965636]]], [[[-6.2348033, 36.4375813], [-6.2893202, 36.5240279], [-6.3174937, 36.5286866], [-6.2799715, 36.5454594], [-6.2922816, 36.5328794], [-6.2822767, 36.5366016], [-6.2811011, 36.5289147], [-6.2726489, 36.5406739], [-6.268709, 36.5316557], [-6.2819593, 36.5274696], [-6.2542652, 36.5006469], [-6.2666256, 36.4896988], [-6.2533092, 36.4676488], [-6.2296771, 36.4625522], [-6.211898, 36.4698385], [-6.2130361, 36.4813878], [-6.1933975, 36.4862094], [-6.1940747, 36.4996563], [-6.173108, 36.520409], [-6.2017961, 36.5287025], [-6.2056878, 36.5219152], [-6.196318, 36.520957], [-6.204309, 36.511128], [-6.232376, 36.503907], [-6.2422505, 36.5066573], [-6.2332595, 36.5113375], [-6.2456562, 36.5089932], [-6.250799, 36.5158197], [-6.2437123, 36.5184348], [-6.255657, 36.5199932], [-6.2589388, 36.5292583], [-6.2337371, 36.5290821], [-6.2264345, 36.5748124], [-6.232713, 36.5803774], [-6.2392272, 36.574166], [-6.2381406, 36.5828242], [-6.2492642, 36.5722179], [-6.2422584, 36.5852545], [-6.2577069, 36.581264], [-6.2540315, 36.5770645], [-6.2659014, 36.5798379], [-6.2979145, 36.6168917], [-6.3064066, 36.6367889], [-6.2961845, 36.6524536], [-6.3137215, 36.6655457], [-6.3086238, 36.6781403], [-6.323047, 36.7026526], [-6.3033665, 36.7189243], [-6.2554687, 36.7060978], [-6.2286496, 36.6735964], [-6.1538357, 36.6363311], [-6.1396548, 36.6048331], [-6.1488588, 36.6035991], [-6.156313514356224, 36.59675935084875], [-6.1323158, 36.5936], [-6.1009231, 36.5653417], [-6.0609222, 36.5580492], [-6.0419247, 36.56296], [-6.022354, 36.549499], [-6.0094564, 36.5619458], [-6.002574, 36.5593168], [-5.9884432, 36.5465512], [-5.9984528, 36.5419923], [-5.9971302, 36.5285623], [-5.9802447, 36.521515], [-6.071233, 36.4685244], [-6.0725169, 36.4614093], [-6.0349306, 36.4226769], [-6.0252064, 36.4013167], [-5.9941265, 36.3708886], [-6.0045749, 36.3464516], [-6.0179002, 36.3414335], [-6.0595547, 36.3484711], [-6.1622918, 36.3309434], [-6.1811753, 36.3672627], [-6.217059, 36.3925576], [-6.2348033, 36.4375813]], [[-6.1572728, 36.5958792], [-6.1562488, 36.5921396], [-6.156816336923382, 36.59629800785657], [-6.1572728, 36.5958792]], [[-6.151531033144559, 36.57943160999528], [-6.1510561, 36.5798596], [-6.151253614226442, 36.58058813584654], [-6.151531033144559, 36.57943160999528]], [[-6.153151098303914, 36.57842750966742], [-6.1529207, 36.5781793], [-6.152656781791315, 36.57841713211737], [-6.153151098303914, 36.57842750966742]], [[-6.155943, 36.581064], [-6.1580206, 36.5807747], [-6.155755485582397, 36.58082689118021], [-6.155943, 36.581064]], [[-6.1610406690075035, 36.56567686293993], [-6.1609884, 36.5664223], [-6.161262953624375, 36.56643050312239], [-6.1610406690075035, 36.56567686293993]], [[-6.161710929160862, 36.562320784922434], [-6.1612568, 36.5625945], [-6.1612092259961075, 36.56327297903167], [-6.161710929160862, 36.562320784922434]], [[-6.167257533806611, 36.559899597232324], [-6.1661519, 36.5596441], [-6.163798161484476, 36.56106275745668], [-6.167257533806611, 36.559899597232324]], [[-6.17933530904527, 36.563118156301925], [-6.1793344, 36.5626904], [-6.178847354210978, 36.56257785021148], [-6.17933530904527, 36.563118156301925]], [[-6.1784574, 36.569364], [-6.1793515, 36.5707369], [-6.179343200346898, 36.56683145212393], [-6.1784574, 36.569364]], [[-6.195201180028522, 36.564725349330836], [-6.1876972, 36.5666753], [-6.1793515, 36.5707369], [-6.195201180028522, 36.564725349330836]], [[-6.1987843, 36.5657295], [-6.1987164, 36.5638119], [-6.198304627133896, 36.56391890145426], [-6.1987843, 36.5657295]], [[-6.1924899, 36.5710255], [-6.189098103157, 36.57611101128412], [-6.1987843, 36.5657295], [-6.1924899, 36.5710255]], [[-6.1879861, 36.5777783], [-6.1913023443612145, 36.579306996187235], [-6.188278027014694, 36.57734059744997], [-6.1879861, 36.5777783]], [[-6.1953206, 36.5811593], [-6.1967614120005985, 36.580812014624684], [-6.194276016970719, 36.580677776348494], [-6.1953206, 36.5811593]], [[-6.2034406, 36.5792021], [-6.20652806199421, 36.57762438894873], [-6.201490860617625, 36.57967205442355], [-6.2034406, 36.5792021]], [[-6.2108276, 36.5754273], [-6.2112013809139235, 36.5748646484186], [-6.210271423178554, 36.57571150959328], [-6.2108276, 36.5754273]], [[-6.2137156, 36.57108], [-6.2135716, 36.5691221], [-6.213162208552648, 36.571913018919346], [-6.2137156, 36.57108]], [[-6.207126252646244, 36.551408740778555], [-6.2066513, 36.5533711], [-6.206722184769383, 36.55412684693439], [-6.207126252646244, 36.551408740778555]], [[-6.210585585126067, 36.54166762226299], [-6.2085876, 36.5453709], [-6.208344494748566, 36.546375336622695], [-6.210585585126067, 36.54166762226299]], [[-6.2211462, 36.5277665], [-6.2165108, 36.5306852], [-6.215150904201995, 36.53320577523738], [-6.2211462, 36.5277665]], [[-6.212453138742443, 36.41590342121343], [-6.212553896721738, 36.417777842053844], [-6.2126356, 36.4161886], [-6.212453138742443, 36.41590342121343]], [[-6.21212088132696, 36.42620059191145], [-6.2031322, 36.4410973], [-6.2120226, 36.4281123], [-6.21212088132696, 36.42620059191145]], [[-6.209917974641024, 36.394710585624075], [-6.2054011, 36.4048814], [-6.2097042, 36.3959966], [-6.209917974641024, 36.394710585624075]], [[-6.1895685, 36.4624706], [-6.189273689852059, 36.46219301659448], [-6.189121095926196, 36.46309964235653], [-6.1895685, 36.4624706]]], [[[-6.2242276, 36.3893275], [-6.2188001, 36.3813267], [-6.2193426, 36.3792232], [-6.2221763, 36.3787956], [-6.2242276, 36.3893275]]], [[[-6.2170286, 36.3858073], [-6.2147197, 36.3841489], [-6.2148485, 36.382684], [-6.2170286, 36.3858073]]], [[[-6.2196872, 36.3856932], [-6.2195584, 36.3834337], [-6.2198674, 36.3851405], [-6.2196872, 36.3856932]]], [[[-6.2215012, 36.3874306], [-6.2215727, 36.3878784], [-6.2214126, 36.3874661], [-6.2215012, 36.3874306]]]]}}]}