{"type": "FeatureCollection", "features": [{"type": "Feature", "properties": {"slug": "cairo", "members": 80, "country": "Egypt", "input_hash": "ac5a832eb6182095"}, "geometry": {"type": "MultiPolygon", "coordinates": [[[[31.2117505, 29.4361592], [31.1229907, 29.4358705], [31.0235182, 29.71627], [30.6967708, 29.699715], [30.5633489, 29.6263671], [29.8505511, 29.0924068], [29.7796533, 28.8026312], [29.7592315, 28.6486187], [29.5849662, 28.3447079], [29.2391585, 28.131211], [28.8225555, 27.9798262], [28.625062, 27.7403336], [27.3105948, 27.7380042], [27.7856381, 28.635451], [28.7292682, 28.8196573], [29.5703514, 29.5559649], [30.3111901, 29.9202949], [30.7865826, 30.2732265], [30.8359313, 30.3262544], [30.8488932, 30.3246717], [30.8735132, 30.3399356], [30.9170508, 30.3334908], [30.9210634, 30.3137371], [30.9131455, 30.2864199], [30.9548271, 30.2829827], [30.968524, 30.2332935], [30.9911656, 30.2064346], [31.0137176, 30.1972363], [31.0490048, 30.2177644], [31.0685686, 30.2190337], [31.1418951, 30.1711573], [31.17148, 30.138921], [31.2306118, 30.1272751], [31.2388515, 30.1172156], [31.2311698, 30.093036], [31.265988784899324, 30.11042987356539], [31.24377333500007, 30.105186496000044], [31.24040658100006, 30.11957634500004], [31.230224854000028, 30.13006948000003], [31.168554378000067, 30.14558964500003], [31.143104710000046, 30.174231320000047], [31.134079259000032, 30.19458917600008], [31.116683699000077, 30.213137689000064], [31.107180507000066, 30.23900750100006], [31.11947633400007, 30.265699951000045], [31.09099290100005, 30.287081869000076], [31.09981897600005, 30.297735527000043], [31.129580349000037, 30.295344106000073], [31.13232094500006, 30.278760377000026], [31.164473215000044, 30.29034838800004], [31.18258665600007, 30.28877876200005], [31.186937027000056, 30.270463420000056], [31.200401777000025, 30.262195507000058], [31.258386573000053, 30.272504909000077], [31.265973002000067, 30.30267675300007], [31.253980348000027, 30.30468484000005], [31.25321069200004, 30.311493072000076], [31.26776374900004, 30.317839761000073], [31.26514432400006, 30.32368978200003], [31.295323995000047, 30.32885943000008], [31.298978801000032, 30.343992257000025], [31.290276477000077, 30.35260547400003], [31.284980897000025, 30.385261816000025], [31.296275861000026, 30.382434557000067], [31.288682683000047, 30.394794927000078], [31.300596109000026, 30.402982492000035], [31.30559874800008, 30.398816096000076], [31.310348850000025, 30.41034164900003], [31.34563615500008, 30.383986055000037], [31.343285774000037, 30.372331031000044], [31.35303321500004, 30.36896383100003], [31.35401246200007, 30.35743698700003], [31.342814523000072, 30.356618624000077], [31.341260223000063, 30.34143543500005], [31.361699274000046, 30.335738382000045], [31.375605439000026, 30.321739886000046], [31.368185589000063, 30.319685142000026], [31.37176704700005, 30.30453148600003], [31.390150779000066, 30.288863551000077], [31.399615195000024, 30.26221068600006], [31.426350460000037, 30.254308326000057], [31.42433174200005, 30.243332819000045], [31.405369009000026, 30.23793338200005], [31.416407777000074, 30.188247442000034], [31.40522954900007, 30.190287570000066], [31.401164892000054, 30.175242361000073], [31.377466269000024, 30.179373940000062], [31.376932460000035, 30.162214901000027], [31.366627777000076, 30.15474447300005], [31.35961435200005, 30.166390137000064], [31.339732084000048, 30.16397685000004], [31.33742456500005, 30.169879965000064], [31.321917598000027, 30.172677976000045], [31.316783553953794, 30.171504690268172], [31.329890481000064, 30.16677523900006], [31.322481476000064, 30.14244388800006], [31.305882551000025, 30.14756975800003], [31.312925376000067, 30.14229434500004], [31.29062807200006, 30.131113430000028], [31.286934790991918, 30.120893480782197], [31.3937649, 30.1553431], [31.5924734, 30.1721293], [31.8367932, 30.3209168], [31.8713494, 30.2295534], [31.9090054, 29.9915076], [31.9062825, 29.7483062], [31.8445406, 29.0105979], [31.4656612, 29.1082276], [31.2121809, 29.1866301], [31.2309633, 29.2522], [31.2029472, 29.3065984], [31.2211383, 29.3216458], [31.2350719, 29.3673579], [31.2117505, 29.4361592]], [[31.23536829149281, 29.964737214205982], [31.234981795068137, 29.96536776808125], [31.2351018, 29.9649268], [31.23536829149281, 29.964737214205982]], [[31.274959428000045, 30.182703962000062], [31.275579048662927, 30.182659347869738], [31.27387484600007, 30.188136944000064], [31.274959428000045, 30.182703962000062]], [[31.277423140000053, 30.18252656900006], [31.284243923000076, 30.187898619000066], [31.276551458531486, 30.18258933209524], [31.277423140000053, 30.18252656900006]], [[31.302485789401704, 30.191335013930953], [31.301818956003604, 30.192046137543876], [31.2996032031516, 30.18894726319219], [31.302485789401704, 30.191335013930953]], [[31.305098436000037, 30.15741446000004], [31.312730562341947, 30.170578458006283], [31.311868312229592, 30.170633829936886], [31.305098436000037, 30.15741446000004]], [[31.305098436000037, 30.15741446000004], [31.29132396544998, 30.1608315672441], [31.305101316123206, 30.157378299546142], [31.305098436000037, 30.15741446000004]], [[31.286168747554665, 30.16053368976138], [31.288391007592477, 30.160779074988742], [31.28661538500006, 30.160747296000068], [31.286168747554665, 30.16053368976138]], [[31.264908510000055, 30.15318543400008], [31.264493532000074, 30.153520531000026], [31.266488740000057, 30.14801617300003], [31.264908510000055, 30.15318543400008]], [[31.250258484000028, 30.147419567000043], [31.250105205686562, 30.147046979829835], [31.250468609429223, 30.14747186805574], [31.250258484000028, 30.147419567000043]], [[31.181671291000043, 30.197875214000078], [31.176991202000067, 30.20039504700003], [31.182019917605306, 30.197043458009134], [31.181671291000043, 30.197875214000078]], [[31.20195289600008, 30.15623709700003], [31.217061624000053, 30.16126465700006], [31.201731247000055, 30.156460209000045], [31.184798727000043, 30.172884285000066], [31.21522508700008, 30.143223810000052], [31.20195289600008, 30.15623709700003]], [[31.184605384000065, 30.246443656000054], [31.190112385000077, 30.259879346000048], [31.189057714000057, 30.257584431000055], [31.184605384000065, 30.246443656000054]], [[31.152754215000073, 30.21585789900007], [31.15427352752041, 30.213957433828547], [31.152840721366825, 30.216016331950502], [31.152754215000073, 30.21585789900007]], [[31.159779541137436, 30.204830611051293], [31.159435642000062, 30.20653963500007], [31.15867069142666, 30.207638845311966], [31.159779541137436, 30.204830611051293]], [[31.161692123389752, 30.201331395085447], [31.16103748699399, 30.201644781070804], [31.161148082000068, 30.201364692000027], [31.161692123389752, 30.201331395085447]], [[31.233054250523818, 30.13655979055214], [31.224719444000073, 30.144631504000074], [31.232171919000052, 30.136668375000056], [31.233054250523818, 30.13655979055214]], [[31.24824461119841, 30.142524268041292], [31.24665691200005, 30.138664907000077], [31.248231703000044, 30.140727239000057], [31.24824461119841, 30.142524268041292]], [[31.30936407400003, 30.25917726600005], [31.309053771683974, 30.25833366638613], [31.31540233800007, 30.263642213000026], [31.30936407400003, 30.25917726600005]], [[31.339657198000054, 30.278365394000048], [31.339346952000028, 30.266039054000032], [31.341106388484736, 30.28578373956439], [31.339657198000054, 30.278365394000048]], [[31.342579488968248, 30.29223281174784], [31.343104063921825, 30.292919520674424], [31.342292953101232, 30.291857714278308], [31.342579488968248, 30.29223281174784]]], [[[31.14116604900005, 30.174456476000046], [31.112089431000072, 30.19178834300004], [31.08997612400003, 30.21160628900003], [31.108517926000047, 30.224521002000074], [31.14116604900005, 30.174456476000046]]], [[[31.452125349000028, 30.191559967000046], [31.432701374000033, 30.207592920000025], [31.432094104000043, 30.25020019200008], [31.462113085000055, 30.25055612700004], [31.463195923000058, 30.19203237000005], [31.452125349000028, 30.191559967000046]]]]}}]}