{"type":"FeatureCollection","features":[{"type":"Feature","properties":{"slug":"cambridge","member_count":45,"matched_count":9,"unmatched":["Central & West Cambridge (GB-ENG, type='MSOA')","Eddington & Castle (GB-ENG, type='MSOA')","Addenbrooke's & Queen Edith's (GB-ENG, type='MSOA')","Trumpington (GB-ENG, type='MSOA')","Coleridge (GB-ENG, type='MSOA')","East Barnwell & Abbey (GB-ENG, type='MSOA')","Kings Hedges (GB-ENG, type='MSOA')","Arbury (GB-ENG, type='MSOA')","East Chesterton (GB-ENG, type='MSOA')","Cherry Hinton (GB-ENG, type='MSOA')","West Chesterton (GB-ENG, type='MSOA')","North Ely (GB-ENG, type='MSOA')","Haddenham, Stretham & Witchford (GB-ENG, type='MSOA')","South Ely (GB-ENG, type='MSOA')","Little Downham & Sutton (GB-ENG, type='MSOA')","Isleham, Fordham & Chippenham (GB-ENG, type='MSOA')","Swaffham & Bottisham (GB-ENG, type='MSOA')","Dullingham & Cheveley (GB-ENG, type='MSOA')","Bar Hill, Girton & Grantchester (GB-ENG, type='MSOA')","HIston, Impington & Orchard Park (GB-ENG, type='MSOA')","Papworth, Caxton & Fen Drayton (GB-ENG, type='MSOA')","Longstanton, Swavesey & Oakington (GB-ENG, type='MSOA')","Meldreth, Melbourn & Great Chishill (GB-ENG, type='MSOA')","Linton & Balsham (GB-ENG, type='MSOA')","Fulbourn & Teversham (GB-ENG, type='MSOA')","Hardwick & Highfields (GB-ENG, type='MSOA')","Duxford, Whittlesford & the Abingtons (GB-ENG, type='MSOA')","Little Shelford , Foxton & Haslingfield (GB-ENG, type='MSOA')","Barrington, Orwell & Gamlingay (GB-ENG, type='MSOA')","Bassingbourn & the Mordens (GB-ENG, type='MSOA')","Willingham & Over (GB-ENG, type='MSOA')","Great Shelford & Stapleford (GB-ENG, type='MSOA')","Waterbeach and Landbeach (GB-ENG, type='MSOA')","Milton, Fen Ditton & Quy (GB-ENG, type='MSOA')","South Newmarket & Racecourse (GB-ENG, type='MSOA')","North Newmarket, Studlands & Exning (GB-ENG, type='MSOA')"],"source":"Overture Maps division_area (CC-BY 4.0)"},"geometry":{"type":"MultiPolygon","coordinates":[[[[-1.546101,50.9989477],[-1.4757854,51.0154917],[-1.4774324,51.0088323],[-1.4547496,51.0096147],[-1.4655313,50.9974289],[-1.4477964,50.9956421],[-1.457934,50.9727288],[-1.4779957,50.9684351],[-1.4711235,50.9541869],[-1.4806702,50.9568004],[-1.4973006,50.9420095],[-1.5310897,50.9512425],[-1.5455083,50.9701409],[-1.5297746,50.9779077],[-1.5315107,50.9853217],[-1.546101,50.9989477]]],[[[-0.9005844,51.0008791],[-0.9507101,50.9904743],[-0.9549512,51.0083043],[-0.9267301,51.0199439],[-0.9241152,51.00835],[-0.9101171,51.009756],[-0.9005844,51.0008791]]],[[[0.1385881,52.1434607],[0.1882453,52.1364679],[0.183381,52.1201775],[0.1699041,52.1102359],[0.1393387,52.1226366],[0.1385881,52.1434607]]],[[[-0.1034282,52.2289749],[-0.0442036,52.2212033],[-0.0520797,52.2079324],[-0.0659443,52.2057445],[-0.0979033,52.2177892],[-0.1034282,52.2289749]]],[[[0.342656,52.2423282],[0.3062667,52.2637435],[0.3169306,52.2700471],[0.2614123,52.3035276],[0.3557742,52.3076586],[0.3591956,52.289142],[0.3399748,52.2676727],[0.3608648,52.2494072],[0.342656,52.2423282]]],[[[0.0816132,52.2832792],[0.0996752,52.2919552],[0.120745,52.3171368],[0.1047711,52.3287463],[0.1403171,52.3206696],[0.1622876,52.3242837],[0.1677993,52.3175521],[0.2000073,52.3234021],[0.1925171,52.3078197],[0.1377725,52.2740408],[0.0940801,52.2654263],[0.0816132,52.2832792]]],[[[0.3798019,52.3954024],[0.3682254,52.3875062],[0.3745984,52.3783249],[0.365908,52.3764897],[0.3745125,52.3677202],[0.3713153,52.3537514],[0.3786968,52.3400011],[0.3651999,52.3360417],[0.3766583,52.3269284],[0.3615897,52.3148799],[0.3176878,52.3062332],[0.3167114,52.316294],[0.2920887,52.327911],[0.280979,52.3498349],[0.2634642,52.3468725],[0.2542937,52.3561586],[0.2619032,52.3729564],[0.2725837,52.375095],[0.2933065,52.3634478],[0.3340117,52.378301],[0.3273812,52.3967795],[0.3385017,52.4089414],[0.368124,52.4153091],[0.3798019,52.3954024]]],[[[0.4291919,52.4361241],[0.3343807,52.4400003],[0.3102419,52.4301216],[0.2695367,52.4370735],[0.2814028,52.4608378],[0.2416632,52.4839581],[0.2528533,52.4909355],[0.2460196,52.499874],[0.2564554,52.5076969],[0.3093402,52.5136045],[0.3670414,52.5011558],[0.3808851,52.4794054],[0.4285063,52.4546349],[0.4233321,52.4536872],[0.4291919,52.4361241]]],[[[-7.7983727,54.3948926],[-7.8090887,54.3954536],[-7.815419,54.398743],[-7.7994538,54.4025165],[-7.7983727,54.3948926]]]]}}]}