{"type": "FeatureCollection", "features": [{"type": "Feature", "properties": {"slug": "camden-ar", "members": 2, "country": "United States", "input_hash": "4f0a9826b70eb56a"}, "geometry": {"type": "Polygon", "coordinates": [[[-92.334249, 33.795065], [-92.327103, 33.77788], [-92.342032, 33.743154], [-92.320101, 33.682331], [-92.327077, 33.661479], [-92.320771, 33.632497], [-92.330515, 33.603079], [-92.320829, 33.585037], [-92.325872, 33.571054], [-92.314034, 33.551397], [-92.32328, 33.526077], [-92.311049, 33.499869], [-92.322398, 33.485877], [-92.328071, 33.443535], [-92.356001, 33.400929], [-92.359868, 33.379745], [-92.376186, 33.376983], [-92.378893, 33.315116], [-92.350317, 33.299073], [-92.358582, 33.30149], [-92.379175, 33.279077], [-92.431386, 33.269468], [-92.432922, 33.276748], [-92.444432, 33.273908], [-92.452892, 33.287416], [-92.45942, 33.282856], [-92.473616, 33.294347], [-92.458493, 33.304013], [-92.471047, 33.306474], [-92.460013, 33.32022], [-92.471395, 33.314406], [-92.480326, 33.327964], [-92.488761, 33.315631], [-92.501164, 33.32771], [-92.521832, 33.316639], [-92.519255, 33.332003], [-92.52658, 33.332192], [-92.535437, 33.348223], [-92.531892, 33.355729], [-92.546441, 33.359464], [-92.547268, 33.366325], [-92.561958, 33.362104], [-92.5941953, 33.3737457], [-92.6034324, 33.3644494], [-92.5992696, 33.3609367], [-92.6235597, 33.3589474], [-92.6454763, 33.3684168], [-92.6605181, 33.3556028], [-92.714677, 33.370388], [-92.720248, 33.382388], [-92.7575765, 33.3878807], [-92.7941755, 33.372489], [-93.1188887, 33.3802837], [-93.104405, 33.777093], [-93.086568, 33.7763], [-93.070295, 33.788713], [-93.036006, 33.770145], [-92.992409, 33.777494], [-92.981722, 33.788344], [-92.942678, 33.796984], [-92.928816, 33.822544], [-92.927052, 33.814447], [-92.917431, 33.821528], [-92.896268, 33.806091], [-92.334249, 33.795065]], [[-92.710282, 33.653397], [-92.713962, 33.654949], [-92.71454301229711, 33.65472262959017], [-92.710282, 33.653397]], [[-92.722406, 33.651192], [-92.71921672400306, 33.65290168700503], [-92.72287759952528, 33.65147535937578], [-92.722406, 33.651192]], [[-92.72509011484162, 33.650613332872375], [-92.725381, 33.6505], [-92.72533046225219, 33.650407572347156], [-92.72509011484162, 33.650613332872375]], [[-92.72646636089961, 33.64832287028952], [-92.727184, 33.648071], [-92.725162, 33.645624], [-92.72646636089961, 33.64832287028952]], [[-92.713633, 33.605659], [-92.718949, 33.606477], [-92.7136076347152, 33.60550085324336], [-92.713633, 33.605659]], [[-92.710248, 33.594569], [-92.711581, 33.584366], [-92.71082943864782, 33.5825153865705], [-92.710248, 33.594569]], [[-92.71108848732885, 33.57714513353967], [-92.712164, 33.573386], [-92.711425, 33.570169], [-92.71108848732885, 33.57714513353967]], [[-92.71501880959481, 33.56085841426092], [-92.715092, 33.560786], [-92.714904, 33.556591], [-92.71501880959481, 33.56085841426092]], [[-92.71736847238815, 33.55279061239679], [-92.717127, 33.552958], [-92.714904, 33.556591], [-92.71736847238815, 33.55279061239679]], [[-92.718773, 33.551817], [-92.71811373900965, 33.55227399683474], [-92.71962353074137, 33.55223775665601], [-92.718773, 33.551817]], [[-92.723772, 33.55429], [-92.72088682579209, 33.552862707378246], [-92.72552456064673, 33.556298183478226], [-92.723772, 33.55429]], [[-92.726439, 33.557346], [-92.72592921323277, 33.55676185738258], [-92.72672048450504, 33.562704827652446], [-92.726439, 33.557346]], [[-92.72681646903293, 33.5634257349008], [-92.726843, 33.563625], [-92.727498607979, 33.563720926822434], [-92.72681646903293, 33.5634257349008]], [[-92.72850908750482, 33.563868777509356], [-92.728866, 33.563921], [-92.741081, 33.556318], [-92.72850908750482, 33.563868777509356]], [[-92.771109, 33.548426], [-92.772245, 33.551545], [-92.77263147707832, 33.551600023855215], [-92.771109, 33.548426]], [[-92.77326290151882, 33.55168992157217], [-92.774605, 33.551881], [-92.7747527540009, 33.55098037441382], [-92.77326290151882, 33.55168992157217]], [[-92.77609820633702, 33.54277925098283], [-92.776732, 33.538916], [-92.77628995604888, 33.53755092789649], [-92.77609820633702, 33.54277925098283]], [[-92.77613398574731, 33.537069277356686], [-92.776119, 33.537023], [-92.769288, 33.533094], [-92.77613398574731, 33.537069277356686]], [[-92.759037, 33.531452], [-92.75921534970747, 33.53148056796602], [-92.76426, 33.524942], [-92.759037, 33.531452]], [[-92.7726458477259, 33.51141072538522], [-92.773044, 33.511042], [-92.77276601724942, 33.51084839364052], [-92.7726458477259, 33.51141072538522]], [[-92.754976, 33.504042], [-92.762877, 33.503961], [-92.75411036745767, 33.50312858903812], [-92.754976, 33.504042]], [[-92.753744, 33.502742], [-92.75394741838521, 33.50295664602336], [-92.75485, 33.50085], [-92.753744, 33.502742]], [[-92.763648, 33.500223], [-92.766022, 33.494305], [-92.76576779345297, 33.49351562177501], [-92.763648, 33.500223]], [[-92.76556040182803, 33.49287161620281], [-92.765395, 33.492358], [-92.756389, 33.488167], [-92.76556040182803, 33.49287161620281]], [[-92.75333, 33.48419], [-92.75231169951599, 33.484132353158714], [-92.756389, 33.488167], [-92.75333, 33.48419]], [[-92.74661080308266, 33.48380962064798], [-92.742643, 33.483585], [-92.74249544675098, 33.48366532286645], [-92.74661080308266, 33.48380962064798]], [[-92.73686904067117, 33.48672814301547], [-92.736467, 33.486947], [-92.73614786678179, 33.487925233277174], [-92.73686904067117, 33.48672814301547]], [[-92.73585560671378, 33.48882109277348], [-92.735793, 33.489013], [-92.737961, 33.493593], [-92.73585560671378, 33.48882109277348]], [[-92.73640006707333, 33.495051485061545], [-92.736521, 33.495141], [-92.737961, 33.493593], [-92.73640006707333, 33.495051485061545]], [[-92.72193, 33.488952], [-92.728942, 33.489531], [-92.72156816356697, 33.4886408719154], [-92.72193, 33.488952]], [[-92.719247, 33.486645], [-92.72017340085479, 33.48744157352665], [-92.71897150965182, 33.48616760019157], [-92.719247, 33.486645]], [[-92.716102, 33.481195], [-92.71681837609634, 33.48243641485692], [-92.71635640493368, 33.48086297239698], [-92.716102, 33.481195]], [[-92.72167645264597, 33.473064824497214], [-92.722026, 33.472584], [-92.720825, 33.466558], [-92.72167645264597, 33.473064824497214]], [[-92.6432, 33.407037], [-92.645761, 33.40583], [-92.64587072988664, 33.405525142766976], [-92.6432, 33.407037]], [[-92.64602975503198, 33.40508333090264], [-92.646699, 33.403224], [-92.64551375637014, 33.39937366024993], [-92.64602975503198, 33.40508333090264]], [[-92.64496597148819, 33.39759414601986], [-92.644784, 33.397003], [-92.64400626456879, 33.396758220394915], [-92.64496597148819, 33.39759414601986]], [[-92.64310743652977, 33.396475328856745], [-92.642042, 33.39614], [-92.635485, 33.397653], [-92.64310743652977, 33.396475328856745]], [[-92.589897, 33.402613], [-92.59032669072204, 33.40260251077232], [-92.586407, 33.399455], [-92.589897, 33.402613]], [[-92.581979, 33.379806], [-92.581015, 33.374016], [-92.58072829445913, 33.373831255515476], [-92.581979, 33.379806]], [[-92.578324, 33.372282], [-92.574169, 33.372938], [-92.5741048371265, 33.37305715062406], [-92.578324, 33.372282]]]}}]}