{"type": "FeatureCollection", "features": [{"type": "Feature", "properties": {"slug": "campo-grande", "members": 1, "country": "Brazil", "input_hash": "00e165547dcd1bc9"}, "geometry": {"type": "Polygon", "coordinates": [[[-54.7684122, -20.3184526], [-54.7615989, -20.481685], [-54.7707157, -20.4826673], [-54.7852232, -20.5015311], [-54.7917778, -20.5261569], [-54.786, -20.547], [-54.794, -20.568], [-54.765, -20.623], [-54.776, -20.643], [-54.814, -20.659], [-54.827, -20.677], [-54.8538816, -20.6834513], [-54.831, -20.724], [-54.824, -20.776], [-54.816, -20.739], [-54.766, -20.692], [-54.75, -20.691], [-54.7225923, -20.7122609], [-54.7247942, -20.7205707], [-54.7122763, -20.7307956], [-54.7193705, -20.7313537], [-54.7211856, -20.7444375], [-54.6952732, -20.7714599], [-54.7085651, -20.7930036], [-54.6966305, -20.7955176], [-54.7021913, -20.8013814], [-54.6951924, -20.8173449], [-54.7061751, -20.8202877], [-54.7104855, -20.8299062], [-54.6946368, -20.8262982], [-54.7058138, -20.833722], [-54.6926594, -20.8452772], [-54.6988786, -20.8486477], [-54.690785, -20.8562643], [-54.6948713, -20.8598347], [-54.686847, -20.859942], [-54.6834523, -20.8739757], [-54.6743322, -20.8700365], [-54.6833687, -20.8897429], [-54.6438782, -20.8947831], [-54.6370623, -20.8894833], [-54.636861, -20.9053299], [-54.6201363, -20.9117123], [-54.6044827, -20.9030894], [-54.6041683, -20.9174919], [-54.5898078, -20.9184329], [-54.589962, -20.9265722], [-54.5801821, -20.9273161], [-54.5656223, -20.9503263], [-54.5374279, -20.9669442], [-54.5264733, -20.9576353], [-54.5278733, -20.9736763], [-54.51429, -20.9810868], [-54.5162135, -20.9986584], [-54.4975968, -20.9942509], [-54.4926108, -21.0048954], [-54.4641708, -21.008677], [-54.4505193, -21.0252718], [-54.4265731, -21.0257748], [-54.4312476, -21.0344705], [-54.4085436, -21.0422738], [-54.4170671, -21.0537449], [-54.393145, -21.0615691], [-54.3914956, -21.0834888], [-54.3770177, -21.1066075], [-54.3465696, -21.102995], [-54.3387762, -21.1214042], [-54.3295917, -21.1148603], [-54.3169169, -21.1319042], [-54.2925949, -21.1396084], [-54.2985556, -21.1550934], [-54.2915888, -21.1588089], [-54.3065893, -21.1659141], [-54.2667129, -21.1826423], [-54.2749726, -21.1957795], [-54.2598694, -21.2053975], [-54.2654303, -21.2342648], [-54.2731417, -21.2378232], [-54.2645667, -21.2439912], [-54.2592332, -21.2354715], [-54.2515694, -21.257401], [-54.2228994, -21.2596646], [-54.2238961, -21.2726134], [-54.2339526, -21.266522], [-54.238909, -21.2717181], [-54.2352962, -21.2912743], [-54.2159764, -21.2854439], [-54.2218393, -21.29812], [-54.2009988, -21.298446], [-54.2089468, -21.3144547], [-54.2014058, -21.3158755], [-54.1948014, -21.340394], [-54.1713185, -21.3494756], [-54.1306202, -21.4022148], [-54.1065895, -21.4079562], [-54.1108797, -21.4160879], [-54.1010597, -21.4188741], [-54.0998844, -21.4395418], [-54.0846888, -21.4414428], [-54.0806041, -21.454528], [-54.0660479, -21.4542811], [-54.0642946, -21.4698337], [-54.0446739, -21.4682618], [-54.0349797, -21.4867774], [-54.0131975, -21.501291], [-54.0072393, -21.4959166], [-54.0108181, -21.50879], [-53.9938733, -21.513566], [-53.9813231, -21.5373639], [-53.9652097, -21.5320486], [-53.9606634, -21.5415375], [-53.9413366, -21.545263], [-53.9224731, -21.5398884], [-53.8734667, -21.5591633], [-53.8753787, -21.5642741], [-53.8480976, -21.5664751], [-53.8373897, -21.5522352], [-53.8261703, -21.5567817], [-53.8266196, -21.5457353], [-53.820391, -21.5443332], [-53.8136568, -21.5584652], [-53.795733, -21.5677162], [-53.7720731, -21.5677365], [-53.76857, -21.5570263], [-53.7605108, -21.5800108], [-53.7578179, -21.570272], [-53.7397482, -21.5671772], [-53.7369092, -21.5740115], [-53.7446305, -21.5785246], [-53.7374712, -21.5845441], [-53.7177857, -21.5808233], [-53.7256812, -21.5704914], [-53.7060354, -21.5653756], [-53.6983825, -21.5794989], [-53.695988, -21.5568231], [-53.6737165, -21.551854], [-53.6545217, -21.565193], [-53.6434442, -21.5602866], [-53.6380518, -21.5796414], [-53.6278055, -21.5683416], [-53.6169553, -21.5714473], [-53.6144052, -21.5612045], [-53.602976, -21.5630389], [-53.5999029, -21.5535485], [-53.6111825, -21.5479481], [-53.6032674, -21.5349012], [-53.6177396, -21.5194051], [-53.6057169, -21.5018862], [-53.6181977, -21.4808805], [-53.6121903, -21.4784211], [-53.6393707, -21.4613682], [-53.6325672, -21.4612951], [-53.6391107, -21.4568989], [-53.6359888, -21.4467141], [-53.6242261, -21.4372594], [-53.6299521, -21.4356552], [-53.6273364, -21.4229295], [-53.6171882, -21.4175152], [-53.6233314, -21.4104903], [-53.6145444, -21.3956359], [-53.6144303, -21.3817401], [-53.6208754, -21.3817555], [-53.6165109, -21.3631514], [-53.6371912, -21.3402239], [-53.6410922, -21.3011797], [-53.6794404, -21.2365726], [-53.6852326, -21.1777368], [-53.7268266, -21.145321], [-53.7265359, -21.1322019], [-53.7391454, -21.1173884], [-53.7352515, -21.1069612], [-53.7531565, -21.1026079], [-53.7587851, -21.079945], [-53.786323, -21.0691875], [-53.8039858, -21.0738662], [-53.8280689, -21.0500475], [-53.848027, -21.0437204], [-53.8509965, -21.0191795], [-53.8440694, -21.0164541], [-53.8620792, -20.9841992], [-53.8883824, -20.979026], [-53.9086575, -20.9581757], [-53.9542456, -20.9602489], [-53.9770592, -20.9501529], [-54.0044574, -20.9226542], [-54.0042406, -20.8924307], [-54.0183333, -20.8777794], [-54.0231644, -20.8544022], [-54.0644282, -20.8368257], [-54.0919431, -20.7977691], [-54.1111119, -20.7851922], [-54.1274631, -20.7883444], [-54.1562356, -20.7742442], [-54.1721871, -20.7523704], [-54.1751554, -20.7258259], [-54.203, -20.696], [-54.2066294, -20.6749557], [-54.1770007, -20.60103], [-54.1956392, -20.5404822], [-54.181789, -20.4915249], [-54.184704, -20.464595], [-54.2023386, -20.4806523], [-54.2186286, -20.4792819], [-54.2223837, -20.4882469], [-54.2316963, -20.4846891], [-54.242511, -20.4956838], [-54.2945338, -20.4940166], [-54.3021778, -20.4807414], [-54.3358618, -20.4783639], [-54.3646261, -20.4606633], [-54.3831637, -20.4309313], [-54.4186061, -20.4220038], [-54.445134, -20.3970051], [-54.4897272, -20.3922554], [-54.4973701, -20.3334825], [-54.5170963, -20.2856091], [-54.6077438, -20.2527615], [-54.6160596, -20.2585047], [-54.6470251, -20.250377], [-54.6517943, -20.2347059], [-54.676888, -20.215585], [-54.706072, -20.202697], [-54.7193202, -20.2047734], [-54.7249411, -20.1938752], [-54.7413776, -20.2014316], [-54.7484356, -20.1935426], [-54.7701275, -20.1919194], [-54.7815458, -20.172669], [-54.8481966, -20.1672357], [-54.8593873, -20.1739796], [-54.8623215, -20.1996888], [-54.8793786, -20.2086407], [-54.9140001, -20.2073325], [-54.9235607, -20.2280826], [-54.917742, -20.2435499], [-54.9240856, -20.2479326], [-54.9048641, -20.2478579], [-54.8912105, -20.2675106], [-54.8810981, -20.2657735], [-54.8556027, -20.2807585], [-54.8203416, -20.2826546], [-54.8174108, -20.302361], [-54.7926698, -20.3115726], [-54.7780963, -20.3056607], [-54.7797812, -20.3151788], [-54.7684122, -20.3184526]]]}}]}