{"type":"FeatureCollection","features":[{"type":"Feature","properties":{"slug":"campina-grande","member_count":19,"matched_count":19,"unmatched":[],"source":"Overture Maps division_area (CC-BY 4.0)"},"geometry":{"type":"Polygon","coordinates":[[[-35.828,-7.751],[-35.8737212,-7.7500553],[-35.883,-7.772],[-35.903,-7.791],[-35.933,-7.784],[-35.97,-7.789],[-35.979,-7.802],[-35.992,-7.8],[-35.998,-7.813],[-36.021471,-7.8101961],[-36.0419921,-7.7936895],[-36.0538725,-7.801361],[-36.0718317,-7.7802214],[-36.1252779,-7.7829164],[-36.1200395,-7.7437796],[-36.1022367,-7.7195744],[-36.1307769,-7.6688839],[-36.1257751,-7.644875],[-36.1319903,-7.6399742],[-36.1149921,-7.6410813],[-36.111421,-7.6235622],[-36.103758,-7.6305563],[-36.0956674,-7.6156458],[-36.071303,-7.6142036],[-36.0717502,-7.6039998],[-36.0753915,-7.5984493],[-36.1051337,-7.6027458],[-36.1302294,-7.6130301],[-36.1367951,-7.6240362],[-36.1423057,-7.6206888],[-36.1566364,-7.6387919],[-36.1900797,-7.6389285],[-36.1947705,-7.6475057],[-36.2038122,-7.6153383],[-36.2187438,-7.5979506],[-36.2105833,-7.5881484],[-36.2262579,-7.5521023],[-36.2151752,-7.4447148],[-36.1925698,-7.4242193],[-36.1924169,-7.396877],[-36.1757204,-7.3936201],[-36.1722312,-7.3812492],[-36.1460439,-7.3915057],[-36.1428302,-7.3557557],[-36.1503958,-7.3453937],[-36.1757231,-7.3474176],[-36.2023634,-7.3629903],[-36.2117214,-7.355458],[-36.2259056,-7.369984],[-36.2372212,-7.3685016],[-36.2335768,-7.3600205],[-36.2409152,-7.3550985],[-36.2518859,-7.3628304],[-36.2726459,-7.358108],[-36.2812598,-7.3698323],[-36.3457226,-7.3678653],[-36.3304387,-7.3054494],[-36.326,-7.188],[-36.1686958,-7.2016566],[-36.1416612,-7.1665804],[-36.1083841,-7.1518343],[-36.0324039,-7.1738808],[-36.033,-7.166],[-36.0253522,-7.1663737],[-35.979,-7.1],[-35.9662342,-7.1127527],[-35.9381676,-7.1095376],[-35.9111255,-7.1020904],[-35.895155,-7.0855579],[-35.8867283,-7.0905019],[-35.8909588,-7.0977419],[-35.8642481,-7.1198145],[-35.8428289,-7.1166869],[-35.8274568,-7.1247772],[-35.8126415,-7.1023786],[-35.7530428,-7.1084699],[-35.7116766,-7.0888191],[-35.680412,-7.1489574],[-35.6621657,-7.1390469],[-35.6478809,-7.1454896],[-35.6276697,-7.1324679],[-35.6051495,-7.1694164],[-35.6584488,-7.1900106],[-35.6712994,-7.2088309],[-35.6984915,-7.2188211],[-35.7041419,-7.2602829],[-35.7451491,-7.3422764],[-35.7317757,-7.3366388],[-35.6413057,-7.3424882],[-35.6369019,-7.3307574],[-35.618746,-7.3328595],[-35.5370612,-7.3857549],[-35.546026,-7.4338546],[-35.5398363,-7.4336366],[-35.545511,-7.4463014],[-35.5384287,-7.4527714],[-35.5454497,-7.453903],[-35.5493848,-7.4678221],[-35.4929587,-7.4899694],[-35.5378967,-7.584216],[-35.5278526,-7.5902108],[-35.5151939,-7.585021],[-35.5180992,-7.6064311],[-35.5258108,-7.6075649],[-35.5316871,-7.6216661],[-35.5150704,-7.6432472],[-35.5508223,-7.6614442],[-35.5865984,-7.650271],[-35.6193756,-7.6621679],[-35.6227586,-7.6572054],[-35.6263608,-7.6648567],[-35.6188852,-7.6764772],[-35.6464294,-7.695248],[-35.6851732,-7.7022684],[-35.7,-7.691],[-35.713,-7.707],[-35.743,-7.713],[-35.747,-7.723],[-35.828,-7.751]]]}}]}