{"type": "FeatureCollection", "features": [{"type": "Feature", "properties": {"slug": "campana", "members": 1, "country": "Argentina", "input_hash": "45e83ffc9b40a372"}, "geometry": {"type": "Polygon", "coordinates": [[[-58.978016, -34.3202265], [-58.9173579, -34.3807081], [-58.9212358, -34.3715721], [-58.9077557, -34.3599661], [-58.9179986, -34.3521863], [-58.9148758, -34.3206053], [-58.8808517, -34.2978862], [-58.8779949, -34.2747033], [-58.8637168, -34.2775743], [-58.8581156, -34.261957], [-58.8085055, -34.2815547], [-58.8000132, -34.2767285], [-58.77578, -34.285406], [-58.7764144, -34.2737224], [-58.803032, -34.2370393], [-58.798594, -34.231266], [-58.7121471, -34.2483867], [-58.7110614, -34.2195974], [-58.6946734, -34.2009056], [-58.6916165, -34.1723571], [-58.7466899, -34.1658394], [-58.7469642, -34.1548326], [-58.7645869, -34.1444379], [-58.7641447, -34.1264816], [-58.8046454, -34.0815387], [-58.6739326, -34.0272123], [-58.7632084, -33.944428], [-58.8204267, -33.9542359], [-58.8460679, -33.9480253], [-58.8627794, -33.957521], [-58.9662444, -33.9607185], [-59.0005402, -34.0878199], [-59.009287, -34.0985516], [-58.9788355, -34.1122673], [-58.9725608, -34.1294311], [-59.1025149, -34.1980817], [-59.1057866, -34.2133133], [-59.0918035, -34.2281665], [-59.0783496, -34.2245797], [-59.057932, -34.2410132], [-59.0623074, -34.2475043], [-59.0150604, -34.2951764], [-58.978016, -34.3202265]]]}}]}