{"type": "FeatureCollection", "features": [{"type": "Feature", "properties": {"slug": "canterbury", "members": 19, "country": "United Kingdom", "input_hash": "95b864e9c1a2b314"}, "geometry": {"type": "Polygon", "coordinates": [[[1.0169555, 51.3129312], [0.9719331, 51.3382403], [0.9581206, 51.3379498], [0.9372021, 51.3587659], [0.9644627, 51.3745932], [0.9713287, 51.3673542], [0.9645488, 51.3566699], [0.9859589, 51.3552101], [1.0351996, 51.3673545], [1.0343145, 51.3732418], [1.0530703, 51.3677641], [1.2240395, 51.3819444], [1.2292453, 51.3651408], [1.2128458, 51.3660391], [1.2137853, 51.3568105], [1.2500695, 51.3293306], [1.2309159, 51.3317724], [1.2341449, 51.3261208], [1.2201874, 51.3230085], [1.2293055, 51.3159949], [1.2050554, 51.3008046], [1.1999718, 51.2915685], [1.212317, 51.2826841], [1.1947938, 51.2693128], [1.192612, 51.2571844], [1.211516, 51.2524221], [1.1855187, 51.2178156], [1.222164, 51.2073902], [1.1945472, 51.1841397], [1.1808089, 51.1904753], [1.1634145, 51.184211], [1.1536, 51.1909075], [1.1476316, 51.1771875], [1.1160029, 51.187797], [1.1181161, 51.1963243], [1.1089416, 51.1869586], [1.0911681, 51.189013], [1.0582098, 51.2050063], [1.0547324, 51.1885874], [1.0398074, 51.1821854], [1.003949, 51.1800882], [0.9898423, 51.1879218], [1.0028844, 51.1973871], [1.0052942, 51.2092871], [0.9861441, 51.2358654], [0.9981718, 51.2513629], [0.9732489, 51.268592], [1.0059374, 51.2837794], [1.0066289, 51.3096334], [1.0169555, 51.3129312]]]}}]}