{"type": "FeatureCollection", "features": [{"type": "Feature", "properties": {"slug": "cape-town", "members": 3, "country": "South Africa", "input_hash": "48aba9a14a194f7b"}, "geometry": {"type": "MultiPolygon", "coordinates": [[[[18.4375307, -34.3374621], [18.4396171, -34.3377479], [18.4377583, -34.3381023], [18.4375307, -34.3374621]]], [[[18.5823188, -34.138586], [18.5823373, -34.1355824], [18.5830513, -34.1386808], [18.5823188, -34.138586]]], [[[18.3266868, -34.0577022], [18.3265215, -34.059073], [18.326004, -34.0587711], [18.3266868, -34.0577022]]], [[[18.9439, -34.13824], [18.965205, -34.14], [18.96382, -34.15294], [18.98027, -34.15499], [18.96248, -34.17772], [18.95426, -34.17363], [18.95443, -34.18381], [18.9310049, -34.1958613], [18.92822, -34.20673], [18.89944, -34.21686], [18.89293, -34.23428], [18.87534, -34.2294], [18.88023, -34.24818], [18.85018, -34.27033], [18.85306, -34.23874], [18.83026, -34.21714], [18.83374, -34.2117], [18.81835, -34.19], [18.83085, -34.17616], [18.8680774, -34.15887], [18.8000496, -34.093927], [18.7394866, -34.0756057], [18.64686, -34.07279], [18.4973985, -34.0996652], [18.46843, -34.10953], [18.4341643, -34.1372077], [18.439866, -34.1502253], [18.4251296, -34.1841515], [18.42913, -34.19197], [18.4377899, -34.18475], [18.45409, -34.1978599], [18.47716, -34.23267], [18.4775699, -34.25469], [18.4665399, -34.26724], [18.47493, -34.2786], [18.4606999, -34.3192], [18.47177, -34.34037], [18.4979465, -34.3571379], [18.47209, -34.35826], [18.4569143, -34.3386474], [18.42828, -34.33124], [18.40059, -34.30844], [18.40488, -34.30341], [18.39681, -34.28843], [18.37946, -34.27298], [18.38276, -34.25628], [18.36895, -34.19315], [18.353439, -34.1776166], [18.33796, -34.17685], [18.31856, -34.1472], [18.3488792, -34.1218993], [18.34972, -34.09076], [18.36877, -34.06271], [18.3595319, -34.0470934], [18.3488376, -34.0471731], [18.34028, -34.06159], [18.30722, -34.03951], [18.31745, -34.03017], [18.31076, -34.0277], [18.3304766, -34.0241106], [18.3441674, -33.9910554], [18.3708347, -33.9740982], [18.3773023, -33.9220984], [18.3984253, -33.9006077], [18.41208, -33.8988], [18.43451, -33.8976], [18.4542817, -33.9121826], [18.4662711, -33.9119814], [18.4832125, -33.8907754], [18.4886518, -33.8529348], [18.44399, -33.76564], [18.43524, -33.73165], [18.44434, -33.71361], [18.4318721, -33.6796797], [18.4213657, -33.6771723], [18.42685, -33.66997], [18.39461, -33.6227], [18.37721, -33.61851], [18.367705, -33.6000381], [18.35669, -33.5986], [18.3606253, -33.5879834], [18.3430519, -33.5708932], [18.34132, -33.55859], [18.36039, -33.54888], [18.36915, -33.52529], [18.38369, -33.51167], [18.426163, -33.511183], [18.455458, -33.471276], [18.49575, -33.48113], [18.52451, -33.50364], [18.52416, -33.52523], [18.56403, -33.5235], [18.57642, -33.53148], [18.57996, -33.55772], [18.56859, -33.56209], [18.57437, -33.5735], [18.61799, -33.58436], [18.627, -33.62459], [18.67085, -33.64742], [18.68974, -33.66523], [18.69267, -33.68127], [18.71187, -33.67587], [18.73673, -33.68703], [18.752, -33.67683], [18.76322, -33.64892], [18.7780329, -33.64911], [18.81825, -33.59519], [18.83631, -33.60441], [18.83931, -33.57763], [18.85588, -33.56915], [18.8623, -33.57541], [18.89278, -33.57152], [18.89972, -33.55107], [18.93809, -33.546], [18.93141, -33.52514], [18.93994, -33.52141], [18.93801, -33.47007], [18.95419, -33.46195], [18.94859, -33.45576], [18.95967, -33.44242], [18.95555, -33.42991], [18.97001, -33.42992], [18.96731, -33.42153], [18.98252, -33.40667], [18.97809, -33.39957], [18.99253, -33.39411], [18.99314, -33.38225], [18.98468, -33.3791], [18.99294, -33.3539], [18.97917, -33.34166], [18.98993, -33.3316], [18.98037, -33.32865], [18.97839, -33.31845], [18.99741, -33.30763], [18.97946, -33.29684], [18.96459, -33.26793], [18.95086, -33.26551], [18.9474, -33.23953], [18.95644, -33.2336], [18.95712, -33.22176], [18.94345, -33.20864], [18.9471, -33.20236], [18.93188, -33.20107], [18.95647, -33.18808], [18.95597, -33.1674], [18.9801, -33.15211], [19.05095, -33.14204], [19.08956, -33.11407], [19.1459869, -33.1062029], [19.17299, -33.09192], [19.17736, -33.06001], [19.15371, -32.98404], [19.18615, -32.86816], [19.18443, -32.82707], [19.17064, -32.79583], [19.17177, -32.73682], [19.20864, -32.73096], [19.2048, -32.71114], [19.1376, -32.6046], [19.15638, -32.60432], [19.14858, -32.58568], [19.15917, -32.57193], [19.2231, -32.57467], [19.2647, -32.58872], [19.32005, -32.57464], [19.34125, -32.58305], [19.35693, -32.61636], [19.39612, -32.60666], [19.4379, -32.62585], [19.44127, -32.63811], [19.45328, -32.62566], [19.45221, -32.60776], [19.47559, -32.59692], [19.486805, -32.56544], [19.49917, -32.61209], [19.52825, -32.67324], [19.58724, -32.64778], [19.60495, -32.62946], [19.612, -32.56655], [19.60712, -32.54538], [19.62647, -32.50204], [19.6213335, -32.4702607], [19.6542833, -32.4384535], [19.67974, -32.46351], [19.7292826, -32.4419868], [19.7071063, -32.4202284], [19.7307615, -32.4103637], [19.7354639, -32.3860824], [19.76413, -32.41112], [19.8023431, -32.3933333], [19.8176965, -32.3603125], [19.8493974, -32.3660587], [19.8739234, -32.3828103], [19.9376834, -32.3770847], [20.03862, -32.29644], [20.05361, -32.25231], [20.09696, -32.25024], [20.11411, -32.21403], [20.13591, -32.19232], [20.18095, -32.18449], [20.16636, -32.22749], [20.2406066, -32.2241459], [20.2530132, -32.3112475], [20.21603, -32.30316], [20.16352, -32.35102], [20.1711816, -32.3803824], [20.1318532, -32.4210121], [20.0801816, -32.3975004], [20.09681, -32.50296], [20.12279, -32.55698], [20.114723, -32.570225], [20.136895, -32.61098], [20.14119, -32.64374], [20.18141, -32.6681], [20.19172, -32.68576], [20.18761, -32.75267], [20.21904, -32.78474], [20.25729, -32.79966], [20.2999, -32.80496], [20.34165, -32.85781], [20.35717, -32.86408], [20.36388, -32.91081], [20.38005, -32.90185], [20.4386, -32.94006], [20.43468, -32.97192], [20.39496, -32.99324], [20.38375, -33.03628], [20.33426, -33.03579], [20.30255, -33.068], [20.27905, -33.06389], [20.31849, -33.12089], [20.30644, -33.15934], [20.25125, -33.14991], [20.20218, -33.17011], [20.25797, -33.18845], [20.24712, -33.24579], [20.23562, -33.26242], [20.25118, -33.29151], [20.20351, -33.30274], [20.23946, -33.30992], [20.20917, -33.3798], [20.36804, -33.36627], [20.36629, -33.38164], [20.3456, -33.39432], [20.34886, -33.40487], [20.33561, -33.42564], [20.38979, -33.42405], [20.41669, -33.43552], [20.42755, -33.44892], [20.38608, -33.45917], [20.33622, -33.48782], [20.49802, -33.46387], [20.50166, -33.49846], [20.47563, -33.51344], [20.4782, -33.52778], [20.5476, -33.51952], [20.54937, -33.5287], [20.57713, -33.5281], [20.50315, -33.63702], [20.535172, -33.660713], [20.503943, -33.682042], [20.469152, -33.681952], [20.472821, -33.729169], [20.44789, -33.77397], [20.51447, -33.80262], [20.4805, -33.82276], [20.45018, -33.80682], [20.42663, -33.81095], [20.44146, -33.81977], [20.43535, -33.8264], [20.44248, -33.85787], [20.46991, -33.8897], [20.4360776, -33.9576466], [20.32443, -33.94957], [20.23437, -33.89786], [20.22246, -33.91282], [20.25839, -33.94173], [20.32802, -33.97305], [20.31781, -33.99365], [20.32415, -34.0018], [20.30711, -34.00563], [20.30714, -34.02937], [20.29076, -34.04194], [20.27919, -34.03958], [20.29888, -34.06033], [20.28578, -34.06503], [20.28615, -34.0789], [20.30566, -34.07728], [20.29134, -34.0913], [20.27013, -34.09016], [20.2726149, -34.1058721], [20.2497122, -34.1058186], [20.24676, -34.11726], [20.2218, -34.1111], [20.22997, -34.0952], [20.20314, -34.08843], [20.197402, -34.100475], [20.18728, -34.102], [20.13761, -34.08236], [20.14926, -34.07665], [20.20217, -34.07856], [20.19609, -34.04], [20.17781, -34.02983], [20.14169, -34.05921], [20.0085, -34.0639], [20.00746, -34.09392], [19.98654, -34.07817], [19.90622, -34.07616], [19.8855, -34.06616], [19.75522, -34.05441], [19.73498, -34.04116], [19.70014, -34.0464], [19.68066, -34.00914], [19.6406194, -34.0027852], [19.58983, -34.01236], [19.56624, -34.00198], [19.5333, -33.96953], [19.50689, -33.9717], [19.4558, -33.99988], [19.42674, -33.99318], [19.36178, -33.97154], [19.34856, -33.9552], [19.32505, -33.95208], [19.2974, -33.88968], [19.27819, -33.879455], [19.25839, -33.88311], [19.26525, -33.90029], [19.2438, -33.89745], [19.20658, -33.95041], [19.191, -33.94722], [19.16459, -33.97142], [19.14555, -33.95595], [19.12606, -33.96172], [19.0264401, -34.0206671], [18.9846427, -34.0359403], [19.0048242, -34.0755669], [18.9668366, -34.102374], [18.9439, -34.13824]], [[18.7513868777704, -33.893504336915825], [18.751391, -33.893509], [18.75291, -33.884522], [18.7513868777704, -33.893504336915825]], [[18.9621, -34.01621], [18.9553, -34.01011], [18.95416374567091, -34.00948354053814], [18.9621, -34.01621]], [[18.736919, -33.940552], [18.73984, -33.9384], [18.73983159014701, -33.93769212237406], [18.736919, -33.940552]]], [[[18.3735877, -33.7926468], [18.3816497, -33.8176678], [18.3605912, -33.8150462], [18.356615, -33.8019344], [18.3631374, -33.7901601], [18.3735877, -33.7926468]]]]}}]}