{"type":"FeatureCollection","features":[{"type":"Feature","properties":{"slug":"carbondale","member_count":49,"matched_count":3,"unmatched":["Carbondale city (US-IL, type='City')","Murphysboro city (US-IL, type='City')","Balance of Murphysboro township (US-IL, type='Balance')","Balance of Makanda township (US-IL, type='Balance')","Balance of Carbondale township (US-IL, type='Balance')","Balance of Somerset township (US-IL, type='Balance')","De Soto village (US-IL, type='Village')","Murphysboro city (US-IL, type='City')","Balance of Bradley township (US-IL, type='Balance')","Balance of De Soto township (US-IL, type='Balance')","Levan township (US-IL, type='Township')","Elkville village (US-IL, type='Village')","Pomona township (US-IL, type='Township')","Ava city (US-IL, type='City')","Balance of Elk township (US-IL, type='Balance')","Makanda village (US-IL, type='Village')","Balance of Sand Ridge township (US-IL, type='Balance')","Ora township (US-IL, type='Township')","Grand Tower city (US-IL, type='City')","Kinkaid township (US-IL, type='Township')","Balance of Vergennes township (US-IL, type='Balance')","Dowell village (US-IL, type='Village')","Campbell Hill village (US-IL, type='Village')","Vergennes village (US-IL, type='Village')","Fountain Bluff township (US-IL, type='Township')","Gorham village (US-IL, type='Village')","Degognia township (US-IL, type='Township')","Balance of Grand Tower township (US-IL, type='Balance')","Carbondale city (US-IL, type='City')","Carbondale city (US-IL, type='City')","Balance of Williamson County (US-IL, type='Balance')","Herrin city (US-IL, type='City')","Carterville city (US-IL, type='City')","Johnston City city (US-IL, type='City')","Cambria village (US-IL, type='Village')","Crainville village (US-IL, type='Village')","Energy village (US-IL, type='Village')","Hurst city (US-IL, type='City')","Pittsburg village (US-IL, type='Village')","Creal Springs city (US-IL, type='City')","Bush village (US-IL, type='Village')","Spillertown village (US-IL, type='Village')","Colp village (US-IL, type='Village')","Freeman Spur village (US-IL, type='Village')","Stonefort village (US-IL, type='Village')","Carbondale city (US-IL, type='City')"],"source":"Overture Maps division_area (CC-BY 4.0)"},"geometry":{"type":"MultiPolygon","coordinates":[[[[-89.1506157,37.864409],[-88.7067891,37.863301],[-88.7085486,37.5992382],[-89.4533836,37.6001058],[-89.4477786,37.5979819],[-89.453143,37.5796184],[-89.466833,37.5633595],[-89.5020665,37.570537],[-89.5036115,37.5782239],[-89.5213451,37.5721557],[-89.5183491,37.5837035],[-89.4878279,37.580458],[-89.4757574,37.5926364],[-89.5170558,37.6391112],[-89.5134408,37.6885985],[-89.5273219,37.6989855],[-89.5736856,37.7094393],[-89.6017304,37.728091],[-89.6168401,37.7494831],[-89.6505297,37.7453074],[-89.6649928,37.7511192],[-89.6606172,37.7862017],[-89.680826,37.822467],[-89.664416,37.828977],[-89.656466,37.858567],[-89.5950508,37.9552973],[-89.1507837,37.951434],[-89.1506157,37.864409]]],[[[-89.1381741,38.8240956],[-88.6951627,38.8263019],[-88.6991027,38.4748013],[-89.144447,38.474136],[-89.1381741,38.8240956]]]]}}]}