{"type":"FeatureCollection","features":[{"type":"Feature","properties":{"slug":"carlsbad-nm","member_count":6,"matched_count":1,"unmatched":["Carlsbad city (US-NM, type='City')","Balance of Eddy County (US-NM, type='Balance')","Artesia city (US-NM, type='City')","Loving village (US-NM, type='Village')","Hope village (US-NM, type='Village')"],"source":"Overture Maps division_area (CC-BY 4.0)"},"geometry":{"type":"Polygon","coordinates":[[[-104.8476577,32.0003796],[-103.7228711,32.0002476],[-103.7227994,32.5223931],[-103.8143298,32.5223879],[-103.8146041,32.9650341],[-104.8416331,32.9631636],[-104.8420809,32.520538],[-104.8514171,32.5205353],[-104.8476577,32.0003796]]]}}]}