{"type": "FeatureCollection", "features": [{"type": "Feature", "properties": {"slug": "carlos-casares", "members": 1, "country": "Argentina", "input_hash": "5fa2a50d20acea7a"}, "geometry": {"type": "Polygon", "coordinates": [[[-61.2876877, -35.5732558], [-61.5319376, -35.3781619], [-61.7243019, -35.5366661], [-61.6583257, -35.5917761], [-61.648415, -35.5833836], [-61.5732324, -35.6427542], [-61.5999538, -35.6645705], [-61.5008673, -35.7446631], [-61.634572, -35.8526562], [-61.5427979, -35.9281998], [-61.5591762, -35.9420095], [-61.3934513, -36.0715006], [-61.333389, -36.0210595], [-61.2698127, -36.0710082], [-61.035588, -35.8759241], [-61.1011955, -35.824942], [-61.0314999, -35.7657573], [-61.1977611, -35.6346162], [-61.1884645, -35.6269387], [-61.2714204, -35.5600737], [-61.2876877, -35.5732558]]]}}]}