{"type": "FeatureCollection", "features": [{"type": "Feature", "properties": {"slug": "cartagena", "members": 8, "country": "Colombia", "input_hash": "60d762cc6d124bd2"}, "geometry": {"type": "MultiPolygon", "coordinates": [[[[-76.185579685, 9.379904235696186], [-76.18900016100002, 9.393139987695733], [-76.17258188, 9.396887638695645], [-76.17546586999998, 9.38061200069612], [-76.185579685, 9.379904235696186]]], [[[-75.87507056700002, 9.783405079683632], [-75.868893486, 9.780616351683678], [-75.87606042300001, 9.780083351683732], [-75.87507056700002, 9.783405079683632]]], [[[-75.85824399, 9.785667342683537], [-75.859234334, 9.785300489683545], [-75.85916011400002, 9.78648996368351], [-75.85824399, 9.785667342683537]]], [[[-75.726126196, 10.182299672671238], [-75.73750002000003, 10.172039436671582], [-75.74749375599998, 10.172372561671574], [-75.748878602, 10.18268926967126], [-75.726126196, 10.182299672671238]]], [[[-75.49747758799998, 10.14548263667237], [-75.573624494, 10.086428059674214], [-75.58074341100001, 10.125492893672998], [-75.564123698, 10.123587262673048], [-75.529486899, 10.16644355067173], [-75.54463154799998, 10.159681288671932], [-75.54301142700001, 10.173558017671509], [-75.55449318299998, 10.178277514671354], [-75.54216614299997, 10.179122795671345], [-75.53744664300001, 10.187505186671082], [-75.53955985300001, 10.175741663671435], [-75.520850117, 10.173352248671527], [-75.52464380200001, 10.221121260670053], [-75.53733602699998, 10.227214397669856], [-75.54622595299998, 10.216778631670184], [-75.546756039, 10.229443817669779], [-75.52281822999998, 10.236467091669569], [-75.542313278, 10.244446771669333], [-75.60260986399999, 10.20018169267068], [-75.62004165500002, 10.196775832670804], [-75.63759088400002, 10.177004725671416], [-75.637214525, 10.187980750671064], [-75.63866141, 10.17534860167145], [-75.66904340899998, 10.137605188672627], [-75.681103011, 10.1378997326726], [-75.67903773799998, 10.14275200767247], [-75.69040812499998, 10.13028451667286], [-75.70319208299998, 10.14097393267252], [-75.693916893, 10.149736163672241], [-75.696609642, 10.143816124672437], [-75.69016129699997, 10.142506878672469], [-75.68219573300001, 10.159605224671951], [-75.65360460900001, 10.163885532671799], [-75.65402206099998, 10.177494076671403], [-75.64776670499998, 10.177345279671398], [-75.63864220099998, 10.188724762671033], [-75.63024083699997, 10.190077599670994], [-75.60679752599998, 10.222014026670017], [-75.60435619100002, 10.236942176669558], [-75.58609779199998, 10.225679059669915], [-75.58810866699997, 10.235695388669592], [-75.62168646200001, 10.25082502866912], [-75.61284020199997, 10.26018638966884], [-75.583935021, 10.261569931668785], [-75.594604215, 10.267656933668604], [-75.588489482, 10.296087624667715], [-75.57862387799997, 10.299947512667618], [-75.58095947700002, 10.27908808766824], [-75.56149438400001, 10.263300760668724], [-75.55643276400002, 10.274889211668391], [-75.531890718, 10.279576748668244], [-75.53503050900002, 10.285546510668064], [-75.54446118499999, 10.281419093668182], [-75.528215531, 10.29128208266788], [-75.53047570400003, 10.304184808667474], [-75.52602884700002, 10.29411398766778], [-75.50312616000002, 10.301087943667595], [-75.51138486000002, 10.337314018666476], [-75.50402368300001, 10.342697002666306], [-75.511804149, 10.355132654665892], [-75.508981156, 10.374177876665348], [-75.516703328, 10.386339243664949], [-75.52631443799999, 10.385903314664967], [-75.52452989699998, 10.392082509664794], [-75.527439136, 10.385487688664979], [-75.52423923700002, 10.381170870665104], [-75.53744583999998, 10.393854468664738], [-75.52467142400002, 10.392169667664781], [-75.530319034, 10.397766506664565], [-75.524080879, 10.39655707066465], [-75.52402330299998, 10.404870278664394], [-75.53966831399998, 10.405856235664324], [-75.54909581099997, 10.422250091663853], [-75.545967964, 10.411899616664176], [-75.55456633, 10.39791800266456], [-75.544840523, 10.390337209664812], [-75.566424025, 10.396584404664631], [-75.55211734300002, 10.40903346166427], [-75.55404100599998, 10.425464314663742], [-75.510569046, 10.45636866666278], [-75.492999403, 10.484580054661903], [-75.502430322, 10.501484528661381], [-75.49563980800002, 10.536908207660312], [-75.51532438200002, 10.560499403659573], [-75.51267069, 10.57108151565925], [-75.46145941700001, 10.589702944658688], [-75.45153513000002, 10.62760689265753], [-75.39864376499997, 10.662792519656419], [-75.39424458899998, 10.68266888965583], [-75.31970080000002, 10.693773356655482], [-75.28340570400002, 10.708386173655034], [-75.26594100400001, 10.737392474654127], [-75.27012628099999, 10.757141751653538], [-75.27228431100002, 10.746090003653888], [-75.27122837799999, 10.779312861652853], [-75.261760036, 10.800689218652206], [-75.222372931, 10.795474682652381], [-75.23036363, 10.783157283652772], [-75.221408386, 10.772405761653088], [-75.24952656099998, 10.722965116654594], [-75.24195902399998, 10.654441823656699], [-75.223623933, 10.630810391657423], [-75.226878274, 10.587639463658753], [-75.23704498400002, 10.569719308659298], [-75.22296410400003, 10.552837823659816], [-75.23901447600002, 10.529099894660556], [-75.24200189896595, 10.504080119946808], [-75.23356815400001, 10.47928471466209], [-75.19041615700002, 10.467892529662409], [-75.17629700499998, 10.455211019662809], [-75.20954465699998, 10.437496694663366], [-75.21433904000003, 10.441902088663234], [-75.24242600399998, 10.432374885663515], [-75.250868222, 10.409959059664223], [-75.240714905, 10.394053450664698], [-75.244652976, 10.385897958664938], [-75.26542197600003, 10.38215689266508], [-75.28149655414714, 10.363646426245339], [-75.284784269, 10.340501984666364], [-75.29663280650033, 10.334192422735638], [-75.25769312, 10.318868534667006], [-75.25204918100002, 10.306239545667387], [-75.25818745100003, 10.296774588667702], [-75.23548935500003, 10.277608019668305], [-75.279919232, 10.236344358669562], [-75.27437576199998, 10.22413296766994], [-75.24875555199998, 10.208813409670428], [-75.256423, 10.191184818670967], [-75.27215128799998, 10.183238941671224], [-75.280288385, 10.160823286671938], [-75.26356361500001, 10.150714305672219], [-75.26369495199998, 10.13610500067265], [-75.24312140799998, 10.134254238672709], [-75.24565128, 10.095671251673918], [-75.29189846700001, 10.080492762674384], [-75.303778824, 10.092126683674024], [-75.359691812, 10.090509754674109], [-75.37777048700002, 10.071424631674676], [-75.39867167099999, 10.064469142674893], [-75.41455343000001, 10.033412004675855], [-75.43599183600003, 10.027677094676031], [-75.43674469799998, 10.017416846676342], [-75.45506037000001, 10.036669065675754], [-75.476120584, 10.041971225675574], [-75.52056037300002, 10.025835363676075], [-75.54481608999998, 10.046447139675452], [-75.49747758799998, 10.14548263667237]], [[-75.402183686, 10.223539055669967], [-75.4021580771173, 10.223495129536524], [-75.40111088700002, 10.227240096669853], [-75.402183686, 10.223539055669967]], [[-75.400956657086, 10.220470469219755], [-75.400805623, 10.220751097670059], [-75.40086386322167, 10.220857940054026], [-75.400956657086, 10.220470469219755]], [[-75.40737069, 10.216921866670177], [-75.40271354499998, 10.21720608867017], [-75.40239334409247, 10.21780103704799], [-75.40737069, 10.216921866670177]], [[-75.41488871500002, 10.214834757670232], [-75.410106999, 10.214541520670252], [-75.41002264273911, 10.214614903131153], [-75.41488871500002, 10.214834757670232]], [[-75.484563605, 10.154432369672099], [-75.47506003799998, 10.153361898672141], [-75.4743915825155, 10.153736457457716], [-75.484563605, 10.154432369672099]], [[-75.49410873099998, 10.14966923467223], [-75.49495298410297, 10.148620051417394], [-75.484563605, 10.154432369672099], [-75.49410873099998, 10.14966923467223]], [[-75.51719582800001, 10.161935359671851], [-75.50368139300002, 10.162469681671851], [-75.51728572989082, 10.161999604610571], [-75.51719582800001, 10.161935359671851]], [[-75.4557504, 10.31432726166718], [-75.4538909263067, 10.313867679607391], [-75.45594055204323, 10.31444037386397], [-75.4557504, 10.31432726166718]], [[-75.44174175359159, 10.310864925741441], [-75.44216598700001, 10.315704133667111], [-75.44235613445562, 10.311016774312362], [-75.44174175359159, 10.310864925741441]], [[-75.38376154674806, 10.271717089023054], [-75.38381927498578, 10.271821660343221], [-75.39148551900001, 10.276660232668304], [-75.38376154674806, 10.271717089023054]], [[-75.38448737937343, 10.269068025080353], [-75.38316057100002, 10.27062845666851], [-75.38364125586112, 10.271499189129592], [-75.38448737937343, 10.269068025080353]], [[-75.38776951245693, 10.259637482326902], [-75.386144537, 10.261682096668796], [-75.38586019481515, 10.265123518752796], [-75.38776951245693, 10.259637482326902]], [[-75.29348990099999, 10.70082085865525], [-75.29026997900002, 10.69778095265537], [-75.29371472887925, 10.702796720675462], [-75.29348990099999, 10.70082085865525]], [[-75.291219259, 10.660111197656503], [-75.29142642699998, 10.665445288656347], [-75.29124115826326, 10.660094931572992], [-75.291219259, 10.660111197656503]], [[-75.294142367, 10.65628582565663], [-75.29424353899998, 10.657864857656577], [-75.29417791655891, 10.656295548486627], [-75.294142367, 10.65628582565663]], [[-75.33975070600002, 10.631829321657374], [-75.33584575700002, 10.633924384657325], [-75.34035203456705, 10.632701491168936], [-75.33975070600002, 10.631829321657374]], [[-75.34056197799998, 10.632644517657372], [-75.34094860099998, 10.63064379865742], [-75.34039210630037, 10.632690616680838], [-75.34056197799998, 10.632644517657372]], [[-75.3423921568663, 10.631270090418441], [-75.34227333780287, 10.631404494372504], [-75.34232185000002, 10.6314361346574], [-75.3423921568663, 10.631270090418441]], [[-75.34322623700001, 10.627307854657555], [-75.34331682819446, 10.629086287397351], [-75.34412229399449, 10.627184012941655], [-75.34322623700001, 10.627307854657555]], [[-75.34646296612857, 10.621531249561343], [-75.34630041461224, 10.622039929589565], [-75.34650116300003, 10.621565820657702], [-75.34646296612857, 10.621531249561343]], [[-75.34344818945051, 10.616914446466732], [-75.343382668, 10.618743343657783], [-75.34434286200002, 10.616851323657833], [-75.34344818945051, 10.616914446466732]], [[-75.34352164319348, 10.614864135565893], [-75.34350938557172, 10.615206281990332], [-75.34359932900003, 10.614933619657906], [-75.34352164319348, 10.614864135565893]], [[-75.34208786237697, 10.613866704676068], [-75.34324712013965, 10.61461859540894], [-75.34214113051424, 10.61362937114373], [-75.34208786237697, 10.613866704676068]], [[-75.37482944300001, 10.553005702659812], [-75.36669572199997, 10.559428880659588], [-75.37488612117339, 10.552998602139168], [-75.37482944300001, 10.553005702659812]], [[-75.38431392130178, 10.551817507452345], [-75.37516521563056, 10.552963637780994], [-75.38075464000002, 10.55314020765982], [-75.38431392130178, 10.551817507452345]], [[-75.38732552017568, 10.549336854038502], [-75.38624956585836, 10.551098183173217], [-75.386964117, 10.550832641659868], [-75.38732552017568, 10.549336854038502]], [[-75.38623440200001, 10.545553411660048], [-75.38749776340352, 10.548623967972727], [-75.38774644900002, 10.547594699659978], [-75.38623440200001, 10.545553411660048]], [[-75.38780271600001, 10.54570557966004], [-75.3879919779715, 10.545081057714496], [-75.38623440200001, 10.545553411660048], [-75.38780271600001, 10.54570557966004]], [[-75.38816591930903, 10.543972762836477], [-75.38826725702518, 10.54417269874085], [-75.38835146399998, 10.543894834660096], [-75.38816591930903, 10.543972762836477]], [[-75.38016150300001, 10.547181438659978], [-75.3802549785119, 10.547139577305067], [-75.37900168639985, 10.546610723324779], [-75.38016150300001, 10.547181438659978]], [[-75.3711735650467, 10.542758710082838], [-75.37261253938887, 10.543466791622556], [-75.37117918792973, 10.542218348194588], [-75.3711735650467, 10.542758710082838]], [[-75.37122912400002, 10.532962016660418], [-75.37078718632428, 10.533804197316103], [-75.3716946265814, 10.532933954928366], [-75.37122912400002, 10.532962016660418]], [[-75.39579423499998, 10.51601399866095], [-75.39570115769472, 10.516291353588532], [-75.40055613099997, 10.518789502660868], [-75.39579423499998, 10.51601399866095]], [[-75.404143831, 10.510986140661098], [-75.40426154998254, 10.510448821602878], [-75.40055613099997, 10.518789502660868], [-75.404143831, 10.510986140661098]], [[-75.42297146121517, 10.40226929351018], [-75.42302936700003, 10.402270632664461], [-75.42468038099997, 10.395915059664642], [-75.42297146121517, 10.40226929351018]], [[-75.43751008739495, 10.39058980398451], [-75.437373278, 10.390527872664812], [-75.42468038099997, 10.395915059664642], [-75.43751008739495, 10.39058980398451]], [[-75.369901154983, 10.411069254116876], [-75.38294859299998, 10.410471169664198], [-75.370013405, 10.410988245664177], [-75.369901154983, 10.411069254116876]], [[-75.330948686, 10.420968931663877], [-75.33648018029353, 10.414410906957624], [-75.3358332433632, 10.413707713985419], [-75.330948686, 10.420968931663877]], [[-75.33005382599998, 10.411660584664162], [-75.33277863799998, 10.41038748766423], [-75.33000180046923, 10.411645430670546], [-75.33005382599998, 10.411660584664162]], [[-75.327402387, 10.410888273664195], [-75.3293684998612, 10.411460962905732], [-75.32738074149293, 10.410745872535212], [-75.327402387, 10.410888273664195]], [[-75.318638329, 10.403270275664433], [-75.31982316777598, 10.40321477673199], [-75.3184363152416, 10.40257761429762], [-75.318638329, 10.403270275664433]], [[-75.38022552799998, 10.29749265266769], [-75.37929143126924, 10.298366031581148], [-75.38388024699998, 10.298624625667644], [-75.38022552799998, 10.29749265266769]], [[-75.38889003364218, 10.281007042537883], [-75.38852230600003, 10.27858761366827], [-75.38714123428448, 10.27783919496897], [-75.38889003364218, 10.281007042537883]], [[-75.24788625345256, 10.505119178194123], [-75.24775708605165, 10.504733034298521], [-75.24410542800001, 10.507434116661218], [-75.24788625345256, 10.505119178194123]], [[-75.24772875172226, 10.50464832927035], [-75.247687713, 10.504525644661305], [-75.24729467178464, 10.504603649272504], [-75.24772875172226, 10.50464832927035]], [[-75.35785628899998, 10.53689864266028], [-75.345721709824, 10.532935469134163], [-75.34581698400001, 10.533168581660398], [-75.35785628899998, 10.53689864266028]], [[-75.315168439, 10.535144855660356], [-75.31690210241243, 10.525374382178924], [-75.31672365600002, 10.525514853660653], [-75.315168439, 10.535144855660356]], [[-75.31174560626756, 10.53341261582019], [-75.31117211600002, 10.527612626660595], [-75.31091496599998, 10.531529244660478], [-75.31174560626756, 10.53341261582019]], [[-75.31374719899998, 10.523567130660718], [-75.31100529999998, 10.521659692660787], [-75.30946064022204, 10.522168471566548], [-75.31374719899998, 10.523567130660718]], [[-75.30926336125255, 10.522104101511438], [-75.30902077453814, 10.521394106297475], [-75.30834905400002, 10.521805772660755], [-75.30926336125255, 10.522104101511438]], [[-75.30794641153064, 10.518249694224991], [-75.307917175, 10.51816412566088], [-75.30789310684955, 10.518163844305173], [-75.30794641153064, 10.518249694224991]], [[-75.29532826899998, 10.56290104365951], [-75.292517455, 10.555260824659756], [-75.2952866665435, 10.563261518888991], [-75.29532826899998, 10.56290104365951]], [[-75.294750292, 10.56790907465935], [-75.2952442696946, 10.563628877336802], [-75.29282512200001, 10.570431000659255], [-75.294750292, 10.56790907465935]], [[-75.29454527399997, 10.585338295658795], [-75.29217277999999, 10.581542161658948], [-75.29443956799905, 10.587679968512896], [-75.29454527399997, 10.585338295658795]], [[-75.30130611599998, 10.588277016658731], [-75.3012024538875, 10.58838187898127], [-75.30286327766541, 10.588474344961137], [-75.30130611599998, 10.588277016658731]], [[-75.30573361299997, 10.588838082658695], [-75.3056930535788, 10.588832942844439], [-75.31468898000003, 10.598114028658417], [-75.30573361299997, 10.588838082658695]]], [[[-75.57800015200002, 10.379570067665174], [-75.54101888999998, 10.362526540665707], [-75.538330794, 10.359270677665753], [-75.55133335900001, 10.356304679665861], [-75.53829986099998, 10.349165107666114], [-75.54298399599998, 10.341582077666315], [-75.549462721, 10.335822745666524], [-75.55809634500002, 10.345931511666192], [-75.55981431599997, 10.337131471666469], [-75.566384008, 10.34515977266619], [-75.580755952, 10.334728215666516], [-75.574494023, 10.327597374666746], [-75.58154166100002, 10.317903699667049], [-75.59153015200002, 10.32334487466687], [-75.59145625600001, 10.358008858665812], [-75.57800015200002, 10.379570067665174]]]]}}]}