{"type":"FeatureCollection","features":[{"type":"Feature","properties":{"slug":"catanzaro","member_count":81,"matched_count":81,"unmatched":[],"source":"Overture Maps division_area (CC-BY 4.0)"},"geometry":{"type":"MultiPolygon","coordinates":[[[[16.4171533,38.5938366],[16.3844043,38.6002954],[16.3698266,38.6103589],[16.3765847,38.621022],[16.3709632,38.6258483],[16.3290184,38.6406564],[16.3457002,38.6578699],[16.3447773,38.6681247],[16.3263475,38.6778329],[16.349201,38.7072636],[16.3384704,38.7206253],[16.3505095,38.7351215],[16.3704169,38.7425463],[16.3558947,38.7776272],[16.3599154,38.7921346],[16.3235221,38.7988238],[16.2980605,38.8216336],[16.2844588,38.8243088],[16.2571724,38.8198944],[16.2745214,38.8148828],[16.2788358,38.7917402],[16.2483262,38.8100558],[16.2132756,38.8105419],[16.2213537,38.8597397],[16.2173099,38.9229813],[16.1563178,38.9517838],[16.1370065,38.9885011],[16.0994382,39.0291372],[16.0957104,39.0488041],[16.1234559,39.0593276],[16.1437931,39.0491163],[16.1567188,39.0618521],[16.2142284,39.0828898],[16.2129748,39.1033767],[16.2340693,39.0922159],[16.2588136,39.1126243],[16.2868803,39.1006991],[16.2987992,39.1055227],[16.2995371,39.0991519],[16.3469559,39.110978],[16.3616961,39.0950557],[16.3936779,39.1039483],[16.3961044,39.0901806],[16.424559,39.0608402],[16.4425374,39.0696369],[16.4700456,39.0511723],[16.4830418,39.0575802],[16.4711011,39.0852828],[16.477372,39.0871229],[16.4780105,39.1078299],[16.5127273,39.1097647],[16.4791703,39.1222887],[16.4885952,39.1402604],[16.5012376,39.1417172],[16.5033757,39.1622369],[16.5223845,39.1624212],[16.5359769,39.1445547],[16.5641129,39.1662934],[16.5845882,39.1688541],[16.5891445,39.1845671],[16.6130213,39.1942391],[16.6285821,39.1627047],[16.6477277,39.1518852],[16.6693171,39.1560348],[16.6705235,39.1415047],[16.6809273,39.131371],[16.6382457,39.131728],[16.6531074,39.1265917],[16.6793162,39.0922474],[16.6996972,39.0897168],[16.7338142,39.0589416],[16.7623369,39.0677382],[16.8419384,39.0427724],[16.8651377,39.0181313],[16.898534,39.0010345],[16.8912268,38.9737868],[16.9205972,38.9525922],[16.9069209,38.9491141],[16.9048997,38.9369308],[16.8910047,38.9283047],[16.7808996,38.8974242],[16.6240291,38.8250191],[16.5681546,38.7678024],[16.5668288,38.765109],[16.5721596,38.7599969],[16.5705103,38.757438],[16.569279,38.7571015],[16.5690518,38.7565273],[16.5711158,38.7547165],[16.5629911,38.7515459],[16.5434594,38.727939],[16.534903,38.7096118],[16.5580572,38.6837302],[16.5569557,38.6468603],[16.5713926,38.5918284],[16.5823732,38.4692348],[16.5485078,38.4722523],[16.541064,38.4633398],[16.4806134,38.4918477],[16.4861748,38.5002108],[16.4579683,38.5129316],[16.4078214,38.5133171],[16.4063333,38.5210981],[16.4221568,38.520275],[16.4197903,38.5277119],[16.4409784,38.5373652],[16.4197376,38.5541918],[16.4347613,38.5710122],[16.4171533,38.5938366]]],[[[16.559066,38.7405708],[16.558957,38.7404819],[16.5588967,38.7406013],[16.559066,38.7405708]]],[[[16.5586949,38.7407257],[16.5585907,38.7410064],[16.5588446,38.7408972],[16.5586949,38.7407257]]],[[[16.5596739,38.7428754],[16.5596715,38.742969],[16.5597186,38.742947],[16.5596739,38.7428754]]],[[[16.5593892,38.742903],[16.5593775,38.7429708],[16.5594269,38.7429488],[16.5593892,38.742903]]],[[[16.5607748,38.7436882],[16.5609465,38.7435103],[16.560716,38.7436369],[16.5607748,38.7436882]]],[[[16.5606925,38.7437047],[16.5606313,38.7439304],[16.5608077,38.7437634],[16.5606925,38.7437047]]],[[[16.5677953,38.7528479],[16.5675633,38.7532267],[16.5679258,38.752944],[16.5677953,38.7528479]]],[[[16.5679407,38.7659346],[16.5676763,38.7657694],[16.567642,38.765985],[16.5679407,38.7659346]]],[[[16.5701868,38.7557163],[16.5703313,38.7556571],[16.5701887,38.7556628],[16.5701868,38.7557163]]],[[[16.5701035,38.7559401],[16.5702183,38.756021],[16.5702202,38.7559878],[16.5701035,38.7559401]]],[[[16.5695872,38.7569455],[16.5694801,38.7570895],[16.5696781,38.7570561],[16.5695872,38.7569455]]],[[[16.572258,38.759626],[16.5721896,38.7595514],[16.5721432,38.759594],[16.572258,38.759626]]]]}}]}