{"type": "FeatureCollection", "features": [{"type": "Feature", "properties": {"slug": "catanduva", "members": 1, "country": "Brazil", "input_hash": "4359d9efd2789fb4"}, "geometry": {"type": "Polygon", "coordinates": [[[-48.855, -21.066], [-48.8168047, -21.0340574], [-48.8599875, -21.0058637], [-48.89, -21.037], [-48.918, -21.053], [-48.936, -21.056], [-48.943, -21.065], [-48.963, -21.053], [-48.982, -21.078], [-49.02, -21.085], [-49.043, -21.116], [-49.049, -21.142], [-49.058, -21.145], [-49.058, -21.151], [-49.039, -21.155], [-49.021, -21.18], [-49.039, -21.194], [-49.06, -21.192], [-49.091, -21.221], [-49.059, -21.242], [-49.01, -21.253], [-48.967, -21.244], [-48.972, -21.202], [-48.927, -21.166], [-48.917, -21.167], [-48.922, -21.152], [-48.916, -21.11], [-48.884, -21.11], [-48.855, -21.066]]]}}]}