{"type": "FeatureCollection", "features": [{"type": "Feature", "properties": {"slug": "cayenne", "members": 10, "country": "French Guiana", "input_hash": "24818570fd612a45"}, "geometry": {"type": "MultiPolygon", "coordinates": [[[[-52.3344994, 4.9428776], [-52.3345315, 4.9427707], [-52.3345396, 4.9428749], [-52.3344994, 4.9428776]]], [[[-52.3354522, 4.9430152], [-52.3356373, 4.943098], [-52.3355058, 4.9431328], [-52.3354522, 4.9430152]]], [[[-52.334384, 4.9435857], [-52.3344779, 4.9433773], [-52.334553, 4.9435082], [-52.334384, 4.9435857]]], [[[-52.3349285, 4.9436178], [-52.3347971, 4.9435323], [-52.3347434, 4.9434761], [-52.3349285, 4.9436178]]], [[[-52.3320155, 4.9464384], [-52.3318442, 4.9463619], [-52.3320555, 4.9463383], [-52.3320155, 4.9464384]]], [[[-52.5791182, 5.2810961], [-52.5845905, 5.2831466], [-52.5788689, 5.2827153], [-52.5791182, 5.2810961]]], [[[-52.5849474, 5.2854716], [-52.5916342, 5.285546], [-52.593718, 5.2868722], [-52.591604, 5.2895834], [-52.5849474, 5.2854716]]], [[[-52.5800776, 5.2950354], [-52.5858259, 5.2903249], [-52.5832533, 5.2962219], [-52.5800776, 5.2950354]]], [[[-52.3311341, 4.9441319], [-52.3311717, 4.9440251], [-52.3311988, 4.9440594], [-52.3311341, 4.9441319]]], [[[-52.3278976, 4.9445824], [-52.3276243, 4.9445341], [-52.3277513, 4.9444642], [-52.3278976, 4.9445824]]], [[[-52.3301283, 4.9448193], [-52.3302776, 4.94479], [-52.3302379, 4.9448997], [-52.3301283, 4.9448193]]], [[[-52.3265125, 4.9459518], [-52.3264178, 4.945961], [-52.326498, 4.9458939], [-52.3265125, 4.9459518]]], [[[-52.32664, 4.9465656], [-52.326678, 4.9466424], [-52.3265726, 4.9466951], [-52.32664, 4.9465656]]], [[[-52.3267232, 4.9471479], [-52.3268059, 4.9474761], [-52.3266571, 4.9474483], [-52.3267232, 4.9471479]]], [[[-52.3238861, 4.9475561], [-52.3238056, 4.9474332], [-52.3239203, 4.9475117], [-52.3238861, 4.9475561]]], [[[-52.3266389, 4.9478165], [-52.326757, 4.9478017], [-52.3266931, 4.9478797], [-52.3266389, 4.9478165]]], [[[-52.3197614, 4.9452634], [-52.3196269, 4.945223], [-52.3197558, 4.945192], [-52.3197614, 4.9452634]]], [[[-52.3192221, 4.9452645], [-52.3192319, 4.9452057], [-52.3192707, 4.9452083], [-52.3192221, 4.9452645]]], [[[-52.3175997, 4.9456621], [-52.3175798, 4.945635], [-52.3176105, 4.9456304], [-52.3175997, 4.9456621]]], [[[-52.3222188, 4.9457732], [-52.322382, 4.9456962], [-52.3225273, 4.9458123], [-52.3222188, 4.9457732]]], [[[-52.3173592, 4.9457846], [-52.3173934, 4.9457728], [-52.3173764, 4.9458135], [-52.3173592, 4.9457846]]], [[[-52.322157, 4.9458689], [-52.3222487, 4.9458779], [-52.3221174, 4.9459296], [-52.322157, 4.9458689]]], [[[-52.3148961, 4.9483626], [-52.3149158, 4.9482785], [-52.3150213, 4.9482927], [-52.3148961, 4.9483626]]], [[[-52.3145391, 4.9484095], [-52.3148276, 4.9483908], [-52.3147188, 4.9485276], [-52.3145391, 4.9484095]]], [[[-52.2928777, 4.9405397], [-52.2841421, 4.9345361], [-52.2808376, 4.9311733], [-52.2962938, 4.9158809], [-52.3040891, 4.9211848], [-52.3102238, 4.9157753], [-52.3046992, 4.9045387], [-52.3180131, 4.8977526], [-52.3152155, 4.8912716], [-52.3289113, 4.895937], [-52.3406784, 4.9164355], [-52.3366467, 4.9432968], [-52.3333683, 4.9422091], [-52.3280445, 4.9432997], [-52.3257793, 4.9459144], [-52.3184546, 4.9439364], [-52.3008704, 4.950996], [-52.2998092, 4.9464495], [-52.2928777, 4.9405397]]], [[[-52.3111565, 4.9502368], [-52.3111692, 4.9502856], [-52.3110863, 4.9502758], [-52.3111565, 4.9502368]]], [[[-52.3046927, 4.9514272], [-52.3048063, 4.9513089], [-52.3048611, 4.9513159], [-52.3046927, 4.9514272]]], [[[-52.3028324, 4.9514578], [-52.3027083, 4.9515939], [-52.3026619, 4.9514361], [-52.3028324, 4.9514578]]], [[[-52.3059797, 4.954061], [-52.3059751, 4.9540058], [-52.3060544, 4.9540084], [-52.3059797, 4.954061]]], [[[-52.3066229, 4.9541845], [-52.3064689, 4.9543069], [-52.30645, 4.9542907], [-52.3066229, 4.9541845]]], [[[-52.3064573, 4.9543468], [-52.3068455, 4.9545757], [-52.3064596, 4.9546326], [-52.3064573, 4.9543468]]], [[[-52.305945, 4.9547557], [-52.3059572, 4.954544], [-52.3061424, 4.9547137], [-52.305945, 4.9547557]]], [[[-52.3003519, 4.9509681], [-52.300432, 4.9508929], [-52.3004524, 4.9511723], [-52.3003519, 4.9509681]]], [[[-52.3013765, 4.95109], [-52.3012377, 4.951093], [-52.3012448, 4.9510541], [-52.3013765, 4.95109]]], [[[-52.3007365, 4.9511961], [-52.3009693, 4.9513006], [-52.3007719, 4.9513525], [-52.3007365, 4.9511961]]], [[[-52.302155, 4.9514983], [-52.302234, 4.9514065], [-52.3023736, 4.9514948], [-52.302155, 4.9514983]]], [[[-52.3011872, 4.9515778], [-52.3011249, 4.9515544], [-52.3011878, 4.9514114], [-52.3011872, 4.9515778]]], [[[-52.3026218, 4.9514697], [-52.3023922, 4.9516395], [-52.3025599, 4.9514369], [-52.3026218, 4.9514697]]], [[[-52.3016153, 4.9514449], [-52.3016858, 4.9515135], [-52.3015796, 4.9516431], [-52.3016153, 4.9514449]]], [[[-52.3019691, 4.951589], [-52.3020951, 4.9514901], [-52.3020142, 4.951625], [-52.3019691, 4.951589]]], [[[-52.2999286, 4.9493898], [-52.2998962, 4.9494577], [-52.2998835, 4.9493862], [-52.2999286, 4.9493898]]], [[[-52.2997991, 4.9495917], [-52.2997667, 4.9496234], [-52.2996691, 4.9495259], [-52.2997991, 4.9495917]]], [[[-52.2971581, 4.9508198], [-52.2975175, 4.9508388], [-52.2970827, 4.9508819], [-52.2971581, 4.9508198]]], [[[-52.2984019, 4.9514956], [-52.2983131, 4.951572], [-52.2982493, 4.9514035], [-52.2984019, 4.9514956]]], [[[-52.2986066, 4.9514927], [-52.2984547, 4.9515788], [-52.2985303, 4.9514311], [-52.2986066, 4.9514927]]], [[[-52.2970464, 4.9553846], [-52.2964554, 4.9552103], [-52.2970501, 4.9544874], [-52.2970464, 4.9553846]]], [[[-52.2984155, 4.9545643], [-52.2985984, 4.9553996], [-52.2979886, 4.9557409], [-52.2984155, 4.9545643]]], [[[-52.299971, 4.9549384], [-52.3005168, 4.9555279], [-52.2998425, 4.9556396], [-52.299971, 4.9549384]]], [[[-52.2831409, 4.9359016], [-52.2835223, 4.9355222], [-52.2835815, 4.9356975], [-52.2831409, 4.9359016]]], [[[-52.2840321, 4.9403655], [-52.283955, 4.9403236], [-52.2839503, 4.9401864], [-52.2840321, 4.9403655]]], [[[-52.2834343, 4.9406679], [-52.2834903, 4.9407168], [-52.283474, 4.940982], [-52.2834343, 4.9406679]]], [[[-52.2830102, 4.9408887], [-52.2830555, 4.9408852], [-52.2830601, 4.9410468], [-52.2830102, 4.9408887]]], [[[-52.2837877, 4.9417909], [-52.2841118, 4.9418344], [-52.283857, 4.9422824], [-52.2837877, 4.9417909]]], [[[-52.2855306, 4.9432858], [-52.2855185, 4.9434149], [-52.2854304, 4.94337], [-52.2855306, 4.9432858]]], [[[-52.2853745, 4.9436535], [-52.2854085, 4.9437802], [-52.2852261, 4.9438129], [-52.2853745, 4.9436535]]], [[[-52.2966565, 4.9504852], [-52.2966503, 4.9500039], [-52.2967703, 4.9505107], [-52.2966565, 4.9504852]]], [[[-52.1884467, 4.8952796], [-52.1806118, 4.8939819], [-52.1796606, 4.8906067], [-52.1850702, 4.8894552], [-52.1884467, 4.8952796]]], [[[-52.1798394, 4.8950278], [-52.179665, 4.8948292], [-52.1797233, 4.8946717], [-52.1798394, 4.8950278]]], [[[-52.2060499, 4.9343381], [-52.201051, 4.9311905], [-52.20121, 4.9258177], [-52.2037833, 4.9256141], [-52.2060499, 4.9343381]]], [[[-52.2819271, 4.933959], [-52.2819601, 4.9337436], [-52.2821245, 4.9338953], [-52.2819271, 4.933959]]], [[[-52.2821144, 4.9367657], [-52.2822433, 4.9370579], [-52.2821189, 4.9369656], [-52.2821144, 4.9367657]]], [[[-52.2828552, 4.9377437], [-52.2827712, 4.9376507], [-52.2828179, 4.9376227], [-52.2828552, 4.9377437]]], [[[-52.2830047, 4.9414715], [-52.2828992, 4.9416773], [-52.2828711, 4.9414856], [-52.2830047, 4.9414715]]], [[[-52.2526838, 4.9592516], [-52.2536829, 4.9596845], [-52.2511261, 4.9613887], [-52.2526838, 4.9592516]]], [[[-52.1699772, 4.8868967], [-52.1685162, 4.8888774], [-52.1680637, 4.8879655], [-52.1699772, 4.8868967]]], [[[-52.1626772, 4.8895253], [-52.1626476, 4.8896629], [-52.1625695, 4.8894655], [-52.1626772, 4.8895253]]], [[[-52.1641976, 4.8893498], [-52.1659389, 4.8888547], [-52.1640638, 4.8912503], [-52.1641976, 4.8893498]]], [[[-52.1794816, 4.895166], [-52.1793814, 4.8950893], [-52.1794616, 4.8950792], [-52.1794816, 4.895166]]], [[[-52.1792394, 4.8953636], [-52.1792328, 4.8952315], [-52.1793232, 4.8953517], [-52.1792394, 4.8953636]]], [[[-52.1796063, 4.8953394], [-52.1796757, 4.8952814], [-52.1796795, 4.8954171], [-52.1796063, 4.8953394]]], [[[-52.1794359, 4.8953216], [-52.1795261, 4.8953513], [-52.1794659, 4.8954419], [-52.1794359, 4.8953216]]]]}}]}