{"type": "FeatureCollection", "features": [{"type": "Feature", "properties": {"slug": "central-city-ky", "members": 1, "country": "United States", "input_hash": "ca23cfa3cd40c7fc"}, "geometry": {"type": "Polygon", "coordinates": [[[-87.331111, 37.164524], [-87.334744, 37.148021], [-87.327298, 37.140388], [-87.334424, 37.13219], [-87.324293, 37.133027], [-87.317237, 37.112367], [-87.304925, 37.10633], [-87.299859, 37.113259], [-87.284329, 37.108024], [-87.279112, 37.091261], [-87.285534, 37.08498], [-87.274102, 37.070514], [-87.2518173, 37.0755551], [-87.2546751, 37.0696984], [-87.2437741, 37.057577], [-87.2621165, 37.0527262], [-87.2508709, 37.0494101], [-87.2502616, 37.0405636], [-87.1180747, 37.0447391], [-86.976608, 37.073574], [-86.94133, 37.069012], [-86.9407765, 37.0785183], [-86.8939165, 37.0884846], [-86.8987809, 37.1041738], [-86.9039888, 37.1015487], [-86.9022912, 37.1123263], [-86.8812588, 37.1123024], [-86.8973106, 37.1171877], [-86.9009276, 37.1347933], [-86.9159872, 37.1258336], [-86.9127874, 37.1359026], [-86.9236486, 37.1428665], [-86.9383534, 37.1361412], [-86.9238878, 37.1453162], [-86.92217, 37.1801582], [-86.8982582, 37.1764017], [-86.8906601, 37.1851544], [-86.9089947, 37.1914077], [-86.9015652, 37.1919675], [-86.906261, 37.2082014], [-86.8992727, 37.2123198], [-86.9192761, 37.2251981], [-86.9123277, 37.2374505], [-86.9444829, 37.2383124], [-86.9565872, 37.26006], [-86.9686115, 37.2563946], [-86.9826751, 37.2696392], [-86.9858551, 37.3209139], [-87.0161523, 37.3531507], [-87.0367578, 37.3655319], [-87.0705914, 37.3704786], [-87.0882593, 37.358825], [-87.1037945, 37.3279001], [-87.1199161, 37.3255635], [-87.1366275, 37.3348257], [-87.1237681, 37.3608117], [-87.0940979, 37.3773716], [-87.0998087, 37.416049], [-87.171684, 37.413357], [-87.21093, 37.381073], [-87.2959701, 37.3918263], [-87.309965, 37.376786], [-87.299194, 37.368734], [-87.338221, 37.335992], [-87.334557, 37.326138], [-87.34393, 37.323796], [-87.339381, 37.313775], [-87.354572, 37.310522], [-87.366757, 37.318543], [-87.379866, 37.311334], [-87.37197, 37.29923], [-87.386225, 37.295434], [-87.377484, 37.285696], [-87.38703, 37.273606], [-87.386996, 37.254904], [-87.36442, 37.249314], [-87.372051, 37.242825], [-87.354227, 37.236014], [-87.349936, 37.215029], [-87.306699, 37.192061], [-87.317646, 37.185655], [-87.312251, 37.175744], [-87.331111, 37.164524]]]}}]}