{"type": "FeatureCollection", "features": [{"type": "Feature", "properties": {"slug": "chalcis", "members": 1, "country": "Greece", "input_hash": "f4c22e59dd26d3ac"}, "geometry": {"type": "MultiPolygon", "coordinates": [[[[23.4828968, 38.3966092], [23.4423038, 38.4142221], [23.4331371, 38.4335451], [23.4672097, 38.4561676], [23.411717, 38.4566726], [23.4018852, 38.4727437], [23.3216344, 38.4437311], [23.321706, 38.4274333], [23.2885044, 38.4117131], [23.2871385, 38.4274579], [23.2700932, 38.4300115], [23.2705882, 38.4420231], [23.2955351, 38.4657962], [23.3004996, 38.4875042], [23.3418282, 38.497726], [23.3545406, 38.5089723], [23.4038177, 38.5099156], [23.4202546, 38.4975603], [23.4645989, 38.4995349], [23.4786513, 38.4862095], [23.5135646, 38.4799791], [23.5381615, 38.5112109], [23.5911312, 38.4751513], [23.5890458, 38.4626304], [23.5708398, 38.4585506], [23.5697428, 38.4470374], [23.5982376, 38.4419406], [23.5997997, 38.4363405], [23.5927187, 38.436838], [23.6038144, 38.4239386], [23.5956631, 38.4163003], [23.6324652, 38.4106805], [23.6311246, 38.3775691], [23.6553212, 38.3525675], [23.6191338, 38.3520429], [23.5881311, 38.3675338], [23.5490523, 38.3693456], [23.5476188, 38.3636191], [23.4966674, 38.38065], [23.4828968, 38.3966092]]], [[[23.603105, 38.4463349], [23.6041355, 38.4439808], [23.6017272, 38.4448633], [23.603105, 38.4463349]]], [[[23.644971, 38.5498768], [23.6476209, 38.5403862], [23.6628487, 38.5478119], [23.6935601, 38.5347027], [23.6892628, 38.5220475], [23.7026107, 38.507672], [23.7153024, 38.5147239], [23.7275407, 38.4981528], [23.7558712, 38.4826154], [23.7781161, 38.4823802], [23.7990462, 38.4417643], [23.7823458, 38.437652], [23.7630031, 38.4176615], [23.71924, 38.4093617], [23.6909732, 38.4139713], [23.6730218, 38.410643], [23.6622699, 38.3988522], [23.6454276, 38.3997828], [23.6109994, 38.4554827], [23.587446, 38.4482609], [23.6035849, 38.4768023], [23.6138303, 38.4700588], [23.6236579, 38.4748147], [23.6275021, 38.4965835], [23.6223093, 38.497843], [23.6360101, 38.5102355], [23.6279841, 38.5125549], [23.6299397, 38.5284857], [23.6230132, 38.5339383], [23.6281965, 38.5462831], [23.644971, 38.5498768]]], [[[23.4998095, 38.4939293], [23.5042434, 38.4949135], [23.5049398, 38.4868649], [23.4998095, 38.4939293]]]]}}]}