{"type":"FeatureCollection","features":[{"type":"Feature","properties":{"slug":"champaign","member_count":106,"matched_count":4,"unmatched":["Urbana city (US-IL, type='City')","Mahomet village (US-IL, type='Village')","Rantoul village (US-IL, type='Village')","Urbana township (US-IL, type='Township')","Savoy village (US-IL, type='Village')","Balance of Champaign township (US-IL, type='Balance')","Balance of Mahomet township (US-IL, type='Balance')","St. Joseph village (US-IL, type='Village')","Tolono village (US-IL, type='Village')","Rantoul village (US-IL, type='Village')","Savoy village (US-IL, type='Village')","Balance of St. Joseph township (US-IL, type='Balance')","Fisher village (US-IL, type='Village')","Philo village (US-IL, type='Village')","Balance of Newcomb township (US-IL, type='Balance')","Sidney village (US-IL, type='Village')","Homer village (US-IL, type='Village')","Balance of Hensley township (US-IL, type='Balance')","Thomasboro village (US-IL, type='Village')","Somer township (US-IL, type='Township')","Ogden village (US-IL, type='Village')","Balance of Rantoul township (US-IL, type='Balance')","Gifford village (US-IL, type='Village')","Balance of East Bend township (US-IL, type='Balance')","Balance of Compromise township (US-IL, type='Balance')","Balance of Scott township (US-IL, type='Balance')","Pesotum village (US-IL, type='Village')","Balance of Ogden township (US-IL, type='Balance')","Stanton township (US-IL, type='Township')","Balance of Philo township (US-IL, type='Balance')","Balance of Sidney township (US-IL, type='Balance')","Balance of Tolono township (US-IL, type='Balance')","Balance of Harwood township (US-IL, type='Balance')","Balance of South Homer township (US-IL, type='Balance')","Sadorus village (US-IL, type='Village')","Bondville village (US-IL, type='Village')","Balance of Ludlow township (US-IL, type='Balance')","Crittenden township (US-IL, type='Township')","Balance of Pesotum township (US-IL, type='Balance')","Broadlands village (US-IL, type='Village')","Balance of Brown township (US-IL, type='Balance')","Balance of Condit township (US-IL, type='Balance')","Ludlow village (US-IL, type='Village')","Royal village (US-IL, type='Village')","Ivesdale village (US-IL, type='Village')","Balance of Sadorus township (US-IL, type='Balance')","Colfax township (US-IL, type='Township')","Balance of Raymond township (US-IL, type='Balance')","Gifford village (US-IL, type='Village')","Fisher village (US-IL, type='Village')","Fisher village (US-IL, type='Village')","Kerr township (US-IL, type='Township')","Balance of Ayers township (US-IL, type='Balance')","Longview village (US-IL, type='Village')","Foosland village (US-IL, type='Village')","Fisher village (US-IL, type='Village')","Mahomet village (US-IL, type='Village')","Allerton village (US-IL, type='Village')","Mahomet village (US-IL, type='Village')","Savoy village (US-IL, type='Village')","Sadorus village (US-IL, type='Village')","Paxton city (US-IL, type='City')","Gibson City city (US-IL, type='City')","Balance of Patton township (US-IL, type='Balance')","Piper City village (US-IL, type='Village')","Balance of Drummer township (US-IL, type='Balance')","Melvin village (US-IL, type='Village')","Balance of Dix township (US-IL, type='Balance')","Roberts village (US-IL, type='Village')","Sibley village (US-IL, type='Village')","Elliott village (US-IL, type='Village')","Button township (US-IL, type='Township')","Wall township (US-IL, type='Township')","Balance of Sullivant township (US-IL, type='Balance')","Balance of Rogers township (US-IL, type='Balance')","Balance of Lyman township (US-IL, type='Balance')","Cabery village (US-IL, type='Village')","Balance of Brenton township (US-IL, type='Balance')","Balance of Peach Orchard township (US-IL, type='Balance')","Balance of Mona township (US-IL, type='Balance')","Balance of Pella township (US-IL, type='Balance')","Kempton village (US-IL, type='Village')","Kempton village (US-IL, type='Village')","Piper City village (US-IL, type='Village')","Monticello city (US-IL, type='City')","Balance of Sangamon township (US-IL, type='Balance')","Bement village (US-IL, type='Village')","Cerro Gordo village (US-IL, type='Village')","Mansfield village (US-IL, type='Village')","Balance of Willow Branch township (US-IL, type='Balance')","Atwood village (US-IL, type='Village')","Balance of Cerro Gordo township (US-IL, type='Balance')","Balance of Monticello township (US-IL, type='Balance')","Hammond village (US-IL, type='Village')","Balance of Blue Ridge township (US-IL, type='Balance')","De Land village (US-IL, type='Village')","Monticello city (US-IL, type='City')","Balance of Goose Creek township (US-IL, type='Balance')","Balance of Unity township (US-IL, type='Balance')","Cisco village (US-IL, type='Village')","Balance of Bement township (US-IL, type='Balance')","Ivesdale village (US-IL, type='Village')"],"source":"Overture Maps division_area (CC-BY 4.0)"},"geometry":{"type":"Polygon","coordinates":[[[-88.4621893,39.8790982],[-88.4623713,39.7917932],[-88.7456788,39.7921557],[-88.745644,40.099236],[-88.688538,40.099335],[-88.6879795,40.1422733],[-88.5747499,40.2815018],[-88.4604404,40.2817694],[-88.4593532,40.6173172],[-88.2348458,40.6181637],[-88.2473364,40.9945523],[-88.1319321,40.9977587],[-88.1192811,40.4869572],[-87.935309,40.485923],[-87.92876,40.225619],[-87.942103,40.225482],[-87.937645,39.879803],[-88.4621893,39.8790982]]]}}]}