{"type": "FeatureCollection", "features": [{"type": "Feature", "properties": {"slug": "changuinola", "members": 1, "country": "Panama", "input_hash": "c3095595f04227d1"}, "geometry": {"type": "Polygon", "coordinates": [[[-82.3880499, 9.4202602], [-82.5651122, 9.5715388], [-82.5667405, 9.5619032], [-82.5517416, 9.5501806], [-82.5549363, 9.5401051], [-82.5642729, 9.5399177], [-82.5791645, 9.5577983], [-82.600193, 9.5597661], [-82.5981547, 9.5353576], [-82.6078968, 9.5029238], [-82.6354009, 9.5026001], [-82.6390562, 9.4936437], [-82.651944, 9.498333], [-82.6546191, 9.5111504], [-82.67123, 9.4941222], [-82.6699356, 9.5048512], [-82.6857775, 9.5069069], [-82.6892109, 9.5194435], [-82.7024174, 9.5259936], [-82.6894032, 9.5298367], [-82.6959532, 9.5457756], [-82.7057219, 9.534638], [-82.7090764, 9.5487969], [-82.7237401, 9.5513649], [-82.7209463, 9.561087], [-82.7297986, 9.555375], [-82.733677, 9.5667566], [-82.7435897, 9.5672782], [-82.7433284, 9.589964], [-82.7505366, 9.5812886], [-82.7619894, 9.5875888], [-82.7737538, 9.5817329], [-82.7929841, 9.6042352], [-82.80887, 9.5955638], [-82.8201149, 9.599559], [-82.8226787, 9.6112018], [-82.8422699, 9.6110461], [-82.8469714, 9.6218772], [-82.8566766, 9.6203356], [-82.8621994, 9.5903738], [-82.8776411, 9.5922867], [-82.8849885, 9.5707208], [-82.8778982, 9.5538202], [-82.8682011, 9.5537409], [-82.8723297, 9.524588], [-82.8553864, 9.5200066], [-82.8565387, 9.5109323], [-82.8480093, 9.514489], [-82.8409621, 9.4971894], [-82.862747, 9.4920197], [-82.8506416, 9.4748205], [-82.8579504, 9.4471643], [-82.8301926, 9.4372351], [-82.816878, 9.4469505], [-82.8194258, 9.433216], [-82.7965733, 9.4382744], [-82.786023, 9.433225], [-82.7719403, 9.4391558], [-82.74574, 9.471487], [-82.7453531, 9.4932508], [-82.7004123, 9.4700397], [-82.6737952, 9.4789829], [-82.6612508, 9.4600894], [-82.681265, 9.4618436], [-82.6754595, 9.4496145], [-82.6827257, 9.4406227], [-82.6411473, 9.4292606], [-82.6482729, 9.4275364], [-82.6245115, 9.3851644], [-82.5818529, 9.3687102], [-82.57787, 9.3598792], [-82.5503736, 9.3617097], [-82.5507204, 9.3473141], [-82.5364227, 9.3618641], [-82.5261752, 9.3553321], [-82.5314771, 9.3394498], [-82.5674068, 9.3356763], [-82.5732491, 9.3162473], [-82.593348, 9.3229922], [-82.6183892, 9.2956128], [-82.5992918, 9.238878], [-82.6104498, 9.2334984], [-82.6077139, 9.2187888], [-82.6275301, 9.1855127], [-82.5960648, 9.1867674], [-82.583994, 9.1762465], [-82.5480723, 9.1879275], [-82.5390816, 9.1981479], [-82.5343824, 9.1936996], [-82.5236803, 9.2072029], [-82.5172841, 9.2258004], [-82.5237623, 9.2464391], [-82.5309056, 9.2473117], [-82.5298173, 9.2584366], [-82.5116442, 9.2727781], [-82.5138937, 9.2796905], [-82.4973736, 9.278238], [-82.4926061, 9.2689677], [-82.4729241, 9.2725386], [-82.4795306, 9.2884784], [-82.471525, 9.295465], [-82.4730189, 9.3607655], [-82.4304745, 9.3433794], [-82.4208522, 9.3506377], [-82.3881679, 9.3393551], [-82.3786435, 9.3702186], [-82.3531926, 9.3835788], [-82.357493, 9.3974023], [-82.3416882, 9.4273754], [-82.3528478, 9.4346467], [-82.3632252, 9.4158605], [-82.3880499, 9.4202602]]]}}]}