{"type": "FeatureCollection", "features": [{"type": "Feature", "properties": {"slug": "chania", "members": 1, "country": "Greece", "input_hash": "dc213862fe5762d9"}, "geometry": {"type": "MultiPolygon", "coordinates": [[[[24.0976714, 35.5897153], [24.0996882, 35.5978413], [24.1227874, 35.6020024], [24.1748344, 35.5871274], [24.2018869, 35.5384394], [24.1852977, 35.5203533], [24.1818394, 35.5029892], [24.1709093, 35.5041053], [24.1671767, 35.4947982], [24.106767, 35.50826], [24.0809985, 35.5090729], [24.0626707, 35.5001426], [24.0646006, 35.4896873], [24.0776971, 35.4923925], [24.1191803, 35.4706734], [24.1500113, 35.4721553], [24.1562803, 35.466037], [24.1393874, 35.4506213], [24.118667, 35.4555035], [24.0943173, 35.4196473], [24.0866771, 35.4208072], [24.0720238, 35.3788525], [24.0428113, 35.3468926], [24.0294928, 35.356175], [24.0142035, 35.3555646], [24.0073556, 35.3352321], [23.9809215, 35.3296583], [23.9751133, 35.3361855], [23.9799812, 35.3500364], [23.9686219, 35.3623871], [23.9864712, 35.3909919], [23.9636699, 35.4131505], [23.9651138, 35.4444211], [23.9378715, 35.4598739], [23.9289037, 35.4576598], [23.9097686, 35.4779437], [23.9216639, 35.4900974], [23.9138573, 35.5189731], [23.9301299, 35.5223068], [23.9730528, 35.5116317], [23.9887836, 35.5184977], [23.9949006, 35.5111307], [24.0193104, 35.5202914], [24.0348795, 35.5177551], [24.0476163, 35.523481], [24.0519929, 35.5522233], [24.062642, 35.548055], [24.0583127, 35.5556089], [24.0663037, 35.5474307], [24.0864792, 35.5535553], [24.0695408, 35.5828962], [24.0780374, 35.5927774], [24.0976714, 35.5897153]]], [[[24.1507256, 35.4893309], [24.1538785, 35.4910084], [24.1526468, 35.4862253], [24.1507256, 35.4893309]]], [[[24.1512497, 35.490378], [24.1498887, 35.4913382], [24.1512879, 35.4911937], [24.1512497, 35.490378]]], [[[24.1766702, 35.4986817], [24.176593, 35.4991429], [24.176696, 35.499073], [24.1766702, 35.4986817]]], [[[24.1814853, 35.5005125], [24.1795363, 35.4978126], [24.1774255, 35.500198], [24.1814853, 35.5005125]]], [[[23.9363103, 35.5378316], [23.928399, 35.5309493], [23.9255988, 35.5310453], [23.9295363, 35.5416355], [23.9363103, 35.5378316]]], [[[23.932077, 35.5419476], [23.9320636, 35.5435299], [23.9330104, 35.5429777], [23.932077, 35.5419476]]]]}}]}