{"type":"FeatureCollection","features":[{"type":"Feature","properties":{"slug":"charolles","member_count":127,"matched_count":127,"unmatched":[],"source":"Overture Maps division_area (CC-BY 4.0)"},"geometry":{"type":"MultiPolygon","coordinates":[[[[0.4643796,42.839936],[0.4612766,42.8044551],[0.4294394,42.8058422],[0.4218714,42.8186176],[0.4438561,42.8362517],[0.4643796,42.839936]]],[[[1.7269981,43.709948],[1.7629555,43.6969299],[1.7640232,43.6923702],[1.7442566,43.6805242],[1.7225188,43.6916047],[1.7269981,43.709948]]],[[[0.5798356,43.8579955],[0.5900152,43.8519756],[0.5974824,43.8588258],[0.6077449,43.8552775],[0.6092197,43.8419683],[0.5949711,43.8362173],[0.5914185,43.8211688],[0.5635829,43.8332732],[0.5798356,43.8579955]]],[[[-0.3442806,43.9470936],[-0.2981617,43.94591],[-0.3132694,43.924292],[-0.3235982,43.9250857],[-0.3251816,43.9133144],[-0.3494646,43.9314436],[-0.3442806,43.9470936]]],[[[-0.3072705,44.8030754],[-0.3287227,44.8069439],[-0.3413019,44.8334065],[-0.3348778,44.8398427],[-0.3129443,44.8429484],[-0.2945785,44.8324634],[-0.3072705,44.8030754]]],[[[3.9464135,46.1668702],[3.9198636,46.1466441],[3.9161174,46.1288683],[3.8652194,46.12969],[3.8710552,46.1424497],[3.8613662,46.1435472],[3.8623452,46.1522468],[3.9017921,46.1549529],[3.9374809,46.1688117],[3.9464135,46.1668702]]],[[[3.9727425,46.2026516],[3.9172924,46.2026318],[3.8901494,46.214361],[3.8978178,46.2396078],[3.9050988,46.2379778],[3.9100606,46.2477712],[3.9050337,46.2728865],[3.8914504,46.2854738],[3.8972152,46.2925727],[3.9451062,46.3004958],[3.9457387,46.3213841],[3.9876041,46.3147276],[3.9892747,46.3229174],[4.0044213,46.3277022],[3.9848599,46.3298903],[3.9917267,46.371697],[3.9774236,46.3989498],[3.988826,46.4095224],[3.9842438,46.4197545],[3.9957786,46.4258513],[3.9887594,46.4370694],[4.0055547,46.4427282],[3.9976065,46.4513839],[3.9991709,46.4643765],[3.9753222,46.4795772],[3.9526216,46.4781521],[3.9557872,46.4916615],[3.916194,46.4960631],[3.9356858,46.5119744],[3.9090664,46.5251838],[3.8981552,46.5221109],[3.9011705,46.5309509],[3.8893975,46.5503638],[3.8793032,46.5410125],[3.8649302,46.5495104],[3.8606107,46.5258925],[3.8455263,46.5127299],[3.8402527,46.5158987],[3.8456002,46.5257332],[3.8372538,46.5318522],[3.8035033,46.5195554],[3.7732085,46.5385178],[3.7390471,46.5412081],[3.7317537,46.5494103],[3.74313,46.566194],[3.737828,46.6009007],[3.7137551,46.6087081],[3.7238478,46.6265593],[3.7089091,46.635248],[3.6955154,46.662025],[3.6708981,46.6725571],[3.6728185,46.6824614],[3.6555344,46.6870431],[3.654244,46.7068815],[3.6380488,46.7065282],[3.6371901,46.7253916],[3.6223894,46.7399221],[3.6294472,46.7496054],[3.6405805,46.7389464],[3.6600626,46.7376255],[3.7398812,46.7524449],[3.7836062,46.7358235],[3.7769626,46.7292869],[3.7976457,46.7014172],[3.8290903,46.7044051],[3.8449014,46.7227871],[3.8722569,46.7255509],[3.8760961,46.7324267],[3.8874379,46.727181],[3.912664,46.7341942],[3.9107816,46.7429114],[3.9285132,46.7397833],[3.9343267,46.7432846],[3.9282494,46.7509931],[3.954553,46.7546073],[3.9668516,46.7692238],[3.9941051,46.778939],[4.0192741,46.7760692],[4.0384682,46.7872106],[4.0658909,46.7653736],[4.0856159,46.7765376],[4.1104665,46.776578],[4.1096354,46.7666062],[4.1257149,46.7524946],[4.124565,46.733794],[4.1347884,46.7162693],[4.1383093,46.7315561],[4.1515287,46.7319702],[4.1593267,46.7140232],[4.1732907,46.707216],[4.1898035,46.7118826],[4.1993868,46.7043938],[4.1917669,46.7003853],[4.1964981,46.6872413],[4.2208898,46.6897524],[4.2346272,46.6723178],[4.2514556,46.6754553],[4.2452971,46.6553543],[4.2502476,46.6504002],[4.2146993,46.6383687],[4.1917278,46.6392922],[4.1741925,46.6114229],[4.1819859,46.599216],[4.2022673,46.5965335],[4.2031566,46.5768331],[4.2528697,46.5674958],[4.2475934,46.5549782],[4.2559431,46.5448107],[4.2771327,46.5566967],[4.308794,46.551916],[4.305601,46.55713],[4.314183,46.559522],[4.308211,46.582005],[4.328735,46.573537],[4.388475,46.598729],[4.4014503,46.5913028],[4.4144093,46.600222],[4.4460592,46.5921837],[4.4602111,46.6070336],[4.5118966,46.5851367],[4.5152784,46.576709],[4.4973562,46.5555671],[4.4718592,46.5480318],[4.4686134,46.5580853],[4.4340197,46.5597034],[4.4144909,46.5489758],[4.4050539,46.5324459],[4.4120472,46.5274062],[4.4038588,46.5226416],[4.4291806,46.5019315],[4.4308298,46.4909524],[4.4445211,46.4883447],[4.4614615,46.5100497],[4.4831768,46.4961549],[4.4667744,46.4722693],[4.498144,46.4536939],[4.4825808,46.4389489],[4.4770113,46.4156056],[4.4456439,46.4097889],[4.4441786,46.4248537],[4.4157507,46.4224817],[4.4209532,46.420117],[4.4144147,46.4057271],[4.4262025,46.3982756],[4.4098432,46.3890378],[4.4109146,46.374895],[4.3975151,46.3596891],[4.3769643,46.3518758],[4.3956276,46.3319855],[4.4015409,46.3120627],[4.4343504,46.313812],[4.4225831,46.2948624],[4.3907167,46.3048315],[4.3557233,46.3020187],[4.3682517,46.2902978],[4.3668217,46.2804387],[4.3967205,46.2734232],[4.3924723,46.2512307],[4.3842232,46.2464479],[4.3923092,46.2358293],[4.3856204,46.22601],[4.388915,46.213248],[4.362803,46.199943],[4.37309,46.185991],[4.3267425,46.1850156],[4.3165997,46.170619],[4.2926956,46.1728031],[4.2763449,46.1560119],[4.2497957,46.1584228],[4.2485844,46.1671446],[4.2633459,46.1754598],[4.2547863,46.1879585],[4.2249613,46.1777572],[4.2078257,46.1949586],[4.18351,46.1875872],[4.1869239,46.1744322],[4.1333084,46.17731],[4.103677,46.1984958],[4.0592441,46.1885543],[4.0311515,46.1691192],[3.9901136,46.1688321],[3.9713388,46.1892343],[3.9727425,46.2026516]],[[4.11924,46.705548],[4.0949339,46.7172705],[4.0752218,46.7130207],[4.0702195,46.71848],[4.0519782,46.7096613],[4.0382364,46.6825884],[4.0921854,46.6688818],[4.1139897,46.6836625],[4.1186894,46.6938951],[4.1117512,46.7007536],[4.11924,46.705548]],[[4.129041,46.5986024],[4.0875356,46.6022205],[4.0777256,46.5856425],[4.1295441,46.5601694],[4.1448507,46.5670502],[4.1337039,46.5769758],[4.129041,46.5986024]],[[4.133835,46.3175681],[4.10565,46.3304495],[4.1060391,46.3203547],[4.0822204,46.3095819],[4.0813796,46.2937413],[4.1169225,46.2950676],[4.1203183,46.2792739],[4.1118196,46.2663125],[4.1437231,46.2605479],[4.1560444,46.2706088],[4.1498127,46.2821148],[4.136916,46.2943912],[4.1173627,46.296134],[4.133835,46.3175681]],[[3.8109,46.6023419],[3.8649027,46.6309632],[3.8095151,46.6654745],[3.8075185,46.6592819],[3.820348,46.6517884],[3.8163248,46.636163],[3.7909962,46.6246149],[3.8128828,46.6143917],[3.7979858,46.6125315],[3.8109,46.6023419]],[[4.3016717,46.5197613],[4.2922501,46.5067741],[4.257451,46.5060988],[4.25284,46.4978688],[4.2611481,46.4896518],[4.2461244,46.4852921],[4.258373,46.473579],[4.281497,46.480589],[4.28848,46.469108],[4.3100205,46.4707105],[4.3148066,46.4745347],[4.3013892,46.4888825],[4.3174548,46.5002037],[4.3016717,46.5197613]],[[4.279201,46.421895],[4.252118,46.428724],[4.257293,46.438088],[4.238095,46.446257],[4.219004,46.421004],[4.242881,46.38677],[4.258418,46.392423],[4.265808,46.386849],[4.282711,46.392032],[4.279201,46.421895]],[[4.2622423,46.3173969],[4.2231353,46.3037783],[4.2282636,46.2862907],[4.2707415,46.2902823],[4.2716813,46.3044534],[4.2622423,46.3173969]],[[4.2503956,46.2118699],[4.265459,46.2052168],[4.2711221,46.2155802],[4.2552038,46.2158739],[4.2503956,46.2118699]]],[[[1.4422856,46.2750317],[1.4144945,46.2804627],[1.425556,46.2981688],[1.4451616,46.3054481],[1.436787,46.3214233],[1.4458222,46.3308605],[1.4965903,46.3150141],[1.4860952,46.298346],[1.4424645,46.2902699],[1.4373148,46.2799184],[1.4422856,46.2750317]]],[[[-1.9421789,46.9455481],[-1.9382469,46.9333298],[-1.910013,46.9327549],[-1.9068009,46.9182773],[-1.8908669,46.9126742],[-1.8996863,46.9039955],[-1.8956263,46.8988283],[-1.9392628,46.8949509],[-1.9459921,46.9165359],[-1.9532203,46.9176164],[-1.9500177,46.9311668],[-1.9564518,46.9309951],[-1.9421789,46.9455481]]],[[[2.8503144,47.0669881],[2.8427732,47.0578202],[2.8598039,47.0493656],[2.8559486,47.0352744],[2.8768512,47.0302195],[2.8783502,47.0184116],[2.8518267,47.0313274],[2.8358388,47.0194244],[2.8127009,47.0222658],[2.8150235,47.04357],[2.7900507,47.0511847],[2.8023011,47.0631144],[2.8503144,47.0669881]]],[[[1.7322464,47.0380123],[1.7086541,47.0602965],[1.7235531,47.0589772],[1.7312216,47.0698094],[1.7513264,47.0739262],[1.769322,47.0612422],[1.7664687,47.0422222],[1.7322464,47.0380123]]],[[[4.0284424,47.6511614],[4.0572198,47.674838],[4.0489975,47.6892697],[4.072398,47.6944918],[4.0822782,47.6851859],[4.0983511,47.6893613],[4.120868,47.6809014],[4.112321,47.6512264],[4.061992,47.644319],[4.0613334,47.634682],[4.0469293,47.6474578],[4.0390014,47.647402],[4.042756,47.6389029],[4.0338826,47.6401486],[4.0284424,47.6511614]]],[[[5.234626,45.3400448],[5.2424969,45.318923],[5.2429948,45.3042268],[5.2376208,45.3038459],[5.2419915,45.312911],[5.2220856,45.3198596],[5.2251886,45.327878],[5.2097999,45.3423722],[5.234626,45.3400448]]]]}}]}