{"type":"FeatureCollection","features":[{"type":"Feature","properties":{"slug":"charlottetown","member_count":42,"matched_count":32,"unmatched":["Queens (CA-PE, type='County')","West River (CA-PE, type='Rural Municipality')","East River, Part 1 (CA-PE, type='Fire District')","Crossroads (CA-PE, type='Fire District')","Crapaud, Part 1 (CA-PE, type='Fire District')","Kensington, Part 2 (CA-PE, type='Fire District')","Murray River, Part 2 (CA-PE, type='Fire District')","Winsloe North (CA-PE, type='Fire District')","Stanley Bridge - Hope River - Bayview - Cavendish - North Ru (CA-PE, type='Resort Municipality')","North River (CA-PE, type='Fire District')"],"source":"Overture Maps division_area (CC-BY 4.0)"},"geometry":{"type":"MultiPolygon","coordinates":[[[[-63.4705119,46.209684],[-63.4918006,46.205306],[-63.5028458,46.2301199],[-63.4932611,46.2322133],[-63.4705119,46.209684]]],[[[-63.2381842,46.2126258],[-63.2481263,46.2223533],[-63.2640448,46.1914728],[-63.2951627,46.1981446],[-63.2910521,46.2154694],[-63.2819572,46.214272],[-63.2801299,46.2312111],[-63.2918721,46.2472951],[-63.2825006,46.2509426],[-63.2898013,46.249626],[-63.2926476,46.2573354],[-63.3090574,46.2528242],[-63.3272261,46.2643099],[-63.3181415,46.2807656],[-63.3475127,46.289321],[-63.353128,46.3040372],[-63.3474238,46.3134404],[-63.3543834,46.3263109],[-63.3467721,46.3314052],[-63.3854417,46.3382807],[-63.3794409,46.3394313],[-63.3839701,46.3526575],[-63.3699258,46.3526556],[-63.3608612,46.3680818],[-63.357072,46.363022],[-63.3337098,46.3750224],[-63.3286461,46.3570087],[-63.3438386,46.3339296],[-63.3401169,46.3394421],[-63.3248435,46.3355586],[-63.2950467,46.3138654],[-63.2358567,46.3323269],[-63.2292875,46.3417183],[-63.2365189,46.3554415],[-63.2237614,46.3580979],[-63.2093624,46.3430883],[-63.1968502,46.3450467],[-63.2031653,46.3409593],[-63.1932403,46.3235302],[-63.1988041,46.3177013],[-63.1753876,46.2944328],[-63.1548758,46.2987324],[-63.1689957,46.3258473],[-63.1443842,46.3306845],[-63.1589699,46.3599052],[-63.1472332,46.3621994],[-63.1524329,46.3732685],[-63.164401,46.3709456],[-63.1711679,46.3835571],[-63.1840185,46.3822887],[-63.1589186,46.3859459],[-63.1725851,46.4220782],[-63.1561417,46.423383],[-63.1348734,46.441676],[-63.0465745,46.4247073],[-63.0360338,46.4099212],[-62.9969327,46.395058],[-62.9905761,46.3832013],[-63.0539764,46.377177],[-63.0864067,46.3376329],[-63.072754,46.3143044],[-63.0909201,46.3048648],[-63.0909713,46.2878157],[-63.0734013,46.2645273],[-63.0898823,46.250063],[-63.0705957,46.2216778],[-63.0576486,46.2228929],[-63.0557704,46.2330067],[-63.0450987,46.2293823],[-63.0403437,46.2160469],[-63.026711,46.215749],[-63.019633,46.2284893],[-62.9772204,46.236824],[-62.971341,46.2217907],[-62.9853093,46.2190031],[-62.9818802,46.2114005],[-62.9891674,46.2182259],[-62.9889238,46.2107217],[-63.0135944,46.2137569],[-63.0005492,46.1851021],[-63.0147926,46.1647334],[-63.0781233,46.1653552],[-63.0856529,46.1897448],[-63.1219808,46.1877635],[-63.1349569,46.2049014],[-63.1445917,46.2020817],[-63.1364,46.2062194],[-63.1446779,46.2109019],[-63.187964,46.204544],[-63.2231362,46.2225125],[-63.2239559,46.2125167],[-63.2381842,46.2126258]],[[-63.2363635,46.2934688],[-63.2365182,46.2941311],[-63.2363963,46.2935587],[-63.2363635,46.2934688]],[[-63.0359118,46.2098183],[-63.0334649,46.2102392],[-63.0331842,46.2103005],[-63.0359118,46.2098183]]],[[[-63.5028458,46.2301199],[-63.5180614,46.2428661],[-63.517336,46.2469768],[-63.509913,46.2493693],[-63.5028458,46.2301199]]],[[[-63.4869874,46.373535],[-63.4905498,46.3572261],[-63.4813045,46.3658609],[-63.4774212,46.3553946],[-63.4832228,46.3543179],[-63.4571789,46.3373693],[-63.5162175,46.3391381],[-63.5201616,46.3561838],[-63.5336941,46.3537774],[-63.5431505,46.366092],[-63.5057449,46.3617935],[-63.4869874,46.373535]]],[[[-63.3270647,46.4297586],[-63.316846,46.398726],[-63.3307475,46.386018],[-63.3425034,46.3933688],[-63.3687106,46.3883538],[-63.3769828,46.4096808],[-63.3594273,46.4296667],[-63.3666839,46.432624],[-63.3270647,46.4297586]]],[[[-63.2794724,46.4593482],[-63.3292976,46.4346888],[-63.3356494,46.4499337],[-63.3425151,46.4500068],[-63.3557889,46.4977924],[-63.3482728,46.5122948],[-63.2978877,46.4955201],[-63.2794724,46.4593482]]],[[[-63.4793432,46.4706492],[-63.4786669,46.4623987],[-63.4885581,46.4601695],[-63.4838535,46.4441095],[-63.5092119,46.4399357],[-63.5209425,46.4698507],[-63.5008261,46.4758703],[-63.4819632,46.5082401],[-63.4497375,46.4956001],[-63.4599034,46.4745509],[-63.4793432,46.4706492]]],[[[-62.9024148,46.0723524],[-62.8569362,46.0833889],[-62.8520031,46.0695865],[-62.8695299,46.0584308],[-62.8559362,46.0556011],[-62.8557981,46.0444646],[-62.8737271,46.0382605],[-62.9101876,46.0542902],[-62.9024148,46.0723524]]],[[[-62.6323545,46.1619132],[-62.6492342,46.1541739],[-62.6661172,46.1613128],[-62.6713367,46.1741616],[-62.6549345,46.1768708],[-62.6323545,46.1619132]]],[[[-62.8543091,46.1955244],[-62.8588814,46.2115764],[-62.8453911,46.2065734],[-62.850004,46.2165009],[-62.8429802,46.2181215],[-62.8344058,46.2099135],[-62.8347185,46.2191831],[-62.8234169,46.2239548],[-62.8174894,46.2096217],[-62.8086652,46.2092896],[-62.8359034,46.2007708],[-62.8141946,46.1888993],[-62.8383052,46.1853111],[-62.8377097,46.1795426],[-62.8661136,46.1880638],[-62.8543091,46.1955244]]],[[[-62.9856989,46.264634],[-62.9927257,46.2635034],[-62.9895109,46.2495627],[-63.0062021,46.2456486],[-63.0372752,46.2890551],[-63.0105151,46.3012356],[-63.0080235,46.2869347],[-62.997103,46.2732373],[-62.9875123,46.276151],[-62.9856989,46.264634]]],[[[-62.8963702,46.3515815],[-62.8998633,46.3565756],[-62.8976363,46.358475],[-62.8963702,46.3515815]]],[[[-62.8978244,46.3589935],[-62.9080883,46.3490017],[-62.9163343,46.3692801],[-62.9085514,46.3618114],[-62.9013208,46.368625],[-62.8978244,46.3589935]]],[[[-62.8825815,46.3774665],[-62.8738497,46.3702195],[-62.8440374,46.3741877],[-62.8335837,46.3457036],[-62.8672371,46.3595431],[-62.8740885,46.3504024],[-62.8825815,46.3774665]]]]}}]}