{"type":"FeatureCollection","features":[{"type":"Feature","properties":{"slug":"charleston-wv","member_count":71,"matched_count":71,"unmatched":[],"source":"Overture Maps division_area (CC-BY 4.0)"},"geometry":{"type":"MultiPolygon","coordinates":[[[[-82.469058,37.90222],[-82.4880182,37.9173431],[-82.4804681,37.9262598],[-82.5023148,37.9340324],[-82.48916,37.937963],[-82.4978001,37.9454949],[-82.48512,37.946044],[-82.471801,37.959119],[-82.484413,37.969895],[-82.46938,37.973059],[-82.464257,37.983412],[-82.483871,37.984505],[-82.487732,37.99833],[-82.5173512,38.0012039],[-82.551259,38.070799],[-82.584039,38.090663],[-82.587782,38.108879],[-82.620351,38.121477],[-82.622125,38.133414],[-82.637306,38.13905],[-82.644739,38.165487],[-82.611343,38.171548],[-82.598437,38.217393],[-82.612216,38.236297],[-82.604625,38.247662],[-82.584001,38.246371],[-82.574656,38.263873],[-82.583056,38.296829],[-82.572691,38.318801],[-82.597979,38.344909],[-82.5958952,38.4178275],[-82.5667604,38.4055046],[-82.5374505,38.4038658],[-82.4074278,38.4395812],[-82.3893282,38.4344044],[-82.3306307,38.4443542],[-82.318111,38.457876],[-82.304223,38.496308],[-82.2902601,38.5803689],[-82.2621484,38.598201],[-82.206058,38.5916604],[-82.1772833,38.6039529],[-82.1725412,38.6276432],[-82.1913821,38.6822685],[-82.1828408,38.7109243],[-82.1963806,38.7536916],[-82.218481,38.770701],[-82.221566,38.787187],[-82.192926,38.8140912],[-82.1632285,38.8234033],[-82.1473801,38.8370314],[-82.1391372,38.8644832],[-82.1432388,38.898025],[-82.1118055,38.9322179],[-82.0913613,38.9739072],[-82.051563,38.994378],[-82.0383035,39.0233442],[-82.027717,39.028321],[-81.9968703,39.0242215],[-81.9783534,38.9925563],[-81.9512524,38.9962253],[-81.9325445,38.9874503],[-81.8986414,38.931477],[-81.9282068,38.8941575],[-81.892837,38.873869],[-81.855971,38.892734],[-81.8460777,38.9060744],[-81.8439834,38.9287414],[-81.8268795,38.9463807],[-81.81252,38.9457007],[-81.7716421,38.9227144],[-81.7564972,38.9323186],[-81.7818817,38.9614688],[-81.7641678,39.0146845],[-81.808955,39.055178],[-81.8107663,39.0830086],[-81.7763976,39.0783256],[-81.7471261,39.0954122],[-81.5323915,39.0058826],[-81.5371749,38.9902301],[-81.5295829,38.9774677],[-81.5452673,38.9715118],[-81.5500685,38.9603567],[-81.5387419,38.9448025],[-81.5194109,38.9362214],[-81.5201585,38.9249966],[-81.5026499,38.917817],[-81.51004,38.905796],[-81.528831,38.89922],[-81.521248,38.819534],[-81.547623,38.670532],[-81.5077401,38.5827275],[-81.4717341,38.5464873],[-81.3493825,38.5414525],[-81.3037206,38.5348731],[-81.2738944,38.5216455],[-81.2205506,38.5318518],[-81.1940774,38.52765],[-81.132195,38.565353],[-81.0317423,38.6679527],[-80.9759615,38.6250969],[-80.9701022,38.5933185],[-80.9575618,38.5973207],[-80.9263577,38.5794537],[-80.9128574,38.5631473],[-80.9178136,38.5447405],[-80.8917624,38.537464],[-80.8786582,38.5039708],[-80.825273,38.4943362],[-80.8173566,38.4783873],[-80.9113424,38.4146684],[-81.2314241,38.2634305],[-81.3147089,38.1808116],[-81.3291819,38.1827825],[-81.3808518,37.969046],[-81.412631,37.974308],[-81.418131,37.967608],[-81.437931,37.967908],[-81.459632,37.979608],[-81.4592028,37.9897729],[-81.4888777,37.980903],[-81.5075374,37.9881337],[-81.5257384,37.9714384],[-81.541606,37.9694654],[-81.5617064,37.9441785],[-81.5587436,37.9362752],[-81.5715953,37.9275994],[-81.561999,37.9192936],[-81.5642047,37.9026207],[-81.5539244,37.8942024],[-81.5675907,37.8676065],[-81.5616743,37.8418942],[-81.5522039,37.8247826],[-81.5417965,37.8287457],[-81.5169027,37.8183918],[-81.5212446,37.8014649],[-81.515089,37.7902014],[-81.5304516,37.7895618],[-81.5760061,37.7632385],[-81.5838386,37.7771514],[-81.606017,37.7890295],[-81.7614277,37.7567587],[-81.7646405,37.751839],[-81.7015137,37.7015261],[-81.7324829,37.6937245],[-81.7368984,37.6826469],[-81.777703,37.678003],[-81.8129745,37.6558037],[-81.8342642,37.6719486],[-81.8504143,37.6643605],[-81.870466,37.6802862],[-81.8751307,37.6699322],[-81.9023427,37.6612493],[-81.9117263,37.6790634],[-81.9274781,37.6823629],[-81.9664834,37.664568],[-81.9794665,37.6679377],[-81.9915773,37.6582764],[-81.9934567,37.6406404],[-82.0003339,37.6448391],[-82.0012844,37.6623787],[-82.0226155,37.6680968],[-82.0240017,37.6820527],[-82.0411887,37.7010517],[-82.0826098,37.7014033],[-82.091126,37.7418794],[-82.1055349,37.7504639],[-82.117038,37.7479305],[-82.1106689,37.7666037],[-82.1004864,37.7666401],[-82.0999468,37.7869542],[-82.1070291,37.788616],[-82.1021732,37.7979703],[-82.1334162,37.8104749],[-82.1336586,37.82631],[-82.1461086,37.8378022],[-82.1127068,37.8532292],[-82.1287283,37.8778375],[-82.1186564,37.8814976],[-82.120145,37.89238],[-82.1282158,37.9009356],[-82.1599015,37.9076805],[-82.1721933,37.9363007],[-82.1857651,37.9423904],[-82.1809431,37.9507614],[-82.1971722,37.9627495],[-82.1905491,37.9747137],[-82.3063196,37.9436482],[-82.4037317,37.8628655],[-82.3943385,37.8423468],[-82.423513,37.860313],[-82.407459,37.867475],[-82.417679,37.870658],[-82.419781,37.883821],[-82.438582,37.900256],[-82.464297,37.915038],[-82.469058,37.90222]]],[[[-80.519571,40.423562],[-80.5190431,40.4242302],[-80.5190376,40.423318],[-80.519571,40.423562]]],[[[-80.5190257,40.5185454],[-80.5190443,40.4244245],[-80.550507,40.427633],[-80.566213,40.442362],[-80.573577,40.43556],[-80.572959,40.419783],[-80.582626,40.420053],[-80.5774555,40.3994406],[-80.6327621,40.3946712],[-80.6150596,40.4052004],[-80.6132957,40.4357771],[-80.5962594,40.4705923],[-80.6214754,40.5098695],[-80.621747,40.535275],[-80.61221,40.532559],[-80.613967,40.507337],[-80.597299,40.49735],[-80.5190257,40.5185454]]]]}}]}