{"type": "FeatureCollection", "features": [{"type": "Feature", "properties": {"slug": "chatham-kent", "members": 2, "country": "Canada", "input_hash": "a2bbbc93d8bb92ae"}, "geometry": {"type": "Polygon", "coordinates": [[[-81.8350134, 42.6078697], [-81.62422, 42.4359059], [-81.8104733, 42.3076467], [-81.7776754, 42.2813882], [-81.7808206, 42.2651611], [-81.8544671, 42.2500888], [-82.0468346, 42.2500431], [-82.3536211, 42.0906784], [-82.4653197, 42.0598609], [-82.4634355, 42.0872784], [-82.4698149, 42.0883535], [-82.4619412, 42.1094426], [-82.4559288, 42.1944852], [-82.437019, 42.1937691], [-82.4329903, 42.2470315], [-82.440321, 42.2500735], [-82.4396636, 42.260839], [-82.4514627, 42.262246], [-82.4338203, 42.2724188], [-82.4300148, 42.2977886], [-82.4437718, 42.30614], [-82.4375813, 42.316589], [-82.4537269, 42.3190016], [-82.5516258, 42.3976296], [-82.4764785, 42.4298743], [-82.4757373, 42.4706168], [-82.4351943, 42.4887292], [-82.4414546, 42.4990313], [-82.4378538, 42.5127091], [-82.4293957, 42.5192499], [-82.4157946, 42.5156364], [-82.4023062, 42.5302988], [-82.4201847, 42.5421953], [-82.4120515, 42.5595163], [-82.4202416, 42.5593522], [-82.4206027, 42.5733917], [-82.439843, 42.5862476], [-82.4646504, 42.5830763], [-82.4781972, 42.5960647], [-82.483879, 42.6314546], [-82.023991, 42.6245577], [-82.0087667, 42.6506331], [-81.8351491, 42.6509701], [-81.8350134, 42.6078697]], [[-81.8506794, 42.5637406], [-81.88473, 42.590715], [-81.8822701, 42.5856401], [-81.9063088, 42.581106], [-81.8905301, 42.5785876], [-81.9065651, 42.5657836], [-81.8798958, 42.544138], [-81.8506794, 42.5637406]], [[-81.8676556, 42.577514], [-81.8645095, 42.5750468], [-81.8661597, 42.5785808], [-81.8676556, 42.577514]]]}}]}