{"type": "FeatureCollection", "features": [{"type": "Feature", "properties": {"slug": "cherbourg-octeville", "members": 144, "country": "France"}, "geometry": {"type": "MultiPolygon", "coordinates": [[[[-1.9547006, 49.7049736], [-1.9548229, 49.7052373], [-1.954456, 49.7050422], [-1.9547006, 49.7049736]]], [[[-1.9546947, 49.721671], [-1.9540671, 49.7222848], [-1.9539531, 49.7214525], [-1.9546947, 49.721671]]], [[[-1.9505775, 49.7107793], [-1.9506479, 49.7108492], [-1.9505695, 49.7108345], [-1.9505775, 49.7107793]]], [[[-1.9500144, 49.7091076], [-1.9500192, 49.7092027], [-1.9499332, 49.709238], [-1.9500144, 49.7091076]]], [[[-1.9490947, 49.7064438], [-1.9490586, 49.7063954], [-1.9491478, 49.7064069], [-1.9490947, 49.7064438]]], [[[-1.9489004, 49.7064944], [-1.9489872, 49.7065869], [-1.9488409, 49.7065391], [-1.9489004, 49.7064944]]], [[[-1.9489625, 49.7132046], [-1.948898, 49.713147], [-1.9489731, 49.7131948], [-1.9489625, 49.7132046]]], [[[-1.9486967, 49.7128195], [-1.9486943, 49.7128735], [-1.9486502, 49.7128404], [-1.9486967, 49.7128195]]], [[[-1.9486479, 49.7128776], [-1.9485833, 49.7129172], [-1.948592, 49.7128643], [-1.9486479, 49.7128776]]], [[[-1.9489455, 49.7202578], [-1.9491815, 49.7211861], [-1.9480306, 49.7214581], [-1.9484246, 49.7204392], [-1.9489455, 49.7202578]]], [[[-1.9485697, 49.7056875], [-1.9486051, 49.7055857], [-1.9486541, 49.7056298], [-1.9485697, 49.7056875]]], [[[-1.9471333, 49.7135416], [-1.9472663, 49.7136686], [-1.9470158, 49.713634], [-1.9471333, 49.7135416]]], [[[-1.9481656, 49.7216458], [-1.9481782, 49.721832], [-1.9479736, 49.7216102], [-1.9481656, 49.7216458]]], [[[-1.9466901, 49.7144155], [-1.9469191, 49.7142185], [-1.9470969, 49.7142623], [-1.9466901, 49.7144155]]], [[[-1.6649354, 49.6698962], [-1.6645234, 49.6706712], [-1.6639604, 49.6702032], [-1.6649354, 49.6698962]]], [[[-1.5979964, 49.6714629], [-1.6468432, 49.6737642], [-1.6481682, 49.6744521], [-1.6188086, 49.6742871], [-1.5979964, 49.6714629]]], [[[-1.2412258, 49.3765928], [-1.2576781, 49.3606625], [-1.2767522, 49.3659754], [-1.3163557, 49.363094], [-1.3107945, 49.3591273], [-1.3175565, 49.3550923], [-1.308366, 49.3561056], [-1.3051305, 49.3629458], [-1.2990932, 49.3582229], [-1.3184218, 49.3376061], [-1.3271903, 49.3480472], [-1.3701022, 49.3275977], [-1.3956283, 49.3347426], [-1.389367, 49.3262519], [-1.4019082, 49.3200063], [-1.4109579, 49.3303251], [-1.4198061, 49.3254247], [-1.452908, 49.3334998], [-1.4556745, 49.3580893], [-1.4671971, 49.3682537], [-1.5014811, 49.3508863], [-1.5649166, 49.3436794], [-1.5650161, 49.3490914], [-1.5901416, 49.3488614], [-1.6069858, 49.341881], [-1.6117101, 49.3503148], [-1.6394231, 49.33225], [-1.6341017, 49.3157539], [-1.6931966, 49.2974205], [-1.7085969, 49.3266918], [-1.6991394, 49.3238124], [-1.6747967, 49.3295584], [-1.674232, 49.3320684], [-1.695241, 49.3307602], [-1.7179048, 49.3464852], [-1.7098361, 49.3360934], [-1.7177096, 49.3313319], [-1.7010693, 49.3337364], [-1.7202071, 49.3254116], [-1.766302, 49.3642991], [-1.7883594, 49.3698057], [-1.7848197, 49.3760854], [-1.7572072, 49.3683128], [-1.7579939, 49.3730374], [-1.7718576, 49.3802276], [-1.7883861, 49.3759363], [-1.7887964, 49.3679912], [-1.8091814, 49.3725292], [-1.8233624, 49.402624], [-1.8255852, 49.4515104], [-1.8472428, 49.4742486], [-1.8496319, 49.507311], [-1.881634, 49.5190907], [-1.8891927, 49.5341095], [-1.8649993, 49.5533525], [-1.8577727, 49.551402], [-1.8631252, 49.553644], [-1.84179, 49.572177], [-1.850411, 49.631628], [-1.872192, 49.657038], [-1.946369, 49.674201], [-1.9361388, 49.6899231], [-1.948228, 49.70518], [-1.9436626, 49.7140998], [-1.94877, 49.716487], [-1.934468, 49.728011], [-1.906138, 49.722387], [-1.8869403, 49.7064449], [-1.851186, 49.718025], [-1.822918, 49.690622], [-1.759076, 49.678255], [-1.7188364, 49.6800652], [-1.7007349, 49.6704655], [-1.6631304, 49.6718255], [-1.6842846, 49.6671957], [-1.671493, 49.657754], [-1.5999417, 49.6605472], [-1.5894341, 49.6524634], [-1.570635, 49.659988], [-1.5467157, 49.6540359], [-1.5074063, 49.6614677], [-1.4857803, 49.6692424], [-1.472569, 49.6863641], [-1.4736232, 49.6970664], [-1.4518197, 49.6917629], [-1.4209933, 49.7053776], [-1.3712129, 49.7069796], [-1.291153, 49.6928716], [-1.2652187, 49.696983], [-1.2729054, 49.6798213], [-1.2395091, 49.6545274], [-1.2434597, 49.648328], [-1.2281427, 49.6237598], [-1.2285289, 49.6058013], [-1.2574228, 49.612559], [-1.2665988, 49.5927117], [-1.256817, 49.5863397], [-1.2727085, 49.5707955], [-1.2714177, 49.5846926], [-1.2960577, 49.5833675], [-1.306501, 49.5671536], [-1.3071312, 49.5406586], [-1.2564027, 49.4850741], [-1.171233, 49.4130395], [-1.1591708, 49.3895278], [-1.1745001, 49.3764557], [-1.1762489, 49.363967], [-1.1885319, 49.3632538], [-1.1950325, 49.3750038], [-1.2132264, 49.3789017], [-1.2412258, 49.3765928]]], [[[-1.5848209, 49.6699738], [-1.5819561, 49.673194], [-1.5724751, 49.6749204], [-1.5806786, 49.6691752], [-1.5800885, 49.6686184], [-1.5738895, 49.6662694], [-1.5731368, 49.6658938], [-1.5725634, 49.6654907], [-1.5719636, 49.6648728], [-1.5715916, 49.6642789], [-1.5707654, 49.6606861], [-1.5848209, 49.6699738]]], [[[-1.3311321, 49.7045138], [-1.3328269, 49.7039057], [-1.3320923, 49.7050342], [-1.3311321, 49.7045138]]], [[[-1.2391721, 49.5888749], [-1.2495075, 49.5881109], [-1.2492566, 49.5904265], [-1.2391721, 49.5888749]]], [[[-1.2421629, 49.5839911], [-1.2412118, 49.5844915], [-1.2412393, 49.5839874], [-1.2421629, 49.5839911]]], [[[-1.1539455, 49.4942424], [-1.1551515, 49.4924289], [-1.1563456, 49.4928894], [-1.1539455, 49.4942424]]], [[[-1.1469686, 49.4988993], [-1.1446833, 49.4978597], [-1.1480795, 49.4976078], [-1.1469686, 49.4988993]]]]}}]}