{"type": "FeatureCollection", "features": [{"type": "Feature", "properties": {"slug": "chernivtsi", "members": 1, "country": "Ukraine", "input_hash": "796f338b0dab9f62"}, "geometry": {"type": "Polygon", "coordinates": [[[26.3277673, 48.1759714], [26.3487768, 48.1832673], [26.3494098, 48.1915897], [26.3613939, 48.1852452], [26.3771202, 48.1988728], [26.3863882, 48.194303], [26.3814783, 48.1869333], [26.4045598, 48.1894439], [26.4229542, 48.2021861], [26.4604699, 48.2078531], [26.4608395, 48.2158195], [26.5239359, 48.2136967], [26.517705, 48.2518784], [26.4857143, 48.2890826], [26.4844215, 48.297113], [26.4968213, 48.2924538], [26.4842981, 48.3035204], [26.4732715, 48.3331717], [26.4638487, 48.3471363], [26.4177141, 48.3572324], [26.4036736, 48.3323176], [26.3909975, 48.3302597], [26.3862956, 48.3492226], [26.3918906, 48.3624583], [26.3657096, 48.3581008], [26.3575771, 48.3492102], [26.3191277, 48.3656098], [26.2985766, 48.3501424], [26.2625492, 48.3651331], [26.244856, 48.3360736], [26.2104989, 48.3351759], [26.2052089, 48.3466067], [26.2265781, 48.3562989], [26.2078911, 48.3718954], [26.225393, 48.3850852], [26.1630768, 48.4418638], [26.150355, 48.4424937], [26.1041607, 48.470774], [26.0791719, 48.4646954], [26.0556596, 48.4991683], [26.0669947, 48.4931749], [26.0695188, 48.4985237], [26.0847133, 48.4744772], [26.1140996, 48.482898], [26.1009756, 48.4963583], [26.0980748, 48.5088209], [26.1063058, 48.5106424], [26.0946751, 48.5214545], [26.1222535, 48.5399502], [26.0908638, 48.5391504], [26.0443174, 48.5852662], [26.0658521, 48.607129], [26.0562708, 48.6457286], [26.0342825, 48.6462191], [26.0209667, 48.6103153], [25.9752205, 48.6208758], [25.9337812, 48.5910202], [25.9090353, 48.5868944], [25.875022, 48.5998855], [25.8490802, 48.5970976], [25.8550574, 48.6196617], [25.799178, 48.6706572], [25.780183, 48.6757227], [25.7666417, 48.6701162], [25.7379572, 48.6332455], [25.7258831, 48.638699], [25.7111769, 48.6633446], [25.6392306, 48.6700511], [25.5854266, 48.6349009], [25.5873761, 48.5898956], [25.6018487, 48.5706193], [25.5998424, 48.5429815], [25.6092023, 48.5270566], [25.5980086, 48.4731629], [25.606198, 48.4654868], [25.6027545, 48.4460918], [25.6100079, 48.425988], [25.5988258, 48.4131926], [25.6203712, 48.4133307], [25.6210066, 48.3946278], [25.6149298, 48.391167], [25.621779, 48.3787492], [25.6634075, 48.3583318], [25.6642932, 48.3473117], [25.6486881, 48.3344787], [25.6597388, 48.323187], [25.6488812, 48.3112291], [25.613122, 48.2982193], [25.5967176, 48.2543483], [25.5870831, 48.2612164], [25.5602127, 48.2516694], [25.520339, 48.2655553], [25.5144596, 48.2500656], [25.4897779, 48.2562985], [25.4789171, 48.2499264], [25.468964, 48.2055491], [25.4600247, 48.1992436], [25.4653054, 48.1894332], [25.4529029, 48.1791325], [25.4666197, 48.1624859], [25.4684275, 48.1167328], [25.421, 48.1231793], [25.3870171, 48.1161312], [25.3665304, 48.100084], [25.3773022, 48.0943086], [25.376358, 48.0764804], [25.3455636, 48.0524125], [25.3365619, 48.0562394], [25.3260699, 48.0388583], [25.362027, 48.0188479], [25.3658196, 48.0086322], [25.347071, 47.9786813], [25.3513679, 47.9742948], [25.4426795, 47.9261766], [25.5923164, 47.938443], [25.6434762, 47.9496207], [25.7749863, 47.9394492], [25.8377542, 47.967152], [25.90698, 47.9645428], [25.9149992, 47.9775177], [25.9521796, 47.970923], [26.0611312, 47.9880243], [26.1009704, 47.978256], [26.1709554, 47.9908385], [26.1941144, 48.0021195], [26.212258, 48.0508927], [26.2727453, 48.0821174], [26.2981526, 48.1337288], [26.3341734, 48.1594944], [26.3277673, 48.1759714]], [[25.4461101, 47.937399], [25.4166639, 47.9621717], [25.4169554, 47.9640023], [25.4461101, 47.937399]]]}}]}