{"type": "FeatureCollection", "features": [{"type": "Feature", "properties": {"slug": "chetumal", "members": 1, "country": "Mexico"}, "geometry": {"type": "MultiPolygon", "coordinates": [[[[-87.8831202, 18.2000617], [-87.8800718, 18.2056991], [-87.8888708, 18.2091732], [-87.8748241, 18.2094242], [-87.8796709, 18.1871479], [-87.8939322, 18.1724332], [-87.8938986, 18.2041997], [-87.8831202, 18.2000617]]], [[[-87.8935057, 18.2157849], [-87.8751433, 18.2241236], [-87.8791452, 18.2281081], [-87.873078, 18.2235809], [-87.8685075, 18.2294329], [-87.8716739, 18.2235178], [-87.8768787, 18.2228396], [-87.8857058, 18.217711], [-87.8935057, 18.2157849]]], [[[-87.8930175, 18.2590869], [-87.8946671, 18.259907], [-87.8886724, 18.2660583], [-87.8930175, 18.2590869]]], [[[-87.9088976, 18.3526111], [-87.9074693, 18.3567301], [-87.903387, 18.3561879], [-87.9088976, 18.3526111]]], [[[-88.6104515, 18.233235], [-88.6323783, 18.2130018], [-88.6411446, 18.2163174], [-88.6941351, 18.1870402], [-88.6976427, 18.1807212], [-88.684532, 18.1779053], [-88.6800524, 18.1600633], [-88.7185844, 18.1089258], [-88.710332, 18.0965137], [-88.7196663, 18.0837454], [-88.7164812, 18.0608307], [-88.7690109, 18.0312808], [-88.7696493, 18.0070547], [-88.7884408, 17.9928001], [-88.7845838, 17.9802179], [-88.8157725, 17.9499681], [-88.8303047, 17.9488913], [-88.8594148, 17.9251438], [-88.8540959, 17.9078225], [-88.8599633, 17.8942377], [-88.8825139, 17.8960038], [-88.8853569, 17.9075616], [-88.8962533, 17.9061206], [-88.9065819, 17.9158571], [-88.9136821, 17.9105945], [-88.9337406, 17.9312804], [-88.9304757, 17.9413904], [-88.937963, 17.9406345], [-88.9447796, 17.9591299], [-88.9597658, 17.9517169], [-88.9832523, 17.9579819], [-88.9872238, 17.9472843], [-89.0039887, 17.9724855], [-89.0006206, 17.984429], [-89.0365205, 18.0047061], [-89.0585976, 17.9903074], [-89.0801664, 17.9927226], [-89.1115746, 17.969704], [-89.1322558, 17.9722783], [-89.1362108, 17.9554399], [-89.1519663, 17.9395546], [-89.1521506, 17.9536471], [-89.205872, 17.9540997], [-89.2067389, 18.0210799], [-89.1630038, 18.0185173], [-89.1633606, 18.0578851], [-89.1447535, 18.057699], [-89.1443828, 18.0824429], [-89.2024577, 18.0832762], [-89.2002366, 18.1446293], [-89.1430659, 18.1458196], [-89.1428726, 18.2241638], [-89.1580586, 18.2213269], [-89.1516736, 18.2935626], [-89.1323595, 18.2934026], [-89.138214, 18.3855438], [-89.1212292, 18.3858496], [-89.1254901, 18.4506254], [-89.1502378, 18.4510594], [-89.1557422, 18.7531147], [-89.1443818, 18.7559187], [-89.1486015, 18.8773071], [-89.0662566, 18.8875549], [-89.0617939, 18.8574008], [-89.0065487, 18.8652658], [-89.00666, 18.816852], [-88.9650556, 18.816768], [-88.9661852, 18.7975634], [-88.9237125, 18.7956246], [-88.922987, 18.8186357], [-88.8267901, 18.8198879], [-88.8248919, 18.7592471], [-88.7537501, 18.7595422], [-88.7532108, 18.6260995], [-88.5870203, 18.6274205], [-88.5853258, 18.6581584], [-88.4137813, 18.6277076], [-88.4114974, 18.6426798], [-88.3886018, 18.6624823], [-88.3760833, 18.7046838], [-88.3061654, 18.7565694], [-88.2983909, 18.7834285], [-88.2763261, 18.7995317], [-88.231218, 18.8750678], [-88.1886528, 18.866073], [-88.1711366, 18.9005648], [-88.1439857, 18.9002539], [-88.1388542, 18.9275942], [-88.0849258, 18.9277836], [-88.0872895, 18.9770927], [-87.6482589, 18.9764635], [-87.61507962545082, 18.962571393026373], [-87.6315451, 18.9266766], [-87.6417965, 18.8615113], [-87.663061, 18.8266483], [-87.6722959, 18.7562758], [-87.7057967, 18.7200929], [-87.7220236, 18.6792559], [-87.7407566, 18.5391235], [-87.7618736, 18.497577], [-87.7637471, 18.4184592], [-87.8223172, 18.3261278], [-87.8419879, 18.2133535], [-87.8622553, 18.2095452], [-87.8627488, 18.2201186], [-87.8696683, 18.2142848], [-87.8637908, 18.2317728], [-87.8529762, 18.2306544], [-87.8610805, 18.2340834], [-87.8577881, 18.2458844], [-87.8667963, 18.2325511], [-87.8759158, 18.2450464], [-87.8754035, 18.2377442], [-87.8841247, 18.2406572], [-87.8815248, 18.2281303], [-87.8906572, 18.2308544], [-87.8904668, 18.2188422], [-87.8935164, 18.2297641], [-87.8983647, 18.2197626], [-87.8985851, 18.2434668], [-87.8939429, 18.250085], [-87.8853208, 18.2422759], [-87.8735447, 18.2638169], [-87.8756529, 18.2847119], [-87.8869155, 18.2833812], [-87.8773856, 18.2875414], [-87.8824282, 18.294788], [-87.8619817, 18.324688], [-87.8726475, 18.3206026], [-87.8948401, 18.2780316], [-87.8989989, 18.3011608], [-87.8976658, 18.3137708], [-87.8967083, 18.2988969], [-87.889874, 18.31771], [-87.8775935, 18.3191958], [-87.8898914, 18.324898], [-87.8794348, 18.3277727], [-87.8804326, 18.3348508], [-87.8883022, 18.3309782], [-87.8784773, 18.3500424], [-87.9041594, 18.3592071], [-87.8948683, 18.3726045], [-87.9025099, 18.3843134], [-87.9131717, 18.3899893], [-87.9301339, 18.3848224], [-87.9386513, 18.3930105], [-87.931066, 18.4168458], [-87.9363191, 18.4215779], [-87.9288022, 18.4287947], [-87.9338622, 18.43866], [-87.9563472, 18.4392554], [-88.0109271, 18.4608175], [-88.0232576, 18.4583865], [-88.046971, 18.4749562], [-88.0742973, 18.4793114], [-88.0640486, 18.4960902], [-88.0721368, 18.4926397], [-88.0777252, 18.5110081], [-88.0440795, 18.5331016], [-88.0324414, 18.5699778], [-88.0428967, 18.5707494], [-88.0439803, 18.5818333], [-88.0175793, 18.617939], [-88.0029707, 18.6683147], [-87.9973997, 18.6670225], [-88.0188748, 18.6973353], [-88.0010341, 18.7383238], [-88.0133146, 18.7483059], [-88.0125019, 18.7564485], [-87.999343, 18.7440947], [-88.0005312, 18.7601896], [-87.9745433, 18.7797722], [-87.9953921, 18.7870119], [-87.9947269, 18.7708281], [-88.0142346, 18.7687609], [-88.0088997, 18.7770372], [-88.021962, 18.7779514], [-88.01759, 18.7850109], [-88.0055523, 18.7840155], [-88.0069014, 18.7915039], [-88.0193335, 18.7858184], [-88.013041, 18.8010714], [-88.01873, 18.7929461], [-88.0377442, 18.8123167], [-88.0472016, 18.8117023], [-88.0329967, 18.8629809], [-88.0374947, 18.8663947], [-88.0290753, 18.8699455], [-88.0415744, 18.8780595], [-88.0266774, 18.8900508], [-88.0411613, 18.88832], [-88.0538991, 18.8590734], [-88.0697657, 18.8615113], [-88.0827597, 18.8427912], [-88.0783369, 18.8359719], [-88.1061874, 18.8198787], [-88.1090319, 18.8026025], [-88.1465667, 18.7425669], [-88.1419091, 18.7247734], [-88.1586467, 18.7256517], [-88.1604277, 18.7334595], [-88.1391487, 18.7960504], [-88.171801, 18.7227907], [-88.17922, 18.7272184], [-88.2032579, 18.7108993], [-88.2020885, 18.6811251], [-88.1928375, 18.7061816], [-88.1654294, 18.7177469], [-88.1529424, 18.7079384], [-88.1906113, 18.6823981], [-88.2310081, 18.5869968], [-88.2856842, 18.4941132], [-88.3168441, 18.4951694], [-88.31726975934397, 18.488400163067766], [-88.3659097, 18.4861202], [-88.3787978, 18.4787227], [-88.4032753, 18.4958969], [-88.447752, 18.4754664], [-88.4548779, 18.4879417], [-88.4758137, 18.4942097], [-88.519442, 18.4611178], [-88.5321021, 18.4076207], [-88.5518217, 18.3749209], [-88.5445476, 18.3599326], [-88.6056268, 18.291853], [-88.5972261, 18.2891331], [-88.6104515, 18.233235]]], [[[-88.2240504, 18.5626322], [-88.1866953, 18.6397746], [-88.1964612, 18.6076315], [-88.2240504, 18.5626322]]], [[[-88.09892, 18.8009623], [-88.1115586, 18.7598594], [-88.1075607, 18.7926389], [-88.09892, 18.8009623]]], [[[-88.0816425, 18.8234013], [-88.082588, 18.81155], [-88.0882448, 18.7969479], [-88.0926678, 18.8102068], [-88.0816425, 18.8234013]]], [[[-88.046692, 18.8671689], [-88.0366552, 18.8709861], [-88.0422288, 18.8573791], [-88.0375457, 18.8520665], [-88.0424822, 18.8540913], [-88.046692, 18.8671689]]], [[[-88.048017, 18.8592955], [-88.0504149, 18.8614682], [-88.0475128, 18.8674125], [-88.048017, 18.8592955]]], [[[-87.85651556562705, 18.182592428743224], [-87.85632641871169, 18.182592799232086], [-87.8564049, 18.1825645], [-87.85651556562705, 18.182592428743224]]], [[[-87.85751966280876, 18.184419300852984], [-87.8575771, 18.1845672], [-87.85753400476412, 18.184603097183523], [-87.85751966280876, 18.184419300852984]]], [[[-87.85783900550214, 18.1853152942926], [-87.8578808, 18.1853253], [-87.85794880591523, 18.18539400412791], [-87.85783900550214, 18.1853152942926]]], [[[-87.8599031, 18.1883463], [-87.85990603546762, 18.18836085725081], [-87.85989075937837, 18.18832358650964], [-87.8599031, 18.1883463]]], [[[-87.8419577, 18.2119357], [-87.8443193, 18.1911078], [-87.8564468, 18.1826637], [-87.8559414, 18.2061667], [-87.8419577, 18.2119357]]], [[[-87.8796092, 18.2178247], [-87.8716135, 18.2205543], [-87.8721365, 18.2136116], [-87.8796092, 18.2178247]]], [[[-87.3069112, 18.6026173], [-87.3233215, 18.5734885], [-87.3412349, 18.5744922], [-87.3229734, 18.5850671], [-87.3205273, 18.5988116], [-87.3069112, 18.6026173]]], [[[-87.3055494, 18.7374272], [-87.3067403, 18.7395709], [-87.3034197, 18.7386007], [-87.3055494, 18.7374272]]], [[[-87.3030174, 18.7497383], [-87.3014081, 18.7478665], [-87.303291, 18.7447652], [-87.3030174, 18.7497383]]]]}}]}