{"type":"FeatureCollection","features":[{"type":"Feature","properties":{"slug":"chiasso","member_count":12,"matched_count":11,"unmatched":["Distretto di Mendrisio (CH-TI, type='District')"],"source":"Overture Maps division_area (CC-BY 4.0)"},"geometry":{"type":"Polygon","coordinates":[[[8.9966645,45.8347229],[8.9701045,45.8323899],[8.949575423966678,45.84605407723393],[8.9122392,45.8304652],[8.9152399,45.8434021],[8.9453151,45.8670214],[8.9339498,45.8714522],[8.92005157512017,45.910053253255114],[8.949341773803894,45.915760040693385],[8.950254439990488,45.93550872834521],[8.9615197,45.9355859],[8.977133198875364,45.91435684746764],[8.9962825777788,45.91226577794333],[9.01339340188406,45.92906188969448],[9.0427678,45.9273526],[9.0765632,45.9115021],[9.0769409,45.8993081],[9.0890232,45.9006581],[9.066349,45.8755079],[9.0546518,45.8733638],[9.0507744,45.8522125],[9.0357159,45.8410364],[9.0339624,45.8225254],[8.9939171,45.822049],[8.9966645,45.8347229]]]}}]}