{"type": "FeatureCollection", "features": [{"type": "Feature", "properties": {"slug": "chinandega", "members": 1, "country": "Nicaragua", "input_hash": "85d86bb317b3bb35"}, "geometry": {"type": "Polygon", "coordinates": [[[-87.1193537, 12.697671], [-87.1374022, 12.6507282], [-87.1848219, 12.6130492], [-87.1768804, 12.594975], [-87.1479304, 12.5838475], [-87.1226772, 12.5298439], [-87.114948, 12.5289067], [-87.0710613, 12.5589546], [-87.0715044, 12.5848366], [-87.0437847, 12.6380788], [-86.9625363, 12.6937381], [-86.9438616, 12.6712488], [-86.8710767, 12.6790771], [-86.8345429, 12.7010115], [-86.8084836, 12.7072041], [-86.8254984, 12.75053], [-86.8624055, 12.788366], [-86.8799697, 12.7856435], [-86.9171504, 12.809066], [-86.9556196, 12.8078404], [-86.9709208, 12.8188364], [-86.9694343, 12.8311292], [-86.9796744, 12.840174], [-86.989474, 12.8284452], [-87.046565, 12.8340815], [-87.05675, 12.8440119], [-87.054713, 12.8573233], [-87.073431, 12.8510716], [-87.0824433, 12.8650877], [-87.091198, 12.8552974], [-87.1072269, 12.8584145], [-87.1146941, 12.8322218], [-87.1227295, 12.828488], [-87.1193594, 12.8100123], [-87.1264158, 12.80784], [-87.1157682, 12.8031669], [-87.1277162, 12.7767024], [-87.1170295, 12.7474885], [-87.1193537, 12.697671]]]}}]}