{"type":"FeatureCollection","features":[{"type":"Feature","properties":{"slug":"chistopol","member_count":1,"matched_count":1,"unmatched":["[recovered via metro-name fallback: Chistopol]"],"source":"Overture Maps division_area (CC-BY 4.0)"},"geometry":{"type":"Polygon","coordinates":[[[50.5758766,55.3547355],[50.6123776,55.3578728],[50.6055628,55.3438879],[50.6130647,55.3437044],[50.6132412,55.3296815],[50.6329393,55.3333432],[50.6316235,55.3467009],[50.6379596,55.3400442],[50.6924878,55.3495257],[50.6892333,55.3657874],[50.709078,55.3953856],[50.6088263,55.3724658],[50.5814892,55.3729809],[50.5495103,55.3849136],[50.5554078,55.369665],[50.5791259,55.3615733],[50.5758766,55.3547355]]]}}]}