{"type": "FeatureCollection", "features": [{"type": "Feature", "properties": {"slug": "chita", "members": 1, "country": "Russia", "input_hash": "62006b945250ecb3"}, "geometry": {"type": "Polygon", "coordinates": [[[113.2815743, 51.9806304], [113.302971, 51.9835236], [113.3223101, 51.9984072], [113.3613614, 52.0028617], [113.3496965, 52.0087623], [113.3645467, 52.0173451], [113.4122114, 52.0262877], [113.4499443, 52.0090575], [113.4201807, 51.9862428], [113.5152525, 51.9467057], [113.5159714, 51.9414388], [113.5286541, 51.9227886], [113.5077482, 51.9210765], [113.5144308, 51.8849599], [113.5591429, 51.8879319], [113.5520323, 51.9250437], [113.530026, 51.9228537], [113.5159968, 51.9468647], [113.5408936, 51.9490924], [113.5860671, 51.96936], [113.6020402, 51.9644098], [113.6044355, 51.9788817], [113.6187803, 51.9792388], [113.6235184, 51.9982584], [113.6621271, 52.0307047], [113.645659, 52.0705392], [113.5577202, 52.1026125], [113.5110323, 52.128255], [113.3731435, 52.1532601], [113.3665289, 52.1637022], [113.3713229, 52.1727587], [113.3514793, 52.1699608], [113.2158256, 52.0983373], [113.1650779, 52.0575243], [113.1701526, 52.0468247], [113.1581182, 52.0458438], [113.1631929, 52.0382633], [113.1456487, 52.0315735], [113.1511585, 52.0297002], [113.1385441, 52.0182801], [113.1492736, 52.0091777], [113.1336143, 51.99927], [113.1734193, 51.9753539], [113.1851517, 51.978821], [113.2047793, 51.9665543], [113.2319606, 51.964104], [113.2517647, 51.9821681], [113.2544088, 51.9722755], [113.2654002, 51.9781132], [113.2893716, 51.9745994], [113.2815743, 51.9806304]]]}}]}