{"type": "FeatureCollection", "features": [{"type": "Feature", "properties": {"slug": "chomutov", "members": 1, "country": "Czech Republic", "input_hash": "f21de75d1efc0d2f"}, "geometry": {"type": "Polygon", "coordinates": [[[13.038008, 50.3871395], [13.0695407, 50.3896213], [13.0806578, 50.3804222], [13.0986271, 50.3818911], [13.1087248, 50.3721891], [13.0931249, 50.3547315], [13.1098103, 50.3542893], [13.1148172, 50.3452492], [13.1335378, 50.3599788], [13.1841588, 50.349336], [13.2090416, 50.3614953], [13.207683, 50.3544376], [13.2221097, 50.352533], [13.2278209, 50.3387902], [13.2377313, 50.3355197], [13.2361516, 50.3214746], [13.2205589, 50.3128907], [13.2344114, 50.2964646], [13.2231358, 50.2942786], [13.2217476, 50.2842258], [13.1991543, 50.2797898], [13.2209878, 50.2821343], [13.2148342, 50.2729535], [13.2334156, 50.2725665], [13.2297636, 50.2628661], [13.2379503, 50.2483228], [13.222721, 50.2447254], [13.2263165, 50.2352458], [13.255485, 50.229068], [13.2473919, 50.2258223], [13.2546166, 50.2205717], [13.2761117, 50.2197346], [13.2638397, 50.2362925], [13.2977753, 50.2400892], [13.2935035, 50.2508795], [13.3196366, 50.2656188], [13.3101177, 50.2671364], [13.3529097, 50.2778117], [13.3670455, 50.2592791], [13.3799615, 50.2604829], [13.3976737, 50.2717227], [13.3982897, 50.2960913], [13.4340935, 50.3004179], [13.4219784, 50.315208], [13.429383, 50.3141179], [13.4260069, 50.3222557], [13.4518455, 50.3307169], [13.4382455, 50.3360384], [13.4389047, 50.3423452], [13.4514059, 50.3397378], [13.4508191, 50.3478583], [13.4373846, 50.3520262], [13.431151, 50.3677554], [13.478324, 50.3650881], [13.4970971, 50.3705036], [13.4919355, 50.3807771], [13.5092259, 50.3872391], [13.5303669, 50.3739391], [13.5446111, 50.3826969], [13.558915, 50.377135], [13.5495743, 50.3934059], [13.5361808, 50.3991158], [13.5699724, 50.4457879], [13.5445318, 50.4619321], [13.5611099, 50.4812188], [13.5335242, 50.4885249], [13.5222592, 50.5002669], [13.5275983, 50.5042465], [13.5194745, 50.5056307], [13.5233795, 50.5141153], [13.5064709, 50.5153096], [13.5070909, 50.5311765], [13.4936489, 50.5460547], [13.4796214, 50.5408342], [13.4659021, 50.563005], [13.4353594, 50.5535863], [13.4329174, 50.569302], [13.4473594, 50.5745448], [13.4327642, 50.5829797], [13.4407612, 50.5873041], [13.4175118, 50.5799815], [13.4199255, 50.5746762], [13.389309, 50.5816358], [13.3660276, 50.5986424], [13.360277, 50.619407], [13.3247908, 50.6084452], [13.3192833, 50.6018833], [13.3230156, 50.5810431], [13.2910947, 50.5749287], [13.2787109, 50.5929668], [13.2518358, 50.5946865], [13.2230313, 50.5634348], [13.2294298, 50.5501369], [13.1951666, 50.5161174], [13.1952919, 50.5032407], [13.1366229, 50.5064061], [13.1325677, 50.5186213], [13.0852972, 50.5002213], [13.0316484, 50.5097436], [13.0184407, 50.4669695], [13.0198694, 50.4465569], [12.9852194, 50.4203584], [12.9403486, 50.408293], [12.9640931, 50.4009383], [12.9742927, 50.3892989], [13.0215048, 50.3957183], [13.038008, 50.3871395]]]}}]}