{"type":"FeatureCollection","features":[{"type":"Feature","properties":{"slug":"chongzuo","member_count":7,"matched_count":7,"unmatched":[],"source":"Overture Maps division_area (CC-BY 4.0)"},"geometry":{"type":"MultiPolygon","coordinates":[[[[107.6276214,22.1953887],[107.6368446,22.1366108],[107.6481945,22.1259354],[107.6634796,22.1260734],[107.6505814,22.1114583],[107.6546402,22.0954748],[107.6748995,22.0851865],[107.6630375,22.0678249],[107.6529751,22.0669989],[107.6537511,22.0572727],[107.6428342,22.0591971],[107.6487005,22.0395322],[107.629205,22.0410344],[107.6329337,22.0311352],[107.6207289,22.028812],[107.6127686,22.0084631],[107.576034,21.9775673],[107.5817207,21.9725637],[107.5719408,21.9683462],[107.576337,21.9618087],[107.5687598,21.9548757],[107.5802412,21.9392389],[107.567883,21.9390843],[107.5626151,21.9301925],[107.5541772,21.9345753],[107.5503303,21.9178132],[107.5563138,21.9108995],[107.5385764,21.8882629],[107.5554699,21.8784241],[107.5678061,21.8493714],[107.5505888,21.8315392],[107.5445245,21.8105696],[107.5673776,21.7934262],[107.5439909,21.7653491],[107.5557272,21.7278468],[107.5372306,21.7218313],[107.5127777,21.6895726],[107.4938159,21.6787632],[107.5010751,21.6646879],[107.4821816,21.6574942],[107.463482,21.66349],[107.431202,21.64959],[107.395615,21.617367],[107.397984,21.609756],[107.382633,21.595217],[107.3570788,21.6063952],[107.3543,21.6309815],[107.3640954,21.6401167],[107.3604691,21.6635605],[107.3243451,21.706295],[107.322169,21.724517],[107.3018467,21.742071],[107.264025,21.728847],[107.2480068,21.7043911],[107.20552,21.71587],[107.1857715,21.746675],[107.1401793,21.7627581],[107.1135771,21.7927321],[107.0832735,21.8094126],[107.0432246,21.8123456],[107.0054948,21.8319076],[107.004265,21.8462508],[107.016988,21.862622],[107.0628405,21.8936223],[107.048554,21.929653],[106.9921911,21.9519221],[106.9793755,21.9265299],[106.96307,21.919614],[106.9524729,21.9313619],[106.929822,21.930794],[106.9121703,21.9830476],[106.9273928,21.9868092],[106.9399242,21.9776098],[106.9659108,21.9922467],[106.975952,22.0106059],[106.959123,22.0292233],[106.9588418,22.0396853],[106.9887244,22.0453441],[106.9996091,22.0669348],[106.986435,22.0733741],[106.9798882,22.1006172],[106.952536,22.1005055],[106.9462301,22.1120413],[106.9543434,22.1328777],[106.9419726,22.1501027],[106.9746667,22.184323],[106.9731806,22.2050372],[106.9598408,22.2129651],[106.9226822,22.2033514],[106.9133496,22.1943945],[106.9133496,22.1777436],[106.8897906,22.1610908],[106.88171,22.1747927],[106.8574681,22.1700499],[106.8456317,22.1536069],[106.8293567,22.1472822],[106.7985137,22.1540286],[106.7983999,22.1623556],[106.7806453,22.1621448],[106.7787105,22.1697337],[106.7937336,22.1730009],[106.8011314,22.1920762],[106.7778,22.1961859],[106.765736,22.1907062],[106.7556068,22.2032461],[106.7432013,22.1960806],[106.7298853,22.2087253],[106.7323892,22.2331686],[106.7214633,22.2442299],[106.7188456,22.2629795],[106.6669196,22.2859445],[106.6596991,22.3337815],[106.6361332,22.3406091],[106.620796,22.33309],[106.6125512,22.3405495],[106.582985,22.339301],[106.559923,22.348441],[106.5615034,22.3643243],[106.5854287,22.3777777],[106.5865445,22.393551],[106.5604949,22.4221368],[106.5673399,22.4406619],[106.557473,22.45882],[106.5676403,22.4731442],[106.5746488,22.4760383],[106.5783786,22.4691477],[106.5848802,22.4765036],[106.5823231,22.517256],[106.5905459,22.5494953],[106.6009014,22.5527418],[106.6074765,22.6003356],[106.6312194,22.6047702],[106.6340411,22.5912992],[106.653471,22.5759546],[106.6935003,22.5847317],[106.7085206,22.5781836],[106.7224145,22.5870051],[106.7310941,22.6014323],[106.714443,22.6142387],[106.729072,22.630267],[106.7253005,22.6448286],[106.7414474,22.6701648],[106.7577875,22.6755205],[106.7543328,22.697565],[106.7795894,22.7089873],[106.7648049,22.7182698],[106.7647438,22.7415943],[106.7883122,22.7543539],[106.7856289,22.7672108],[106.8180741,22.7720783],[106.8376464,22.8028479],[106.8186394,22.8199495],[106.764845,22.811058],[106.768563,22.82718],[106.70939,22.8651245],[106.717885,22.8767197],[106.7063891,22.8888608],[106.6624706,22.8933294],[106.6767081,22.925649],[106.715424,22.9455431],[106.7151202,22.964544],[106.742425,22.9699172],[106.7671979,22.9995726],[106.7617487,23.0050951],[106.7974293,23.023592],[106.798973,23.033975],[106.7879494,23.0375438],[106.7897993,23.04932],[106.8083536,23.0648832],[106.8123939,23.0781609],[106.7897518,23.0914334],[106.7815314,23.0784754],[106.7627493,23.0819812],[106.7619546,23.0942713],[106.7764488,23.1077516],[106.7619309,23.1159357],[106.7630948,23.1340651],[106.7886689,23.1576409],[106.7780967,23.1765934],[106.7657007,23.1782594],[106.7819537,23.1871023],[106.795292,23.18147],[106.8117561,23.2016479],[106.8341374,23.1963984],[106.8760117,23.227658],[106.9004085,23.2227068],[106.9195718,23.2427394],[106.9157197,23.2498905],[106.9220508,23.2539813],[106.9129674,23.2657091],[106.9340134,23.2785431],[106.9266745,23.2876011],[106.9428465,23.2989545],[106.9379344,23.3094439],[106.9909654,23.3008144],[107.0006206,23.3141067],[107.0236942,23.3038211],[107.0354922,23.3087612],[107.0395149,23.3042579],[107.0292149,23.294757],[107.0412517,23.2883489],[107.0382316,23.27362],[107.0546705,23.2802582],[107.0721764,23.2756282],[107.1055302,23.2883434],[107.1199631,23.2861836],[107.133172,23.3051187],[107.1653608,23.3159488],[107.1847675,23.3359207],[107.2010976,23.3357825],[107.201338,23.3233609],[107.2176691,23.3173091],[107.2428215,23.3216189],[107.2613187,23.3457363],[107.2856422,23.348799],[107.2941034,23.3573426],[107.3021762,23.3400382],[107.3326643,23.3408929],[107.3523806,23.3238092],[107.3481043,23.2987842],[107.3624616,23.2851085],[107.3620581,23.2707581],[107.3815078,23.2706352],[107.3722556,23.2593814],[107.3819885,23.2443858],[107.3723243,23.2389387],[107.3622989,23.19697],[107.3548887,23.2018143],[107.3404061,23.1933831],[107.3500926,23.1662256],[107.3423214,23.1610756],[107.3553702,23.1527171],[107.332558,23.1501344],[107.3245652,23.1347168],[107.3455748,23.1247074],[107.3599633,23.1116274],[107.3585064,23.1041506],[107.3878552,23.0987128],[107.3721785,23.0856955],[107.3489038,23.0833118],[107.3502101,23.0688795],[107.3369854,23.0633403],[107.3319706,23.0507952],[107.3660688,23.0320249],[107.3823213,23.05086],[107.3954185,23.0441481],[107.4085641,23.0541363],[107.4282902,23.0467515],[107.4399772,23.0546507],[107.455875,23.0460507],[107.4537976,23.0402415],[107.4730553,23.0351598],[107.4774411,23.0247922],[107.4709421,23.0150693],[107.4966133,22.9812076],[107.4900933,22.9509234],[107.4966733,22.9384863],[107.4719371,22.9271477],[107.4832247,22.9021229],[107.4828533,22.8731794],[107.4959587,22.8513088],[107.5025276,22.8458192],[107.5412065,22.8625415],[107.5710556,22.8632062],[107.5666458,22.8915555],[107.6131727,22.9075056],[107.6431885,22.9059328],[107.6567834,22.8692942],[107.6661514,22.8584802],[107.6765026,22.8597571],[107.6995303,22.8813025],[107.670645,22.9048823],[107.6647882,22.9211131],[107.6549324,22.920195],[107.6303503,22.9386802],[107.632598,22.9453797],[107.6795749,22.9477878],[107.6937251,22.9408577],[107.7082471,22.9545339],[107.7307064,22.9376224],[107.7395026,22.9484998],[107.7505943,22.9234979],[107.7889095,22.883933],[107.8296138,22.8730538],[107.8483339,22.8787146],[107.8688781,22.8675697],[107.8790542,22.8494351],[107.9582547,22.8459848],[107.9768788,22.8227153],[107.9680468,22.7994419],[107.9727508,22.7920077],[108.0259832,22.7883227],[108.0284934,22.774664],[108.0140884,22.7683684],[108.0225159,22.749992],[108.0084266,22.7237908],[107.9935449,22.7192422],[107.9998534,22.7091604],[107.9958041,22.6903105],[108.0164768,22.6817568],[108.0218897,22.6682403],[108.0447168,22.6588246],[108.0638202,22.6695296],[108.0719326,22.6811305],[108.0706104,22.6986876],[108.0821297,22.7056194],[108.0862191,22.6725795],[108.1020125,22.6600735],[108.099667,22.6470677],[108.0815751,22.6235602],[108.0687121,22.6280359],[108.0565401,22.6203468],[108.0544855,22.6261024],[108.0206711,22.6084654],[108.000815,22.6101567],[107.989855,22.5817153],[108.0143128,22.5449549],[107.9812566,22.5025843],[107.9925017,22.4950794],[108.006941,22.4999357],[108.0137344,22.4799419],[108.0407184,22.4829111],[108.0325786,22.4777058],[108.0552352,22.4721423],[108.0610677,22.458652],[108.0844152,22.4615144],[108.0777734,22.4141596],[108.0826832,22.4075132],[108.0961809,22.4117812],[108.1096074,22.4009027],[108.1105588,22.3901155],[108.067917,22.3637671],[108.0684486,22.3549622],[108.0459101,22.3610106],[108.0216578,22.3331207],[108.0008101,22.338985],[107.9848814,22.3280662],[107.9748267,22.3140432],[107.9830517,22.2997173],[107.9566207,22.2891309],[107.9402947,22.2713456],[107.9479943,22.2527295],[107.9575134,22.250539],[107.9293931,22.256524],[107.9191363,22.2518495],[107.9017434,22.2115607],[107.8925366,22.2091901],[107.8927635,22.2186617],[107.8843816,22.2215275],[107.859242,22.2102664],[107.8160291,22.221262],[107.7965275,22.2082687],[107.7332587,22.2040403],[107.7254017,22.1892643],[107.7057608,22.1942449],[107.6564555,22.1835083],[107.6276214,22.1953887]]],[[[105.2992558,35.1246122],[105.2514052,35.1408797],[105.232265,35.1309125],[105.2321148,35.1132037],[105.2222442,35.1091489],[105.1718187,35.1351592],[105.1433658,35.1118521],[105.123496,35.1256126],[105.1388383,35.1286136],[105.1487088,35.1450908],[105.1266074,35.165459],[105.1519704,35.1886631],[105.1337957,35.2177509],[105.139718,35.2279178],[105.1588368,35.2315986],[105.158,35.2408349],[105.1725483,35.2406421],[105.1655531,35.2491063],[105.1726341,35.2744413],[105.1894998,35.2649985],[105.2076745,35.266733],[105.2110219,35.2751945],[105.2283597,35.2683798],[105.2319646,35.2801344],[105.2528429,35.2610389],[105.267477,35.2646481],[105.2678203,35.2582706],[105.2875185,35.2554321],[105.2940416,35.2269011],[105.325284,35.1988687],[105.3099203,35.1560562],[105.2998352,35.1546177],[105.2992558,35.1246122]]]]}}]}