{"type":"FeatureCollection","features":[{"type":"Feature","properties":{"slug":"chongqing","member_count":22,"matched_count":21,"unmatched":["Y\u00fab\u0115i Q\u016b (CN-CQ, type='District')"],"source":"Overture Maps division_area (CC-BY 4.0)"},"geometry":{"type":"MultiPolygon","coordinates":[[[[106.4579969,28.8333911],[106.4647776,28.8305338],[106.448341,28.8197808],[106.4476543,28.8111701],[106.4597994,28.8028971],[106.4484054,28.7953757],[106.4502722,28.779466],[106.4598316,28.7630554],[106.4889389,28.7449679],[106.4974683,28.7309791],[106.4943999,28.7210439],[106.5062445,28.7197642],[106.5116733,28.6918911],[106.5259641,28.6763987],[106.5129393,28.6641612],[106.4990779,28.6637063],[106.5031981,28.6392853],[106.4895665,28.6074031],[106.5050268,28.5835419],[106.5214419,28.577889],[106.5044474,28.5683915],[106.4886916,28.5929614],[106.4716601,28.6031362],[106.4629054,28.5900235],[106.5022158,28.5462273],[106.4968943,28.5374809],[106.4895129,28.5422312],[106.4715743,28.5344648],[106.4374137,28.5634163],[106.395185,28.5747986],[106.3792205,28.5656778],[106.3858294,28.5570838],[106.3806796,28.5429098],[106.3693499,28.5411002],[106.3749289,28.537858],[106.3683307,28.5296293],[106.3449096,28.5448325],[106.3368416,28.536463],[106.3283986,28.5555939],[106.3414145,28.5658553],[106.3348374,28.5698191],[106.3436007,28.5875553],[106.3174973,28.6229907],[106.322937,28.6419749],[106.3022196,28.6448655],[106.3032388,28.6617466],[106.3159633,28.6683551],[106.3018012,28.6783048],[106.2968015,28.7000553],[106.3020587,28.7144904],[106.2803757,28.7224035],[106.2888622,28.7254613],[106.2824249,28.737795],[106.2673402,28.7449726],[106.266675,28.7657406],[106.2748933,28.7740729],[106.2430823,28.7969599],[106.2380934,28.8201992],[106.2511289,28.8204812],[106.2414193,28.8323432],[106.2511611,28.8325875],[106.249659,28.8434144],[106.2588537,28.8396834],[106.2603007,28.8498251],[106.2489724,28.8685224],[106.2306261,28.871792],[106.2215253,28.8934341],[106.1667359,28.925303],[106.1655161,28.9161527],[106.1435508,28.9067177],[106.1003283,28.9010601],[106.0839414,28.9049332],[106.083641,28.9176683],[106.0718607,28.9155835],[106.0683203,28.923378],[106.0433207,28.9093167],[106.0330566,28.9139667],[106.0342894,28.9308886],[106.0447661,28.9304056],[106.0344503,28.9380804],[106.0437711,28.9474054],[106.0416982,28.9555798],[106.0215854,28.9582676],[106.0201244,28.9522529],[106.002016,28.9761772],[105.9804089,28.9834317],[105.9677696,28.9764588],[105.9853864,28.9666596],[105.9709239,28.9615531],[105.963747,28.9709323],[105.9485435,28.9483915],[105.9174446,28.9349692],[105.9153807,28.9232653],[105.9034395,28.9223262],[105.9130114,28.9079716],[105.9078169,28.9015143],[105.88696,28.9106999],[105.8818853,28.9342141],[105.8741283,28.9385145],[105.8481216,28.9322799],[105.8240247,28.9474761],[105.7945252,28.9379642],[105.7895315,28.9531325],[105.7999277,28.9500063],[105.8065228,28.9605302],[105.7960653,28.9597508],[105.7839632,28.9824092],[105.7559427,28.9919363],[105.7647317,28.9977993],[105.7575917,29.00617],[105.7629073,29.0168706],[105.7378936,29.0429357],[105.7539897,29.072064],[105.7247293,29.1012312],[105.7254131,29.121462],[105.7496629,29.1358361],[105.7425293,29.1431816],[105.7332305,29.1319541],[105.7251396,29.1363537],[105.7246838,29.1621304],[105.7050833,29.1808965],[105.7202167,29.1939094],[105.7027774,29.2027622],[105.7054936,29.241649],[105.6879468,29.2728676],[105.6905557,29.2899021],[105.7135786,29.2929244],[105.7126855,29.2984841],[105.697885,29.3014962],[105.6754773,29.2769922],[105.661737,29.2787527],[105.6583557,29.272668],[105.6716085,29.2660193],[105.6535997,29.2543609],[105.6348792,29.2659695],[105.6407394,29.280308],[105.5760952,29.2734486],[105.5533847,29.2817447],[105.5152258,29.2673626],[105.506022,29.2739714],[105.5059146,29.2889778],[105.4720279,29.28203],[105.4552021,29.2918425],[105.470944,29.3125125],[105.4543304,29.3314174],[105.4473872,29.3210632],[105.4167795,29.3151973],[105.4143053,29.354532],[105.434199,29.3684026],[105.429295,29.3821907],[105.4400913,29.3890798],[105.4403059,29.4019423],[105.4241106,29.4215206],[105.369563,29.423826],[105.386084,29.4356321],[105.3845619,29.4428855],[105.3951502,29.4407749],[105.3866803,29.4590478],[105.3599908,29.4608518],[105.3539764,29.4468327],[105.3457414,29.4530368],[105.3343721,29.4445826],[105.3226565,29.4496788],[105.3342678,29.4677801],[105.3182603,29.4784938],[105.3165022,29.5149765],[105.3019783,29.5349612],[105.2913889,29.5369682],[105.2868306,29.5555517],[105.2931163,29.5728447],[105.3135211,29.5798431],[105.3074027,29.5979995],[105.3173875,29.6121272],[105.3264856,29.6064186],[105.3212499,29.5988252],[105.3323435,29.5941048],[105.3338465,29.6107389],[105.3517413,29.6297174],[105.3751123,29.6256493],[105.3733062,29.645048],[105.3897428,29.653477],[105.3797864,29.6714888],[105.3860092,29.6792445],[105.3969955,29.6741922],[105.4204688,29.6905358],[105.433342,29.6796831],[105.4727915,29.6774928],[105.4794925,29.6821975],[105.4692287,29.7022208],[105.4754394,29.7189605],[105.4882797,29.7231571],[105.5242111,29.6944104],[105.535914,29.6966342],[105.5260023,29.7094874],[105.5463677,29.7243915],[105.5399304,29.7362608],[105.5460888,29.740807],[105.5617743,29.7268978],[105.5607336,29.7441139],[105.5721251,29.7476885],[105.5675078,29.7685498],[105.5834786,29.7873328],[105.57717,29.7932045],[105.579902,29.8219276],[105.6014288,29.8203291],[105.6091937,29.846744],[105.6381136,29.8403392],[105.6650662,29.8467541],[105.6746713,29.8571946],[105.7052797,29.8432807],[105.717092,29.8517217],[105.7162767,29.8594865],[105.7341858,29.8649244],[105.7286707,29.8902572],[105.7352803,29.8947915],[105.7124425,29.8969995],[105.7068146,29.9043884],[105.7136876,29.9098496],[105.710596,29.9214591],[105.6975774,29.9310223],[105.711122,29.9328594],[105.7165333,29.9522281],[105.7275743,29.9593248],[105.7200819,29.9870406],[105.7287015,30.0015674],[105.7437555,30.0051889],[105.7413578,30.0135187],[105.7500233,30.0196534],[105.7399024,30.0296548],[105.7441105,30.0353642],[105.7248656,30.0296164],[105.7172662,30.0446666],[105.7023797,30.0381782],[105.6971746,30.0456578],[105.6833291,30.0415125],[105.670941,30.0742196],[105.655638,30.0689043],[105.6363792,30.0776428],[105.6390185,30.1036764],[105.59365,30.1117757],[105.5693825,30.1285093],[105.5676158,30.139714],[105.5897927,30.1474466],[105.5930542,30.1615847],[105.5671741,30.1644106],[105.5525992,30.1467162],[105.5440603,30.1492624],[105.5446082,30.1590847],[105.5326777,30.1555224],[105.533021,30.1677671],[105.5434351,30.1834574],[105.5583947,30.1865671],[105.5780714,30.1762169],[105.5865058,30.1854871],[105.6043291,30.1812289],[105.61443,30.1890438],[105.6384775,30.1891253],[105.6416211,30.2095022],[105.6589735,30.2129794],[105.6506117,30.2244969],[105.6327563,30.2222696],[105.6153838,30.2380947],[105.6177595,30.2507523],[105.6080487,30.2588115],[105.6232814,30.2785456],[105.6653616,30.267199],[105.6706931,30.2551932],[105.6980393,30.2605744],[105.7169301,30.2544986],[105.7180011,30.2668779],[105.7308628,30.2626134],[105.7259254,30.2805652],[105.7087967,30.2841973],[105.7112349,30.2995663],[105.7042859,30.3051975],[105.7151361,30.310039],[105.708309,30.3189846],[105.7140389,30.3268772],[105.7386926,30.321589],[105.7304551,30.3391029],[105.7504898,30.3447849],[105.7471847,30.3607302],[105.7654666,30.378577],[105.755144,30.3887998],[105.7662391,30.4065633],[105.7857435,30.4099681],[105.7927608,30.4336519],[105.8270931,30.435058],[105.8422851,30.414927],[105.8342599,30.4066365],[105.8417314,30.3948839],[105.8596658,30.4132245],[105.8705729,30.4110308],[105.8651215,30.4050673],[105.8743576,30.3894206],[105.8832552,30.3964605],[105.8743316,30.4044206],[105.8835243,30.4006793],[105.886276,30.4090386],[105.8994444,30.4032574],[105.9017708,30.4092491],[105.8980035,30.3891688],[105.9145226,30.3988238],[105.9381858,30.3747591],[105.9642969,30.3819575],[105.9909182,30.3716893],[105.9966633,30.3789103],[106.0275715,30.3766591],[106.0303019,30.363722],[106.0562156,30.3415981],[106.0662301,30.3450206],[106.0694503,30.3369568],[106.0855722,30.3478892],[106.082604,30.3277805],[106.0989844,30.3238917],[106.094623,30.3208279],[106.1019511,30.3135356],[106.111463,30.3202125],[106.1274276,30.3039757],[106.1206503,30.3279571],[106.1285125,30.3269028],[106.1291351,30.3155182],[106.1674446,30.3091023],[106.1633876,30.2997565],[106.1716703,30.2992426],[106.1674111,30.2880593],[106.1770199,30.2805302],[106.1716832,30.2737801],[106.1778402,30.2744447],[106.1666769,30.2529739],[106.1759826,30.2521473],[106.1759228,30.2343237],[106.1977637,30.2369256],[106.1880112,30.2189047],[106.2006926,30.2143155],[106.2006068,30.2067498],[106.2290032,30.2145699],[106.2368421,30.2010354],[106.2263013,30.1924881],[106.2385363,30.180268],[106.2439109,30.2011033],[106.2598508,30.1979202],[106.2598508,30.1892981],[106.2670504,30.1876486],[106.2680046,30.2061667],[106.2586364,30.2165863],[106.2756754,30.2109506],[106.2753659,30.1975637],[106.2896036,30.2042176],[106.2885627,30.2221329],[106.3025283,30.2290284],[106.2964563,30.2407195],[106.3307197,30.2282789],[106.3328015,30.24012],[106.3450323,30.2473139],[106.3864086,30.2452906],[106.3791222,30.2548819],[106.3835461,30.2582536],[106.3992466,30.2443914],[106.4242285,30.2558559],[106.4245755,30.2648468],[106.4040174,30.2784064],[106.4322089,30.2805038],[106.4248357,30.2946605],[106.4401892,30.2922637],[106.4320278,30.3060957],[106.4368343,30.3123571],[106.4517259,30.308504],[106.4438724,30.3017607],[106.4504385,30.2997228],[106.4686775,30.30265],[106.4713382,30.3100601],[106.4807796,30.2982037],[106.5058524,30.2919241],[106.5214128,30.3048048],[106.5407752,30.2996858],[106.5444659,30.3139131],[106.5560531,30.3188033],[106.589881,30.2950388],[106.6083271,30.2959062],[106.6231422,30.2688701],[106.6315203,30.2678644],[106.6399251,30.2506556],[106.6035016,30.2343122],[106.6285222,30.2202014],[106.6193304,30.2073125],[106.6299096,30.2027037],[106.6260508,30.1917614],[106.643439,30.1939407],[106.6354593,30.181455],[106.6500807,30.1772789],[106.6449523,30.1669091],[106.6545825,30.1721091],[106.6624617,30.160991],[106.6736197,30.1624567],[106.6661525,30.1532171],[106.6714525,30.1511391],[106.6687603,30.1250535],[106.6988679,30.120893],[106.6923523,30.1005093],[106.6987466,30.0954227],[106.695918,30.0762712],[106.7228156,30.0564952],[106.7221379,30.0353247],[106.7540116,30.0217402],[106.7639356,30.0278927],[106.7645482,30.0183455],[106.7835732,30.0204684],[106.7951779,30.0330903],[106.8215618,30.0336907],[106.8338808,30.0523153],[106.8579695,30.0321488],[106.8809011,30.0373795],[106.9101047,30.027823],[106.912078,30.0377475],[106.9367766,30.0457488],[106.9433212,30.0412166],[106.9533419,30.0599014],[106.9459036,30.0663206],[106.9762587,30.0883863],[106.998167,30.0559456],[107.0106983,30.0546455],[107.0150756,30.0402321],[107.0398164,30.0374643],[107.0329714,30.0473833],[107.0369625,30.0571528],[107.0476699,30.0552584],[107.0511889,30.0445786],[107.0806503,30.0668284],[107.0682263,30.0832247],[107.0767665,30.1014932],[107.0991039,30.0922109],[107.1082449,30.1052802],[107.1020007,30.1185334],[107.1271705,30.1235075],[107.140603,30.1476693],[107.2173571,30.221139],[107.233608,30.2265456],[107.27744,30.17396],[107.26476,30.139227],[107.29144,30.138697],[107.2853468,30.097765],[107.2660208,30.0956115],[107.2654855,30.0844961],[107.2383585,30.0775103],[107.30241,30.038603],[107.30473,30.022938],[107.2812139,30.0077853],[107.31936,29.984667],[107.36054,29.978197],[107.40347,30.009739],[107.43271,30.015064],[107.44376,30.000973],[107.46222,30.007074],[107.49132,29.969038],[107.52284,29.97221],[107.57452,29.958239],[107.57344,29.93189],[107.5970895,29.9112708],[107.5945997,29.8922618],[107.6057557,29.8803263],[107.6221833,29.8782447],[107.589882,29.8398458],[107.6002347,29.8362571],[107.5978902,29.8151305],[107.6091752,29.8051282],[107.6352643,29.8131301],[107.6319581,29.7778682],[107.6385406,29.7668994],[107.6205816,29.7558915],[107.6337475,29.7427752],[107.625858,29.7036192],[107.6363166,29.6921948],[107.6549776,29.6886928],[107.668403,29.6670867],[107.6795408,29.6705001],[107.7143872,29.6580511],[107.6958731,29.6131636],[107.6517862,29.5667666],[107.6520041,29.5540804],[107.6373005,29.5533296],[107.6038691,29.5262921],[107.6023238,29.5187256],[107.6120731,29.514096],[107.6120684,29.4838792],[107.5862732,29.4801552],[107.5472283,29.4518144],[107.5291096,29.4253342],[107.5103825,29.4620415],[107.4710112,29.5095795],[107.426719,29.4858592],[107.4213785,29.5108452],[107.3865925,29.5342671],[107.3739307,29.5244543],[107.3288161,29.5149492],[107.28949,29.455189],[107.2232801,29.4192246],[107.2370473,29.3810949],[107.2566274,29.3860109],[107.26147,29.372726],[107.29057,29.351475],[107.38896,29.332998],[107.3841,29.281757],[107.40331,29.270407],[107.39705,29.250866],[107.40681,29.225573],[107.39621,29.208912],[107.3967585,29.1808649],[107.408448,29.1652691],[107.4037722,29.1411766],[107.4226624,29.1322732],[107.4063907,29.0976325],[107.3662927,29.0983359],[107.3738471,29.0608548],[107.3858172,29.0629801],[107.3905865,29.0431151],[107.3597262,29.0124518],[107.3670096,28.9969456],[107.3930179,28.9965851],[107.4121887,28.960426],[107.4351936,28.9586258],[107.437438,28.9506887],[107.417332,28.9298199],[107.4104745,28.9157284],[107.4134979,28.8971581],[107.4018084,28.8955206],[107.3806807,28.8512665],[107.3257948,28.8471079],[107.3404184,28.8321353],[107.3229354,28.8121633],[107.2553587,28.7947787],[107.2416687,28.7635586],[107.2132373,28.7741105],[107.2043109,28.8170219],[107.2209191,28.8387906],[107.1886468,28.8400311],[107.200191,28.8685975],[107.1873593,28.8788945],[107.1876168,28.890656],[107.1777892,28.8811117],[107.1766734,28.8892657],[107.1402168,28.878049],[107.1380281,28.8886457],[107.0888767,28.8915131],[107.083126,28.8754302],[107.0601663,28.8681771],[107.0541582,28.8690039],[107.0567331,28.8787748],[107.0708093,28.8881314],[107.0511541,28.8966606],[107.0390305,28.8763133],[107.0522913,28.8708266],[107.0327246,28.8656191],[107.0301819,28.8828026],[107.0101404,28.8845312],[107.0133591,28.8624339],[106.9791663,28.8540991],[106.9853568,28.8330386],[106.9769025,28.8165707],[106.982696,28.7770445],[106.9478059,28.7698221],[106.9209838,28.813901],[106.9019294,28.7994984],[106.8867802,28.8014916],[106.8621898,28.7778344],[106.8415904,28.7843792],[106.8342948,28.7695212],[106.8294453,28.772192],[106.8201971,28.7576144],[106.8244028,28.7414356],[106.8494654,28.7277381],[106.8595934,28.7104254],[106.849637,28.7103501],[106.8492937,28.7022197],[106.86131,28.693637],[106.8837071,28.6975083],[106.8632694,28.6564309],[106.8643141,28.6308634],[106.8249392,28.6259476],[106.8300891,28.6160777],[106.8097472,28.5928685],[106.7914009,28.6079212],[106.7808008,28.6302231],[106.7725825,28.6161154],[106.7535281,28.6129885],[106.7542577,28.5928685],[106.7788911,28.573423],[106.7593217,28.5610605],[106.7352032,28.558045],[106.7243886,28.5460577],[106.7215562,28.5232854],[106.7390656,28.4987734],[106.743443,28.4698796],[106.7047763,28.4538074],[106.6900563,28.4599196],[106.6940903,28.4802159],[106.685164,28.4881372],[106.6734051,28.4848179],[106.6580415,28.4973402],[106.6460949,28.4830403],[106.6273194,28.4931678],[106.6288215,28.5070469],[106.6053897,28.5018424],[106.5905075,28.5136051],[106.5814,28.5104409],[106.5853053,28.4923758],[106.5601569,28.4892452],[106.5637618,28.508593],[106.5562516,28.5166253],[106.563676,28.5271078],[106.5807134,28.5266931],[106.6117841,28.5528949],[106.6029864,28.5964623],[106.6074067,28.6099886],[106.6241866,28.6076527],[106.6332418,28.6167323],[106.6304523,28.6335331],[106.6132861,28.6466403],[106.6477471,28.6524025],[106.6390353,28.6682939],[106.6274911,28.661064],[106.6141015,28.6698753],[106.6140586,28.694724],[106.5821832,28.6914582],[106.5782957,28.7052662],[106.556198,28.7241111],[106.5583008,28.75982],[106.5436667,28.7738519],[106.5302986,28.7741152],[106.5174132,28.7976133],[106.4867717,28.8101736],[106.4703566,28.836925],[106.4579969,28.8333911]],[[106.4477418,29.7739404],[106.4203261,29.6588772],[106.4446407,29.6537755],[106.453178,29.6719365],[106.4667971,29.6591663],[106.4475921,29.6335853],[106.4479406,29.6237331],[106.4596741,29.6165897],[106.4468288,29.5910343],[106.4830726,29.5580169],[106.5244782,29.5551104],[106.5440727,29.570673],[106.5819121,29.571072],[106.580165,29.6043882],[106.6084571,29.6206018],[106.6219639,29.614724],[106.6318911,29.5920784],[106.6537238,29.595047],[106.6791009,29.5654096],[106.7319461,29.5892251],[106.7487645,29.613032],[106.7868948,29.607995],[106.7935957,29.5940081],[106.8275732,29.5914784],[106.8457665,29.5794572],[106.8971983,29.6706929],[106.928432,29.6967551],[106.9424744,29.7325252],[106.9706096,29.7689739],[106.9617369,29.7769965],[106.9546092,29.7717975],[106.9495256,29.7855048],[106.9410688,29.786856],[106.9470018,29.7956893],[106.9371322,29.8043262],[106.9401645,29.8277494],[106.9325132,29.8524856],[106.9219923,29.8455576],[106.9187307,29.8284333],[106.8788409,29.8482934],[106.8682408,29.8232582],[106.857233,29.8302017],[106.8536925,29.8182318],[106.8257835,29.8037687],[106.8131942,29.8131741],[106.8223783,29.8194467],[106.7845173,29.8237578],[106.7982673,29.8388199],[106.8038893,29.8611157],[106.7755115,29.8566588],[106.782496,29.8671262],[106.7653406,29.8832857],[106.7660862,29.8996239],[106.7600298,29.9024002],[106.7370003,29.8910389],[106.7389369,29.8813601],[106.7487913,29.8798717],[106.7373061,29.8638233],[106.743207,29.8552166],[106.727924,29.8487154],[106.6909146,29.8719734],[106.6808617,29.8646979],[106.6581854,29.8825525],[106.6567577,29.8708802],[106.6434425,29.8650785],[106.6424587,29.8511984],[106.6257417,29.8412326],[106.6106844,29.8553654],[106.6168642,29.8651166],[106.6055304,29.8753012],[106.5853858,29.8519784],[106.5177384,29.8597877],[106.4966574,29.8283445],[106.4696323,29.820126],[106.4624346,29.8094234],[106.4746969,29.7952317],[106.4477418,29.7739404]],[[106.2018048,30.2048532],[106.1969983,30.2013297],[106.2020194,30.2044452],[106.2018048,30.2048532]],[[106.1584684,30.2849576],[106.1421863,30.2967063],[106.131818,30.2822894],[106.15183,30.2827347],[106.1567947,30.275952],[106.1584684,30.2849576]]],[[[106.2550913,30.2083033],[106.2539214,30.2148144],[106.257461,30.2090628],[106.2550913,30.2083033]]],[[[106.2651561,30.218921],[106.2709955,30.2173064],[106.2681944,30.2156256],[106.2651561,30.218921]]],[[[106.2245461,30.2523472],[106.201817,30.2414202],[106.1966861,30.2489766],[106.2048456,30.2588594],[106.2245461,30.2523472]],[[106.2156194,30.2502926],[106.2152204,30.2505019],[106.2151984,30.2502608],[106.2156194,30.2502926]]],[[[113.2278657,28.0816264],[113.2406759,28.0915651],[113.2284879,28.104323],[113.2377362,28.1127455],[113.2374143,28.1298723],[113.25001,28.1243466],[113.2509541,28.1499005],[113.2617473,28.1438083],[113.2668543,28.1494086],[113.27106,28.1809431],[113.2904912,28.1730039],[113.3303046,28.1965839],[113.3374178,28.1880734],[113.3567133,28.1999243],[113.3634567,28.1885368],[113.3408944,28.1759694],[113.3591437,28.1563992],[113.3531785,28.1459415],[113.3948493,28.1618192],[113.4105071,28.1470646],[113.4273362,28.1451824],[113.3183928,28.0594246],[113.3031928,28.0597108],[113.300561,28.0491086],[113.3150957,28.0396101],[113.3078277,28.0350445],[113.2948482,28.0368962],[113.2958111,28.0473716],[113.2478282,28.0648396],[113.2356314,28.0789849],[113.2280956,28.0705834],[113.2278657,28.0816264]]],[[[108.5031262,29.7340206],[108.5112762,29.7392094],[108.5166406,29.7330421],[108.5447408,29.7480984],[108.518486,29.7664636],[108.5517883,29.8212104],[108.5756063,29.8341293],[108.5747051,29.8496521],[108.5838625,29.8502911],[108.5971927,29.8684474],[108.6285424,29.8681496],[108.6310315,29.8575056],[108.6574029,29.8566495],[108.6535406,29.850992],[108.6640548,29.8433241],[108.6669302,29.8235933],[108.6526204,29.8195264],[108.6765432,29.8041937],[108.67822,29.7721563],[108.6713719,29.7569823],[108.6821222,29.7456184],[108.6764144,29.7254397],[108.6885595,29.7098604],[108.6825513,29.6930112],[108.7087512,29.7029272],[108.7148022,29.6938686],[108.7056827,29.6824044],[108.7370324,29.6695592],[108.7385773,29.6543441],[108.7551212,29.6526379],[108.7613868,29.6387352],[108.7548423,29.6635368],[108.7635434,29.6645623],[108.7686932,29.6534304],[108.7815785,29.6576726],[108.7700987,29.6612061],[108.7719762,29.6780793],[108.7617624,29.6861886],[108.7548208,29.6802372],[108.7488663,29.6917529],[108.7831771,29.6942134],[108.7800765,29.6773336],[108.7904835,29.6754506],[108.7939811,29.6643572],[108.7875545,29.6497288],[108.7740683,29.6477428],[108.7776732,29.636665],[108.8000321,29.6445725],[108.8170802,29.6340632],[108.811866,29.6464094],[108.8246655,29.6744998],[108.8320255,29.6711999],[108.8256955,29.6535237],[108.8415098,29.6616427],[108.851552,29.6388657],[108.8711858,29.6452625],[108.8820219,29.6372245],[108.8812178,29.6234737],[108.8642764,29.6005137],[108.8803052,29.5911101],[108.8960337,29.605122],[108.9048099,29.597342],[108.8955188,29.5870423],[108.9091873,29.5767789],[108.8734665,29.542038],[108.8833386,29.5332216],[108.884511,29.5063254],[108.8675568,29.4917764],[108.8622594,29.4750218],[108.877902,29.4447177],[108.9242594,29.4377872],[108.9394825,29.4138233],[108.9297008,29.4017682],[108.915925,29.3292474],[108.8994026,29.2996483],[108.9438629,29.2692545],[108.9107323,29.2184781],[108.8912487,29.2112865],[108.8497066,29.1345445],[108.8440418,29.1080013],[108.7946033,29.1325953],[108.7715149,29.1283967],[108.7685108,29.1055266],[108.7453365,29.1127256],[108.7457657,29.099002],[108.7382126,29.099152],[108.745079,29.0939021],[108.7230206,29.0828763],[108.6983013,29.0960771],[108.6900616,29.1095761],[108.6631107,29.1110758],[108.6607075,29.0753752],[108.6425114,29.0849766],[108.621397,29.0759753],[108.6216545,29.092102],[108.6101532,29.098102],[108.6127281,29.1132505],[108.6008835,29.110401],[108.5956478,29.0894769],[108.583374,29.097652],[108.5948753,29.1107009],[108.5539984,29.1428286],[108.570714,29.1651657],[108.5444498,29.2104249],[108.5657358,29.2297514],[108.5719156,29.2532679],[108.5672808,29.2682437],[108.580842,29.2844151],[108.5700274,29.3047754],[108.5441065,29.3206417],[108.5573244,29.3565563],[108.5435057,29.3867746],[108.5503721,29.4139932],[108.5733747,29.4202734],[108.5884809,29.4495759],[108.5771513,29.4657185],[108.5761428,29.4853142],[108.5052252,29.5072217],[108.4981012,29.5026651],[108.4902477,29.5157743],[108.5036373,29.5426037],[108.5155463,29.5478679],[108.5318296,29.5424973],[108.5450077,29.5500893],[108.5307598,29.58958],[108.5170698,29.5985733],[108.5097608,29.6180399],[108.5032475,29.61351],[108.4825229,29.6271154],[108.4985951,29.6795784],[108.5214848,29.6852371],[108.5229063,29.7010447],[108.502264,29.7107736],[108.511362,29.7205202],[108.5031262,29.7340206]]]]}}]}