{"type": "FeatureCollection", "features": [{"type": "Feature", "properties": {"slug": "chonburi", "members": 1, "country": "Thailand", "input_hash": "41a7bb87fb06f204"}, "geometry": {"type": "MultiPolygon", "coordinates": [[[[100.8250826, 12.6733224], [100.8216022, 12.6758265], [100.8245027, 12.6776729], [100.8250826, 12.6733224]]], [[[100.8032437, 12.7178059], [100.8057967, 12.6951314], [100.7812116, 12.6715648], [100.7657048, 12.7128377], [100.7721672, 12.7045903], [100.7751712, 12.7203022], [100.8032437, 12.7178059]]], [[[100.846637, 12.7634167], [100.843543, 12.7595727], [100.8386983, 12.7614162], [100.846637, 12.7634167]]], [[[100.6714139, 12.8675854], [100.6733033, 12.8832793], [100.6752913, 12.8768225], [100.6714139, 12.8675854]]], [[[100.7700875, 12.9283359], [100.7795395, 12.925391], [100.7898781, 12.9375256], [100.7802258, 12.900624], [100.7733866, 12.8981503], [100.7700875, 12.9283359]]], [[[100.6716432, 12.9233414], [100.6636043, 12.9425573], [100.6782876, 12.9514971], [100.6761715, 12.9391037], [100.6850857, 12.9277952], [100.6803702, 12.9201906], [100.6716432, 12.9233414]]], [[[100.647709, 12.9516227], [100.6482089, 12.9626298], [100.6534917, 12.9598056], [100.647709, 12.9516227]]], [[[100.8044499, 13.1106458], [100.8047896, 13.1167507], [100.8106444, 13.114305], [100.8044499, 13.1106458]]], [[[100.8072438, 13.1800684], [100.8091499, 13.1610713], [100.822511, 13.1412485], [100.8099044, 13.12545], [100.8070641, 13.1450713], [100.7997363, 13.1488292], [100.8051118, 13.1548097], [100.8004051, 13.1771643], [100.8072438, 13.1800684]]], [[[100.8244371, 13.1637018], [100.8208698, 13.1713119], [100.8273339, 13.1682083], [100.8244371, 13.1637018]]], [[[100.9714017, 12.5228488], [100.9744191, 12.5137654], [100.9670142, 12.5221779], [100.9714017, 12.5228488]]], [[[100.9558073, 12.5302274], [100.960249, 12.5163132], [100.955995, 12.5106049], [100.9522051, 12.5156612], [100.9558073, 12.5302274]]], [[[100.9427147, 12.5784284], [100.9465499, 12.5885148], [100.9543019, 12.5865436], [100.9631853, 12.5616319], [100.9525044, 12.549848], [100.9427147, 12.5784284]]], [[[100.9355843, 12.5727612], [100.9307581, 12.5731342], [100.9351076, 12.5765779], [100.9355843, 12.5727612]]], [[[100.9660258, 12.5891859], [100.9665944, 12.581207], [100.9611618, 12.590144], [100.9660258, 12.5891859]]], [[[100.8990159, 12.6233635], [100.9007711, 12.6274362], [100.9036882, 12.6249996], [100.8990159, 12.6233635]]], [[[100.8685438, 12.6284365], [100.8639152, 12.6396478], [100.8776236, 12.6369778], [100.8685438, 12.6284365]]], [[[100.8908622, 12.6417594], [100.8778857, 12.6453234], [100.8913578, 12.6477449], [100.8908622, 12.6417594]]], [[[101.2785844, 13.5513714], [101.2951469, 13.5254109], [101.3515364, 13.4806141], [101.3612258, 13.4637958], [101.3949132, 13.4749212], [101.4093391, 13.4696733], [101.4023186, 13.4503183], [101.4175904, 13.4533035], [101.429064, 13.4431881], [101.4449841, 13.4433734], [101.4681786, 13.4248752], [101.487556, 13.4433701], [101.4999397, 13.4179494], [101.5324008, 13.4269692], [101.5331465, 13.4146728], [101.56243, 13.3788221], [101.5558841, 13.3610768], [101.5644116, 13.3313644], [101.5804819, 13.3327356], [101.5923079, 13.3113584], [101.6684854, 13.2729401], [101.694243, 13.2218162], [101.7128712, 13.2055209], [101.7197202, 13.1788191], [101.715701, 13.1639176], [101.7028097, 13.1607936], [101.6922893, 13.1463334], [101.656688, 13.1617175], [101.635488, 13.1599313], [101.6223476, 13.1407805], [101.582351, 13.1288893], [101.5733469, 13.086521], [101.544424, 13.0709725], [101.5223097, 13.0770086], [101.5144868, 13.0591598], [101.4821275, 13.058404], [101.4586406, 13.0341824], [101.4352175, 13.0515193], [101.3940916, 13.0248107], [101.3569864, 13.057595], [101.3198752, 13.0631198], [101.3015507, 13.0530537], [101.2924566, 13.061545], [101.2708317, 13.0617616], [101.2598612, 13.0746747], [101.2133027, 13.0841566], [101.2119859, 13.0779649], [101.1745698, 13.0671302], [101.1779428, 13.0550424], [101.1896979, 13.0566068], [101.2027545, 13.0456507], [101.1914407, 13.0428316], [101.1847921, 13.0302201], [101.1591642, 13.0214537], [101.1516896, 13.028479], [101.1345773, 13.0231273], [101.1179668, 13.0332277], [101.1047262, 13.0275234], [101.0976016, 13.0328335], [101.0887371, 13.000094], [101.0941802, 12.9779908], [101.1035965, 12.9728542], [101.0908375, 12.9576066], [101.088614, 12.9153518], [101.0761115, 12.9042534], [101.080689, 12.8997789], [101.0715331, 12.8688354], [101.0615362, 12.8580939], [101.0630879, 12.8339304], [101.0486153, 12.8137991], [101.0367229, 12.8122423], [101.0133937, 12.7900795], [101.0154823, 12.7585508], [101.0034565, 12.7339163], [100.9908839, 12.7260861], [100.9947989, 12.714091], [100.9844476, 12.6934459], [100.99254850487365, 12.655396575320067], [100.9683026, 12.6443705], [100.9633165, 12.5948672], [100.9358615, 12.6089894], [100.9248226, 12.606421], [100.9139918, 12.6281688], [100.9272114, 12.6315814], [100.9305008, 12.6452823], [100.917793, 12.6583463], [100.8989298, 12.6619917], [100.8858922, 12.6523577], [100.850945, 12.6494362], [100.8622299, 12.6671049], [100.8558301, 12.6764166], [100.8429824, 12.6704219], [100.8406665, 12.675681], [100.8404239, 12.683403], [100.8553615, 12.6927013], [100.8376658, 12.6978611], [100.8341019, 12.7332657], [100.8398944, 12.7511109], [100.8545068, 12.7543606], [100.8643782, 12.767967], [100.8795858, 12.7606615], [100.8948451, 12.7673407], [100.9135249, 12.81506], [100.9071843, 12.8141133], [100.9115634, 12.8207418], [100.8985362, 12.8557476], [100.85539, 12.9094423], [100.8621676, 12.9303163], [100.8702508, 12.9255955], [100.8822175, 12.9368067], [100.8828221, 12.9714359], [100.9091223, 12.9759931], [100.9277825, 13.0079305], [100.918665, 13.0404931], [100.9101079, 13.0277523], [100.8912393, 13.0209526], [100.8891744, 13.0277679], [100.9104482, 13.033828], [100.9078372, 13.0431197], [100.8929558, 13.0388553], [100.8904788, 13.047047], [100.9050537, 13.0565878], [100.8890148, 13.0519776], [100.8845136, 13.0599943], [100.8973886, 13.0715453], [100.8824587, 13.0635129], [100.878403, 13.071175], [100.8848419, 13.0782303], [100.8718573, 13.0770513], [100.8797018, 13.109779], [100.8975937, 13.1230769], [100.9004889, 13.1437055], [100.9249488, 13.168996], [100.9363624, 13.2030534], [100.9274209, 13.2592078], [100.8975348, 13.3023879], [100.9026259, 13.3175293], [100.9181265, 13.3156466], [100.9260094, 13.3413199], [100.9356445, 13.3387239], [100.9755748, 13.3583797], [100.9849763, 13.3827414], [100.9673945, 13.4333575], [100.9711488883687, 13.471221230542813], [101.0134618, 13.4617928], [101.0111772, 13.4729121], [101.0392696, 13.480234], [101.0356928, 13.4856657], [101.0490613, 13.5088731], [101.0724771, 13.503832], [101.0708991, 13.5354296], [101.0416702, 13.5498863], [101.0443768, 13.5592215], [101.0549984, 13.5522073], [101.0940892, 13.5536356], [101.110289, 13.5693331], [101.1298765, 13.5698485], [101.1293559, 13.5781315], [101.1436216, 13.5894002], [101.1844523, 13.5880633], [101.2456763, 13.5697241], [101.2785844, 13.5513714]]]]}}]}