{"type": "FeatureCollection", "features": [{"type": "Feature", "properties": {"slug": "chrudim", "members": 1, "country": "Czech Republic", "input_hash": "8e202f0209efb0d5"}, "geometry": {"type": "Polygon", "coordinates": [[[15.6737854, 49.9790132], [15.6517638, 49.9651452], [15.6452441, 49.95169], [15.6098332, 49.9420275], [15.6018427, 49.9477255], [15.5857247, 49.9375632], [15.5397282, 49.9485892], [15.5174333, 49.9435171], [15.5354572, 49.9274063], [15.5182621, 49.9114925], [15.5205481, 49.9019341], [15.4976629, 49.8978998], [15.5052952, 49.8833139], [15.4970904, 49.8610818], [15.5748807, 49.8289032], [15.5769915, 49.820252], [15.5916931, 49.8181537], [15.5923686, 49.8086904], [15.6392454, 49.8157869], [15.6411507, 49.805916], [15.6535169, 49.8069898], [15.6621434, 49.8168197], [15.6856584, 49.810828], [15.6892407, 49.8014097], [15.7086501, 49.8042317], [15.7166383, 49.7900142], [15.7383618, 49.7793072], [15.7815888, 49.7803574], [15.7750351, 49.7556681], [15.8062098, 49.7589291], [15.8510943, 49.7365861], [15.8636805, 49.7444862], [15.8652713, 49.7322006], [15.8486557, 49.7185879], [15.8700956, 49.7026095], [15.9054026, 49.6983856], [15.9189902, 49.6852416], [15.9598549, 49.691295], [15.9535627, 49.7023865], [15.9728396, 49.7034943], [15.972296, 49.7195178], [16.0022222, 49.7392997], [16.0207051, 49.7167513], [16.0494513, 49.7113553], [16.0987205, 49.7164424], [16.074519, 49.7290072], [16.083413, 49.7432527], [16.0634482, 49.7539571], [16.0685354, 49.7613361], [16.0937075, 49.765609], [16.1353598, 49.752526], [16.1447265, 49.7611755], [16.1427759, 49.7758442], [16.1540569, 49.7921566], [16.1453735, 49.802003], [16.1530723, 49.8233865], [16.1492083, 49.8330981], [16.1192935, 49.8346948], [16.1264892, 49.8451593], [16.1100133, 49.8435761], [16.1034661, 49.8565583], [16.070739, 49.8729774], [16.0958693, 49.8847401], [16.0659337, 49.8946791], [16.0612904, 49.9060228], [16.0670146, 49.9085208], [16.0595745, 49.9085502], [16.0670907, 49.9101955], [16.0633879, 49.9251206], [16.0739891, 49.9312211], [16.068477, 49.9457884], [16.0374327, 49.9547768], [16.046882, 49.9700448], [16.0317284, 49.9792162], [16.0308266, 49.99071], [16.0100559, 49.9912498], [16.0059411, 49.9815521], [15.9843213, 49.980423], [15.9853207, 49.9720013], [15.9730944, 49.9702145], [15.9223679, 49.9934439], [15.9155453, 49.985852], [15.8889316, 49.9932506], [15.8695524, 49.9844968], [15.8475693, 50.0008377], [15.8337689, 49.9977391], [15.8325906, 49.9878593], [15.8140066, 49.98689], [15.8220478, 49.9849367], [15.8205183, 49.9788309], [15.8113832, 49.9851808], [15.8053661, 49.9750649], [15.740881, 49.9916521], [15.7283641, 49.9777978], [15.7060279, 49.979832], [15.6939568, 49.9726534], [15.6737854, 49.9790132]]]}}]}