{"type":"FeatureCollection","features":[{"type":"Feature","properties":{"slug":"cincinnati","member_count":304,"matched_count":304,"unmatched":[],"source":"Overture Maps division_area (CC-BY 4.0)"},"geometry":{"type":"MultiPolygon","coordinates":[[[[-86.3991704,37.1699028],[-86.4122565,37.1518675],[-86.4402101,37.1666199],[-86.4477367,37.1517855],[-86.4652047,37.1520821],[-86.4964946,37.1907155],[-86.5282063,37.1765982],[-86.5342781,37.182304],[-86.555735,37.1771398],[-86.5633214,37.1872777],[-86.5886908,37.1788815],[-86.5950529,37.1850828],[-86.6200295,37.1831104],[-86.6236152,37.1747607],[-86.6130212,37.1541193],[-86.674467,36.9997727],[-86.844765,37.056068],[-86.9448945,37.0725708],[-86.8940722,37.088356],[-86.8987809,37.1041738],[-86.9039888,37.1015487],[-86.8993605,37.1068564],[-86.9058077,37.1072967],[-86.8812588,37.1123024],[-86.8973106,37.1171877],[-86.9009276,37.1347933],[-86.9159872,37.1258336],[-86.9127874,37.1359026],[-86.9236486,37.1428665],[-86.9385931,37.1370836],[-86.9238878,37.1453162],[-86.92217,37.1801582],[-86.8982582,37.1764017],[-86.8906601,37.1851544],[-86.9082098,37.1894963],[-86.9090744,37.1948809],[-86.9015652,37.1919675],[-86.9043403,37.2114588],[-86.8892134,37.2179111],[-86.8707263,37.2475655],[-86.8523572,37.2514368],[-86.8256375,37.2945794],[-86.8082546,37.2913934],[-86.8188412,37.3052899],[-86.8166113,37.3282347],[-86.7983061,37.3346998],[-86.7758178,37.3262921],[-86.7706014,37.3099258],[-86.7595378,37.3041056],[-86.6121003,37.3951302],[-86.487221,37.362373],[-86.3991704,37.1699028]]],[[[-87.9404066,37.4706168],[-87.9399764,37.4332935],[-87.9301917,37.4091969],[-87.9131339,37.4110385],[-87.9154514,37.4044763],[-87.9019545,37.3982375],[-87.8687595,37.4051752],[-87.8613137,37.4095386],[-87.8656052,37.4172762],[-87.8463802,37.4204631],[-87.8442645,37.3948153],[-87.8596393,37.3924075],[-87.8600256,37.3802002],[-87.8428165,37.3746925],[-87.8186122,37.3883159],[-87.8104154,37.376454],[-87.800926,37.3794527],[-88.0524494,37.2376381],[-88.0532124,37.2289263],[-88.0890742,37.222338],[-88.080421,37.211975],[-88.0897296,37.2058517],[-88.0829917,37.1851589],[-88.1018427,37.1795198],[-88.1013124,37.1697128],[-88.1177297,37.1549974],[-88.1313047,37.1584924],[-88.1323747,37.1453332],[-88.1442062,37.1546393],[-88.1478835,37.146338],[-88.1635862,37.1430262],[-88.1605732,37.1321305],[-88.1828919,37.1260943],[-88.1824521,37.1335599],[-88.1970443,37.1313511],[-88.189874,37.1663772],[-88.2203434,37.1830204],[-88.1961488,37.2196412],[-88.2052848,37.2265659],[-88.2005885,37.2345278],[-88.2189858,37.2731523],[-88.2965275,37.3372127],[-88.2939628,37.3494716],[-88.3044589,37.3600397],[-88.3011125,37.3663991],[-88.3091781,37.3678308],[-88.2988614,37.379705],[-88.3130296,37.381144],[-88.3079507,37.3867908],[-88.3178557,37.3979341],[-88.354476,37.3970328],[-88.3580355,37.4032691],[-88.3097397,37.4395773],[-88.2839905,37.449799],[-88.0927575,37.4712015],[-88.072244,37.4819637],[-88.063311,37.515755],[-88.1331642,37.5743593],[-88.156827,37.632801],[-88.159372,37.661847],[-88.122412,37.709685],[-88.059588,37.742608],[-88.0279522,37.7992415],[-88.0013454,37.7989144],[-87.9518454,37.7717018],[-87.9341345,37.796421],[-87.9071357,37.8073005],[-87.9099721,37.8430357],[-87.9407702,37.8778975],[-87.9270417,37.9017252],[-87.8150979,37.76243],[-87.8117007,37.7710358],[-87.7930715,37.7715863],[-87.7993371,37.7600817],[-87.7842167,37.7518457],[-87.7783393,37.7650775],[-87.7620003,37.7623723],[-87.7660439,37.7490987],[-87.7539987,37.7316865],[-87.7544929,37.6693967],[-87.7345503,37.6383833],[-87.9404066,37.4706168]]],[[[-84.580539,38.473039],[-84.627199,38.485608],[-84.657173,38.532398],[-84.671351,38.527135],[-84.665416,38.543718],[-84.679296,38.551279],[-84.674505,38.557942],[-84.774322,38.618594],[-84.7876954,38.7238561],[-84.81411,38.711124],[-84.8118084,38.7023412],[-84.8345268,38.7116972],[-84.8445582,38.6967521],[-84.8688161,38.6996955],[-84.872995,38.689063],[-84.888594,38.686629],[-84.89022,38.676327],[-84.9043608,38.6783324],[-84.9123752,38.6686412],[-84.9256146,38.6733404],[-84.934026,38.6625594],[-84.962952,38.67968],[-85.0231647,38.7612585],[-84.9922871,38.7781474],[-84.9412071,38.7756465],[-84.8876058,38.7947813],[-84.8148965,38.7842779],[-84.8133945,38.7985107],[-84.8299276,38.8303695],[-84.790939,38.8605682],[-84.7877096,38.8832716],[-84.8133086,38.89523],[-84.870672,38.9009691],[-85.1402447,38.9030798],[-85.065224,39.308182],[-84.8193895,39.3051856],[-84.8153759,39.5228728],[-85.0361754,39.5261663],[-85.034706,39.728989],[-84.8143678,39.7266316],[-84.8151124,39.5677404],[-84.4787826,39.5682286],[-84.48542,39.918423],[-84.1575408,39.9232291],[-84.1668145,39.9115073],[-84.157215,39.8859913],[-84.0510104,39.8798083],[-84.0551624,39.8361536],[-84.0929383,39.8383424],[-84.1141846,39.577969],[-83.5762892,39.5445714],[-83.5909446,39.3787604],[-83.7847936,39.2628867],[-83.8086462,39.2244991],[-83.8358633,39.2233046],[-83.8344098,39.2457081],[-83.8657869,39.2473715],[-83.8721662,39.0213211],[-83.6730938,39.0203947],[-83.7053446,38.6397483],[-83.6676027,38.6263239],[-83.6405323,38.6348428],[-83.624725,38.611778],[-83.641852,38.525381],[-83.859108,38.456459],[-83.9422749,38.5045175],[-83.9609409,38.5327207],[-83.9733746,38.5890981],[-83.9916098,38.5937083],[-83.996376,38.583771],[-84.005676,38.589775],[-84.0189995,38.5841702],[-84.0202357,38.5947038],[-84.0232988,38.5839931],[-84.0337433,38.5827444],[-84.0324799,38.5958661],[-84.0517264,38.5909575],[-84.0443235,38.5963398],[-84.0501654,38.6026942],[-84.0586009,38.5914976],[-84.0672331,38.6036666],[-84.0783482,38.5982165],[-84.0836375,38.6085545],[-84.083244,38.597942],[-84.145966,38.54969],[-84.168159,38.558998],[-84.2107634,38.5504987],[-84.2179089,38.5598452],[-84.2029743,38.5651639],[-84.205414,38.582058],[-84.4003389,38.5605486],[-84.4102145,38.5657241],[-84.4265701,38.5576266],[-84.4203675,38.5515137],[-84.427824,38.5461626],[-84.4191833,38.5429453],[-84.4334011,38.5336737],[-84.4470962,38.5370848],[-84.4475293,38.529968],[-84.4551925,38.5307454],[-84.4759204,38.5434435],[-84.485295,38.508552],[-84.521393,38.508299],[-84.560982,38.492359],[-84.580539,38.473039]]],[[[-82.7629399,38.8551901],[-82.753454,38.9452909],[-82.6775986,38.9407904],[-82.6862435,38.8510804],[-82.7629399,38.8551901]]],[[[-83.1698499,40.1428004],[-82.7618137,40.1259323],[-82.7824362,39.9397373],[-82.473423,39.925065],[-82.462813,39.93038],[-82.4725632,39.8372344],[-82.39605,39.8330275],[-82.4040021,39.7445919],[-82.3660635,39.7424826],[-82.3746208,39.65504],[-82.4901552,39.6617276],[-82.496111,39.6028162],[-82.6176395,39.608722],[-82.6199855,39.5639873],[-82.7303355,39.5690592],[-82.7315239,39.5543991],[-82.8429374,39.5614788],[-82.8242645,39.7949128],[-83.2436588,39.8125402],[-83.2519742,39.9173973],[-83.2256109,39.9326685],[-83.2496006,39.9726328],[-83.2461264,39.9876269],[-83.260606,40.0024546],[-83.2515337,40.0081678],[-83.2553789,40.0476215],[-83.2119934,40.0474656],[-83.206586,40.1077227],[-83.1701157,40.1069615],[-83.1698499,40.1428004]]],[[[-82.5327657,39.2177696],[-82.423261,39.2114634],[-82.4247202,39.137656],[-82.540222,39.144447],[-82.5327657,39.2177696]],[[-82.530949,39.151131],[-82.515141,39.164473],[-82.529392,39.165476],[-82.530949,39.151131]]],[[[-82.4154115,39.390804],[-82.2896647,39.3840147],[-82.2984284,39.2947405],[-82.420177,39.2998304],[-82.4154115,39.390804]]],[[[-82.1881864,40.3833415],[-82.1921228,40.3109891],[-82.2832713,40.3123161],[-82.2813925,40.3856692],[-82.1881864,40.3833415]]],[[[-80.8254515,39.7996843],[-80.870195,39.7628826],[-80.829831,39.7119065],[-80.833882,39.703497],[-80.8636086,39.6917836],[-80.8664646,39.6531186],[-80.8793134,39.6217568],[-80.933081,39.6150972],[-81.0388266,39.5397804],[-81.0369611,39.57206],[-81.26528,39.5769099],[-81.2643145,39.6053131],[-81.2833199,39.6056783],[-81.2805253,39.7069427],[-81.3190996,39.7075356],[-81.3136253,39.8694825],[-80.821279,39.849982],[-80.8254515,39.7996843]]],[[[-81.339661,40.171352],[-81.33448,40.30463],[-81.275414,40.303616],[-81.2695786,40.4334027],[-80.8657,40.422798],[-80.882538,40.159515],[-81.111588,40.170864],[-81.339661,40.171352]]],[[[-80.880502,41.232864],[-80.876432,41.231304],[-80.880431,41.231048],[-80.880502,41.232864]]],[[[-80.858907,41.246256],[-80.865102,41.249793],[-80.858807,41.249656],[-80.858907,41.246256]]],[[[-80.905898,41.272144],[-80.8261365,41.2720415],[-80.827284,41.262347],[-80.836005,41.2646],[-80.831925,41.256324],[-80.843906,41.268656],[-80.879605,41.260559],[-80.862105,41.255966],[-80.868921,41.24983],[-80.864626,41.236684],[-80.88721,41.236693],[-80.893975,41.227025],[-80.853567,41.223865],[-80.853359,41.212022],[-80.845867,41.212199],[-80.842523,41.220494],[-80.813133,41.219721],[-80.814031,41.228034],[-80.8111721,41.2261126],[-80.8110942,41.1959242],[-80.819149,41.195913],[-80.8191626,41.2032416],[-80.905967,41.2029853],[-80.905898,41.272144]]],[[[-80.856009,41.257958],[-80.857302,41.261651],[-80.855903,41.261765],[-80.856009,41.257958]]],[[[-80.851914,41.217977],[-80.847502,41.220791],[-80.847726,41.215208],[-80.851914,41.217977]]],[[[-80.822843,41.265767],[-80.821971,41.266698],[-80.822046,41.265723],[-80.822843,41.265767]]],[[[-80.822046,41.265723],[-80.820348,41.262243],[-80.822093,41.262201],[-80.822046,41.265723]]],[[[-80.820028,41.265611],[-80.8218712,41.2720513],[-80.8110992,41.2720627],[-80.8110356,41.2577016],[-80.819581,41.257768],[-80.820028,41.265611]]]]}}]}