{"type": "FeatureCollection", "features": [{"type": "Feature", "properties": {"slug": "cirebon", "members": 2, "country": "Indonesia", "input_hash": "1f7511921efaa5fb"}, "geometry": {"type": "Polygon", "coordinates": [[[108.5863781, -6.7371132], [108.6017203, -6.7622258], [108.6266971, -6.7694813], [108.6288468, -6.7593964], [108.6357951, -6.7669776], [108.6529452, -6.7469235], [108.6761677, -6.7661732], [108.6843002, -6.7991678], [108.7086224, -6.8100342], [108.7296195, -6.8046246], [108.7529004, -6.8137894], [108.8021243, -6.7847216], [108.8103908, -6.7707704], [108.8036048, -6.7592906], [108.8207495, -6.7506925], [108.8246655, -6.738525], [108.8447417, -6.7357644], [108.848066, -6.7559383], [108.8338195, -6.7580095], [108.8270112, -6.7687533], [108.8327027, -6.8006981], [108.8255235, -6.8027609], [108.8247528, -6.8323158], [108.7926484, -6.8803829], [108.7791021, -6.8746216], [108.7713318, -6.8952645], [108.7611618, -6.8963756], [108.7669144, -6.9019632], [108.7527314, -6.921358], [108.7640624, -6.9387633], [108.7570954, -6.9578308], [108.7629395, -6.9708714], [108.7586823, -6.9836477], [108.7427825, -6.9886874], [108.7386627, -7.0053004], [108.7174758, -6.9943174], [108.7256012, -6.9627155], [108.715454, -6.9438399], [108.6831845, -6.9315375], [108.6828536, -6.9233239], [108.6660556, -6.9406066], [108.6528396, -6.9337237], [108.6657791, -6.9171832], [108.6558787, -6.9018227], [108.6377715, -6.9112175], [108.6119628, -6.8964216], [108.5992202, -6.9038275], [108.533715, -6.8801118], [108.5364837, -6.8683937], [108.5230483, -6.8702548], [108.5246734, -6.857622], [108.5080719, -6.851959], [108.511856, -6.8285859], [108.5050277, -6.822902], [108.5125122, -6.7911633], [108.4860028, -6.7891527], [108.4782867, -6.7991465], [108.4710025, -6.787427], [108.4692771, -6.7983689], [108.4559402, -6.7991245], [108.4533272, -6.7838355], [108.4047046, -6.7879453], [108.3866119, -6.7636808], [108.3649445, -6.7593101], [108.3585586, -6.7457684], [108.3704334, -6.7319188], [108.3582993, -6.7139553], [108.3688285, -6.7021181], [108.3585308, -6.6812459], [108.3395458, -6.6741068], [108.3462024, -6.6263232], [108.323586, -6.620817], [108.328613, -6.598403], [108.360863, -6.554777], [108.417496, -6.524516], [108.43106, -6.520386], [108.445358, -6.529397], [108.443276, -6.564678], [108.454231, -6.57309], [108.467506, -6.569879], [108.475296, -6.558254], [108.487, -6.559306], [108.50277, -6.534015], [108.5393777, -6.5160839], [108.5447287, -6.5915743], [108.5607147, -6.6435662], [108.5565144, -6.6609524], [108.5629678, -6.6905111], [108.5524086, -6.6968306], [108.5626772, -6.690998], [108.5684583, -6.705991], [108.5731897, -6.7026012], [108.5693863, -6.7138906], [108.5736741, -6.7104645], [108.5793588, -6.7259323], [108.5891848, -6.7267096], [108.5821307, -6.7329031], [108.583311, -6.7345987], [108.5852355, -6.7319669], [108.5898804, -6.7288026], [108.5902962, -6.7269804], [108.5899413, -6.7288629], [108.5856217, -6.7318631], [108.5863781, -6.7371132]], [[108.5888815515939, -6.74504717423116], [108.588267, -6.7455391], [108.5898254, -6.749139], [108.5888815515939, -6.74504717423116]], [[108.5873117596516, -6.749907496410728], [108.5874235, -6.7500006], [108.5898254, -6.749139], [108.5873117596516, -6.749907496410728]], [[108.58526397973769, -6.748201258129361], [108.5843027, -6.7472025], [108.58406994618986, -6.747206373017582], [108.58526397973769, -6.748201258129361]], [[108.58355905915629, -6.747214874165049], [108.5817426, -6.7472451], [108.58077780745985, -6.748062457652159], [108.58355905915629, -6.747214874165049]], [[108.5789303, -6.7499087], [108.57884046145381, -6.749703747895439], [108.5767215, -6.7514989], [108.5789303, -6.7499087]], [[108.54240272652093, -6.791027396523764], [108.5424107, -6.7910159], [108.5369805, -6.7863556], [108.54240272652093, -6.791027396523764]], [[108.5336036, -6.7865035], [108.53362024804052, -6.78650277085635], [108.5335712373827, -6.786444271037078], [108.5336036, -6.7865035]]]}}]}