{"type":"FeatureCollection","features":[{"type":"Feature","properties":{"slug":"ciudad-real","member_count":9,"matched_count":9,"unmatched":[],"source":"Overture Maps division_area (CC-BY 4.0)"},"geometry":{"type":"Polygon","coordinates":[[[-3.8204361,38.9797533],[-3.7931728,38.9419325],[-3.7877131,38.9177563],[-3.7575221,38.9140811],[-3.8902748,38.8017476],[-3.9109838,38.795578],[-3.8998156,38.8082994],[-3.9112942,38.8662086],[-3.978388,38.872791],[-3.9755042,38.8456372],[-4.0042012,38.8467909],[-4.0037007,38.8680342],[-4.0244236,38.8989613],[-4.0466147,38.9063249],[-4.0491288,38.9141601],[-4.0695015,38.9136239],[-4.0841108,38.9406485],[-4.118019,38.9441315],[-4.1437877,38.9284731],[-4.1425273,38.9398033],[-4.1822557,38.9684502],[-4.1719096,38.9753453],[-4.1582657,39.0114295],[-4.131989,39.0157152],[-4.1334501,39.0233152],[-4.1045001,39.047724],[-4.1165158,39.0857436],[-4.1018155,39.1032562],[-4.0653529,39.1148585],[-4.0745485,39.1323812],[-4.0277546,39.1494369],[-3.934553,39.160106],[-3.8021531,39.1344286],[-3.8028954,39.1070482],[-3.7331842,39.0886695],[-3.7278163,39.0692618],[-3.6876752,39.0232602],[-3.6987037,39.0052716],[-3.7310169,38.993936],[-3.7384071,38.9761466],[-3.7913646,38.9837566],[-3.8204361,38.9797533]]]}}]}