{"type": "FeatureCollection", "features": [{"type": "Feature", "properties": {"slug": "ciudad-del-carmen", "members": 1, "country": "Mexico", "input_hash": "ee7b9af3c452867e"}, "geometry": {"type": "MultiPolygon", "coordinates": [[[[-92.02404193707407, 18.528785781621306], [-92.0289035, 18.5256923], [-92.02913136067556, 18.526340137345674], [-92.02404193707407, 18.528785781621306]]], [[[-92.0200972, 18.5302976], [-92.02105191643015, 18.5302225900783], [-92.0195810667001, 18.53092938430575], [-92.0200972, 18.5302976]]], [[[-92.0247701, 18.5301643], [-92.0258819, 18.5334048], [-92.0218492, 18.532181], [-92.0247701, 18.5301643]]], [[[-92.1813211, 18.5446029], [-92.20415857879556, 18.547482416959337], [-92.16635834243644, 18.546246138122495], [-92.1813211, 18.5446029]]], [[[-92.15637, 18.5500779], [-92.16533446835533, 18.546549414545236], [-92.145960692266, 18.55929548882776], [-92.15637, 18.5500779]]], [[[-92.0730155, 18.5454804], [-92.0585686, 18.5527561], [-92.0564606, 18.5696169], [-92.0325351, 18.5847723], [-92.0272082, 18.5796087], [-92.0351848, 18.5700038], [-92.0180807, 18.5717906], [-92.0234091, 18.5586251], [-92.0136845, 18.5607048], [-92.0157284, 18.5431949], [-92.0261407, 18.5488707], [-92.0304644, 18.5439629], [-92.0284662, 18.5288151], [-92.0825854, 18.5407903], [-92.0797852, 18.5640153], [-92.0730155, 18.5454804]]], [[[-92.1454577, 18.5596026], [-92.14563349373235, 18.559510753874488], [-92.14534193872578, 18.559702568921487], [-92.1454577, 18.5596026]]], [[[-92.144813, 18.560021], [-92.1448718818635, 18.560011820956614], [-92.14479003248502, 18.560065669945747], [-92.144813, 18.560021]]], [[[-92.1419241, 18.5637071], [-92.14443507087543, 18.560667937097836], [-92.14217460238478, 18.565304864938497], [-92.1419241, 18.5637071]]], [[[-91.9523907, 18.693448], [-91.9111836, 18.6380899], [-91.8558557, 18.6117343], [-91.8831092, 18.5629678], [-91.8880123, 18.5708346], [-91.8798101, 18.5793774], [-91.8859255, 18.5866435], [-91.903097, 18.5672699], [-91.9313085, 18.572533], [-91.9230366, 18.6018051], [-91.9356161, 18.6164469], [-91.9565964, 18.5961921], [-91.9647503, 18.6037168], [-91.9610059, 18.5892061], [-91.9718099, 18.582596], [-92.0028153, 18.5977297], [-92.0086746, 18.5863999], [-92.0040346, 18.577834], [-91.9758989, 18.5840452], [-91.9732529, 18.5754111], [-92.0046294, 18.5652307], [-92.010085, 18.5526493], [-92.0151973, 18.5752535], [-92.0283079, 18.5863689], [-92.0544112, 18.5837655], [-92.0529789, 18.5963802], [-92.0330262, 18.6065091], [-92.0351025, 18.6122623], [-92.0554645, 18.5975152], [-92.0615783, 18.6203994], [-92.11887, 18.6168689], [-92.1400487, 18.5875816], [-92.1643978, 18.6067697], [-92.1615762, 18.6166096], [-92.1652025, 18.6070265], [-92.215215, 18.6014899], [-92.2300422, 18.5518], [-92.2595733, 18.5468364], [-92.2833431, 18.535782], [-92.2895443, 18.5266241], [-92.3142113, 18.5309666], [-92.3029339, 18.5235621], [-92.3016357, 18.5065164], [-92.2932029, 18.5054074], [-92.299962, 18.4944648], [-92.2900271, 18.5037541], [-92.282356, 18.5346045], [-92.2743791, 18.5288876], [-92.2775549, 18.5370103], [-92.237193, 18.5473246], [-92.2287387, 18.5508999], [-92.2235325, 18.5590292], [-92.20768060321211, 18.547773782643798], [-92.2203842, 18.5119301], [-92.1760218, 18.4582267], [-92.3103376, 18.4554383], [-92.3225298, 18.4730495], [-92.3552556, 18.4427741], [-92.364909, 18.4642398], [-92.414523, 18.488285], [-92.426336, 18.514171], [-92.426414, 18.558085], [-92.467039, 18.623402], [-92.46787062327023, 18.647305430774416], [-92.376287, 18.6679983], [-91.9842339, 18.6989156], [-91.9523907, 18.693448]]], [[[-92.0757812, 18.5739281], [-92.07469470806267, 18.57285009516116], [-92.0785126572655, 18.573048952068465], [-92.0757812, 18.5739281]]], [[[-92.0733786, 18.5741574], [-92.07311332663694, 18.574482698285767], [-92.07345552690788, 18.573832701222067], [-92.0733786, 18.5741574]]], [[[-92.1066772, 18.5744734], [-92.114319290606, 18.57641803618066], [-92.1018002, 18.5748026], [-92.1066772, 18.5744734]]], [[[-92.0595181, 18.5838469], [-92.0455599, 18.5781011], [-92.0745342, 18.5676616], [-92.0595181, 18.5838469]]], [[[-92.0918153, 18.5792008], [-92.1018002, 18.5748026], [-92.0900303646796, 18.581415432251372], [-92.0918153, 18.5792008]]], [[[-92.0701312, 18.5801807], [-92.07009772945719, 18.580210716287503], [-92.07014215115024, 18.580126338884874], [-92.0701312, 18.5801807]]], [[[-92.0893634, 18.5817266], [-92.08947795300686, 18.581725802415967], [-92.08935344978015, 18.581795754027908], [-92.0893634, 18.5817266]]], [[[-92.0880005, 18.5825197], [-92.08807262277251, 18.582515381271108], [-92.0880010660116, 18.58255558513493], [-92.0880005, 18.5825197]]], [[[-92.0722503, 18.5833075], [-92.07259149912849, 18.584045389362444], [-92.07197816756977, 18.583196071073537], [-92.0722503, 18.5833075]]], [[[-92.0749232, 18.5859147], [-92.07615160455634, 18.58897528838251], [-92.07289711453618, 18.584468593992025], [-92.0749232, 18.5859147]]], [[[-92.0666045, 18.5820113], [-92.0555618, 18.5947634], [-92.0552856, 18.5857943], [-92.0666045, 18.5820113]]], [[[-91.8308506398092, 18.431061943642188], [-91.8252151, 18.4271101], [-91.83366845863748, 18.424828033013082], [-91.8308506398092, 18.431061943642188]]], [[[-91.80145763504854, 18.466814704534343], [-91.8131948, 18.4415048], [-91.8253988, 18.4457654], [-91.8197635, 18.4371562], [-91.82991067893298, 18.433141435779298], [-91.8253125, 18.4470457], [-91.8134511, 18.4430783], [-91.80145763504854, 18.466814704534343]]], [[[-91.788964832392, 18.470002973860066], [-91.79015224209672, 18.468405629410867], [-91.79348180375527, 18.475514308349407], [-91.788964832392, 18.470002973860066]]], [[[-91.7859105, 18.4769953], [-91.78421428227068, 18.477569424575094], [-91.78568039284173, 18.47523427325676], [-91.7859105, 18.4769953]]], [[[-91.7795875, 18.4850985], [-91.7789578, 18.4859417], [-91.77977505919492, 18.484640008351278], [-91.7795875, 18.4850985]]], [[[-91.7795168, 18.4880191], [-91.78591581275064, 18.4908211406115], [-91.77378001166718, 18.488508644015077], [-91.7795168, 18.4880191]]], [[[-91.797924, 18.4934719], [-91.80281210368015, 18.496117863807196], [-91.794023884515, 18.494414592439014], [-91.797924, 18.4934719]]], [[[-91.8214299, 18.4977597], [-91.83533686936153, 18.502421587132794], [-91.81448906122978, 18.498381010309117], [-91.8214299, 18.4977597]]], [[[-91.8513921, 18.5055333], [-91.84061934951824, 18.503445400607948], [-91.845341, 18.5034753], [-91.8513921, 18.5055333]]], [[[-91.8513921, 18.5055333], [-91.8514913, 18.5057317], [-91.85145372292959, 18.505787656735937], [-91.8513921, 18.5055333]]], [[[-91.9767112, 18.510666], [-91.975753, 18.5108032], [-91.9756612, 18.5096318], [-91.9767112, 18.510666]]], [[[-91.962322, 18.513823], [-91.9637828, 18.5135533], [-91.96393993975639, 18.51356111052017], [-91.962322, 18.513823]]], [[[-91.962322, 18.513823], [-91.9606910137578, 18.515371903113948], [-91.9618892, 18.5140928], [-91.962322, 18.513823]]], [[[-92.0088843, 18.523222], [-91.98163152488053, 18.514419269066412], [-91.9942286, 18.5151996], [-92.0088843, 18.523222]]], [[[-91.9496624, 18.5239875], [-91.95365464025484, 18.52205415496113], [-91.94736184650885, 18.528030249410257], [-91.9496624, 18.5239875]]], [[[-91.9603729, 18.5271226], [-91.9694924, 18.5237757], [-91.9870019, 18.5326667], [-91.9603729, 18.5271226]]], [[[-92.0116214, 18.5297859], [-92.01054366210302, 18.536013888694608], [-92.0088843, 18.523222], [-92.0116214, 18.5297859]]], [[[-92.018713, 18.5312093], [-92.01882995115183, 18.53129032133611], [-92.01827292561535, 18.531557991394912], [-92.018713, 18.5312093]]], [[[-92.0012605, 18.560598], [-91.9923221, 18.537571], [-92.0029503, 18.5482095], [-92.0012605, 18.560598]]], [[[-91.8979509, 18.5449995], [-91.94409570521714, 18.531412876785133], [-91.9669229, 18.5703871], [-91.9613868, 18.5809689], [-91.951008, 18.5661664], [-91.9333389, 18.5676488], [-91.924485, 18.5605497], [-91.9345272, 18.5581799], [-91.9234657, 18.5481485], [-91.9068092, 18.5493716], [-91.8978694, 18.5635246], [-91.8972632, 18.5453233], [-91.8565178, 18.5266903], [-91.8552769, 18.5215201], [-91.8979509, 18.5449995]]], [[[-91.9536661, 18.591503], [-91.9588964, 18.5925186], [-91.9546357, 18.5951524], [-91.9536661, 18.591503]]], [[[-91.0289573, 19.0171921], [-91.0032768, 18.9846844], [-91.0261283, 18.9681154], [-90.9664781, 18.9169337], [-90.9442706, 18.9419888], [-90.9011674, 18.9102262], [-90.9162321, 18.8903581], [-90.9105496, 18.8784652], [-90.9157636, 18.8722975], [-90.871227, 18.832825], [-90.8237442, 18.8309742], [-90.8321477, 18.798893], [-90.840021, 18.7994168], [-90.8440855, 18.7613289], [-90.8108314, 18.7582874], [-90.8121485, 18.7447029], [-90.7954281, 18.7421655], [-90.8040436, 18.7123284], [-90.823008, 18.7146369], [-90.8275169, 18.6859913], [-90.869347, 18.6812445], [-90.8709032, 18.6708175], [-90.8905958, 18.6764443], [-90.904023, 18.6219257], [-90.9199335, 18.6234287], [-90.9158739, 18.6539529], [-90.9788069, 18.6570075], [-90.9819335, 18.6377541], [-90.9682659, 18.635683], [-90.9752971, 18.5869382], [-90.9969973, 18.5870857], [-90.9713346, 18.5568912], [-90.9865964, 18.5449609], [-90.9952418, 18.5551892], [-90.9852372, 18.5631145], [-90.9940177, 18.5729922], [-91.01309, 18.5586851], [-90.9950007, 18.5388706], [-91.0299554, 18.4147754], [-91.0040671, 18.3914294], [-90.9938655, 18.3909685], [-90.9973148, 18.3582376], [-91.0159924, 18.3616028], [-91.0186111, 18.3351069], [-91.0687211, 18.3405911], [-91.0660361, 18.3700311], [-91.0963872, 18.3640641], [-91.0978655, 18.3451621], [-91.0843954, 18.3380169], [-91.1028713, 18.3398908], [-91.1050905, 18.3275455], [-91.127158, 18.3282683], [-91.1153028, 18.3193128], [-91.1164865, 18.3085311], [-91.1051463, 18.3067574], [-91.108545, 18.3026003], [-91.1197953, 18.3041302], [-91.133749, 18.2874666], [-91.1623059, 18.2870225], [-91.1749791, 18.2757239], [-91.1858068, 18.2769149], [-91.187388, 18.2276709], [-91.2639837, 18.209262], [-91.2677245, 18.1999117], [-91.2463101, 18.2031122], [-91.2540746, 18.1561218], [-91.239429, 18.0988384], [-91.2991545, 18.1029037], [-91.3040673, 18.077978], [-91.3126906, 18.0853257], [-91.3284181, 18.0628228], [-91.3595437, 18.0704047], [-91.3834182, 18.0637306], [-91.3992269, 18.0803777], [-91.4330699, 18.0814036], [-91.4446071, 18.0960743], [-91.4700935, 18.1036301], [-91.4765637, 18.1133174], [-91.5042462, 18.1167223], [-91.5057921, 18.1299492], [-91.5165492, 18.1305044], [-91.515253, 18.1549642], [-91.501731, 18.1558426], [-91.5069201, 18.1703972], [-91.5157886, 18.1698668], [-91.5345462, 18.1461457], [-91.5528476, 18.1582075], [-91.5803271, 18.1581836], [-91.5722114, 18.141922], [-91.5934385, 18.1286412], [-91.589812, 18.1082874], [-91.6077239, 18.101524], [-91.6066564, 18.0778133], [-91.6196734, 18.0609965], [-91.6124322, 18.0448838], [-91.6248484, 17.9491082], [-91.6130421, 17.9128067], [-91.6330857, 17.9050551], [-91.6291054, 17.8971261], [-91.6389027, 17.8735056], [-91.7387992, 17.9361281], [-91.7179349, 17.9605516], [-91.7507755, 17.9945497], [-91.7534663, 18.0099535], [-91.6580628, 18.0173403], [-91.6572838, 18.023332], [-91.7268945, 18.0184487], [-91.7515815, 18.0332267], [-91.7606959, 18.0560742], [-91.7324236, 18.0633652], [-91.7323868, 18.0961897], [-91.7540324, 18.1502908], [-91.7339178, 18.154862], [-91.734283, 18.164763], [-91.7522834, 18.1850527], [-91.7713956, 18.1701579], [-91.7635404, 18.1120209], [-91.7730152, 18.1112816], [-91.7779332, 18.1745068], [-91.8042344, 18.1936353], [-91.8016404, 18.2147255], [-91.8184835, 18.2313935], [-91.8142622, 18.2373996], [-91.8301172, 18.2630566], [-91.8346587, 18.2952172], [-91.8267708, 18.323075], [-91.8463204, 18.3281511], [-91.8966594, 18.3030176], [-91.9063112, 18.2894965], [-91.9284396, 18.3184699], [-91.8642112, 18.3468354], [-91.8573046, 18.3799255], [-91.8508299, 18.382194], [-91.8582534, 18.3943829], [-91.8376728, 18.4011944], [-91.8483749, 18.4009759], [-91.8489399, 18.4081126], [-91.8201068, 18.4286954], [-91.8066984, 18.4181958], [-91.8039473, 18.4269948], [-91.793848, 18.4119673], [-91.8051776, 18.4155009], [-91.8114889, 18.3971769], [-91.792582, 18.3883629], [-91.7881697, 18.3752366], [-91.7501682, 18.3795841], [-91.7335278, 18.3549316], [-91.7236626, 18.3470179], [-91.717397, 18.349882], [-91.7181426, 18.3425104], [-91.709109, 18.3400141], [-91.7034173, 18.3437465], [-91.6983748, 18.3331195], [-91.6921145, 18.3343365], [-91.6887617, 18.3385642], [-91.6972871, 18.3351436], [-91.7031169, 18.3466895], [-91.7098171, 18.3425652], [-91.7172682, 18.351435], [-91.7232978, 18.3492812], [-91.7363334, 18.3859373], [-91.7583168, 18.395884], [-91.7633861, 18.4208297], [-91.7946822, 18.4475987], [-91.7916191, 18.4529469], [-91.7802438, 18.4478378], [-91.7693996, 18.4319093], [-91.7439938, 18.438445], [-91.7525795, 18.4558931], [-91.7842162, 18.4685478], [-91.778727, 18.4849117], [-91.6034782, 18.4429831], [-91.5396658, 18.4432121], [-91.5234531, 18.4475478], [-91.5121543, 18.477925], [-91.4877248, 18.499107], [-91.3760698, 18.5410079], [-91.3122654, 18.5555837], [-91.2963478, 18.6066744], [-91.2646294, 18.6094007], [-91.2641439, 18.6162919], [-91.239996, 18.6118308], [-91.2381291, 18.6206969], [-91.225597, 18.6248565], [-91.2268639, 18.6363587], [-91.23873, 18.6313213], [-91.2705302, 18.6410403], [-91.276077, 18.6261413], [-91.2881416, 18.625572], [-91.2814039, 18.6303681], [-91.2756586, 18.6682626], [-91.2507516, 18.6810438], [-91.2443304, 18.6930009], [-91.2378958, 18.7455526], [-91.23781, 18.7440693], [-91.2368578, 18.7436146], [-91.2348756, 18.7460403], [-91.2308979, 18.741255], [-91.2298787, 18.7418214], [-91.2297311, 18.7440896], [-91.2272206, 18.7438864], [-91.2246081, 18.7404727], [-91.2260927, 18.7455704], [-91.2299806, 18.744336], [-91.2306109, 18.7414429], [-91.2346879, 18.7464466], [-91.2375739, 18.7448084], [-91.2356508, 18.7466219], [-91.2222907, 18.7514629], [-91.2186429, 18.7486691], [-91.2252197, 18.7544853], [-91.2280467, 18.7552066], [-91.2425977, 18.7497968], [-91.2915722, 18.7964908], [-91.3073784, 18.7899117], [-91.3275339, 18.7666035], [-91.3318858, 18.7794903], [-91.3449481, 18.7750437], [-91.3728511, 18.79206], [-91.3742459, 18.8121695], [-91.3919807, 18.8046033], [-91.3833547, 18.8303066], [-91.3601321, 18.8463653], [-91.3664407, 18.8630774], [-91.3578576, 18.8673465], [-91.3560149, 18.8640673], [-91.3430893, 18.8601991], [-91.3131693, 18.8766331], [-91.344409, 18.8607093], [-91.345105, 18.869594], [-91.3518199, 18.8640051], [-91.3627687, 18.877326], [-91.2953407, 18.9200316], [-91.2124054, 18.9549188], [-91.0952479, 19.022446], [-91.1017335, 19.024401], [-91.0994654, 19.0321628], [-91.0475208, 18.9858076], [-91.0289573, 19.0171921]]], [[[-91.7781232, 18.4863689], [-91.77798070799645, 18.48636803043936], [-91.7789578, 18.4859417], [-91.7781232, 18.4863689]]], [[[-91.2956129, 18.6166617], [-91.2932029, 18.6090397], [-91.2960878, 18.606804], [-91.2956129, 18.6166617]]], [[[-91.6909611, 18.6358784], [-91.6694847, 18.6505858], [-91.6745889, 18.6590687], [-91.6589356, 18.6615133], [-91.6608828, 18.6516735], [-91.6909611, 18.6358784]]], [[[-91.694389, 18.6606569], [-91.6939008, 18.6770342], [-91.6905266, 18.6764193], [-91.694389, 18.6606569]]], [[[-91.6989729, 18.703843], [-91.6990601, 18.7032727], [-91.6995335, 18.7040247], [-91.6989729, 18.703843]]], [[[-91.7004132, 18.6988292], [-91.6970015, 18.7065728], [-91.5338481, 18.7798509], [-91.5096063, 18.752644], [-91.5274537, 18.7381269], [-91.536136, 18.7635343], [-91.5485466, 18.7671533], [-91.551894, 18.7584473], [-91.539883, 18.7581375], [-91.5422273, 18.7422024], [-91.565246, 18.7369547], [-91.5663457, 18.7518744], [-91.5758622, 18.7307111], [-91.5841582, 18.7338279], [-91.5786651, 18.742116], [-91.6253489, 18.7309601], [-91.6121149, 18.7191886], [-91.5943533, 18.7182588], [-91.6627765, 18.6639732], [-91.6778612, 18.6703361], [-91.6919589, 18.6976554], [-91.7015934, 18.6669616], [-91.729129, 18.6632921], [-91.7669266, 18.6384148], [-91.7848358, 18.6342441], [-91.796954, 18.6414672], [-91.8263302, 18.6278557], [-91.8475002, 18.645024], [-91.8436874, 18.6555351], [-91.847983, 18.6472198], [-91.8529082, 18.6535738], [-91.8397567, 18.6648372], [-91.7435646, 18.6789603], [-91.7004132, 18.6988292]]], [[[-91.5551475, 18.7178524], [-91.5637547, 18.7240101], [-91.5288135, 18.7374538], [-91.5551475, 18.7178524]]], [[[-91.3791865, 18.8665343], [-91.3712177, 18.8714252], [-91.3714027, 18.8696422], [-91.3791865, 18.8665343]]], [[[-91.1872691, 18.9815218], [-91.2243332, 18.9597584], [-91.2227547, 18.9541725], [-91.2406129, 18.9463286], [-91.2516958, 18.9515367], [-91.2450627, 18.9448445], [-91.2602332, 18.9377257], [-91.2592971, 18.9449066], [-91.2665123, 18.9366183], [-91.2856203, 18.9379756], [-91.297119, 18.922782], [-91.2986076, 18.9314535], [-91.2976205, 18.9225904], [-91.3192686, 18.909603], [-91.3277793, 18.9171441], [-91.3556555, 18.9094127], [-91.3713116, 18.8945222], [-91.3677254, 18.8789452], [-91.3813618, 18.873585], [-91.3864929, 18.8912917], [-91.3852644, 18.8779453], [-91.3904089, 18.8857162], [-91.393016, 18.8761839], [-91.393311, 18.8781838], [-91.4029965, 18.876453], [-91.4042652, 18.8799274], [-91.4048499, 18.8801], [-91.4054748, 18.8798284], [-91.4073712, 18.8766484], [-91.4049652, 18.8799045], [-91.4031279, 18.8763768], [-91.3935766, 18.876958], [-91.3934451, 18.8710242], [-91.4055848, 18.8635089], [-91.4095593, 18.8727883], [-91.4068294, 18.8632957], [-91.4097556, 18.8698922], [-91.4701563, 18.802605], [-91.4793878, 18.7857714], [-91.4725079, 18.7825579], [-91.4979891, 18.7817645], [-91.4980164, 18.7912195], [-91.4497045, 18.8304284], [-91.4214715, 18.8645064], [-91.3938389, 18.8915867], [-91.18453944512137, 18.994049826695164], [-91.1872691, 18.9815218]]], [[[-91.3313037, 18.9070934], [-91.3237345, 18.9079942], [-91.3474265, 18.8939462], [-91.3313037, 18.9070934]]], [[[-91.1637428, 18.9990148], [-91.1636737430188, 18.998981802589263], [-91.163949541662, 18.998948219652075], [-91.1637428, 18.9990148]]], [[[-91.1410889, 19.0103352], [-91.1313287037252, 19.013043875606368], [-91.13903464925549, 19.00648035489237], [-91.1410889, 19.0103352]]], [[[-91.1148696, 19.0275932], [-91.11202065789898, 19.02948945755723], [-91.11514009587658, 19.026832483704833], [-91.1148696, 19.0275932]]], [[[-91.1111207, 19.0297299], [-91.11103393887566, 19.02972902066428], [-91.11118813717144, 19.029694574066447], [-91.1111207, 19.0297299]]], [[[-91.1100626, 19.0301338], [-91.10952429027884, 19.03006626341929], [-91.11057013777264, 19.029832629916186], [-91.1100626, 19.0301338]]], [[[-91.107528, 19.0305374], [-91.10739820069756, 19.030541213887435], [-91.10780245276366, 19.03045090738778], [-91.107528, 19.0305374]]], [[[-91.1046022, 19.0314764], [-91.103092621361, 19.031503043971895], [-91.10527280554966, 19.031016009225024], [-91.1046022, 19.0314764]]], [[[-91.1020379, 19.0319346], [-91.10156071685682, 19.03184525850877], [-91.10229101272897, 19.031682116574668], [-91.1020379, 19.0319346]]], [[[-91.1003736, 19.0322573], [-91.0995754371512, 19.032288753239136], [-91.10123462242429, 19.031918105252743], [-91.1003736, 19.0322573]]]]}}]}