{"type": "FeatureCollection", "features": [{"type": "Feature", "properties": {"slug": "ciudad-juarez", "members": 1, "country": "Mexico", "input_hash": "7b729a947b0cf790"}, "geometry": {"type": "Polygon", "coordinates": [[[-106.5282613, 31.7833826], [-106.8672128, 31.7837868], [-106.8631479, 31.7555968], [-106.8457813, 31.7413902], [-106.830798, 31.6796384], [-106.8774647, 31.6224143], [-106.8001632, 31.6052131], [-106.749012, 31.6034103], [-106.7497794, 31.5041733], [-106.7415445, 31.5033137], [-106.7500393, 31.4959446], [-106.7398176, 31.4792592], [-106.7086516, 31.4666374], [-106.7212878, 31.4546977], [-106.688832, 31.4320422], [-106.7417049, 31.4080627], [-106.7417634, 31.4003376], [-106.8484589, 31.4012447], [-106.8468539, 31.3717903], [-106.9516255, 31.3358965], [-106.9224991, 31.2369156], [-106.8821836, 31.2341054], [-106.8632709, 31.1859894], [-106.8359322, 31.1517045], [-106.8218836, 31.145591], [-106.8266894, 31.1232958], [-106.8212885, 31.1199567], [-106.7769631, 31.1250969], [-106.7457757, 31.1379311], [-106.7456028, 31.1602759], [-106.6590254, 31.1742918], [-106.6146892, 31.1519925], [-106.5895828, 31.1514093], [-106.5014909, 31.1525452], [-106.5074162, 31.1873298], [-106.3907683, 31.1876023], [-106.3968312, 31.1590455], [-106.3739911, 31.1547056], [-106.3669341, 31.1871457], [-106.3103036, 31.1537141], [-106.2642554, 31.1765923], [-106.2646192, 31.2545881], [-106.2717426, 31.2452169], [-106.2804126, 31.2539788], [-106.2803751, 31.272006], [-106.2635808, 31.2730591], [-106.2661255, 31.3181643], [-106.2550087, 31.3176394], [-106.2551802, 31.3230786], [-106.2665095, 31.3227056], [-106.2701235, 31.370643], [-106.2809909, 31.3712086], [-106.259544, 31.4339343], [-106.2348728, 31.4101632], [-106.1810627, 31.454866], [-106.20911, 31.46854], [-106.2465, 31.54174], [-106.28091, 31.56233], [-106.30416, 31.62351], [-106.3496, 31.69674], [-106.3723, 31.71245], [-106.38004, 31.73114], [-106.45209, 31.76453], [-106.4890539, 31.7481639], [-106.5282613, 31.7833826]]]}}]}