{"type":"FeatureCollection","features":[{"type":"Feature","properties":{"slug":"clarksburg","member_count":19,"matched_count":3,"unmatched":["Balance of Doddridge County (US-WV, type='Balance')","West Union town (US-WV, type='Town')","Balance of Harrison County (US-WV, type='Balance')","Clarksburg city (US-WV, type='City')","Bridgeport city (US-WV, type='City')","Shinnston city (US-WV, type='City')","Stonewood city (US-WV, type='City')","Salem city (US-WV, type='City')","Nutter Fort town (US-WV, type='Town')","Lumberport town (US-WV, type='Town')","Anmoore town (US-WV, type='Town')","West Milford town (US-WV, type='Town')","Lost Creek town (US-WV, type='Town')","Balance of Taylor County (US-WV, type='Balance')","Grafton city (US-WV, type='City')","Flemington town (US-WV, type='Town')"],"source":"Overture Maps division_area (CC-BY 4.0)"},"geometry":{"type":"Polygon","coordinates":[[[-80.5963103,39.1657303],[-80.6294506,39.1393039],[-80.6630956,39.1376493],[-80.7007221,39.0903689],[-80.81297,39.109401],[-80.9138374,39.2729837],[-80.829445,39.343228],[-80.733245,39.395528],[-80.714502,39.429649],[-80.67703,39.42764],[-80.618629,39.450375],[-80.5987807,39.4409561],[-80.5964716,39.449676],[-80.5827702,39.4512461],[-80.5788449,39.4345309],[-80.5593956,39.4392227],[-80.5444325,39.4290206],[-80.5264514,39.4310797],[-80.5156943,39.4375619],[-80.5142303,39.4575386],[-80.4941042,39.4611004],[-80.4942283,39.469638],[-80.2821851,39.4355467],[-80.196286,39.3927],[-80.120648,39.401208],[-80.107487,39.409886],[-80.087334,39.386215],[-80.025001,39.401446],[-80.011024,39.417601],[-79.938943,39.452464],[-79.893768,39.435753],[-79.8954945,39.299504],[-79.9049186,39.3029789],[-79.9080107,39.2893657],[-79.9423951,39.2964429],[-79.9610992,39.2687961],[-80.0235007,39.2478918],[-80.1663155,39.2422477],[-80.228874,39.169521],[-80.2270835,39.1128001],[-80.239365,39.111938],[-80.248771,39.100809],[-80.3008331,39.1038243],[-80.473301,39.147075],[-80.536195,39.147503],[-80.550958,39.159596],[-80.5963103,39.1657303]]]}}]}