{"type": "FeatureCollection", "features": [{"type": "Feature", "properties": {"slug": "coban", "members": 3, "country": "Guatemala", "input_hash": "bcc945323bf6b880"}, "geometry": {"type": "Polygon", "coordinates": [[[-90.1118183, 15.3556254], [-90.1977623, 15.336233], [-90.2180255, 15.3216284], [-90.2622907, 15.3437284], [-90.28321, 15.34714], [-90.3039199, 15.335791], [-90.348491, 15.3438431], [-90.3853099, 15.367237], [-90.3900673, 15.3754397], [-90.3734286, 15.3788914], [-90.3931346, 15.4032594], [-90.4295156, 15.4015492], [-90.4657361, 15.4159469], [-90.4552433, 15.4476763], [-90.6397712, 15.4853159], [-90.6048596, 15.5058024], [-90.6045592, 15.5189317], [-90.6199765, 15.5706756], [-90.6419277, 15.5835424], [-90.6301671, 15.6116051], [-90.6388866, 15.6127779], [-90.6454408, 15.6336429], [-90.6603272, 15.6417408], [-90.6557334, 15.6492732], [-90.6911733, 15.6498732], [-90.7937877, 15.679058], [-90.7902136, 15.6922125], [-90.7708806, 15.7044927], [-90.7842803, 15.7206874], [-90.7975951, 15.7199572], [-90.7786265, 15.7300366], [-90.7845703, 15.7439673], [-90.7955459, 15.7487174], [-90.8065429, 15.7414373], [-90.8204261, 15.7501527], [-90.7778755, 15.7972235], [-90.7822851, 15.8055545], [-90.7686272, 15.8306461], [-90.7511111, 15.8351193], [-90.7302006, 15.8613785], [-90.7388694, 15.8688838], [-90.7398726, 15.8842264], [-90.7599141, 15.8882715], [-90.7531334, 15.9167808], [-90.7381989, 15.9295947], [-90.7330383, 15.9464002], [-90.7459022, 15.9433466], [-90.7610942, 15.9626678], [-90.7374264, 15.9691869], [-90.7331671, 15.9843284], [-90.7039688, 15.9736985], [-90.7084478, 15.995426], [-90.6952836, 15.9967152], [-90.6941571, 16.0055226], [-90.7014902, 16.0196354], [-90.682366, 16.0220845], [-90.6690516, 16.0392637], [-90.6349623, 16.0406124], [-90.6165125, 16.0235127], [-90.5973293, 16.0361755], [-90.595209, 16.0185342], [-90.6088238, 16.019341], [-90.6115437, 16.0121148], [-90.5814989, 16.0131744], [-90.5755377, 15.995748], [-90.5646434, 15.9962439], [-90.5633336, 15.9898357], [-90.5473745, 16.0053496], [-90.5416775, 15.9951601], [-90.5367208, 16.0056383], [-90.5281913, 16.0025548], [-90.5308536, 15.9929801], [-90.5174319, 16.0016099], [-90.522409, 15.9897071], [-90.5060625, 15.9928034], [-90.4994593, 16.0023335], [-90.5012912, 15.9921347], [-90.5138849, 15.9830814], [-90.5062347, 15.9816993], [-90.4817977, 15.9308854], [-90.4869463, 15.923015], [-90.4782789, 15.9241768], [-90.4077513, 15.7896726], [-90.3061659, 15.7208673], [-90.2313863, 15.7039829], [-90.1797057, 15.7732758], [-90.166055, 15.7707574], [-90.1625972, 15.7773214], [-90.1501783, 15.7645125], [-90.1433003, 15.769612], [-90.1310791, 15.7643227], [-90.1310698, 15.7702184], [-90.1290625, 15.7614242], [-90.1198727, 15.7677555], [-90.0879991, 15.7638695], [-90.084126, 15.7545286], [-90.0301462, 15.7415433], [-90.0267676, 15.7464742], [-89.9989717, 15.7388323], [-89.999049, 15.7325524], [-89.956373, 15.7407298], [-89.9341943, 15.7190172], [-89.9369159, 15.6712436], [-90.0674719, 15.6008896], [-90.0695257, 15.5019383], [-90.0508262, 15.4962986], [-90.0276336, 15.5085613], [-90.0110682, 15.5078221], [-89.9860701, 15.4893572], [-89.9603479, 15.495159], [-89.9651274, 15.4711388], [-89.9458584, 15.4163291], [-90.1115386, 15.3790568], [-90.1118183, 15.3556254]], [[-90.3813365, 15.4300855], [-90.3826184, 15.4280046], [-90.3831826, 15.4191215], [-90.3813365, 15.4300855]], [[-90.3662182, 15.6349541], [-90.3203845, 15.5433486], [-90.36602653011376, 15.635117794102781], [-90.3662182, 15.6349541]]]}}]}