{"type": "FeatureCollection", "features": [{"type": "Feature", "properties": {"slug": "colatina", "members": 1, "country": "Brazil", "input_hash": "3b9141c245661d63"}, "geometry": {"type": "Polygon", "coordinates": [[[-40.6356529, -19.3782976], [-40.6412209, -19.3742388], [-40.6258413, -19.3470412], [-40.6047254, -19.351861], [-40.5918251, -19.3388796], [-40.5703292, -19.3339931], [-40.5715394, -19.3272924], [-40.5491903, -19.3207161], [-40.5342853, -19.2992855], [-40.5372248, -19.2848826], [-40.5575726, -19.2719463], [-40.5833582, -19.2803859], [-40.5956471, -19.2653464], [-40.6190843, -19.2800402], [-40.6303388, -19.2413698], [-40.642644, -19.2379851], [-40.6463841, -19.2435874], [-40.65369, -19.2324411], [-40.6687587, -19.2284505], [-40.6730008, -19.2398811], [-40.7011636, -19.2415927], [-40.6950681, -19.2564395], [-40.7082225, -19.2618654], [-40.7095834, -19.2874191], [-40.7173701, -19.2973785], [-40.728976, -19.2867788], [-40.7565815, -19.2977922], [-40.7840202, -19.2923216], [-40.8081707, -19.3034251], [-40.8177828, -19.3276947], [-40.8126922, -19.3334468], [-40.8189981, -19.3680851], [-40.8487417, -19.380502], [-40.8519518, -19.3956654], [-40.861355, -19.3994728], [-40.8594286, -19.4203358], [-40.8834596, -19.4484979], [-40.8775151, -19.4748897], [-40.8512621, -19.4760281], [-40.8341842, -19.4900008], [-40.8401495, -19.5035095], [-40.8547615, -19.5038903], [-40.8568533, -19.5112056], [-40.8188319, -19.5313083], [-40.8295888, -19.5428459], [-40.8289306, -19.5665993], [-40.8569249, -19.5867303], [-40.8521019, -19.5962606], [-40.8600485, -19.6055244], [-40.8538222, -19.6168845], [-40.83445, -19.6170893], [-40.8231236, -19.5933375], [-40.8047231, -19.5952706], [-40.7832158, -19.5805668], [-40.7780036, -19.5837397], [-40.7871238, -19.5967883], [-40.7741025, -19.6156396], [-40.7796779, -19.6335488], [-40.7684243, -19.6342559], [-40.7697769, -19.6503395], [-40.7260712, -19.6419821], [-40.7221993, -19.6243345], [-40.7054649, -19.6291597], [-40.6729998, -19.6224489], [-40.6570444, -19.641152], [-40.6033068, -19.6731112], [-40.588408, -19.6639193], [-40.5816935, -19.6844367], [-40.5674537, -19.6847349], [-40.5529698, -19.7124055], [-40.5273416, -19.7156003], [-40.5166987, -19.6775041], [-40.5024854, -19.6577039], [-40.4878878, -19.6517365], [-40.4846899, -19.6396623], [-40.4748409, -19.6422003], [-40.4632383, -19.6306548], [-40.4187455, -19.6413151], [-40.3703554, -19.6178362], [-40.3722021, -19.5953598], [-40.3892784, -19.5748794], [-40.3888569, -19.5630688], [-40.3682069, -19.5504323], [-40.3732727, -19.5369052], [-40.3867978, -19.5444461], [-40.4334688, -19.5342226], [-40.4826269, -19.5347712], [-40.5528015, -19.4826913], [-40.5681409, -19.4388747], [-40.5790484, -19.4312584], [-40.5924178, -19.429085], [-40.5981936, -19.4384133], [-40.625772, -19.4485278], [-40.6414898, -19.3880505], [-40.6356529, -19.3782976]]]}}]}