{"type":"FeatureCollection","features":[{"type":"Feature","properties":{"slug":"college-station","member_count":18,"matched_count":6,"unmatched":["College Station city (US-TX, type='City')","Bryan city (US-TX, type='City')","Balance of Brazos County (US-TX, type='Balance')","Kurten town (US-TX, type='Town')","Wixon Valley city (US-TX, type='City')","Navasota city (US-TX, type='City')","Balance of Burleson County (US-TX, type='Balance')","Somerville city (US-TX, type='City')","Snook city (US-TX, type='City')","Balance of Robertson County (US-TX, type='Balance')","Hearne city (US-TX, type='City')","Bremond city (US-TX, type='City')"],"source":"Overture Maps division_area (CC-BY 4.0)"},"geometry":{"type":"MultiPolygon","coordinates":[[[[-97.8991087,29.8571796],[-97.893347,29.8840273],[-97.7923041,29.94514],[-97.7612018,29.9875919],[-97.6533397,30.0713795],[-97.3157747,29.7865177],[-97.5977706,29.6308125],[-97.6039745,29.6418198],[-97.6181217,29.6335404],[-97.6168497,29.6448391],[-97.6293436,29.6397895],[-97.6311575,29.6537157],[-97.6517536,29.6539511],[-97.6526328,29.667852],[-97.6807559,29.6635676],[-97.6920211,29.6734781],[-97.6976847,29.6663464],[-97.704321,29.6826035],[-97.7226831,29.6820495],[-97.7357975,29.6913187],[-97.7436459,29.6974919],[-97.7383655,29.7129073],[-97.7566291,29.717847],[-97.7630408,29.7128081],[-97.7684142,29.7190003],[-97.7585463,29.7253443],[-97.7824661,29.7480271],[-97.7804119,29.758974],[-97.8031921,29.753521],[-97.8003962,29.7662604],[-97.8169816,29.7903725],[-97.8296711,29.7800204],[-97.8303809,29.7955243],[-97.8464865,29.8089007],[-97.8367026,29.8271849],[-97.8469196,29.8420919],[-97.8761915,29.86094],[-97.8991087,29.8571796]]],[[[-96.2696879,30.3586264],[-96.3129583,30.3843856],[-96.3406139,30.3677976],[-96.3580964,30.3731361],[-96.377801,30.3556631],[-96.4061699,30.3510534],[-96.4119923,30.3582689],[-96.4227912,30.3433465],[-96.4550858,30.3445611],[-96.4783982,30.3331973],[-96.4869268,30.3377321],[-96.4971246,30.3236938],[-96.541307,30.317803],[-96.5593275,30.3237589],[-96.5735223,30.3106512],[-96.6639172,30.2955935],[-96.6946834,30.3202051],[-96.7438453,30.319839],[-96.7876028,30.3890253],[-96.8082967,30.3962123],[-96.8464565,30.431626],[-96.8705025,30.4354696],[-96.8748611,30.4576403],[-96.8998432,30.4602437],[-96.9057816,30.4722932],[-96.8960774,30.4893106],[-96.9087482,30.5020729],[-96.9020963,30.5141126],[-96.9187743,30.5391716],[-96.9452691,30.5432188],[-96.9635934,30.5571473],[-96.621133,30.7308478],[-96.6328973,30.7420636],[-96.612874,30.7512458],[-96.6249746,30.7797987],[-96.6477971,30.7809519],[-96.6359699,30.7980714],[-96.6423035,30.8201095],[-96.668275,30.8329019],[-96.6662908,30.8402053],[-96.6784413,30.8424264],[-96.6955711,30.8656652],[-96.6936597,30.8794757],[-96.6789303,30.8764137],[-96.6976453,30.8963741],[-96.684639,30.898987],[-96.686432,30.90727],[-96.73056,30.897152],[-96.731964,30.91548],[-96.746361,30.915447],[-96.757622,30.927206],[-96.756897,30.945471],[-96.772774,30.962389],[-96.747246,31.00004],[-96.773773,31.004471],[-96.771339,31.025423],[-96.778389,31.03614],[-96.771477,31.048737],[-96.786934,31.049643],[-96.791161,31.06439],[-96.820206,31.059284],[-96.811348,31.080965],[-96.8289912,31.1058141],[-96.3191114,31.3570613],[-96.3172289,31.3232897],[-96.3260153,31.3109424],[-96.3172217,31.3017932],[-96.3287069,31.2984161],[-96.3137959,31.2708478],[-96.3310556,31.2522609],[-96.3140653,31.2289062],[-96.3195725,31.2223292],[-96.310452,31.2172612],[-96.3116475,31.1981248],[-96.2971207,31.1813456],[-96.2991938,31.1481831],[-96.2769833,31.1162398],[-96.2774613,31.0876531],[-96.2415926,31.0571959],[-96.2607417,31.0073555],[-96.235191,30.9955349],[-96.2425993,30.9774614],[-96.2382156,30.9603532],[-96.2076271,30.9475215],[-96.1983899,30.9324929],[-96.212739,30.9045751],[-96.2033783,30.9012312],[-96.1930414,30.8810041],[-96.1960626,30.871327],[-96.1721516,30.8466141],[-96.1709469,30.8064261],[-96.18368,30.7951207],[-96.1643763,30.773401],[-96.1695552,30.7495402],[-96.1530955,30.7301091],[-96.1549441,30.7217497],[-96.1779864,30.7095819],[-96.1639951,30.6588871],[-96.1690422,30.6300831],[-96.1803353,30.6215784],[-96.1882672,30.599237],[-96.1597285,30.5673346],[-96.161252,30.5338785],[-96.1484096,30.5285833],[-96.1527551,30.5208631],[-96.1324819,30.4918517],[-96.1410991,30.4753297],[-96.1294859,30.4663678],[-96.1300243,30.4525692],[-96.123105,30.4551701],[-96.120118,30.4416983],[-96.1052478,30.4443253],[-96.0799063,30.4303944],[-96.0880817,30.4172018],[-96.105801,30.4221005],[-96.1124958,30.4151615],[-96.1078824,30.4069636],[-96.1127319,30.3941009],[-96.1181821,30.3995608],[-96.1213579,30.3841242],[-96.146537,30.3841463],[-96.1415495,30.3551324],[-96.1500662,30.3520526],[-96.1396398,30.340337],[-96.154467,30.3305586],[-96.160551,30.3403407],[-96.1493962,30.3682539],[-96.160125,30.3792133],[-96.1761325,30.375696],[-96.1784499,30.395539],[-96.1953156,30.4003511],[-96.2094777,30.3738078],[-96.2208073,30.3766957],[-96.2511485,30.3651065],[-96.2629931,30.3701793],[-96.2696879,30.3586264]]],[[[-95.2589819,33.366801],[-95.2004568,33.3807635],[-95.1916724,33.3737637],[-95.1658662,33.3855891],[-95.1562769,33.3800369],[-95.1254568,33.3893979],[-95.1261399,33.0345972],[-95.1536123,33.0124539],[-95.1730928,32.96189],[-95.3089241,32.9625762],[-95.308659,33.3768361],[-95.2987894,33.3826538],[-95.2589819,33.366801]]],[[[-88.417185,37.033918],[-88.408731,37.024814],[-88.426955,37.017686],[-88.443643,37.03739],[-88.427848,37.048056],[-88.366522,37.062761],[-88.338755,37.058986],[-88.307976,37.046263],[-88.323812,37.034635],[-88.330872,37.042208],[-88.345583,37.033997],[-88.3202,37.026299],[-88.324939,37.018852],[-88.312396,37.013925],[-88.318645,37.009377],[-88.302,37.007613],[-88.304146,36.998771],[-88.331596,36.995606],[-88.330946,37.001919],[-88.371014,37.004522],[-88.370573,36.995181],[-88.378279,36.995373],[-88.378529,37.004784],[-88.368925,37.004784],[-88.36873,37.019485],[-88.359722,37.019665],[-88.359328,37.032709],[-88.417185,37.033918]]]]}}]}