{"type":"FeatureCollection","features":[{"type":"Feature","properties":{"slug":"colmar","member_count":99,"matched_count":99,"unmatched":[],"source":"Overture Maps division_area (CC-BY 4.0)"},"geometry":{"type":"Polygon","coordinates":[[[7.1135084,47.9766098],[7.0851975,47.9642168],[7.0784133,47.9534529],[7.0252019,47.9475043],[6.9923634,47.969402],[6.9803468,47.9855832],[6.9801627,48.0054606],[7.0118489,48.0316265],[7.0162127,48.037485],[7.0096566,48.0428716],[7.0317668,48.074009],[7.0521933,48.0834017],[7.0767286,48.1086676],[7.0842172,48.1294638],[7.0700137,48.1296481],[7.0579905,48.1378095],[7.0594867,48.1451364],[7.0797344,48.1646747],[7.0846515,48.1828326],[7.1177621,48.2081277],[7.1414406,48.2583417],[7.1769675,48.2891063],[7.172633,48.2972833],[7.2176185,48.3113427],[7.2418626,48.3024616],[7.2750773,48.3054519],[7.3003896,48.2844299],[7.2902458,48.2724969],[7.2976293,48.2683949],[7.3336314,48.2727533],[7.3097262,48.2536971],[7.326155,48.2442722],[7.3538904,48.2485096],[7.4767522,48.2035904],[7.4698499,48.1600389],[7.5203371,48.1494291],[7.5196019,48.1261582],[7.5774472,48.1203213],[7.5689009,48.0345704],[7.6100998,47.9988929],[7.6220057,47.9739041],[7.5832304,47.9311934],[7.5811809,47.8970273],[7.5569629,47.8789555],[7.5632767,47.8520661],[7.5548388,47.8538709],[7.5424492,47.8361961],[7.503978,47.842422],[7.4699891,47.8363169],[7.4621709,47.8248389],[7.4421811,47.8244637],[7.4264937,47.834308],[7.4406599,47.8592784],[7.4065584,47.8616604],[7.4080289,47.8729692],[7.4201063,47.8730579],[7.4233368,47.8850301],[7.4123539,47.8947579],[7.4207435,47.9107004],[7.4164711,47.9229158],[7.4385238,47.9361113],[7.4494254,47.9795427],[7.4045871,47.9973608],[7.3709483,47.995292],[7.358054,48.0002477],[7.3615736,48.0059774],[7.3469972,48.0172264],[7.3408857,48.0035109],[7.2195494,48.0312372],[7.2156997,48.0168082],[7.1946786,48.0233072],[7.1784685,48.0070056],[7.1806934,47.9988423],[7.1641165,48.0000679],[7.1479801,47.9762839],[7.1135084,47.9766098]]]}}]}