{"type": "FeatureCollection", "features": [{"type": "Feature", "properties": {"slug": "colombo", "members": 3, "country": "Sri Lanka", "input_hash": "5205707f59d485be"}, "geometry": {"type": "MultiPolygon", "coordinates": [[[[80.1767354, 6.8120626], [80.2041265, 6.7385991], [80.198742, 6.7272807], [80.2158987, 6.6918922], [80.2495517, 6.6586095], [80.2551414, 6.6270295], [80.282514, 6.6178874], [80.3032186, 6.5959194], [80.3145882, 6.5712008], [80.2952931, 6.5641098], [80.3045417, 6.5392015], [80.3802766, 6.4341801], [80.3812714, 6.4255777], [80.3689369, 6.4267872], [80.2902483, 6.3917725], [80.3009134, 6.3354117], [80.2968083, 6.3248628], [80.2411137, 6.3765716], [80.2174967, 6.3800805], [80.2067554, 6.3719972], [80.2073992, 6.35964], [80.1894483, 6.3544984], [80.1545711, 6.367227], [80.1306667, 6.3657195], [80.1063276, 6.3902161], [80.0847019, 6.4025259], [80.0697045, 6.3980322], [80.0614118, 6.4084672], [80.0302274, 6.4196591], [80.0221745, 6.4323274], [80.0098168, 6.4375317], [79.9982066, 6.427337], [79.9732912, 6.4616427], [79.9828881, 6.4781825], [79.9760329, 6.5055428], [79.9815564, 6.5112966], [79.9330886, 6.6462737], [79.8965556, 6.7164282], [79.8630095, 6.8246815], [79.8430478, 6.9278331], [79.8231957, 6.9315548], [79.8226093, 6.9572034], [79.830844, 6.9659376], [79.8267668, 6.945426], [79.8390884, 6.9454196], [79.8400211, 6.9606963], [79.8477894, 6.9379922], [79.8570956, 6.9536512], [79.8532651, 6.9610232], [79.87008914984386, 6.979195794636706], [79.8213137, 7.1787019], [79.8193331, 7.2072484], [79.8306513, 7.2016857], [79.8230277, 7.1831219], [79.8445783, 7.1114779], [79.8560792, 7.1011672], [79.8626695, 7.1261157], [79.8655136, 7.1120583], [79.8751436, 7.1129875], [79.8654658, 7.1694918], [79.8525154, 7.1950361], [79.8363937, 7.1950378], [79.8399022, 7.206578], [79.8283183, 7.2080729], [79.838943, 7.2229303], [79.84221592506562, 7.273335194053991], [79.8533699, 7.2773386], [79.8662997, 7.2708982], [79.8738844, 7.28268], [79.8861106, 7.2737768], [79.9008372, 7.2810156], [79.9054044, 7.2738716], [79.9075091, 7.2805354], [79.9078575, 7.2653277], [79.9150331, 7.2769364], [79.9273401, 7.2718671], [79.9248717, 7.2847194], [79.9459306, 7.2739203], [79.9560032, 7.2826475], [79.9513272, 7.289973], [79.9775955, 7.2925073], [80.0067875, 7.3212338], [80.0148433, 7.3145245], [80.0266558, 7.317934], [80.0308335, 7.3025615], [80.0466942, 7.2995941], [80.0591914, 7.2838795], [80.1237157, 7.3303535], [80.1393661, 7.3231522], [80.148773, 7.3123973], [80.1430295, 7.3045469], [80.1956411, 7.2582185], [80.2001867, 7.2448662], [80.1867086, 7.2361456], [80.1842684, 7.1962712], [80.160674, 7.1932497], [80.159493, 7.1846108], [80.1519263, 7.1930653], [80.1453682, 7.1883156], [80.1534409, 7.1831558], [80.1627211, 7.1269229], [80.183295, 7.1383283], [80.2126845, 7.132019], [80.1961665, 7.1023504], [80.1855536, 7.1052001], [80.1879625, 7.0899308], [80.1628648, 7.058693], [80.1811091, 6.9961062], [80.17933852541256, 6.977811520468187], [80.217054, 6.975269], [80.2223599, 6.9503815], [80.2204167, 6.9366941], [80.2082019, 6.9379632], [80.2126704, 6.9199564], [80.1888931, 6.8995193], [80.1750087, 6.8599119], [80.1942261, 6.8515077], [80.2020667, 6.8194196], [80.1767354, 6.8120626]], [[79.9025996, 6.7159052], [79.8966691, 6.7169662], [79.8965556, 6.7164282], [79.9025996, 6.7159052]], [[79.8847770304859, 6.975578374162991], [79.8848872, 6.9764128], [79.8841669616537, 6.977194884668986], [79.8847770304859, 6.975578374162991]], [[79.8788929, 6.964713], [79.8843299, 6.9721918], [79.88463223954464, 6.974481725027743], [79.8788929, 6.964713]], [[79.8792058, 6.9583287], [79.8815484, 6.9552157], [79.87918934802202, 6.958664380290805], [79.8792058, 6.9583287]], [[79.8848969, 6.9540859], [79.88588527425341, 6.954206856617846], [79.8815484, 6.9552157], [79.8848969, 6.9540859]], [[79.89929516387141, 6.955847950452796], [79.8989688, 6.9562091], [79.8898887396602, 6.9546967981896755], [79.89929516387141, 6.955847950452796]], [[79.89985812026667, 6.954006122603209], [79.9004812, 6.9545355], [79.89988871034431, 6.95519114049707], [79.89985812026667, 6.954006122603209]], [[79.8963668, 6.9516062], [79.89657235314998, 6.9512144881627815], [79.89828811150691, 6.952672220847598], [79.8963668, 6.9516062]], [[79.916985, 6.9458992], [79.91726404060891, 6.946291992771978], [79.91662046849409, 6.9459674204200486], [79.916985, 6.9458992]], [[79.9227025074769, 6.9522565169053765], [79.9223741, 6.9524947], [79.92208582517554, 6.952054455887907], [79.9227025074769, 6.9522565169053765]], [[79.93437358782532, 6.950188433416205], [79.9339476, 6.950553], [79.9269065, 6.9492075], [79.93437358782532, 6.950188433416205]], [[79.9389643, 6.9450038], [79.9431323, 6.9426926], [79.93561009643916, 6.949130211339467], [79.9389643, 6.9450038]], [[80.1244399466993, 6.974262817195311], [80.1239677, 6.9742662], [80.1216766, 6.9653892], [80.1244399466993, 6.974262817195311]], [[80.16984610600831, 6.97934793211873], [80.1692854, 6.9794468], [80.16926546684864, 6.97911140348401], [80.16984610600831, 6.97934793211873]], [[80.1741701, 6.8199212], [80.171321, 6.8155474], [80.17440853572474, 6.819529406966943], [80.1741701, 6.8199212]], [[80.1337456, 6.8159246], [80.11897724113571, 6.8063681673476655], [80.1246556, 6.8089149], [80.1337456, 6.8159246]], [[80.1156031, 6.8041848], [80.11630036944936, 6.802572754419818], [80.11639086605281, 6.804694554218367], [80.1156031, 6.8041848]], [[80.1177596, 6.7991991], [80.1213431, 6.796557], [80.1172467354387, 6.800384812424421], [80.1177596, 6.7991991]], [[80.12486672872113, 6.7856545930262815], [80.12546446963916, 6.783194558561974], [80.1255702, 6.7843161], [80.12486672872113, 6.7856545930262815]], [[80.12509268142401, 6.7792507917368985], [80.12393163226854, 6.773728902326922], [80.1246261, 6.7743015], [80.12509268142401, 6.7792507917368985]], [[80.1059533, 6.7733863], [80.11222402475669, 6.769839004450708], [80.10559682956027, 6.774049261809113], [80.1059533, 6.7733863]], [[80.1011939, 6.7872012], [80.09804857634529, 6.79211233059237], [80.098044, 6.7913786], [80.1011939, 6.7872012]], [[80.0984671, 6.8028766], [80.0981171730685, 6.803110520453703], [80.09808140094914, 6.7973751362824935], [80.0984671, 6.8028766]], [[80.06581111379603, 6.794101212954891], [80.0615206, 6.7939496], [80.0656941, 6.7937099], [80.06581111379603, 6.794101212954891]], [[80.0358066, 6.806585], [80.03567830618174, 6.806288110243089], [80.0419779, 6.8048507], [80.0358066, 6.806585]], [[79.9699976, 6.7611882], [79.96959617692292, 6.761054516779911], [79.9785588, 6.7590442], [79.9699976, 6.7611882]], [[79.94821, 6.7572554], [79.94800823555565, 6.756684511520858], [79.9518502, 6.7615299], [79.94821, 6.7572554]], [[79.94760835059999, 6.755553044998679], [79.9456579208069, 6.750034342722908], [79.9465507, 6.7505616], [79.94760835059999, 6.755553044998679]], [[79.94506156624436, 6.749682147818225], [79.9259283, 6.7478582], [79.9442599, 6.7492087], [79.94506156624436, 6.749682147818225]], [[79.9184147, 6.7577594], [79.91802292992213, 6.758695228427207], [79.9165827, 6.7527046], [79.9184147, 6.7577594]], [[79.917078, 6.7609524], [79.91538858424167, 6.762006019143654], [79.91762172436552, 6.759653595556917], [79.917078, 6.7609524]], [[79.8978066, 6.7761145], [79.89663046263124, 6.776247722275785], [79.903675, 6.7693113], [79.8978066, 6.7761145]], [[79.887884, 6.7751678], [79.88765134356466, 6.774592480709179], [79.8910882, 6.7768755], [79.887884, 6.7751678]]], [[[79.8348504, 7.190656], [79.8333775, 7.1884016], [79.8324421, 7.1990017], [79.8348504, 7.190656]]], [[[79.8349884, 7.1998762], [79.8331764, 7.1994565], [79.8303094, 7.2063274], [79.8349884, 7.1998762]]]]}}]}