{"type":"FeatureCollection","features":[{"type":"Feature","properties":{"slug":"columbia","member_count":8,"matched_count":8,"unmatched":[],"source":"Overture Maps division_area (CC-BY 4.0)"},"geometry":{"type":"Polygon","coordinates":[[[-80.4868087,33.5605789],[-80.4681198,33.5410633],[-80.4529224,33.546771],[-80.446854,33.538692],[-80.44751,33.524143],[-80.4652938,33.5274485],[-80.468475,33.518326],[-80.4562996,33.5125454],[-80.4591393,33.5022166],[-80.438699,33.5013781],[-80.4371633,33.4779369],[-80.3649085,33.4329682],[-80.3242237,33.4310929],[-80.2816377,33.4480996],[-80.2684137,33.4375441],[-80.2403345,33.4544],[-80.2389333,33.4395364],[-80.222267,33.443716],[-80.222568,33.391288],[-80.229876,33.391575],[-80.230245,33.384105],[-80.238463,33.391153],[-80.241557,33.383084],[-80.239619,33.352201],[-80.253836,33.29926],[-80.311594,33.264571],[-80.348927,33.278023],[-80.358217,33.273635],[-80.3618613,33.2574295],[-80.3931028,33.2647774],[-80.4281332,33.2579534],[-80.485156,33.280706],[-80.502819,33.3344913],[-80.803601,33.177756],[-80.843907,33.212096],[-80.838376,33.218054],[-80.847018,33.221328],[-80.846151,33.238328],[-80.887906,33.258044],[-80.886021,33.263789],[-80.948855,33.30943],[-80.961885,33.308062],[-80.968181,33.318684],[-81.024537,33.338732],[-81.030861,33.348806],[-81.048093,33.349132],[-81.088601,33.379591],[-81.111616,33.380851],[-81.163836,33.409202],[-81.188873,33.411117],[-81.206606,33.437812],[-81.243318,33.441251],[-81.296962,33.479957],[-81.340158,33.480068],[-81.372931,33.490417],[-81.2145173,33.6270753],[-81.19057,33.655975],[-81.364537,33.727962],[-81.415308,33.732161],[-81.426723,33.743114],[-81.436146,33.775816],[-81.460478,33.797156],[-81.512012,33.812801],[-81.53359,33.832154],[-81.545635,33.857561],[-81.561503,33.863033],[-81.5713086,33.8774683],[-81.6520927,33.8142387],[-81.8361823,33.8662109],[-81.8694415,33.8916003],[-81.894836,33.975323],[-81.932033,33.9769142],[-82.008898,33.961935],[-81.989339,33.998027],[-81.947346,34.037138],[-81.915781,34.09098],[-81.900166,34.094789],[-81.89675,34.107263],[-81.868346,34.132507],[-81.8976689,34.1466184],[-81.898033,34.156212],[-81.908096,34.162041],[-81.904373,34.176613],[-81.915489,34.176979],[-81.920105,34.191944],[-81.945019,34.203148],[-81.911428,34.246181],[-81.895331,34.300497],[-81.848467,34.323528],[-81.849816,34.332984],[-81.836668,34.34294],[-81.782472,34.365215],[-81.734455,34.437736],[-81.722491,34.449661],[-81.703198,34.452631],[-81.643552,34.533652],[-81.6279917,34.5218077],[-81.617737,34.5252593],[-81.6135828,34.5138948],[-81.5530876,34.4770276],[-81.55706,34.4633746],[-81.546477,34.4620842],[-81.5510883,34.4521819],[-81.5404301,34.4450228],[-81.4846552,34.489992],[-81.4680248,34.4942671],[-81.4580519,34.4867866],[-81.4451575,34.487847],[-81.4397275,34.4969085],[-81.423553,34.494263],[-81.4229386,34.5717537],[-80.877491,34.543146],[-80.88172,34.500117],[-80.898722,34.486694],[-80.879227,34.457776],[-80.743345,34.539916],[-80.737674,34.539497],[-80.745617,34.512591],[-80.739966,34.479957],[-80.713329,34.487334],[-80.698162,34.515967],[-80.688583,34.514976],[-80.658417,34.478612],[-80.645245,34.483746],[-80.645378,34.491927],[-80.632213,34.491433],[-80.627841,34.482588],[-80.622671,34.491527],[-80.629647,34.491194],[-80.629595,34.498704],[-80.61363,34.499939],[-80.610359,34.488794],[-80.595766,34.502134],[-80.57937,34.484569],[-80.548906,34.493264],[-80.54405,34.507491],[-80.527434,34.503935],[-80.523945,34.509752],[-80.550552,34.560116],[-80.408373,34.614765],[-80.383523,34.59249],[-80.372266,34.546563],[-80.357254,34.534629],[-80.353658,34.52093],[-80.330279,34.509512],[-80.326334,34.436884],[-80.311292,34.424215],[-80.302095,34.399594],[-80.285535,34.393885],[-80.2866395,34.3646511],[-80.3250232,34.3391943],[-80.363561,34.3393628],[-80.3655345,34.3283427],[-80.3528417,34.3032003],[-80.382257,34.3050719],[-80.4374326,34.2844629],[-80.424082,34.250406],[-80.4324376,34.2490458],[-80.4305007,34.2265026],[-80.4447752,34.2065087],[-80.4543071,34.2077486],[-80.4508098,34.1994592],[-80.4640032,34.177908],[-80.580437,34.099865],[-80.618668,34.109089],[-80.618564,34.091974],[-80.636584,34.082175],[-80.61913,34.081739],[-80.631167,34.068238],[-80.606416,34.057982],[-80.612574,34.05014],[-80.600707,34.038918],[-80.608213,34.028516],[-80.602087,34.025355],[-80.615151,34.024895],[-80.627497,34.013113],[-80.625514,34.003111],[-80.63599,34.008034],[-80.635393,34.001448],[-80.646714,33.99796],[-80.630442,33.975766],[-80.633148,33.966549],[-80.61576,33.965472],[-80.629055,33.941776],[-80.616716,33.936427],[-80.630322,33.933982],[-80.634093,33.917333],[-80.615045,33.891887],[-80.625563,33.893511],[-80.62296,33.860408],[-80.633545,33.85268],[-80.616073,33.834332],[-80.615676,33.814514],[-80.598288,33.804476],[-80.605709,33.804283],[-80.596254,33.787384],[-80.603033,33.785856],[-80.597715,33.777512],[-80.605679,33.771766],[-80.605087,33.757917],[-80.6299912,33.7371054],[-80.6145529,33.7111256],[-80.5924468,33.7014726],[-80.5966238,33.6944715],[-80.5903513,33.6849016],[-80.5624203,33.6785194],[-80.5656795,33.6641195],[-80.531052,33.642307],[-80.5292352,33.634329],[-80.540297,33.6286788],[-80.5197297,33.6137559],[-80.520362,33.5980731],[-80.501374,33.588715],[-80.5163484,33.5766192],[-80.496273,33.558481],[-80.4868087,33.5605789]],[[-81.338698,34.197214],[-81.33829687123455,34.197052586883764],[-81.338961,34.197587],[-81.338698,34.197214]],[[-81.33767115536162,34.196549083968485],[-81.33667,34.194982],[-81.33578826498103,34.19503395411993],[-81.33767115536162,34.196549083968485]],[[-81.3208818670249,34.187631131631704],[-81.31859,34.185492],[-81.31655892273086,34.18673025684122],[-81.3208818670249,34.187631131631704]],[[-81.302266,34.162395],[-81.31063351997958,34.15531492814362],[-81.299614,34.163864],[-81.31422269744778,34.18624340197582],[-81.302266,34.162395]],[[-81.27821048649066,34.101317808401475],[-81.272836,34.09847],[-81.27080943198375,34.099087267871106],[-81.27821048649066,34.101317808401475]],[[-81.26164999872876,34.10133411768368],[-81.253754,34.102153],[-81.25038840301563,34.10216811344819],[-81.26164999872876,34.10133411768368]],[[-81.23582464723829,34.101901701209655],[-81.208959,34.098618],[-81.19973801757493,34.096661076914884],[-81.23582464723829,34.101901701209655]],[[-81.19008816717762,34.09392796039889],[-81.180574,34.090542],[-81.18054164428371,34.090543332294196],[-81.1861086,34.0928956],[-81.19008816717762,34.09392796039889]],[[-81.15009380853675,34.07587465222912],[-81.148403,34.07494],[-81.14674583217466,34.07369678321782],[-81.15009380853675,34.07587465222912]],[[-81.09709846194373,34.01737999095193],[-81.092991,34.01464],[-81.09213308331167,34.01442500894445],[-81.09709846194373,34.01737999095193]],[[-81.05943431908581,34.00469069470638],[-81.05877,34.003692],[-81.05807671155037,34.003264740839185],[-81.05943431908581,34.00469069470638]],[[-81.0519814,33.997504],[-81.05116,33.996248],[-81.048109,33.991304],[-81.0486004,33.9924128],[-81.0519814,33.997504]],[[-81.04673,33.98635],[-81.04628665856646,33.98158996465264],[-81.04662288150419,33.98699194584274],[-81.04673,33.98635]],[[-81.045826,33.976644],[-81.04360242319183,33.97383159012339],[-81.04591338560795,33.977582235299444],[-81.045826,33.976644]],[[-81.041678,33.971633],[-81.0414307859881,33.97139454327887],[-81.043092,33.973186],[-81.041678,33.971633]],[[-81.03985338901829,33.96983759306881],[-81.031438,33.954845],[-81.02247857807012,33.94021069091137],[-81.0388974,33.9688156],[-81.03985338901829,33.96983759306881]],[[-81.01703339840968,33.93037003975795],[-81.016975,33.930622],[-81.01702017153052,33.93070071173726],[-81.01703339840968,33.93037003975795]],[[-81.019414,33.921155],[-81.02273478899988,33.91917957930034],[-81.01892914713565,33.92219082202837],[-81.019414,33.921155]],[[-81.026814,33.917554],[-81.02973714969983,33.9154394591362],[-81.0232618966918,33.91889803908959],[-81.026814,33.917554]],[[-81.02998949417986,33.914950089101524],[-81.028961,33.912036],[-81.02324255009667,33.90940531073269],[-81.02998949417986,33.914950089101524]],[[-81.02254985239834,33.90919687923962],[-81.020867,33.908824],[-81.01451505310027,33.90818668221738],[-81.02254985239834,33.90919687923962]],[[-81.008754,33.904102],[-81.008754,33.90361632315983],[-81.00913401879961,33.90456897962332],[-81.008754,33.904102]],[[-81.01088,33.897892],[-81.010999,33.898132],[-81.01362129544698,33.89748134601714],[-81.01088,33.897892]],[[-81.01776311398012,33.89632615174962],[-81.018646,33.895605],[-81.01865249004345,33.89559478870297],[-81.01776311398012,33.89632615174962]],[[-81.01955355365126,33.89417707428931],[-81.020356,33.89208],[-81.02035519511304,33.89206558202484],[-81.01955355365126,33.89417707428931]],[[-81.02128535236477,33.88671693375217],[-81.020249,33.883878],[-81.01905347747288,33.882743402948854],[-81.02128535236477,33.88671693375217]],[[-81.013047,33.880133],[-81.01233,33.88008],[-81.01353635489326,33.88023225798986],[-81.013047,33.880133]]]}}]}