{"type": "FeatureCollection", "features": [{"type": "Feature", "properties": {"slug": "columbia-mo", "members": 5, "country": "United States", "input_hash": "49da053b87857aea"}, "geometry": {"type": "Polygon", "coordinates": [[[-92.619858, 38.685154], [-93.063263, 38.697517], [-93.051796, 38.97496], [-92.910339, 39.079762], [-92.908653, 39.095631], [-92.94249, 39.103672], [-92.9430895, 39.123916], [-92.91362, 39.135956], [-92.9010387, 39.1715117], [-92.8590886, 39.2028141], [-92.7901411, 39.3434582], [-92.7073539344975, 39.321714003382404], [-92.6968003, 39.6103171], [-92.302567, 39.605644], [-92.314232, 39.246658], [-92.3100472, 39.3482041], [-91.7179013, 39.338878], [-91.7184163, 39.3243388], [-91.4384366, 39.3185621], [-91.4091389, 39.1427579], [-91.6295535, 39.1478], [-91.6338732, 39.0590501], [-92.131512, 39.064484], [-92.1283402, 39.0484481], [-92.1347237, 39.0325056], [-92.144022, 39.0294936], [-92.1287021, 39.0196629], [-92.1405947, 39.0069031], [-92.138039, 38.9854382], [-92.1464047, 38.9809415], [-92.1430443, 38.9678458], [-92.1543491, 38.9241443], [-92.1608065, 38.9252898], [-92.1547085, 38.9160161], [-92.1692025, 38.8970547], [-92.1479775, 38.8852545], [-92.1625664, 38.8655186], [-92.1491338, 38.866162], [-92.154449, 38.8535858], [-92.1451401, 38.8541702], [-92.1490136, 38.8454535], [-92.1401257, 38.8450986], [-92.1534552, 38.8274635], [-92.1351233, 38.8130383], [-92.1510195, 38.8060545], [-92.1453311, 38.796318], [-92.1521804, 38.8038539], [-92.1592731, 38.8005434], [-92.1583002, 38.7848913], [-92.1679618, 38.776808], [-92.1630515, 38.7648331], [-92.1714181, 38.7649653], [-92.1862242, 38.7475569], [-92.1816187, 38.7390341], [-92.1944866, 38.7362759], [-92.1956334, 38.7236157], [-92.2120917, 38.7202953], [-92.2156856, 38.7025836], [-92.225819, 38.6986849], [-92.2183216, 38.6889776], [-92.220558, 38.643105], [-92.259415, 38.644909], [-92.292625, 38.666389], [-92.361496, 38.683006], [-92.361931, 38.691463], [-92.343849, 38.703136], [-92.343399, 38.714878], [-92.352997, 38.725601], [-92.40284, 38.745457], [-92.409309, 38.76405], [-92.380936, 38.793484], [-92.3840663, 38.8152129], [-92.4211589, 38.8197489], [-92.4396582, 38.831238], [-92.4565019, 38.8596932], [-92.4793654, 38.8768636], [-92.4772736, 38.9056982], [-92.512016, 38.93631], [-92.4985976, 38.922349], [-92.619858, 38.685154]], [[-92.430672, 39.249043], [-92.1043679, 39.2398088], [-92.314232, 39.246658], [-92.430672, 39.249043]], [[-92.9115297, 39.0173639], [-92.9084449814022, 39.015369262924224], [-92.9146003, 39.021275], [-92.9115297, 39.0173639]], [[-92.9015968, 39.0109411], [-92.8790432, 39.0029638], [-92.90319896602537, 39.011977090692326], [-92.9015968, 39.0109411]], [[-92.8612578, 38.9866491], [-92.85793020157513, 38.985414858066804], [-92.86270143630031, 38.987973359963156], [-92.8612578, 38.9866491]], [[-92.7801246, 38.9716351], [-92.7731710574759, 38.972661111191854], [-92.793381, 38.9722847], [-92.7801246, 38.9716351]], [[-92.767811, 38.973452], [-92.75019, 38.980313], [-92.7696010547499, 38.97318787330471], [-92.767811, 38.973452]], [[-92.55653657935378, 38.96976646815462], [-92.5578321, 38.9709656], [-92.5616683, 38.9720695], [-92.55653657935378, 38.96976646815462]], [[-92.56888132114489, 38.97989692447357], [-92.570245, 38.979248], [-92.57006235827973, 38.97904316268935], [-92.56888132114489, 38.97989692447357]]]}}]}