{"type": "FeatureCollection", "features": [{"type": "Feature", "properties": {"slug": "comayagua", "members": 1, "country": "Honduras", "input_hash": "c5bacbad2110a334"}, "geometry": {"type": "Polygon", "coordinates": [[[-87.6496727, 14.3756865], [-87.6555817, 14.3713593], [-87.6467411, 14.3713281], [-87.644539, 14.3622586], [-87.5953094, 14.3846736], [-87.5522514, 14.3764154], [-87.5287493, 14.3882207], [-87.4985171, 14.3868674], [-87.4906384, 14.3847613], [-87.4898333, 14.363199], [-87.4798349, 14.3678819], [-87.4615897, 14.357852], [-87.4342334, 14.3714517], [-87.4079705, 14.3990862], [-87.4078633, 14.431745], [-87.395934, 14.447204], [-87.3995419, 14.4593937], [-87.4195509, 14.4537438], [-87.4547828, 14.4803421], [-87.4689305, 14.5234783], [-87.5214961, 14.5631693], [-87.5679814, 14.567303], [-87.5798759, 14.5850868], [-87.5929139, 14.5716862], [-87.6139257, 14.5721276], [-87.6302994, 14.577627], [-87.6315719, 14.5959664], [-87.6632873, 14.5904925], [-87.6761744, 14.5736157], [-87.6934192, 14.5781048], [-87.691315, 14.5682016], [-87.7014076, 14.5641103], [-87.6986985, 14.5533957], [-87.7059752, 14.5502158], [-87.7196629, 14.5482068], [-87.7523976, 14.5685178], [-87.7667392, 14.54873], [-87.730663, 14.5224032], [-87.749427, 14.4874022], [-87.7629889, 14.499975], [-87.7859414, 14.4921739], [-87.8523748, 14.5035884], [-87.8735571, 14.4723652], [-87.8516407, 14.4475559], [-87.8422392, 14.4224646], [-87.8514215, 14.4242313], [-87.8229802, 14.3945884], [-87.7832956, 14.3919972], [-87.7056146, 14.4297972], [-87.6717271, 14.4370865], [-87.6781996, 14.3804721], [-87.6527588, 14.3864303], [-87.6496727, 14.3756865]]]}}]}