{"type": "FeatureCollection", "features": [{"type": "Feature", "properties": {"slug": "conakry", "members": 3, "country": "Guinea", "input_hash": "0bc0340346059042"}, "geometry": {"type": "MultiPolygon", "coordinates": [[[[-13.80484581099995, 9.457502366000028], [-13.790131568999982, 9.469574929000032], [-13.787526129999947, 9.46247005500004], [-13.80484581099995, 9.457502366000028]]], [[[-13.771832465999978, 9.496156693000046], [-13.769588469999974, 9.504910469000038], [-13.760077476999982, 9.502687454000068], [-13.747606276999932, 9.478190422000068], [-13.74560546899994, 9.46004676900003], [-13.756562232999954, 9.441112518000068], [-13.755625725999948, 9.468012810000062], [-13.771832465999978, 9.496156693000046]]], [[[-13.843815803999973, 9.466836931000046], [-13.815022468999928, 9.511209488000077], [-13.793242453999937, 9.509315491000052], [-13.831345558999942, 9.470388413000023], [-13.834637642999951, 9.44921398100007], [-13.843815803999973, 9.466836931000046]]], [[[-13.50019, 9.52258], [-13.53336143499996, 9.495667457000025], [-13.543315887999938, 9.495365143000072], [-13.559365272999969, 9.505363464000027], [-13.603510857999936, 9.562349320000067], [-13.616785049999976, 9.56562709800005], [-13.70316410099997, 9.50796127500007], [-13.725815773999955, 9.503187180000054], [-13.721758843999964, 9.516781808000076], [-13.699121476999949, 9.523624421000022], [-13.671839714999976, 9.557855606000032], [-13.657385825999938, 9.604630470000075], [-13.63417530099997, 9.62802505600007], [-13.624506951999933, 9.665799142000026], [-13.632756233999942, 9.68389892600004], [-13.624260903999982, 9.723734856000021], [-13.597841262999964, 9.724665642000048], [-13.608137129999932, 9.736269952000043], [-13.585627285999976, 9.753296108000029], [-13.57028, 9.75055], [-13.56669, 9.73685], [-13.55378, 9.73259], [-13.54767, 9.74004], [-13.56469, 9.7564], [-13.55285, 9.78326], [-13.569869278999931, 9.765095710000026], [-13.56820487899995, 9.770332336000024], [-13.596080780999955, 9.765787124000042], [-13.61560630799994, 9.773459435000063], [-13.623130797999977, 9.787426948000075], [-13.611611365999977, 9.797761918000049], [-13.632072448999963, 9.80483341200005], [-13.625102996999942, 9.821993828000075], [-13.638852119999967, 9.812140464000038], [-13.66343212199996, 9.829573631000073], [-13.639847755999938, 9.79121017400007], [-13.646216392999975, 9.77575874400003], [-13.68927001999998, 9.740024566000045], [-13.730796813999973, 9.745908738000026], [-13.755065917999957, 9.76640796700002], [-13.759395598999959, 9.78568649400006], [-13.739615440999955, 9.832745553000052], [-13.72049427099995, 9.847380638000061], [-13.684067725999967, 9.901694298000052], [-13.67751, 9.956395], [-13.74038, 9.97332], [-13.84239, 10.03197], [-13.9065, 10.10871], [-13.90637, 10.12414], [-13.87032, 10.1526], [-13.83535, 10.1663], [-13.80941, 10.22309], [-13.77097, 10.26286], [-13.76799, 10.278844], [-13.719913, 10.270005], [-13.672283, 10.289232], [-13.62494, 10.25222], [-13.58331, 10.25794], [-13.55059, 10.33734], [-13.50311, 10.38229], [-13.49899, 10.40304], [-13.519265, 10.427787], [-13.508549, 10.452537], [-13.497759, 10.452537], [-13.485266, 10.478772], [-13.461984, 10.475981], [-13.441541, 10.495518], [-13.416555, 10.491611], [-13.396273807999933, 10.516890372000034], [-13.38621, 10.51623], [-13.36891, 10.5117], [-13.34923, 10.48537], [-13.32729, 10.48843], [-13.31611, 10.4605], [-13.27754, 10.44454], [-13.26863, 10.41993], [-13.17181, 10.39759], [-13.14441, 10.25714], [-13.15199, 10.21631], [-13.19256, 10.15992], [-13.19163, 10.14782], [-13.17341, 10.13092], [-13.17407, 10.11736], [-13.26398, 10.04979], [-13.29204, 10.03862], [-13.25866, 9.96295], [-13.23778, 9.94592], [-13.24084, 9.93329], [-13.20413, 9.88035], [-13.21517, 9.8467], [-13.2032, 9.82316], [-13.20639, 9.7963], [-13.19588, 9.76837], [-13.204, 9.74695], [-13.2, 9.71623], [-13.18378, 9.68551], [-13.16769, 9.67806], [-13.13124, 9.63763], [-13.11475, 9.58669], [-13.12539, 9.57631], [-13.16143, 9.56993], [-13.18551, 9.57951], [-13.20519, 9.56873], [-13.22594, 9.56953], [-13.2439, 9.58589], [-13.25932, 9.57977], [-13.27808, 9.55756], [-13.29018, 9.57778], [-13.29284, 9.61089], [-13.34365, 9.62446], [-13.38354, 9.59746], [-13.38873, 9.56461], [-13.41626, 9.55237], [-13.42438, 9.56395], [-13.44938, 9.55237], [-13.47438, 9.5573], [-13.493, 9.54213], [-13.50019, 9.52258]]], [[[-13.778575897999929, 9.834733963000076], [-13.733670234999977, 9.851894379000044], [-13.731007576999957, 9.85091972400005], [-13.761831283999982, 9.82820034100007], [-13.770673751999936, 9.80421924600006], [-13.784903526999926, 9.81514072400006], [-13.778575897999929, 9.834733963000076]]], [[[-13.688855171999933, 9.920511246000046], [-13.688465117999954, 9.900740624000036], [-13.69743919399997, 9.892164230000049], [-13.688855171999933, 9.920511246000046]]]]}}]}