{"type": "FeatureCollection", "features": [{"type": "Feature", "properties": {"slug": "concordia", "members": 1, "country": "Argentina", "input_hash": "293047c90fdeab9f"}, "geometry": {"type": "Polygon", "coordinates": [[[-58.2727823, -30.8771579], [-58.2510892, -30.8514401], [-58.3600705, -30.8408369], [-58.3891956, -30.8263971], [-58.4087092, -30.8380738], [-58.4182786, -30.8334279], [-58.4460126, -30.8890199], [-58.4386368, -30.8977925], [-58.4645871, -30.9083745], [-58.4621756, -30.9355457], [-58.469606, -30.9343179], [-58.467746, -30.9447538], [-58.4842029, -30.9502278], [-58.4870694, -30.9699008], [-58.4941568, -30.9675138], [-58.5073473, -30.9823585], [-58.5067708, -30.9897333], [-58.4895648, -30.9965298], [-58.4940875, -30.9998956], [-58.4843325, -31.0088327], [-58.4929488, -31.0090267], [-58.4894941, -31.01653], [-58.5095017, -31.0326244], [-58.5140282, -31.0257818], [-58.521927, -31.0381508], [-58.5387311, -31.0414974], [-58.5444088, -31.0344088], [-58.5496318, -31.0456825], [-58.5591045, -31.0437103], [-58.5588952, -31.03653], [-58.5804937, -31.0409834], [-58.5794578, -31.0492384], [-58.5987029, -31.0619838], [-58.5742757, -31.0759452], [-58.5711524, -31.082459], [-58.5794256, -31.0819281], [-58.5799702, -31.0918861], [-58.5724881, -31.1078219], [-58.5627918, -31.1066806], [-58.5572684, -31.1252881], [-58.5435928, -31.1369222], [-58.4586811, -31.1708311], [-58.4388381, -31.1803915], [-58.4292109, -31.1946067], [-58.3876024, -31.2103234], [-58.4091797, -31.2385759], [-58.4749475, -31.2633007], [-58.456423, -31.2788432], [-58.412021, -31.3514172], [-58.4194124, -31.3691833], [-58.4314423, -31.3654274], [-58.4598948, -31.3892749], [-58.4513158, -31.4018494], [-58.4498047, -31.4313729], [-58.346283, -31.4904222], [-58.3256372, -31.4860141], [-58.327626, -31.5013896], [-58.3462852, -31.5064967], [-58.3431686, -31.5215686], [-58.3303857, -31.5232943], [-58.3290446, -31.544473], [-58.287127, -31.5396634], [-58.2975037, -31.6026392], [-58.2803429, -31.6023051], [-58.3051582, -31.6580986], [-58.2888797, -31.6679187], [-58.2772805, -31.7000972], [-58.2404284, -31.7171332], [-58.233455, -31.7330496], [-58.1984027, -31.7340277], [-58.1839543, -31.7448793], [-58.158413, -31.7436435], [-58.1417802, -31.733544], [-58.143934, -31.7261973], [-58.1278263, -31.7279965], [-58.1214006, -31.7211251], [-58.1078173, -31.7305338], [-58.0937244, -31.7252823], [-58.0871424, -31.7342383], [-58.08534, -31.7195462], [-58.0595437, -31.7380422], [-58.0478749, -31.7261771], [-58.0369841, -31.7272013], [-58.0130803, -31.687268], [-57.9803768, -31.5837991], [-58.0045764, -31.5451028], [-58.0037947, -31.5319021], [-58.0782473, -31.4888001], [-58.0820185, -31.4564703], [-57.9805422, -31.3905033], [-57.978595, -31.3801181], [-57.9968262, -31.3602426], [-57.981951, -31.3358796], [-57.9811224, -31.3191478], [-57.9368256, -31.272933], [-57.9243376, -31.2371543], [-57.9552626, -31.2189343], [-58.0013538, -31.1479245], [-58.0245755, -31.1260691], [-58.0648673, -31.1145436], [-58.0817939, -31.0951559], [-58.1052059, -31.0844308], [-58.1249424, -31.0894179], [-58.1656483, -31.0728434], [-58.1708337, -31.063333], [-58.2179161, -31.048579], [-58.2460111, -30.9763462], [-58.243281, -30.9486435], [-58.2509482, -30.927642], [-58.2748318, -30.9178365], [-58.2727823, -30.8771579]]]}}]}