{"type": "FeatureCollection", "features": [{"type": "Feature", "properties": {"slug": "cookeville", "members": 3, "country": "United States", "input_hash": "3997cc816671af4c"}, "geometry": {"type": "Polygon", "coordinates": [[[-85.1000128, 36.1385755], [-85.131575, 36.130259], [-85.15275, 36.099544], [-85.235757, 36.105752], [-85.246362, 36.100698], [-85.243269, 36.055053], [-85.260407, 35.996645], [-85.254881, 35.99649], [-85.257012, 35.978492], [-85.311302, 35.992997], [-85.309363, 36.031592], [-85.326278, 36.030227], [-85.372181, 36.052388], [-85.505834, 36.08174], [-85.560459, 36.073471], [-85.575213, 36.05567], [-85.57776, 36.063229], [-85.582834, 36.060418], [-85.58259, 36.046826], [-85.589298, 36.043403], [-85.58371, 36.037028], [-85.611138, 36.04605], [-85.6510935, 36.0124228], [-85.6883746, 36.0694456], [-85.724996, 36.0819417], [-85.7471446, 36.0775278], [-85.7530749, 36.0680277], [-85.7671121, 36.0701051], [-85.7760209, 36.0783519], [-85.769981, 36.095104], [-85.7881034, 36.1029752], [-85.807415, 36.131582], [-85.8036331, 36.1703835], [-85.7837177, 36.17476], [-85.7905311, 36.1803371], [-85.7929705, 36.1734359], [-85.8031269, 36.1745222], [-85.7956438, 36.191746], [-85.7995302, 36.2062942], [-85.8093085, 36.2063115], [-85.7829798, 36.2114231], [-85.7789094, 36.2210262], [-85.7866181, 36.230249], [-85.7797576, 36.2373762], [-85.7971327, 36.2540532], [-85.8234787, 36.2510577], [-85.846443, 36.288002], [-85.8373833, 36.3415744], [-85.829959, 36.3431299], [-85.8357954, 36.3518405], [-85.813385, 36.499752], [-85.7666589, 36.5175003], [-85.753853, 36.499191], [-85.716087, 36.497749], [-85.736038, 36.519108], [-85.703964, 36.522663], [-85.697754, 36.500877], [-85.577141, 36.471493], [-85.564529, 36.475529], [-85.560616, 36.460094], [-85.495773, 36.403149], [-85.482277, 36.454342], [-85.4461671, 36.4981145], [-85.3926087, 36.504462], [-85.4036809, 36.4929396], [-85.3834248, 36.4887303], [-85.3897483, 36.5054331], [-85.3614807, 36.5194769], [-85.3379019, 36.5278614], [-85.2991193, 36.5224165], [-85.2690792, 36.5403117], [-85.2582688, 36.5332989], [-85.2652416, 36.5316068], [-85.20089, 36.501778], [-85.157768, 36.467018], [-85.1588918, 36.4605709], [-85.1518536, 36.4617444], [-85.1350308, 36.4069846], [-85.1204396, 36.4071918], [-85.122467, 36.305298], [-85.082687, 36.19614], [-85.119438, 36.1447683], [-85.1000128, 36.1385755]], [[-85.490441, 36.286801], [-85.49061680704347, 36.286956297589015], [-85.493903, 36.287144], [-85.490441, 36.286801]], [[-85.742848, 36.228283], [-85.74273877042452, 36.22828909017546], [-85.74289690613794, 36.22832866970234], [-85.742848, 36.228283]], [[-85.77752051333988, 36.24889965135892], [-85.777624, 36.249079], [-85.779621, 36.24889], [-85.77752051333988, 36.24889965135892]]]}}]}