{"type": "FeatureCollection", "features": [{"type": "Feature", "properties": {"slug": "cordoba", "members": 8, "country": "Argentina", "input_hash": "47a0730b4146da37"}, "geometry": {"type": "Polygon", "coordinates": [[[-96.8409273, 18.8756752], [-96.7810552, 18.8764968], [-96.760608, 18.8597875], [-96.7617553, 18.8513175], [-96.7475865, 18.845901], [-96.766777, 18.807308], [-96.7552523, 18.8012942], [-96.7801936, 18.7923959], [-96.7667041, 18.7831344], [-96.7803602, 18.7788804], [-96.7815954, 18.7639343], [-96.7990024, 18.7757744], [-96.8287742, 18.7759513], [-96.837688, 18.7858856], [-96.8686016, 18.7833808], [-96.8886512, 18.8007654], [-96.8920094, 18.7900176], [-96.904327, 18.7860912], [-96.924477, 18.7946886], [-96.9256507, 18.8029644], [-96.9483589, 18.8036737], [-96.9624946, 18.8139153], [-96.9802404, 18.8324356], [-96.98656, 18.8642834], [-97.0036606, 18.8670003], [-97.0127392, 18.8933532], [-97.0098429, 18.9153288], [-97.0218096, 18.9239447], [-97.0317575, 18.9722796], [-97.0189273, 18.9733546], [-97.0128833, 18.9887219], [-96.989205, 18.977202], [-96.9970625, 18.9867846], [-96.9812973, 18.986129], [-96.983052, 19.0020016], [-96.9643262, 19.0086986], [-96.9137294, 19.0066204], [-96.8982367, 18.991752], [-96.9050542, 18.9854679], [-96.9044308, 18.9637744], [-96.8754803, 18.9554517], [-96.8502672, 18.960978], [-96.8380973, 18.9425207], [-96.829714, 18.942466], [-96.8364478, 18.9247451], [-96.8176058, 18.9056743], [-96.8293021, 18.9011885], [-96.8247956, 18.8821294], [-96.8409273, 18.8756752]], [[-96.87501849282974, 18.95134476146599], [-96.8747069, 18.951669], [-96.8754803, 18.9554517], [-96.87501849282974, 18.95134476146599]], [[-96.95573398746019, 18.829587613914125], [-96.9571912, 18.8253443], [-96.9557083, 18.8294028], [-96.95573398746019, 18.829587613914125]], [[-96.9565545, 18.8383088], [-96.9565067319525, 18.83784664535806], [-96.95562257990407, 18.841668730122695], [-96.9565545, 18.8383088]], [[-96.9548607, 18.8444156], [-96.95496299126596, 18.8440468006713], [-96.9518191, 18.8437204], [-96.9548607, 18.8444156]], [[-96.9444173, 18.855884], [-96.9444677768676, 18.85573585271157], [-96.9408957, 18.853497], [-96.9444173, 18.855884]], [[-96.8822332, 18.9287349], [-96.8831002, 18.9265912], [-96.8806583, 18.9265079], [-96.8822332, 18.9287349]], [[-96.835887, 18.8520702], [-96.8446787, 18.8585108], [-96.84476489812779, 18.85851937244519], [-96.835887, 18.8520702]], [[-96.82973144745046, 18.84977176208855], [-96.8325521, 18.8517459], [-96.835887, 18.8520702], [-96.82973144745046, 18.84977176208855]], [[-96.8271032, 18.8457368], [-96.8280408, 18.8485885], [-96.82884571415565, 18.849151848913856], [-96.8271032, 18.8457368]], [[-96.82244135425009, 18.84268554624162], [-96.8223078, 18.8434112], [-96.8271032, 18.8457368], [-96.82244135425009, 18.84268554624162]], [[-96.84953784390206, 18.80696240238449], [-96.84939036473475, 18.807091067578806], [-96.849663, 18.8071069], [-96.84953784390206, 18.80696240238449]], [[-97.00126925372692, 18.948316413277794], [-97.0009169, 18.94763], [-96.9927346, 18.9398488], [-97.00126925372692, 18.948316413277794]]]}}]}