{"type": "FeatureCollection", "features": [{"type": "Feature", "properties": {"slug": "corinth", "members": 2, "country": "Greece", "input_hash": "0415af2c042f7283"}, "geometry": {"type": "MultiPolygon", "coordinates": [[[[23.0708496, 37.7294336], [23.0465392, 37.7019617], [23.027651, 37.7118659], [22.9993623, 37.7072985], [22.9854147, 37.7169719], [22.9558462, 37.7092961], [22.946321, 37.7275616], [22.9568919, 37.7419996], [22.9314249, 37.7446691], [22.9163775, 37.7553516], [22.889387, 37.751155], [22.8703909, 37.73885], [22.8261553, 37.7332309], [22.7868707, 37.7339485], [22.7462853, 37.7551002], [22.7461274, 37.7752328], [22.734319, 37.7900112], [22.7494938, 37.8057831], [22.7727115, 37.8088393], [22.7784919, 37.8299078], [22.7896672, 37.837089], [22.7763614, 37.8492267], [22.7878806, 37.8634685], [22.8078056, 37.8643839], [22.8147249, 37.8855612], [22.8058372, 37.8970345], [22.8232001, 37.9154147], [22.8077897, 37.9238305], [22.8174828, 37.9499112], [22.834103, 37.9541312], [22.8606108, 37.9367193], [22.8968161, 37.9318879], [22.9334017, 37.9457746], [22.9488688, 37.9422298], [22.9700147, 37.9639666], [22.9762906, 37.9786586], [22.9125544, 38.0165259], [22.8753917, 38.0248272], [22.8490412, 38.0280328], [22.8854683, 38.0536378], [22.9096302, 38.0543271], [22.9198464, 38.067059], [22.9383678, 38.0659646], [22.9384766, 38.0746336], [22.9639416, 38.0798786], [23.0245917, 38.0539782], [23.0286303, 38.0624973], [23.0565828, 38.0522122], [23.1177478, 38.060666], [23.1155522, 38.031115], [23.1278663, 38.0191108], [23.1141952, 38.0133095], [23.1067118, 37.9952007], [23.1164002, 37.9838278], [23.1622055, 37.972771], [23.1771451, 37.9597044], [23.1789667, 37.9515125], [23.1631264, 37.9468195], [23.1389066, 37.9215752], [23.0566795, 37.9122984], [23.0529201, 37.9218422], [23.0259314, 37.9181459], [23.0160363, 37.9240356], [23.0082238, 37.9130937], [23.0158206, 37.8998427], [22.99258248242232, 37.89308409630423], [23.0175885, 37.9002901], [22.9922115, 37.8812897], [23.0061966, 37.8473709], [23.0462784, 37.8470581], [23.0634696, 37.8388729], [23.1129871, 37.847806], [23.1141703, 37.8408373], [23.141572, 37.8332192], [23.1661829, 37.8054026], [23.1783253, 37.803507], [23.1794183, 37.7773252], [23.1516051, 37.7568155], [23.1289995, 37.7582427], [23.1328458, 37.7633848], [23.1267245, 37.7660723], [23.1169926, 37.7557817], [23.1284201, 37.7327152], [23.1179338, 37.7341057], [23.1210015, 37.7298999], [23.1064234, 37.7217298], [23.0708496, 37.7294336]], [[22.9714541, 37.9382087], [22.97224833319634, 37.93789113353066], [22.971382993153636, 37.938336886389045], [22.9714541, 37.9382087]], [[22.9749615, 37.9368063], [22.978364, 37.9374758], [22.974531604455166, 37.93697818957977], [22.9749615, 37.9368063]], [[22.9611656, 37.9198498], [22.96124372492429, 37.919766646816356], [22.9695552, 37.9280955], [22.9611656, 37.9198498]]], [[[22.8512831, 38.0276889], [22.8513051, 38.0277032], [22.8513146, 38.0276604], [22.8512831, 38.0276889]]], [[[22.9951433, 38.0688623], [22.9948636, 38.0685905], [22.9945369, 38.068801], [22.9951433, 38.0688623]]], [[[22.9770698, 38.1132125], [22.9838217, 38.1087676], [22.9775526, 38.1119062], [22.9770698, 38.1132125]]], [[[22.9889985, 38.1156203], [22.9968977, 38.1176346], [22.9987945, 38.1046645], [22.9889985, 38.1156203]]], [[[22.9740547, 38.1139424], [22.9749775, 38.1146297], [22.9749895, 38.113308], [22.9740547, 38.1139424]]], [[[22.9777517, 38.1246354], [22.9854808, 38.1229089], [22.9876854, 38.1161861], [22.9777517, 38.1246354]]], [[[23.1736542, 37.7594471], [23.172517, 37.7639287], [23.1760508, 37.7630413], [23.1736542, 37.7594471]]], [[[23.1341024, 37.8580959], [23.1337041, 37.8580821], [23.1338395, 37.8581266], [23.1341024, 37.8580959]]], [[[23.1333433, 37.8581128], [23.1333674, 37.8581848], [23.1335002, 37.858134], [23.1333433, 37.8581128]]], [[[23.1352597, 37.8585321], [23.1430971, 37.8611359], [23.1465974, 37.8576512], [23.1438991, 37.8586952], [23.1352597, 37.8585321]]], [[[23.0855551, 37.8665963], [23.0848832, 37.8688825], [23.0879522, 37.8663437], [23.0855551, 37.8665963]]], [[[22.9950012, 38.0677707], [22.9967361, 38.0683077], [22.9955238, 38.0676966], [22.9950012, 38.0677707]]]]}}]}