{"type":"FeatureCollection","features":[{"type":"Feature","properties":{"slug":"corner-brook-nf","member_count":1,"matched_count":1,"unmatched":["[recovered via metro-name fallback: Corner Brook (NF)]"],"source":"Overture Maps division_area (CC-BY 4.0)"},"geometry":{"type":"Polygon","coordinates":[[[-57.898916,48.9952919],[-57.9192481,48.9733496],[-58.0202654,48.976835],[-58.0645095,48.9366502],[-58.054612,48.9226823],[-58.0608572,48.8912789],[-58.0358765,48.8976477],[-57.9411779,48.8937117],[-57.9336481,48.8801591],[-57.9192772,48.8765908],[-57.7402525,48.909841],[-57.842971,48.9185393],[-57.8430056,48.9503318],[-57.8305998,48.9708883],[-57.8335301,48.9902095],[-57.898916,48.9952919]],[[-57.8836399,48.9422813],[-57.8801518,48.9263729],[-57.9119862,48.9383],[-57.8836399,48.9422813]]]}}]}