{"type": "FeatureCollection", "features": [{"type": "Feature", "properties": {"slug": "corunna", "members": 9, "country": "Spain", "input_hash": "8542475ac4b694cf"}, "geometry": {"type": "MultiPolygon", "coordinates": [[[[-8.4573832, 43.3685197], [-8.4398533, 43.3815257], [-8.4091882, 43.3691956], [-8.4038123, 43.3746434], [-8.4115964, 43.3849508], [-8.4007712, 43.3900162], [-8.3912659, 43.3851392], [-8.3968252, 43.3813931], [-8.3884934, 43.3704415], [-8.3743767, 43.3650613], [-8.3871536, 43.3696184], [-8.3875033, 43.3652848], [-8.39823, 43.3696704], [-8.4021003, 43.3596521], [-8.3947353, 43.3641394], [-8.3865222, 43.3606885], [-8.394453, 43.3605394], [-8.3848638, 43.3536812], [-8.3817605, 43.3545907], [-8.3789575, 43.3519681], [-8.3859799, 43.3487864], [-8.376388, 43.339594], [-8.3709833, 43.3437671], [-8.361455506006694, 43.34173888986466], [-8.3468918, 43.3485361], [-8.3515931, 43.3565545], [-8.338917601747005, 43.36820897140321], [-8.3450921, 43.3714469], [-8.3378933, 43.3780752], [-8.3399814, 43.3817829], [-8.344587409859937, 43.383002296954935], [-8.3554685, 43.3807603], [-8.3436697, 43.3913112], [-8.3497405, 43.3967114], [-8.3068005, 43.4056622], [-8.297135, 43.397774], [-8.2968104, 43.3853168], [-8.2674164, 43.3844108], [-8.2651458, 43.3787961], [-8.2609528, 43.3754674], [-8.2598434, 43.3697593], [-8.2419975, 43.3629529], [-8.2504761, 43.3624799], [-8.2441602, 43.3589565], [-8.2511734, 43.3504041], [-8.243723, 43.348674], [-8.241481786198195, 43.34373790432716], [-8.229733, 43.342678], [-8.2241929, 43.3330255], [-8.2057056, 43.3244782], [-8.2169922, 43.2999529], [-8.231240676346752, 43.300935734212345], [-8.2311513, 43.2825687], [-8.2501133, 43.276116], [-8.2701372, 43.2838258], [-8.2708666, 43.2750327], [-8.2563916, 43.2666354], [-8.2570505, 43.2541457], [-8.2272171, 43.2492331], [-8.2412003, 43.2382656], [-8.2347141, 43.2337112], [-8.2370451, 43.2165536], [-8.2262978, 43.2172535], [-8.2230044, 43.2022172], [-8.2557267, 43.2065209], [-8.2629841, 43.2020453], [-8.258503, 43.1875959], [-8.2765989, 43.1808818], [-8.3014128, 43.1552359], [-8.3128739, 43.1579346], [-8.3189568, 43.1461551], [-8.3473052, 43.137826], [-8.3591996, 43.1464683], [-8.3580277, 43.160315], [-8.3748238, 43.1699405], [-8.4087306, 43.1663033], [-8.3960594, 43.2142915], [-8.4075173, 43.2251096], [-8.4422965, 43.226516], [-8.4358896, 43.2336362], [-8.469877, 43.256479], [-8.5089805, 43.2704853], [-8.5286093, 43.2566587], [-8.5568083, 43.2581091], [-8.5851617, 43.2684176], [-8.6004146, 43.2901656], [-8.6034883, 43.300356], [-8.5913576, 43.302438], [-8.581642, 43.3178748], [-8.5464591, 43.3118868], [-8.5048601, 43.3302594], [-8.5070636, 43.3343168], [-8.5153039, 43.3374204], [-8.5181599, 43.341454], [-8.5054839, 43.3341594], [-8.4994896, 43.3480092], [-8.5182906, 43.3543022], [-8.5338653, 43.3456849], [-8.5235982, 43.3531867], [-8.514712, 43.356389], [-8.497014, 43.3563045], [-8.4862563, 43.360925], [-8.488190324105762, 43.3532068859882], [-8.4775993, 43.3521217], [-8.4567882, 43.3601368], [-8.4573832, 43.3685197]], [[-8.244436789483673, 43.34850165192128], [-8.24434501102272, 43.34852381229458], [-8.2443031, 43.348572], [-8.244436789483673, 43.34850165192128]]], [[[-8.5301205, 43.3193983], [-8.5302862, 43.3191307], [-8.5302837, 43.3193588], [-8.5301205, 43.3193983]]], [[[-8.5287117, 43.3208318], [-8.5287126, 43.320986], [-8.5275553, 43.3212277], [-8.5287117, 43.3208318]]], [[[-8.52905, 43.3211611], [-8.5289844, 43.3212334], [-8.5287114, 43.3211204], [-8.52905, 43.3211611]]], [[[-8.5287284, 43.3212521], [-8.5288717, 43.3212405], [-8.5287344, 43.3212715], [-8.5287284, 43.3212521]]], [[[-8.5284415, 43.3218555], [-8.5283816, 43.3215608], [-8.5290207, 43.3214887], [-8.5284415, 43.3218555]]], [[[-8.5219165, 43.3251496], [-8.5212207, 43.3256943], [-8.5216705, 43.3251504], [-8.5219165, 43.3251496]]], [[[-8.5199526, 43.3272176], [-8.5201131, 43.3266462], [-8.5204568, 43.3271939], [-8.5199526, 43.3272176]]], [[[-8.37387, 43.3420652], [-8.3747068, 43.342666], [-8.3736983, 43.342112], [-8.37387, 43.3420652]]], [[[-8.3725604, 43.3438903], [-8.3735048, 43.3428896], [-8.3736615, 43.3439278], [-8.3725604, 43.3438903]]], [[[-8.3500186, 43.347472], [-8.3504389, 43.3491734], [-8.3488675, 43.3487455], [-8.3500186, 43.347472]]], [[[-8.3514103, 43.3492498], [-8.3513566, 43.3489323], [-8.3516765, 43.3488661], [-8.3514103, 43.3492498]]], [[[-8.347866735427111, 43.36232472390927], [-8.3476057, 43.3626083], [-8.3477156, 43.3619804], [-8.347866735427111, 43.36232472390927]]], [[[-8.3860995, 43.3688522], [-8.386406, 43.3689643], [-8.3860058, 43.3689876], [-8.3860995, 43.3688522]]], [[[-8.4500387, 43.3775588], [-8.4525626, 43.3756955], [-8.4539265, 43.3778049], [-8.4500387, 43.3775588]]], [[[-8.447805, 43.3789464], [-8.4496175, 43.3778239], [-8.451243, 43.3800892], [-8.447805, 43.3789464]]], [[[-8.4460091, 43.3819313], [-8.4476811, 43.3795801], [-8.4492729, 43.381377], [-8.4460091, 43.3819313]]], [[[-8.436852, 43.3815694], [-8.4372848, 43.3816319], [-8.4368043, 43.3825283], [-8.436852, 43.3815694]]], [[[-8.4454472, 43.3824643], [-8.4454867, 43.3822389], [-8.4474101, 43.3827775], [-8.4454472, 43.3824643]]], [[[-8.3557945, 43.3838015], [-8.3554356, 43.3835598], [-8.3560481, 43.3833735], [-8.3557945, 43.3838015]]], [[[-8.3550584, 43.3902067], [-8.3527686, 43.3903772], [-8.3544899, 43.3897925], [-8.3550584, 43.3902067]]], [[[-8.3422439, 43.3759314], [-8.3410047, 43.3760484], [-8.3416694, 43.3751192], [-8.3422439, 43.3759314]]], [[[-8.3433563, 43.3823066], [-8.343782, 43.3813995], [-8.343822, 43.3819047], [-8.3433563, 43.3823066]]], [[[-8.2681443, 43.3845621], [-8.2681733, 43.3845445], [-8.2681907, 43.3845719], [-8.2681443, 43.3845621]]], [[[-8.2680265, 43.3846183], [-8.267926, 43.3846], [-8.2680178, 43.3845291], [-8.2680265, 43.3846183]]], [[[-8.2681018, 43.3846779], [-8.2681385, 43.3846646], [-8.2680922, 43.384713], [-8.2681018, 43.3846779]]], [[[-8.2678352, 43.3847193], [-8.2678613, 43.3846962], [-8.2678439, 43.3847285], [-8.2678352, 43.3847193]]], [[[-8.2683549, 43.384812], [-8.2683887, 43.3848036], [-8.2683578, 43.3848289], [-8.2683549, 43.384812]]], [[[-8.2714399, 43.3860382], [-8.271536, 43.3861294], [-8.2714988, 43.3861491], [-8.2714399, 43.3860382]]], [[[-8.276334570148725, 43.38658276657224], [-8.2763419, 43.3865124], [-8.276397, 43.386598], [-8.276334570148725, 43.38658276657224]]], [[[-8.3264337, 43.4048858], [-8.3265668, 43.404499], [-8.3275779, 43.404465], [-8.3264337, 43.4048858]]], [[[-8.3364061, 43.4061447], [-8.3365039, 43.4059745], [-8.3365051, 43.4060704], [-8.3364061, 43.4061447]]], [[[-8.3357208, 43.4061889], [-8.3363859, 43.4063206], [-8.3357532, 43.4068608], [-8.3357208, 43.4061889]]], [[[-8.3364846, 43.4067839], [-8.3365121, 43.4068487], [-8.3362945, 43.4069377], [-8.3364846, 43.4067839]]], [[[-8.3364436, 43.4069652], [-8.336307, 43.4069639], [-8.3362945, 43.4069377], [-8.3364436, 43.4069652]]], [[[-8.2641687, 43.3783036], [-8.2641731, 43.378332], [-8.2641359, 43.3783148], [-8.2641687, 43.3783036]]], [[[-8.264033, 43.3783563], [-8.2640011, 43.3783703], [-8.2640243, 43.3783471], [-8.264033, 43.3783563]]], [[[-8.2650449, 43.3795049], [-8.2650671, 43.3795127], [-8.2650434, 43.3795565], [-8.2650449, 43.3795049]]], [[[-8.2646358, 43.3803352], [-8.2647063, 43.3803401], [-8.264601, 43.380364], [-8.2646358, 43.3803352]]], [[[-8.264706371111378, 43.380383968126786], [-8.2647275, 43.3803864], [-8.264671, 43.3803942], [-8.264706371111378, 43.380383968126786]]], [[[-8.264588, 43.3804124], [-8.2646503, 43.3804177], [-8.2646551, 43.3804261], [-8.264588, 43.3804124]]], [[[-8.2643856, 43.3804802], [-8.2643498, 43.3804805], [-8.2643711, 43.380438], [-8.2643856, 43.3804802]]], [[[-8.264306513433182, 43.38052336724265], [-8.2642933, 43.3805946], [-8.2643286, 43.3804043], [-8.264306513433182, 43.38052336724265]]], [[[-8.2643054, 43.3809281], [-8.264316, 43.38086], [-8.2643914, 43.3808558], [-8.2643054, 43.3809281]]], [[[-8.2640059, 43.3808951], [-8.26406, 43.3809007], [-8.2640504, 43.3809211], [-8.2640059, 43.3808951]]], [[[-8.2648299, 43.3822789], [-8.2646261, 43.3825703], [-8.2646783, 43.3822663], [-8.2648299, 43.3822789]]], [[[-8.2659148, 43.3826489], [-8.2659196, 43.3824678], [-8.2660375, 43.3824671], [-8.2659148, 43.3826489]]], [[[-8.2657776, 43.3826581], [-8.2656076, 43.3828041], [-8.2658037, 43.3825535], [-8.2657776, 43.3826581]]], [[[-8.2652666, 43.3827297], [-8.2652482, 43.3828539], [-8.265225, 43.3828547], [-8.2652666, 43.3827297]]], [[[-8.2659621, 43.3828638], [-8.2659534, 43.3828055], [-8.2660548, 43.3827739], [-8.2659621, 43.3828638]]], [[[-8.2672372, 43.3843279], [-8.2672846, 43.3843687], [-8.2672368, 43.3843564], [-8.2672372, 43.3843279]]], [[[-8.2672846, 43.3843687], [-8.267273, 43.3844178], [-8.2672575, 43.3844164], [-8.2672846, 43.3843687]]], [[[-8.2230268, 43.3355955], [-8.2229978, 43.3355927], [-8.223001, 43.3355825], [-8.2230268, 43.3355955]]], [[[-8.2231238, 43.3356765], [-8.223204, 43.3356755], [-8.2231897, 43.3356932], [-8.2231238, 43.3356765]]], [[[-8.2232785, 43.3357176], [-8.2232971, 43.3357077], [-8.2232993, 43.3357187], [-8.2232785, 43.3357176]]], [[[-8.2232692, 43.3358765], [-8.223242, 43.3357567], [-8.2234203, 43.3358187], [-8.2232692, 43.3358765]]], [[[-8.2231926, 43.3359379], [-8.2231754, 43.3359166], [-8.223199, 43.335926], [-8.2231926, 43.3359379]]], [[[-8.2226527, 43.3360734], [-8.2226391, 43.3360088], [-8.2226706, 43.3360025], [-8.2226527, 43.3360734]]], [[[-8.2225424, 43.3360692], [-8.2225753, 43.3360364], [-8.2225539, 43.3361077], [-8.2225424, 43.3360692]]], [[[-8.2227264, 43.3360848], [-8.2226806, 43.3361359], [-8.2226906, 43.3359973], [-8.2227264, 43.3360848]]], [[[-8.2228811, 43.3361296], [-8.2229233, 43.336078], [-8.2229255, 43.3361484], [-8.2228811, 43.3361296]]], [[[-8.2230658, 43.3364791], [-8.222907224391669, 43.33655948013021], [-8.2228553, 43.3365858], [-8.2230658, 43.3364791]]], [[[-8.2227916, 43.3365692], [-8.2227579, 43.3366072], [-8.2227923, 43.3365332], [-8.2227916, 43.3365692]]], [[[-8.2228961, 43.3366327], [-8.2228868, 43.3366113], [-8.2229355, 43.3365931], [-8.2228961, 43.3366327]]], [[[-8.263918, 43.3803612], [-8.2638871, 43.3803619], [-8.2639026, 43.3803464], [-8.263918, 43.3803612]]], [[[-8.2641315, 43.3805005], [-8.2639016, 43.3808151], [-8.2638272, 43.3804809], [-8.2641315, 43.3805005]]]]}}]}