{"type":"FeatureCollection","features":[{"type":"Feature","properties":{"slug":"coshocton-oh","member_count":30,"matched_count":2,"unmatched":["West Lafayette village (US-OH, type='Village')","Balance of Crawford township (US-OH, type='Balance')","Jackson township (US-OH, type='Township')","Balance of Lafayette township (US-OH, type='Balance')","Tuscarawas township (US-OH, type='Township')","Keene township (US-OH, type='Township')","Oxford township (US-OH, type='Township')","White Eyes township (US-OH, type='Township')","Bethlehem township (US-OH, type='Township')","Mill Creek township (US-OH, type='Township')","Balance of Franklin township (US-OH, type='Balance')","Adams township (US-OH, type='Township')","Washington township (US-OH, type='Township')","Balance of Jefferson township (US-OH, type='Balance')","Pike township (US-OH, type='Township')","Perry township (US-OH, type='Township')","Clark township (US-OH, type='Township')","Warsaw village (US-OH, type='Village')","Bedford township (US-OH, type='Township')","Virginia township (US-OH, type='Township')","Balance of Linton township (US-OH, type='Balance')","Newcastle township (US-OH, type='Township')","Tiverton township (US-OH, type='Township')","Monroe township (US-OH, type='Township')","Conesville village (US-OH, type='Village')","Plainfield village (US-OH, type='Village')","Nellie village (US-OH, type='Village')","Baltic village (US-OH, type='Village')"],"source":"Overture Maps division_area (CC-BY 4.0)"},"geometry":{"type":"Polygon","coordinates":[[[-82.1871237,40.1666288],[-82.1828428,40.238621],[-82.1959148,40.2390862],[-82.1842357,40.4564561],[-81.7092277,40.4448657],[-81.7123361,40.3707509],[-81.6163069,40.3681256],[-81.622498,40.221256],[-81.667648,40.222466],[-81.670273,40.151745],[-82.1871237,40.1666288]]]}}]}