{"type": "FeatureCollection", "features": [{"type": "Feature", "properties": {"slug": "cowdenbeath", "members": 1, "country": "United Kingdom", "input_hash": "188392017b4a92ef"}, "geometry": {"type": "Polygon", "coordinates": [[[-3.71462917741538, 56.10449308306421], [-3.739298059243475, 56.07706651587476], [-3.68635252474251, 56.04805659872622], [-3.617516555035863, 56.05596770878672], [-3.60808692355096, 56.04617496068954], [-3.593854525647679, 56.04582947215441], [-3.590438945026928, 56.0594665916667], [-3.575529905791146, 56.058869765938006], [-3.546866637058844, 56.03975924636628], [-3.463302363894758, 56.03023865542623], [-3.455942061531267, 56.02037493821344], [-3.438462402952766, 56.023785253017444], [-3.391475133457123, 56.00583188730821], [-3.388058917547804, 56.02250641779124], [-3.402775221346408, 56.02414873425169], [-3.395421251650921, 56.02916081213717], [-3.357093481574662, 56.02608323690431], [-3.334502746216874, 56.039576220293654], [-3.322257522958568, 56.03358351111895], [-3.294962295169319, 56.05296365593437], [-3.28360192243738, 56.05035076621832], [-3.284270828635326, 56.05617719540744], [-3.266182769448134, 56.059410225257864], [-3.236095409562028, 56.05369232788113], [-3.216752065581537, 56.063856569395824], [-3.174378262740206, 56.062605758038636], [-3.149458425241712, 56.11790094086072], [-3.123852250596792, 56.12139289794524], [-2.996650751087429, 56.19051539529638], [-3.014365069592978, 56.194195373447265], [-2.996304824789704, 56.19239782847127], [-2.943345366829157, 56.21350089196916], [-2.889948592075329, 56.20591644308277], [-2.87257537491789, 56.19786501703437], [-2.88189216256187, 56.192805153544896], [-2.866026874115287, 56.192991863113384], [-2.869194868502121, 56.18699744142911], [-2.838560641931624, 56.183432751112576], [-2.818933941024306, 56.18966773339096], [-2.813068611547372, 56.18325536037969], [-2.781601232450499, 56.20089232197328], [-2.707889752184655, 56.21546736079469], [-2.704113323926192, 56.22266755029387], [-2.695607841000466, 56.21936268900218], [-2.629503877715573, 56.25751205310617], [-2.602849148109928, 56.26352695796442], [-2.585444010671862, 56.27913204113543], [-2.630387468476112, 56.292882185588944], [-2.660376289851355, 56.31833240256286], [-2.790240107562402, 56.335009975095005], [-2.779524468401798, 56.33943895076398], [-2.8061633959094, 56.34450827099109], [-2.81976882448284, 56.367863825587456], [-2.838856245531183, 56.35293977594038], [-2.863895325392954, 56.363990112632436], [-2.810915244060864, 56.39126467592965], [-2.808250059223471, 56.44154591535836], [-2.865503185967588, 56.44014059239829], [-2.88326588527621, 56.452427369141], [-2.921855419394893, 56.45143246942243], [-2.98998419011849, 56.420728547029086], [-3.039644876976254, 56.41567718275149], [-3.226315543337165, 56.35507857917097], [-3.277110661921989, 56.35041982887488], [-3.255642167599166, 56.34627700986451], [-3.256029895723483, 56.34010582963786], [-3.300622160253088, 56.31398787991739], [-3.293698623130263, 56.28871246522415], [-3.324829967904521, 56.28280880116819], [-3.335533989225943, 56.28945787461255], [-3.383665976365958, 56.26878879983422], [-3.353306583914365, 56.255280026883064], [-3.367492381715666, 56.239768192191974], [-3.27998474452695, 56.233853321211335], [-3.290234157428168, 56.22498894733416], [-3.264868912904648, 56.220061959524344], [-3.274928277283399, 56.2141713378621], [-3.260946851354313, 56.19614479656735], [-3.309126133588799, 56.18531182727017], [-3.296535661091048, 56.17058288607379], [-3.316418646831959, 56.16649187431618], [-3.345448755588697, 56.17294794115574], [-3.371719387337344, 56.16440698419354], [-3.369913543575793, 56.14584697379973], [-3.416637332115413, 56.138427240872005], [-3.453705016967165, 56.15038403212414], [-3.540011091819457, 56.1464683509737], [-3.546106814769207, 56.15853011916413], [-3.563967574824282, 56.159817558820336], [-3.582891930075828, 56.15087843476764], [-3.580956864619053, 56.13931606521915], [-3.663945235373056, 56.123052347554705], [-3.628792954912469, 56.11044658383217], [-3.672589822965548, 56.1078050339169], [-3.67448040421231, 56.10023748270861], [-3.71462917741538, 56.10449308306421]]]}}]}