{"type": "FeatureCollection", "features": [{"type": "Feature", "properties": {"slug": "cremona", "members": 113, "country": "Italy", "input_hash": "c25ba24deb4c6ef9"}, "geometry": {"type": "Polygon", "coordinates": [[[10.4026494, 44.982892], [10.3612673, 44.9650052], [10.3130454, 44.9830892], [10.3030492, 45.000939], [10.276165, 44.9976325], [10.2539734, 45.0183818], [10.210506, 45.0332892], [10.187038, 45.0279664], [10.1737345, 45.0319779], [10.1685981, 45.0427747], [10.0945481, 45.0232383], [10.0815872, 45.0472545], [10.0503825, 45.0415846], [10.0488227, 45.0565074], [10.0221582, 45.0724734], [10.028822, 45.0954963], [9.9851715, 45.1343077], [9.9175812, 45.1003286], [9.9135756, 45.109941], [9.9270125, 45.1253452], [9.9204225, 45.137762], [9.8908832, 45.1313549], [9.8724079, 45.1410206], [9.871327, 45.1589521], [9.8581022, 45.1522695], [9.849933, 45.1606181], [9.8337624, 45.1492501], [9.8263762, 45.163661], [9.7874172, 45.1649058], [9.7751684, 45.1907317], [9.7516078, 45.18137], [9.7768553, 45.2133072], [9.7631173, 45.2229481], [9.7437825, 45.2155191], [9.7418154, 45.2266635], [9.7294828, 45.2221555], [9.7161532, 45.2310609], [9.7266368, 45.2421537], [9.7073165, 45.2544606], [9.7209357, 45.2563962], [9.719247, 45.2628357], [9.6942246, 45.2547056], [9.6869702, 45.2650277], [9.6797982, 45.2557729], [9.6664006, 45.2600762], [9.6750426, 45.2682202], [9.6647277, 45.2678274], [9.6608238, 45.2766258], [9.6520401, 45.2702033], [9.6426854, 45.2836867], [9.6220471, 45.2789695], [9.6315316, 45.289441], [9.6148677, 45.2929966], [9.6166918, 45.3016018], [9.6004227, 45.3156648], [9.6052272, 45.3242683], [9.5824747, 45.3631607], [9.5676655, 45.3670428], [9.5640426, 45.343035], [9.5522576, 45.3391076], [9.5319532, 45.3490186], [9.5092582, 45.348852], [9.5079948, 45.3668828], [9.4952879, 45.3643113], [9.4791208, 45.3783383], [9.4778406, 45.3708671], [9.4617719, 45.3772096], [9.4528955, 45.3945917], [9.484435, 45.4228138], [9.4808646, 45.4287345], [9.4893988, 45.4387371], [9.4814134, 45.4448267], [9.4951056, 45.4832663], [9.5201809, 45.5041724], [9.5454263, 45.4874745], [9.5405138, 45.4790908], [9.5465322, 45.4607359], [9.5775989, 45.4602995], [9.5906497, 45.4758856], [9.6084472, 45.4756075], [9.6204656, 45.4561546], [9.6456944, 45.4575405], [9.6619211, 45.4371501], [9.6839586, 45.4408952], [9.7088914, 45.4825487], [9.7200369, 45.4821665], [9.7493068, 45.4668629], [9.7549726, 45.4536165], [9.7611927, 45.456316], [9.767962, 45.4308066], [9.7861371, 45.4293778], [9.7870738, 45.4221614], [9.8082933, 45.4226838], [9.8105994, 45.439225], [9.8250192, 45.4459356], [9.810531, 45.4519576], [9.8235224, 45.4577378], [9.8345634, 45.4479815], [9.8448007, 45.4526183], [9.8584049, 45.4333445], [9.882116, 45.4352071], [9.8896216, 45.4222502], [9.893334, 45.3941736], [9.8840666, 45.3833227], [9.8909064, 45.3779228], [9.8841645, 45.3568583], [9.8974276, 45.3386757], [9.9226456, 45.3382452], [9.9346536, 45.3210905], [9.9815174, 45.3059918], [9.9843539, 45.2962175], [9.9956074, 45.2974646], [9.9940748, 45.2909264], [10.0299678, 45.276122], [10.0523775, 45.2817266], [10.0747756, 45.2683054], [10.083294, 45.2717343], [10.0851515, 45.2602332], [10.1032127, 45.2463549], [10.1662733, 45.2422635], [10.2195103, 45.2247727], [10.2197681, 45.2350661], [10.2278859, 45.2358525], [10.222207, 45.2377023], [10.2207376, 45.2421828], [10.245847, 45.2425998], [10.2508659, 45.2534052], [10.2665632, 45.2512061], [10.2751828, 45.233281], [10.3210206, 45.2166854], [10.3109801, 45.1873888], [10.3647973, 45.1617718], [10.3664841, 45.1485985], [10.3788759, 45.1385862], [10.3882876, 45.143828], [10.4180635, 45.1299652], [10.4191038, 45.140317], [10.437095, 45.1457498], [10.4337879, 45.1374334], [10.440075, 45.1349787], [10.445842, 45.1449482], [10.4784081, 45.1450976], [10.4922964, 45.1324504], [10.4592703, 45.1229343], [10.4662056, 45.0957066], [10.4111267, 45.0864389], [10.4180503, 45.0665533], [10.4132441, 45.0424564], [10.4457335, 45.0464682], [10.4662277, 45.0591927], [10.4944139, 45.0566374], [10.491394, 45.0828928], [10.4978622, 45.0752419], [10.5332922, 45.074645], [10.5408158, 45.0625694], [10.5345012, 45.0451262], [10.5197387, 45.040456], [10.5111144, 45.0184635], [10.4641388, 45.0148113], [10.455719, 44.9823732], [10.512, 44.9836308], [10.5551024, 45.0068585], [10.5669324, 44.9997198], [10.5967139, 45.0038579], [10.5610064, 44.9943175], [10.5235136, 44.9699672], [10.5070617, 44.9718431], [10.4960904, 44.9468036], [10.4709189, 44.9453331], [10.4671947, 44.937668], [10.4331849, 44.9484803], [10.4255862, 44.9695179], [10.4026494, 44.982892]]]}}]}