{"type": "FeatureCollection", "features": [{"type": "Feature", "properties": {"slug": "cuenca-es", "members": 238, "country": "Spain", "input_hash": "6236600fa6f70c3f"}, "geometry": {"type": "Polygon", "coordinates": [[[-3.0131618, 40.1686823], [-3.0210706, 40.1874929], [-3.0050713, 40.2091176], [-2.9469824, 40.1696091], [-2.911484, 40.1570835], [-2.8741145, 40.1730022], [-2.8643029, 40.1997155], [-2.8221537, 40.2041294], [-2.8026314, 40.2640256], [-2.8169657, 40.3640238], [-2.805887, 40.3909706], [-2.8076797, 40.4067936], [-2.7996152, 40.4236271], [-2.7860353, 40.4272425], [-2.7900414, 40.4316824], [-2.7795154, 40.4453295], [-2.7600703, 40.4419935], [-2.7698691, 40.4214006], [-2.7600232, 40.4123354], [-2.7228998, 40.3971171], [-2.7280268, 40.4114267], [-2.7160433, 40.4078753], [-2.7174309, 40.4198248], [-2.7050942, 40.4160011], [-2.6906686, 40.3951343], [-2.6851287, 40.3980023], [-2.6807699, 40.4027111], [-2.7034497, 40.4253753], [-2.6850129, 40.4277319], [-2.6763564, 40.4357801], [-2.6851522, 40.4432909], [-2.6731577, 40.448609], [-2.6638453, 40.4360507], [-2.6415756, 40.4488488], [-2.5995554, 40.4433685], [-2.5862355, 40.4502586], [-2.5455634, 40.4348574], [-2.5430166, 40.4256272], [-2.5173334, 40.4223463], [-2.5045342, 40.4486489], [-2.5230364, 40.4670151], [-2.5444533, 40.4746331], [-2.5287263, 40.4983808], [-2.546266, 40.5189555], [-2.5272353, 40.5442754], [-2.5136011, 40.5157685], [-2.4960164, 40.5090908], [-2.4486408, 40.5245305], [-2.4267446, 40.540748], [-2.4118209, 40.525628], [-2.3800037, 40.5435873], [-2.4172819, 40.5834475], [-2.4124512, 40.6021162], [-2.3995135, 40.6135087], [-2.3590311, 40.5968408], [-2.3539605, 40.5895244], [-2.3598473, 40.5806386], [-2.3434391, 40.5693845], [-2.2976604, 40.5728446], [-2.2860418, 40.5922232], [-2.2942449, 40.6246511], [-2.2746012, 40.6447538], [-2.2138151, 40.6191764], [-2.1692493, 40.6302333], [-2.1575103, 40.6582191], [-2.1469973, 40.6579617], [-2.0912023, 40.6463652], [-2.0357981, 40.6015664], [-1.9855266, 40.5854337], [-1.9659049, 40.5919801], [-1.9645601, 40.6116441], [-1.9546651, 40.5997184], [-1.9257455, 40.5931679], [-1.9150238, 40.5798165], [-1.9052718, 40.5460248], [-1.910237, 40.5407927], [-1.9002605, 40.5405037], [-1.8811046, 40.5166558], [-1.888757, 40.5042088], [-1.8741604, 40.4710393], [-1.8621226, 40.462779], [-1.8663766, 40.4513297], [-1.853738, 40.4217076], [-1.8450155, 40.4173459], [-1.8367328, 40.4259629], [-1.8101226, 40.3993885], [-1.7775318, 40.3912623], [-1.7420839, 40.3491319], [-1.6974705, 40.3206021], [-1.7068398, 40.3136025], [-1.7201516, 40.3185074], [-1.7294595, 40.3029077], [-1.7212204, 40.2787001], [-1.7123238, 40.278295], [-1.7076953, 40.2971259], [-1.6903457, 40.3096601], [-1.5404792, 40.1908041], [-1.5109025, 40.2037152], [-1.4744168, 40.1850423], [-1.4392133, 40.1970132], [-1.4423657, 40.1575971], [-1.4562131, 40.1309538], [-1.4075965, 40.1014029], [-1.4202856, 40.0935144], [-1.383136, 40.0389664], [-1.3768596, 40.0164992], [-1.3357751, 40.0166728], [-1.249456, 39.9951032], [-1.1651878, 40.0100963], [-1.1423952, 39.9718415], [-1.2082588, 39.9447665], [-1.2089667, 39.9281599], [-1.19586, 39.9139295], [-1.2000437, 39.8587059], [-1.2150036, 39.8087743], [-1.2754093, 39.7386406], [-1.2619953, 39.6989071], [-1.2765641, 39.6810242], [-1.3128269, 39.6704841], [-1.3685346, 39.6896148], [-1.4179317, 39.6549358], [-1.462082, 39.5766211], [-1.5043625, 39.5639017], [-1.5028558, 39.5522325], [-1.5205418, 39.5502697], [-1.503452, 39.5472031], [-1.5070014, 39.520643], [-1.5011441, 39.5155039], [-1.5072171, 39.5078606], [-1.4990598, 39.4997049], [-1.5036601, 39.4914978], [-1.5124541, 39.4962689], [-1.5050554, 39.4877045], [-1.5125576, 39.4832328], [-1.503223, 39.4793467], [-1.5129989, 39.4712462], [-1.5133915, 39.4582678], [-1.5289156, 39.4545999], [-1.5184708, 39.4489442], [-1.5246333, 39.4432922], [-1.5154099, 39.4387599], [-1.52085, 39.4315221], [-1.4967628, 39.4290348], [-1.5051912, 39.4176446], [-1.5552178, 39.4015973], [-1.6249303, 39.3617089], [-1.7392815, 39.3211599], [-1.7631074, 39.3014938], [-1.7698535, 39.2805081], [-1.845191, 39.2861182], [-1.8869819, 39.3049425], [-1.9897989, 39.2936802], [-1.9949662, 39.3099065], [-2.0284315, 39.3368083], [-2.0201506, 39.3519027], [-2.0936788, 39.360042], [-2.0736948, 39.3211206], [-2.0773445, 39.3082377], [-2.0509629, 39.2666769], [-2.1686811, 39.2810737], [-2.18185, 39.2693091], [-2.2189279, 39.2615173], [-2.2886773, 39.2266611], [-2.3018305, 39.263612], [-2.3291917, 39.2861102], [-2.3498899, 39.2785418], [-2.3610906, 39.2465533], [-2.3740805, 39.2327799], [-2.5110458, 39.3421528], [-2.5487766, 39.3234554], [-2.5936751, 39.3394168], [-2.6192584, 39.3401433], [-2.6349706, 39.3267589], [-2.7422518, 39.3181534], [-2.7720844, 39.3695955], [-2.7760325, 39.3947612], [-2.7908508, 39.397809], [-2.8190158, 39.3654105], [-2.8456715, 39.3492989], [-2.8609021, 39.3472097], [-2.8646901, 39.3568287], [-2.8823771, 39.3508829], [-2.8934369, 39.3589403], [-2.8965593, 39.3667736], [-2.8865246, 39.3842992], [-2.8705937, 39.3843996], [-2.8699207, 39.3904811], [-2.8859211, 39.4056091], [-2.8896704, 39.4219221], [-2.9000752, 39.4250042], [-2.8976161, 39.4303634], [-2.9042452, 39.4342077], [-2.903466, 39.4262145], [-2.9145357, 39.4473982], [-2.9318119, 39.4528249], [-2.928052, 39.4700471], [-2.9347929, 39.4780062], [-2.9333849, 39.525475], [-2.9206483, 39.5591406], [-2.9255142, 39.6017981], [-2.9137468, 39.6137285], [-2.9178596, 39.6230572], [-2.9082333, 39.6423321], [-2.9977483, 39.718866], [-3.0155505, 39.7649076], [-3.0405369, 39.7875807], [-3.0596752, 39.8374713], [-3.0762917, 39.8557073], [-3.0962663, 39.8691087], [-3.1272274, 39.8746834], [-3.1068779, 39.9031396], [-3.0970593, 39.9334667], [-3.0965974, 39.9869396], [-3.1419589, 39.9850176], [-3.1702345, 40.048139], [-3.1613765, 40.0651255], [-3.1182156, 40.0614204], [-3.089679, 40.0701422], [-3.0529852, 40.0993846], [-3.0723157, 40.1310269], [-3.0967648, 40.1423977], [-3.0977733, 40.1531535], [-3.0871955, 40.16376], [-3.0716308, 40.1559694], [-3.0637669, 40.1682512], [-3.0159657, 40.152708], [-3.0131618, 40.1686823]]]}}]}