{"type":"FeatureCollection","features":[{"type":"Feature","properties":{"slug":"cuernavaca","member_count":8,"matched_count":8,"unmatched":[],"source":"Overture Maps division_area (CC-BY 4.0)"},"geometry":{"type":"Polygon","coordinates":[[[-99.145145,18.8269156],[-99.1171751,18.8296515],[-99.0905562,18.8055983],[-99.0946211,18.7908772],[-99.0861774,18.790864],[-99.0869175,18.7709768],[-99.0776199,18.7591171],[-99.0751266,18.7241679],[-99.0667786,18.7112113],[-99.0925894,18.7059182],[-99.0914226,18.6918471],[-99.0821073,18.6842418],[-99.0872193,18.6697605],[-99.0946181,18.6707107],[-99.0919859,18.6616969],[-99.0618654,18.6662578],[-99.0564871,18.6765452],[-99.0419395,18.6651004],[-99.0319633,18.6762744],[-98.997956,18.6654832],[-99.002666,18.6496011],[-98.9961068,18.6431647],[-99.0090732,18.6320998],[-99.0152422,18.6352122],[-99.0113913,18.6294277],[-99.0204231,18.6312704],[-99.0294655,18.6093324],[-99.0364963,18.6108551],[-99.0319508,18.6007302],[-99.0408686,18.6008385],[-99.0337765,18.5874823],[-99.0442704,18.5878376],[-99.0408131,18.5785993],[-99.0466344,18.5863259],[-99.0734682,18.583704],[-99.0908901,18.6422763],[-99.1077936,18.6563654],[-99.1169125,18.6614902],[-99.1208526,18.6483212],[-99.1587814,18.6617397],[-99.1582161,18.6794994],[-99.1932604,18.6671725],[-99.1887874,18.6835317],[-99.1995759,18.6886124],[-99.1936463,18.7156931],[-99.2218318,18.7120402],[-99.2799942,18.72436],[-99.2811082,18.7368671],[-99.2979682,18.7393593],[-99.2922203,18.7548504],[-99.2767986,18.7578876],[-99.2881422,18.7954499],[-99.312239,18.8154738],[-99.348412,18.8307435],[-99.3523077,18.8422897],[-99.3274683,18.8678322],[-99.3420117,18.9225178],[-99.3379048,18.9323991],[-99.3171628,18.9400001],[-99.3087164,18.9587977],[-99.3084678,18.9940055],[-99.3196704,19.0112717],[-99.3117578,19.02465],[-99.3174917,19.0401259],[-99.3085702,19.0403014],[-99.3176965,19.0533854],[-99.318319,19.0874168],[-99.2950779,19.1229315],[-99.2786952,19.1317017],[-99.2267778,19.09606],[-99.135379,19.089296],[-99.1254331,19.0620647],[-99.0620857,19.0487187],[-99.0305823,19.0001755],[-99.018024,18.9962854],[-99.0160052,18.960679],[-99.0283964,18.9255455],[-99.0957457,18.9156246],[-99.1091566,18.9080967],[-99.1019676,18.9059159],[-99.1026006,18.9039551],[-99.1316669,18.8964299],[-99.1198073,18.8669837],[-99.1343609,18.8641284],[-99.1483828,18.835966],[-99.145145,18.8269156]]]}}]}