{"type": "FeatureCollection", "features": [{"type": "Feature", "properties": {"slug": "cumberland", "members": 2, "country": "United States", "input_hash": "2a684655d25dbc8a"}, "geometry": {"type": "Polygon", "coordinates": [[[-78.6575, 39.5352474], [-78.705559, 39.495281], [-78.727547, 39.465134], [-78.75589, 39.44593], [-78.77137, 39.446537], [-78.799019, 39.39558], [-78.847572, 39.337563], [-78.885818, 39.326576], [-78.92514, 39.282047], [-78.956917, 39.262829], [-78.9797277, 39.23757], [-79.1346074, 39.3124529], [-79.2719105, 39.3278171], [-79.2683019, 39.3361455], [-79.2537826, 39.3370528], [-79.2562652, 39.3570248], [-79.2141536, 39.3634262], [-79.1978609, 39.3881007], [-79.1830146, 39.3853767], [-79.1773121, 39.3966833], [-79.1622996, 39.3880236], [-79.166539, 39.4008972], [-79.1595065, 39.4167867], [-79.1432637, 39.4052521], [-79.1417342, 39.4170693], [-79.1275363, 39.4178142], [-79.1288497, 39.429655], [-79.1107282, 39.4320049], [-79.1168899, 39.4389439], [-79.1029144, 39.4504549], [-79.1079352, 39.4612248], [-79.0945685, 39.4647545], [-79.1048429, 39.474765], [-79.0686664, 39.4743672], [-78.9284278, 39.7227791], [-78.3426213, 39.7225773], [-78.3134577, 39.6930393], [-78.3227946, 39.6889568], [-78.3148173, 39.6853504], [-78.3228599, 39.6839663], [-78.3200057, 39.6763075], [-78.3429134, 39.6767701], [-78.3337318, 39.6629698], [-78.3630772, 39.66053], [-78.3400592, 39.6528027], [-78.3461997, 39.6488565], [-78.3340469, 39.6384711], [-78.357461, 39.6401358], [-78.3573793, 39.6256315], [-78.3812743, 39.6288584], [-78.3733083, 39.6091608], [-78.4218999, 39.6243361], [-78.4326065, 39.6214343], [-78.3947192, 39.585128], [-78.407791, 39.578651], [-78.4437326, 39.5915224], [-78.4570269, 39.5872699], [-78.4539556, 39.574141], [-78.4168019, 39.548423], [-78.437072, 39.5535344], [-78.4379627, 39.5386392], [-78.4609777, 39.5508853], [-78.4482656, 39.5409256], [-78.4619129, 39.5368561], [-78.4678816, 39.5170722], [-78.5228974, 39.5250269], [-78.5657776, 39.5195089], [-78.5879669, 39.5281184], [-78.5919073, 39.537078], [-78.6641763, 39.5370698], [-78.6575, 39.5352474]], [[-78.7653264, 39.6443753], [-78.7663049, 39.6484289], [-78.76652447430516, 39.64825639939546], [-78.7653264, 39.6443753]]]}}]}