{"type": "FeatureCollection", "features": [{"type": "Feature", "properties": {"slug": "cusco", "members": 1, "country": "Peru", "input_hash": "598fa5a588c98429"}, "geometry": {"type": "Polygon", "coordinates": [[[-72.0189735, -13.4753702], [-72.0438555, -13.4828027], [-72.0614609, -13.5279439], [-72.0782382, -13.528377], [-72.1030896, -13.553345], [-72.1468035, -13.5368099], [-72.1601889, -13.5457317], [-72.1645776, -13.6062849], [-72.1354195, -13.6246235], [-72.132207, -13.6393047], [-72.1146809, -13.6283965], [-72.100457, -13.6456739], [-72.0715, -13.6474726], [-72.0454844, -13.638377], [-72.0220976, -13.6134386], [-71.9657715, -13.6092481], [-71.9504686, -13.6181964], [-71.9421131, -13.6119669], [-71.9284031, -13.6154369], [-71.9156405, -13.5936265], [-71.8636328, -13.6145393], [-71.8432313, -13.6307334], [-71.81989, -13.6076964], [-71.8355901, -13.5908324], [-71.8159475, -13.5761902], [-71.8209395, -13.5205762], [-71.804626, -13.5082581], [-71.8464977, -13.4865661], [-71.8552231, -13.4959267], [-71.8851789, -13.4970724], [-71.9316732, -13.4675991], [-71.924457, -13.4593342], [-71.9292332, -13.4360679], [-71.9553995, -13.4407177], [-71.9802169, -13.4294961], [-72.0005305, -13.4434374], [-72.0189735, -13.4753702]]]}}]}