{"type":"FeatureCollection","features":[{"type":"Feature","properties":{"slug":"daejeon","member_count":21,"matched_count":20,"unmatched":["Sejong-si\u00a0[Yeongi-gun] (KR-50, type='City')"],"source":"Overture Maps division_area (CC-BY 4.0)"},"geometry":{"type":"MultiPolygon","coordinates":[[[[126.0592004,36.2096358],[126.0614836,36.2006985],[126.0476954,36.2063977],[126.0592004,36.2096358]]],[[[126.0344228,36.2108809],[126.0229567,36.2223215],[126.025449,36.2264333],[126.0359312,36.2194685],[126.0344228,36.2108809]]],[[[126.0674366,36.2232721],[126.0769893,36.2373214],[126.0947388,36.2301743],[126.077283,36.220458],[126.0674366,36.2232721]]],[[[125.9659472,36.2270911],[125.9576163,36.229893],[125.9704989,36.2367557],[125.9659472,36.2270911]]],[[[126.0481619,36.2414744],[126.057785,36.2424718],[126.0507569,36.238879],[126.0481619,36.2414744]]],[[[126.2023917,36.2857484],[126.2011454,36.2831506],[126.1955672,36.2863705],[126.2023917,36.2857484]]],[[[126.1630279,36.5126004],[126.1585687,36.5087178],[126.1605822,36.5148537],[126.1630279,36.5126004]]],[[[126.1960274,36.5694783],[126.1901464,36.5711976],[126.1959306,36.5708174],[126.1960274,36.5694783]]],[[[126.1952198,36.582114],[126.2011769,36.582142],[126.1991599,36.5783215],[126.1952198,36.582114]]],[[[126.2031484,36.5908053],[126.2007679,36.5908699],[126.197387,36.5960211],[126.2031484,36.5908053]]],[[[125.5409366,36.6140151],[125.5438905,36.6139199],[125.5445802,36.6094024],[125.5409366,36.6140151]]],[[[125.5806236,36.6132089],[125.5718362,36.6169056],[125.571996,36.6215254],[125.5754761,36.6209355],[125.5806236,36.6132089]]],[[[125.5585599,36.6274753],[125.5613977,36.626132],[125.5571549,36.6256833],[125.5585599,36.6274753]]],[[[125.7184571,36.631509],[125.7180696,36.6302117],[125.7105919,36.6323272],[125.7184571,36.631509]]],[[[125.6993141,36.6379778],[125.6901153,36.6399247],[125.688073,36.6425503],[125.6915492,36.6456923],[125.6993141,36.6379778]]],[[[125.8563579,36.6657244],[125.8597559,36.6669129],[125.8574492,36.6621839],[125.8563579,36.6657244]]],[[[125.7481116,36.663406],[125.7433161,36.6650377],[125.7451183,36.6662201],[125.7481116,36.663406]]],[[[126.1523956,36.6758108],[126.1312196,36.6687223],[126.1273136,36.6760399],[126.1484045,36.6848066],[126.1523956,36.6758108]]],[[[126.0869712,36.6901064],[126.0815316,36.6722397],[126.0488409,36.6724032],[126.0869712,36.6901064]]],[[[126.1306804,36.68742],[126.1350176,36.6880244],[126.123881,36.6787084],[126.1306804,36.68742]]],[[[126.117407,36.7082861],[126.1147859,36.7041826],[126.1147128,36.7083552],[126.117407,36.7082861]]],[[[125.9441489,36.7204268],[125.941456,36.7242923],[125.9493079,36.7229209],[125.9441489,36.7204268]]],[[[126.1583147,36.7538789],[126.1605281,36.7486516],[126.1567394,36.7526189],[126.1583147,36.7538789]]],[[[126.1712167,36.9285029],[126.167652,36.9251923],[126.1678183,36.9297615],[126.1712167,36.9285029]]],[[[126.2775301,36.2514999],[126.2860884,36.2496441],[126.281352,36.2483219],[126.2775301,36.2514999]]],[[[126.2908233,36.2562546],[126.2882817,36.2602343],[126.2914923,36.2613196],[126.2908233,36.2562546]]],[[[126.2719331,36.2804779],[126.2694425,36.2695314],[126.2660843,36.2652803],[126.2608716,36.2758972],[126.2719331,36.2804779]]],[[[126.2697074,36.302738],[126.258375,36.287106],[126.2511626,36.294422],[126.2581122,36.2943658],[126.2593031,36.3040242],[126.2697074,36.302738]]],[[[126.3574631,36.3101913],[126.3557612,36.3092124],[126.3505029,36.3121641],[126.3574631,36.3101913]]],[[[126.24991,36.310768],[126.2527585,36.3117665],[126.2496927,36.3098948],[126.24991,36.310768]]],[[[126.3630483,36.3541086],[126.3602507,36.3429916],[126.3706778,36.3347295],[126.3427171,36.3259047],[126.3525394,36.3551066],[126.3630483,36.3541086]]],[[[126.4592028,36.3622823],[126.4585456,36.3544046],[126.3838327,36.3677964],[126.3853133,36.3802207],[126.399421,36.3822455],[126.397519,36.3773815],[126.4147036,36.3709799],[126.4128931,36.3810899],[126.4351293,36.3844272],[126.4312475,36.3774749],[126.4389306,36.3723664],[126.4316243,36.3680124],[126.4592028,36.3622823]]],[[[126.3603875,36.3750875],[126.3615918,36.3914663],[126.3652182,36.3940269],[126.3680908,36.3784046],[126.3603875,36.3750875]]],[[[126.3366204,36.3845503],[126.3329029,36.3991653],[126.34298,36.4003009],[126.3343164,36.4063002],[126.3547683,36.4031938],[126.3366204,36.3845503]]],[[[126.4174821,36.3958765],[126.4126715,36.3966029],[126.409642,36.4007143],[126.4174821,36.3958765]]],[[[126.4308051,36.3968178],[126.4368702,36.4010597],[126.4381017,36.3997371],[126.4308051,36.3968178]]],[[[126.3100572,36.4504809],[126.3044259,36.4504346],[126.3089374,36.4549145],[126.3100572,36.4504809]]],[[[126.2316589,36.4554063],[126.242613,36.4531227],[126.2357251,36.4531033],[126.2316589,36.4554063]]],[[[126.3639546,36.4415064],[126.3336748,36.4426644],[126.3423945,36.4748133],[126.3396766,36.4796476],[126.3251703,36.4685596],[126.3387146,36.5049698],[126.3286053,36.5036734],[126.3256666,36.5204854],[126.3279164,36.5555607],[126.3391783,36.5549663],[126.3270506,36.5561729],[126.3129372,36.5710909],[126.3129668,36.5843336],[126.3236688,36.5837304],[126.3227246,36.5987833],[126.340413,36.6083958],[126.3481388,36.6045905],[126.34837,36.6113797],[126.3661244,36.6097903],[126.3758359,36.5794553],[126.35883,36.5721514],[126.3751146,36.5645721],[126.3762666,36.5333212],[126.3867058,36.5262431],[126.3782755,36.5191797],[126.3943411,36.5149147],[126.3911551,36.509506],[126.4025363,36.50356],[126.3991126,36.4882636],[126.409898,36.493017],[126.4090747,36.4744966],[126.4175214,36.4643083],[126.4066292,36.4532826],[126.4321514,36.4372359],[126.4350838,36.4203032],[126.4224218,36.4101087],[126.4268807,36.399016],[126.3901545,36.4218525],[126.3798141,36.4204549],[126.3770901,36.4127888],[126.3839062,36.4092821],[126.3622452,36.4153603],[126.3511299,36.4256099],[126.3639546,36.4415064]]],[[[126.241976,36.587858],[126.2328297,36.6051069],[126.2436202,36.609172],[126.2463292,36.6008952],[126.241976,36.587858]]],[[[126.383191,36.6077075],[126.3819013,36.5921324],[126.3778911,36.6043021],[126.383191,36.6077075]]],[[[126.3171562,36.5910064],[126.3036695,36.5939656],[126.2928522,36.5779333],[126.2834299,36.59386],[126.2895946,36.6009998],[126.2834113,36.622161],[126.2904279,36.622939],[126.2887864,36.6151502],[126.3007183,36.6256207],[126.2968613,36.6562993],[126.2847649,36.6722015],[126.2654967,36.6720307],[126.26142,36.691635],[126.273174,36.7035104],[126.2764804,36.7326134],[126.251318,36.7142915],[126.2350175,36.7181178],[126.2383919,36.7012764],[126.2310382,36.7007071],[126.2308471,36.6928267],[126.2068099,36.6923543],[126.19669,36.6851753],[126.2016513,36.6831173],[126.1962699,36.6742901],[126.1555113,36.6770891],[126.1465041,36.7027595],[126.1603971,36.7059796],[126.1660711,36.7165507],[126.2073354,36.7052006],[126.2231035,36.7222818],[126.2150764,36.727151],[126.2020805,36.7211917],[126.2115543,36.7409045],[126.1965209,36.7382265],[126.18285,36.7459014],[126.1850143,36.7533343],[126.1663659,36.7585325],[126.1408218,36.7540886],[126.1512171,36.7488369],[126.1509701,36.7310001],[126.1202304,36.7079011],[126.127135,36.7182265],[126.1216631,36.7262089],[126.1344365,36.7410586],[126.1283174,36.7475222],[126.1341298,36.7484905],[126.1210098,36.7540073],[126.1219909,36.764428],[126.111619,36.7728976],[126.1353772,36.7755592],[126.1268903,36.7781012],[126.1307592,36.7854664],[126.1455899,36.7911776],[126.1495364,36.8027218],[126.1437097,36.808644],[126.1530509,36.8104005],[126.1493007,36.816784],[126.1602104,36.82662],[126.1464611,36.8364798],[126.1544359,36.8385894],[126.15006,36.8461701],[126.16079,36.8495413],[126.1617601,36.8410501],[126.1712085,36.8407446],[126.166354,36.8305086],[126.1745964,36.8251712],[126.1720949,36.8116263],[126.1861052,36.8143993],[126.1814551,36.8197938],[126.1886743,36.8249784],[126.1767608,36.8324058],[126.1968525,36.8587122],[126.1840223,36.866554],[126.1910966,36.8767878],[126.176966,36.884171],[126.1800707,36.8885862],[126.1943211,36.8860491],[126.203117,36.9046895],[126.2118784,36.8988885],[126.2476589,36.9138197],[126.2766123,36.8975914],[126.292423,36.9011324],[126.2840013,36.9089642],[126.293863,36.9296333],[126.2840061,36.9633588],[126.3049065,36.9790236],[126.3078544,36.9673214],[126.2921074,36.9628454],[126.312679,36.9559663],[126.3018134,36.9441169],[126.3096699,36.9295691],[126.3001763,36.9193157],[126.3196041,36.9046766],[126.3193335,36.8919685],[126.3325281,36.8874556],[126.3129457,36.8836844],[126.3052421,36.8594406],[126.2957279,36.8526225],[126.2945007,36.8421487],[126.3172447,36.8374001],[126.2827411,36.8250696],[126.2871037,36.799502],[126.3047083,36.8145382],[126.3375275,36.8162842],[126.3234082,36.8275699],[126.3281808,36.8371707],[126.315621,36.8416842],[126.3309909,36.8628136],[126.3505755,36.8623706],[126.3421158,36.8479384],[126.3661902,36.8283677],[126.3560762,36.8485564],[126.370485,36.8575452],[126.3643823,36.8766164],[126.3830075,36.8841993],[126.3986363,36.8809838],[126.3815643,36.8927122],[126.3949887,36.887416],[126.405276,36.8910748],[126.4075525,36.9012021],[126.4134204,36.8935885],[126.4323598,36.9030388],[126.4092,36.90848],[126.4047694,36.918956],[126.4212368,36.9272395],[126.4195083,36.9383565],[126.4162334,36.9313306],[126.3979014,36.9359874],[126.3904644,36.9291971],[126.3808982,36.9457941],[126.368064,36.946983],[126.3596338,36.9388519],[126.3619556,36.9497155],[126.3504811,36.9525921],[126.3500758,36.9615581],[126.3329291,36.9607585],[126.3351479,36.9729547],[126.3627757,36.968778],[126.3705075,36.9601927],[126.3886022,36.9698035],[126.3760983,36.973895],[126.3802049,36.9814253],[126.3313729,36.9849162],[126.3277438,36.9997603],[126.3590246,37.0121669],[126.3610607,37.0064066],[126.3978908,37.0117682],[126.4058965,37.0189161],[126.4520661,37.0070278],[126.4544195,36.9989326],[126.46276669779601,37.003068688120884],[126.4251252,37.0170242],[126.3543386,37.0707339],[126.4213796,37.0834919],[126.4657369,37.0627077],[126.5065236,37.0960486],[126.5270543,37.090462],[126.5438085,37.0452817],[126.556861,37.0426518],[126.5878396,37.0501318],[126.6147647,37.0694606],[126.8243172,36.9724032],[126.8408432,36.9528441],[126.8249085,36.9455941],[126.8343314,36.9123145],[126.8502388,36.8979975],[126.9031779,36.9018578],[126.9957486,36.9354606],[127.031157,36.9282566],[127.0859373,36.947763],[127.0943552,36.9417316],[127.1030713,36.9532127],[127.0967928,36.9592809],[127.1123667,36.9731559],[127.1777721,36.9626975],[127.203578,36.9505458],[127.2104505,36.9305389],[127.2742888,36.913442],[127.2845458,36.8953242],[127.3112124,36.8803436],[127.3072966,36.8597029],[127.3364947,36.8546868],[127.3339879,36.8312119],[127.3517349,36.8306611],[127.3916081,36.8065875],[127.4011673,36.798764],[127.3954969,36.7824775],[127.4204171,36.7608377],[127.4029523,36.744667],[127.3870737,36.7586412],[127.3693925,36.7616668],[127.3361761,36.7527823],[127.3325712,36.7472805],[127.3426992,36.732974],[127.3259922,36.7335966],[127.3101711,36.7226498],[127.3080751,36.704766],[127.2852632,36.690606],[127.2480491,36.6950481],[127.2031224,36.7261491],[127.1646945,36.7338219],[127.127766,36.7088316],[127.1417489,36.6899838],[127.1571139,36.6956573],[127.1614449,36.6902186],[127.1641236,36.6784976],[127.1543609,36.6644172],[127.1605687,36.656119],[127.1531444,36.6452135],[127.1604973,36.6244509],[127.1500533,36.619008],[127.1558837,36.606011],[127.1913509,36.5939375],[127.192956,36.5808172],[127.2077583,36.5779701],[127.1861144,36.5523209],[127.1918268,36.5460253],[127.1742405,36.5421895],[127.1823488,36.5214381],[127.1699897,36.5090379],[127.1785648,36.5025815],[127.1734661,36.4992062],[127.1768348,36.4924803],[127.195075,36.4889493],[127.1920174,36.4746665],[127.2047335,36.4592903],[127.1989336,36.4398843],[127.2445217,36.4183435],[127.2507957,36.4067584],[127.262819,36.4167347],[127.2868105,36.4153146],[127.2964651,36.4232648],[127.316447,36.4204604],[127.3388354,36.4291594],[127.3586215,36.4558957],[127.3601148,36.4900308],[127.3691542,36.4885834],[127.3803365,36.4995393],[127.4037102,36.4847994],[127.4039806,36.4549817],[127.4334205,36.457536],[127.4546207,36.4499419],[127.4686969,36.4718936],[127.4838331,36.4775186],[127.4789107,36.4570528],[127.5035313,36.4547746],[127.4897984,36.4343373],[127.5019863,36.4086449],[127.5091017,36.4072772],[127.5143459,36.4219066],[127.5243452,36.4235641],[127.5425563,36.4185551],[127.5596183,36.3984149],[127.5250469,36.3875028],[127.5231157,36.3564035],[127.5008426,36.3391208],[127.5036171,36.3264691],[127.4944912,36.3116679],[127.4994919,36.3048723],[127.4911287,36.2968154],[127.4988964,36.2822871],[127.4886557,36.2730481],[127.4885055,36.2475101],[127.4927542,36.238061],[127.5024959,36.2377841],[127.5359928,36.2514725],[127.5498094,36.238528],[127.5452411,36.2253096],[127.5797214,36.2331627],[127.59869,36.2166489],[127.5934114,36.1774798],[127.6021232,36.1606079],[127.5900211,36.1333002],[127.6198065,36.1089648],[127.6182594,36.0933959],[127.6382952,36.0679399],[127.6205507,36.0642053],[127.6190994,36.0391731],[127.6305345,36.0421524],[127.639748,36.0322524],[127.6107348,36.0253485],[127.6186627,36.007982],[127.6127416,36.0004455],[127.5897702,36.0260463],[127.5745327,36.0233024],[127.5314208,36.0408428],[127.5398724,36.0119362],[127.532104,36.0079675],[127.5336401,35.9920075],[127.508889,35.9797812],[127.4993361,35.9873797],[127.4877274,35.9782641],[127.4683695,35.9880874],[127.4567458,35.9832762],[127.4372432,36.0093325],[127.4345569,36.0294951],[127.4012228,36.0087359],[127.3776354,36.0227698],[127.3735285,36.0435221],[127.3606539,36.0553887],[127.3602248,36.0888343],[127.3479167,36.098343],[127.3536115,36.1133597],[127.3376127,36.1307392],[127.3235407,36.1301014],[127.3148161,36.1185981],[127.3027096,36.1249765],[127.2938648,36.1122226],[127.2744692,36.1064325],[127.2522412,36.1102776],[127.2458962,36.1018816],[127.2568825,36.0876032],[127.2508207,36.0825067],[127.2260671,36.0990781],[127.2050751,36.1003473],[127.1994897,36.08615],[127.1823235,36.0946465],[127.1692815,36.083998],[127.1456609,36.0904088],[127.1338292,36.0818494],[127.1324216,36.0668649],[127.1220476,36.0630333],[127.0608962,36.0890407],[127.0569653,36.1150871],[127.0630085,36.1252233],[127.044757,36.1344585],[127.0436368,36.1462889],[127.0396869,36.1382723],[127.0240601,36.1365035],[127.0154369,36.1487631],[126.9808051,36.1479587],[126.9566265,36.1565704],[126.9196915,36.1362994],[126.8896966,36.1396223],[126.8738116,36.1104383],[126.8680366,36.0624117],[126.8210974,36.049919],[126.8058215,36.0343615],[126.7480472,36.0257511],[126.7435392,36.0056413],[126.7318662,35.9938367],[126.6989072,36.0002253],[126.612244,35.9844404],[126.5811475,35.9864753],[126.5665563,36.0000864],[126.5670713,36.0349368],[126.5799459,36.0607522],[126.3763555,36.1475742],[126.4421994,36.1784876],[126.5377378,36.1880095],[126.5252407103733,36.18697539487333],[126.5385458,36.1995301],[126.5266431,36.2199289],[126.5294628,36.2389528],[126.5407902,36.2498897],[126.5338373,36.2502564],[126.548196,36.2652704],[126.5004883,36.3248781],[126.5627169,36.3527737],[126.5009736,36.3799932],[126.5082804,36.3873788],[126.4795431,36.3849973],[126.491766,36.4213934],[126.5003253,36.4218105],[126.4952035,36.42564],[126.5317023,36.4410053],[126.5254853,36.4468829],[126.4981755,36.4324767],[126.5003868,36.4446289],[126.486008,36.4534809],[126.490158,36.4681835],[126.4794289,36.4912135],[126.4877059,36.5155471],[126.4381312,36.5074286],[126.4160298,36.5181212],[126.4144688,36.5767832],[126.43849743245377,36.598310379023395],[126.4110055,36.6034288],[126.4148361,36.6147228],[126.3661014,36.627049],[126.3353853,36.6184192],[126.3171562,36.5910064]]],[[[126.3074353,36.8648131],[126.3141194,36.8654762],[126.3088435,36.8621822],[126.3074353,36.8648131]]],[[[126.3464749,36.9043177],[126.3258809,36.914449],[126.3401542,36.9124058],[126.3464749,36.9043177]]],[[[126.375035,36.9289274],[126.3907742,36.9230277],[126.3728946,36.9173934],[126.375035,36.9289274]]],[[[126.3576034,36.9326881],[126.3563025,36.9303254],[126.3538375,36.9321414],[126.3576034,36.9326881]]],[[[126.3127421,36.94376],[126.313194,36.9391617],[126.3096562,36.941671],[126.3127421,36.94376]]],[[[126.3884193,37.0263919],[126.3881162,37.0237109],[126.3870835,37.0265964],[126.3884193,37.0263919]]],[[[126.5243655,36.2460027],[126.5187365,36.2409763],[126.5190721,36.2450705],[126.5243655,36.2460027]]],[[[126.4392149,36.3873552],[126.4554225,36.3795061],[126.440021,36.3787654],[126.4392149,36.3873552]]],[[[126.4541334,36.4061561],[126.4585922,36.4050333],[126.4540281,36.4049467],[126.4541334,36.4061561]]],[[[126.440589,36.4058702],[126.4360863,36.4048197],[126.4367703,36.4082915],[126.440589,36.4058702]]],[[[126.4554609,36.4117716],[126.4592117,36.4085846],[126.4547457,36.4099408],[126.4554609,36.4117716]]]]}}]}