{"type": "FeatureCollection", "features": [{"type": "Feature", "properties": {"slug": "damanhur", "members": 4, "country": "Egypt", "input_hash": "a4d4cc40d0050283"}, "geometry": {"type": "Polygon", "coordinates": [[[30.313141941000026, 31.008727428000043], [30.35434631800007, 31.007107749000056], [30.34982215100007, 31.020387415000073], [30.375002058000064, 31.032236603000058], [30.37791286600003, 31.046701085000052], [30.39625386000006, 31.049922689000027], [30.393457486000045, 31.060943568000027], [30.407313490000035, 31.06534460000006], [30.389614704000053, 31.093326669000078], [30.391290953000066, 31.10606580500007], [30.40102319400006, 31.105784552000046], [30.385386491000077, 31.12386404800003], [30.39374442500008, 31.119738313000028], [30.397109882000052, 31.126338227000076], [30.421843527000078, 31.112477854000076], [30.48811246500003, 31.140143330000058], [30.49689757300007, 31.13371249100004], [30.516602128000045, 31.15157090300005], [30.521473442000058, 31.141056039000034], [30.496446872000035, 31.12520324600007], [30.513197243000036, 31.103045348000023], [30.505511236000075, 31.092630702000065], [30.528925268000023, 31.067464991000065], [30.520060844000056, 31.054406269000026], [30.54046671100008, 31.054030503000035], [30.555010305000053, 31.086093495000057], [30.571087461000047, 31.08411564200003], [30.567873253000073, 31.09711505300004], [30.58016605200004, 31.100848298000074], [30.589505803000065, 31.089819015000046], [30.572805583000047, 31.078483858000027], [30.56568113900005, 31.04788654200007], [30.57358742400004, 31.024871387000076], [30.592392714000027, 31.01793370200005], [30.603489310000043, 30.996890203000078], [30.587760168000045, 30.998324445000037], [30.57505073300007, 30.972649064000052], [30.554540282000062, 30.976251111000067], [30.56426761800003, 30.96016609000003], [30.518196423000063, 30.954242736000026], [30.51087921000004, 30.959592448000024], [30.495696391000024, 30.95293133900003], [30.496152675000076, 30.933210493000047], [30.477818180000043, 30.93334096800004], [30.46687502700007, 30.951039037000044], [30.42327472100004, 30.949536326000043], [30.419631958000025, 30.93192834200005], [30.425623526000038, 30.921037820000038], [30.401714345000073, 30.910557290000042], [30.388770890000046, 30.92518452300004], [30.331223478000027, 30.917023888000074], [30.32815703400007, 30.98420632400007], [30.29968434400007, 30.99483747100004], [30.313141941000026, 31.008727428000043]], [[30.468752677000055, 31.022349688000077], [30.48606625800005, 31.035799844000053], [30.467613355700742, 31.022467398468184], [30.468752677000055, 31.022349688000077]]]}}]}