{"type": "FeatureCollection", "features": [{"type": "Feature", "properties": {"slug": "damascus", "members": 3, "country": "Syria", "input_hash": "7762a6f0dbd83b2b"}, "geometry": {"type": "Polygon", "coordinates": [[[36.3533984, 33.5466279], [36.4266596, 33.5456907], [36.4506762, 33.5113868], [36.4290899, 33.4994528], [36.4276092, 33.4877318], [36.457135, 33.4570351], [36.4606755, 33.4087396], [36.4255493, 33.4228353], [36.4192622, 33.4141668], [36.4215153, 33.3921694], [36.4500708, 33.3225285], [36.4736099, 33.309116], [36.4805522, 33.2780531], [36.4133291, 33.2405545], [36.3938835, 33.2247167], [36.3874974, 33.2022171], [36.37194, 33.197219], [36.3413859, 33.2038877], [36.3111031, 33.2333296], [36.2799997, 33.23944], [36.2736044, 33.2591636], [36.2302712, 33.2908322], [36.2205507, 33.2741626], [36.226105, 33.2513895], [36.2122182, 33.2241584], [36.1405485, 33.2022171], [36.1126573, 33.2051605], [36.1281483, 33.2884488], [36.1440012, 33.3005494], [36.1189215, 33.3183982], [36.150593, 33.3748257], [36.1596696, 33.4099758], [36.1834876, 33.4217789], [36.181747, 33.43536], [36.199233, 33.4436172], [36.1731348, 33.4478754], [36.1553249, 33.4638622], [36.1274514, 33.4669768], [36.143137, 33.511626], [36.1971499, 33.5250971], [36.2232217, 33.5450828], [36.231536, 33.5419213], [36.2803809, 33.5636406], [36.3151718, 33.5651202], [36.3214422, 33.5718338], [36.3361677, 33.5588779], [36.3559257, 33.5566826], [36.3533984, 33.5466279]], [[36.32396550113074, 33.48959534710914], [36.3236697, 33.4896479], [36.3251283, 33.4858263], [36.32396550113074, 33.48959534710914]], [[36.3217726, 33.4779678], [36.3156656, 33.4782975], [36.32177069574615, 33.4779469586245], [36.3217726, 33.4779678]], [[36.3153688, 33.470409], [36.3136626, 33.4618962], [36.3138105, 33.4593645], [36.3153688, 33.470409]], [[36.31856570954158, 33.45253464865838], [36.3185097, 33.453224], [36.3138105, 33.4593645], [36.31856570954158, 33.45253464865838]], [[36.3071107, 33.4651721], [36.30680914594919, 33.46513344382371], [36.3106453, 33.4613789], [36.3071107, 33.4651721]], [[36.2984493, 33.4680707], [36.29767091897294, 33.467116216106525], [36.3032011, 33.4674421], [36.2984493, 33.4680707]]]}}]}