{"type": "FeatureCollection", "features": [{"type": "Feature", "properties": {"slug": "dambulla", "members": 1, "country": "Sri Lanka", "input_hash": "32d81d71172b1df5"}, "geometry": {"type": "Polygon", "coordinates": [[[80.971733, 7.566592], [80.981673, 7.643244], [80.994682, 7.661451], [80.98913, 7.721694], [80.927863, 7.708277], [80.88359, 7.715106], [80.876938, 7.679674], [80.870276, 7.689502], [80.855507, 7.690929], [80.853066, 7.701083], [80.836877, 7.681283], [80.809282, 7.671719], [80.804792, 7.679631], [80.778818, 7.677941], [80.761045, 7.695622], [80.769838, 7.690494], [80.774488, 7.701926], [80.763824, 7.733999], [80.761179, 7.792177], [80.768797, 7.802283], [80.795608, 7.804863], [80.793462, 7.817261], [80.802362, 7.821954], [80.811042, 7.851952], [80.819635, 7.924474], [80.834039, 7.954236], [80.853335, 7.962711], [80.840042, 7.972196], [80.82559, 7.971321], [80.814802, 7.983504], [80.799074, 7.976573], [80.798537, 7.960625], [80.787867, 7.962465], [80.778421, 7.968242], [80.779488, 7.994817], [80.75611, 8.012348], [80.705878, 7.991824], [80.682306, 7.956687], [80.658708, 7.960094], [80.654089, 7.915242], [80.632444, 7.900152], [80.638983, 7.888522], [80.622879, 7.88261], [80.622767, 7.868571], [80.599818, 7.855761], [80.590215, 7.867187], [80.575951, 7.868357], [80.565217, 7.848916], [80.524415, 7.827319], [80.499932, 7.826058], [80.499135, 7.7826068], [80.5035517, 7.7743954], [80.518212, 7.7742876], [80.5372616, 7.7389458], [80.5366056, 7.7088859], [80.5495459, 7.7052545], [80.5534737, 7.6736572], [80.5518571, 7.6620419], [80.5453146, 7.6612424], [80.5491405, 7.6421609], [80.5657917, 7.6311272], [80.5779194, 7.6050452], [80.5690212, 7.5939848], [80.575061, 7.574903], [80.5625512, 7.5728265], [80.5527295, 7.551142], [80.5527584, 7.5385713], [80.5656634, 7.5241726], [80.5630983, 7.5139162], [80.568944, 7.5167096], [80.57382, 7.5086541], [80.576422, 7.4787239], [80.5648272, 7.4693988], [80.5663163, 7.4575032], [80.586165, 7.429488], [80.654014, 7.38461], [80.698389, 7.38697], [80.706017, 7.39522], [80.712143, 7.426093], [80.701151, 7.457319], [80.727754, 7.474571], [80.753326, 7.448612], [80.790271, 7.427766], [80.820365, 7.45991], [80.850121, 7.472473], [80.862696, 7.474764], [80.8793242, 7.4640327], [80.8990679, 7.4747161], [80.9066802, 7.4580591], [80.909522, 7.464931], [80.9181638, 7.4621822], [80.9324104, 7.4896114], [80.9742061, 7.4883552], [80.971733, 7.566592]]]}}]}