{"type": "FeatureCollection", "features": [{"type": "Feature", "properties": {"slug": "damietta", "members": 9, "country": "Egypt", "input_hash": "b72eee3a8755a5fc"}, "geometry": {"type": "Polygon", "coordinates": [[[31.957262241435437, 31.488959209637326], [31.7947323, 31.1948901], [31.7586836, 31.1621903], [31.7017485, 31.1509915], [31.6179632, 31.1053105], [31.6101454, 31.1250178], [31.6127513, 31.17817], [31.6388106, 31.1911748], [31.6474971, 31.2249787], [31.4908698, 31.2927113], [31.5800244, 31.3743437], [31.614745721143073, 31.449750880207752], [31.7537276, 31.4834368], [31.7502631, 31.4636709], [31.7702262, 31.4511683], [31.7642238, 31.4604361], [31.7729304, 31.4627581], [31.7592906, 31.4714421], [31.7591194, 31.4796722], [31.843683, 31.5276178], [31.9453668, 31.5115598], [31.96447360583892, 31.50198559505044], [31.96052875414605, 31.494859960857287], [31.9502163, 31.5043245], [31.957262241435437, 31.488959209637326]]]}}]}