{"type":"FeatureCollection","features":[{"type":"Feature","properties":{"slug":"daqing","member_count":9,"matched_count":7,"unmatched":["S\u00e0'\u0115rt\u00fa Q\u016b [Sartu] (CN-HL, type='District')","D\u00f9'\u0115rb\u00f3t\u00e8 M\u0115ngg\u016dz\u00fa Z\u00eczh\u00ecxi\u00e0n [Dorbod] (CN-HL, type='Autonomous County')"],"source":"Overture Maps division_area (CC-BY 4.0)"},"geometry":{"type":"MultiPolygon","coordinates":[[[[125.0297079,45.5171152],[125.0231849,45.5369579],[125.0294509,45.5877526],[125.0727929,45.5433311],[125.1389459,45.5311457],[125.1631349,45.5184993],[125.2007389,45.5154502],[125.2163609,45.5024568],[125.1950749,45.4661105],[125.1981389,45.3995769],[125.1692622,45.3975203],[125.1416084,45.4104043],[125.0985287,45.3832866],[125.0623189,45.382236],[125.0589944,45.3948651],[125.0821701,45.4059593],[125.0831129,45.4190016],[125.0461394,45.4227074],[125.0253375,45.465776],[125.0230821,45.4885616],[124.9804979,45.4904552],[124.9811849,45.5023376],[124.9966349,45.512202],[125.0297079,45.5171152]]],[[[125.0990189,45.6791419],[125.1167219,45.6999166],[125.1108169,45.74101],[125.1393129,45.7317247],[125.1690959,45.7449632],[125.1829999,45.7230375],[125.2365579,45.7172243],[125.2594739,45.7319648],[125.2970079,45.7230975],[125.3388039,45.7338039],[125.3579819,45.7044349],[125.2979819,45.6953066],[125.3003849,45.6852332],[125.3187529,45.6744398],[125.3210063,45.6186369],[125.2640073,45.6265259],[125.2354583,45.6136629],[125.1847228,45.6283339],[125.1116563,45.6330254],[125.0785598,45.6525959],[125.0918089,45.6584181],[125.0990189,45.6791419]]],[[[124.9156298,46.0867103],[124.8992459,46.0848322],[124.9000887,46.0745239],[124.8702527,46.0671273],[124.900754,46.0492163],[124.9017587,46.0010751],[124.8963906,45.9973549],[124.8723687,45.989114],[124.8445068,46.0205599],[124.8280797,46.024228],[124.7852755,46.0140965],[124.7823494,46.0339766],[124.8011007,46.0243962],[124.8385606,46.0283977],[124.8364518,46.03504],[124.8244951,46.032664],[124.8191589,46.0515131],[124.8102981,46.0546552],[124.7981724,46.0530267],[124.8028156,46.0383124],[124.7953744,46.0360261],[124.7857433,46.0665877],[124.847666,46.0766109],[124.8146306,46.0951281],[124.8345864,46.1082618],[124.9233658,46.1239608],[124.9156298,46.0867103]]],[[[125.0305138,46.3459745],[125.0196058,46.34961],[125.004702,46.3421033],[125.0094678,46.3337074],[125.0517532,46.3356035],[125.0534621,46.2661458],[125.043756,46.2648144],[125.0454646,46.2569728],[124.9638823,46.2418174],[124.9567131,46.2368204],[124.9613669,46.215689],[124.9199181,46.2074344],[124.899823,46.2311623],[124.8837018,46.2350257],[124.8047953,46.2226614],[124.7547866,46.2032114],[124.7666199,46.1767084],[124.7067573,46.1641752],[124.7057131,46.153568],[124.649679,46.1564611],[124.6423701,46.1651394],[124.654844,46.1828225],[124.6733456,46.1846606],[124.6757818,46.1945391],[124.6914436,46.1993572],[124.7018847,46.2277755],[124.7248553,46.228257],[124.7328601,46.2441454],[124.7189386,46.2576229],[124.7513062,46.2496812],[124.735984,46.2754134],[124.7894493,46.3529466],[124.77392,46.371523],[124.7299298,46.3920548],[124.7319141,46.4073281],[124.6359704,46.4471227],[124.6299465,46.4585632],[124.6186063,46.4934884],[124.6209851,46.511944],[124.6482451,46.562486],[124.7012154,46.5717219],[124.6857192,46.6067466],[124.611583,46.6501197],[124.5904284,46.6709118],[124.6068268,46.7185289],[124.615007,46.7194387],[124.6181868,46.7822684],[124.6592942,46.82425],[124.6742397,46.8333393],[124.7049638,46.8359144],[124.6764802,46.8815034],[124.6335909,46.9148838],[124.5609723,46.9474286],[124.6412619,46.9906394],[124.7159923,47.0060738],[124.712937,47.0134562],[124.721226,47.0110836],[124.7373815,47.026298],[124.7709459,47.034649],[124.7978792,47.0088256],[124.7180625,46.9772113],[124.7952082,46.9044621],[124.7780233,46.8671099],[124.7252839,46.8615647],[124.7277004,46.8387356],[124.8759083,46.8461593],[124.8808825,46.8222268],[125.0219958,46.8408202],[125.0059634,46.7298549],[124.8777886,46.6756285],[124.9134796,46.6685418],[124.9017888,46.6597953],[124.8978597,46.6352068],[124.9151416,46.6174401],[124.9133729,46.5855966],[124.9920613,46.5719985],[124.9814966,46.5609522],[124.9974832,46.5562672],[125.0631854,46.5644328],[125.0481481,46.5594169],[125.0752701,46.5403472],[125.0625231,46.5194065],[125.0548841,46.5188454],[125.0604691,46.4979117],[125.0693951,46.4981187],[125.0670241,46.5103852],[125.0873561,46.5081781],[125.1049521,46.5189265],[125.178075,46.476599],[125.169864,46.4423288],[125.192538,46.4432628],[125.201708,46.4338525],[125.188515,46.4309094],[125.220002,46.4259472],[125.246792,46.4425019],[125.208283,46.4632746],[125.212583,46.4674328],[125.200631,46.4776431],[125.220157,46.4662237],[125.204406,46.4818882],[125.1320961,46.5138493],[125.119797,46.529793],[125.1367474,46.5266788],[125.1752481,46.5400966],[125.1885506,46.5325544],[125.155078,46.5177573],[125.1998538,46.4871826],[125.2451961,46.4922827],[125.2650151,46.4699994],[125.2584667,46.4651646],[125.2413009,46.4747033],[125.2496762,46.4660322],[125.2309647,46.4678388],[125.2421007,46.4607003],[125.2334257,46.4547006],[125.2642185,46.4341518],[125.2326055,46.4087028],[125.2176753,46.4244284],[125.1853038,46.4188899],[125.1545381,46.4266059],[125.1505312,46.44559],[125.1186358,46.4461896],[125.172455,46.4756974],[125.1646851,46.4808845],[125.085575,46.4787267],[125.0545777,46.4855418],[125.0297769,46.442998],[125.0092913,46.4457441],[125.0028927,46.4435396],[125.0083069,46.4372648],[124.9790209,46.4304804],[125.0297176,46.4040131],[125.0321786,46.3842391],[125.0201782,46.3695988],[125.0305138,46.3459745]],[[125.0008715,46.5139992],[125.0298241,46.5015448],[125.0372011,46.5149783],[125.0008715,46.5139992]]],[[[124.8922453,47.0519912],[124.8735249,47.0606305],[124.8568559,47.0492169],[124.8415851,47.0696143],[124.8459922,47.0725756],[124.7994981,47.1073355],[124.776451,47.1088493],[124.7987357,47.133563],[124.8081287,47.1303091],[124.8404138,47.1564353],[124.831203,47.1596047],[124.8294345,47.1666579],[124.8420164,47.1763565],[124.8239931,47.1890753],[124.8279659,47.1956986],[124.8586669,47.206318],[124.8804638,47.1978471],[124.890199,47.2020045],[124.9112823,47.17911],[124.9341478,47.1733234],[124.9320368,47.1839354],[124.9772661,47.2009311],[125.0287159,47.1889209],[125.047936,47.1693492],[125.0388171,47.1642435],[125.0479836,47.1605459],[125.0428827,47.1566032],[125.0014209,47.1568571],[124.9893618,47.1470937],[124.9716029,47.154217],[124.912396,47.1160802],[124.8874471,47.0936942],[124.9107885,47.0768818],[124.8983501,47.0734536],[124.8947488,47.0667688],[124.9014709,47.0623239],[124.8917818,47.0590493],[124.8922453,47.0519912]]]]}}]}