{"type":"FeatureCollection","features":[{"type":"Feature","properties":{"slug":"davenport","member_count":175,"matched_count":175,"unmatched":[],"source":"Overture Maps division_area (CC-BY 4.0)"},"geometry":{"type":"MultiPolygon","coordinates":[[[[-94.0134957,41.3262977],[-93.897518,41.3299319],[-93.8981735,41.2433494],[-94.0132967,41.2435008],[-94.0134957,41.3262977]]],[[[-90.437697,41.1514467],[-90.4394408,41.0640271],[-90.9489293,41.070348],[-90.946627,41.096632],[-90.989663,41.155716],[-91.007586,41.166183],[-91.041536,41.166138],[-91.07298,41.207151],[-91.113648,41.241401],[-91.092034,41.286911],[-91.074841,41.305578],[-91.0719698,41.3329111],[-91.370148,41.335026],[-91.366448,41.598373],[-90.8998696,41.5969149],[-90.898354,42.032505],[-90.1546364,42.0334963],[-90.140613,41.995999],[-90.164939,41.948861],[-90.1496142,41.9148671],[-90.181901,41.843216],[-90.181973,41.80707],[-90.24238,41.7829646],[-90.2474465,41.7625777],[-90.2368665,41.7625377],[-90.2481866,41.7467877],[-90.2367765,41.7408077],[-90.2340266,41.7250777],[-90.2458565,41.7032077],[-90.2268465,41.6914277],[-90.2328665,41.6764777],[-90.1895065,41.6632177],[-90.1614565,41.6437477],[-90.1741565,41.6400077],[-90.1598864,41.6305176],[-90.1653065,41.5953477],[-90.1854621,41.5845554],[-89.8621044,41.5841771],[-89.856812,41.234497],[-89.867805,41.234463],[-89.8685738,41.149533],[-90.437697,41.1514467]],[[-91.05158,41.385283],[-91.0514740626778,41.38570544830416],[-91.05147406267783,41.385705448304094],[-91.05158,41.385283]],[[-91.0518025812033,41.385015763835014],[-91.05180258120332,41.38501576383498],[-91.05158,41.385283],[-91.0518025812033,41.385015763835014]]],[[[-95.2064328,42.2973844],[-95.2058839,42.3855047],[-95.0893575,42.3857737],[-95.0902428,42.2969944],[-95.2064328,42.2973844]]],[[[-89.342033,41.113646],[-89.358398,41.103896],[-89.375089,41.103967],[-89.372105,41.118804],[-89.363923,41.121224],[-89.369578,41.126884],[-89.369581,41.13178],[-89.360567,41.118877],[-89.342033,41.113646]]],[[[-89.334465,41.132238],[-89.334971,41.125893],[-89.350174,41.125863],[-89.35012,41.13347],[-89.334465,41.132238]]]]}}]}