{"type": "FeatureCollection", "features": [{"type": "Feature", "properties": {"slug": "david-city", "members": 1, "country": "Panama", "input_hash": "ac7520e5945b040f"}, "geometry": {"type": "MultiPolygon", "coordinates": [[[[-82.4409819, 7.8613673], [-82.4406295, 7.8605916], [-82.441336, 7.8608575], [-82.4409819, 7.8613673]]], [[[-82.4437022, 7.8629886], [-82.4395931, 7.8675161], [-82.4368519, 7.8655486], [-82.4437022, 7.8629886]]], [[[-82.4443939, 7.8668057], [-82.4483951, 7.8679507], [-82.4459619, 7.8705225], [-82.4443939, 7.8668057]]], [[[-82.4350543, 7.868398], [-82.4353064, 7.8695618], [-82.4335254, 7.8691048], [-82.4350543, 7.868398]]], [[[-82.3680312, 8.1253446], [-82.3626369, 8.123817], [-82.3670435, 8.1223919], [-82.3680312, 8.1253446]]], [[[-82.360092, 8.1289817], [-82.3594783, 8.128303], [-82.3605295, 8.1286453], [-82.360092, 8.1289817]]], [[[-82.4133541, 8.5940973], [-82.3797889, 8.620351], [-82.394919, 8.6326887], [-82.3954787, 8.6480078], [-82.3738419, 8.6184987], [-82.3528737, 8.6168038], [-82.3228389, 8.5692754], [-82.3158133, 8.5213007], [-82.3013949, 8.4990387], [-82.3032714, 8.483812], [-82.2841752, 8.4578233], [-82.3001185, 8.4351281], [-82.2888596, 8.4417375], [-82.2870084, 8.4329708], [-82.2729668, 8.4386456], [-82.2543292, 8.4262936], [-82.2472313, 8.4321563], [-82.2053827, 8.4275567], [-82.2235193, 8.4122766], [-82.208725, 8.3779383], [-82.2198665, 8.3720782], [-82.2216825, 8.34088], [-82.2338961, 8.3244953], [-82.238014, 8.2959139], [-82.26473, 8.2679427], [-82.3207636, 8.234361], [-82.3635446, 8.2347938], [-82.3874712, 8.2185341], [-82.4304429, 8.2536667], [-82.4286769, 8.2723964], [-82.441264, 8.2806446], [-82.4514073, 8.2776761], [-82.4432213, 8.291572], [-82.4765432, 8.3223899], [-82.4906896, 8.3471531], [-82.4901632, 8.3618983], [-82.5059615, 8.3650116], [-82.5102909, 8.4007364], [-82.5208103, 8.3988691], [-82.5299391, 8.4215687], [-82.5357065, 8.4559839], [-82.5189748, 8.466606], [-82.5318474, 8.508849], [-82.5241388, 8.5174111], [-82.5231946, 8.5502598], [-82.5595862, 8.7702663], [-82.5342547, 8.7446097], [-82.5378607, 8.6893243], [-82.5102451, 8.608537], [-82.4921261, 8.5739553], [-82.446586, 8.5213491], [-82.4504656, 8.500381], [-82.4406598, 8.4979433], [-82.4363299, 8.484587], [-82.4100058, 8.4735881], [-82.4030168, 8.5084957], [-82.3652972, 8.4887244], [-82.3746338, 8.5325619], [-82.4133541, 8.5940973]]], [[[-82.3398503, 8.0836145], [-82.3395212, 8.0818744], [-82.3402186, 8.0818738], [-82.3398503, 8.0836145]]], [[[-82.3290753, 8.0830082], [-82.3271085, 8.0846825], [-82.3288876, 8.0822965], [-82.3290753, 8.0830082]]], [[[-82.3373768, 8.082108], [-82.3315805, 8.0898808], [-82.3334956, 8.0818292], [-82.3373768, 8.082108]]], [[[-82.3561442, 8.0963655], [-82.3672432, 8.0909217], [-82.3679942, 8.1077733], [-82.3454699, 8.1187968], [-82.3458302, 8.134261], [-82.3216054, 8.142985], [-82.3186711, 8.1359168], [-82.3291451, 8.122622], [-82.31884, 8.1054312], [-82.330637, 8.1113613], [-82.3347852, 8.1058285], [-82.3265004, 8.0932533], [-82.3409106, 8.0966951], [-82.343967, 8.0869809], [-82.3561442, 8.0963655]]], [[[-82.3060497, 8.1236113], [-82.3058796, 8.124401], [-82.3032384, 8.1235768], [-82.3060497, 8.1236113]]], [[[-82.3157471, 8.1281026], [-82.315101, 8.1248471], [-82.3194532, 8.1267653], [-82.3157471, 8.1281026]]]]}}]}