{"type": "FeatureCollection", "features": [{"type": "Feature", "properties": {"slug": "dehradun", "members": 1, "country": "India", "input_hash": "8d07ab7b0868be97"}, "geometry": {"type": "Polygon", "coordinates": [[[78.0164333, 30.9088714], [78.0177843, 30.9263618], [78.0002616, 30.9516953], [77.9687129, 30.9775998], [77.9271528, 30.9720173], [77.9043922, 30.953658], [77.8707046, 30.9441831], [77.8633319, 30.9564709], [77.8535978, 30.9538222], [77.8548281, 30.9643394], [77.8392797, 30.9808697], [77.8434164, 30.9950833], [77.8315742, 31.0122089], [77.8315687, 31.0292819], [77.8095531, 31.0375282], [77.7987384, 31.0330787], [77.8007713, 31.0143927], [77.8242568, 31.0096892], [77.8314297, 30.9939728], [77.8145098, 30.9622831], [77.8385424, 30.9547939], [77.813673, 30.9548123], [77.7711654, 30.9768548], [77.7535271, 30.9675086], [77.7483015, 30.9552923], [77.7635479, 30.9212973], [77.8107762, 30.9261937], [77.8143924, 30.9061208], [77.799297, 30.8876918], [77.8056478, 30.8567003], [77.7758216, 30.8623], [77.7750921, 30.8779551], [77.7579688, 30.8802019], [77.7565956, 30.8625946], [77.7431631, 30.8500687], [77.7616435, 30.8248613], [77.7477979, 30.819963], [77.7217483, 30.7767594], [77.7038155, 30.7653461], [77.7084446, 30.7529743], [77.7020931, 30.7457455], [77.7343225, 30.7349012], [77.7559089, 30.7068626], [77.7479266, 30.6797755], [77.7926874, 30.6585691], [77.7821302, 30.6468843], [77.7953696, 30.6135018], [77.7721309, 30.6173244], [77.7707147, 30.5970279], [77.7447778, 30.6033021], [77.7416825, 30.593851], [77.7563381, 30.5858529], [77.7729463, 30.5585101], [77.7963567, 30.5535026], [77.817192, 30.5615219], [77.8268051, 30.5301432], [77.8135525, 30.5050337], [77.7838468, 30.5015275], [77.6796913, 30.445492], [77.6493501, 30.445344], [77.6469093, 30.4334978], [77.61, 30.4331164], [77.57133, 30.4092517], [77.5753165, 30.3977064], [77.5891811, 30.4063828], [77.59871, 30.4008624], [77.6250812, 30.4047225], [77.6293086, 30.397531], [77.6477558, 30.4048597], [77.659564, 30.3894612], [77.6736782, 30.3906088], [77.6771639, 30.3762883], [77.6906776, 30.3758372], [77.7192592, 30.3308795], [77.7613661, 30.3176611], [77.8381347, 30.2738935], [77.8469752, 30.2767102], [77.8458594, 30.2708543], [77.8790759, 30.2614396], [77.8836249, 30.2678892], [77.8963634, 30.266124], [77.946287, 30.2333362], [77.9515144, 30.2452812], [77.9608436, 30.2437175], [77.9557845, 30.2305738], [77.9732825, 30.2206169], [78.0045799, 30.1759968], [78.0355421, 30.1035722], [78.0695548, 30.075432], [78.0744619, 30.0596514], [78.0690783, 30.042021], [78.0992505, 30.0278957], [78.0961332, 30.0112628], [78.1295662, 30.0010761], [78.1487711, 29.9678049], [78.1719115, 29.9637948], [78.1687337, 29.9690307], [78.1891199, 29.9972463], [78.1976953, 29.9879245], [78.1871538, 29.9621668], [78.202092, 29.9661032], [78.2172334, 29.9868664], [78.2275837, 29.9857305], [78.2275018, 30.0155833], [78.2483802, 30.0205953], [78.247525, 30.0340054], [78.2706223, 30.0459996], [78.2890671, 30.075577], [78.2910353, 30.0998886], [78.3101892, 30.1081195], [78.2801583, 30.1217868], [78.2827658, 30.1292769], [78.2547203, 30.1382074], [78.2614885, 30.1610553], [78.2416934, 30.1657047], [78.233732, 30.1843108], [78.2697316, 30.2206606], [78.2936775, 30.2304265], [78.2988515, 30.2455323], [78.2768812, 30.2717628], [78.283919, 30.2923303], [78.2783071, 30.2963135], [78.2681136, 30.3020742], [78.2582104, 30.285486], [78.2367486, 30.2875308], [78.2369911, 30.2991563], [78.2142756, 30.3094283], [78.2091165, 30.2932264], [78.2000924, 30.2938345], [78.1425361, 30.3255217], [78.1334541, 30.3438009], [78.1417739, 30.3650724], [78.1620234, 30.3824552], [78.1749147, 30.3822466], [78.234635, 30.4131215], [78.2394214, 30.4231454], [78.2260878, 30.4335496], [78.1913764, 30.4484737], [78.1641195, 30.4459432], [78.1532612, 30.4562292], [78.1068388, 30.4712435], [78.1056558, 30.4782122], [78.081626, 30.4738343], [78.0819426, 30.4673675], [78.0699917, 30.4700471], [78.0688447, 30.4773325], [78.0395507, 30.4822516], [78.0366836, 30.4653659], [78.0086042, 30.4835515], [77.997833, 30.4800658], [78.0000793, 30.468443], [77.9874857, 30.4668498], [77.973298, 30.4861275], [77.9379891, 30.5048211], [77.9361494, 30.5113527], [77.949354, 30.5178224], [77.9683703, 30.5093084], [77.98778, 30.5148901], [77.975395, 30.5223239], [77.986188, 30.5258601], [77.9756518, 30.5289356], [77.9748272, 30.5376093], [77.9828739, 30.5392309], [77.9805463, 30.5549643], [78.0012425, 30.5607204], [78.0141977, 30.5912281], [78.0108307, 30.6509655], [78.033074, 30.6452057], [78.0626309, 30.6665015], [78.0722144, 30.706645], [78.0836788, 30.7186309], [78.079224, 30.7406396], [78.0232851, 30.7894396], [78.0272822, 30.8041126], [77.9988484, 30.8267508], [77.9844231, 30.8792244], [77.9739934, 30.8894658], [77.9785381, 30.900019], [78.0164333, 30.9088714]]]}}]}