{"type": "FeatureCollection", "features": [{"type": "Feature", "properties": {"slug": "delhi", "members": 23, "country": "India", "input_hash": "1142d1cf6c62e5d6"}, "geometry": {"type": "Polygon", "coordinates": [[[77.3351572, 27.847418], [77.3207074, 27.8253491], [77.2964546, 27.8252121], [77.2985774, 27.815189], [77.2839806, 27.8015787], [77.2680504, 27.8154086], [77.2425944, 27.7855167], [77.234833, 27.7858557], [77.2376118, 27.7927502], [77.2294671, 27.7986837], [77.2106866, 27.8018763], [77.2023503, 27.8239678], [77.1917143, 27.8110016], [77.1973677, 27.7992487], [77.1770024, 27.7854512], [77.1686218, 27.7914788], [77.1888078, 27.8097303], [77.1602217, 27.8171882], [77.1576985, 27.7872968], [77.1416966, 27.7858557], [77.1339991, 27.7759371], [77.1225647, 27.7942478], [77.1094055, 27.7856015], [77.0759965, 27.8138549], [77.043354, 27.8207476], [77.0268731, 27.7785935], [77.0561299, 27.7710764], [77.0588129, 27.7607889], [77.0759326, 27.7661589], [77.0853229, 27.73778], [77.0588129, 27.7263585], [77.0358162, 27.7482392], [77.0195908, 27.7452994], [77.0116059, 27.7317867], [77.0002353, 27.7368188], [76.9795383, 27.6533912], [76.9432867, 27.6734196], [76.9339922, 27.6568144], [76.9269655, 27.6612276], [76.9120815, 27.6542965], [76.9113469, 27.6680734], [76.8998167, 27.6777756], [76.906524, 27.6863174], [76.8904583, 27.6993267], [76.9074822, 27.6943211], [76.9242186, 27.6999771], [76.9094305, 27.7154731], [76.8953131, 27.7175937], [76.8936203, 27.7343876], [76.9014136, 27.742727], [76.9027871, 27.7746936], [76.9200346, 27.8054643], [76.9120176, 27.8115384], [76.9152755, 27.8336843], [76.934631, 27.8291651], [76.9428076, 27.8439084], [76.9382082, 27.8962562], [76.9499621, 27.8963127], [76.9519423, 27.91624], [76.9320758, 27.9226747], [76.9382082, 27.9834464], [76.9322036, 27.9951792], [76.9704674, 28.1387465], [76.9488761, 28.1426331], [76.9514952, 28.1495049], [76.9072905, 28.1715816], [76.892215, 28.1842511], [76.8924066, 28.1926966], [76.9072905, 28.1996214], [76.871518, 28.2062643], [76.8752869, 28.2176913], [76.8540978, 28.2209955], [76.8577349, 28.234414], [76.8477186, 28.2393311], [76.8125464, 28.2406332], [76.8114424, 28.2536417], [76.7976276, 28.2555503], [76.781301, 28.2237076], [76.7689906, 28.2400982], [76.7147803, 28.263391], [76.678401, 28.2630749], [76.673819, 28.269347], [76.6857155, 28.3137519], [76.6737362, 28.3166679], [76.6671118, 28.3025006], [76.6510198, 28.3070693], [76.6690721976483, 28.378743426381476], [76.6286945, 28.4245987], [76.5841211, 28.4365171], [76.5599758, 28.4042013], [76.5531994, 28.4076734], [76.5613903, 28.4284752], [76.5420807, 28.4322937], [76.4898427, 28.4321491], [76.4587564, 28.4251773], [76.4546774, 28.4173371], [76.4399731, 28.4236729], [76.445368, 28.4370667], [76.4358941, 28.4390626], [76.4402363, 28.455549], [76.3982288, 28.4724087], [76.3703005, 28.4701821], [76.3653662, 28.4546813], [76.2855947, 28.4729581], [76.2907264, 28.4978523], [76.3262535, 28.4949324], [76.3418788, 28.5620701], [76.3336879, 28.581946], [76.3420762, 28.5796928], [76.3448065, 28.6000563], [76.3570436, 28.6165465], [76.3710242, 28.5999408], [76.4004328, 28.595724], [76.4082948, 28.5486922], [76.4208938, 28.5510617], [76.4332954, 28.6005473], [76.4482957, 28.5984678], [76.4657204, 28.6154096], [76.4380305, 28.6411598], [76.4478443, 28.6446064], [76.449739, 28.659452], [76.4011199, 28.666427], [76.40913653902818, 28.686767919488172], [76.4051773, 28.682811], [76.3790008, 28.7029568], [76.3793309, 28.7150198], [76.3967339, 28.7334493], [76.3726558, 28.7417464], [76.3847223, 28.78327], [76.3343104, 28.8082598], [76.3469628, 28.8377846], [76.3446436, 28.849509], [76.3653487, 28.8789524], [76.3526532, 28.8952909], [76.2779309, 28.9082641], [76.2541884, 28.9036075], [76.235844, 28.9113736], [76.243928, 28.941434], [76.2123837, 28.9551184], [76.2140714, 28.9732478], [76.2466216, 29.004683], [76.2505802, 29.0227978], [76.2394411, 29.046435], [76.2447507, 29.0609654], [76.2831662, 29.0642406], [76.2994067, 29.0855765], [76.3501142, 29.0832232], [76.3794784, 29.0656363], [76.4028182, 29.0756707], [76.4436089, 29.0554144], [76.4617053, 29.0659148], [76.4775175, 29.092146], [76.489387, 29.1368422], [76.5122005, 29.163184], [76.4956297, 29.1781328], [76.4745327, 29.2379891], [76.4833959, 29.2425836], [76.5256055, 29.2316172], [76.5248133, 29.2212261], [76.5340555, 29.2139654], [76.5598222, 29.2087208], [76.5684292, 29.2266594], [76.5542141, 29.2566686], [76.5609328, 29.2809096], [76.5974242, 29.2802226], [76.6107804, 29.28917], [76.6562261, 29.2655157], [76.6821213, 29.2694992], [76.7088315, 29.2610178], [76.7154895, 29.250823], [76.7530449, 29.2626459], [76.7794697, 29.2819969], [76.796282, 29.2724535], [76.7931093, 29.2507491], [76.8111024, 29.2175679], [76.8548291, 29.2057985], [76.8754368, 29.1918633], [76.8859145, 29.1948359], [76.8943466, 29.2103381], [76.9181337, 29.2193214], [76.9596489, 29.205077], [76.9639911, 29.1936306], [76.9822424, 29.188405], [77.0069533, 29.1889593], [77.0288584, 29.1776133], [77.0502678, 29.1844025], [77.059888, 29.1727914], [77.0785945, 29.179692], [77.0973461, 29.1617656], [77.1143312, 29.1695856], [77.1432945, 29.1669019], [77.142896, 29.1562319], [77.1471566, 29.1805053], [77.1314142, 29.2174887], [77.150002, 29.2327608], [77.1497847, 29.2500015], [77.1388282, 29.2662529], [77.1527203, 29.2981479], [77.2033103, 29.2743833], [77.2497342, 29.2809542], [77.2517187, 29.2704467], [77.2778828, 29.2682706], [77.2940531, 29.2572644], [77.3038164, 29.2637318], [77.3208056, 29.2569923], [77.316209, 29.2503207], [77.3509626, 29.2411764], [77.3740128, 29.2380553], [77.3845479, 29.2497976], [77.4043239, 29.2483535], [77.4426206, 29.2269548], [77.4555191, 29.2302128], [77.4808547, 29.1983476], [77.4882985, 29.2021072], [77.5042406401909, 29.191507664167574], [77.5135897, 29.2057842], [77.5273816, 29.2068183], [77.5324094, 29.2174401], [77.5453471, 29.2182251], [77.5438828, 29.2270475], [77.564815, 29.2345128], [77.5638756, 29.2436825], [77.5853885, 29.2664838], [77.6202008, 29.2499341], [77.6289943, 29.226589], [77.6443179, 29.2260409], [77.6597369, 29.2559562], [77.6740292, 29.252915], [77.686808, 29.2380238], [77.6849935, 29.2296679], [77.7417203, 29.2212388], [77.777653, 29.1999177], [77.7769162, 29.1851356], [77.7956511, 29.1849414], [77.8059354, 29.2028033], [77.8451127, 29.2027556], [77.8593204, 29.2282733], [77.8939625, 29.2100006], [77.9025259, 29.2190637], [77.9190162, 29.2141833], [77.92422, 29.2284713], [77.9384015, 29.2374564], [77.9554621, 29.2334011], [77.9696496, 29.2440592], [77.9829725, 29.2378204], [77.9905337, 29.2560597], [78.0209444, 29.2590753], [78.087347, 29.2465979], [78.1137876, 29.2562814], [78.1078979, 29.2051265], [78.1238583, 29.1713495], [78.0902193, 29.1456098], [78.0871873, 29.1162799], [78.093607, 29.1081603], [78.0877809, 29.0924229], [78.0777656, 29.0802313], [78.0495623, 29.0690766], [78.0688574, 29.048158], [78.0772087, 28.9775414], [78.0966325, 28.9513013], [78.074261, 28.9355495], [78.0820875, 28.9260726], [78.0999654, 28.9321048], [78.1085324, 28.9177149], [78.0878521, 28.8909711], [78.101038, 28.8796054], [78.1208025, 28.8784001], [78.1162541, 28.8655654], [78.1426758, 28.8417791], [78.1426849, 28.8211407], [78.1270542, 28.8073312], [78.1322759, 28.7815448], [78.1385652, 28.766208], [78.1710677, 28.7405049], [78.1633205, 28.7208137], [78.1812136, 28.7103825], [78.1996927, 28.6809782], [78.198265, 28.6601123], [78.2110957, 28.6539959], [78.2105636, 28.6268376], [78.172479, 28.6291294], [78.1516852, 28.6454837], [78.1408322, 28.6459946], [78.1301743, 28.635334], [78.089023, 28.6547798], [78.0794763, 28.6740404], [78.068142, 28.6663959], [78.0183839, 28.683332], [78.0089586, 28.6995631], [77.9866024, 28.698307], [77.9629166, 28.7153555], [77.9519348, 28.7033358], [77.9307556, 28.7008568], [77.9150855, 28.6708862], [77.9003805, 28.6652865], [77.9003011, 28.6569091], [77.9112476, 28.6511113], [77.8996085, 28.640469], [77.9018051, 28.6337376], [77.8550884, 28.6550863], [77.838319, 28.6327956], [77.7959301, 28.6175757], [77.7776329, 28.5865062], [77.7551576, 28.5831136], [77.7478647, 28.5589169], [77.7340586, 28.5607676], [77.7201969, 28.5496644], [77.6771629, 28.563608], [77.6925147, 28.5352584], [77.6867031, 28.5126081], [77.6216467, 28.4750178], [77.651341, 28.4617821], [77.6328868, 28.4274464], [77.6567686, 28.4251049], [77.6562326, 28.4368509], [77.6673446, 28.44525], [77.6610641, 28.4510415], [77.6758765, 28.4460158], [77.6606338, 28.4288166], [77.682911, 28.4192746], [77.6674404, 28.4011501], [77.6727965, 28.3908378], [77.6675862, 28.3803747], [77.7166452, 28.3532574], [77.7162078, 28.3325732], [77.7378497, 28.3178944], [77.723461, 28.3067315], [77.724518, 28.2956878], [77.6881961, 28.2798754], [77.6983016, 28.2373779], [77.7138114, 28.235585], [77.7153648, 28.2167941], [77.7284825, 28.2103243], [77.7068003, 28.1809919], [77.7126835, 28.1751269], [77.706594, 28.1637261], [77.7319887, 28.1574489], [77.7191717, 28.1449367], [77.7342496, 28.1269517], [77.7242141, 28.113073], [77.7288634, 28.0988259], [77.7216021, 28.0901939], [77.6955029, 28.0867961], [77.6617909, 28.119735], [77.6549751, 28.1216667], [77.6376341, 28.1029383], [77.6138381, 28.1072536], [77.601998, 28.1188056], [77.5673792, 28.0879717], [77.4756081, 28.0851146], [77.5010916, 28.0590035], [77.4829087, 28.0407618], [77.5127368, 28.0318953], [77.5083805, 28.0227261], [77.5424553, 27.9890805], [77.5377696, 27.9789963], [77.5168763, 27.9711205], [77.5187431, 27.96211], [77.5462004, 27.9577867], [77.533608, 27.9293123], [77.5260594, 27.9254828], [77.5170606, 27.9323798], [77.500863, 27.9252228], [77.492248, 27.9369939], [77.4843467, 27.9346011], [77.4752185, 27.9292815], [77.4788977, 27.895147], [77.4618007, 27.8767543], [77.4504927, 27.8709955], [77.42007, 27.8903915], [77.4092722, 27.8740241], [77.4219905, 27.8543468], [77.349189, 27.8557582], [77.3351572, 27.847418]], [[77.29217107331199, 27.88985119810765], [77.2910739, 27.8894288], [77.2871214, 27.8858287], [77.29217107331199, 27.88985119810765]], [[77.297746, 27.8907711], [77.311537, 27.884326], [77.29371450596396, 27.89044540052248], [77.297746, 27.8907711]], [[76.7024483, 29.031589], [76.6981941, 29.0388032], [76.69803723278402, 29.038772512026345], [76.7024483, 29.031589]], [[76.7061829, 29.0285914], [76.71140532161165, 29.026182508207782], [76.7024483, 29.031589], [76.7061829, 29.0285914]], [[76.8632529, 28.8158278], [76.86936569489842, 28.823419577276], [76.8684148, 28.8230914], [76.8632529, 28.8158278]], [[76.8839988, 28.8165559], [76.869947, 28.8236202], [76.86991171392256, 28.82360802190462], [76.8839988, 28.8165559]], [[76.92331808665065, 28.80097949999103], [76.9231846, 28.8009962], [76.9121086, 28.7934975], [76.92331808665065, 28.80097949999103]], [[76.9466768, 28.7975348], [76.9418975, 28.7986551], [76.92437748840752, 28.800846962252198], [76.9466768, 28.7975348]], [[76.9849809, 28.8268272], [76.98534502687092, 28.828110528091564], [76.9803353, 28.8214864], [76.9849809, 28.8268272]], [[77.2173205, 28.8513348], [77.2158748, 28.8540722], [77.21511898023881, 28.85453423356853], [77.2173205, 28.8513348]], [[77.20622661509134, 28.78615251847408], [77.2064204, 28.779322], [77.2072766, 28.7866961], [77.20622661509134, 28.78615251847408]], [[77.2085662, 28.7764257], [77.2131573131984, 28.77386614821334], [77.2064204, 28.779322], [77.2085662, 28.7764257]], [[77.2642707, 28.65526], [77.2696209, 28.6493668], [77.2649922, 28.6551283], [77.2575585, 28.6602286], [77.2642707, 28.65526]], [[77.2621465, 28.6502794], [77.2605157, 28.6394514], [77.2642707, 28.65526], [77.2621465, 28.6502794]], [[77.2551392, 28.6097226], [77.2573614, 28.6029478], [77.2542416, 28.6133241], [77.2551392, 28.6097226]], [[77.1740891, 28.4046285], [77.1697402, 28.3953541], [77.1784076, 28.4103978], [77.1740891, 28.4046285]], [[77.1550665, 28.3919733], [77.15449278744316, 28.39070464853608], [77.1622037, 28.394915], [77.1550665, 28.3919733]], [[77.1513732, 28.3838063], [77.1507743, 28.3803812], [77.15232366943964, 28.38590807454133], [77.1513732, 28.3838063]], [[76.8818812, 28.5047475], [76.8805219, 28.5055815], [76.8742818, 28.4978371], [76.8818812, 28.5047475]], [[76.8871384, 28.5203063], [76.8816221, 28.5099063], [76.8805219, 28.5055815], [76.8871384, 28.5203063]], [[77.03923093760406, 28.612161308133164], [77.038606, 28.6159239], [77.0388454, 28.6122234], [77.03923093760406, 28.612161308133164]], [[77.04455095300995, 28.608703522660306], [77.04384627981435, 28.60912008137088], [77.044019, 28.6087499], [77.04455095300995, 28.608703522660306]], [[77.1260031, 28.6363676], [77.11997, 28.6269025], [77.1271954853895, 28.637147156625495], [77.1260031, 28.6363676]], [[77.1307053, 28.6394418], [77.1295879467217, 28.63871129779929], [77.135773, 28.6400835], [77.1307053, 28.6394418]], [[77.1752946, 28.6417329], [77.1969405, 28.6448556], [77.1896878, 28.6344131], [77.1976057, 28.6456842], [77.1752946, 28.6417329]], [[77.0321199, 28.5310788], [77.04256481742041, 28.525572968628076], [77.0424046, 28.5256984], [77.0321199, 28.5310788]], [[77.0981578, 28.5116669], [77.09556501183144, 28.512528435329816], [77.1025691, 28.5183896], [77.0981578, 28.5116669]], [[77.119507, 28.495139], [77.1150614, 28.4815648], [77.1176759, 28.4869846], [77.119507, 28.495139]], [[77.1715479, 28.2005681], [77.17228702592152, 28.200905469091154], [77.17044872191116, 28.20135494300155], [77.1715479, 28.2005681]], [[76.9180548, 28.2772594], [76.9107554, 28.2864235], [76.91791642054201, 28.27679093141522], [76.9180548, 28.2772594]], [[76.9005238, 28.2533896], [76.9081476, 28.2629404], [76.89990672391265, 28.253218656799284], [76.9005238, 28.2533896]], [[76.8950087, 28.2518618], [76.89601226476582, 28.25213980878483], [76.89461723104648, 28.25208169077356], [76.8950087, 28.2518618]], [[76.47247922607662, 28.741038511792357], [76.4907247, 28.7390716], [76.4754582, 28.7415786], [76.47247922607662, 28.741038511792357]], [[76.58396812571613, 28.739771241443297], [76.5877039, 28.7431551], [76.58826848958971, 28.744024375199015], [76.58396812571613, 28.739771241443297]], [[76.59249778380544, 28.75053604427333], [76.5944578, 28.7535538], [76.59448808621724, 28.753834879754795], [76.59249778380544, 28.75053604427333]], [[76.6327507, 28.8208975], [76.63187200782386, 28.826519650313752], [76.6317572, 28.8250615], [76.6327507, 28.8208975]], [[76.63209270346896, 28.829322659841498], [76.6334385080453, 28.832192545049203], [76.6322495, 28.8313141], [76.63209270346896, 28.829322659841498]], [[76.63848716757998, 28.83592251978812], [76.64397758983239, 28.839439068360022], [76.643404, 28.8395551], [76.63848716757998, 28.83592251978812]], [[76.6523269, 28.830531], [76.6447177174164, 28.839289347753905], [76.65284170079872, 28.82863794608138], [76.6523269, 28.830531]], [[76.6868916, 28.7434704], [76.6942231, 28.7378276], [76.69623870333014, 28.73760229258895], [76.6868916, 28.7434704]], [[76.7154221, 28.7530256], [76.71455643932396, 28.75750546185405], [76.7142686, 28.7571272], [76.7154221, 28.7530256]], [[76.71522425055643, 28.75838306089607], [76.71921718829296, 28.75959914723922], [76.7155244, 28.7587775], [76.71522425055643, 28.75838306089607]], [[76.72199484099295, 28.760217176352025], [76.7359773, 28.7588975], [76.7220327, 28.7602256], [76.72199484099295, 28.760217176352025]], [[76.95980704164562, 28.732051703361318], [76.95982366072766, 28.73086626037392], [76.9598573, 28.7319701], [76.95980704164562, 28.732051703361318]], [[76.95979288315053, 28.729856324459824], [76.9481166, 28.7124612], [76.9597831, 28.7295353], [76.95979288315053, 28.729856324459824]], [[77.1713724, 28.7677748], [77.17175077049727, 28.772443579389964], [77.1715816, 28.7723877], [77.1713724, 28.7677748]], [[76.97047179970411, 28.810795008991683], [76.9706852, 28.8112508], [76.969779824077, 28.812262932515118], [76.97047179970411, 28.810795008991683]], [[76.96839330887161, 28.813812937420693], [76.9681961, 28.8140334], [76.96684256249587, 28.814213942525416], [76.96839330887161, 28.813812937420693]], [[77.1490846, 29.1176475], [77.1474494, 29.1335178], [77.14897967940408, 29.117398219206493], [77.1490846, 29.1176475]], [[77.146083, 29.110516], [77.14620494449909, 29.110805727876887], [77.14588244199996, 29.110445374717557], [77.146083, 29.110516]], [[77.2341058, 28.912196], [77.2308404, 28.9210831], [77.23408430458984, 28.91196316747081], [77.2341058, 28.912196]], [[77.1888192940616, 28.87986615131428], [77.1954643, 28.8862062], [77.1886824, 28.8800774], [77.1888192940616, 28.87986615131428]], [[77.3304084183442, 28.631611417209438], [77.3219715, 28.6367101], [77.3260092, 28.6331684], [77.3304084183442, 28.631611417209438]], [[77.54776883961782, 28.638270587013373], [77.5420497, 28.6335133], [77.5478324, 28.6380322], [77.54776883961782, 28.638270587013373]], [[77.5468689, 28.6528657], [77.5465608216786, 28.652792184394148], [77.5605783, 28.647595], [77.5468689, 28.6528657]], [[77.5247008, 28.2456811], [77.5310155, 28.2446514], [77.53179993118322, 28.245091675276548], [77.5247008, 28.2456811]], [[77.5382173940016, 28.24829224770115], [77.5446561, 28.2486972], [77.5386331, 28.2485331], [77.5382173940016, 28.24829224770115]], [[77.54986642842474, 28.24273782871221], [77.550014, 28.2436673], [77.5446561, 28.2486972], [77.54986642842474, 28.24273782871221]], [[77.54961572765245, 28.241158803962634], [77.5471447, 28.2382811], [77.5494035, 28.2398221], [77.54961572765245, 28.241158803962634]], [[77.52118381437523, 28.197869631090732], [77.5174477, 28.2042488], [77.5206278, 28.1983078], [77.52118381437523, 28.197869631090732]], [[77.5086517, 28.2087449], [77.5063644712711, 28.209076813819717], [77.5174477, 28.2042488], [77.5086517, 28.2087449]], [[77.5023278, 28.2096626], [77.4978751, 28.2066999], [77.49760659006803, 28.205930207075227], [77.5023278, 28.2096626]], [[77.49713912008204, 28.204590188335082], [77.4969183, 28.2039572], [77.4996702, 28.1949455], [77.49713912008204, 28.204590188335082]], [[77.4752626, 28.4192705], [77.47823386383673, 28.417352689102323], [77.4778196, 28.4179709], [77.4752626, 28.4192705]], [[77.4713136, 28.3346051], [77.4727931186576, 28.33193550809197], [77.4730609, 28.3330158], [77.4713136, 28.3346051]], [[77.47244365015656, 28.330525671281045], [77.4715505, 28.3285001], [77.47191190083126, 28.328380471439658], [77.47244365015656, 28.330525671281045]], [[77.4908042, 28.2713132], [77.4919027410462, 28.26025937282992], [77.4922803, 28.2625292], [77.4908042, 28.2713132]], [[77.49247157791702, 28.254535577183333], [77.4927326, 28.2519091], [77.49345654132831, 28.251388183798475], [77.49247157791702, 28.254535577183333]], [[77.4960258, 28.2474955], [77.49525007987033, 28.246398511732302], [77.4981269, 28.2480276], [77.4960258, 28.2474955]], [[77.49411273534234, 28.24479013062187], [77.4932889, 28.2436251], [77.49366040914852, 28.236849816707533], [77.49411273534234, 28.24479013062187]], [[77.2571498, 28.2723457], [77.25633782385677, 28.268702711840444], [77.2578231215316, 28.272169178800738], [77.2571498, 28.2723457]], [[77.2560552, 28.2674347], [77.2570778, 28.2605317], [77.25614297011478, 28.267828486802205], [77.2560552, 28.2674347]], [[77.25534326710051, 28.25827087760782], [77.2556273, 28.2581386], [77.2570778, 28.2605317], [77.25534326710051, 28.25827087760782]], [[77.3419372, 28.6193425], [77.3404229, 28.6236487], [77.34192132311483, 28.619027136208413], [77.3419372, 28.6193425]], [[77.27534233987865, 28.573751722392146], [77.2639274, 28.5854073], [77.2739482, 28.5744407], [77.27534233987865, 28.573751722392146]], [[77.2990287, 28.7098032], [77.3172355, 28.7141043], [77.3044242, 28.7118347], [77.2990287, 28.7098032]], [[77.2863386, 28.7144478], [77.2892268, 28.7083785], [77.29052071279781, 28.70757886777806], [77.2863386, 28.7144478]], [[77.2807017, 28.6966747], [77.2744565, 28.6955623], [77.27430419690842, 28.694480643758666], [77.2807017, 28.6966747]], [[77.61623781622282, 28.72173181241573], [77.6163023, 28.7218439], [77.605816, 28.727485], [77.61623781622282, 28.72173181241573]], [[77.6499849, 28.7338506], [77.65529602168003, 28.734270666457256], [77.6548216, 28.7344315], [77.6499849, 28.7338506]], [[77.6782696, 28.7268762], [77.6822337, 28.7241064], [77.68233417200994, 28.724414325466572], [77.6782696, 28.7268762]], [[77.6909475, 28.743444], [77.6870906, 28.7434197], [77.69935555156437, 28.743379385818777], [77.6909475, 28.743444]], [[77.7409433, 28.7530185], [77.7504556, 28.7477425], [77.75220597505978, 28.74769142276794], [77.7409433, 28.7530185]], [[77.75280518673246, 28.747673937330465], [77.7532691, 28.7476604], [77.7531644, 28.7509543], [77.75280518673246, 28.747673937330465]], [[77.68567164862571, 28.872996439693477], [77.6855628, 28.8737392], [77.6818497, 28.8745509], [77.68567164862571, 28.872996439693477]], [[77.5368164, 28.8879429], [77.53739246326982, 28.888872515094608], [77.53199266035597, 28.888188350658975], [77.5368164, 28.8879429]], [[77.5311879, 28.8882293], [77.53135175396405, 28.888220962472186], [77.5204076, 28.8939584], [77.5311879, 28.8882293]], [[77.5170633, 28.8927401], [77.51714293735458, 28.892769111209844], [77.5166743970803, 28.89294453813468], [77.5170633, 28.8927401]], [[77.2334841, 28.8224593], [77.2369116011988, 28.82305913127898], [77.2292977, 28.8233145], [77.2334841, 28.8224593]], [[77.46181456678569, 29.076683719416362], [77.46187592097974, 29.075985516057877], [77.4621132, 29.0763619], [77.46181456678569, 29.076683719416362]], [[77.46421841420991, 28.933153983319936], [77.46459278526744, 28.930917247513815], [77.4649636, 28.9311536], [77.46421841420991, 28.933153983319936]]]}}]}