{"type": "FeatureCollection", "features": [{"type": "Feature", "properties": {"slug": "denizli", "members": 19, "country": "Turkey", "input_hash": "1ac64c566092a701"}, "geometry": {"type": "Polygon", "coordinates": [[[29.442241, 37.1829193], [29.4513704, 37.1629145], [29.4475004, 37.1239969], [29.4380733, 37.1218606], [29.4319208, 37.0918669], [29.4412487, 37.0907587], [29.4415848, 37.0655512], [29.4295393, 37.0397651], [29.4046319, 37.0499032], [29.4013572, 37.0653454], [29.3826999, 37.0665492], [29.3681639, 37.0332919], [29.3384742, 37.0190703], [29.3669154, 36.9900601], [29.3914215, 36.9817531], [29.358622, 36.9566562], [29.3366105, 36.9175797], [29.3290517, 36.9266952], [29.3200837, 36.9155311], [29.2790871, 36.9211646], [29.2624877, 36.8612417], [29.2411162, 36.859534], [29.2203401, 36.8466001], [29.1832922, 36.8583345], [29.1766912, 36.8739931], [29.1068571, 36.9107778], [29.1084696, 36.9271927], [29.0978053, 36.9432847], [29.1016487, 36.9767598], [29.1177911, 36.9701069], [29.1436702, 36.9827981], [29.1236844, 37.0094018], [29.123226555588882, 37.023412268635425], [29.091783, 37.0290124], [29.0828704, 37.0448333], [29.0675925, 37.0436687], [29.0629476, 37.0270662], [29.0314893, 37.0401755], [29.0173794, 37.0691856], [28.9963995, 37.0927209], [28.974152, 37.101619], [28.9719882, 37.1156104], [28.9474606, 37.1367606], [28.905639, 37.1438342], [28.8944446, 37.1363916], [28.8379232, 37.1343232], [28.8282165, 37.167543], [28.8178388, 37.178913], [28.8011604, 37.1790607], [28.7848526, 37.1963338], [28.782109, 37.241296], [28.7618262, 37.2473519], [28.7529783, 37.2665667], [28.7348135, 37.2735321], [28.7392768, 37.2777239], [28.729492, 37.2916978], [28.7407347, 37.323821], [28.7173476, 37.3379268], [28.7142141, 37.3539126], [28.7009962, 37.3656808], [28.6410864, 37.3705922], [28.6440187, 37.3789973], [28.6344222, 37.3835855], [28.6407961, 37.3839025], [28.614192, 37.4309438], [28.6295281, 37.4533248], [28.6286351, 37.4771915], [28.619286, 37.4776205], [28.6052142, 37.4937284], [28.60284, 37.5103641], [28.5923855, 37.5195922], [28.5690471, 37.5265307], [28.6037142, 37.5421433], [28.6317887, 37.5477681], [28.6514107, 37.542622], [28.6716364, 37.553512], [28.6926168, 37.5724161], [28.6960884, 37.5903586], [28.7226538, 37.6069709], [28.7477666, 37.6089145], [28.7747461, 37.6427634], [28.7902808, 37.6447496], [28.7937643, 37.6744289], [28.811649, 37.6860153], [28.8031381, 37.6993938], [28.8096268, 37.7073974], [28.8311383, 37.7062428], [28.8782095, 37.7323198], [28.8638931, 37.7522658], [28.7444013, 37.8136181], [28.7505497, 37.8239064], [28.7401727, 37.8356791], [28.7482117, 37.8800921], [28.737141, 37.901934], [28.7471403, 37.9182759], [28.737935, 37.949081], [28.7722063, 37.9410077], [28.7768306, 37.9460002], [28.8140592, 37.9287317], [28.8413659, 37.9448947], [28.8441894, 37.9766987], [28.835536, 37.9861251], [28.8073396, 37.9880408], [28.7945054, 37.9777717], [28.7701982, 37.9825999], [28.7155555, 38.0594252], [28.6926095, 38.0662383], [28.6596197, 38.0637019], [28.6363844, 38.0895071], [28.6697512, 38.0911238], [28.6892256, 38.1080964], [28.7073879, 38.1072274], [28.7344798, 38.1411815], [28.7418068, 38.1775569], [28.8042275, 38.1884701], [28.8324843, 38.1821857], [28.8203952, 38.1910325], [28.822516, 38.1981296], [28.8372833, 38.2033919], [28.8498485, 38.2212441], [28.8633427, 38.2199819], [28.8925118, 38.246452], [28.9103625, 38.2480927], [28.9446199, 38.2304193], [28.9752602, 38.2312245], [28.9731993, 38.2435505], [28.9948492, 38.2431847], [29.0118459, 38.2373442], [29.0115626, 38.2304463], [29.0356564, 38.2359585], [29.0336876, 38.2285874], [29.0450495, 38.2192873], [29.0636229, 38.2399161], [29.100616, 38.2410958], [29.1819836, 38.2147799], [29.1825774, 38.1858313], [29.2067923, 38.1658584], [29.2208672, 38.193141], [29.2194078, 38.2113879], [29.2041605, 38.2269914], [29.2192545, 38.2268055], [29.2149209, 38.2407363], [29.2452749, 38.2424807], [29.2981249, 38.2991421], [29.3374937, 38.3063928], [29.3602581, 38.3234135], [29.4156959, 38.3226782], [29.4264085, 38.302715], [29.4821141, 38.27276], [29.509833, 38.276124], [29.5307226, 38.2890528], [29.546122, 38.2718138], [29.5899098, 38.2598282], [29.5893742, 38.2454218], [29.6144149, 38.2440546], [29.6078535, 38.2546759], [29.6185661, 38.2870558], [29.6319569, 38.2909447], [29.6174948, 38.3226782], [29.6264666, 38.336439], [29.6150845, 38.3457865], [29.6457493, 38.363323], [29.6484275, 38.3746616], [29.6085007, 38.3902211], [29.6074342, 38.3976667], [29.6228204, 38.4053237], [29.6242738, 38.418828], [29.6440258, 38.4215094], [29.670797, 38.4131954], [29.6694662, 38.4387954], [29.6944828, 38.4442725], [29.6884911, 38.4523033], [29.7363104, 38.4618187], [29.7588614, 38.4510233], [29.7978896, 38.4560795], [29.8142623, 38.4740857], [29.873535, 38.4629123], [29.9122291, 38.4319935], [29.9138916, 38.4183777], [29.9320539, 38.4094307], [29.9748228, 38.4104239], [29.9820216, 38.4181029], [30.0055947, 38.404135], [30.0059384, 38.392377], [29.9795001, 38.3749578], [29.9830814, 38.3564681], [29.9697287, 38.3381835], [30.0285716, 38.3179544], [30.0442054, 38.2929534], [30.0794521, 38.2712081], [30.08002, 38.1978189], [30.0580578, 38.184182], [30.0199993, 38.1950242], [30.0174164, 38.1845616], [29.9988677, 38.1771398], [30.0019415, 38.1517142], [29.9910979, 38.1394283], [29.9686483, 38.1349431], [29.9724344, 38.1480906], [29.9581291, 38.1413404], [29.9520039, 38.152236], [29.9583936, 38.1637359], [29.9293597, 38.170212], [29.8850134, 38.1504655], [29.8671318, 38.1357952], [29.8702176, 38.1155617], [29.8937984, 38.0931607], [29.8474276, 38.0733807], [29.8120447, 38.070631], [29.8117676, 38.0506935], [29.7785566, 38.0360475], [29.745566, 37.9878538], [29.7070459, 37.979505], [29.6837256, 37.988441], [29.6681494, 38.0154021], [29.660877, 38.0091862], [29.6688243, 38.0085992], [29.6588901, 37.9763043], [29.6668375, 37.9631866], [29.6961434, 37.9528082], [29.7137766, 37.9549623], [29.7227018, 37.9433465], [29.6943739, 37.9154927], [29.6725902, 37.9114186], [29.669439, 37.8981155], [29.6864952, 37.8849541], [29.6831468, 37.8790043], [29.7418215, 37.8582439], [29.7474416, 37.8215969], [29.7702514, 37.8125987], [29.8868858, 37.8254386], [29.8965927, 37.7727195], [29.8454953, 37.7297038], [29.8202472, 37.6854738], [29.7643407, 37.6940365], [29.7601327, 37.7071165], [29.7475087, 37.7144879], [29.7306766, 37.7094945], [29.6946079, 37.7171034], [29.7021222, 37.7078299], [29.6795792, 37.6671558], [29.6831861, 37.6552586], [29.7306766, 37.6233646], [29.7102376, 37.6074125], [29.6230659, 37.6340914], [29.6144474, 37.6210085], [29.5431398, 37.6085873], [29.5064954, 37.5858726], [29.5559279, 37.5662839], [29.5716565, 37.5681836], [29.586636, 37.5407514], [29.5847408, 37.5280371], [29.500837, 37.5052904], [29.5157609, 37.4867857], [29.5369316, 37.4782329], [29.5623226, 37.4404107], [29.585887, 37.4490001], [29.6102129, 37.4467406], [29.6231387, 37.4116898], [29.6245533, 37.3537015], [29.5820997, 37.3320915], [29.576952, 37.2899971], [29.5241745, 37.2931317], [29.4617386, 37.2060042], [29.4460415, 37.1997929], [29.442241, 37.1829193]], [[29.1793621, 37.7513148], [29.17987455365677, 37.75091268967715], [29.17927338334685, 37.751615328772615], [29.1793621, 37.7513148]], [[29.1890596, 37.7437054], [29.1891428511174, 37.743692338548044], [29.18904775743741, 37.74371469258013], [29.1890596, 37.7437054]], [[29.0466413, 37.6909922], [29.0396318, 37.6894216], [29.047397913495416, 37.69088312633443], [29.0466413, 37.6909922]], [[28.953726970027112, 37.305236923353014], [28.9541999, 37.3049681], [28.965418, 37.3049681], [28.953726970027112, 37.305236923353014]], [[28.8873918, 37.4956484], [28.8788187, 37.4876039], [28.8776218, 37.485778], [28.8873918, 37.4956484]], [[28.8716905, 37.4636425], [28.8707, 37.4600694], [28.8710556, 37.4565411], [28.8716905, 37.4636425]], [[29.0337274, 37.9236053], [29.0312688, 37.9164969], [29.03509882680939, 37.92555853771703], [29.0337274, 37.9236053]], [[29.035512441261833, 37.9156053152013], [29.0360321, 37.9145542], [29.038060897544476, 37.915069887076825], [29.035512441261833, 37.9156053152013]], [[29.133410958430478, 37.82496562436523], [29.1283501, 37.8202088], [29.1342345, 37.825002], [29.133410958430478, 37.82496562436523]], [[29.085361806863013, 37.782831873033075], [29.0851379, 37.7826668], [29.0844158, 37.7806151], [29.085361806863013, 37.782831873033075]], [[29.2109182, 38.1524157], [29.2075939, 38.1539396], [29.211036549280575, 38.15112367462369], [29.2109182, 38.1524157]], [[29.2113064, 38.1481777], [29.211135011635474, 38.15004875587034], [29.20988130040235, 38.14651250599734], [29.2113064, 38.1481777]], [[29.2085238, 38.1449263], [29.20919833141796, 38.14571447345373], [29.2041261, 38.1439103], [29.2085238, 38.1449263]], [[29.3050226, 37.8674768], [29.303534720493396, 37.86050448338884], [29.3039668, 37.8604444], [29.3050226, 37.8674768]], [[29.312410859623107, 37.883743318161955], [29.3077728, 37.8755395], [29.3118221, 37.8817399], [29.312410859623107, 37.883743318161955]], [[29.313022, 37.8879791], [29.312980549619937, 37.88568184662339], [29.313792499094486, 37.88844473025206], [29.313022, 37.8879791]], [[29.316318245091598, 37.88997109641354], [29.31480904827144, 37.88905905420504], [29.3165513, 37.8890458], [29.316318245091598, 37.88997109641354]], [[29.4742611, 37.908992], [29.4755164, 37.9044112], [29.4791069, 37.8965832], [29.4742611, 37.908992]]]}}]}