{"type":"FeatureCollection","features":[{"type":"Feature","properties":{"slug":"detroit","member_count":352,"matched_count":16,"unmatched":["Flint city (US-MI, type='City')","Grand Blanc charter township (US-MI, type='Township')","Flint charter township (US-MI, type='Township')","Burton city (US-MI, type='City')","Davison township (US-MI, type='Township')","Genesee charter township (US-MI, type='Township')","Mount Morris township (US-MI, type='Township')","Fenton charter township (US-MI, type='Township')","Mundy township (US-MI, type='Township')","Vienna charter township (US-MI, type='Township')","Fenton city (US-MI, type='City')","Flushing charter township (US-MI, type='Township')","Richfield township (US-MI, type='Township')","Flushing city (US-MI, type='City')","Grand Blanc city (US-MI, type='City')","Balance of Clayton charter township (US-MI, type='Balance')","Argentine township (US-MI, type='Township')","Thetford township (US-MI, type='Township')","Balance of Atlas township (US-MI, type='Balance')","Balance of Gaines township (US-MI, type='Balance')","Montrose charter township (US-MI, type='Township')","Swartz Creek city (US-MI, type='City')","Davison city (US-MI, type='City')","Linden city (US-MI, type='City')","Balance of Forest township (US-MI, type='Balance')","Mount Morris city (US-MI, type='City')","Clio city (US-MI, type='City')","Goodrich village (US-MI, type='Village')","Montrose city (US-MI, type='City')","Otisville village (US-MI, type='Village')","Gaines village (US-MI, type='Village')","Lennon village (US-MI, type='Village')","Otter Lake village (US-MI, type='Village')","Mayfield township (US-MI, type='Township')","Deerfield township (US-MI, type='Township')","Balance of Oregon township (US-MI, type='Balance')","Elba township (US-MI, type='Township')","Lapeer township (US-MI, type='Township')","Attica township (US-MI, type='Township')","Hadley township (US-MI, type='Township')","Balance of Almont township (US-MI, type='Balance')","Balance of Metamora township (US-MI, type='Balance')","Balance of Dryden township (US-MI, type='Balance')","Imlay City city (US-MI, type='City')","Balance of Marathon township (US-MI, type='Balance')","Imlay township (US-MI, type='Township')","Arcadia township (US-MI, type='Township')","Almont village (US-MI, type='Village')","Balance of North Branch township (US-MI, type='Balance')","Burnside township (US-MI, type='Township')","Goodland township (US-MI, type='Township')","Rich township (US-MI, type='Township')","Balance of Burlington township (US-MI, type='Balance')","North Branch village (US-MI, type='Village')","Dryden village (US-MI, type='Village')","Columbiaville village (US-MI, type='Village')","Metamora village (US-MI, type='Village')","Clifford village (US-MI, type='Village')","Otter Lake village (US-MI, type='Village')","Brown City city (US-MI, type='City')","Columbiaville village (US-MI, type='Village')","Adrian city (US-MI, type='City')","Tecumseh city (US-MI, type='City')","Raisin township (US-MI, type='Township')","Madison charter township (US-MI, type='Township')","Adrian township (US-MI, type='Township')","Balance of Cambridge township (US-MI, type='Balance')","Blissfield village (US-MI, type='Village')","Franklin township (US-MI, type='Township')","Balance of Woodstock township (US-MI, type='Balance')","Balance of Rollin township (US-MI, type='Balance')","Clinton village (US-MI, type='Village')","Hudson city (US-MI, type='City')","Morenci city (US-MI, type='City')","Tecumseh township (US-MI, type='Township')","Balance of Palmyra township (US-MI, type='Balance')","Rome township (US-MI, type='Township')","Fairfield township (US-MI, type='Township')","Balance of Dover township (US-MI, type='Balance')","Balance of Riga township (US-MI, type='Balance')","Balance of Hudson township (US-MI, type='Balance')","Macon township (US-MI, type='Township')","Balance of Clinton township (US-MI, type='Balance')","Seneca township (US-MI, type='Township')","Medina township (US-MI, type='Township')","Onsted village (US-MI, type='Village')","Balance of Ridgeway township (US-MI, type='Balance')","Ogden township (US-MI, type='Township')","Deerfield village (US-MI, type='Village')","Balance of Blissfield township (US-MI, type='Balance')","Balance of Deerfield township (US-MI, type='Balance')","Britton village (US-MI, type='Village')","Addison village (US-MI, type='Village')","Cement City village (US-MI, type='Village')","Addison village (US-MI, type='Village')","Clayton village (US-MI, type='Village')","Clayton village (US-MI, type='Village')","Blissfield village (US-MI, type='Village')","Blissfield village (US-MI, type='Village')","Hamburg township (US-MI, type='Township')","Genoa township (US-MI, type='Township')","Green Oak township (US-MI, type='Township')","Brighton township (US-MI, type='Township')","Hartland township (US-MI, type='Township')","Oceola township (US-MI, type='Township')","Tyrone township (US-MI, type='Township')","Marion township (US-MI, type='Township')","Howell city (US-MI, type='City')","Howell township (US-MI, type='Township')","Brighton city (US-MI, type='City')","Balance of Handy township (US-MI, type='Balance')","Balance of Putnam township (US-MI, type='Balance')","Deerfield township (US-MI, type='Township')","Iosco township (US-MI, type='Township')","Conway township (US-MI, type='Township')","Unadilla township (US-MI, type='Township')","Cohoctah township (US-MI, type='Township')","Fowlerville village (US-MI, type='Village')","Pinckney village (US-MI, type='Village')","Fenton city (US-MI, type='City')","Sterling Heights city (US-MI, type='City')","Clinton charter township (US-MI, type='Township')","Macomb township (US-MI, type='Township')","Shelby charter township (US-MI, type='Township')","St. Clair Shores city (US-MI, type='City')","Chesterfield township (US-MI, type='Township')","Roseville city (US-MI, type='City')","Eastpointe city (US-MI, type='City')","Balance of Washington charter township (US-MI, type='Balance')","Harrison charter township (US-MI, type='Township')","Mount Clemens city (US-MI, type='City')","Fraser city (US-MI, type='City')","New Baltimore city (US-MI, type='City')","Center Line city (US-MI, type='City')","Balance of Bruce township (US-MI, type='Balance')","New Haven village (US-MI, type='Village')","Balance of Lenox township (US-MI, type='Balance')","Richmond city (US-MI, type='City')","Utica city (US-MI, type='City')","Balance of Ray township (US-MI, type='Balance')","Balance of Armada township (US-MI, type='Balance')","Richmond township (US-MI, type='Township')","Romeo village (US-MI, type='Village')","Romeo village (US-MI, type='Village')","Armada village (US-MI, type='Village')","Memphis city (US-MI, type='City')","Village of Grosse Pointe Shores city (US-MI, type='City')","Romeo village (US-MI, type='Village')","Romeo village (US-MI, type='Village')","Bedford township (US-MI, type='Township')","Frenchtown township (US-MI, type='Township')","Monroe charter township (US-MI, type='Township')","Balance of Berlin charter township (US-MI, type='Balance')","Raisinville township (US-MI, type='Township')","Dundee village (US-MI, type='Village')","Balance of Ash township (US-MI, type='Balance')","Ida township (US-MI, type='Township')","Whiteford township (US-MI, type='Township')","La Salle township (US-MI, type='Township')","Erie township (US-MI, type='Township')","Balance of Exeter township (US-MI, type='Balance')","Summerfield township (US-MI, type='Township')","London township (US-MI, type='Township')","Balance of Dundee township (US-MI, type='Balance')","Carleton village (US-MI, type='Village')","Milan city (US-MI, type='City')","South Rockwood village (US-MI, type='Village')","Milan township (US-MI, type='Township')","Luna Pier city (US-MI, type='City')","Petersburg city (US-MI, type='City')","Maybee village (US-MI, type='Village')","Estral Beach village (US-MI, type='Village')","Flat Rock city (US-MI, type='City')","Troy city (US-MI, type='City')","Farmington Hills city (US-MI, type='City')","Rochester Hills city (US-MI, type='City')","Southfield city (US-MI, type='City')","Waterford charter township (US-MI, type='Township')","Novi city (US-MI, type='City')","West Bloomfield charter township (US-MI, type='Township')","Pontiac city (US-MI, type='City')","Royal Oak city (US-MI, type='City')","Bloomfield charter township (US-MI, type='Township')","Balance of Commerce charter township (US-MI, type='Balance')","Independence charter township (US-MI, type='Township')","Balance of Orion charter township (US-MI, type='Balance')","White Lake charter township (US-MI, type='Township')","Oak Park city (US-MI, type='City')","Madison Heights city (US-MI, type='City')","Lyon charter township (US-MI, type='Township')","Auburn Hills city (US-MI, type='City')","Birmingham city (US-MI, type='City')","Oakland charter township (US-MI, type='Township')","Highland charter township (US-MI, type='Township')","Balance of Oxford charter township (US-MI, type='Balance')","Ferndale city (US-MI, type='City')","Wixom city (US-MI, type='City')","Berkley city (US-MI, type='City')","Hazel Park city (US-MI, type='City')","Springfield charter township (US-MI, type='Township')","Balance of Brandon charter township (US-MI, type='Balance')","Rochester city (US-MI, type='City')","South Lyon city (US-MI, type='City')","Farmington city (US-MI, type='City')","Clawson city (US-MI, type='City')","Balance of Milford charter township (US-MI, type='Balance')","Beverly Hills village (US-MI, type='Village')","Walled Lake city (US-MI, type='City')","Milford village (US-MI, type='Village')","Balance of Holly township (US-MI, type='Balance')","Huntington Woods city (US-MI, type='City')","Groveland township (US-MI, type='Township')","Rose township (US-MI, type='Township')","Balance of Addison township (US-MI, type='Balance')","Holly village (US-MI, type='Village')","Wolverine Lake village (US-MI, type='Village')","Bloomfield Hills city (US-MI, type='City')","Lathrup Village city (US-MI, type='City')","Oxford village (US-MI, type='Village')","Northville city (US-MI, type='City')","Franklin village (US-MI, type='Village')","Lake Orion village (US-MI, type='Village')","Keego Harbor city (US-MI, type='City')","Pleasant Ridge city (US-MI, type='City')","Royal Oak charter township (US-MI, type='Township')","Orchard Lake Village city (US-MI, type='City')","Sylvan Lake city (US-MI, type='City')","Ortonville village (US-MI, type='Village')","Bingham Farms village (US-MI, type='Village')","Village of Clarkston city (US-MI, type='City')","Leonard village (US-MI, type='Village')","Lake Angelus city (US-MI, type='City')","Novi township (US-MI, type='Township')","Fenton city (US-MI, type='City')","Balance of Southfield township (US-MI, type='Balance')","Port Huron city (US-MI, type='City')","Fort Gratiot charter township (US-MI, type='Township')","Port Huron charter township (US-MI, type='Township')","Marysville city (US-MI, type='City')","Kimball township (US-MI, type='Township')","Clay township (US-MI, type='Township')","St. Clair township (US-MI, type='Township')","Clyde township (US-MI, type='Township')","Ira township (US-MI, type='Township')","Casco township (US-MI, type='Township')","Columbus township (US-MI, type='Township')","Algonac city (US-MI, type='City')","Burtchville township (US-MI, type='Township')","Marine City city (US-MI, type='City')","East China township (US-MI, type='Township')","China township (US-MI, type='Township')","Cottrellville township (US-MI, type='Township')","Riley township (US-MI, type='Township')","Wales township (US-MI, type='Township')","Berlin township (US-MI, type='Township')","Kenockee township (US-MI, type='Township')","Balance of Emmett township (US-MI, type='Balance')","Balance of Mussey township (US-MI, type='Balance')","Capac village (US-MI, type='Village')","Yale city (US-MI, type='City')","Brockway township (US-MI, type='Township')","Grant township (US-MI, type='Township')","Greenwood township (US-MI, type='Township')","Lynn township (US-MI, type='Township')","Memphis city (US-MI, type='City')","Emmett village (US-MI, type='Village')","Richmond city (US-MI, type='City')","Ann Arbor city (US-MI, type='City')","Ypsilanti charter township (US-MI, type='Township')","Pittsfield charter township (US-MI, type='Township')","Ypsilanti city (US-MI, type='City')","Scio township (US-MI, type='Township')","Superior charter township (US-MI, type='Township')","York charter township (US-MI, type='Township')","Saline city (US-MI, type='City')","Northfield township (US-MI, type='Township')","Augusta charter township (US-MI, type='Township')","Salem township (US-MI, type='Township')","Dexter township (US-MI, type='Township')","Webster township (US-MI, type='Township')","Lodi township (US-MI, type='Township')","Chelsea city (US-MI, type='City')","Balance of Ann Arbor charter township (US-MI, type='Balance')","Lima township (US-MI, type='Township')","Milan city (US-MI, type='City')","Sylvan township (US-MI, type='Township')","Lyndon township (US-MI, type='Township')","Saline township (US-MI, type='Township')","Balance of Manchester township (US-MI, type='Balance')","Manchester village (US-MI, type='Village')","Sharon township (US-MI, type='Township')","Bridgewater township (US-MI, type='Township')","Freedom township (US-MI, type='Township')","Barton Hills village (US-MI, type='Village')","Detroit city (US-MI, type='City')","Dearborn city (US-MI, type='City')","Canton charter township (US-MI, type='Township')","Livonia city (US-MI, type='City')","Westland city (US-MI, type='City')","Taylor city (US-MI, type='City')","Dearborn Heights city (US-MI, type='City')","Redford charter township (US-MI, type='Township')","Lincoln Park city (US-MI, type='City')","Brownstown charter township (US-MI, type='Township')","Northville township (US-MI, type='Township')","Van Buren charter township (US-MI, type='Township')","Southgate city (US-MI, type='City')","Allen Park city (US-MI, type='City')","Hamtramck city (US-MI, type='City')","Plymouth charter township (US-MI, type='Township')","Garden City city (US-MI, type='City')","Inkster city (US-MI, type='City')","Romulus city (US-MI, type='City')","Wyandotte city (US-MI, type='City')","Trenton city (US-MI, type='City')","Huron charter township (US-MI, type='Township')","Grosse Pointe Woods city (US-MI, type='City')","Harper Woods city (US-MI, type='City')","Woodhaven city (US-MI, type='City')","Melvindale city (US-MI, type='City')","Riverview city (US-MI, type='City')","Sumpter township (US-MI, type='Township')","Grosse Pointe Park city (US-MI, type='City')","Grosse Ile township (US-MI, type='Township')","Flat Rock city (US-MI, type='City')","Grosse Pointe Farms city (US-MI, type='City')","Plymouth city (US-MI, type='City')","Ecorse city (US-MI, type='City')","Highland Park city (US-MI, type='City')","River Rouge city (US-MI, type='City')","Grosse Pointe city (US-MI, type='City')","Gibraltar city (US-MI, type='City')","Belleville city (US-MI, type='City')","Rockwood city (US-MI, type='City')","Northville city (US-MI, type='City')","Village of Grosse Pointe Shores city (US-MI, type='City')"],"source":"Overture Maps division_area (CC-BY 4.0)"},"geometry":{"type":"MultiPolygon","coordinates":[[[[-94.9209113,32.5515866],[-94.9219726,32.5607835],[-94.9010024,32.5606407],[-94.890966,32.5485567],[-94.912429,32.5435914],[-94.912665,32.551368],[-94.9209113,32.5515866]]],[[[-83.4386353,41.750375],[-83.4364483,41.744587],[-83.4397215,41.7508624],[-83.4386353,41.750375]]],[[[-83.4528338,41.7507365],[-83.4549284,41.7471409],[-83.456858,41.746842],[-83.4528338,41.7507365]]],[[[-83.4408591,41.7527475],[-83.442408,41.7466907],[-83.4429184,41.7467299],[-83.4432296,41.7482115],[-83.4416248,41.7522336],[-83.4408591,41.7527475]]],[[[-83.4481134,41.7860063],[-83.4486198,41.7831775],[-83.4483194,41.7859871],[-83.4481134,41.7860063]]],[[[-83.4553384,41.7328519],[-84.3604192,41.7066106],[-84.36339,42.073467],[-84.131963,42.071577],[-84.131136,42.424567],[-84.140713,42.424611],[-84.1417433,42.5473272],[-84.1581704,42.7765971],[-83.9224198,42.7807693],[-83.9320666,43.2203777],[-83.4607,43.2231163],[-83.4607057,43.232773],[-83.351709,43.235193],[-83.3542767,43.3222103],[-83.1203917,43.3270374],[-83.119027,43.28368],[-83.0004583,43.2849151],[-82.9961831,43.15409],[-82.3354016,43.1688967],[-82.4241342,42.9978293],[-82.4131115,42.9773672],[-82.4167856,42.9667846],[-82.4553164,42.9267424],[-82.4703454,42.8874094],[-82.4682554,42.8556736],[-82.4820278,42.8082412],[-82.4673621,42.7624117],[-82.510507,42.6650326],[-82.5096536,42.6381746],[-82.5234336,42.6073437],[-82.5909251,42.5500199],[-82.6329909,42.557104],[-82.6621745,42.5414564],[-82.8281825,42.3734081],[-83.0794903,42.3087142],[-83.1279986,42.2386949],[-83.1339374,42.1748022],[-83.1217041,42.1254313],[-83.1496826,42.0409889],[-83.1437336,42.0279236],[-83.199018,42.034869],[-83.1935482,42.0266105],[-83.1717472,42.0221536],[-83.1722708,42.0159174],[-83.2122507,41.9893777],[-83.2209797,41.996095],[-83.2378969,41.9960631],[-83.2232021,41.98928],[-83.2503786,41.9735418],[-83.2586257,41.9532236],[-83.2603973,41.9587422],[-83.266844,41.9587386],[-83.2677533,41.957855],[-83.2531404,41.9454459],[-83.2638435,41.9313358],[-83.262855,41.9404712],[-83.2750753,41.9405509],[-83.2701374,41.9443854],[-83.2945593,41.9455435],[-83.3183745,41.9336641],[-83.3238778,41.9378635],[-83.3187106,41.9334049],[-83.3265171,41.9241838],[-83.3370226,41.926514],[-83.3376837,41.9200391],[-83.3255472,41.9204734],[-83.3425894,41.8794892],[-83.3818521,41.8710617],[-83.408342,41.8278888],[-83.4398137,41.8117269],[-83.4437933,41.7904939],[-83.4283681,41.7504983],[-83.4340599,41.7476646],[-83.4284883,41.7462032],[-83.4283645,41.741011],[-83.4351462,41.7467355],[-83.4328871,41.757034],[-83.4472895,41.7762394],[-83.4477564,41.7928591],[-83.4618206,41.7794973],[-83.4480791,41.779939],[-83.4479675,41.7763994],[-83.4381485,41.7591596],[-83.4385176,41.7515274],[-83.4402943,41.7588715],[-83.4721289,41.7640318],[-83.4779911,41.7566306],[-83.4654341,41.7505348],[-83.4748497,41.7492285],[-83.4678974,41.7399619],[-83.4524482,41.7404035],[-83.4553384,41.7328519]],[[-83.28622,42.08926],[-83.285578,42.089881],[-83.286099,42.091038],[-83.28622,42.08926]]],[[[-81.473383,39.662708],[-81.47326,39.654984],[-81.481533,39.662493],[-81.473383,39.662708]]],[[[-83.4300514,41.7475353],[-83.4299227,41.7473624],[-83.4301201,41.7473881],[-83.4300514,41.7475353]]],[[[-83.4296214,41.7480492],[-83.4300934,41.7478122],[-83.4300591,41.7481772],[-83.4296214,41.7480492]]]]}}]}