{"type":"FeatureCollection","features":[{"type":"Feature","properties":{"slug":"dixon-il","member_count":79,"matched_count":79,"unmatched":[],"source":"Overture Maps division_area (CC-BY 4.0)"},"geometry":{"type":"MultiPolygon","coordinates":[[[[-89.9860696,40.7123841],[-89.9890166,40.625813],[-89.8737508,40.6249808],[-89.8718046,40.5136443],[-89.8805936,40.5055496],[-89.8876806,40.4746886],[-89.9116676,40.4419586],[-89.945793,40.427658],[-89.985413,40.393047],[-90.037186,40.374699],[-90.052681,40.349236],[-90.053719,40.327465],[-90.068695,40.315609],[-90.0687885,40.2959215],[-90.10862,40.258286],[-90.125221,40.227825],[-90.160049,40.217216],[-90.201256,40.182533],[-90.451727,40.1887748],[-90.4443789,40.7148559],[-89.9860696,40.7123841]]],[[[-89.1665506,41.5852745],[-90.1854621,41.5845554],[-90.1653065,41.5953477],[-90.1598864,41.6305176],[-90.1741565,41.6400077],[-90.1614565,41.6437477],[-90.1895065,41.6632177],[-90.2364765,41.6794677],[-90.2262065,41.6868377],[-90.2458565,41.7032077],[-90.2340266,41.7250777],[-90.2367765,41.7408077],[-90.2481866,41.7467877],[-90.2368665,41.7625377],[-90.2474465,41.7638477],[-90.2402394,41.784396],[-90.181973,41.80707],[-90.183765,41.83624],[-90.1496142,41.9148671],[-90.1515707,41.9309802],[-89.6288907,41.930093],[-89.629601,41.901737],[-89.482841,41.903618],[-89.46064,41.911785],[-89.42672,41.907684],[-89.421181,41.899506],[-89.429199,41.894062],[-89.415031,41.88588],[-89.3987347,41.9028448],[-89.360447,41.9026283],[-89.3606632,41.8881217],[-88.9412735,41.8917728],[-88.9386828,41.6283169],[-89.1671535,41.6286432],[-89.1665506,41.5852745]]]]}}]}