{"type": "FeatureCollection", "features": [{"type": "Feature", "properties": {"slug": "djelfa", "members": 1, "country": "Algeria", "input_hash": "29a016d9ac3c5459"}, "geometry": {"type": "Polygon", "coordinates": [[[3.3093366, 34.7536478], [3.2641635, 34.7852102], [3.2500742, 34.804809], [3.1861272, 34.7808043], [3.1661914, 34.7536995], [3.1750047, 34.7334237], [3.1671389, 34.7271767], [3.1267564, 34.7213926], [3.1325616, 34.7377266], [3.0837231, 34.7220811], [3.0689368, 34.7099349], [3.0938209, 34.6079513], [3.1292131, 34.5921361], [3.1587199, 34.5401108], [3.2065882, 34.5536905], [3.2377475, 34.5250995], [3.306607, 34.5421764], [3.3323858, 34.5658162], [3.3181902, 34.6006728], [3.3020848, 34.6180288], [3.3472347, 34.6761802], [3.351671, 34.704943], [3.3403372, 34.743103], [3.3525769, 34.7644757], [3.3093366, 34.7536478]]]}}]}