{"type": "FeatureCollection", "features": [{"type": "Feature", "properties": {"slug": "dnipro", "members": 1, "country": "Ukraine", "input_hash": "834b3860919e33f6"}, "geometry": {"type": "Polygon", "coordinates": [[[35.1958855, 48.2309746], [35.1808447, 48.2604041], [35.1954697, 48.2648941], [35.226345, 48.255106], [35.2462649, 48.2766527], [35.2551797, 48.312802], [35.2653024, 48.3119809], [35.2824265, 48.3254626], [35.2619505, 48.3469231], [35.2835798, 48.3586658], [35.2977848, 48.3572899], [35.2930212, 48.3604124], [35.3025484, 48.3604124], [35.3017219, 48.3698163], [35.3092971, 48.3704747], [35.2830299, 48.3834197], [35.2795233, 48.3946077], [35.2692562, 48.3915942], [35.2536931, 48.4066062], [35.2653772, 48.4052317], [35.2665543, 48.4117098], [35.2361311, 48.427724], [35.3029669, 48.4396012], [35.2852875, 48.4638568], [35.3139399, 48.4729822], [35.298722, 48.493133], [35.2793713, 48.486093], [35.253221, 48.5195454], [35.2414179, 48.5194874], [35.2313177, 48.5473022], [35.1422638, 48.5861209], [35.1744293, 48.6004077], [35.1643328, 48.6126347], [35.186902, 48.652709], [35.2163662, 48.6556306], [35.2112091, 48.6699486], [35.1686425, 48.6572968], [35.155971, 48.6720187], [35.1627517, 48.6743425], [35.1389122, 48.6997701], [35.1566791, 48.7072754], [35.1621294, 48.7322263], [35.0697918, 48.7551989], [35.0059503, 48.6922243], [34.9718953, 48.7221033], [34.9388575, 48.7014346], [34.9289615, 48.7087979], [34.930644, 48.7197347], [34.9447846, 48.724392], [34.961822, 48.7181775], [34.9661994, 48.726671], [34.9503314, 48.7446724], [34.9289703, 48.7525955], [34.9557643, 48.7653472], [34.9492789, 48.7807352], [34.9567906, 48.7925757], [34.9295711, 48.7829465], [34.8969125, 48.809068], [34.9088216, 48.8157659], [34.9075341, 48.8222509], [34.8912048, 48.8337636], [34.8753047, 48.8225334], [34.8568082, 48.8291306], [34.8422599, 48.8226888], [34.8493409, 48.8053231], [34.8256946, 48.7837452], [34.8391325, 48.7767797], [34.8107752, 48.7553538], [34.7850323, 48.754859], [34.792403, 48.77804], [34.7729856, 48.7920177], [34.7791556, 48.8198469], [34.7695066, 48.8251777], [34.7663855, 48.845255], [34.7376811, 48.8527151], [34.7354346, 48.8722072], [34.7845795, 48.8989183], [34.7794895, 48.9039499], [34.7884118, 48.9133625], [34.7384771, 48.9400583], [34.7584917, 48.9473568], [34.7444927, 48.9623692], [34.7539727, 48.966751], [34.7281896, 48.9905923], [34.7394197, 48.9950703], [34.6918005, 49.0479702], [34.6692965, 49.0390782], [34.6567307, 49.0529996], [34.6796976, 49.0620775], [34.6755873, 49.0668958], [34.6867737, 49.0727048], [34.6715066, 49.0979803], [34.6470074, 49.0983444], [34.6242081, 49.1228995], [34.6002312, 49.1090229], [34.5908903, 49.1119573], [34.5948787, 49.0941514], [34.5756965, 49.0974127], [34.5664567, 49.0826456], [34.5639323, 49.072922], [34.5739065, 49.0632597], [34.5438676, 49.0541637], [34.5155039, 49.0719859], [34.4995586, 49.0614719], [34.4751297, 49.0736255], [34.4655688, 49.0644361], [34.4019662, 49.0936058], [34.4157888, 49.0548183], [34.3903357, 49.0503936], [34.395529, 49.0432863], [34.3603802, 49.0333022], [34.3639148, 49.0283756], [34.3535377, 49.01666], [34.3256542, 48.9987287], [34.3531174, 48.9838003], [34.312023, 48.9405911], [34.300152, 48.8958351], [34.3116945, 48.8894427], [34.3061292, 48.8847763], [34.3375137, 48.8714737], [34.336182, 48.8561195], [34.3500413, 48.8563311], [34.35061, 48.8499726], [34.338473, 48.840562], [34.3253467, 48.8442983], [34.3230932, 48.8288293], [34.3429635, 48.8283981], [34.3385376, 48.8204191], [34.2971606, 48.8207337], [34.2980786, 48.7845398], [34.3232486, 48.7923971], [34.3423131, 48.7832051], [34.3089164, 48.7652948], [34.3164581, 48.7567724], [34.307951, 48.745414], [34.3144425, 48.7395117], [34.2916887, 48.7188488], [34.3336597, 48.7096115], [34.4073551, 48.6670847], [34.440371, 48.634227], [34.4456628, 48.6107462], [34.4739581, 48.591176], [34.5163998, 48.5781362], [34.5316563, 48.6019669], [34.5505037, 48.611141], [34.5351599, 48.6227515], [34.5457327, 48.6284194], [34.5831636, 48.5990661], [34.5993625, 48.6079654], [34.589318, 48.6228298], [34.6040772, 48.6265388], [34.6198707, 48.6006073], [34.6313349, 48.6013863], [34.632878, 48.5899626], [34.5681435, 48.5883399], [34.5635643, 48.5606163], [34.5845859, 48.5436843], [34.6753033, 48.5359338], [34.7247889, 48.5051988], [34.7663458, 48.4924267], [34.7639325, 48.4846747], [34.7489459, 48.4839979], [34.7716041, 48.4732972], [34.7583368, 48.4507408], [34.7601825, 48.4404849], [34.7449788, 48.4423967], [34.7277462, 48.4632708], [34.7024249, 48.4730607], [34.7030821, 48.4554949], [34.7132234, 48.44758], [34.7031876, 48.4348612], [34.6912553, 48.4414376], [34.6963717, 48.4515739], [34.674109, 48.4642694], [34.6678687, 48.4614634], [34.6768906, 48.4569725], [34.6309054, 48.4582691], [34.6293258, 48.4511995], [34.6274862, 48.4575233], [34.5903545, 48.4515069], [34.5527408, 48.4642138], [34.5511329, 48.4555691], [34.5108351, 48.4572939], [34.509011, 48.4416775], [34.5619405, 48.4327221], [34.5651436, 48.4059436], [34.5966028, 48.3296404], [34.5697626, 48.3252067], [34.57139, 48.3181491], [34.5930023, 48.3076667], [34.6071692, 48.2901956], [34.5863249, 48.2848176], [34.5924184, 48.2536787], [34.565236, 48.2515966], [34.5631523, 48.2654773], [34.5509763, 48.2739025], [34.5274227, 48.2716262], [34.5304235, 48.2623715], [34.5170329, 48.2658349], [34.5064176, 48.2528617], [34.4733377, 48.2644548], [34.4614293, 48.2414144], [34.4531561, 48.2450517], [34.4545411, 48.2373917], [34.4251807, 48.2347585], [34.4350858, 48.1961219], [34.4018667, 48.1931036], [34.3987587, 48.2073373], [34.3829273, 48.2062753], [34.3938584, 48.1606247], [34.4529733, 48.1713384], [34.445512, 48.1580148], [34.4139022, 48.1517476], [34.4294605, 48.1288324], [34.3884243, 48.1259302], [34.3807946, 48.1187322], [34.3747331, 48.130926], [34.2926423, 48.1171272], [34.279569, 48.1098993], [34.2894612, 48.0778635], [34.1958969, 48.0676693], [34.2005197, 48.0568056], [34.2198967, 48.0579041], [34.2237167, 48.0468509], [34.2316863, 48.0480069], [34.2378723, 48.0282285], [34.2214742, 48.0261062], [34.2242742, 48.0170817], [34.2085509, 48.0144213], [34.2119033, 48.002939], [34.1984806, 48.0014156], [34.2007374, 47.9724036], [34.1853239, 47.9700487], [34.1883715, 47.9609141], [34.2399487, 47.9626511], [34.2368502, 47.9753772], [34.3031933, 47.9784737], [34.318077, 47.9290497], [34.3386784, 47.9325942], [34.3426417, 47.9188159], [34.4096843, 47.9286832], [34.4084821, 47.9344141], [34.3751154, 47.9294127], [34.3731962, 47.9390937], [34.4193527, 47.9436884], [34.4174794, 47.9515573], [34.4407329, 47.9539037], [34.452256, 47.9238248], [34.4947334, 47.928068], [34.4930209, 47.9346784], [34.5341503, 47.9389892], [34.5313369, 47.9506082], [34.5904878, 47.9613878], [34.5864512, 47.9787173], [34.6103497, 47.9815226], [34.6022501, 48.0134306], [34.7313771, 48.0265411], [34.7437458, 47.9852708], [34.7700347, 47.9951909], [34.8209319, 47.9968998], [34.8180633, 48.010501], [34.8465192, 48.0136198], [34.8392142, 48.0505126], [34.8756638, 48.0544638], [34.8551126, 48.133049], [34.9158128, 48.1306035], [34.9147229, 48.0909369], [34.9855916, 48.0966064], [34.9902585, 48.0891896], [35.0389152, 48.0984461], [35.0619578, 48.1219929], [35.1026633, 48.1317639], [35.1636852, 48.1287625], [35.1938103, 48.1396429], [35.1891648, 48.1776176], [35.1958855, 48.2309746]]]}}]}