{"type":"FeatureCollection","features":[{"type":"Feature","properties":{"slug":"don-benito","member_count":16,"matched_count":16,"unmatched":[],"source":"Overture Maps division_area (CC-BY 4.0)"},"geometry":{"type":"Polygon","coordinates":[[[-6.0115928,38.7554913],[-6.04197,38.7498754],[-6.0934159,38.7690193],[-6.1350581,38.8571397],[-6.1904062,38.9109338],[-6.1829356,38.9313259],[-6.1608157,38.9427736],[-6.1645156,38.954114],[-6.1420985,39.0315802],[-6.0786519,39.0937297],[-6.0146079,39.1292131],[-6.0093078,39.0525253],[-5.9816892,39.0688653],[-5.9422891,39.1085142],[-5.9266575,39.1046378],[-5.9255406,39.0938463],[-5.9376429,39.0837854],[-5.9246953,39.0831831],[-5.8720806,39.1042842],[-5.83345,39.110329],[-5.8164339,39.1197504],[-5.8192543,39.1298623],[-5.8103667,39.1445814],[-5.755177,39.132296],[-5.693003,39.0846138],[-5.6709197,39.0808156],[-5.6459355,39.1023229],[-5.6100935,39.0992393],[-5.586929,39.1136302],[-5.5836233,39.1181091],[-5.6011186,39.1337473],[-5.5822327,39.1398793],[-5.5765613,39.1509061],[-5.6142993,39.1878749],[-5.550855,39.2156718],[-5.5281446,39.1914727],[-5.5145781,39.2097129],[-5.5011059,39.1883806],[-5.4598411,39.1583662],[-5.428601,39.1625352],[-5.4138066,39.1566531],[-5.3840224,39.1741861],[-5.4142972,39.051403],[-5.416092,39.0254003],[-5.4100159,39.0202824],[-5.4180427,39.0053586],[-5.4461215,39.0069264],[-5.4679183,38.9951693],[-5.5076543,38.9973759],[-5.5475385,38.978862],[-5.5622284,38.9906037],[-5.5909581,38.9895365],[-5.6311233,39.010809],[-5.6376259,38.9859767],[-5.6598599,38.9866249],[-5.6596348,38.9790713],[-5.6726169,38.9783781],[-5.6691313,38.9719262],[-5.6901122,38.9722099],[-5.6997629,38.9367069],[-5.7263296,38.9382332],[-5.7398963,38.9232755],[-5.7538121,38.9228578],[-5.7781509,38.8945866],[-5.7652218,38.8688751],[-5.770822,38.8521579],[-5.7622375,38.837927],[-5.7738987,38.8160733],[-5.7940214,38.7952776],[-5.8304966,38.8015684],[-5.8905164,38.7271532],[-5.9130222,38.723432],[-5.9334449,38.7399663],[-6.0115928,38.7554913]]]}}]}