{"type":"FeatureCollection","features":[{"type":"Feature","properties":{"slug":"dongying","member_count":5,"matched_count":5,"unmatched":[],"source":"Overture Maps division_area (CC-BY 4.0)"},"geometry":{"type":"MultiPolygon","coordinates":[[[[119.2432019,37.3723402],[118.9549292,37.310961],[118.9296637,37.2959839],[118.8685298,37.2949837],[118.7733426,37.2797046],[118.6692712,37.228164],[118.6729775,37.2231071],[118.6622773,37.2158999],[118.6461793,37.1695479],[118.6473388,37.1548574],[118.6688233,37.1250119],[118.6628723,37.0894129],[118.6255568,37.0639609],[118.552882,37.0566762],[118.5568923,37.0406074],[118.5380403,37.0254669],[118.5824203,37.0116049],[118.5755388,37.0035134],[118.5620942,37.0060704],[118.5604717,36.9984529],[118.5727379,37.0002245],[118.574004,36.9910264],[118.5485206,37.0011199],[118.5468506,36.9790737],[118.5543136,36.9768659],[118.5501147,36.962923],[118.5567054,36.9523608],[118.549245,36.9378829],[118.5021025,36.9425306],[118.4979343,36.9510364],[118.4707421,36.9564807],[118.4602869,36.9406312],[118.4567839,36.9459819],[118.4010744,36.9411629],[118.3894336,36.9476454],[118.3848188,36.9691159],[118.3783113,36.9708639],[118.3335268,36.9562529],[118.2929228,36.9637564],[118.284715,37.009228],[118.31912,37.033162],[118.319192,37.045717],[118.33229,37.05362],[118.32686,37.081381],[118.337399,37.093422],[118.327929,37.103566],[118.34451,37.103738],[118.333681,37.116222],[118.33563,37.132332],[118.371699,37.153444],[118.374438,37.174275],[118.381557,37.175524],[118.369707,37.205378],[118.340994,37.231049],[118.343315,37.243107],[118.355116,37.24414],[118.369663,37.266351],[118.3563874,37.2728751],[118.3619894,37.2787373],[118.335774,37.2865901],[118.3414231,37.291376],[118.3357444,37.2944896],[118.3204459,37.2937531],[118.3203964,37.3053555],[118.3114945,37.3058439],[118.3116456,37.3529532],[118.2552784,37.3628233],[118.2514287,37.3782608],[118.2394604,37.3756228],[118.2374512,37.3665279],[118.2163974,37.3672222],[118.2107589,37.3852528],[118.150067,37.363493],[118.151428,37.377984],[118.128057,37.381272],[118.137973,37.391915],[118.154931,37.389291],[118.162738,37.419644],[118.155033,37.418559],[118.156106,37.429536],[118.144269,37.437521],[118.10878,37.43887],[118.11918,37.458047],[118.10585,37.46471],[118.122293,37.482462],[118.130332,37.515661],[118.169387,37.552711],[118.167014,37.562776],[118.127894,37.557522],[118.133015,37.570245],[118.121348,37.57722],[118.126763,37.587835],[118.142425,37.59237],[118.159527,37.643688],[118.194655,37.666534],[118.243685,37.653568],[118.278522,37.661191],[118.299126,37.682121],[118.301856,37.700209],[118.313405,37.711952],[118.311825,37.727981],[118.330926,37.728566],[118.336081,37.745833],[118.347609,37.749002],[118.347045,37.757193],[118.334893,37.762928],[118.336055,37.776436],[118.343141,37.790789],[118.355374,37.791005],[118.345084,37.8040421],[118.3494918,37.8194039],[118.3388309,37.8234444],[118.339236,37.8317628],[118.3270843,37.8312029],[118.333869,37.8364814],[118.3210084,37.8644673],[118.3065659,37.8610417],[118.2900807,37.8679909],[118.2526579,37.8434163],[118.2435195,37.8718009],[118.2402036,37.8557349],[118.2309062,37.8841176],[118.2376029,37.8948929],[118.2270701,37.9218244],[118.2199833,37.9227476],[118.219073,37.9497715],[118.207435,37.9509507],[118.2180328,37.9587943],[118.2150266,37.9819464],[118.2236893,37.9856],[118.2168625,37.9977438],[118.2245099,38.0567845],[118.219403,38.0780363],[118.2287264,38.0813553],[118.2387042,38.101553],[118.2350349,38.111329],[118.2205725,38.1163263],[118.2309365,38.1267586],[118.2531575,38.329567],[118.9623639,38.3322312],[119.2383959,38.1966403],[119.4145196,37.851544],[119.4145199,37.5965522],[119.2174527,37.4877994],[119.2279242,37.4155729],[119.2432019,37.3723402]],[[118.40494,38.05173],[118.4012452,38.0250506],[118.4091582,38.024408],[118.4121766,38.0520357],[118.40494,38.05173]]],[[[118.1967346,38.0593988],[118.1939155,38.0612398],[118.196724,38.06016],[118.1967346,38.0593988]]]]}}]}