{"type":"FeatureCollection","features":[{"type":"Feature","properties":{"slug":"dothan","member_count":45,"matched_count":6,"unmatched":["Balance of Dale County (US-AL, type='Balance')","Ozark city (US-AL, type='City')","Daleville city (US-AL, type='City')","Midland City city (US-AL, type='City')","Level Plains town (US-AL, type='Town')","Newton town (US-AL, type='Town')","Dothan city (US-AL, type='City')","Ariton town (US-AL, type='Town')","Enterprise city (US-AL, type='City')","Pinckard town (US-AL, type='Town')","Grimes town (US-AL, type='Town')","Clayhatchee town (US-AL, type='Town')","Napier Field town (US-AL, type='Town')","Balance of Geneva County (US-AL, type='Balance')","Slocomb city (US-AL, type='City')","Samson town (US-AL, type='Town')","Malvern town (US-AL, type='Town')","Black town (US-AL, type='Town')","Coffee Springs town (US-AL, type='Town')","Taylor city (US-AL, type='City')","Balance of Henry County (US-AL, type='Balance')","Headland city (US-AL, type='City')","Abbeville city (US-AL, type='City')","Newville town (US-AL, type='Town')","Haleburg town (US-AL, type='Town')","Dothan city (US-AL, type='City')","Dothan city (US-AL, type='City')","Balance of Houston County (US-AL, type='Balance')","Ashford city (US-AL, type='City')","Taylor city (US-AL, type='City')","Kinsey city (US-AL, type='City')","Rehobeth town (US-AL, type='Town')","Cowarts town (US-AL, type='Town')","Webb town (US-AL, type='Town')","Cottonwood town (US-AL, type='Town')","Columbia town (US-AL, type='Town')","Avon town (US-AL, type='Town')","Gordon town (US-AL, type='Town')","Madrid town (US-AL, type='Town')"],"source":"Overture Maps division_area (CC-BY 4.0)"},"geometry":{"type":"MultiPolygon","coordinates":[[[[-85.0861283,31.3531313],[-85.0934132,31.2894789],[-85.1146635,31.2769151],[-85.097072,31.2262162],[-85.1076962,31.1866676],[-85.0990306,31.1807992],[-85.100207,31.16549],[-85.0774691,31.1574779],[-85.0539651,31.1201021],[-85.0358425,31.1086366],[-85.0285964,31.074375],[-85.0088725,31.0466489],[-85.0023758,31.0007167],[-85.998611,30.99287],[-86.1870108,30.9939723],[-86.189949,31.003101],[-86.1932722,31.1921994],[-86.1253963,31.1929087],[-86.1252805,31.1820729],[-86.1166328,31.1820703],[-86.1167242,31.1929979],[-85.791298,31.196295],[-85.789207,31.618048],[-85.4162731,31.6194341],[-85.4160308,31.7067072],[-85.215938,31.7022913],[-85.2061328,31.7422141],[-85.1884751,31.7454731],[-85.1547182,31.7740111],[-85.1308894,31.7668692],[-85.11893,31.732664],[-85.12553,31.694965],[-85.078646,31.6539515],[-85.0868175,31.6392674],[-85.058444,31.6204211],[-85.0579943,31.5708583],[-85.041305,31.540987],[-85.044986,31.51823],[-85.0716996,31.4686447],[-85.0659823,31.4306959],[-85.0753501,31.4266351],[-85.092784,31.3623567],[-85.0861283,31.3531313]]],[[[-81.99213,38.999163],[-82.001822,39.009337],[-81.99413,39.017662],[-81.980936,38.991572],[-81.985738,38.980329],[-81.996906,38.986398],[-81.99213,38.999163]]]]}}]}