{"type": "FeatureCollection", "features": [{"type": "Feature", "properties": {"slug": "dubnica-nad-vahom", "members": 1, "country": "Slovakia", "input_hash": "5f0389246efc492c"}, "geometry": {"type": "Polygon", "coordinates": [[[18.473775, 48.941281], [18.46062, 48.975984], [18.44781, 48.983037], [18.422278, 48.971579], [18.373267, 48.980464], [18.378131, 48.98683], [18.364725, 49.006232], [18.335559, 49.014761], [18.29651, 49.049668], [18.268361, 49.047597], [18.268082, 49.03344], [18.237194, 49.060075], [18.220988, 49.060022], [18.193328, 49.098364], [18.168167, 49.119146], [18.153136, 49.121751], [18.150921, 49.138605], [18.122896, 49.145047], [18.106749, 49.134187], [18.122208, 49.118005], [18.11027, 49.113551], [18.115548, 49.090081], [18.093845, 49.063356], [18.102274, 49.051909], [18.093973, 49.03654], [18.099533, 49.023897], [18.091666, 49.021182], [18.114086, 49.0032], [18.12391, 48.979081], [18.147768, 48.970753], [18.133257, 48.958347], [18.144553, 48.950287], [18.12657, 48.936509], [18.140454, 48.927622], [18.154797, 48.930084], [18.183838, 48.9117], [18.207312, 48.921046], [18.249594, 48.912568], [18.278471, 48.924891], [18.327083, 48.923227], [18.335462, 48.931725], [18.355958, 48.925349], [18.380911, 48.938985], [18.402945, 48.928651], [18.40559, 48.918113], [18.434327, 48.912626], [18.447972, 48.896014], [18.461988, 48.907717], [18.48596, 48.91064], [18.507074, 48.933423], [18.504237, 48.940135], [18.473775, 48.941281]]]}}]}