{"type": "FeatureCollection", "features": [{"type": "Feature", "properties": {"slug": "dundee", "members": 7, "country": "United Kingdom", "input_hash": "c4dd9ffe0675cbe0"}, "geometry": {"type": "Polygon", "coordinates": [[[-2.870166774734212, 56.4624486168035], [-2.915254855502242, 56.467523054481774], [-2.98858511623425, 56.4513311880639], [-3.039295848370949, 56.45101386081303], [-3.051927259565836, 56.45839072077275], [-3.126560896877068, 56.431096052022404], [-3.228817166007536, 56.36824639092967], [-3.301224508635912, 56.353550945438016], [-3.255642167599166, 56.34627700986451], [-3.300622160253088, 56.31398787991739], [-3.293698623130263, 56.28871246522415], [-3.324829967904521, 56.28280880116819], [-3.335533989225943, 56.28945787461255], [-3.383665976365958, 56.26878879983422], [-3.353306583914365, 56.255280026883064], [-3.367492381715666, 56.239768192191974], [-3.27998474452695, 56.233853321211335], [-3.290234157428168, 56.22498894733416], [-3.264868912904648, 56.220061959524344], [-3.274928277283399, 56.2141713378621], [-3.260946851354313, 56.19614479656735], [-3.309126133588799, 56.18531182727017], [-3.296535661091048, 56.17058288607379], [-3.316418646831959, 56.16649187431618], [-3.345448755588697, 56.17294794115574], [-3.371719387337344, 56.16440698419354], [-3.369913543575793, 56.14584697379973], [-3.416637332115413, 56.138427240872005], [-3.453705016967165, 56.15038403212414], [-3.540011091819457, 56.1464683509737], [-3.546106814769207, 56.15853011916413], [-3.563967574824282, 56.159817558820336], [-3.582891930075828, 56.15087843476764], [-3.580956864619053, 56.13931606521915], [-3.628353303761759, 56.13277597241736], [-3.644791514972954, 56.13762528693762], [-3.636666144390418, 56.151295548871325], [-3.647863042080872, 56.15968325836599], [-3.593136921524281, 56.173082634969944], [-3.597981782588528, 56.181097396093115], [-3.582344415381191, 56.18442920107016], [-3.57515450753806, 56.1960945244599], [-3.6181556575655, 56.20561756121542], [-3.63806812202012, 56.196861102179334], [-3.651072294758967, 56.202978170720236], [-3.666941278685705, 56.18863500504772], [-3.686458915780376, 56.19586000127072], [-3.736825646280248, 56.189056710431856], [-3.752194148321086, 56.21191577420143], [-3.780884725962125, 56.21723453415392], [-3.829456339359332, 56.19655648529379], [-3.843894890609776, 56.2018207840171], [-3.847208824384981, 56.225980064951216], [-3.873142080635831, 56.21446953648561], [-3.900711388230676, 56.23411060078348], [-3.916302079829733, 56.224934132860724], [-3.940369073640698, 56.22802667004077], [-4.00528826293909, 56.27494249569071], [-4.037570372712025, 56.269119544232396], [-4.038554578078211, 56.28027164906762], [-4.052213741419455, 56.273499241241915], [-4.078511587613082, 56.2899235837159], [-4.084087759234958, 56.28089715113203], [-4.115702795991878, 56.281039288336196], [-4.139880134132809, 56.297828493475286], [-4.188215806033867, 56.30422689778758], [-4.237273716972938, 56.32904336201324], [-4.222637863118214, 56.342310840982044], [-4.242039451369012, 56.352790256166834], [-4.240632857200217, 56.38439982341009], [-4.196460756666977, 56.38670475628498], [-4.202059115390491, 56.45782901274556], [-4.161899659639137, 56.444736442129745], [-4.134442906972161, 56.46403398123303], [-4.098625162770341, 56.46535477795636], [-4.108236911919188, 56.488367676515516], [-4.154490349117067, 56.51029568703447], [-4.296896146581042, 56.47505377813563], [-4.331235529448939, 56.53902890464723], [-4.365043335867121, 56.547102555588815], [-4.378505339288003, 56.53360333814717], [-4.441989478298835, 56.52574793917947], [-4.477403374485138, 56.51302168114258], [-4.494367043761841, 56.51266857820099], [-4.507428297053463, 56.523374489135726], [-4.528807504416952, 56.518577608001436], [-4.528514608907387, 56.50490927686401], [-4.577276696608334, 56.505232273373274], [-4.625161541734358, 56.48649627089257], [-4.628485931489782, 56.474319575098164], [-4.670847894551062, 56.47976483247079], [-4.68622071445693, 56.49055989539126], [-4.658313074959406, 56.51069557082724], [-4.653736241081951, 56.52602317368206], [-4.659466770519688, 56.534465826763466], [-4.697639124106917, 56.54105750476148], [-4.697598236646989, 56.54996974930831], [-4.599536390149122, 56.57667275845912], [-4.559851543912985, 56.57301623933113], [-4.60982822837371, 56.614824582586564], [-4.626435227000106, 56.61561178599792], [-4.636807842229681, 56.62504040103792], [-4.618337018976896, 56.63779654900418], [-4.629821954446183, 56.6550312553312], [-4.664148228668516, 56.63981302620709], [-4.71543229105816, 56.64234412693552], [-4.717547559753571, 56.676604023485275], [-4.657579627176676, 56.67475781127105], [-4.59202599105827, 56.69319820468318], [-4.591217563607624, 56.70448512510717], [-4.605926704802921, 56.7079753016464], [-4.576004953525415, 56.73480470595656], [-4.589881270170367, 56.75989699656668], [-4.546802295757753, 56.772382557687685], [-4.549661895051233, 56.781962789493505], [-4.520520944149443, 56.805274544443414], [-4.469106429479746, 56.77787305588157], [-4.441851921137721, 56.77385800873425], [-4.374270856034484, 56.83227326507478], [-4.330516996129319, 56.82394546202148], [-4.329728825153357, 56.83698159076431], [-4.303965981094739, 56.85141120381338], [-4.227701893738661, 56.85761666843195], [-4.216959648294962, 56.8690136334824], [-4.199405467270758, 56.87045637774155], [-4.191923958929797, 56.877480247719205], [-4.205546853376732, 56.88446068610767], [-4.174497944357933, 56.91172047190658], [-4.168276331659176, 56.90471169815556], [-4.111462563965778, 56.89474459714089], [-4.034759118999903, 56.901500708381654], [-4.022895421200461, 56.88876576735137], [-4.011552652308098, 56.898034312347086], [-3.999387613292037, 56.890303363116445], [-3.967765647406722, 56.89929234687545], [-3.96940806275866, 56.92939031882904], [-3.950687666158721, 56.94712912726422], [-3.938615531401461, 56.948633250237705], [-3.936369300263308, 56.93544159183875], [-3.900290051337772, 56.93185308938322], [-3.894726381631287, 56.92276806100233], [-3.854834564285749, 56.922800407775284], [-3.824279735255386, 56.9383991178163], [-3.801648046524879, 56.93589254640757], [-3.783499770211022, 56.923092946050986], [-3.740688275905259, 56.933620521720435], [-3.710270950078346, 56.91359066823366], [-3.683553638917152, 56.91612782906212], [-3.675472374082908, 56.93245409174241], [-3.654736322665917, 56.93291004996987], [-3.645822156316804, 56.92305456166043], [-3.583218341329071, 56.93104656030216], [-3.558718413850801, 56.900357283833145], [-3.568461540348814, 56.8946333602021], [-3.560782961877984, 56.884115047984295], [-3.537656201471099, 56.89226707335563], [-3.529250811306494, 56.88361916769423], [-3.502541241454328, 56.887123863248625], [-3.465707322324032, 56.87282228048068], [-3.429832474643475, 56.88655766911293], [-3.42128715945309, 56.87958443261895], [-3.404961997962768, 56.88403230400774], [-3.372138120672992, 56.874626531623186], [-3.337061563122373, 56.89585076584178], [-3.284854300506688, 56.907278472023094], [-3.284246998868539, 56.9285684232886], [-3.173915301019089, 56.90041001354415], [-3.160446202549983, 56.90683368556744], [-3.120336960953424, 56.888458947926345], [-3.10675290191724, 56.89504858676838], [-3.110772499468591, 56.918744282419944], [-3.083168516173125, 56.95844404731313], [-3.026338429244846, 56.97278551374937], [-2.954077276018676, 56.96681285114728], [-2.892426356293464, 56.986816429603614], [-2.851084831403102, 56.97257794604731], [-2.833163531468858, 56.97701966313972], [-2.824505953916544, 56.96194859008702], [-2.765046385205838, 56.95978859715453], [-2.740017037371537, 56.9484986489717], [-2.724683803008539, 56.92584193017252], [-2.686748998551403, 56.91507816177851], [-2.680959044070637, 56.88799282726089], [-2.661142454322805, 56.88573205755398], [-2.670550781371882, 56.842291721742306], [-2.650964700373431, 56.82260791541647], [-2.6527811639648, 56.81043265068941], [-2.631604480202316, 56.80908814622115], [-2.616234410883898, 56.783466160666144], [-2.529978676371377, 56.78521008913334], [-2.462623477431638, 56.7477368576352], [-2.424095500687416, 56.75495447295731], [-2.454607730046229, 56.703485669713295], [-2.435879926431327, 56.70099315211068], [-2.446937166125571, 56.68003869153578], [-2.483569239610104, 56.6716609629734], [-2.511300547613999, 56.651616733602054], [-2.502329339869891, 56.63043340402326], [-2.482860167320552, 56.62874153357875], [-2.480204620775815, 56.62139844810359], [-2.520922698528949, 56.58121834936749], [-2.537516367476913, 56.575991838378535], [-2.537499640456164, 56.56689830629642], [-2.606187576239615, 56.550357957484394], [-2.636734547516967, 56.526818619460265], [-2.716031502924301, 56.49537167546326], [-2.734243647183936, 56.46425252478549], [-2.794956997448172, 56.48050130938626], [-2.870166774734212, 56.4624486168035]]]}}]}