{"type": "FeatureCollection", "features": [{"type": "Feature", "properties": {"slug": "dunedin-nz", "members": 1, "country": "New Zealand", "input_hash": "829fa7d4b34b04ea"}, "geometry": {"type": "MultiPolygon", "coordinates": [[[[170.7149239330124, -45.879064816874006], [170.7156037995415, -45.8806423328263], [170.71368943350694, -45.87964508273952], [170.7149239330124, -45.879064816874006]]], [[[170.63992538297651, -45.837762983272725], [170.64125846654534, -45.838457732656934], [170.63991854993384, -45.83863828293999], [170.63992538297651, -45.837762983272725]]], [[[170.63795215044016, -45.82901219598273], [170.63233736717564, -45.83040873323468], [170.62875255094315, -45.827053066209324], [170.63795215044016, -45.82901219598273]]], [[[170.62651726354017, -45.82602572089106], [170.6265751441624, -45.82304030531631], [170.6272139028532, -45.82535409090049], [170.62651726354017, -45.82602572089106]]], [[[170.42295905058114, -45.29796578314426], [170.42087403422468, -45.30794910027048], [170.39671080081055, -45.32696666636884], [170.32505866692415, -45.324084400133415], [170.3248746839791, -45.36249949950889], [170.28431418296836, -45.34958936693583], [170.284868083757, -45.444276499596235], [170.26567970065193, -45.44412446653233], [170.25722681734686, -45.462085067333035], [170.22676701661769, -45.4820078167865], [170.20922193373931, -45.48190103314084], [170.2093873163655, -45.50671538258145], [170.27368098414757, -45.50559709992421], [170.2853450827889, -45.494577099965305], [170.3100214667882, -45.49786246626659], [170.35929508301086, -45.52123709950439], [170.34172415014712, -45.54580994965491], [170.37748403419383, -45.554530116153984], [170.3876844831307, -45.55409373361902], [170.41933701732137, -45.518734183500115], [170.47643893275534, -45.532972199509956], [170.4815941673141, -45.5092431168952], [170.55290613258265, -45.509369683266186], [170.56180208357543, -45.55394531656742], [170.57285661700067, -45.55464166675577], [170.5841605334966, -45.57060293311686], [170.61153551582282, -45.57581153264666], [170.63019940055574, -45.57096019944223], [170.63678601640694, -45.55978423304826], [170.71560364930838, -45.559479533012656], [170.70869358329605, -45.5510907504803], [170.72713729992853, -45.548942866562456], [170.72524354995352, -45.59594891675213], [170.69461996627032, -45.61929396666298], [170.67406223410583, -45.59835113302609], [170.67086590045272, -45.60768194962854], [170.6823680331938, -45.6122638169663], [170.66402231745477, -45.62392270014597], [170.66315179954336, -45.63987168337836], [170.65779899997185, -45.62827719943696], [170.64616766611903, -45.62154675061841], [170.65942321647645, -45.6416510828351], [170.6742700667579, -45.64024191662992], [170.65434053357984, -45.65076398339045], [170.65280316706503, -45.671008283401136], [170.61005455090287, -45.6964861997645], [170.60089443329775, -45.71076968333873], [170.60211480054932, -45.72811194952957], [170.5966214836629, -45.73078728286302], [170.59127011703984, -45.71333564959153], [170.577735600938, -45.71512588332363], [170.5680524160412, -45.740497633170904], [170.5804974498243, -45.74683439985172], [170.59712711624624, -45.74155301651329], [170.59815603309124, -45.73297193278507], [170.61813465007074, -45.734297316210935], [170.62967059996268, -45.74865823276393], [170.6178111329116, -45.74952373312796], [170.62610100020376, -45.763316417040265], [170.63337556707688, -45.75176514935434], [170.62697588352023, -45.74170763325613], [170.63853818399323, -45.73848919964523], [170.66129070027137, -45.760196766738694], [170.68823486663737, -45.76133024994269], [170.6921649331587, -45.7554054497167], [170.70093463305614, -45.77037953276384], [170.71179761671615, -45.77585533333583], [170.71798681586628, -45.78673228281143], [170.70782500060773, -45.781052983207424], [170.62864883509468, -45.79642158061004], [170.6226325760363, -45.80762273091826], [170.62915396596313, -45.81935669952517], [170.61837656728267, -45.82750735013062], [170.61402559972493, -45.8195699167029], [170.60545346661638, -45.820827616177816], [170.56690658302273, -45.862573349410894], [170.50612023314176, -45.88031855002792], [170.51856695011344, -45.89357013295254], [170.52870034971085, -45.88096460000239], [170.57387078404054, -45.87918978326335], [170.59683111730695, -45.86964634982154], [170.60249038339484, -45.84557198315768], [170.61563063420675, -45.849262216120685], [170.65063793353642, -45.83958636670219], [170.64311073390766, -45.8241225495044], [170.65673135005503, -45.837363482790295], [170.67144286643946, -45.833307616431235], [170.67016531729485, -45.81354976657965], [170.7210441164341, -45.798225149674195], [170.72830508372425, -45.772192300081436], [170.74770123324595, -45.78719488334077], [170.74107413301522, -45.79632018350594], [170.75089779949175, -45.80457230010152], [170.7337756670476, -45.82307968306858], [170.7323339002612, -45.84504934950475], [170.69556553295897, -45.8380540996315], [170.68022095041695, -45.84620816656493], [170.69089851641223, -45.85456774975183], [170.74852696757964, -45.845869400454134], [170.74147040042178, -45.861486200091456], [170.7506895672418, -45.867830383033905], [170.7409835166059, -45.87820264960737], [170.70818699915935, -45.87513318285148], [170.68046300057946, -45.88132380009144], [170.68137896740626, -45.877408749697835], [170.67386643328913, -45.8720994832847], [170.6874166166391, -45.86946274999589], [170.68683659973124, -45.862268183430174], [170.66059808309345, -45.851012733370446], [170.6579255168276, -45.864829566101136], [170.68724414998363, -45.891998500331205], [170.6630740337771, -45.90381641607509], [170.60733606615648, -45.89740749939554], [170.56730658312853, -45.909539616338144], [170.49818711675144, -45.91073523273939], [170.4396597169719, -45.92422341719731], [170.43225376679507, -45.93229200011234], [170.40291743235045, -45.930552200022795], [170.3420106496969, -45.942744766724275], [170.28961154948294, -45.968025466482935], [170.2446924167448, -46.00875108320935], [170.21293663370574, -46.051082917192645], [170.20365898358455, -46.05205801687643], [170.15953014944535, -45.996287649730405], [170.10735461694358, -45.98585713260887], [170.1033301004716, -45.97777176652149], [170.1223196330767, -45.97526333294566], [170.12733006720183, -45.96024745047751], [170.114487599998, -45.950279532583906], [170.09999153314428, -45.95134441666699], [170.1021298000546, -45.945402166582895], [170.09131341688516, -45.94138710055695], [170.09472328316775, -45.93171733342368], [170.02081798424265, -45.924257849576456], [170.0217807338475, -45.854540283370376], [170.05029588262335, -45.85460379949174], [170.05066568389034, -45.77882138299848], [170.01079246617672, -45.77070608278462], [169.99400596641902, -45.751018683208535], [169.97595546650243, -45.75571448276002], [169.95791320023824, -45.744024983404685], [169.945904383246, -45.72068284972151], [169.91930930037347, -45.714379499984915], [169.903529715958, -45.73113328272987], [169.90440460013272, -45.74620819930905], [169.879091082465, -45.762970416645736], [169.85674778279852, -45.753258832857206], [169.82711079989215, -45.763192266593386], [169.81807841746212, -45.775494683217495], [169.79737741602608, -45.77815941596773], [169.75863703335364, -45.76105618263424], [169.76035114953217, -45.7412124325937], [169.74404239916024, -45.733377266480375], [169.73658666675152, -45.71227573321017], [169.76146358414218, -45.674380099817526], [169.7808721163612, -45.668008449555295], [169.77802458339306, -45.65583658281662], [169.795670200187, -45.642242016523724], [169.80169283360115, -45.60343656604328], [169.8188271502588, -45.575923566020926], [169.81193136582465, -45.57132053271816], [169.813698116806, -45.560843666459675], [169.84262031725933, -45.54934880003458], [169.90608508312542, -45.542158766017835], [169.91379105022446, -45.5232187664101], [169.9064483826361, -45.497121066306185], [169.93126569989087, -45.499266183569304], [169.99410953354453, -45.47787886607115], [170.00524983387922, -45.48394131597885], [170.0295336341759, -45.47647383321371], [170.0861865338502, -45.4089058668133], [170.1281727002204, -45.38023181639928], [170.1200543325435, -45.35251320012484], [170.1563023006293, -45.327587666386854], [170.18648153317645, -45.265024499868595], [170.21648395088758, -45.257323533362424], [170.21664714998857, -45.23465923309187], [170.25448471658208, -45.22896709962522], [170.25855650000256, -45.236252832961796], [170.313765633006, -45.235840499835604], [170.31354858318358, -45.268418899384265], [170.39413783355937, -45.26857071673856], [170.42295905058114, -45.29796578314426]], [[170.52015981735954, -45.89413115014376], [170.52819550077922, -45.892558232900406], [170.521549834211, -45.8909601165483], [170.52015981735954, -45.89413115014376]], [[170.5798162338824, -45.74778496657636], [170.5815607332387, -45.75011903287742], [170.58646483308553, -45.75454406621592], [170.5798162338824, -45.74778496657636]]]]}}]}