{"type": "FeatureCollection", "features": [{"type": "Feature", "properties": {"slug": "durban", "members": 2, "country": "South Africa", "input_hash": "745a9ee7b5ceb9f7"}, "geometry": {"type": "Polygon", "coordinates": [[[31.18409, -29.57673], [31.12837, -29.65292], [31.0414724, -29.8082962], [31.0370059, -29.8442047], [31.0482585, -29.8674454], [31.0641901, -29.8651972], [31.06069, -29.87721], [30.96852, -29.98233], [30.89209, -30.04904], [30.8051544, -30.1967564], [30.7824265, -30.2500723], [30.7642829, -30.2684543], [30.7561499, -30.2677001], [30.7353629, -30.2294129], [30.6924319, -30.1985479], [30.7030099, -30.1877899], [30.6944999, -30.1670599], [30.7104299, -30.1699699], [30.7159299, -30.1584401], [30.7213799, -30.1717199], [30.7477399, -30.1739299], [30.7498599, -30.1593399], [30.7184201, -30.1439099], [30.7734899, -30.1493699], [30.7881399, -30.1187999], [30.8044799, -30.1183499], [30.8286699, -30.0817199], [30.7775371, -30.0135483], [30.7346971, -30.0137483], [30.7230671, -30.0354683], [30.7342973, -30.0494485], [30.7166571, -30.0359383], [30.6666299, -30.0252599], [30.6661799, -30.0094299], [30.6929399, -29.9998901], [30.7007554, -29.9867218], [30.6884267, -29.9781214], [30.6682067, -29.9854514], [30.6536899, -29.9790699], [30.6752501, -29.9222209], [30.6585499, -29.9217201], [30.6641199, -29.9110199], [30.6566099, -29.9082799], [30.6579399, -29.8950999], [30.6501301, -29.8931599], [30.6460699, -29.9044299], [30.6213799, -29.8851399], [30.6218299, -29.8550599], [30.6081999, -29.8343699], [30.5748779, -29.8472349], [30.5844599, -29.7592001], [30.5760099, -29.7461299], [30.5657201, -29.7460201], [30.5693899, -29.7316499], [30.5599999, -29.7282899], [30.5852799, -29.6543899], [30.6221699, -29.6683499], [30.6363468, -29.6433306], [30.6345999, -29.6609199], [30.6473599, -29.6641099], [30.6504699, -29.6430299], [30.6712101, -29.6475301], [30.6652799, -29.6371299], [30.6482299, -29.6389999], [30.6442801, -29.6316999], [30.6696399, -29.6294199], [30.6741299, -29.6046599], [30.7286199, -29.6041801], [30.727097349909645, -29.570891113180277], [30.7036199, -29.5667899], [30.7036699, -29.5491299], [30.7099599, -29.5270801], [30.7226099, -29.5276899], [30.7244499, -29.5023501], [30.7427299, -29.4803999], [30.7480899, -29.4534309], [30.7681299, -29.4550401], [30.7661801, -29.4879899], [30.7903099, -29.4762799], [30.7935499, -29.4495499], [30.8500659, -29.4036969], [30.8883919, -29.4156129], [30.9194899, -29.3847199], [30.8837199, -29.3732299], [30.8846399, -29.3457499], [30.8545999, -29.3221299], [30.8575199, -29.3023999], [30.8718399, -29.2893401], [30.8681499, -29.2840399], [30.8793199, -29.2840799], [30.8771899, -29.2755899], [30.8980399, -29.2883899], [30.9049899, -29.2703599], [30.9173499, -29.2808001], [30.9265099, -29.2715599], [30.9725399, -29.2736801], [30.9837199, -29.2662601], [30.9861899, -29.2227699], [30.9485699, -29.1997599], [30.9502499, -29.1918399], [30.9381999, -29.1842899], [30.9484899, -29.1827499], [30.9390899, -29.1783501], [30.9326599, -29.1845399], [30.9206299, -29.1746199], [30.8947499, -29.1803399], [30.8912199, -29.1735999], [30.9024699, -29.1697299], [30.8811099, -29.1600901], [30.8698701, -29.1636199], [30.8683601, -29.1511899], [30.8510199, -29.1407749], [30.8765899, -29.1246199], [30.9111299, -29.1158099], [30.9053199, -29.0996999], [30.9367199, -29.0801999], [30.9510799, -29.0921099], [30.9740499, -29.0805899], [31.0237799, -29.0788301], [31.0012199, -29.0433099], [30.9801799, -28.9698899], [30.9470999, -28.9698099], [30.9664099, -28.9594501], [30.9602901, -28.9533901], [30.9450999, -28.9594199], [30.9457699, -28.9505899], [30.9220799, -28.9484199], [30.9379301, -28.9334699], [30.9192199, -28.9084899], [30.9249899, -28.9008401], [30.9727599, -28.8736499], [30.9823499, -28.8806701], [30.9956288, -28.8551328], [31.0266244, -28.8608459], [31.0365999, -28.8729399], [31.0267599, -28.8943299], [31.0370707, -28.9134297], [31.0318899, -28.9340099], [31.0730699, -28.9587099], [31.0761599, -28.9896701], [31.0911799, -28.9949299], [31.0984499, -28.9895801], [31.0809284, -28.9637215], [31.0836199, -28.9565099], [31.1249649, -28.9589998], [31.1290499, -28.9703601], [31.1178625, -28.9853186], [31.1174299, -29.0003899], [31.134012, -29.0319233], [31.1555878, -29.0473933], [31.1786842, -29.0461248], [31.175715, -29.0737577], [31.2077218, -29.0892191], [31.218558, -29.1095409], [31.2325242, -29.109255], [31.2447699, -29.1196499], [31.2488186, -29.1470921], [31.2686099, -29.1406999], [31.2792399, -29.1172499], [31.2901299, -29.1145499], [31.2983899, -29.1418801], [31.2845801, -29.1630601], [31.3047299, -29.1746799], [31.3048899, -29.1570999], [31.3256, -29.13852], [31.31829, -29.12841], [31.33407, -29.12894], [31.32543, -29.12241], [31.3377799, -29.1166899], [31.3241099, -29.1120899], [31.3340999, -29.1089101], [31.3277299, -29.1027999], [31.3462299, -29.1014899], [31.3403499, -29.0868299], [31.3615199, -29.0919599], [31.3869699, -29.0677001], [31.3856299, -29.0581401], [31.3632899, -29.0598499], [31.3744399, -29.0508399], [31.3787599, -29.0061001], [31.3878599, -28.9968799], [31.4423699, -28.9967899], [31.4580399, -28.9818601], [31.4616501, -29.0015099], [31.4501399, -29.0041599], [31.4496099, -29.0140699], [31.4699299, -29.0043199], [31.4721299, -29.0250099], [31.4997199, -29.0278099], [31.5008099, -29.0365999], [31.5121499, -29.0347399], [31.5128101, -29.0470799], [31.5189599, -29.0460099], [31.5144499, -29.0383299], [31.5242799, -29.0379799], [31.5295899, -29.0566899], [31.5417699, -29.0575201], [31.5385599, -29.0505299], [31.5631799, -29.0617101], [31.5776699, -29.0536501], [31.6753169, -29.0548963], [31.57129, -29.16817], [31.4899763, -29.2310508], [31.4373846, -29.2931478], [31.3392117, -29.3837845], [31.3353346, -29.3962381], [31.2349732, -29.5086273], [31.22352, -29.53658], [31.18409, -29.57673]], [[31.17232, -29.56217], [31.17436, -29.55807], [31.173998089177307, -29.557038169143816], [31.17232, -29.56217]], [[31.1739555799923, -29.556916972744], [31.17389, -29.55673], [31.17065, -29.55719], [31.1739555799923, -29.556916972744]], [[30.8362099, -29.6175299], [30.8314199, -29.6154301], [30.830226981731748, -29.61596687345677], [30.8362099, -29.6175299]], [[30.7272199, -29.5707699], [30.7257099, -29.5663199], [30.727148332235352, -29.570840687025395], [30.7272199, -29.5707699]], [[31.17487, -29.56925], [31.174994364746063, -29.56927896234185], [31.17308506046249, -29.5672127432692], [31.17487, -29.56925]], [[31.1728199, -29.5669101], [31.17286799298901, -29.56696499136383], [31.172626971194116, -29.565080730460572], [31.1728199, -29.5669101]]]}}]}