{"type": "FeatureCollection", "features": [{"type": "Feature", "properties": {"slug": "durres", "members": 2, "country": "Albania", "input_hash": "57055a05d104752a"}, "geometry": {"type": "Polygon", "coordinates": [[[19.6137899, 41.4041099], [19.6201033, 41.3770189], [19.6055816, 41.3711955], [19.6164943, 41.3735566], [19.624056, 41.3608688], [19.645344, 41.35648], [19.6295325, 41.3362733], [19.6495464, 41.3265654], [19.6439394, 41.2940097], [19.6039705, 41.2717109], [19.5865334, 41.2498309], [19.5661918, 41.2636585], [19.5435159, 41.2632282], [19.528926, 41.2717916], [19.5237659, 41.264723], [19.4828104, 41.3099868], [19.467293, 41.3148162], [19.458495, 41.3080522], [19.4536921, 41.3147367], [19.4519213, 41.3008056], [19.418572, 41.3259039], [19.4201649, 41.3661], [19.4185077, 41.3708534], [19.4133504, 41.3688824], [19.4120441, 41.3687361], [19.409289, 41.3711422], [19.4226017, 41.3747895], [19.4218416, 41.3757932], [19.4176683, 41.3739429], [19.4093643, 41.3731283], [19.4091148, 41.3739033], [19.413496, 41.373626], [19.421828, 41.3759228], [19.4134142, 41.3736757], [19.4085318, 41.374066], [19.4048728, 41.3768847], [19.4224152, 41.3762131], [19.4156045, 41.3785676], [19.4230144, 41.3824726], [19.3913858, 41.4136089], [19.4218594, 41.3970589], [19.4421262, 41.4014652], [19.447394, 41.4060381], [19.4476515, 41.4116366], [19.4305073, 41.404183], [19.5004749, 41.4721594], [19.5136638, 41.5177028], [19.5053419, 41.5403885], [19.4609203, 41.5567861], [19.4444801, 41.5878466], [19.5094786, 41.5687419], [19.5645053, 41.5776764], [19.6044236, 41.5523872], [19.6171591, 41.5197056], [19.5796466, 41.4898485], [19.6226734, 41.4463136], [19.6163827, 41.4400848], [19.6249411, 41.4243977], [19.6137899, 41.4041099]], [[19.611664074388496, 41.407314625016014], [19.6113849, 41.407626], [19.6092501, 41.4047446], [19.611664074388496, 41.407314625016014]], [[19.493624, 41.3697382], [19.490988, 41.3674646], [19.491172707251206, 41.367217028430595], [19.493624, 41.3697382]], [[19.5861645, 41.2949796], [19.5981755, 41.2919166], [19.604571473899586, 41.29179477192572], [19.5861645, 41.2949796]], [[19.6067768, 41.2914132], [19.60620234323531, 41.29151259417753], [19.60648773843526, 41.29095942928339], [19.6067768, 41.2914132]], [[19.6047512, 41.2882334], [19.6047172, 41.2857351], [19.605563596003616, 41.28549174547615], [19.6047512, 41.2882334]]]}}]}