{"type":"FeatureCollection","features":[{"type":"Feature","properties":{"slug":"east-stroudsburg","member_count":21,"matched_count":21,"unmatched":[],"source":"Overture Maps division_area (CC-BY 4.0)"},"geometry":{"type":"MultiPolygon","coordinates":[[[[-79.3629953,41.1344742],[-79.3648177,41.0921759],[-79.4513956,41.0832514],[-79.4493495,41.1474932],[-79.4327842,41.1583658],[-79.433312,41.191773],[-79.4270893,41.1763184],[-79.4171544,41.1806144],[-79.4034215,41.2229295],[-79.3716084,41.1611122],[-79.3611928,41.1623302],[-79.3541418,41.1454895],[-79.3629953,41.1344742]]],[[[-75.208855,40.93515],[-75.242569,40.90807],[-75.232948,40.8998533],[-75.2840394,40.8660401],[-75.384609,40.8296772],[-75.4744558,40.8148384],[-75.5751209,40.9522956],[-75.4977519,40.9875598],[-75.5699837,41.0500234],[-75.5769454,41.068004],[-75.6056303,41.0848503],[-75.604391,41.0939229],[-75.6134354,41.0946749],[-75.6203019,41.1094374],[-75.6463732,41.1131395],[-75.6492873,41.1246883],[-75.6344407,41.1231048],[-75.6251723,41.1307348],[-75.6283789,41.1371432],[-75.6156721,41.1505644],[-75.6030959,41.151929],[-75.5984974,41.1723248],[-75.576782,41.1779],[-75.5697309,41.1989524],[-75.5396971,41.2255781],[-75.5168678,41.219364],[-75.5087423,41.232679],[-75.1297124,41.2521312],[-75.1565004,41.1503216],[-75.0771499,41.14104],[-75.0269848,41.0813515],[-74.993942,41.0938539],[-74.9896548,41.0881764],[-74.9669357,41.0916985],[-75.0131,41.0667079],[-75.0273987,41.0394356],[-75.1279736,40.9935799],[-75.135543,40.9733519],[-75.1203575,40.9685382],[-75.1292266,40.9589283],[-75.173767,40.947674],[-75.1808445,40.9374311],[-75.208855,40.93515]]]]}}]}