{"type":"FeatureCollection","features":[{"type":"Feature","properties":{"slug":"eastbourne","member_count":13,"matched_count":13,"unmatched":[],"source":"Overture Maps division_area (CC-BY 4.0)"},"geometry":{"type":"Polygon","coordinates":[[[-0.045996686695831,50.821830447413454],[-0.036870746975614,50.841244585191596],[-0.073469936325649,50.84125028296342],[-0.084955326418054,50.873125182530124],[-0.13531137417424,50.87811083952911],[-0.119753368873765,50.94234632289785],[-0.104197392081055,50.94648174113855],[-0.115241504205778,50.97608213257709],[-0.07364569118814,50.99167957891243],[-0.061618092555708,50.97842495321345],[-0.024630329201187,50.98002926787592],[-0.016436062375835,51.00251769014746],[-0.021940270439334,51.026516179823396],[-0.001592077928772,51.03575862694325],[-0.003028428538147,51.047567974062964],[0.013698834915562,51.057016173312775],[-0.008574972405961,51.05646166685883],[-0.013283613552698,51.07397081258637],[-0.026879175981034,51.07511664610007],[-0.036240674562329,51.09343334106834],[0.010446033398736,51.10218608139342],[0.009477824255288,51.110395561028724],[0.01859145328412,51.10357907132078],[0.044533986024465,51.11064750622594],[0.028125446512147,51.117723168715635],[0.027334028372004,51.13985399448486],[0.049989510910868,51.142653384555544],[0.133090725115682,51.14728146987857],[0.160721494704462,51.137322130859594],[0.151174298123618,51.123832783969576],[0.17160139443134,51.11541318515191],[0.226257216349151,51.12447037120982],[0.275643052284733,51.1123576154697],[0.273907692968437,51.120080831082305],[0.325150241628882,51.12291937035465],[0.334676319276027,51.10556700566308],[0.358932550824402,51.10448099164335],[0.35079287493208,51.08407098917138],[0.396445915447832,51.08309875116916],[0.41823896326336,51.062629658949476],[0.463238450127382,51.05478950605845],[0.472286230395274,51.03044431279643],[0.537570832321637,51.02167629368164],[0.541877073066585,51.01100930708883],[0.568351492219456,51.00381761758855],[0.661324446931575,51.01779043658286],[0.676925246308706,51.00330209176072],[0.70673948089104,50.99360515307613],[0.740579164162487,51.00067954034389],[0.77892346813534,50.989494373720106],[0.777101927692887,50.97543081313454],[0.784294614929082,50.97723203607539],[0.812908003684726,50.9420016701868],[0.841366648890375,50.95761048132687],[0.855932830918357,50.95313005968153],[0.867855896003071,50.93326349786493],[0.855043492308369,50.923911844862516],[0.77197601409146,50.9312526441658],[0.658547405696288,50.86992452831627],[0.377462327116011,50.82035848437402],[0.260327478432591,50.73858500933263],[0.209938322708729,50.73849104863013],[0.148911373537535,50.75906097441841],[0.121939462998425,50.75830943975129],[0.05830827756077,50.782149535391746],[0.05851894390578,50.77590218443287],[-0.038592037185652,50.79908308967983],[-0.016030738158097,50.814880794810904],[-0.020456814611307,50.821836099578604],[-0.045996686695831,50.821830447413454]]]}}]}