{"type":"FeatureCollection","features":[{"type":"Feature","properties":{"slug":"eau-claire","member_count":3,"matched_count":3,"unmatched":[],"source":"Overture Maps division_area (CC-BY 4.0)"},"geometry":{"type":"Polygon","coordinates":[[[-90.924988,45.291855],[-90.9222548,44.5963599],[-91.6503708,44.5966515],[-91.6503505,44.6835735],[-92.1353446,44.6843681],[-92.1361822,45.1214729],[-92.1570764,45.1215162],[-92.1563967,45.209507],[-91.542587,45.206688],[-91.541298,45.292149],[-90.924988,45.291855]]]}}]}