{"type": "FeatureCollection", "features": [{"type": "Feature", "properties": {"slug": "egilsstair", "members": 1, "country": "Iceland", "input_hash": "90350ac03671bd5e"}, "geometry": {"type": "MultiPolygon", "coordinates": [[[[-14.1542745, 64.5971846], [-14.1509512, 64.59031], [-14.1585499, 64.5859926], [-14.1841811, 64.5905355], [-14.1824699, 64.597868], [-14.1542745, 64.5971846]]], [[[-14.010316, 65.2641013], [-13.8567013, 65.2924216], [-13.7228948, 65.2853791], [-13.6968505, 65.2983553], [-13.5763335, 65.2714944], [-13.7739738, 65.220619], [-13.9962807, 65.2156271], [-14.2610653, 65.1686598], [-14.2581643, 65.1442826], [-14.0995778, 65.1372726], [-14.0984712, 65.1214478], [-14.1261379, 65.1130662], [-14.2069247, 65.1112033], [-14.2135647, 65.0879055], [-14.3552184, 65.089304], [-14.4282585, 65.065987], [-14.4315786, 65.0234978], [-14.480272, 64.9968491], [-14.4046663, 64.9614066], [-14.6090558, 64.8925157], [-14.557926, 64.8611185], [-14.4303948, 64.8228823], [-14.2786998, 64.7554087], [-14.1511686, 64.7445285], [-14.0765601, 64.7028696], [-14.2282125, 64.6876876], [-14.2959839, 64.6973427], [-14.3097958, 64.7061204], [-14.3243963, 64.7032181], [-14.3347871, 64.7065943], [-14.342351, 64.7264973], [-14.35222, 64.72937], [-14.3492389, 64.7348831], [-14.3725419, 64.73361], [-14.3759711, 64.7512723], [-14.3921596, 64.7472714], [-14.41213, 64.7674699], [-14.4421828, 64.7722505], [-14.4360459, 64.7759954], [-14.4405198, 64.7852662], [-14.5000299, 64.7933699], [-14.5052179, 64.7883302], [-14.4557637, 64.7732128], [-14.4770589, 64.7644528], [-14.4748296, 64.7560663], [-14.4256129, 64.7459355], [-14.4128341, 64.730647], [-14.4016573, 64.7332723], [-14.3939969, 64.7049509], [-14.3438765, 64.6890724], [-14.3474231, 64.680405], [-14.3399521, 64.6730873], [-14.2933477, 64.6684739], [-14.2937334, 64.6614332], [-14.2773401, 64.6603779], [-14.2816236, 64.6564487], [-14.2593109, 64.6648402], [-14.2657199, 64.6598608], [-14.2545563, 64.6496781], [-14.2249624, 64.6457811], [-14.2576064, 64.6312218], [-14.2609942, 64.6371988], [-14.2998541, 64.6356959], [-14.3293, 64.6504567], [-14.3557941, 64.6480189], [-14.3948174, 64.6585562], [-14.49663, 64.6539799], [-14.4945395, 64.6445095], [-14.4684255, 64.6353122], [-14.43079, 64.6352], [-14.4247197, 64.6241717], [-14.4079467, 64.6239342], [-14.4048035, 64.6006842], [-14.4270364, 64.5889139], [-14.4736664, 64.5927389], [-14.4881039, 64.5847114], [-14.4952476, 64.5885697], [-14.4906766, 64.5936567], [-14.5427294, 64.5856247], [-14.5430436, 64.5914775], [-14.5642638, 64.5920403], [-14.5619026, 64.5858909], [-14.5871723, 64.5763989], [-14.5757568, 64.5705855], [-14.5808519, 64.5626684], [-14.5656181, 64.55589], [-14.5852874, 64.5431426], [-14.5805284, 64.5389889], [-14.5603607, 64.5329245], [-14.5251646, 64.5430526], [-14.4994446, 64.5337827], [-14.4675243, 64.5441081], [-14.4868255, 64.5306163], [-14.4870722, 64.5200327], [-14.4577503, 64.542547], [-14.4257677, 64.5558992], [-14.4022823, 64.5781353], [-14.3481338, 64.6003854], [-14.3400872, 64.5958015], [-14.4071317, 64.5701893], [-14.4186974, 64.5547561], [-14.4756889, 64.5249247], [-14.4817185, 64.5095581], [-14.4641959, 64.4983769], [-14.501781, 64.465645], [-14.5076352, 64.4487649], [-14.5368997, 64.4474], [-14.5583997, 64.4566], [-14.5522997, 64.4645], [-14.5699997, 64.4688], [-14.5738997, 64.4776], [-14.5988997, 64.4734], [-14.6094997, 64.4597], [-14.6275997, 64.4598], [-14.6613997, 64.4661], [-14.6711997, 64.4774], [-14.7306997, 64.4836], [-14.7561997, 64.4911], [-14.7653997, 64.5006], [-14.7635997, 64.5116], [-14.7768997, 64.5191], [-14.9633997, 64.5141], [-15.0151012, 64.5632314], [-15.0152087, 64.5723925], [-15.0054902, 64.5761575], [-15.0561474, 64.6157482], [-15.0214894, 64.6597727], [-15.0860241, 64.6638054], [-15.1231101, 64.6830076], [-15.0973002, 64.7202003], [-15.0436002, 64.7675003], [-15.0391002, 64.7809003], [-14.9575002, 64.8065003], [-14.9455002, 64.8845003], [-14.9730002, 64.9153003], [-14.9712002, 64.9285003], [-14.8985655, 64.9755999], [-14.8631283, 65.0086525], [-14.834526, 65.0598353], [-14.8432002, 65.0705003], [-14.6989002, 65.1393003], [-14.7626048, 65.1611269], [-14.7882092, 65.1519922], [-14.8192209, 65.1615392], [-14.8167157, 65.1679898], [-14.9983, 65.1822], [-15.0173, 65.1625], [-15.123, 65.1133], [-15.1355, 65.0918], [-15.1691, 65.0655], [-15.3132, 65.005], [-15.4265, 64.9453], [-15.509, 64.8806], [-15.5224, 64.8471], [-15.5026, 64.8404], [-15.5576, 64.8265], [-15.5694, 64.8162], [-15.5593, 64.7975], [-15.6163, 64.7771], [-15.6233, 64.7652], [-15.609, 64.7618], [-15.6734, 64.7263], [-15.6513, 64.6927], [-15.6589, 64.6553], [-16.1217, 64.4388], [-16.7971, 64.4222], [-16.6652266, 64.8194923], [-16.6686416, 64.8362215], [-16.6367769, 64.8501775], [-16.6075301, 64.8792521], [-16.6016937, 64.896436], [-16.5788841, 64.9111069], [-16.4853072, 64.9353618], [-16.4328218, 64.9380615], [-16.3934684, 64.9592133], [-16.3492193, 65.0014838], [-16.3156059, 65.0096392], [-16.2386879, 65.0110723], [-16.2034372, 65.0398932], [-16.1909059, 65.0414868], [-16.198974, 65.0459774], [-16.1858419, 65.0573091], [-16.2188009, 65.065271], [-16.2084154, 65.0922151], [-16.1917522, 65.1039355], [-16.2061718, 65.1316256], [-16.1914209, 65.1502422], [-16.215196, 65.1781093], [-16.2037004, 65.1802428], [-16.1869807, 65.2111746], [-16.142728, 65.2478264], [-16.0806022, 65.2633888], [-16.0505226, 65.2801186], [-16.0351495, 65.3120311], [-16.011728, 65.3193207], [-16.0054627, 65.3337874], [-16.0241964, 65.3453026], [-16.0276047, 65.357816], [-16.0716405, 65.3817076], [-16.1389931, 65.4013158], [-16.166918, 65.4361444], [-16.1589579, 65.4483465], [-16.1403498, 65.4492056], [-16.1358387, 65.474341], [-16.0831261, 65.5004814], [-16.0268989, 65.5686025], [-15.697403, 65.5469686], [-15.5234434, 65.4896617], [-15.4414658, 65.4404914], [-15.3103018, 65.4745422], [-15.1864246, 65.4427628], [-15.1026253, 65.4412485], [-14.9113444, 65.4662228], [-14.8512276, 65.5085487], [-14.7783586, 65.5115694], [-14.7728935, 65.6035318], [-14.6362642, 65.6042842], [-14.5342477, 65.6336127], [-14.5059027, 65.6796807], [-14.3855935, 65.7303509], [-14.3753421, 65.7110659], [-14.3176898, 65.6835984], [-14.1154039, 65.6208601], [-13.9772555, 65.6002754], [-13.9336762, 65.615563], [-13.8588882, 65.6091306], [-13.84476, 65.587557], [-13.8834012, 65.5812265], [-13.883947, 65.5730549], [-13.8169052, 65.5674042], [-13.8178842, 65.5426234], [-13.8084163, 65.5431362], [-13.8154895, 65.5282631], [-13.7968403, 65.5210278], [-13.7696027, 65.5222438], [-13.7529916, 65.5411944], [-13.7582683, 65.5441127], [-13.7504885, 65.5413444], [-13.7344783, 65.5530671], [-13.6819648, 65.5532831], [-13.6740684, 65.5507521], [-13.6847757, 65.5273911], [-13.6700973, 65.5243241], [-13.6496481, 65.5332467], [-13.63355, 65.5150112], [-13.6065825, 65.5114466], [-13.6212305, 65.4899988], [-13.6200226, 65.4646426], [-13.6491782, 65.46499], [-13.6593447, 65.4565988], [-13.6328767, 65.4266424], [-13.6424292, 65.4150954], [-13.6743865, 65.4071061], [-13.6673806, 65.4044674], [-13.6706065, 65.3992504], [-13.6552241, 65.398194], [-13.6583216, 65.3928715], [-13.6494025, 65.3867199], [-13.7290393, 65.3572878], [-13.8319956, 65.3652302], [-13.859626, 65.3593545], [-13.7278515, 65.3359966], [-13.7235868, 65.3268169], [-13.7695491, 65.3077667], [-13.8684073, 65.3086082], [-13.9220247, 65.2907995], [-13.9993018, 65.2783131], [-14.010316, 65.2641013]]]]}}]}