{"type":"FeatureCollection","features":[{"type":"Feature","properties":{"slug":"el-ejido","member_count":10,"matched_count":10,"unmatched":[],"source":"Overture Maps division_area (CC-BY 4.0)"},"geometry":{"type":"Polygon","coordinates":[[[-2.6591887,36.6973859],[-2.699759,36.6832425],[-2.7602881,36.6800865],[-2.8139361,36.7060398],[-2.8481966,36.6950935],[-2.8993665,36.7395041],[-2.9247215,36.7518873],[-2.9776326,36.7383474],[-3.0204862,36.7470265],[-3.0197759,36.7406716],[-3.0356773,36.7475598],[-3.1289525,36.7509993],[-3.1401874,36.7877914],[-3.0739529,36.8246839],[-3.0373812,36.8353985],[-3.0290073,36.8444414],[-3.0320762,36.8609455],[-3.0432712,36.8791237],[-3.0566399,36.8850586],[-3.0348018,36.884814],[-3.0258983,36.9052152],[-3.0164025,36.9082184],[-2.9314257,36.9197356],[-2.8833388,36.905247],[-2.8316862,36.9025879],[-2.8181322,36.9237517],[-2.7707718,36.9054595],[-2.768165,36.891554],[-2.7381986,36.9244211],[-2.7199454,36.9143551],[-2.6347136,36.916935],[-2.6068065,36.907732],[-2.5872107,36.9112171],[-2.5776448,36.9216491],[-2.568452,36.9132686],[-2.566926,36.8774755],[-2.5444452,36.8632924],[-2.525183,36.8245694],[-2.568551,36.8110326],[-2.5993562,36.7754836],[-2.6164284,36.7311941],[-2.6591887,36.6973859]]]}}]}