{"type": "FeatureCollection", "features": [{"type": "Feature", "properties": {"slug": "el-jadida", "members": 1, "country": "Morocco", "input_hash": "c39ed5334cf778ff"}, "geometry": {"type": "MultiPolygon", "coordinates": [[[[-8.7524235, 32.9805972], [-8.7497842, 32.9756471], [-8.7543225, 32.9768711], [-8.7524235, 32.9805972]]], [[[-8.8859142, 32.6926103], [-8.9336447, 32.7955016], [-8.949405, 32.8071177], [-8.8995186, 32.8430995], [-8.7567365, 32.9798502], [-8.7570262, 32.9708227], [-8.7448812, 32.9778341], [-8.7406325, 32.9873199], [-8.7339699, 32.9889577], [-8.7287689, 32.9963792], [-8.7563982, 32.9805251], [-8.6324912, 33.1106942], [-8.6287978, 33.1202308], [-8.6375524, 33.1250804], [-8.6277129, 33.1208991], [-8.6327595, 33.1255861], [-8.6260566, 33.12305], [-8.6306693, 33.1273415], [-8.6252466, 33.1250144], [-8.6193216, 33.1338363], [-8.632561, 33.1344068], [-8.6449876, 33.1233442], [-8.631894, 33.1351318], [-8.6127502, 33.1332792], [-8.6294067, 33.1612318], [-8.6244983, 33.1703565], [-8.5750437, 33.2175186], [-8.5579714, 33.2220827], [-8.5263535, 33.2591773], [-8.5193503, 33.2558567], [-8.5095454, 33.2645195], [-8.4867753, 33.2454086], [-8.447739, 33.2516919], [-8.338792, 33.3190736], [-8.298642, 33.3672599], [-8.2215124, 33.3837408], [-8.1807026, 33.4046227], [-8.1349951, 33.4114857], [-8.0619693, 33.4413749], [-8.00988, 33.45327], [-8.00016, 33.42329], [-7.9802175, 33.4054118], [-7.9624505, 33.3706595], [-7.9764204, 33.3378751], [-7.9582908, 33.3184888], [-7.9539779, 33.3035857], [-7.9658182, 33.2989529], [-7.9574455, 33.2798848], [-7.9744204, 33.2613299], [-8.0055201, 33.2741713], [-8.0152275, 33.2545645], [-8.0022414, 33.242631], [-8.0153134, 33.2200912], [-8.036413, 33.2104586], [-8.077116, 33.2187148], [-8.0835748, 33.2096867], [-8.0880187, 33.2158336], [-8.1012151, 33.2027368], [-8.0934925, 33.1849547], [-8.1145758, 33.1661261], [-8.1163564, 33.1533547], [-8.1285919, 33.1642046], [-8.1455684, 33.1501929], [-8.1287026, 33.1450726], [-8.1364366, 33.1335367], [-8.1269612, 33.1273803], [-8.1203566, 33.1408153], [-8.1049168, 33.141942], [-8.1061721, 33.1079802], [-8.0756271, 33.1005207], [-8.0860699, 33.095029], [-8.0890933, 33.0752702], [-8.0757216, 33.086116], [-8.0627149, 33.082521], [-8.0604887, 33.0710451], [-8.0742153, 33.0652141], [-8.0608106, 33.061247], [-8.061288, 33.016801], [-8.0449534, 33.0112411], [-8.0651987, 33.0101345], [-8.0562508, 33.0010786], [-8.0624711, 32.9939394], [-8.0590779, 32.9722583], [-8.0762225, 32.9740315], [-8.0576787, 32.9606745], [-8.0535176, 32.9394849], [-8.0793515, 32.9373495], [-8.0406933, 32.920753], [-8.040576, 32.9121982], [-8.0589008, 32.9094735], [-8.0628734, 32.9017132], [-8.0509565, 32.8918889], [-8.0579395, 32.878854], [-8.0414842, 32.8779795], [-8.0481611, 32.8631871], [-8.0372852, 32.8557663], [-8.0599389, 32.847852], [-8.0526057, 32.8403931], [-8.0367726, 32.8454431], [-8.0116993, 32.8700944], [-8.0067855, 32.8632727], [-8.0167902, 32.8543189], [-7.9904718, 32.8514471], [-8.0139256, 32.8359354], [-7.9917142, 32.8355726], [-8.0060667, 32.8209518], [-7.9960669, 32.8142451], [-8.03685, 32.79088], [-8.0425652, 32.7785382], [-8.0860896, 32.7878997], [-8.1130619, 32.7758019], [-8.1290694, 32.8059622], [-8.1393497, 32.8103194], [-8.1649021, 32.8175389], [-8.1651596, 32.8105418], [-8.2004789, 32.8083777], [-8.2264856, 32.8145454], [-8.2343391, 32.848983], [-8.2543184, 32.8669429], [-8.2869941, 32.8491633], [-8.3008858, 32.873449], [-8.3470756, 32.8860741], [-8.3603365, 32.8749015], [-8.3739406, 32.880524], [-8.3871156, 32.8674043], [-8.3921834, 32.871226], [-8.3982773, 32.8660715], [-8.3905612, 32.8600714], [-8.4012814, 32.851796], [-8.4143706, 32.8552569], [-8.431408, 32.8206054], [-8.4690447, 32.7938051], [-8.4979697, 32.7987113], [-8.5291262, 32.7829096], [-8.5484811, 32.7915684], [-8.5964604, 32.7467157], [-8.6482979, 32.7426008], [-8.6611424, 32.727457], [-8.6985646, 32.755396], [-8.7228896, 32.7296782], [-8.713019, 32.7254181], [-8.7365367, 32.7005033], [-8.8053116, 32.7442858], [-8.8273005, 32.7191702], [-8.8859142, 32.6926103]]]]}}]}