{"type":"FeatureCollection","features":[{"type":"Feature","properties":{"slug":"elda","member_count":11,"matched_count":11,"unmatched":[],"source":"Overture Maps division_area (CC-BY 4.0)"},"geometry":{"type":"MultiPolygon","coordinates":[[[[-0.8323473,38.2897962],[-0.9247208,38.2539011],[-0.9624388,38.2573289],[-0.9486825,38.2836087],[-0.9714657,38.3296105],[-0.9893369,38.3207127],[-1.0280207,38.3384107],[-1.0843103,38.3461851],[-1.0879771,38.4046664],[-1.0853382,38.4291476],[-1.0772563,38.4314534],[-1.0941618,38.437929],[-1.0012035,38.5011089],[-0.9739842,38.4480311],[-0.9848447,38.4031999],[-0.9670227,38.3825001],[-0.9674508,38.362314],[-0.9254049,38.3654517],[-0.8324537,38.4005062],[-0.8044217,38.4262505],[-0.8742871,38.4753055],[-0.8494133,38.5096145],[-0.8557799,38.5130293],[-0.7972759,38.5127717],[-0.7441672,38.5516133],[-0.660335,38.507753],[-0.653908,38.4952082],[-0.6314344,38.5022611],[-0.6196859,38.4784518],[-0.5901245,38.4743148],[-0.5621291,38.4809433],[-0.556948,38.5107852],[-0.5412023,38.5350531],[-0.5601492,38.5707785],[-0.5570784,38.5868786],[-0.5749818,38.589756],[-0.5103935,38.6087076],[-0.4686392,38.6508517],[-0.4672295,38.6412976],[-0.4456792,38.6260613],[-0.4173446,38.6378813],[-0.3859804,38.616164],[-0.3501852,38.6139615],[-0.4084582,38.574282],[-0.3939104,38.5592095],[-0.3998455,38.540682],[-0.3945467,38.5327074],[-0.3667443,38.5379774],[-0.3440402,38.5274361],[-0.322084,38.500418],[-0.3025741,38.4918295],[-0.3009815,38.4823442],[-0.3863658,38.4315476],[-0.3876031,38.4190445],[-0.4001426,38.4126892],[-0.4056272,38.397744],[-0.4094459,38.360094],[-0.4027008,38.3527499],[-0.4349481,38.35522],[-0.4449034,38.3628631],[-0.4749593,38.3471043],[-0.4778159,38.3366808],[-0.4895116,38.3279197],[-0.4785274,38.337153],[-0.4803569,38.3435409],[-0.4951934,38.334019],[-0.4943658,38.319011],[-0.4958905,38.3288653],[-0.5000868,38.3230203],[-0.5085113,38.3302229],[-0.5193241,38.2743044],[-0.541701,38.3053102],[-0.5688617,38.301418],[-0.6129226,38.3372819],[-0.6404668,38.3447961],[-0.7064958,38.3267259],[-0.7695154,38.2959643],[-0.8323473,38.2897962]]],[[[-0.4708413,38.1605249],[-0.4708899,38.1607033],[-0.4707877,38.1607409],[-0.4708413,38.1605249]]],[[[-0.4589037,38.1604664],[-0.4576547,38.1621872],[-0.453596,38.1615763],[-0.4589037,38.1604664]]],[[[-0.4741146,38.1610861],[-0.4753253,38.1613363],[-0.4750782,38.1620311],[-0.4741146,38.1610861]]],[[[-0.4644639,38.1627882],[-0.4644282,38.1625082],[-0.4646851,38.162725],[-0.4644639,38.1627882]]],[[[-0.464819,38.1629341],[-0.4762568,38.1628469],[-0.4850797,38.1668222],[-0.4787728,38.1677455],[-0.477539,38.166108],[-0.4720924,38.1664583],[-0.464819,38.1629341]]],[[[-0.4847443,38.1658044],[-0.4846146,38.1659115],[-0.4845556,38.1658957],[-0.4847443,38.1658044]]],[[[-0.486488,38.1662416],[-0.4874072,38.1672591],[-0.4851542,38.1667821],[-0.486488,38.1662416]]]]}}]}