{"type": "FeatureCollection", "features": [{"type": "Feature", "properties": {"slug": "elko", "members": 2, "country": "United States", "input_hash": "02578f538111b779"}, "geometry": {"type": "Polygon", "coordinates": [[[-115.834969, 40.127842], [-115.823786, 40.119995], [-115.830643, 40.112659], [-115.825356, 40.106073], [-115.840203, 40.097569], [-115.82663, 40.053118], [-115.833246, 40.043201], [-115.82654, 40.026055], [-115.835301, 40.017371], [-115.835826, 39.99395], [-115.816183, 39.954873], [-115.817445, 39.931003], [-115.802359, 39.912821], [-115.805267, 39.869824], [-115.794865, 39.853942], [-115.798717, 39.835088], [-115.815634, 39.814334], [-115.812084, 39.752929], [-115.833271, 39.728134], [-115.822557, 39.670248], [-115.82751, 39.646043], [-115.813476, 39.593521], [-115.838173, 39.556187], [-115.83046, 39.541386], [-115.842154, 39.511244], [-115.870264, 39.487128], [-115.870268, 39.470046], [-115.898339, 39.45389], [-115.907659, 39.464432], [-115.907071, 39.161848], [-116.6009461, 39.1614631], [-116.589462, 39.636147], [-116.589928, 40.072754], [-116.600143, 40.072372], [-116.587746, 41.000252], [-116.157883, 41.001442], [-117.016953, 41.000328], [-117.0174518, 41.9992147], [-114.0413718, 41.9937386], [-114.048378, 40.118565], [-116.001007, 40.128792], [-115.834969, 40.127842]]]}}]}