{"type":"FeatureCollection","features":[{"type":"Feature","properties":{"slug":"elvas","member_count":12,"matched_count":11,"unmatched":["Terrugem e Vila Boim (PT-12, type='Parish')"],"source":"Overture Maps division_area (CC-BY 4.0)"},"geometry":{"type":"MultiPolygon","coordinates":[[[[-7.2576908,38.8473305],[-7.2595702,38.8373841],[-7.2724051,38.8367841],[-7.279619,38.8276417],[-7.2947059,38.8405569],[-7.3040529,38.8374146],[-7.3256429,38.8251927],[-7.3192348,38.8133001],[-7.3251493,38.8099858],[-7.3190054,38.8094966],[-7.3509686,38.7978166],[-7.3533273,38.8055175],[-7.3687164,38.8004431],[-7.3682352,38.8114136],[-7.3915613,38.8013336],[-7.4053293,38.8371673],[-7.4242923,38.8480125],[-7.4045879,38.8486512],[-7.4177562,38.8680616],[-7.3905002,38.8796136],[-7.3987453,38.9009518],[-7.3547446,38.9122507],[-7.3710567,38.9174323],[-7.3589175,38.9271809],[-7.3711613,38.9428895],[-7.3387336,38.9991093],[-7.337807,39.0127632],[-7.2981014,39.0470257],[-7.2550936,39.0571869],[-7.2142689,39.0476613],[-7.1888463,39.0284503],[-7.163943,39.0271123],[-7.1492002,39.0181241],[-7.1483544,39.0065887],[-7.1219212,39.0135147],[-7.1147577,39.026289],[-7.1218281,39.036935],[-7.1103428,39.0392717],[-7.1466354,39.0670061],[-7.1438469,39.0885347],[-7.1289977,39.0981048],[-7.1440249,39.1086327],[-7.105334,39.0992002],[-7.0387728,39.1183899],[-6.9809035,39.0878208],[-6.9594164,39.0544706],[-6.9678061,39.039491],[-6.9511303,39.0235981],[-7.0274451,38.9229414],[-7.052181,38.9069534],[-7.0328784,38.8773051],[-7.039675,38.864263],[-7.0686067,38.8541998],[-7.0904129,38.8199606],[-7.1286073,38.8137589],[-7.1638037,38.7797803],[-7.1964333,38.7653187],[-7.2037146,38.7514974],[-7.2170585,38.7641707],[-7.2239285,38.7620179],[-7.2284703,38.7738889],[-7.2215441,38.7786607],[-7.2325109,38.7827007],[-7.2111413,38.8077999],[-7.2191916,38.8211178],[-7.2074344,38.831097],[-7.2181201,38.835813],[-7.2264353,38.828558],[-7.2402029,38.8453673],[-7.2576908,38.8473305]]],[[[-8.4566355,39.4900881],[-8.4583968,39.4822634],[-8.4641453,39.4782371],[-8.462261,39.4536442],[-8.4743603,39.4421477],[-8.4928051,39.4434949],[-8.4566355,39.4900881]]],[[[-8.3159548,41.3581458],[-8.2976964,41.3660664],[-8.2783783,41.345828],[-8.3033167,41.3429586],[-8.3159548,41.3581458]]]]}}]}