{"type": "FeatureCollection", "features": [{"type": "Feature", "properties": {"slug": "enkoping", "members": 1, "country": "Sweden", "input_hash": "00b8d5c5b4534ac4"}, "geometry": {"type": "Polygon", "coordinates": [[[17.5420035, 59.7155769], [17.5385712, 59.7332868], [17.40951, 59.7321173], [17.3952607, 59.7516951], [17.3931888, 59.7728389], [17.3706027, 59.7896587], [17.3550094, 59.7828102], [17.3145912, 59.793329], [17.2815195, 59.7837901], [17.2134705, 59.832935], [17.1900583, 59.8254446], [17.1908915, 59.8310969], [17.1562094, 59.845348], [17.1698883, 59.8634981], [17.1147858, 59.8847824], [17.0384642, 59.8415965], [17.0425774, 59.8375226], [17.0124192, 59.828136], [17.0011395, 59.8290429], [16.9609726, 59.8623962], [16.9097857, 59.8683828], [16.8574325, 59.863847], [16.7990125, 59.8815007], [16.8005079, 59.8696207], [16.8371327, 59.861551], [16.801005, 59.8440989], [16.8180856, 59.8364692], [16.7999133, 59.824848], [16.8112111, 59.8199318], [16.7652598, 59.8024807], [16.7274867, 59.7750075], [16.7757686, 59.7464451], [16.7839487, 59.7183746], [16.815946, 59.7102283], [16.8200969, 59.6922739], [16.8546943, 59.6669129], [16.9213007, 59.5476306], [16.9659078, 59.520353], [17.0301552, 59.5084002], [17.0459824, 59.5162824], [17.0640006, 59.5109987], [17.0838829, 59.5307088], [17.1178382, 59.5262726], [17.1500587, 59.5078215], [17.1590385, 59.4853382], [17.2078197, 59.4626015], [17.3111916, 59.4376808], [17.3539148, 59.4377819], [17.3649556, 59.4166283], [17.3890784, 59.4140717], [17.3833593, 59.3968505], [17.4150954, 59.3834653], [17.4330051, 59.3958279], [17.426208, 59.4278673], [17.4357149, 59.4417406], [17.4531087, 59.4465311], [17.5043497, 59.4405392], [17.5026383, 59.4574809], [17.4336811, 59.5466131], [17.3993884, 59.5694571], [17.3777845, 59.5972839], [17.3850984, 59.6308133], [17.3983206, 59.6490019], [17.3821617, 59.6648206], [17.4218796, 59.6595961], [17.4741086, 59.6664353], [17.4885277, 59.6811826], [17.5089179, 59.6836586], [17.5080312, 59.6936155], [17.5420035, 59.7155769]]]}}]}