{"type": "FeatureCollection", "features": [{"type": "Feature", "properties": {"slug": "eunapolis", "members": 1, "country": "Brazil", "input_hash": "82c90717271f174b"}, "geometry": {"type": "Polygon", "coordinates": [[[-39.4330408, -16.0768142], [-39.4695461, -16.0943713], [-39.4929875, -16.0830872], [-39.5086794, -16.0931898], [-39.5112278, -16.1075908], [-39.527815, -16.1238586], [-39.5439118, -16.1163503], [-39.5952898, -16.1536933], [-39.7531079, -16.1972352], [-39.8316033, -16.2373778], [-39.8485615, -16.2349213], [-39.8611899, -16.2477251], [-39.8592026, -16.273645], [-39.850556, -16.2729369], [-39.8426373, -16.2950054], [-39.7786786, -16.3542158], [-39.7584047, -16.3863418], [-39.7615283, -16.4038842], [-39.7731737, -16.4122194], [-39.7634147, -16.4433044], [-39.7430888, -16.4524286], [-39.7204746, -16.4369268], [-39.7407387, -16.5032482], [-39.6984149, -16.5478213], [-39.6984214, -16.5126468], [-39.6829377, -16.5040512], [-39.6517142, -16.505376], [-39.6430649, -16.4882319], [-39.6195078, -16.4786871], [-39.6039527, -16.4592365], [-39.5889158, -16.4718572], [-39.554045, -16.4779327], [-39.519095, -16.4953401], [-39.5051239, -16.4440357], [-39.4828621, -16.4073585], [-39.4567919, -16.3918749], [-39.4388895, -16.2824901], [-39.3985546, -16.2832851], [-39.3862241, -16.2748349], [-39.383801, -16.2658543], [-39.3981482, -16.2604879], [-39.420664, -16.2328601], [-39.403742, -16.0906373], [-39.4330408, -16.0768142]]]}}]}