{"type":"FeatureCollection","features":[{"type":"Feature","properties":{"slug":"evanston-wy","member_count":6,"matched_count":1,"unmatched":["Evanston city (US-WY, type='City')","Balance of Uinta County (US-WY, type='Balance')","Lyman town (US-WY, type='Town')","Mountain View town (US-WY, type='Town')","Bear River town (US-WY, type='Town')"],"source":"Overture Maps division_area (CC-BY 4.0)"},"geometry":{"type":"Polygon","coordinates":[[[-111.0458051,41.579796],[-111.0468088,40.9978699],[-110.0485468,40.9972614],[-110.0480903,41.5774588],[-111.0458051,41.579796]]]}}]}