{"type": "FeatureCollection", "features": [{"type": "Feature", "properties": {"slug": "farmington", "members": 1, "country": "United States", "input_hash": "1d7439f558cea9fe"}, "geometry": {"type": "Polygon", "coordinates": [[[-109.0459997, 36.0025638], [-107.6264288, 36.0002792], [-107.610939, 36.800995], [-107.603966, 36.797459], [-107.598351, 36.803883], [-107.59874, 36.822018], [-107.59037, 36.83392], [-107.55455, 36.853432], [-107.540092, 36.849533], [-107.518723, 36.87384], [-107.490646, 36.879631], [-107.450233, 36.902344], [-107.443581, 36.915573], [-107.447281, 36.958153], [-107.421768, 36.979317], [-107.420915, 37.0], [-109.045182, 36.9989819], [-109.0459997, 36.0025638]]]}}]}