{"type":"FeatureCollection","features":[{"type":"Feature","properties":{"slug":"faro","member_count":83,"matched_count":75,"unmatched":["Concei\u00e7\u00e3o e Estoi (PT-08, type='Parish')","Bensafrim e Bar\u00e3o de S\u00e3o Jo\u00e3o (PT-08, type='Parish')","Queren\u00e7a, T\u00f4r e Benafim (PT-08, type='Parish')","Moncarapacho e Fuseta (PT-08, type='Parish')","Algoz e Tunes (PT-08, type='Parish')","Alcantarilha e P\u00eara (PT-08, type='Parish')","Luz de Tavira e Santo Est\u00eav\u00e3o (PT-08, type='Parish')","Concei\u00e7\u00e3o e Cabanas de Tavira (PT-08, type='Parish')"],"source":"Overture Maps division_area (CC-BY 4.0)"},"geometry":{"type":"MultiPolygon","coordinates":[[[[-8.9628603,37.0723605],[-8.958519,37.0941193],[-8.9382614,37.1082069],[-8.9034029,37.1653836],[-8.9136777,37.1831914],[-8.9092781,37.1893803],[-8.9181874,37.1964244],[-8.8960223,37.2060873],[-8.8603992,37.2683926],[-8.8655414,37.2935566],[-8.8767742,37.295877],[-8.871879,37.3111718],[-8.8779786,37.3210298],[-8.8446558,37.3520119],[-8.8083941,37.4139591],[-8.8050881,37.4377025],[-8.7963222,37.4429475],[-8.788786,37.4341614],[-8.7496834,37.4318783],[-8.7523608,37.4238699],[-8.7441688,37.4240222],[-8.7492524,37.4170515],[-8.7390522,37.4144666],[-8.733504,37.3951855],[-8.7283279,37.4018723],[-8.6876908,37.3954615],[-8.6639219,37.4007056],[-8.6440141,37.3760288],[-8.6208777,37.4011344],[-8.5895551,37.4023671],[-8.5731894,37.4119846],[-8.5150845,37.3787177],[-8.494181,37.386008],[-8.454543,37.373719],[-8.4468565,37.3864223],[-8.430174,37.3834006],[-8.4232075,37.3907139],[-8.4250983,37.410216],[-8.4173622,37.4197531],[-8.3572694,37.4328265],[-8.3429773,37.425675],[-8.3363856,37.4333839],[-8.3291095,37.4232174],[-8.3175923,37.4393737],[-8.2778522,37.4255039],[-8.2784304,37.4137853],[-8.2646264,37.4079838],[-8.2757292,37.4026717],[-8.2756141,37.3871584],[-8.2485811,37.3847235],[-8.1921293,37.3433415],[-8.1482202,37.3318046],[-8.0829187,37.3288269],[-8.0658468,37.3189368],[-8.045217,37.3325707],[-8.0487492,37.3373257],[-8.034502,37.3383256],[-8.0380057,37.3469306],[-8.0281802,37.3542804],[-7.9905071,37.3630366],[-8.0067267,37.3778106],[-7.9992371,37.3826119],[-8.0048933,37.3860638],[-8.0000249,37.3979501],[-7.9840021,37.3970009],[-7.984476,37.4063728],[-7.9717989,37.4023091],[-7.9608109,37.4103571],[-7.9543028,37.4038644],[-7.9414893,37.4104691],[-7.9395061,37.4036557],[-7.9240622,37.4137438],[-7.9077605,37.4042484],[-7.9020083,37.417695],[-7.8883005,37.4153162],[-7.8968382,37.4260943],[-7.892065,37.4344875],[-7.8559927,37.4372533],[-7.8524455,37.4492772],[-7.8324988,37.4484376],[-7.8228953,37.4622986],[-7.8177673,37.4534355],[-7.7939927,37.4712976],[-7.7632039,37.4791179],[-7.7658632,37.487535],[-7.754164,37.4798374],[-7.7436138,37.4913006],[-7.7313781,37.4969378],[-7.723521,37.4923054],[-7.712998,37.5017763],[-7.6620827,37.5057746],[-7.6481327,37.4941571],[-7.6368473,37.5001317],[-7.6202152,37.4898788],[-7.6153501,37.4998464],[-7.596189,37.5038409],[-7.5961332,37.5132336],[-7.5793702,37.516936],[-7.5741379,37.5291307],[-7.544116,37.5201941],[-7.5253421,37.5289274],[-7.4936936,37.523113],[-7.48413,37.498275],[-7.4642827,37.4882542],[-7.4688015,37.468538],[-7.4566623,37.4523673],[-7.4574901,37.4292869],[-7.4455004,37.4194062],[-7.4627068,37.4089891],[-7.4404766,37.3910154],[-7.4421779,37.3112999],[-7.4216912,37.2737849],[-7.4335324,37.2497363],[-7.4139259,37.2265884],[-7.40728,37.1827074],[-7.3948663,37.1661936],[-7.4697978,37.1753516],[-7.5746876,37.1406838],[-7.7697994,37.0290032],[-7.8035003,37.0015415],[-7.8652723,36.9734052],[-7.8688036,36.9631576],[-7.8890986,36.9599682],[-7.9446598,36.9757597],[-8.0901802,37.0620949],[-8.1834372,37.0904468],[-8.2339215,37.0824563],[-8.25331,37.086565],[-8.2979992,37.0720871],[-8.3599452,37.1006041],[-8.4367582,37.0853284],[-8.5194068,37.105173],[-8.5340308,37.117426],[-8.5623112,37.1197793],[-8.5667463,37.1142075],[-8.6146099,37.1227792],[-8.6635938,37.107733],[-8.6675525,37.0788774],[-8.7269389,37.0864614],[-8.7880727,37.0628401],[-8.840292,37.0604283],[-8.864053,37.0418373],[-8.8941971,37.0425558],[-8.9059461,37.0238733],[-8.9268056,37.0189769],[-8.9265581,37.0064086],[-8.9425858,37.0043579],[-8.9470125,37.000189],[-8.9463917,36.994408],[-8.9480256,36.993499],[-8.9491528,37.0083706],[-8.9639026,37.0253392],[-8.9841011,37.0270147],[-8.9862173,37.0185221],[-8.99711,37.0226712],[-8.9628603,37.0723605]]],[[[-28.3834114,38.5496029],[-28.3947853,38.5159855],[-28.3898766,38.4974125],[-28.4003075,38.4693343],[-28.4263285,38.503449],[-28.4329062,38.5402258],[-28.4441826,38.5582633],[-28.3932084,38.5588187],[-28.3834114,38.5496029]]],[[[-27.9486949,39.0213462],[-27.9707985,39.0086748],[-27.9955004,39.0124964],[-28.0082767,39.0243137],[-28.0291844,39.0226328],[-28.0253344,39.039995],[-28.0095862,39.0373883],[-28.0048351,39.0453006],[-27.9727527,39.0202244],[-27.9486949,39.0213462]]],[[[-8.7985275,39.9528433],[-8.7582224,39.9765341],[-8.7433967,39.9712229],[-8.7548183,39.9616862],[-8.7713138,39.9612226],[-8.7717883,39.9412367],[-8.7628064,39.9285354],[-8.7793928,39.9216264],[-8.8016007,39.9303831],[-8.8093467,39.9201125],[-8.9322325,39.9654264],[-8.9277308,39.9747597],[-8.8268189,39.9507668],[-8.7985275,39.9528433]]],[[[-7.7004259,38.8652274],[-7.7218479,38.8699766],[-7.7381499,38.8642631],[-7.7346812,38.87922],[-7.7899471,38.8957933],[-7.7855465,38.9071223],[-7.7722713,38.9011428],[-7.7520268,38.9082448],[-7.7328764,38.9392002],[-7.6980891,38.9124003],[-7.6834388,38.929373],[-7.6541507,38.9163683],[-7.6594472,38.9115431],[-7.6409365,38.8848119],[-7.6163171,38.8763599],[-7.6322213,38.8552645],[-7.6280861,38.8461746],[-7.6371592,38.8444671],[-7.6266949,38.8320364],[-7.6577584,38.7960126],[-7.6801613,38.802326],[-7.6744621,38.8115296],[-7.6875409,38.8155638],[-7.6760563,38.827652],[-7.7016503,38.8396768],[-7.6919233,38.8525227],[-7.7004259,38.8652274]]]]}}]}