{"type":"FeatureCollection","features":[{"type":"Feature","properties":{"slug":"fayetteville","member_count":52,"matched_count":52,"unmatched":[],"source":"Overture Maps division_area (CC-BY 4.0)"},"geometry":{"type":"MultiPolygon","coordinates":[[[[-93.6917443,33.7806249],[-93.674623,33.780095],[-93.675191,33.765507],[-93.692206,33.765823],[-93.6917443,33.7806249]]],[[[-94.124974,35.7503066],[-94.4930981,35.7592618],[-94.6178753,36.4995],[-94.6183706,36.7664877],[-94.0671435,36.7476756],[-94.0771917,36.4986696],[-93.8666159,36.4988954],[-93.866702,36.386326],[-93.882192,36.394135],[-93.878795,36.388205],[-93.890372,36.378196],[-93.885099,36.372244],[-93.875625,36.379462],[-93.877727,36.368343],[-93.866958,36.376575],[-93.868081,36.335991],[-93.852837,36.334125],[-93.858698,36.3216],[-93.855789,36.317749],[-93.849588,36.330648],[-93.843604,36.321961],[-93.833067,36.323182],[-93.83272,36.312943],[-93.814885,36.312947],[-93.8150749,36.3064896],[-93.6574722,36.3029971],[-93.6633849,36.2753282],[-93.6396528,36.2832853],[-93.6309946,36.2780182],[-93.6416805,36.2673444],[-93.6182328,36.2588996],[-93.6200705,36.2012279],[-93.6111584,36.2010569],[-93.6116224,36.1865166],[-93.5848794,36.1856568],[-93.5854622,36.155632],[-93.5507451,36.1549614],[-93.5511886,36.1262191],[-93.4795646,36.1250883],[-93.4801676,36.0815252],[-93.4456837,36.0807385],[-93.450777,35.967451],[-93.468068,35.9675379],[-93.4683837,35.9531338],[-93.4862028,35.9533203],[-93.486902,35.9243091],[-93.5048335,35.9251167],[-93.5059332,35.8810084],[-93.5236135,35.8814923],[-93.5260588,35.8236209],[-93.5170384,35.8233552],[-93.519745,35.7345298],[-93.165092,35.728672],[-93.168182,35.597946],[-93.221375,35.599224],[-93.223808,35.468941],[-93.294991,35.470459],[-93.298903,35.327125],[-93.331145,35.339607],[-93.417966,35.326584],[-93.422331,35.337245],[-93.396876,35.346576],[-93.415138,35.362096],[-93.42698,35.393062],[-93.423854,35.42104],[-93.439762,35.429935],[-93.495617,35.395663],[-93.534009,35.411336],[-93.564196,35.390897],[-93.619758,35.379744],[-93.666836,35.40466],[-93.687934,35.377664],[-93.710043,35.375237],[-93.6958766,35.7686371],[-93.910624,35.7743089],[-93.910836,35.759752],[-94.1243522,35.7647277],[-94.124974,35.7503066]]],[[[-92.517321,34.5920586],[-92.5319394,34.5812475],[-92.51988,34.5805556],[-92.5171679,34.5814569],[-92.5132942,34.5858344],[-92.5086255,34.5883192],[-92.5082432,34.5845384],[-92.5087298,34.5737906],[-92.5322219,34.5721001],[-92.5325846,34.5540412],[-92.5529659,34.5488243],[-92.5539485,34.5344112],[-92.5759932,34.5426839],[-92.5896164,34.5432595],[-92.5899279,34.5358238],[-92.5993457,34.5435941],[-92.6145092,34.5411683],[-92.6217968,34.5521451],[-92.6292267,34.5409059],[-92.650606,34.539182],[-92.6505267,34.5513791],[-92.6296759,34.5518607],[-92.6298975,34.5465724],[-92.6104989,34.5685963],[-92.6135669,34.5770059],[-92.6042075,34.5917198],[-92.6177779,34.6030081],[-92.6158809,34.6072966],[-92.6052924,34.6088091],[-92.6165938,34.602913],[-92.6091246,34.5973854],[-92.5942309,34.597566],[-92.6002235,34.6050215],[-92.571127,34.5968155],[-92.5664084,34.6042411],[-92.5808332,34.6044551],[-92.5846458,34.6155557],[-92.567307,34.6048751],[-92.5585237,34.6181523],[-92.5471826,34.6125013],[-92.5474086,34.6032072],[-92.5413685,34.610654],[-92.5357386,34.60689],[-92.5383038,34.6114051],[-92.5367898,34.6205018],[-92.5444829,34.6189387],[-92.5517996,34.6288055],[-92.5484031,34.6414144],[-92.5291275,34.628468],[-92.5219949,34.64902],[-92.5146481,34.6501093],[-92.5213652,34.6360386],[-92.5153232,34.6325528],[-92.5259447,34.6175854],[-92.5207365,34.6101033],[-92.5364906,34.6032077],[-92.5310157,34.5880641],[-92.517321,34.5920586]],[[-92.6329021,34.544735],[-92.6329056,34.5448886],[-92.6329791,34.5448567],[-92.6329021,34.544735]],[[-92.6322665,34.5449641],[-92.6327619,34.5459601],[-92.6330524,34.5451431],[-92.6322665,34.5449641]],[[-92.5520773,34.5639466],[-92.5506416,34.5651448],[-92.5520162,34.5651522],[-92.5520773,34.5639466]],[[-92.5636411,34.6002296],[-92.5658715,34.5989763],[-92.563633,34.5989203],[-92.5636411,34.6002296]],[[-92.5493158,34.5639166],[-92.5501395,34.5643641],[-92.5501411,34.5639144],[-92.5493158,34.5639166]],[[-92.5408425,34.5637159],[-92.5385818,34.5658899],[-92.5407638,34.5659417],[-92.5408425,34.5637159]],[[-92.5323961,34.572301],[-92.5089924,34.574044],[-92.5085198,34.5845387],[-92.5175553,34.5775013],[-92.5330693,34.5797268],[-92.5445785,34.5668913],[-92.5328275,34.5666321],[-92.5323961,34.572301]],[[-92.5489875,34.5778463],[-92.5326037,34.5886752],[-92.550978,34.5851076],[-92.5489875,34.5778463]],[[-92.5635214,34.6002292],[-92.558928,34.6073695],[-92.5634199,34.6075346],[-92.5635214,34.6002292]],[[-92.5633995,34.6084184],[-92.5611155,34.6092452],[-92.5633619,34.6093042],[-92.5633995,34.6084184]],[[-92.5542326,34.6121913],[-92.5532199,34.6107601],[-92.552729,34.6119782],[-92.5542326,34.6121913]],[[-92.55739,34.6147071],[-92.5566221,34.6152274],[-92.5573687,34.6152829],[-92.55739,34.6147071]],[[-92.5417068,34.6017268],[-92.5406993,34.6015021],[-92.5404103,34.6030754],[-92.5417068,34.6017268]],[[-92.5341546,34.6086399],[-92.5357384,34.6068898],[-92.5357362,34.6055915],[-92.5342233,34.6060793],[-92.5341546,34.6086399]],[[-92.53717,34.6096834],[-92.5365326,34.6100161],[-92.536613,34.6100972],[-92.53717,34.6096834]],[[-92.5227373,34.6394865],[-92.5236809,34.6395005],[-92.5227396,34.6393788],[-92.5227373,34.6394865]]],[[[-91.5487655,33.9768005],[-91.557618,33.7832934],[-91.6642,33.790493],[-91.976379,33.79052],[-91.9763736,33.9772365],[-91.9529697,33.9771206],[-91.953659,34.093435],[-91.745092,34.094019],[-91.744729,34.064979],[-91.726713,34.065113],[-91.727381,34.175276],[-91.714009,34.176231],[-91.62443,34.128994],[-91.585998,34.131245],[-91.584012,34.123593],[-91.605709,34.114397],[-91.610705,34.097123],[-91.602803,34.086927],[-91.586819,34.087367],[-91.563621,34.104681],[-91.545191,34.104476],[-91.509601,34.075332],[-91.490353,34.074497],[-91.490464,34.063176],[-91.482466,34.058588],[-91.46222,34.064965],[-91.462941,34.085195],[-91.445074,34.080577],[-91.435654,34.067364],[-91.4361738,34.027341],[-91.421985,34.011715],[-91.4222492,33.9985285],[-91.4651686,34.00478],[-91.4656671,33.9757464],[-91.5487655,33.9768005]]],[[[-90.717619,35.0074491],[-90.7458159,35.0072682],[-90.7382432,35.0146481],[-90.7500303,35.0353807],[-90.7279986,35.0323339],[-90.7280861,35.0220459],[-90.7073646,35.0220037],[-90.717619,35.0074491]]]]}}]}