{"type": "FeatureCollection", "features": [{"type": "Feature", "properties": {"slug": "fayetteville-nc", "members": 7, "country": "United States", "input_hash": "6b5c4844f758a4cb"}, "geometry": {"type": "Polygon", "coordinates": [[[-78.9019999, 34.8352744], [-78.8928381, 34.8142007], [-78.8833395, 34.8121226], [-78.8542468, 34.7354918], [-78.8057508, 34.6895588], [-78.809506, 34.6681702], [-78.8192099, 34.6626041], [-78.8136074, 34.6517296], [-78.8344369, 34.6215794], [-78.8316739, 34.6081565], [-78.8412379, 34.5972221], [-78.8360455, 34.593423], [-78.8626567, 34.5622387], [-78.8529939, 34.5277606], [-78.8572545, 34.5153566], [-78.8447334, 34.5089859], [-78.8463573, 34.4998089], [-78.8635639, 34.4979454], [-78.886116, 34.46925], [-78.910255, 34.457211], [-78.94651, 34.454819], [-78.963394, 34.442703], [-78.973625, 34.427345], [-78.973457, 34.397808], [-79.00647, 34.386734], [-79.014954, 34.376358], [-79.007401, 34.357208], [-79.030884, 34.348774], [-79.040192, 34.316132], [-79.071211, 34.299342], [-79.4615068, 34.6303801], [-79.6764943, 34.805065], [-79.6929688, 34.8051561], [-79.636948, 34.823742], [-79.613472, 34.815495], [-79.621269, 34.823692], [-79.617279, 34.838211], [-79.625038, 34.855042], [-79.566483, 34.907059], [-79.572006, 34.921612], [-79.587646, 34.932114], [-79.591492, 34.948017], [-79.583527, 34.968876], [-79.5699399, 34.9765847], [-79.5721589, 34.9929848], [-79.511909, 35.025814], [-79.45797448841383, 35.043099829839505], [-79.4959352, 35.0626877], [-79.576248, 35.066471], [-79.586273, 35.081486], [-79.58046, 35.117786], [-79.591606, 35.135078], [-79.6196058, 35.1711479], [-79.6548966, 35.1907856], [-79.6735554, 35.2458519], [-79.7017505, 35.2544816], [-79.7682274, 35.5114947], [-79.3500769, 35.5180096], [-79.353409, 35.513027], [-79.3110544, 35.5317648], [-79.3233963, 35.5442523], [-79.302358, 35.552527], [-79.2849055, 35.5551179], [-79.2908709, 35.5404453], [-79.2684525, 35.5324618], [-79.2452089, 35.5529569], [-79.2437557, 35.5699149], [-79.219313, 35.5664722], [-79.2244798, 35.5508171], [-79.1998925, 35.5585616], [-79.2008562, 35.5766856], [-79.1861214, 35.5803373], [-79.1425245, 35.6227374], [-79.1187583, 35.6283314], [-79.0688027, 35.6090645], [-79.052334, 35.5958751], [-79.0459183, 35.5686721], [-79.0239939, 35.5483748], [-78.9906321, 35.5400763], [-78.97007457797685, 35.52209350329638], [-78.9160726, 35.5841114], [-78.6895175, 35.5159408], [-78.6869003, 35.5018696], [-78.6605779, 35.4962845], [-78.6497762, 35.4716682], [-78.6269413, 35.4580435], [-78.6070998, 35.4324558], [-78.5926571, 35.3986075], [-78.5724988, 35.386485], [-78.5676987, 35.3676948], [-78.5298538, 35.3349424], [-78.5451465, 35.3121797], [-78.5835285, 35.296825], [-78.5846376, 35.2733237], [-78.6171294, 35.2455852], [-78.6170512, 35.2281681], [-78.6313676, 35.2134142], [-78.624519, 35.2034249], [-78.6468007, 35.1977117], [-78.6358973, 35.1920198], [-78.6388382, 35.1820574], [-78.6294681, 35.171628], [-78.6389105, 35.1672428], [-78.6323614, 35.1639458], [-78.6399258, 35.1550751], [-78.6355334, 35.1373854], [-78.6525408, 35.1210214], [-78.6392748, 35.1160526], [-78.6538117, 35.111423], [-78.6582407, 35.0944729], [-78.6704812, 35.0927425], [-78.6720193, 35.0850962], [-78.6539371, 35.0496805], [-78.658381, 35.0417909], [-78.6450328, 35.0101235], [-78.6465533, 34.991496], [-78.6075382, 34.9536194], [-78.5728347, 34.9375216], [-78.5618449, 34.9176086], [-78.5444876, 34.9148276], [-78.5468634, 34.9006267], [-78.5139192, 34.8819645], [-78.5132153, 34.869229], [-78.4947072, 34.8561887], [-78.5159137, 34.8458711], [-78.7995944, 34.8508646], [-78.9019999, 34.8352744]], [[-79.347816, 35.506191], [-79.34649595303601, 35.50591584354395], [-79.353409, 35.513027], [-79.347816, 35.506191]], [[-78.92178013638234, 34.87127162129444], [-78.9223216, 34.8754875], [-78.9266444, 34.8867722], [-78.92178013638234, 34.87127162129444]], [[-78.92249409155963, 34.8695968135478], [-78.9216564, 34.8703082], [-78.92168907960992, 34.87056264603675], [-78.92249409155963, 34.8695968135478]], [[-78.9270828, 34.8640914], [-78.92682309945975, 34.863759413554426], [-78.92665252378413, 34.86460763426045], [-78.9270828, 34.8640914]], [[-79.1129202, 35.1256575], [-79.0962655, 35.1778648], [-79.0975931, 35.1742342], [-79.1129202, 35.1256575]], [[-79.343781, 34.859715], [-79.3465594279844, 34.847935039345046], [-79.344398, 34.852905], [-79.343781, 34.859715]], [[-79.45774408732218, 35.04309338965743], [-79.4567569, 35.0384905], [-79.4575942, 35.0430892], [-79.45774408732218, 35.04309338965743]], [[-79.1006310117392, 35.19623650242286], [-79.1205154, 35.2048787], [-79.12189836606089, 35.205069671850644], [-79.1006310117392, 35.19623650242286]], [[-79.096228, 35.1919901], [-79.0987216, 35.1841005], [-79.09868949006399, 35.184018977289995], [-79.096228, 35.1919901]]]}}]}