{"type":"FeatureCollection","features":[{"type":"Feature","properties":{"slug":"fergus-falls","member_count":85,"matched_count":4,"unmatched":["Fergus Falls city (US-MN, type='City')","Perham city (US-MN, type='City')","Pelican Rapids city (US-MN, type='City')","Aurdal township (US-MN, type='Township')","New York Mills city (US-MN, type='City')","Perham township (US-MN, type='Township')","Rush Lake township (US-MN, type='Township')","Parkers Prairie city (US-MN, type='City')","Dunn township (US-MN, type='Township')","Battle Lake city (US-MN, type='City')","Edna township (US-MN, type='Township')","Dane Prairie township (US-MN, type='Township')","Henning city (US-MN, type='City')","Elizabeth township (US-MN, type='Township')","Compton township (US-MN, type='Township')","Hobart township (US-MN, type='Township')","Friberg township (US-MN, type='Township')","Lida township (US-MN, type='Township')","Pine Lake township (US-MN, type='Township')","Fergus Falls township (US-MN, type='Township')","Newton township (US-MN, type='Township')","Everts township (US-MN, type='Township')","Ottertail city (US-MN, type='City')","Girard township (US-MN, type='Township')","Dora township (US-MN, type='Township')","Maine township (US-MN, type='Township')","Sverdrup township (US-MN, type='Township')","Leaf Lake township (US-MN, type='Township')","Corliss township (US-MN, type='Township')","Candor township (US-MN, type='Township')","Otter Tail township (US-MN, type='Township')","Otto township (US-MN, type='Township')","Pelican township (US-MN, type='Township')","Scambler township (US-MN, type='Township')","Dead Lake township (US-MN, type='Township')","Tordenskjold township (US-MN, type='Township')","Clitherall township (US-MN, type='Township')","Gorman township (US-MN, type='Township')","Buse township (US-MN, type='Township')","Amor township (US-MN, type='Township')","Bluffton township (US-MN, type='Township')","Star Lake township (US-MN, type='Township')","Erhards Grove township (US-MN, type='Township')","Tumuli township (US-MN, type='Township')","Deer Creek township (US-MN, type='Township')","Homestead township (US-MN, type='Township')","Eagle Lake township (US-MN, type='Township')","Henning township (US-MN, type='Township')","Parkers Prairie township (US-MN, type='Township')","St. Olaf township (US-MN, type='Township')","Oak Valley township (US-MN, type='Township')","Underwood city (US-MN, type='City')","Vergas city (US-MN, type='City')","Blowers township (US-MN, type='Township')","Nidaros township (US-MN, type='Township')","Norwegian Grove township (US-MN, type='Township')","Deer Creek city (US-MN, type='City')","Leaf Mountain township (US-MN, type='Township')","Elmo township (US-MN, type='Township')","Paddock township (US-MN, type='Township')","Maplewood township (US-MN, type='Township')","Inman township (US-MN, type='Township')","Folden township (US-MN, type='Township')","Eastern township (US-MN, type='Township')","Woodside township (US-MN, type='Township')","Butler township (US-MN, type='Township')","Effington township (US-MN, type='Township')","Bluffton city (US-MN, type='City')","Oscar township (US-MN, type='Township')","Rothsay city (US-MN, type='City')","Aastad township (US-MN, type='Township')","Trondhjem township (US-MN, type='Township')","Carlisle township (US-MN, type='Township')","Dent city (US-MN, type='City')","Orwell township (US-MN, type='Township')","Erhard city (US-MN, type='City')","Western township (US-MN, type='Township')","Richville city (US-MN, type='City')","Clitherall city (US-MN, type='City')","Vining city (US-MN, type='City')","Urbank city (US-MN, type='City')"],"source":"Overture Maps division_area (CC-BY 4.0)"},"geometry":{"type":"MultiPolygon","coordinates":[[[[-76.3025111,36.2955328],[-76.3033779,36.3050429],[-76.2683253,36.3085878],[-76.2818704,36.2779895],[-76.3025111,36.2955328]],[[-76.2850236,36.2948012],[-76.2904656,36.2998422],[-76.2893076,36.294137],[-76.2850236,36.2948012]]],[[[-76.2251147,36.312032],[-76.2358102,36.3244069],[-76.2326247,36.3304887],[-76.2411368,36.3266275],[-76.2404466,36.3359195],[-76.207541,36.3263637],[-76.2168437,36.3185068],[-76.2037986,36.3067374],[-76.2087704,36.3094206],[-76.2182965,36.301588],[-76.2187293,36.298116],[-76.189459,36.2872367],[-76.1913831,36.2778451],[-76.1811353,36.2724302],[-76.1920603,36.262757],[-76.2063424,36.2705718],[-76.212895,36.2643146],[-76.2098081,36.2735095],[-76.2282475,36.2731401],[-76.244184,36.2866678],[-76.2514832,36.2718627],[-76.2616648,36.2847125],[-76.2783397,36.2825623],[-76.2627039,36.2895487],[-76.2632906,36.2990695],[-76.2304434,36.3074718],[-76.2251147,36.312032]],[[-76.2504743,36.2915646],[-76.2524598,36.2894596],[-76.24947,36.292666],[-76.2504743,36.2915646]],[[-76.253592,36.29357],[-76.258083,36.291001],[-76.259388,36.289704],[-76.253592,36.29357]],[[-76.253347,36.298274],[-76.253298,36.297204],[-76.25067,36.298053],[-76.253347,36.298274]],[[-76.1987227,36.2782473],[-76.1979985,36.2792952],[-76.2037827,36.2810782],[-76.2047174,36.2782802],[-76.1987227,36.2782473]],[[-76.1950134,36.2849158],[-76.2007288,36.2843948],[-76.1991409,36.2801293],[-76.197724,36.2796897],[-76.1950134,36.2849158]],[[-76.220009,36.316197],[-76.218862,36.313713],[-76.218065,36.314771],[-76.220009,36.316197]]],[[[-76.2309317,36.3087677],[-76.2306139,36.3089582],[-76.2305914,36.3088002],[-76.2309317,36.3087677]]],[[[-76.2545266,36.309502],[-76.2551784,36.31017],[-76.2544686,36.3098012],[-76.2545266,36.309502]]],[[[-76.2540397,36.310735],[-76.2540331,36.3097829],[-76.2547299,36.3100806],[-76.2540397,36.310735]]],[[[-76.2877347,36.3149086],[-76.2912168,36.3102452],[-76.2918963,36.3172451],[-76.2877347,36.3149086]]],[[[-76.2545522,36.3451257],[-76.2550934,36.3449597],[-76.2550724,36.3459694],[-76.2545522,36.3451257]]],[[[-76.2548345,36.3462237],[-76.2554993,36.3470155],[-76.2532008,36.3459217],[-76.2546294,36.3433582],[-76.2551669,36.3436089],[-76.2543465,36.345392],[-76.2548345,36.3462237]]],[[[-88.802336,39.708864],[-88.8119765,39.7108075],[-88.812277,39.725975],[-88.799924,39.718659],[-88.802336,39.708864]]],[[[-95.15557,46.36888],[-95.154256,46.282428],[-95.145791,46.282368],[-95.14588,46.106761],[-96.2653372,46.1086406],[-96.265513,46.2823335],[-96.2800884,46.282484],[-96.2812291,46.6308005],[-96.172913,46.630688],[-96.1744938,46.7177925],[-95.16371,46.71764],[-95.16301,46.80472],[-94.787126,46.803943],[-94.779121,46.394215],[-94.764885,46.395713],[-94.751798,46.379053],[-94.73196,46.383999],[-94.731442,46.368605],[-95.15557,46.36888]]],[[[-76.2216463,36.2625058],[-76.2157653,36.2644013],[-76.2166322,36.2604196],[-76.2216463,36.2625058]]],[[[-76.1977274,36.2645076],[-76.1990019,36.2638815],[-76.1984987,36.2647897],[-76.1977274,36.2645076]]],[[[-76.2214158,36.2647262],[-76.2255326,36.267126],[-76.2214223,36.2665741],[-76.2214158,36.2647262]]],[[[-76.2206677,36.2701421],[-76.2249204,36.2695391],[-76.2244483,36.2713042],[-76.2206677,36.2701421]]],[[[-76.2237956,36.2715314],[-76.224103,36.2725282],[-76.2233801,36.2723693],[-76.2237956,36.2715314]]],[[[-76.1986018,36.2787667],[-76.1988397,36.2792003],[-76.1984099,36.2790665],[-76.1986018,36.2787667]]],[[[-76.205966,36.300627],[-76.206267,36.300258],[-76.206271,36.300622],[-76.205966,36.300627]]],[[[-76.205459,36.300543],[-76.205268,36.300612],[-76.205299,36.300467],[-76.205459,36.300543]]],[[[-76.2131841,36.3033513],[-76.2071963,36.3004179],[-76.2165145,36.2995638],[-76.2131841,36.3033513]]],[[[-76.2281415,36.3107371],[-76.2287659,36.311273],[-76.2280435,36.3111718],[-76.2281415,36.3107371]]],[[[-76.2282199,36.3117644],[-76.2280132,36.3114305],[-76.2285298,36.3114941],[-76.2282199,36.3117644]]]]}}]}