{"type": "FeatureCollection", "features": [{"type": "Feature", "properties": {"slug": "ferizaj", "members": 5, "country": "Kosovo", "input_hash": "58ff8b263ad61213"}, "geometry": {"type": "Polygon", "coordinates": [[[21.1038827, 42.2059531], [21.0264377, 42.1522535], [20.9836281, 42.139982], [20.9858512, 42.1586686], [20.9626176, 42.1854247], [20.8682878, 42.2017814], [20.8649833, 42.2148311], [20.875816, 42.2177806], [20.8733362, 42.2314998], [20.8824529, 42.2428586], [20.9100019, 42.2402154], [20.9485412, 42.2704741], [20.9835299, 42.2781063], [20.9785866, 42.2944964], [20.986005778893208, 42.30765282384599], [20.9728412, 42.3629993], [20.9326649, 42.3863852], [20.9604069, 42.3877149], [20.9674597, 42.3964155], [20.9442857, 42.4068665], [20.9749676, 42.424516], [20.9573172, 42.4319943], [20.9630584, 42.4392358], [20.9497743, 42.4481842], [20.9029286, 42.4607627], [20.9121887, 42.4724502], [20.9344111, 42.475545], [20.9653232, 42.4953841], [20.9826625, 42.4779529], [21.0028084, 42.4853379], [21.0160273, 42.4746212], [21.0430925, 42.4771406], [21.066494, 42.4692918], [21.0896008, 42.4839178], [21.0984708, 42.4691167], [21.1310754, 42.4725733], [21.144665, 42.4525851], [21.1608735, 42.4554599], [21.1611602, 42.4615147], [21.1792996, 42.4561195], [21.2125579, 42.4662474], [21.2457357, 42.4588993], [21.2577675, 42.4450646], [21.272484, 42.4529779], [21.2846706, 42.4336294], [21.3074638, 42.4188245], [21.2966023, 42.3930105], [21.308739, 42.3815506], [21.3062074, 42.3697276], [21.2857293, 42.3737761], [21.2481391, 42.3635493], [21.2439326, 42.3440608], [21.2565716, 42.3358936], [21.252134663247983, 42.32913530610876], [21.268839, 42.3254425], [21.2866591, 42.3336546], [21.2867115, 42.3217929], [21.2569912, 42.2978713], [21.2883856, 42.259463], [21.3327328, 42.2487185], [21.3431067, 42.2588834], [21.3771467, 42.2381999], [21.3712864, 42.2242542], [21.357798, 42.2202582], [21.345803, 42.2047955], [21.3168053, 42.2143601], [21.3084763, 42.2003455], [21.2985111, 42.2012851], [21.2708516, 42.1738568], [21.2619496, 42.1755539], [21.265436, 42.19087], [21.2540809, 42.1889974], [21.2369683, 42.1602921], [21.2057077, 42.1685909], [21.1975661, 42.1510212], [21.1617526, 42.1970846], [21.1192102, 42.2065222], [21.1247934, 42.2244454], [21.1191045, 42.2068363], [21.1038827, 42.2059531]], [[21.00816630263845, 42.311211049706195], [21.0080937, 42.3112357], [21.00455519960271, 42.310661720736256], [21.00816630263845, 42.311211049706195]], [[21.0770916, 42.3109426], [21.0870832, 42.3082807], [21.077082743830175, 42.3109615885051], [21.0770916, 42.3109426]], [[21.113698429443158, 42.28641087105213], [21.1129683, 42.2867266], [21.11160733255914, 42.28696824979113], [21.113698429443158, 42.28641087105213]], [[21.1957072, 42.2903566], [21.1983732, 42.2919053], [21.194990001925326, 42.29041580400274], [21.1957072, 42.2903566]], [[21.1477501, 42.2654642], [21.1475898, 42.2674767], [21.147553734103603, 42.26507459792984], [21.1477501, 42.2654642]], [[21.1453937, 42.2670477], [21.14122054078002, 42.27234166794654], [21.1419222, 42.2707048], [21.1453937, 42.2670477]], [[21.14116730662693, 42.272465855410154], [21.1435666, 42.2751321], [21.1410197, 42.2728102], [21.14116730662693, 42.272465855410154]], [[21.1354973, 42.280882], [21.13519697367444, 42.280748068630274], [21.1390821, 42.2770418], [21.1354973, 42.280882]]]}}]}