{"type": "FeatureCollection", "features": [{"type": "Feature", "properties": {"slug": "fez", "members": 1, "country": "Morocco", "input_hash": "5b36b32f8f7a77e8"}, "geometry": {"type": "Polygon", "coordinates": [[[-4.8222271, 33.9516198], [-4.7902193, 33.9931627], [-4.8016277, 34.01329], [-4.8100584, 34.0112481], [-4.8169914, 34.024139], [-4.8298639, 34.0199419], [-4.8567289, 34.0356979], [-4.9115532, 34.0491612], [-4.9410219, 34.0440555], [-4.9395126, 34.0744888], [-4.9492758, 34.0647341], [-4.9586528, 34.0728536], [-4.9911183, 34.0755055], [-5.0364583, 34.068019], [-5.0576585, 34.0567489], [-5.0542562, 34.0453732], [-5.0776142, 34.0265221], [-5.0694173, 33.9939362], [-5.0523799, 33.9764285], [-5.0223392, 33.9811616], [-5.0217169, 33.9890472], [-5.0041503, 33.9839699], [-4.9891656, 33.9110277], [-4.9817246, 33.9019881], [-4.9559492, 33.9022301], [-4.9643176, 33.847929], [-4.9473661, 33.8460756], [-4.941594, 33.8525837], [-4.9517005, 33.8632181], [-4.9299425, 33.8731242], [-4.9265092, 33.9099592], [-4.9065965, 33.9295814], [-4.8870271, 33.9316822], [-4.8814052, 33.9440014], [-4.8222271, 33.9516198]]]}}]}