{"type": "FeatureCollection", "features": [{"type": "Feature", "properties": {"slug": "forbach", "members": 169, "country": "France", "input_hash": "c79842eb4b1ba870"}, "geometry": {"type": "Polygon", "coordinates": [[[6.7825842, 49.1682043], [6.8341753, 49.1512816], [6.8473818, 49.1571711], [6.844514, 49.1730381], [6.8591839, 49.174613], [6.8618825, 49.1818272], [6.8362284, 49.2112717], [6.8594026, 49.2227527], [6.8926111, 49.2088272], [6.9187594, 49.222736], [6.9382298, 49.2224477], [6.9564689, 49.2043593], [6.9753345, 49.2093795], [7.0199196, 49.1840211], [7.0139398, 49.1726294], [6.9861033, 49.1636464], [6.9750796, 49.1445506], [6.9887765, 49.1254846], [6.9714878, 49.1097872], [6.9717253, 49.0838631], [6.9509247, 49.0805022], [6.9524828, 49.08934], [6.9377932, 49.083067], [6.9219575, 49.1004093], [6.9106988, 49.098903], [6.9097169, 49.0814243], [6.8807018, 49.0726854], [6.90811, 49.0674554], [6.8562025, 49.0460143], [6.8602751, 49.0309452], [6.8480809, 49.0223041], [6.8609624, 49.019274], [6.8643415, 49.0100385], [6.8831592, 49.010366], [6.8756902, 49.0008644], [6.8946105, 48.9817648], [6.8748135, 48.9847751], [6.8743298, 48.9782705], [6.8530541, 48.9768779], [6.8523374, 48.9689604], [6.8315237, 48.9606903], [6.8368144, 48.96799], [6.8271511, 48.9781711], [6.8120832, 48.9737721], [6.8118385, 48.9836521], [6.8232251, 48.9876554], [6.7890126, 48.9909793], [6.7975758, 48.9771731], [6.7924132, 48.9697689], [6.7817561, 48.9750301], [6.7666848, 48.9691052], [6.7810774, 48.9603519], [6.7528592, 48.9594842], [6.691268, 48.9388144], [6.7076172, 48.9226212], [6.6672278, 48.9134195], [6.6488717, 48.9002374], [6.6274091, 48.9152329], [6.6054695, 48.9121249], [6.5959998, 48.9324322], [6.5727516, 48.9339724], [6.5615975, 48.953207], [6.5370007, 48.9401483], [6.5359715, 48.9576692], [6.5198973, 48.969997], [6.4690044, 48.9659928], [6.4331653, 48.9906206], [6.4273459, 49.0167576], [6.4031727, 49.013458], [6.4119741, 49.0204303], [6.3985017, 49.0239416], [6.423606, 49.0387959], [6.4509139, 49.0284808], [6.4488535, 49.0531034], [6.4839746, 49.0590435], [6.5005799, 49.0509261], [6.4848895, 49.0613633], [6.4827366, 49.0726289], [6.4964417, 49.085066], [6.4930385, 49.0921529], [6.5006806, 49.1020816], [6.447789, 49.1001619], [6.4376224, 49.0927636], [6.419865, 49.101063], [6.433216, 49.108632], [6.418686, 49.120267], [6.432855, 49.133054], [6.42133, 49.14482], [6.403454, 49.137311], [6.3936844, 49.1512386], [6.4063488, 49.1505875], [6.4063741, 49.1643761], [6.4206359, 49.1712294], [6.4134378, 49.1799438], [6.4339229, 49.1965021], [6.4257996, 49.2088566], [6.4087864, 49.2141871], [6.4276933, 49.2193285], [6.4250216, 49.2296152], [6.3995351, 49.2314472], [6.4043821, 49.2387625], [6.3769637, 49.2444049], [6.3976362, 49.2586102], [6.3752299, 49.2573309], [6.3775027, 49.2643883], [6.3678908, 49.2671778], [6.3756468, 49.2692289], [6.3785194, 49.2901558], [6.3878243, 49.2970173], [6.3757999, 49.303239], [6.4112293, 49.3160238], [6.4236786, 49.3272147], [6.4166385, 49.3347014], [6.451655, 49.3498051], [6.4308263, 49.3548432], [6.445618, 49.361711], [6.475536, 49.358668], [6.4727174, 49.3485683], [6.4916555, 49.3424257], [6.5563722, 49.3675208], [6.5419216, 49.3695527], [6.5553962, 49.3779137], [6.5517664, 49.3945153], [6.5768227, 49.389705], [6.5875909, 49.3842822], [6.5832277, 49.3685155], [6.6022999, 49.3671105], [6.5883339, 49.3496021], [6.574053, 49.3587521], [6.5635818, 49.3559035], [6.5657732, 49.3478313], [6.5784729, 49.3348622], [6.591339, 49.3359047], [6.5956746, 49.3300417], [6.5890954, 49.3221256], [6.6153787, 49.3016258], [6.6387971, 49.2956153], [6.6532691, 49.2812149], [6.6703217, 49.280265], [6.6605241, 49.2612112], [6.6900659, 49.2496544], [6.6847753, 49.2416906], [6.6896776, 49.2204998], [6.697153, 49.2152107], [6.7196376, 49.2213359], [6.7315097, 49.2059878], [6.7112786, 49.1884036], [6.7204236, 49.1752618], [6.7385568, 49.1636722], [6.7825842, 49.1682043]]]}}]}