{"type":"FeatureCollection","features":[{"type":"Feature","properties":{"slug":"fort-wayne","member_count":196,"matched_count":12,"unmatched":["Balance of Monroe township (US-IN, type='Balance')","Berne city (US-IN, type='City')","Balance of Wabash township (US-IN, type='Balance')","Balance of Root township (US-IN, type='Balance')","Balance of Washington township (US-IN, type='Balance')","Blue Creek township (US-IN, type='Township')","Berne city (US-IN, type='City')","Jefferson township (US-IN, type='Township')","St. Marys township (US-IN, type='Township')","Geneva town (US-IN, type='Town')","French township (US-IN, type='Township')","Preble township (US-IN, type='Township')","Hartford township (US-IN, type='Township')","Kirkland township (US-IN, type='Township')","Union township (US-IN, type='Township')","Monroe town (US-IN, type='Town')","Monroe town (US-IN, type='Town')","Fort Wayne city (US-IN, type='City')","Fort Wayne city (US-IN, type='City')","Fort Wayne city (US-IN, type='City')","Fort Wayne city (US-IN, type='City')","Fort Wayne city (US-IN, type='City')","Balance of Perry township (US-IN, type='Balance')","Balance of Aboite township (US-IN, type='Balance')","New Haven city (US-IN, type='City')","Fort Wayne city (US-IN, type='City')","Huntertown town (US-IN, type='Town')","Balance of Cedar Creek township (US-IN, type='Balance')","Balance of St. Joseph township (US-IN, type='Balance')","Springfield township (US-IN, type='Township')","Balance of Washington township (US-IN, type='Balance')","Balance of Lafayette township (US-IN, type='Balance')","Balance of Milan township (US-IN, type='Balance')","Marion township (US-IN, type='Township')","Leo-Cedarville town (US-IN, type='Town')","Balance of Eel River township (US-IN, type='Balance')","Balance of Pleasant township (US-IN, type='Balance')","Lake township (US-IN, type='Township')","Balance of Adams township (US-IN, type='Balance')","Balance of Jefferson township (US-IN, type='Balance')","Madison township (US-IN, type='Township')","Woodburn city (US-IN, type='City')","Balance of Wayne township (US-IN, type='Balance')","Monroeville town (US-IN, type='Town')","Huntertown town (US-IN, type='Town')","Grabill town (US-IN, type='Town')","Balance of Maumee township (US-IN, type='Balance')","New Haven city (US-IN, type='City')","Balance of Monroe township (US-IN, type='Balance')","Jackson township (US-IN, type='Township')","Scipio township (US-IN, type='Township')","New Haven city (US-IN, type='City')","Zanesville town (US-IN, type='Town')","Fort Wayne city (US-IN, type='City')","Fort Wayne city (US-IN, type='City')","Auburn city (US-IN, type='City')","Garrett city (US-IN, type='City')","Balance of Jackson township (US-IN, type='Balance')","Butler city (US-IN, type='City')","Waterloo town (US-IN, type='Town')","Butler township (US-IN, type='Township')","Fairfield township (US-IN, type='Township')","Balance of Wilmington township (US-IN, type='Balance')","Balance of Spencer township (US-IN, type='Balance')","Balance of Richland township (US-IN, type='Balance')","Balance of Smithfield township (US-IN, type='Balance')","Balance of Grant township (US-IN, type='Balance')","Balance of Concord township (US-IN, type='Balance')","Balance of Keyser township (US-IN, type='Balance')","Balance of Franklin township (US-IN, type='Balance')","Balance of Union township (US-IN, type='Balance')","Ashley town (US-IN, type='Town')","Newville township (US-IN, type='Township')","Auburn city (US-IN, type='City')","St. Joe town (US-IN, type='Town')","Troy township (US-IN, type='Township')","Stafford township (US-IN, type='Township')","Corunna town (US-IN, type='Town')","Hamilton town (US-IN, type='Town')","Altona town (US-IN, type='Town')","Auburn city (US-IN, type='City')","Waterloo town (US-IN, type='Town')","Auburn city (US-IN, type='City')","St. Joe town (US-IN, type='Town')","Balance of Huntington township (US-IN, type='Balance')","Balance of Jackson township (US-IN, type='Balance')","Clear Creek township (US-IN, type='Township')","Roanoke town (US-IN, type='Town')","Balance of Union township (US-IN, type='Balance')","Warren town (US-IN, type='Town')","Balance of Lancaster township (US-IN, type='Balance')","Balance of Salamonie township (US-IN, type='Balance')","Andrews town (US-IN, type='Town')","Balance of Dallas township (US-IN, type='Balance')","Balance of Jefferson township (US-IN, type='Balance')","Balance of Rock Creek township (US-IN, type='Balance')","Warren township (US-IN, type='Township')","Markle town (US-IN, type='Town')","Balance of Wayne township (US-IN, type='Balance')","Balance of Polk township (US-IN, type='Balance')","Mount Etna town (US-IN, type='Town')","Mount Etna town (US-IN, type='Town')","Mount Etna town (US-IN, type='Town')","Mount Etna town (US-IN, type='Town')","Markle town (US-IN, type='Town')","Kendallville city (US-IN, type='City')","Ligonier city (US-IN, type='City')","Noble township (US-IN, type='Township')","Balance of Wayne township (US-IN, type='Balance')","Avilla town (US-IN, type='Town')","Balance of Perry township (US-IN, type='Balance')","Balance of Sparta township (US-IN, type='Balance')","Balance of Allen township (US-IN, type='Balance')","Swan township (US-IN, type='Township')","Kendallville city (US-IN, type='City')","Albion town (US-IN, type='Town')","Green township (US-IN, type='Township')","Elkhart township (US-IN, type='Township')","Balance of Orange township (US-IN, type='Balance')","Balance of Jefferson township (US-IN, type='Balance')","Balance of York township (US-IN, type='Balance')","Rome City town (US-IN, type='Town')","Washington township (US-IN, type='Township')","Wolcottville town (US-IN, type='Town')","Cromwell town (US-IN, type='Town')","Balance of Albion township (US-IN, type='Balance')","Albion town (US-IN, type='Town')","Albion town (US-IN, type='Town')","Angola city (US-IN, type='City')","Balance of Pleasant township (US-IN, type='Balance')","Jamestown township (US-IN, type='Township')","Balance of Steuben township (US-IN, type='Balance')","Fremont town (US-IN, type='Town')","Balance of Salem township (US-IN, type='Balance')","Jackson township (US-IN, type='Township')","Hamilton town (US-IN, type='Town')","Balance of Millgrove township (US-IN, type='Balance')","Balance of Otsego township (US-IN, type='Balance')","Balance of Scott township (US-IN, type='Balance')","Balance of Fremont township (US-IN, type='Balance')","York township (US-IN, type='Township')","Balance of Clear Lake township (US-IN, type='Balance')","Richland township (US-IN, type='Township')","Orland town (US-IN, type='Town')","Ashley town (US-IN, type='Town')","Clear Lake town (US-IN, type='Town')","Hudson town (US-IN, type='Town')","Hudson town (US-IN, type='Town')","Angola city (US-IN, type='City')","Bluffton city (US-IN, type='City')","Bluffton city (US-IN, type='City')","Ossian town (US-IN, type='Town')","Balance of Lancaster township (US-IN, type='Balance')","Balance of Jefferson township (US-IN, type='Balance')","Balance of Harrison township (US-IN, type='Balance')","Balance of Union township (US-IN, type='Balance')","Nottingham township (US-IN, type='Township')","Balance of Liberty township (US-IN, type='Balance')","Balance of Rockcreek township (US-IN, type='Balance')","Balance of Chester township (US-IN, type='Balance')","Jackson township (US-IN, type='Township')","Zanesville town (US-IN, type='Town')","Markle town (US-IN, type='Town')","Uniondale town (US-IN, type='Town')","Poneto town (US-IN, type='Town')","Poneto town (US-IN, type='Town')","Vera Cruz town (US-IN, type='Town')","Markle town (US-IN, type='Town')","Uniondale town (US-IN, type='Town')","Poneto town (US-IN, type='Town')","Columbia City city (US-IN, type='City')","Thorncreek township (US-IN, type='Township')","Balance of Smith township (US-IN, type='Balance')","Balance of Columbia township (US-IN, type='Balance')","Jefferson township (US-IN, type='Township')","Balance of Union township (US-IN, type='Balance')","Etna-Troy township (US-IN, type='Township')","Churubusco town (US-IN, type='Town')","South Whitley town (US-IN, type='Town')","Balance of Cleveland township (US-IN, type='Balance')","Balance of Richland township (US-IN, type='Balance')","Washington township (US-IN, type='Township')","Columbia City city (US-IN, type='City')","Larwill town (US-IN, type='Town')"],"source":"Overture Maps division_area (CC-BY 4.0)"},"geometry":{"type":"MultiPolygon","coordinates":[[[[-85.687996,39.130669],[-85.684515,39.350049],[-85.63063,39.350205],[-85.6292072,39.4531402],[-85.2975961,39.4533601],[-85.29654,39.268291],[-85.566368,39.13253],[-85.687996,39.130669]]],[[[-85.4490324,40.6536748],[-85.6384461,40.653209],[-85.643729,41.0022643],[-85.6832577,41.001768],[-85.687637,41.178982],[-85.652245,41.178753],[-85.654747,41.523347],[-85.194084,41.526437],[-85.1966189,41.7596799],[-84.805883,41.760216],[-84.8024611,40.572207],[-85.4455113,40.566317],[-85.4490324,40.6536748]]]]}}]}