{"type":"FeatureCollection","features":[{"type":"Feature","properties":{"slug":"fort-dodge-ia","member_count":17,"matched_count":17,"unmatched":[],"source":"Overture Maps division_area (CC-BY 4.0)"},"geometry":{"type":"MultiPolygon","coordinates":[[[[-92.1814234,41.4351539],[-92.1610497,41.4438619],[-92.1706827,41.4312384],[-92.1814234,41.4351539]]],[[[-94.4430818,42.6451527],[-93.9713414,42.6446908],[-93.9715694,42.472069],[-93.9316738,42.4719864],[-93.9315712,42.2099224],[-94.3975333,42.2091535],[-94.3975752,42.4732992],[-94.4433429,42.4733699],[-94.4430818,42.6451527]]]]}}]}