{"type": "FeatureCollection", "features": [{"type": "Feature", "properties": {"slug": "foz-do-iguacu", "members": 1, "country": "Brazil", "input_hash": "41da219b90940b15"}, "geometry": {"type": "Polygon", "coordinates": [[[-54.5935346, -25.5927528], [-54.5543835, -25.5875373], [-54.5357776, -25.5976692], [-54.5376745, -25.6173766], [-54.5264199, -25.6286655], [-54.5009003, -25.6144865], [-54.4691043, -25.6366776], [-54.4456993, -25.6649532], [-54.4328837, -25.6975601], [-54.4239777, -25.6892649], [-54.4254879, -25.6630935], [-54.3975071, -25.6408105], [-54.3839459, -25.5974707], [-54.3714531, -25.5941873], [-54.3483138, -25.6070495], [-54.33074, -25.5733756], [-54.2940195, -25.5579898], [-54.306, -25.549], [-54.308, -25.536], [-54.322, -25.533], [-54.4864704, -25.5522169], [-54.4859036, -25.4039053], [-54.5074843, -25.3666755], [-54.4853312, -25.3405804], [-54.4780557, -25.3445733], [-54.466913, -25.3246506], [-54.4432502, -25.3344005], [-54.4378895, -25.3518222], [-54.4208848, -25.3555457], [-54.4163838, -25.3696025], [-54.3991389, -25.3770831], [-54.385, -25.259], [-54.3951316, -25.2322661], [-54.4088605, -25.2480179], [-54.4110557, -25.236663], [-54.4209997, -25.2424863], [-54.4210213, -25.2343448], [-54.4370755, -25.233168], [-54.4424108, -25.2234833], [-54.460607, -25.2273454], [-54.4736229, -25.211494], [-54.5016217, -25.2972372], [-54.5828462, -25.3915863], [-54.604509, -25.4419449], [-54.6191298, -25.4523115], [-54.6175719, -25.4693831], [-54.6017705, -25.4855085], [-54.5935346, -25.5927528]]]}}]}