{"type":"FeatureCollection","features":[{"type":"Feature","properties":{"slug":"frankfurt-oder","member_count":2,"matched_count":2,"unmatched":[],"source":"Overture Maps division_area (CC-BY 4.0)"},"geometry":{"type":"Polygon","coordinates":[[[14.5514734,52.375667],[14.5614399,52.3278059],[14.5749323,52.3226189],[14.5848295,52.3063473],[14.5746138,52.2904176],[14.6008948,52.2720045],[14.5979501,52.2678544],[14.5759811,52.2870349],[14.5820171,52.2769153],[14.5529216,52.2705585],[14.5494005,52.2612775],[14.533311,52.2631448],[14.5349207,52.2560518],[14.5017781,52.2628568],[14.5073606,52.2547714],[14.4920149,52.2528709],[14.4671895,52.2761181],[14.3948254,52.2687541],[14.4039497,52.2940891],[14.3957997,52.2987116],[14.3980054,52.3079783],[14.4362913,52.3429005],[14.4078174,52.3538706],[14.430983,52.3942016],[14.5343762,52.3949997],[14.5514734,52.375667]]]}}]}