{"type": "FeatureCollection", "features": [{"type": "Feature", "properties": {"slug": "franceville", "members": 1, "country": "Gabon", "input_hash": "1aedb5091389d3b0"}, "geometry": {"type": "Polygon", "coordinates": [[[13.30647899351078, -1.093134862783643], [13.274244612299071, -1.129223408233656], [13.302826927620686, -1.143130040518884], [13.369419041555545, -1.236932884944622], [13.368181269550007, -1.262424914777966], [13.334018772448417, -1.353748646682675], [13.34268317468883, -1.424280894647495], [13.366200834700805, -1.469816363134612], [13.38229186627666, -1.540839931417679], [13.33428179896589, -1.950660606501742], [13.343565086759384, -1.97462836280863], [13.355942803217829, -1.986612112359069], [13.426341065687666, -1.988544966776772], [13.437945174530228, -2.018697204312502], [13.455738140702692, -2.030680631006248], [13.475851930622127, -2.027201581187967], [13.485274467642625, -2.007502285202236], [13.531319572040672, -1.986225540576186], [13.524883160129775, -2.003296438379891], [13.527853811504258, -2.033974125505438], [13.59730827325825, -1.989318108543841], [13.608912382100812, -1.974241789227165], [13.632120599785878, -1.969216319177747], [13.642951101911876, -1.974241789227165], [13.674669000673873, -2.026815019297658], [13.678150233146766, -2.061605191925992], [13.714509774906219, -2.120066424625747], [13.74172860289275, -2.133955955402996], [13.75667, -2.109656], [13.761181, -2.082874], [13.779968, -2.129256], [13.809615, -2.149731], [13.832371, -2.219246], [13.876831, -2.270468], [13.887770984843144, -2.302872816627143], [13.908546570567808, -2.31466754487127], [13.920813341140232, -2.3423680883782914], [13.929643, -2.339856], [13.935844, -2.34806], [13.929328, -2.364253], [13.922705, -2.368255], [13.910961, -2.360297], [13.902863840914026, -2.3776222952998647], [13.914874059290469, -2.373908043721201], [13.986432732284811, -2.334100890643526], [14.006159717497042, -2.308206309873242], [14.016990219622983, -2.268783807626562], [14.032075561837758, -2.247526128627896], [14.041745652539873, -2.213126683549547], [14.048321314577038, -2.056966545469663], [14.017763827238866, -1.993570378370237], [13.899788717075694, -1.893059286656694], [13.835192509926458, -1.760066474088433], [13.844475796820632, -1.738802190468675], [13.809276666485005, -1.722563848143011], [13.753963746229942, -1.663408727330875], [13.74506726224439, -1.644463245782106], [13.745454065153012, -1.586465763783906], [13.685278559158235, -1.567833221126193], [13.659612126498473, -1.575435229951836], [13.643451780575276, -1.569733726030563], [13.63537160761365, -1.51588543356587], [13.63628260735652, -1.27776951175349], [13.643956791272956, -1.258712498982618], [13.595683697444713, -1.189165608505959], [13.591722827746366, -1.165405409432026], [13.599644566243796, -1.128279699248651], [13.540448137771364, -1.110443719402099], [13.516853116278355, -1.094587705857919], [13.478559556378457, -1.111603912290661], [13.42711467150491, -1.093814240334893], [13.338149835246725, -1.113150835242777], [13.30647899351078, -1.093134862783643]]]}}]}