{"type": "FeatureCollection", "features": [{"type": "Feature", "properties": {"slug": "fredrikstad", "members": 1, "country": "Norway", "input_hash": "681814a458ccbd3d"}, "geometry": {"type": "MultiPolygon", "coordinates": [[[[10.7707134, 59.1018285], [10.784299, 59.1018882], [10.7833066, 59.091467], [10.7747772, 59.0964142], [10.7707134, 59.1018285]]], [[[10.7582786, 59.1098148], [10.7557442, 59.1136871], [10.7716253, 59.1106741], [10.7582786, 59.1098148]]], [[[10.744334, 59.1169154], [10.7374058, 59.1179961], [10.7402195, 59.1191415], [10.744334, 59.1169154]]], [[[10.8320045, 59.1536867], [10.8296039, 59.1507404], [10.8261899, 59.1525339], [10.8320045, 59.1536867]]], [[[10.8335297, 59.162937], [10.8254884, 59.1532185], [10.8217979, 59.154949], [10.8335297, 59.162937]]], [[[10.9010318, 59.1593453], [10.8944845, 59.1561215], [10.8939941, 59.1605339], [10.9010318, 59.1593453]]], [[[10.9124436, 59.1577892], [10.8962554, 59.1556692], [10.9059227, 59.1625793], [10.9124436, 59.1577892]]], [[[10.8045287, 59.1571269], [10.8062668, 59.160977], [10.8111591, 59.161296], [10.8045287, 59.1571269]]], [[[10.815876, 59.161352], [10.8124564, 59.15713], [10.8118625, 59.161108], [10.815876, 59.161352]]], [[[10.8971935, 59.1673151], [10.9002851, 59.1671954], [10.895942, 59.1638419], [10.8971935, 59.1673151]]], [[[10.9030547, 59.1677177], [10.897121, 59.1689791], [10.9005287, 59.1731345], [10.9030547, 59.1677177]]], [[[10.7985413, 59.1737179], [10.8058879, 59.1730622], [10.8047636, 59.1684715], [10.7985413, 59.1737179]]], [[[10.708244, 59.172284], [10.70866, 59.175606], [10.7137884, 59.1746521], [10.708244, 59.172284]]], [[[10.721579, 59.1822703], [10.7244003, 59.1857698], [10.7259534, 59.1835928], [10.721579, 59.1822703]]], [[[10.7626814, 59.2302805], [10.7921912, 59.2070037], [10.776084, 59.1934289], [10.76686, 59.2000867], [10.7677512, 59.2123635], [10.7581475, 59.2110015], [10.754531, 59.2179981], [10.7626814, 59.2302805]]], [[[10.7456107, 59.2236059], [10.7497445, 59.2225764], [10.7487682, 59.2212759], [10.7456107, 59.2236059]]], [[[10.7412752, 59.2313242], [10.7488638, 59.2290465], [10.7360507, 59.2225114], [10.7412752, 59.2313242]]], [[[10.695254, 59.222117], [10.708383, 59.215033], [10.687294, 59.222732], [10.6880147, 59.2441881], [10.7037333, 59.252353], [10.7002501, 59.2409517], [10.706402, 59.2348497], [10.695254, 59.222117]]], [[[10.9827773, 59.1141978], [10.9864234, 59.1144325], [10.985735, 59.111631], [10.9827773, 59.1141978]]], [[[11.0123718, 59.1189707], [11.0186702, 59.1224095], [11.0164177, 59.1148388], [11.0123718, 59.1189707]]], [[[10.9331962, 59.1134541], [10.9486779, 59.12402], [10.9464678, 59.1182935], [10.9331962, 59.1134541]]], [[[10.9382656, 59.1265514], [10.9442944, 59.1259769], [10.936852, 59.1175721], [10.9364397, 59.123325], [10.9278131, 59.1189626], [10.9382656, 59.1265514]]], [[[11.104446, 59.127555], [11.1110936, 59.1312372], [11.113884, 59.127178], [11.104446, 59.127555]]], [[[10.928820505777386, 59.13064742770484], [10.9304228, 59.134324], [10.9362915, 59.135559], [10.928820505777386, 59.13064742770484]]], [[[10.9119948, 59.1346793], [10.9222904, 59.1345896], [10.9209863, 59.1332147], [10.9119948, 59.1346793]]], [[[11.1230822, 59.1349707], [11.1225384, 59.1335472], [11.1190087, 59.1364039], [11.1230822, 59.1349707]]], [[[10.9071024, 59.1382008], [10.9118432, 59.1411712], [10.9082758, 59.1368497], [10.9071024, 59.1382008]]], [[[10.9486726, 59.1494063], [10.9573033, 59.1459039], [10.9512662, 59.1300121], [10.9381898, 59.1345718], [10.9486726, 59.1494063]]], [[[11.1130821, 59.1485743], [11.1139268, 59.1504791], [11.117667, 59.148078], [11.1130821, 59.1485743]]], [[[10.9837887, 59.1509189], [10.9900342, 59.1519457], [10.9876169, 59.1466766], [10.9837887, 59.1509189]]], [[[11.0028344, 59.1537112], [11.0102481, 59.1554549], [11.0078609, 59.1529162], [11.0028344, 59.1537112]]], [[[11.114552296250999, 59.161944282870984], [11.1163318, 59.1604984], [11.11527474924833, 59.159662132474274], [11.114552296250999, 59.161944282870984]]], [[[10.9787379, 59.157679], [10.975506, 59.163119], [10.9884652, 59.1699107], [10.9787379, 59.157679]]], [[[11.0020456, 59.1656053], [11.0009386, 59.1677488], [11.0076367, 59.1685155], [11.0020456, 59.1656053]]], [[[10.9609288, 59.1761564], [10.976985, 59.175769], [10.970983, 59.175476], [10.9609288, 59.1761564]]], [[[10.7458101, 59.2861283], [10.7964755, 59.2943994], [10.7888962, 59.3004197], [10.7993333, 59.3041024], [10.7935837, 59.2982454], [10.8428586, 59.2904062], [10.8713439, 59.296517], [10.8891996, 59.3108397], [10.9140478, 59.2983766], [10.9180109, 59.2835471], [10.9289117, 59.2913587], [10.9071045, 59.3072374], [10.9608824, 59.3239584], [10.9807272, 59.3052265], [11.0005636, 59.2998673], [11.0331247, 59.2610112], [11.0949817, 59.2706265], [11.1109625, 59.2646441], [11.117745, 59.2524799], [11.1307181, 59.2484987], [11.1151672, 59.232684], [11.1095378, 59.2378614], [11.098258, 59.2352206], [11.1031661, 59.2307977], [11.0795072, 59.2127531], [11.0623284, 59.2170068], [11.0768325, 59.1884601], [11.1078454, 59.1596513], [11.1059455, 59.1327138], [11.0736498, 59.1221794], [11.0678669, 59.1237503], [11.070746, 59.1402519], [11.030381, 59.130014], [11.04423, 59.161799], [11.0062377, 59.1461439], [11.0195877, 59.1610269], [11.0037403, 59.1737709], [11.0211767, 59.1837218], [11.0130468, 59.1874694], [10.9961922, 59.1768864], [10.9919028, 59.1883728], [10.9792662, 59.1887284], [10.9704505, 59.1778339], [10.9491192, 59.1744955], [10.9498823, 59.1538033], [10.9310056, 59.1361548], [10.9097105, 59.1434288], [10.919831, 59.152689], [10.8992699, 59.1480465], [10.9099834, 59.1508543], [10.9146308, 59.1593406], [10.9083486, 59.1635496], [10.9167369, 59.1695661], [10.9045684, 59.1698762], [10.9003942, 59.1857165], [10.8827513, 59.175001], [10.857952, 59.188021], [10.8538872, 59.1768414], [10.8602005, 59.1712826], [10.8478283, 59.1730772], [10.8415838, 59.1631962], [10.8277411, 59.1667935], [10.8156781, 59.1814842], [10.8232303, 59.18593], [10.8103406, 59.1909765], [10.8151359, 59.1943234], [10.7968833, 59.1953307], [10.8028439, 59.1884206], [10.7943355, 59.1933162], [10.7903941, 59.1879415], [10.7897112, 59.1973567], [10.8057239, 59.2072008], [10.7623298, 59.2340739], [10.7931956, 59.2640713], [10.7593815, 59.2352913], [10.7331531, 59.234262], [10.7297542, 59.2280131], [10.7372042, 59.2545314], [10.728489, 59.2503281], [10.726807, 59.2618651], [10.7397069, 59.2657943], [10.7403603, 59.2540791], [10.7485499, 59.2698752], [10.7389608, 59.2748685], [10.7298557, 59.268865], [10.7322667, 59.2769734], [10.7244285, 59.268245], [10.7313808, 59.2816215], [10.745134, 59.2815724], [10.7422893, 59.2752446], [10.748874, 59.282339], [10.7458101, 59.2861283]]]]}}]}