{"type":"FeatureCollection","features":[{"type":"Feature","properties":{"slug":"fribourg","member_count":27,"matched_count":21,"unmatched":["District de la Sarine (CH-FR, type='District')","Fribourg (CH-FR, type='City')","Hauterive (FR) (Ecuvillens - Posieux) (CH-FR, type='Commune')","Grolley (CH-FR, type='Commune')","Cottens (FR) (CH-FR, type='Commune')","Ponthaux (CH-FR, type='Commune')"],"source":"Overture Maps division_area (CC-BY 4.0)"},"geometry":{"type":"Polygon","coordinates":[[[7.1135055,46.7190948],[7.0384561,46.685059],[7.0090512,46.7055786],[7.0040013,46.7155895],[7.0126564,46.7209476],[7.0092442,46.7314857],[6.9830023,46.7420578],[6.9743101,46.7643183],[6.9941004,46.7900076],[7.012494,46.7957966],[7.0077941,46.8061472],[7.0156431,46.8130522],[7.0644929,46.8079345],[7.0662817,46.7979657],[7.0897344,46.8067624],[7.0906338,46.8179057],[7.0779098,46.8248691],[7.0854199,46.8307677],[7.0740673,46.8423029],[7.078269,46.8463814],[7.1180328,46.8487783],[7.129585,46.836948],[7.1448199,46.8475272],[7.1471742,46.8328888],[7.1720139,46.8207744],[7.1420702,46.814973],[7.1357629,46.7991656],[7.1597866,46.7848931],[7.1668235,46.7936521],[7.1957177,46.7912654],[7.1919228,46.7840532],[7.2000334,46.7781897],[7.1847967,46.7637225],[7.2087444,46.7387405],[7.2199903,46.7376552],[7.2172123,46.717307],[7.1926064,46.7007437],[7.1565395,46.7150065],[7.1135055,46.7190948]],[[7.0219698,46.7440986],[7.086209,46.7448659],[7.0981789,46.7577219],[7.1157489,46.7573596],[7.1111427,46.7640262],[7.1198249,46.7623527],[7.1193536,46.7700154],[7.1275373,46.7705154],[7.1213044,46.7745795],[7.132986,46.7835746],[7.1083516,46.7873189],[7.059067,46.7546144],[7.0445816,46.7591804],[7.0453925,46.7670379],[7.0155209,46.7546327],[7.0219698,46.7440986]]]}}]}