{"type":"FeatureCollection","features":[{"type":"Feature","properties":{"slug":"fuyang","member_count":8,"matched_count":8,"unmatched":[],"source":"Overture Maps division_area (CC-BY 4.0)"},"geometry":{"type":"MultiPolygon","coordinates":[[[[118.7137451,29.5479417],[118.7226412,29.5747796],[118.7461803,29.5784373],[118.7755344,29.6049329],[118.7920781,29.5828601],[118.8296804,29.6000483],[118.8537559,29.5990595],[118.8696056,29.6103824],[118.8649309,29.6290995],[118.8843096,29.6404801],[118.8935822,29.6366385],[118.9099454,29.6048743],[118.8940671,29.5965304],[118.8966687,29.5714978],[118.9316107,29.5589967],[118.9371682,29.5445117],[118.9559222,29.5345801],[118.9177994,29.5036652],[118.7529937,29.4843585],[118.7190223,29.5042764],[118.7262711,29.5152653],[118.7438722,29.51501],[118.732207,29.523929],[118.7511725,29.5486865],[118.7137451,29.5479417]]],[[[115.9597773,32.6054119],[115.9238076,32.5696823],[115.907371,32.5794738],[115.8864283,32.5783799],[115.8581471,32.5418208],[115.8353698,32.5290492],[115.8356809,32.5029758],[115.8176029,32.5038987],[115.7779813,32.4677348],[115.7810926,32.4882077],[115.7652139,32.5079703],[115.758605,32.4887688],[115.7378232,32.4784153],[115.6918287,32.4953115],[115.6860888,32.4853389],[115.6954014,32.4721882],[115.6691265,32.467436],[115.6762934,32.4456908],[115.6597871,32.4106561],[115.6501365,32.4125423],[115.6504798,32.4323758],[115.6212491,32.4073794],[115.6007838,32.4282238],[115.5601054,32.4062653],[115.5483466,32.4092136],[115.5655342,32.4222422],[115.543524,32.4254391],[115.5319905,32.4413311],[115.5188262,32.443133],[115.471268,32.5228708],[115.4328883,32.534689],[115.4377216,32.5474236],[115.4261184,32.5542605],[115.4041692,32.5502113],[115.4038131,32.5787867],[115.3846675,32.5672817],[115.3827578,32.5727383],[115.3160191,32.5663911],[115.3189105,32.5571859],[115.3031364,32.5541136],[115.2911094,32.5639452],[115.3052795,32.5721732],[115.2921689,32.5760564],[115.3001189,32.585402],[115.2956906,32.5903603],[115.2874879,32.5829589],[115.2760407,32.5931602],[115.2601084,32.5802874],[115.2488914,32.5878947],[115.2564847,32.5917862],[115.2491301,32.5972481],[115.2217689,32.5806536],[115.2245155,32.5924348],[115.1934662,32.5952415],[115.1863396,32.6049059],[115.1938578,32.6102427],[115.2016899,32.6054866],[115.2044123,32.6138079],[115.1940429,32.6211887],[115.1980796,32.6291336],[115.1889682,32.6335926],[115.1894805,32.6450642],[115.2088809,32.6413128],[115.2029505,32.6511439],[115.2143821,32.6604455],[115.1987368,32.6561437],[115.2001852,32.6708322],[115.1877826,32.6846491],[115.1935977,32.6740609],[115.1755464,32.6629768],[115.1795107,32.7241962],[115.1719335,32.7410732],[115.1848751,32.7701176],[115.1760372,32.7883411],[115.2073225,32.7881224],[115.2063932,32.7972508],[115.1896468,32.8039536],[115.1840356,32.816092],[115.1923826,32.8287279],[115.1835152,32.8401914],[115.2013251,32.8483545],[115.1900652,32.8628942],[115.1769197,32.8568222],[115.1487565,32.8663569],[115.1503497,32.8802967],[115.139983,32.8836552],[115.134007,32.900896],[115.1119029,32.9045532],[115.0954691,32.8959054],[115.0821948,32.9049248],[115.0607425,32.900771],[115.0438017,32.9102977],[115.0159979,32.9094555],[115.0197101,32.9181515],[115.0313964,32.9187414],[115.0335449,32.9412204],[115.0127819,32.9348927],[114.972184,32.9471155],[114.946813,32.9310341],[114.9348262,32.9390662],[114.9306902,32.9563097],[114.9192318,32.9567599],[114.9078003,32.9695209],[114.8808682,32.9715833],[114.8762065,32.9968136],[114.8988283,32.9990091],[114.8890007,33.0222818],[114.9161661,33.0185046],[114.930371,33.0290924],[114.917707,33.0383084],[114.9162552,33.0565672],[114.9077171,33.0581167],[114.9148478,33.0692605],[114.9123359,33.084138],[114.8917566,33.0834559],[114.8999092,33.123953],[114.8875737,33.1320371],[114.9220294,33.1407651],[114.9277934,33.1564962],[114.9530384,33.1522297],[114.9612164,33.149243],[114.9637055,33.1328772],[114.983004,33.1226501],[114.9910855,33.0995411],[115.0358891,33.0859167],[115.0480235,33.0959593],[115.0461459,33.0881258],[115.0578913,33.0799163],[115.0597635,33.0869483],[115.0789145,33.0861797],[115.0811648,33.0921573],[115.1121899,33.0762394],[115.132902,33.0855841],[115.150044,33.0814198],[115.1511705,33.0884944],[115.1680818,33.0930561],[115.1618993,33.0992445],[115.1666817,33.1118288],[115.1894563,33.1213439],[115.203774,33.1156008],[115.2414563,33.1383013],[115.2424514,33.101797],[115.2508897,33.0935033],[115.2689061,33.1044887],[115.2666637,33.0879123],[115.2735101,33.1012139],[115.2777439,33.1053402],[115.280402,33.1046572],[115.2983862,33.0919371],[115.2977532,33.0786734],[115.323084,33.068739],[115.3289366,33.0551661],[115.346607,33.0542219],[115.3508878,33.0422522],[115.3619599,33.0471446],[115.3785038,33.0288236],[115.3951067,33.0312658],[115.4011577,33.0149342],[115.4135281,33.014246],[115.4121548,33.0064502],[115.4198527,33.0067561],[115.4217893,33.0199001],[115.4377538,33.0179795],[115.4465595,33.0060903],[115.4592738,33.0262871],[115.471437,33.0156944],[115.5033714,33.028248],[115.5089986,33.0195808],[115.5008823,33.0141291],[115.513832,33.0164636],[115.5184105,33.0346072],[115.5289462,33.041427],[115.5166966,33.0618899],[115.5269399,33.0745807],[115.5269399,33.0897258],[115.4767531,33.1116243],[115.4696238,33.1366101],[115.4762542,33.1430424],[115.4517522,33.1504219],[115.4355061,33.14556],[115.4264724,33.1537365],[115.4390734,33.1674423],[115.42248,33.175674],[115.4187155,33.1933325],[115.4436573,33.2020746],[115.4483807,33.2190153],[115.4365495,33.2262583],[115.4311931,33.2435959],[115.4335977,33.2617095],[115.4490888,33.269125],[115.4484826,33.2845393],[115.4368284,33.2869967],[115.4492407,33.2955365],[115.44263,33.3011659],[115.4392987,33.3379771],[115.445441,33.3448719],[115.4439765,33.3742173],[115.4320514,33.3876579],[115.4366997,33.3917069],[115.4262981,33.411488],[115.4410449,33.4351906],[115.405004,33.458907],[115.3931969,33.459011],[115.3853863,33.4715089],[115.4163498,33.4922649],[115.3930588,33.5053629],[115.399527,33.5358346],[115.4110041,33.5394273],[115.4044783,33.5474931],[115.4104274,33.5568278],[115.4560545,33.5716257],[115.4630604,33.5587567],[115.475125,33.5569887],[115.4946274,33.568336],[115.4942572,33.5602654],[115.5065256,33.558379],[115.5365315,33.5706155],[115.5518295,33.5645209],[115.5570692,33.5779969],[115.6082886,33.5829755],[115.6116441,33.5753667],[115.6156433,33.584343],[115.6304008,33.5861619],[115.6519818,33.5362884],[115.6670263,33.5302652],[115.658863,33.5266508],[115.6719106,33.509572],[115.7153919,33.5123786],[115.7632828,33.4927235],[115.7905447,33.4703275],[115.8253974,33.4530529],[115.8437544,33.4523681],[115.8931768,33.4014771],[115.8917177,33.3620717],[115.9165147,33.3256494],[115.9225738,33.3014797],[115.9071243,33.2953371],[115.9129272,33.2850527],[115.9056424,33.2781835],[115.9099218,33.2645824],[115.9033866,33.264532],[115.9031399,33.2487592],[115.9150422,33.2447546],[115.9207311,33.2308578],[115.9113783,33.2167736],[115.8771922,33.2481676],[115.8302656,33.2647989],[115.8281735,33.2090766],[115.8485743,33.202115],[115.8377798,33.1827174],[115.828215,33.1806409],[115.8296594,33.1673457],[115.8170718,33.1625633],[115.8196333,33.1563862],[115.8460128,33.1536062],[115.8458358,33.1380498],[115.8321619,33.1371873],[115.8385563,33.1258556],[115.8771399,33.1282277],[115.8618835,33.1045426],[115.8622885,33.0962986],[115.8948988,33.0968042],[115.9070787,33.0878516],[115.9282829,33.1001921],[115.9299459,33.0870123],[115.95873,33.0849448],[115.9623161,33.0691571],[115.9765452,33.0769574],[115.9860858,33.0641063],[116.0123701,33.0599668],[116.0074671,33.0447602],[116.0483292,33.0481912],[116.045128,33.0238661],[116.0585283,33.0079831],[116.0423961,32.9975649],[116.0658051,32.9839023],[116.0937363,32.9884268],[116.1193447,32.9851229],[116.1194681,32.978355],[116.1294258,32.9878531],[116.1603369,32.9709903],[116.1598876,32.9431742],[116.199182,32.8937974],[116.2204626,32.8929168],[116.2214872,32.8857252],[116.231339,32.892088],[116.2468529,32.8885159],[116.2375188,32.8697903],[116.2585446,32.8708603],[116.2578687,32.8623985],[116.2819684,32.8556843],[116.3012373,32.8671725],[116.3470736,32.8740277],[116.3641995,32.9004907],[116.3883823,32.8961149],[116.3829453,32.8600351],[116.4222634,32.8586041],[116.4408012,32.8427866],[116.4342328,32.8241209],[116.442794,32.816032],[116.434999,32.8055822],[116.4438715,32.787583],[116.4385732,32.7414377],[116.4497762,32.7319414],[116.4388154,32.7075524],[116.4450983,32.6913679],[116.4601635,32.6803441],[116.4973179,32.6829181],[116.4995861,32.666288],[116.5213449,32.6598659],[116.5374649,32.6225898],[116.5350807,32.6050141],[116.5519448,32.6024084],[116.5494283,32.5872687],[116.5900589,32.5925859],[116.6134263,32.5862661],[116.628499,32.5568423],[116.553483,32.5405727],[116.5208244,32.5063688],[116.5249497,32.4906421],[116.5151328,32.4835288],[116.5094304,32.4618509],[116.4904886,32.4674858],[116.4790839,32.4403035],[116.4330625,32.452291],[116.3930601,32.4473386],[116.3469744,32.4813839],[116.3251519,32.5202292],[116.3025463,32.5257565],[116.2636542,32.520184],[116.2628925,32.4991075],[116.241467,32.4843434],[116.2469602,32.4584652],[116.2347829,32.4680063],[116.2092082,32.4650906],[116.2061155,32.4503173],[116.1859238,32.455523],[116.1714721,32.4282419],[116.1631036,32.4424403],[116.1461881,32.4417988],[116.1401439,32.4612353],[116.1176825,32.4738238],[116.0919285,32.5376241],[116.0348189,32.555938],[116.0162591,32.5950686],[115.9781256,32.6085277],[115.9597773,32.6054119]]]]}}]}