{"type": "FeatureCollection", "features": [{"type": "Feature", "properties": {"slug": "fuzhou", "members": 13, "country": "China", "input_hash": "fe469bbb9d93b349"}, "geometry": {"type": "MultiPolygon", "coordinates": [[[[119.4694546, 25.3495431], [119.4836998, 25.354157], [119.4846024, 25.3343937], [119.4615152, 25.3366082], [119.4694546, 25.3495431]]], [[[119.3568467, 25.4128357], [119.3601009, 25.4181394], [119.3622762, 25.4150458], [119.3568467, 25.4128357]]], [[[119.38441, 25.4377199], [119.3912499, 25.44534], [119.39522, 25.4358001], [119.38441, 25.4377199]]], [[[119.2056278, 25.4770156], [119.20561929109597, 25.477827899502323], [119.20801517123917, 25.47502356703539], [119.2056278, 25.4770156]]], [[[119.3558711, 25.574595], [119.3654224, 25.5707698], [119.3614595, 25.5558769], [119.3507507, 25.555076], [119.3558711, 25.574595]]], [[[119.202232, 25.494814], [119.218855, 25.492101], [119.227176, 25.506929], [119.222953, 25.513322], [119.238823, 25.514298], [119.239575, 25.533858], [119.223463, 25.567172], [119.199663, 25.547718], [119.197232, 25.554708], [119.17642, 25.557939], [119.150508, 25.585715], [119.158452, 25.592989], [119.165316, 25.58366], [119.16681, 25.593313], [119.15593, 25.593352], [119.159428, 25.603212], [119.128983, 25.636118], [119.137433, 25.679542], [119.151695, 25.67947], [119.139574, 25.68599], [119.135625, 25.699413], [119.146306, 25.700731], [119.147263, 25.708235], [119.130222, 25.718924], [119.119005, 25.716294], [119.143991, 25.734483], [119.147405, 25.749641], [119.102402, 25.757726], [119.072297, 25.75088], [119.0662628, 25.7590331], [119.0637069, 25.7525587], [119.0218212, 25.7465242], [119.0082457, 25.7375235], [118.9719968, 25.7362467], [118.948108, 25.7153214], [118.94875, 25.7636688], [118.9161666, 25.7360512], [118.9149928, 25.7261239], [118.9031253, 25.7278705], [118.8736709, 25.7011076], [118.8736967, 25.7123045], [118.8437856, 25.7075221], [118.8222473, 25.7231827], [118.8070637, 25.7241032], [118.7969829, 25.7169341], [118.8029734, 25.7120189], [118.7977178, 25.7064448], [118.7725902, 25.6897962], [118.7560963, 25.6897772], [118.7459842, 25.6994682], [118.7469411, 25.687679], [118.7239018, 25.6702919], [118.7173395, 25.6770618], [118.7238289, 25.6984603], [118.7010336, 25.6853873], [118.6856961, 25.6916261], [118.6876328, 25.6980241], [118.6665486, 25.6986203], [118.6725397, 25.7051346], [118.6612706, 25.7135072], [118.6330527, 25.7132853], [118.6261412, 25.699681], [118.6083972, 25.7135039], [118.6005543, 25.6873591], [118.5833508, 25.6937713], [118.5793938, 25.6810054], [118.5717601, 25.6916743], [118.569903, 25.677694], [118.5620449, 25.6845126], [118.5461977, 25.6811781], [118.5317796, 25.661681], [118.517654, 25.6620117], [118.4770484, 25.7096465], [118.4259651, 25.7331707], [118.4254292, 25.7601695], [118.4129735, 25.7729053], [118.4183076, 25.7831113], [118.4123798, 25.7816402], [118.4045644, 25.7999402], [118.375986, 25.814502], [118.3898811, 25.8266566], [118.3924147, 25.8498669], [118.4025432, 25.8452438], [118.4204347, 25.8595516], [118.4017706, 25.8859112], [118.4294068, 25.9223459], [118.4604692, 25.8992931], [118.4549726, 25.865134], [118.4702471, 25.8726891], [118.466467, 25.8990726], [118.4718997, 25.9057068], [118.5041632, 25.8998449], [118.5131221, 25.8888385], [118.5024256, 25.9042284], [118.516627, 25.9309184], [118.508675, 25.9354391], [118.5155351, 25.9586924], [118.5087079, 25.9788218], [118.5170119, 25.9922765], [118.5089279, 26.0091503], [118.5172462, 26.0328774], [118.512268, 26.0636453], [118.5749244, 26.065727], [118.5880564, 26.0548456], [118.5961246, 26.0598672], [118.5882281, 26.0660354], [118.5986137, 26.0789876], [118.5866832, 26.0802982], [118.5769843, 26.1045794], [118.5848593, 26.1334983], [118.5684871, 26.1317068], [118.5606764, 26.13895], [118.5622214, 26.1794727], [118.5765533, 26.1771869], [118.5696671, 26.1889079], [118.574581, 26.2064286], [118.5962103, 26.2139752], [118.6052656, 26.2076221], [118.6088275, 26.2140135], [118.5927343, 26.2284892], [118.6058235, 26.2402686], [118.6250494, 26.2404612], [118.6461638, 26.2279889], [118.6605835, 26.2334937], [118.668222, 26.2481827], [118.6617833, 26.2787711], [118.6794896, 26.290727], [118.6741243, 26.2946625], [118.6929452, 26.2967417], [118.6867665, 26.3152551], [118.7154476, 26.3436282], [118.7470781, 26.3431152], [118.7696956, 26.3312654], [118.7912315, 26.3445466], [118.7957294, 26.3644265], [118.7755221, 26.3752635], [118.7610567, 26.3972909], [118.7475436, 26.4000698], [118.7492444, 26.4093643], [118.7577235, 26.4107897], [118.752283, 26.4155753], [118.7584837, 26.4250991], [118.7260877, 26.4400401], [118.7316475, 26.4757328], [118.7516918, 26.4939347], [118.741712, 26.5065209], [118.7442579, 26.5146709], [118.7763646, 26.5106609], [118.7829134, 26.5019039], [118.7783646, 26.4964273], [118.7985091, 26.4918404], [118.8036267, 26.4775695], [118.7899935, 26.4649759], [118.8089979, 26.4501498], [118.80163, 26.450537], [118.8021673, 26.4422454], [118.8190803, 26.4281699], [118.8485338, 26.4394517], [118.8676543, 26.4702473], [118.8970669, 26.4824977], [118.943424, 26.4696249], [118.9487067, 26.4943695], [118.9329558, 26.498944], [118.9464911, 26.5165385], [118.9449716, 26.5275758], [118.9659537, 26.5383194], [118.9911778, 26.5305406], [118.9977693, 26.5488195], [118.9890575, 26.5611229], [119.007039, 26.5630422], [119.0103435, 26.5929404], [119.0206861, 26.5903309], [119.0226173, 26.6011525], [119.0459203, 26.5984663], [119.0555763, 26.6075221], [119.0733432, 26.5899855], [119.0632581, 26.587798], [119.0568637, 26.5732906], [119.0900373, 26.5693756], [119.094758, 26.5790477], [119.0966034, 26.562428], [119.1113662, 26.5420819], [119.158012, 26.545038], [119.1800004, 26.557035], [119.1891233, 26.5744005], [119.2005854, 26.5688913], [119.2057799, 26.5525241], [119.2142772, 26.5495298], [119.2086982, 26.5429265], [119.2271743, 26.5266914], [119.2408027, 26.5342463], [119.2500984, 26.5532687], [119.2762975, 26.5384112], [119.2827143, 26.5831387], [119.2904886, 26.5899506], [119.3057714, 26.5985963], [119.3155181, 26.5827685], [119.3297872, 26.5861155], [119.3440168, 26.5929794], [119.3397678, 26.5999907], [119.3474871, 26.6061956], [119.3676025, 26.6037047], [119.3759393, 26.624941], [119.4093976, 26.6232396], [119.3953684, 26.6326072], [119.4033167, 26.6384422], [119.4198498, 26.6269821], [119.4682121, 26.6347586], [119.4961823, 26.6245922], [119.5044223, 26.6019888], [119.5274161, 26.5837377], [119.5197372, 26.5768737], [119.5285771, 26.5650553], [119.5509748, 26.5593007], [119.5510752, 26.5487551], [119.5838146, 26.5402763], [119.5942597, 26.5466625], [119.6145586, 26.5243216], [119.6562119, 26.5295059], [119.6580058, 26.538859], [119.6729566, 26.5426132], [119.6783917, 26.5639086], [119.694384, 26.5723268], [119.7248338, 26.5626922], [119.7406071, 26.5735458], [119.738388, 26.5795047], [119.7606225, 26.5806606], [119.79504173504185, 26.552475678040125], [119.7772077, 26.5623675], [119.759645, 26.5462582], [119.7708205, 26.5490845], [119.7811201, 26.54143], [119.7789089, 26.5271216], [119.7883501, 26.5282299], [119.7706756, 26.5190997], [119.78944, 26.5198999], [119.7893601, 26.51283], [119.8017199, 26.5097601], [119.7762684, 26.4995263], [119.79231, 26.4987501], [119.79422, 26.49173], [119.8023701, 26.4966699], [119.8071599, 26.4834001], [119.7972601, 26.4749501], [119.8086001, 26.47778], [119.8084899, 26.4717401], [119.8151501, 26.4787], [119.8178201, 26.4697599], [119.80534, 26.4615101], [119.8207399, 26.46237], [119.8153701, 26.44991], [119.8290599, 26.4507301], [119.81346, 26.43624], [119.8010301, 26.4417499], [119.79967, 26.42899], [119.78844, 26.4220501], [119.7922799, 26.4175099], [119.77118, 26.4165199], [119.7725984, 26.4089959], [119.76427, 26.4082699], [119.7579522, 26.4181865], [119.7735655, 26.4278736], [119.7725701, 26.4381601], [119.74493, 26.4562901], [119.7401199, 26.4446101], [119.7233079, 26.4448283], [119.7050219, 26.4557879], [119.7068136, 26.462108], [119.702378, 26.4568489], [119.6770526, 26.4687425], [119.6704862, 26.4779133], [119.677643, 26.4829448], [119.6375178, 26.4833901], [119.6703655, 26.4757201], [119.6374729, 26.4829292], [119.6274246, 26.4778544], [119.6125781, 26.4637383], [119.6247566, 26.4412909], [119.6331001, 26.4390582], [119.6437609, 26.4484768], [119.6559138, 26.444492], [119.6533843, 26.435187], [119.6659055, 26.426212], [119.6602439, 26.4221106], [119.6679558, 26.4086392], [119.6562318, 26.3990674], [119.66747, 26.37919], [119.6629574, 26.3575372], [119.6696762, 26.3602382], [119.6723825, 26.3440325], [119.6942572, 26.3460768], [119.7059476, 26.3573047], [119.7379746, 26.3664149], [119.7390347, 26.3602662], [119.7268801, 26.35741], [119.7401406, 26.3582946], [119.7315301, 26.3544401], [119.741104, 26.3523058], [119.7487986, 26.3711077], [119.7688065, 26.3802258], [119.7741643, 26.3743986], [119.7817525, 26.3942226], [119.8042843, 26.4034395], [119.8188055, 26.4232472], [119.81347, 26.424147], [119.83565, 26.4291501], [119.8294099, 26.41191], [119.84548, 26.4140699], [119.84321, 26.4083601], [119.8562702, 26.4009587], [119.8420016, 26.3845827], [119.8589175, 26.3884983], [119.8657161, 26.3740048], [119.8757322, 26.3754103], [119.8553717, 26.3612368], [119.8587055, 26.3510287], [119.8924201, 26.3566], [119.89902, 26.34441], [119.9124218, 26.3601798], [119.9261059, 26.3581973], [119.9276171, 26.3644824], [119.9179665, 26.3648893], [119.9245384, 26.3667085], [119.9346131, 26.3608878], [119.9306799, 26.3666899], [119.95697, 26.3763799], [119.9441399, 26.3653], [119.94521, 26.35684], [119.8959873, 26.32748], [119.9026862, 26.3172711], [119.8763333, 26.3171144], [119.8842947, 26.3213555], [119.8791569, 26.3242965], [119.8619601, 26.31159], [119.8634011, 26.3263155], [119.849661, 26.3273323], [119.840254, 26.337731], [119.8305199, 26.3240099], [119.7901416, 26.3126446], [119.7931, 26.2947699], [119.8116199, 26.2953199], [119.7984701, 26.2758599], [119.7821574, 26.2864365], [119.7812163, 26.2992124], [119.7594508, 26.2915944], [119.7637558, 26.3014883], [119.7519755, 26.2982325], [119.7577359, 26.291233], [119.7514, 26.2865], [119.74304, 26.2895301], [119.7229572, 26.2769413], [119.6954897, 26.280655], [119.6473749, 26.2722493], [119.6455357, 26.2594343], [119.6732226, 26.2334121], [119.6548655, 26.2260278], [119.6585682, 26.2126186], [119.6513548, 26.2049127], [119.6305404, 26.2022335], [119.6224346, 26.1838057], [119.5987124, 26.1743904], [119.596345, 26.1574319], [119.6072017, 26.1418697], [119.5563944, 26.130304], [119.5194202, 26.0834333], [119.5288862, 26.071627], [119.5456768, 26.0710102], [119.55894, 26.0527201], [119.55417, 26.05055], [119.60923, 26.04568], [119.6485877, 26.027545], [119.6939246, 26.0291113], [119.7140715, 26.0100612], [119.7105272, 25.9761276], [119.6905499, 25.95193], [119.6944729, 25.9450881], [119.6814711, 25.9057529], [119.6437418, 25.9086852], [119.6273037, 25.9016395], [119.6175991, 25.883234], [119.6166487, 25.849253], [119.6117581, 25.8547574], [119.61867, 25.8433768], [119.6090201, 25.81996], [119.6143773, 25.7814946], [119.627739, 25.7632178], [119.637522, 25.7629365], [119.6484956, 25.7572031], [119.6316681, 25.7622294], [119.6323463, 25.7522401], [119.6223725, 25.7378522], [119.6261917, 25.7468471], [119.6144639, 25.7381863], [119.6194739, 25.7286746], [119.61009, 25.73747], [119.6007403, 25.7276541], [119.6027468, 25.7158875], [119.5963568, 25.7173554], [119.603996, 25.6979091], [119.5684588, 25.6845813], [119.5542838, 25.6844761], [119.5546663, 25.6944521], [119.5054204, 25.6823343], [119.4993812, 25.6875025], [119.4990206, 25.6787491], [119.4829476, 25.6915915], [119.4938008, 25.6773009], [119.4890606, 25.6731432], [119.4817673, 25.6818616], [119.4784335, 25.6679578], [119.4599868, 25.6877067], [119.4695317, 25.6737956], [119.4607364, 25.6467763], [119.47143, 25.64652], [119.46659, 25.6374], [119.4765754, 25.6278053], [119.4893738, 25.6329083], [119.49511, 25.62241], [119.5050303, 25.6293679], [119.5272213, 25.6239721], [119.5351299, 25.6308199], [119.53849, 25.60776], [119.5272037, 25.5974118], [119.5302108, 25.5832956], [119.5732974, 25.5794732], [119.5855701, 25.5920299], [119.5967771, 25.5897666], [119.5884625, 25.5710823], [119.6051852, 25.5681501], [119.6137896, 25.53725], [119.594645, 25.5254305], [119.6063949, 25.5102033], [119.5990255, 25.4996788], [119.6175994, 25.4908223], [119.6017436, 25.4847872], [119.6030041, 25.474892], [119.6110484, 25.464978], [119.6379533, 25.4744351], [119.6417495, 25.4673144], [119.6357615, 25.4486396], [119.6250549, 25.4504576], [119.6250814, 25.4425003], [119.6106769, 25.4398515], [119.6073306, 25.4317613], [119.6445221, 25.434874], [119.6431059, 25.4214102], [119.65058, 25.42553], [119.65505, 25.4135925], [119.6497725, 25.399201], [119.6584148, 25.3839372], [119.6513764, 25.3820159], [119.660253, 25.3750531], [119.619139, 25.3593421], [119.627238, 25.3551034], [119.6537773, 25.3659054], [119.653519, 25.3561456], [119.6317159, 25.3424202], [119.6075429, 25.3465869], [119.59097, 25.3406], [119.5856596, 25.3517781], [119.5975071, 25.359252], [119.5787409, 25.3778294], [119.5924951, 25.3897838], [119.5854856, 25.3911973], [119.589454, 25.4002454], [119.5802018, 25.413956], [119.5852191, 25.4276534], [119.5728671, 25.4283635], [119.5851731, 25.4522844], [119.5656976, 25.4611699], [119.5550801, 25.4543986], [119.5520398, 25.4372181], [119.5408791, 25.4451699], [119.5284585, 25.4334443], [119.54271, 25.41621], [119.55742, 25.4264601], [119.5585267, 25.4134105], [119.5676207, 25.416503], [119.5738111, 25.4031267], [119.5465886, 25.3848405], [119.5443357, 25.3706], [119.5351218, 25.3656739], [119.528777, 25.3636787], [119.5309796, 25.3787475], [119.5193189, 25.3827054], [119.4848948, 25.3659174], [119.489319, 25.3770769], [119.5121786, 25.3908266], [119.508401, 25.408408], [119.483386, 25.4255147], [119.4983178, 25.4588838], [119.4742706, 25.4543704], [119.4726685, 25.4660225], [119.4721789, 25.4572991], [119.4623585, 25.4621031], [119.4548419, 25.4454884], [119.440476, 25.4324087], [119.437722, 25.4156308], [119.4399449, 25.4325492], [119.450663, 25.4419546], [119.4388922, 25.4332117], [119.4358626, 25.4158707], [119.4382068, 25.4325347], [119.4241226, 25.4349012], [119.442493, 25.445004], [119.4267493, 25.4370768], [119.4447219, 25.4532095], [119.4393522, 25.4732681], [119.4521114, 25.4802127], [119.4543323, 25.5065078], [119.4275129, 25.5099428], [119.4212258, 25.4928634], [119.3966514, 25.5005936], [119.4059908, 25.5157137], [119.3622499, 25.5270458], [119.3529055, 25.5396863], [119.3664336, 25.5625409], [119.3680912, 25.570448], [119.3558711, 25.5887284], [119.3421892, 25.5789606], [119.3511133, 25.5744357], [119.3497188, 25.554759], [119.3551978, 25.5520173], [119.32713, 25.48256], [119.3307629, 25.4557403], [119.346368, 25.4358193], [119.3449518, 25.4113209], [119.3156192, 25.4191436], [119.2928794, 25.4132388], [119.2572516, 25.4341479], [119.2611918, 25.4607788], [119.2769238, 25.483942], [119.2578179, 25.4855746], [119.2592736, 25.5017342], [119.2369508, 25.489764], [119.2264272, 25.4724974], [119.20598534824991, 25.478668658886292], [119.202232, 25.494814]]], [[[118.8096094, 26.442168], [118.8209896, 26.4379232], [118.8202778, 26.4362912], [118.8096094, 26.442168]]], [[[119.4745759, 25.311454], [119.4799125, 25.3115199], [119.4762733, 25.307938], [119.4745759, 25.311454]]], [[[119.5992223, 25.3361531], [119.600018, 25.3332584], [119.5941738, 25.333902], [119.5992223, 25.3361531]]], [[[119.6083099, 25.6713567], [119.6005449, 25.6493751], [119.5737147, 25.630751], [119.5567203, 25.6416956], [119.5640668, 25.6486981], [119.5749003, 25.6439372], [119.5937562, 25.667803], [119.6083099, 25.6713567]]], [[[119.5720769, 25.6669996], [119.5862216, 25.6802957], [119.5852887, 25.6755861], [119.5720769, 25.6669996]]], [[[119.6102699, 25.71112], [119.60732, 25.71504], [119.6114768, 25.7147321], [119.6102699, 25.71112]]], [[[119.57016, 26.05825], [119.5387904, 26.0843593], [119.5652291, 26.118633], [119.5904654, 26.1323298], [119.6340145, 26.1132263], [119.6522801, 26.0731601], [119.6359301, 26.0614747], [119.57016, 26.05825]]], [[[119.6664092, 25.6640034], [119.6588051, 25.6587611], [119.6468112, 25.6562091], [119.6546686, 25.6745477], [119.6664092, 25.6640034]]], [[[119.6186099, 25.67725], [119.62587, 25.67613], [119.62356, 25.6727399], [119.6186099, 25.67725]]], [[[119.6467532, 25.6762257], [119.6346316, 25.672044], [119.6547407, 25.6839365], [119.6467532, 25.6762257]]], [[[119.6236762, 25.7050977], [119.6211033, 25.7031332], [119.6205192, 25.7043334], [119.6236762, 25.7050977]]], [[[119.6428553, 26.1218627], [119.6414294, 26.1130238], [119.6297108, 26.1209944], [119.6428553, 26.1218627]]], [[[119.6287335, 26.1231897], [119.6186249, 26.1272953], [119.635097, 26.1256822], [119.6287335, 26.1231897]]], [[[119.6035543, 26.1733536], [119.6244085, 26.176844], [119.638195, 26.1596222], [119.6608087, 26.1579081], [119.6476713, 26.1476974], [119.6502703, 26.1364649], [119.6146345, 26.1423016], [119.6014863, 26.1569836], [119.6035543, 26.1733536]]], [[[119.6624895, 25.3973623], [119.6668517, 25.3979347], [119.6660665, 25.3944002], [119.6624895, 25.3973623]]], [[[119.6581936, 25.4292525], [119.6673667, 25.423492], [119.6622062, 25.4060684], [119.6555006, 25.4111828], [119.6581936, 25.4292525]]], [[[119.6678546, 25.4486118], [119.6600855, 25.4533973], [119.6648988, 25.4534638], [119.6678546, 25.4486118]]], [[[119.6573944, 25.6450587], [119.6725674, 25.6600971], [119.6776558, 25.6500653], [119.7162062, 25.6659931], [119.7112623, 25.6382013], [119.6997917, 25.6446658], [119.6690587, 25.6366627], [119.6573944, 25.6450587]]], [[[119.6785515, 25.7657065], [119.67249, 25.7593499], [119.6655152, 25.7644447], [119.6684504, 25.7687984], [119.6785515, 25.7657065]]], [[[119.6819218, 26.1381552], [119.6711608, 26.1325494], [119.6715765, 26.1160846], [119.655848, 26.1330263], [119.6752002, 26.1450585], [119.6819218, 26.1381552]]], [[[119.7189172, 25.2797321], [119.7212045, 25.2766992], [119.7160419, 25.27517], [119.7189172, 25.2797321]]], [[[119.693803, 25.3285478], [119.7041532, 25.3194969], [119.6840823, 25.3091388], [119.69082, 25.317824], [119.6839482, 25.3311269], [119.6970735, 25.3446333], [119.693803, 25.3285478]]], [[[119.6851481, 25.3511566], [119.6898044, 25.3502811], [119.6894913, 25.3481453], [119.6851481, 25.3511566]]], [[[119.723841, 25.3546975], [119.7197114, 25.3531711], [119.7193533, 25.3567616], [119.723841, 25.3546975]]], [[[119.7205461, 25.3811569], [119.7315982, 25.3660488], [119.7005849, 25.3559597], [119.6937577, 25.369629], [119.7205461, 25.3811569]]], [[[119.7061634, 25.3815343], [119.7062522, 25.3822433], [119.7126936, 25.3801897], [119.7061634, 25.3815343]]], [[[119.7253812, 25.2799889], [119.7224432, 25.2828152], [119.7269789, 25.2819651], [119.7253812, 25.2799889]]], [[[119.7636366, 25.2956831], [119.7527672, 25.2993892], [119.7565067, 25.3052989], [119.7635514, 25.3007935], [119.7636366, 25.2956831]]], [[[119.8101451, 25.4395643], [119.799601, 25.4471196], [119.8002641, 25.4492659], [119.8101451, 25.4395643]]], [[[119.7451299, 25.6410499], [119.7557156, 25.6584048], [119.7876024, 25.666278], [119.7707354, 25.6415539], [119.7822143, 25.6121019], [119.8096484, 25.6198661], [119.8361899, 25.6032], [119.82154, 25.5836], [119.8281036, 25.577886], [119.8512115, 25.5654068], [119.8853199, 25.5672299], [119.857973, 25.5382759], [119.8442842, 25.5526339], [119.8118971, 25.5401824], [119.8069264, 25.4949848], [119.8234901, 25.4933999], [119.8262668, 25.4816407], [119.8401, 25.48655], [119.8454736, 25.4778644], [119.8574099, 25.4853801], [119.85944, 25.47257], [119.8481487, 25.4653596], [119.8516254, 25.456734], [119.8355223, 25.461258], [119.8423758, 25.4645875], [119.8387235, 25.4688474], [119.8279999, 25.4637004], [119.8310237, 25.4708328], [119.8256959, 25.47103], [119.75997, 25.4398631], [119.7547979, 25.4189021], [119.778142, 25.4131903], [119.7699299, 25.40918], [119.7709027, 25.3970175], [119.7524021, 25.3997762], [119.7346289, 25.4219111], [119.6880305, 25.433959], [119.698467, 25.4350369], [119.7070755, 25.4479479], [119.7009544, 25.4543895], [119.6941164, 25.4426219], [119.6811662, 25.4437471], [119.6824099, 25.4680113], [119.6725286, 25.468401], [119.6733616, 25.4923848], [119.6794594, 25.4942821], [119.6740453, 25.4952897], [119.6958074, 25.5038079], [119.6953656, 25.5133197], [119.73994, 25.5083966], [119.7099193, 25.524804], [119.7088149, 25.5562429], [119.7148339, 25.5563781], [119.6824868, 25.6030799], [119.7045246, 25.614081], [119.7001245, 25.6205205], [119.70824, 25.6261], [119.7190801, 25.6240201], [119.7360415, 25.6463799], [119.7481001, 25.63109], [119.7451299, 25.6410499]]], [[[119.8034207, 25.6494017], [119.8027118, 25.6475375], [119.7993561, 25.6519458], [119.8034207, 25.6494017]]], [[[119.7172153, 26.2410399], [119.7263034, 26.2453735], [119.7223289, 26.2424639], [119.7172153, 26.2410399]]], [[[119.8614613, 25.4621744], [119.8615766, 25.459188], [119.8582689, 25.4604319], [119.8614613, 25.4621744]]], [[[119.8681801, 25.4740401], [119.8648301, 25.4778301], [119.8668799, 25.4807001], [119.8681801, 25.4740401]]], [[[119.8338354, 25.5160937], [119.8325425, 25.5175558], [119.8374893, 25.5201017], [119.8338354, 25.5160937]]], [[[119.8519403, 25.5970451], [119.8618966, 25.6004655], [119.8570232, 25.5872351], [119.8519403, 25.5970451]]], [[[119.9020278, 25.6039534], [119.8992346, 25.5871604], [119.8727354, 25.5892969], [119.8714873, 25.6086078], [119.8768741, 25.6003106], [119.8900974, 25.605487], [119.8926056, 25.5954367], [119.8950863, 25.6099375], [119.9020278, 25.6039534]]], [[[119.8828981, 26.4255302], [119.8887294, 26.4195683], [119.8829321, 26.4179023], [119.8828981, 26.4255302]]], [[[119.9361866, 25.4393318], [119.9369448, 25.4320357], [119.9338603, 25.4313817], [119.9361866, 25.4393318]]], [[[119.9650396, 26.3708945], [119.9739048, 26.3707427], [119.9725999, 26.3683501], [119.9650396, 26.3708945]]], [[[119.9468877, 26.3790282], [119.9428304, 26.3797852], [119.9500199, 26.38009], [119.9468877, 26.3790282]]], [[[119.9031904, 26.411525], [119.9124575, 26.4276738], [119.915238, 26.4143257], [119.9031904, 26.411525]]], [[[119.8957247, 26.4238868], [119.8994093, 26.4277426], [119.8987544, 26.4221454], [119.8957247, 26.4238868]]]]}}]}