{"type": "FeatureCollection", "features": [{"type": "Feature", "properties": {"slug": "gabrovo", "members": 4, "country": "Bulgaria", "input_hash": "936311c9d598229a"}, "geometry": {"type": "Polygon", "coordinates": [[[25.560184, 42.927717], [25.562718, 42.911019], [25.595421, 42.909253], [25.60981, 42.916827], [25.620857, 42.902573], [25.606065, 42.898772], [25.59271, 42.883774], [25.607663, 42.879765], [25.617327, 42.852862], [25.613404, 42.837326], [25.592026, 42.821473], [25.614955, 42.78681], [25.603364, 42.772562], [25.634125, 42.760241], [25.609243, 42.750707], [25.616479, 42.745583], [25.59766, 42.74843], [25.569869, 42.770253], [25.544387, 42.753141], [25.512186, 42.766221], [25.475066, 42.754855], [25.468454, 42.764564], [25.433298030636756, 42.76238942318474], [25.434713, 42.749371], [25.423206, 42.734443], [25.403362, 42.743442], [25.362316, 42.735487], [25.317589, 42.757336], [25.282496, 42.750148], [25.267548, 42.764845], [25.2498282, 42.7426928], [25.225983, 42.749202], [25.210369, 42.780872], [25.17893253834409, 42.78932470196637], [25.134814, 42.759947], [25.1042, 42.759633], [25.078057, 42.742705], [25.049618, 42.748513], [25.031061, 42.761707], [25.014344, 42.748161], [25.013081, 42.767632], [25.020331, 42.778008], [25.007773, 42.786399], [25.007669, 42.808917], [24.981312, 42.834048], [24.98131, 42.852254], [24.962508, 42.858382], [24.967664, 42.877352], [24.941034, 42.884681], [24.906261, 42.874851], [24.902077, 42.885949], [24.883579, 42.896541], [24.879532, 42.91372], [24.8887, 42.932534], [24.869802, 42.943246], [24.870039, 42.994284], [24.875412, 42.994846], [24.870146, 42.999805], [24.879352, 43.006908], [24.877805, 43.015323], [24.951545, 43.03119], [24.930098, 43.041206], [24.941959, 43.051655], [24.918207, 43.067167], [24.925473, 43.08489], [24.916896, 43.091042], [24.928191, 43.101827], [24.918219, 43.104666], [24.927858, 43.114087], [24.967579, 43.122271], [24.9729, 43.154662], [24.963063, 43.16436], [24.96436, 43.182466], [24.955954, 43.184477], [24.960112, 43.193767], [24.994958, 43.193663], [25.025505, 43.178085], [25.076594, 43.177783], [25.078761, 43.160111], [25.094322, 43.153744], [25.094619, 43.145922], [25.130081, 43.141834], [25.135374, 43.132861], [25.154105, 43.132734], [25.173842, 43.146758], [25.17413, 43.124043], [25.189599, 43.116102], [25.182745, 43.109665], [25.223038, 43.096315], [25.298272, 43.112654], [25.312103, 43.096878], [25.304584, 43.056807], [25.385508, 43.054638], [25.390421, 43.045152], [25.416096, 43.040902], [25.472, 43.056774], [25.479108, 43.040985], [25.50947, 43.035714], [25.542476, 43.041861], [25.555055, 43.034458], [25.55418, 43.025185], [25.592844, 43.020784], [25.595218, 43.014135], [25.577804, 42.990771], [25.552576, 42.971492], [25.561967, 42.940995], [25.552028, 42.923262], [25.560184, 42.927717]], [[25.457666, 42.898999], [25.457853521011938, 42.899237421470886], [25.457376446735864, 42.8990809324145], [25.457666, 42.898999]], [[25.46386828967552, 42.90993573540861], [25.464522, 42.90627], [25.466719, 42.903962], [25.46386828967552, 42.90993573540861]], [[25.46376661097355, 42.91687370894294], [25.463388, 42.912629], [25.463596220122202, 42.91146138822127], [25.46376661097355, 42.91687370894294]], [[25.466597, 42.91853], [25.463814, 42.917405], [25.463805540746314, 42.917310161043204], [25.466597, 42.91853]], [[25.469726678016244, 42.92233834966586], [25.474247246420074, 42.9227100862677], [25.474386, 42.922956], [25.469726678016244, 42.92233834966586]], [[25.480038, 42.914673], [25.481274, 42.918244], [25.479806968229916, 42.914862987844394], [25.480038, 42.914673]], [[25.488399744454355, 42.91981901384457], [25.488403, 42.919987], [25.481274, 42.918244], [25.488399744454355, 42.91981901384457]], [[25.491608, 42.911133], [25.496974674660557, 42.910482632503964], [25.49153600345816, 42.911170626530584], [25.491608, 42.911133]], [[25.504522, 42.909568], [25.512419, 42.912046], [25.504374960286786, 42.90958581920018], [25.504522, 42.909568]], [[25.16531, 42.860106], [25.15905, 42.863495], [25.16530422818807, 42.8600960062411], [25.16531, 42.860106]], [[25.127905453804615, 42.994094317661684], [25.1276381, 42.9940357], [25.1266049, 42.9902588], [25.127905453804615, 42.994094317661684]], [[25.1729388376837, 42.997891422654725], [25.169808, 42.998546], [25.16944263866876, 42.998233187806996], [25.1729388376837, 42.997891422654725]], [[25.17339980297015, 42.99752129715598], [25.17307, 42.997864], [25.173037687823086, 42.99787075564214], [25.17339980297015, 42.99752129715598]], [[25.186472, 42.984906], [25.19837, 42.984506], [25.18558522497539, 42.985761780433876], [25.186472, 42.984906]], [[25.200905, 42.981614], [25.2009294245494, 42.98161818894154], [25.19837, 42.984506], [25.200905, 42.981614]], [[25.204491127362772, 42.982229040122974], [25.204258, 42.982421], [25.20116030414715, 42.98165778603384], [25.204491127362772, 42.982229040122974]], [[25.207265021202048, 42.97993216216032], [25.207265, 42.979945], [25.20703321874488, 42.98013585147578], [25.207265021202048, 42.97993216216032]], [[25.251387, 42.971757], [25.26095, 42.976698], [25.251107087653498, 42.97178518301254], [25.251387, 42.971757]], [[25.26266044703769, 42.97934391840213], [25.26105, 42.978994], [25.26095, 42.976698], [25.26266044703769, 42.97934391840213]], [[25.268812, 42.981824], [25.266014, 42.983983], [25.265726836173393, 42.983585756706525], [25.268812, 42.981824]], [[25.291505, 42.981875], [25.29081004640718, 42.983569775833644], [25.290256331437387, 42.983291682087355], [25.291505, 42.981875]], [[25.289605, 42.978989], [25.292571, 42.972596], [25.28962927426008, 42.979025871323465], [25.289605, 42.978989]], [[25.313091, 42.959576], [25.31314776958699, 42.959589603324225], [25.307311, 42.962931], [25.313091, 42.959576]], [[25.412820607899974, 42.9709145848908], [25.412771, 42.970942], [25.399229, 42.966701], [25.412820607899974, 42.9709145848908]], [[25.416088, 42.964014], [25.416170054569115, 42.964055005119626], [25.416857, 42.966765], [25.416088, 42.964014]], [[25.424242183888676, 42.96226507120973], [25.424228, 42.962365], [25.417939, 42.964939], [25.424242183888676, 42.96226507120973]], [[25.424546, 42.957763], [25.4249668368281, 42.957159722933554], [25.424383191590767, 42.9612716391961], [25.424546, 42.957763]], [[25.426816585597624, 42.94553263565599], [25.428274, 42.94562], [25.42873739996509, 42.94663601987013], [25.426816585597624, 42.94553263565599]], [[25.423581, 42.943674], [25.42358145374698, 42.9436400020966], [25.423613491614276, 42.943692664340965], [25.423581, 42.943674]], [[25.42371615276626, 42.93354740769587], [25.423867, 42.93362], [25.423614618515984, 42.94115506520752], [25.42371615276626, 42.93354740769587]], [[25.420972, 42.918455], [25.425379, 42.917768], [25.42112379174451, 42.9185580330117], [25.420972, 42.918455]], [[25.439403849840218, 42.90760896702728], [25.439403, 42.907647], [25.426365, 42.908607], [25.439403849840218, 42.90760896702728]], [[25.439141143391264, 42.90379962507165], [25.43970480613672, 42.90396024776378], [25.43942541800842, 42.90664372493185], [25.439141143391264, 42.90379962507165]], [[25.432399, 42.894099], [25.43687151519686, 42.89332567740803], [25.436839, 42.893352], [25.432399, 42.894099]], [[25.43833366704372, 42.89214199623198], [25.44088210985809, 42.89006154476983], [25.440882, 42.890079], [25.43833366704372, 42.89214199623198]], [[25.403155, 42.838081], [25.40339593427169, 42.83667997251705], [25.405174, 42.839409], [25.403155, 42.838081]], [[25.40096, 42.833421], [25.40117381761115, 42.83326940262618], [25.401581241652266, 42.83389472900626], [25.40096, 42.833421]], [[25.404731, 42.830614], [25.401398, 42.831449], [25.404705192967555, 42.83048511358146], [25.404731, 42.830614]], [[25.43241, 42.776019], [25.434635, 42.766938], [25.4324250346222, 42.776027952273076], [25.43241, 42.776019]], [[25.433268, 42.762417], [25.433276545233785, 42.76240915300244], [25.434635, 42.766938], [25.433268, 42.762417]], [[25.294823, 42.986118], [25.294668037967426, 42.98624461426532], [25.294624675478463, 42.98602795396958], [25.294823, 42.986118]], [[25.294616, 42.992898], [25.294585246135856, 42.99298410463171], [25.29303, 42.987583], [25.294616, 42.992898]], [[25.294419694693556, 42.99344761535999], [25.2938244964685, 42.995114050631955], [25.293347, 42.994994], [25.294419694693556, 42.99344761535999]], [[25.294693534719865, 43.002024253163036], [25.30394, 43.001555], [25.294718, 43.002165], [25.294693534719865, 43.002024253163036]], [[25.316265, 43.002725], [25.316384767875864, 43.00283064722268], [25.312119, 43.002537], [25.316265, 43.002725]], [[25.338901, 43.03106], [25.338949445591386, 43.03143963943753], [25.338640766597035, 43.030956050182866], [25.338901, 43.03106]], [[25.339714, 43.037431], [25.33893163279736, 43.03840042273875], [25.339192352793297, 43.03334315946628], [25.339714, 43.037431]]]}}]}