{"type":"FeatureCollection","features":[{"type":"Feature","properties":{"slug":"gallup","member_count":3,"matched_count":1,"unmatched":["Balance of McKinley County (US-NM, type='Balance')","Gallup city (US-NM, type='City')"],"source":"Overture Maps division_area (CC-BY 4.0)"},"geometry":{"type":"Polygon","coordinates":[[[-109.0459997,36.0025638],[-109.045962,34.9597929],[-108.4693053,34.9590502],[-108.4704731,35.3065677],[-107.728813,35.306187],[-107.728645,35.348866],[-107.624329,35.34853],[-107.622856,35.305878],[-107.306168,35.3022203],[-107.3086443,35.9985851],[-109.0459997,36.0025638]]]}}]}