{"type":"FeatureCollection","features":[{"type":"Feature","properties":{"slug":"galway","member_count":236,"matched_count":23,"unmatched":["Galway City (IE, type='City')","Ballybaan (IE, type='Electoral Division')","Menlough (IE, type='Electoral Division')","Dangan (IE, type='Electoral Division')","Eyre Square (IE, type='Electoral Division')","Castlegar (IE, type='Electoral Division')","Salthill (IE, type='Electoral Division')","Rahoon (IE, type='Electoral Division')","St. Nicholas (IE, type='Electoral Division')","Taylors Hill (IE, type='Electoral Division')","Murroogh (IE, type='Electoral Division')","Claddagh (IE, type='Electoral Division')","Mervue (IE, type='Electoral Division')","Shantalla (IE, type='Electoral Division')","Wellpark (IE, type='Electoral Division')","Rockbarton (IE, type='Electoral Division')","Nuns Island (IE, type='Electoral Division')","Knocknacarragh (IE, type='Electoral Division')","Renmore (IE, type='Electoral Division')","Ballybrit (IE, type='Electoral Division')","Lough Atalia (IE, type='Electoral Division')","Ballinasloe Urban (IE, type='Electoral Division')","Tuam Rural (IE, type='Electoral Division')","Loughrea Urban (IE, type='Electoral Division')","Tuam Urban (IE, type='Electoral Division')","Carnmore (IE, type='Electoral Division')","Crumpaun (IE, type='Electoral Division')","Wormhole (IE, type='Electoral Division')","Claregalway (IE, type='Electoral Division')","Tullokyne (IE, type='Electoral Division')","Annaghdown-67009 (IE, type='Electoral Division')","Mount Bellew (IE, type='Electoral Division')","Killeely (IE, type='Electoral Division')","Spiddle (IE, type='Electoral Division')","Furbogh (IE, type='Electoral Division')","Lackaghbeg (IE, type='Electoral Division')","Ballintemple (IE, type='Electoral Division')","Liscananaun (IE, type='Electoral Division')","Drumacoo (IE, type='Electoral Division')","Kinvarra (IE, type='Electoral Division')","Selerna (IE, type='Electoral Division')","Annaghdown-67010 (IE, type='Electoral Division')","Deerpark (IE, type='Electoral Division')","Kilcummin-67122 (IE, type='Electoral Division')","Inishmore (IE, type='Electoral Division')","Gorumna (IE, type='Electoral Division')","Aughrim-67014 (IE, type='Electoral Division')","Killeroran (IE, type='Electoral Division')","Cloonbur (IE, type='Electoral Division')","Rinvyle (IE, type='Electoral Division')","Ballynacourty (IE, type='Electoral Division')","Kilmoylan (IE, type='Electoral Division')","Cummer (IE, type='Electoral Division')","Killursa (IE, type='Electoral Division')","Claretuam (IE, type='Electoral Division')","Killannin (IE, type='Electoral Division')","Ballynapark (IE, type='Electoral Division')","Greethill (IE, type='Electoral Division')","Lisheenavalla (IE, type='Electoral Division')","Carrowbrowne (IE, type='Electoral Division')","Killogilleen (IE, type='Electoral Division')","Derryglassaun (IE, type='Electoral Division')","Glennamaddy (IE, type='Electoral Division')","Killower (IE, type='Electoral Division')","Killeenavarra (IE, type='Electoral Division')","Loughrea Rural (IE, type='Electoral Division')","Dunmore South (IE, type='Electoral Division')","Abbey West (IE, type='Electoral Division')","Lettermore (IE, type='Electoral Division')","Doorus (IE, type='Electoral Division')","Ryehill (IE, type='Electoral Division')","Knockboy (IE, type='Electoral Division')","Kiltartan (IE, type='Electoral Division')","Kiltullagh-67152 (IE, type='Electoral Division')","Slieveaneena (IE, type='Electoral Division')","Belclare (IE, type='Electoral Division')","Tiaquin (IE, type='Electoral Division')","Beagh (IE, type='Electoral Division')","Killererin (IE, type='Electoral Division')","Kilconierin (IE, type='Electoral Division')","Killure (IE, type='Electoral Division')","Killeen (IE, type='Electoral Division')","Ballinduff (IE, type='Electoral Division')","Ardamullivan (IE, type='Electoral Division')","Killimor-67133 (IE, type='Electoral Division')","Moyne (IE, type='Electoral Division')","Castletaylor (IE, type='Electoral Division')","Hillsbrook (IE, type='Electoral Division')","Kilconickny (IE, type='Electoral Division')","Foxhall (IE, type='Electoral Division')","Kilmeen (IE, type='Electoral Division')","Belleville (IE, type='Electoral Division')","Kilcoona (IE, type='Electoral Division')","Kilconnell (IE, type='Electoral Division')","Abbey East (IE, type='Electoral Division')","Ballynakill-67028 (IE, type='Electoral Division')","Raford (IE, type='Electoral Division')","Doonbally (IE, type='Electoral Division')","Drumkeary (IE, type='Electoral Division')","Cahermore (IE, type='Electoral Division')","Cong/Ross (IE, type='Electoral Division')","Killeany (IE, type='Electoral Division')","Ardrahan (IE, type='Electoral Division')","Clonbrock (IE, type='Electoral Division')","Skannive (IE, type='Electoral Division')","Dunmore North (IE, type='Electoral Division')","Ballinderry (IE, type='Electoral Division')","Kilcroan (IE, type='Electoral Division')","Addergoole (IE, type='Electoral Division')","Donaghpatrick (IE, type='Electoral Division')","Cooloo (IE, type='Electoral Division')","Aughrim-67015 (IE, type='Electoral Division')","Killaan (IE, type='Electoral Division')","Castleboy (IE, type='Electoral Division')","Ballinasloe Rural (IE, type='Electoral Division')","Turlough (IE, type='Electoral Division')","Castleblakeney (IE, type='Electoral Division')","Mounthazel (IE, type='Electoral Division')","Kiltormer (IE, type='Electoral Division')","Skehanagh (IE, type='Electoral Division')","Raheen (IE, type='Electoral Division')","Castleffrench (IE, type='Electoral Division')","Ballynakill-67029 (IE, type='Electoral Division')","Killallaghtan (IE, type='Electoral Division')","Loughatorick/Coos/Marblehill (IE, type='Electoral Division')","Bracklagh (IE, type='Electoral Division')","Cloonkeen-67067 (IE, type='Electoral Division')","Killinny (IE, type='Electoral Division')","Cloonkeen-67066 (IE, type='Electoral Division')","Carrowrevagh (IE, type='Electoral Division')","Tynagh (IE, type='Electoral Division')","Sillerna (IE, type='Electoral Division')","Abbeygormacan (IE, type='Electoral Division')","Clonfert (IE, type='Electoral Division')","Oatfield (IE, type='Electoral Division')","Levally (IE, type='Electoral Division')","Ballynakill-67030 (IE, type='Electoral Division')","Aille (IE, type='Electoral Division')","Lackalea (IE, type='Electoral Division')","Graigabbey (IE, type='Electoral Division')","Kilshanvy (IE, type='Electoral Division')","Templetogher (IE, type='Electoral Division')","Cappalusk (IE, type='Electoral Division')","Bunowen (IE, type='Electoral Division')","Pallas (IE, type='Electoral Division')","Carrownagur (IE, type='Electoral Division')","Toberadosh (IE, type='Electoral Division')","Ballymoe (IE, type='Electoral Division')","Laurencetown (IE, type='Electoral Division')","Beaghmore (IE, type='Electoral Division')","Kilteskill (IE, type='Electoral Division')","Drummin (IE, type='Electoral Division')","Clonbern (IE, type='Electoral Division')","Kellysgrove (IE, type='Electoral Division')","Annagh (IE, type='Electoral Division')","Caltra (IE, type='Electoral Division')","Killimor-67134 (IE, type='Electoral Division')","Kilreekill (IE, type='Electoral Division')","Killian (IE, type='Electoral Division')","Rahasane (IE, type='Electoral Division')","Kilbeacanty (IE, type='Electoral Division')","Shankill (IE, type='Electoral Division')","Cloonkeen-67065 (IE, type='Electoral Division')","Creggs (IE, type='Electoral Division')","Kilbennan (IE, type='Electoral Division')","Ballinastack (IE, type='Electoral Division')","Bullaun (IE, type='Electoral Division')","Moyrus (IE, type='Electoral Division')","Camus (IE, type='Electoral Division')","Derrylea/Derrycunlagh (IE, type='Electoral Division')","Ballymacward (IE, type='Electoral Division')","Toberroe (IE, type='Electoral Division')","Kilchreest (IE, type='Electoral Division')","Cleggan (IE, type='Electoral Division')","Kilquain (IE, type='Electoral Division')","Mountain (IE, type='Electoral Division')","Owengowla (IE, type='Electoral Division')","Moyode (IE, type='Electoral Division')","Meelick (IE, type='Electoral Division')","Killoran (IE, type='Electoral Division')","Letterfore (IE, type='Electoral Division')","Abbeyville (IE, type='Electoral Division')","Crump Island (IE, type='Electoral Division')","Lismanny (IE, type='Electoral Division')","Letterbrickaun (IE, type='Electoral Division')","Island (IE, type='Electoral Division')","Scregg (IE, type='Electoral Division')","Boyounagh (IE, type='Electoral Division')","Errislannan (IE, type='Electoral Division')","Kilmacshane (IE, type='Electoral Division')","Taghboy (IE, type='Electoral Division')","Kilmalinoge (IE, type='Electoral Division')","Bencorr (IE, type='Electoral Division')","Clontuskert (IE, type='Electoral Division')","Ballynagar (IE, type='Electoral Division')","Ballycahalan (IE, type='Electoral Division')","Kiltullagh-67153 (IE, type='Electoral Division')","Galway Rural (IE, type='Electoral Division')","Curraghmore (IE, type='Electoral Division')","Derrew (IE, type='Electoral Division')","Inishbofin (IE, type='Electoral Division')","Tiranascragh (IE, type='Electoral Division')","Ballyglass (IE, type='Electoral Division')","Kilcummin-67121 (IE, type='Electoral Division')","Cur (IE, type='Electoral Division')","Moat (IE, type='Electoral Division')","Kylemore (IE, type='Electoral Division')","Colmanstown (IE, type='Electoral Division')","Cappard (IE, type='Electoral Division')","Illion (IE, type='Electoral Division')","Kilthomas (IE, type='Electoral Division')","Derrylaur (IE, type='Electoral Division')","Doonloughan (IE, type='Electoral Division')"],"source":"Overture Maps division_area (CC-BY 4.0)"},"geometry":{"type":"MultiPolygon","coordinates":[[[[-9.7204561,52.147054],[-9.708765,52.1445357],[-9.7255399,52.1388464],[-9.7204561,52.147054]]],[[[-9.1567522,53.2601788],[-9.1423043,53.2518636],[-9.1776389,53.2474293],[-9.1800091,53.2580859],[-9.1618116,53.2542144],[-9.1567522,53.2601788]]],[[[-9.0561245,53.2540616],[-9.0507937,53.2561717],[-9.0513763,53.2533963],[-9.0561245,53.2540616]]],[[[-9.106803,53.2566122],[-9.1069533,53.2565132],[-9.1069509,53.2566],[-9.106803,53.2566122]]],[[[-9.023293,53.2596424],[-9.0268152,53.2581426],[-9.0272872,53.259049],[-9.0261942,53.2595148],[-9.023293,53.2596424]]],[[[-9.0082791,53.2626216],[-9.010157,53.2621653],[-9.007837,53.2633728],[-9.0082791,53.2626216]]],[[[-8.9444085,53.2764811],[-8.9098884,53.2722649],[-8.9321315,53.2607601],[-8.9206758,53.2570962],[-8.9282155,53.2543122],[-8.9401451,53.2604037],[-8.9332056,53.2706683],[-8.9444085,53.2764811]]],[[[-9.0789174,53.3017018],[-9.0647399,53.3197423],[-9.0490748,53.3101515],[-9.0127569,53.3148154],[-9.026135,53.3068617],[-8.9881454,53.2998925],[-8.9836022,53.2922765],[-8.9609186,53.300562],[-8.9548381,53.294364],[-8.9637265,53.2797673],[-8.954898,53.2728656],[-8.9731311,53.2700913],[-8.9766326,53.2663656],[-8.972325,53.2648648],[-8.9721986,53.2617497],[-8.9943017,53.2623412],[-8.9935996,53.2709003],[-9.0442685,53.2670228],[-9.0335821,53.2725981],[-9.0294692,53.2776349],[-9.0322025,53.2807926],[-9.0461668,53.2683278],[-9.0556858,53.2699701],[-9.0493786,53.2647723],[-9.1067635,53.2553368],[-9.1130935,53.2485189],[-9.1067192,53.2555389],[-9.1066161,53.2573028],[-9.1111515,53.2523224],[-9.1093068,53.2593398],[-9.1259355,53.2586191],[-9.1250508,53.2513691],[-9.1154578,53.2544446],[-9.1200954,53.2501703],[-9.1280323,53.2512122],[-9.1426901,53.2777613],[-9.1124664,53.2823051],[-9.0993026,53.2988851],[-9.0789174,53.3017018]]],[[[-9.1889773,53.34266],[-9.1736926,53.3421192],[-9.165636,53.3272296],[-9.1797298,53.3348849],[-9.1967402,53.3285195],[-9.1847551,53.3383475],[-9.1889773,53.34266]]],[[[-9.9206189,53.4029408],[-9.915585,53.3912],[-9.9331655,53.3965166],[-9.9206189,53.4029408]]],[[[-9.3158081,53.434727],[-9.3074548,53.4194911],[-9.327806,53.4146286],[-9.3266858,53.4268729],[-9.3430233,53.4254519],[-9.3158081,53.434727]]],[[[-9.0879304,53.4807667],[-9.0937573,53.474773],[-9.0867332,53.4730195],[-9.0976788,53.4696522],[-9.0907475,53.4658063],[-9.1109019,53.4679969],[-9.1109357,53.4745053],[-9.1020733,53.4703994],[-9.0879304,53.4807667]]],[[[-10.0243596,53.4974397],[-9.9985874,53.4880895],[-10.0139357,53.480397],[-10.0230019,53.4876232],[-10.0487,53.4856758],[-10.0536362,53.4928978],[-10.0271717,53.4892749],[-10.0243596,53.4974397]]],[[[-7.4590521,52.1356614],[-7.4494891,52.1275911],[-7.4667112,52.1332447],[-7.4590521,52.1356614]]],[[[-7.8025217,52.274759],[-7.8086427,52.2690893],[-7.8202065,52.2729994],[-7.8025217,52.274759]]],[[[-8.4004393,53.0602689],[-8.3933962,53.0487607],[-8.4082945,53.0550173],[-8.4004393,53.0602689]]],[[[-8.8214047,53.0814963],[-8.8166372,53.0680873],[-8.7982317,53.069347],[-8.8006129,53.0592001],[-8.794559,53.0567643],[-8.8125575,53.0594974],[-8.8145168,53.0495586],[-8.828687,53.0499794],[-8.8153036,53.0602609],[-8.8235097,53.0625134],[-8.830026,53.05256],[-8.8332029,53.0551454],[-8.8250578,53.0633483],[-8.8309183,53.0693385],[-8.8214047,53.0814963]]],[[[-8.2229044,53.1009492],[-8.1984568,53.0932682],[-8.2120883,53.0935743],[-8.2107244,53.086794],[-8.2444468,53.0892897],[-8.2246875,53.091033],[-8.2229044,53.1009492]]],[[[-8.1426847,53.1969666],[-8.1248014,53.1997962],[-8.1320058,53.1952798],[-8.1426847,53.1969666]]],[[[-8.8978145,53.2271243],[-8.8779348,53.2320528],[-8.8741264,53.2260892],[-8.8779206,53.2225817],[-8.8978145,53.2271243]]],[[[-8.7441555,53.2384852],[-8.72824,53.2336876],[-8.7320214,53.2279224],[-8.7231443,53.2239976],[-8.7368886,53.2233944],[-8.7462739,53.2365139],[-8.762063,53.2305084],[-8.7648029,53.2307034],[-8.7441555,53.2384852]]],[[[-8.736016,53.3119104],[-8.7411294,53.3012608],[-8.7319098,53.3002622],[-8.7330081,53.2948434],[-8.7509172,53.291684],[-8.7667382,53.3016504],[-8.736016,53.3119104]]],[[[-8.7140337,53.3785438],[-8.6971514,53.375615],[-8.6958311,53.3702148],[-8.7140337,53.3785438]]],[[[-8.336423,53.4040002],[-8.330358,53.3953303],[-8.3368726,53.3953712],[-8.336423,53.4040002]]],[[[-8.0647983,53.9966128],[-8.0596394,53.9843148],[-8.0748193,53.993247],[-8.0647983,53.9966128]]],[[[-8.5338103,54.3962341],[-8.515969,54.3942106],[-8.5247925,54.3883981],[-8.5338103,54.3962341]]]]}}]}