{"type": "FeatureCollection", "features": [{"type": "Feature", "properties": {"slug": "garanhuns", "members": 1, "country": "Brazil", "input_hash": "206a019b6f859b69"}, "geometry": {"type": "Polygon", "coordinates": [[[-36.6257842, -9.0025306], [-36.6370877, -9.0208281], [-36.6009185, -9.0332286], [-36.5906204, -9.0243387], [-36.5951595, -8.998044], [-36.5811561, -8.9948362], [-36.5846128, -8.9871355], [-36.5614598, -8.9895467], [-36.5702055, -8.9774419], [-36.5501059, -8.9533686], [-36.5315658, -8.9662514], [-36.5098522, -8.9544361], [-36.4964402, -8.9581587], [-36.48, -8.973], [-36.478, -9.089], [-36.418, -9.044], [-36.3664774, -9.0185828], [-36.4, -8.956], [-36.398, -8.939], [-36.411, -8.924], [-36.411, -8.912], [-36.441, -8.89], [-36.4625028, -8.8450125], [-36.4443585, -8.7995802], [-36.4733439, -8.8013426], [-36.527352, -8.7835308], [-36.5475365, -8.7874866], [-36.5841763, -8.8284581], [-36.5432551, -8.8811989], [-36.5593933, -8.8902509], [-36.6134597, -8.8955064], [-36.6054119, -8.9136464], [-36.6141565, -8.9262247], [-36.6050586, -8.9363362], [-36.6290401, -8.9515416], [-36.6366708, -8.986589], [-36.6257842, -9.0025306]]]}}]}