{"type":"FeatureCollection","features":[{"type":"Feature","properties":{"slug":"gatchina","member_count":1,"matched_count":1,"unmatched":["[recovered via metro-name fallback: Gatchina]"],"source":"Overture Maps division_area (CC-BY 4.0)"},"geometry":{"type":"Polygon","coordinates":[[[30.1360107,59.58637],[30.1195062,59.6062301],[30.106827,59.6045444],[30.0625995,59.5770126],[30.0417316,59.5746806],[30.0434854,59.5648593],[30.0784937,59.5609993],[30.0603162,59.5582083],[30.0694916,59.5479125],[30.093641,59.5471639],[30.0845073,59.5360551],[30.1118076,59.5337362],[30.1109477,59.5410442],[30.1188581,59.541778],[30.1267076,59.5319945],[30.1440579,59.5527833],[30.1576192,59.5520199],[30.1663108,59.5634038],[30.1582404,59.5661544],[30.1636703,59.5700349],[30.1549531,59.5819669],[30.1618313,59.5863936],[30.1565864,59.5958839],[30.1360107,59.58637]]]}}]}