{"type": "FeatureCollection", "features": [{"type": "Feature", "properties": {"slug": "gavle", "members": 1, "country": "Sweden", "input_hash": "4aaaba0015524d47"}, "geometry": {"type": "MultiPolygon", "coordinates": [[[[16.8348316, 60.3457855], [16.8336685, 60.3484104], [16.8387828, 60.3467586], [16.8348316, 60.3457855]]], [[[16.8823336, 60.9297959], [16.8973323, 60.9652351], [16.8727136, 60.9914867], [16.8884083, 61.0052641], [16.900127, 61.0428293], [17.164582855387195, 61.055746411051466], [17.1508834, 61.0486404], [17.1597465, 61.0491756], [17.1552449, 61.0464033], [17.1686031, 61.0364485], [17.163356, 61.0330268], [17.1786273, 61.0323475], [17.1872527, 61.0195488], [17.1358412, 61.0000273], [17.1881272, 61.0122488], [17.2304709, 61.0137704], [17.2481806, 61.0064371], [17.228548, 61.0028917], [17.2319601, 60.9935018], [17.2233402, 61.0008329], [17.2002588, 60.9881139], [17.1669025, 60.9868411], [17.1843929, 60.9816796], [17.1567344, 60.9785275], [17.1639946, 60.9689937], [17.1373973, 60.9509537], [17.1424645, 60.9438684], [17.1698665, 60.9477572], [17.1585483, 60.939818], [17.1403725, 60.94358], [17.1531726, 60.940926], [17.1463132, 60.9299363], [17.1754089, 60.9425955], [17.1799421, 60.9400495], [17.151839, 60.9283056], [17.2096306, 60.9259774], [17.1900344, 60.9169828], [17.1961999, 60.9054529], [17.2102002, 60.9104408], [17.2110366, 60.9039], [17.2307514, 60.8941651], [17.2177583, 60.8898082], [17.2332902, 60.8932928], [17.2577305, 60.8773853], [17.2780704, 60.8828949], [17.272539, 60.8799133], [17.286574, 60.8754671], [17.330997, 60.8860218], [17.3285937, 60.8738515], [17.3151731, 60.8677315], [17.2799139, 60.8655824], [17.2610564, 60.8725244], [17.2650872, 60.8608951], [17.2711812, 60.8654408], [17.2758117, 60.8599706], [17.2693127, 60.8528997], [17.2932526, 60.844926], [17.2810802, 60.8349922], [17.2974846, 60.8364614], [17.252445, 60.8296012], [17.2398006, 60.8126851], [17.2513618, 60.8053143], [17.29713, 60.80732], [17.2915043, 60.7930132], [17.2982972, 60.7890989], [17.2909876, 60.7917956], [17.2879692, 60.7792552], [17.2761208, 60.7759959], [17.2831171, 60.7753734], [17.2937917, 60.7808746], [17.2891316, 60.774704], [17.3069699, 60.7672375], [17.3257824, 60.7751165], [17.3225593, 60.7651398], [17.3495222, 60.767221], [17.3453138, 60.7611639], [17.3537515, 60.7529487], [17.3041985, 60.7364027], [17.3170088, 60.7305129], [17.2873443, 60.7305728], [17.24739, 60.7052416], [17.2226625, 60.6994127], [17.2309491, 60.6922528], [17.2172913, 60.6958061], [17.2201786, 60.690543], [17.1921773, 60.6842145], [17.1780871, 60.6854919], [17.1908277, 60.687208], [17.1860213, 60.6910984], [17.1566738, 60.6914665], [17.1668602, 60.6856931], [17.1774586, 60.6853402], [17.1714473, 60.6807308], [17.1826712, 60.6811106], [17.1642433, 60.6780406], [17.2010446, 60.6753861], [17.21963, 60.6878832], [17.2457869, 60.6921129], [17.2751137, 60.683941], [17.283215, 60.6905672], [17.2985609, 60.6865343], [17.2908663, 60.6851835], [17.2956131, 60.6770431], [17.2724467, 60.6753086], [17.3031271, 60.6674805], [17.3008647, 60.6581188], [17.3451682, 60.6528293], [17.3652721, 60.6582148], [17.3736378, 60.6505476], [17.3489312, 60.5861666], [17.3027187, 60.508895], [17.2978628, 60.4648166], [17.2878333, 60.4468076], [17.2566053, 60.4244663], [17.2538331, 60.4352081], [17.2176405, 60.4339604], [17.2173345, 60.4196173], [17.1955272, 60.4104829], [17.1890815, 60.3822683], [17.1993346, 60.3785437], [17.1995478, 60.365749], [17.2136145, 60.3649868], [17.1967751, 60.3451074], [17.1938165, 60.3008119], [17.1575477, 60.2874231], [17.1030979, 60.280834], [17.1129036, 60.2693241], [17.0824144, 60.2592052], [17.0584727, 60.2729651], [17.0020599, 60.2749221], [16.9805231, 60.2952744], [16.9088796, 60.281497], [16.8907296, 60.304707], [16.9027496, 60.3308952], [16.8875675, 60.3528004], [16.8436155, 60.3646015], [16.8365986, 60.3598477], [16.7926542, 60.3869423], [16.7800522, 60.3832346], [16.7827522, 60.4146372], [16.7739245, 60.4242098], [16.7960227, 60.4281441], [16.8114401, 60.4404715], [16.8471719, 60.447373], [16.8948335, 60.4303173], [16.8908268, 60.4416979], [16.9078878, 60.4891554], [16.9350841, 60.4955347], [16.9426958, 60.5190707], [16.9338064, 60.5329295], [16.8749331, 60.5619853], [16.8373812, 60.5930627], [16.8397043, 60.6091979], [16.8773077, 60.6152866], [16.8693944, 60.6363206], [16.8774434, 60.6657687], [16.8459591, 60.6877717], [16.8639329, 60.6937865], [16.8533579, 60.7008944], [16.8588072, 60.7084988], [16.8465329, 60.7080501], [16.840263, 60.72796], [16.8589882, 60.7772309], [16.9332246, 60.7852272], [16.9543697, 60.8252087], [16.9313186, 60.8547661], [16.8956893, 60.8823621], [16.8823336, 60.9297959]]], [[[17.1690547, 60.687153], [17.1703672, 60.6856038], [17.1605232, 60.6898853], [17.1690547, 60.687153]]], [[[17.2686874, 60.8280972], [17.2724403, 60.8209806], [17.2561806, 60.8214349], [17.2686874, 60.8280972]]], [[[17.2897882, 60.8306198], [17.3053868, 60.8238449], [17.2797889, 60.8230156], [17.2897882, 60.8306198]]], [[[17.2987265, 60.8473864], [17.2880807, 60.8516048], [17.29521, 60.8512753], [17.2987265, 60.8473864]]], [[[17.2159857, 60.9043617], [17.2147572, 60.9080672], [17.2237426, 60.9052283], [17.2159857, 60.9043617]]], [[[17.2364114, 60.9200673], [17.220964, 60.9230598], [17.22828, 60.9233593], [17.2364114, 60.9200673]]], [[[17.1906962, 60.941474], [17.1888215, 60.9470239], [17.200689, 60.9461233], [17.1906962, 60.941474]]], [[[17.1852393, 60.9609866], [17.1916675, 60.9567068], [17.1818238, 60.9527405], [17.1852393, 60.9609866]]], [[[17.1534884, 60.9602671], [17.1637237, 60.9606473], [17.1557414, 60.9574339], [17.1534884, 60.9602671]]], [[[17.2807231, 61.0031422], [17.2698575, 61.000477], [17.2599611, 61.0027554], [17.2678848, 61.0055035], [17.2807231, 61.0031422]]], [[[17.2539956, 61.0046128], [17.2492718, 61.0114247], [17.26782, 61.00748], [17.2539956, 61.0046128]]], [[[17.2032686, 61.0285515], [17.2239817, 61.0476028], [17.2555604, 61.0402965], [17.2434703, 61.0204742], [17.2032686, 61.0285515]]], [[[17.2738946, 61.0664867], [17.2902298, 61.056167], [17.2584134, 61.0578402], [17.2738946, 61.0664867]]], [[[17.2886286, 61.0653561], [17.2849325, 61.0675257], [17.2911767, 61.0663085], [17.2886286, 61.0653561]]], [[[17.2813759, 61.0700507], [17.2801045, 61.0742983], [17.2883121, 61.0725131], [17.2813759, 61.0700507]]], [[[17.3409536, 60.6566421], [17.3402525, 60.6596598], [17.3443809, 60.6583492], [17.3409536, 60.6566421]]], [[[17.3048864, 60.6698363], [17.3005564, 60.6724966], [17.3069287, 60.6721041], [17.3048864, 60.6698363]]], [[[17.3341208, 60.6777649], [17.3093205, 60.6734209], [17.2927318, 60.6737216], [17.319044, 60.6945589], [17.3341208, 60.6777649]]], [[[17.3219116, 60.7154427], [17.3265293, 60.7086468], [17.3125775, 60.7083991], [17.3193582, 60.7192735], [17.3284562, 60.7189271], [17.3219116, 60.7154427]]], [[[17.3374148, 60.7203754], [17.36739, 60.71573], [17.3303445, 60.7104226], [17.3374148, 60.7203754]]], [[[17.3095673, 60.7165983], [17.3078775, 60.7144261], [17.3038595, 60.7160231], [17.3095673, 60.7165983]]], [[[17.455917, 60.7245697], [17.4605456, 60.7266901], [17.464455, 60.7235424], [17.455917, 60.7245697]]], [[[17.5583317, 60.7281837], [17.5428395, 60.7306969], [17.5594462, 60.7302039], [17.5583317, 60.7281837]]], [[[17.4489328, 60.7489487], [17.4480315, 60.7548407], [17.4565449, 60.7474807], [17.4445554, 60.741021], [17.4322065, 60.7472578], [17.4489328, 60.7489487]]], [[[17.3950284, 60.7634769], [17.3912948, 60.7661912], [17.4081819, 60.7674802], [17.3950284, 60.7634769]]], [[[17.3979895, 60.7756632], [17.4038475, 60.773945], [17.3969596, 60.7745527], [17.3979895, 60.7756632]]], [[[17.3509524, 60.796912], [17.3539527, 60.7919538], [17.3477562, 60.7953429], [17.3509524, 60.796912]]], [[[17.3495522, 60.7922884], [17.3149422, 60.792594], [17.2987671, 60.7860339], [17.2991104, 60.7899505], [17.2967064, 60.7986015], [17.3215179, 60.8119355], [17.3352677, 60.8087932], [17.3297307, 60.7989061], [17.3495522, 60.7922884]]], [[[17.3035892, 60.8281036], [17.305338, 60.8322557], [17.3074499, 60.8291929], [17.3035892, 60.8281036]]], [[[17.3005782, 60.844842], [17.3069409, 60.8397964], [17.2919828, 60.8390067], [17.3005782, 60.844842]]], [[[17.3154536, 60.8936905], [17.3092604, 60.8965203], [17.3178971, 60.8952783], [17.3154536, 60.8936905]]]]}}]}