{"type":"FeatureCollection","features":[{"type":"Feature","properties":{"slug":"geelong","member_count":3,"matched_count":1,"unmatched":["Surf Coast (AU-VIC, type='Shire')","Golden Plains (AU-VIC, type='Shire')"],"source":"Overture Maps division_area (CC-BY 4.0)"},"geometry":{"type":"Polygon","coordinates":[[[144.37468,-38.300644],[144.430005,-38.28131],[144.499698,-38.290794],[144.494458,-38.282867],[144.526092,-38.271416],[144.600745,-38.287838],[144.626045,-38.257663],[144.63366,-38.270063],[144.665227,-38.262979],[144.663122,-38.252027],[144.67848,-38.237958],[144.702424,-38.243047],[144.700705,-38.219838],[144.72005,-38.173681],[144.720239,-38.146407],[144.691465,-38.119728],[144.633002,-38.107765],[144.562991,-38.152663],[144.536249,-38.158939],[144.469587,-38.163604],[144.43221,-38.138776],[144.427964,-38.131592],[144.441023,-38.126709],[144.428449,-38.131036],[144.425708,-38.125234],[144.416516,-38.155661],[144.38497,-38.143381],[144.362036,-38.143616],[144.355612,-38.135681],[144.366489,-38.109244],[144.361405,-38.104794],[144.38095,-38.097831],[144.386366,-38.07942],[144.407401,-38.07129],[144.413586,-38.060575],[144.410161,-38.075323],[144.400617,-38.076008],[144.414687,-38.088195],[144.436471,-38.086859],[144.438592,-38.096355],[144.462807,-38.077637],[144.47224,-38.085889],[144.47666,-38.077816],[144.485935,-38.078951],[144.508268,-38.091699],[144.522311,-38.052747],[144.561672,-38.038533],[144.592882,-38.006489],[144.573382,-37.999207],[144.567824,-37.984515],[144.554672,-37.984802],[144.547521,-37.971818],[144.524063,-37.973387],[144.51927,-37.980949],[144.495814,-37.974289],[144.496445,-37.964147],[144.474018,-37.935682],[144.482614,-37.92327],[144.478112,-37.910792],[144.484772,-37.908982],[144.480134,-37.888896],[144.429764,-37.85753],[144.421618,-37.84612],[144.421053,-37.820353],[144.406357,-37.800934],[144.39912,-37.815232],[144.361678,-37.8108],[144.353374,-37.845447],[144.323588,-37.845101],[144.294249,-37.828928],[144.296016,-37.819565],[144.2224,-37.810082],[144.210685,-37.824978],[144.231131,-37.834646],[144.234211,-37.866659],[144.24846,-37.873783],[144.213464,-37.901423],[144.202615,-37.938404],[144.236796,-37.942583],[144.235478,-37.964558],[144.247724,-37.991333],[144.24071,-38.008558],[144.262664,-38.043655],[144.258958,-38.064937],[144.272703,-38.06562],[144.286486,-38.079056],[144.26815,-38.092833],[144.241327,-38.237783],[144.406079,-38.257179],[144.396913,-38.291259],[144.37468,-38.300644]]]}}]}