{"type": "FeatureCollection", "features": [{"type": "Feature", "properties": {"slug": "geita", "members": 1, "country": "Tanzania", "input_hash": "881282b38ae2bdfa"}, "geometry": {"type": "Polygon", "coordinates": [[[32.5184093, -2.9506322], [32.5800997, -2.9324188], [32.5840298, -2.9051004], [32.5780266, -2.868051], [32.542422, -2.8223084], [32.5540142, -2.7989196], [32.5099225, -2.7836031], [32.4513406, -2.7792565], [32.4291912, -2.7703564], [32.4167351, -2.7454652], [32.4015445, -2.7351619], [32.3440308, -2.7580987], [32.3160479, -2.7508873], [32.3018773, -2.7579033], [32.2656604, -2.8474051], [32.1661682, -2.7920884], [32.1432024, -2.8050374], [32.1017509, -2.8107938], [32.0842083, -2.8617101], [32.0703173, -2.8553655], [32.0623428, -2.8375321], [32.0314717, -2.834411], [32.0191262, -2.8561372], [32.0506426, -2.8921046], [32.0893925, -2.8999529], [32.10014, -2.9096056], [32.133107, -2.9630034], [32.1674734, -2.9571168], [32.186662, -2.9656114], [32.2266158, -2.9419], [32.249636, -2.9450763], [32.2624949, -2.938748], [32.2684221, -2.947688], [32.2631982, -2.9647643], [32.2789704, -2.962253], [32.2734666, -2.9856225], [32.2808847, -3.0115177], [32.3117282, -3.0080043], [32.3442778, -3.020962], [32.3416278, -3.0293528], [32.3691586, -3.0300888], [32.3809364, -3.0403933], [32.3946539, -3.0336799], [32.3830292, -2.9934772], [32.4153217, -2.9042687], [32.4399802, -2.9032322], [32.5184093, -2.9506322]]]}}]}