{"type": "FeatureCollection", "features": [{"type": "Feature", "properties": {"slug": "gemena", "members": 1, "country": "Congo DR", "input_hash": "7a57d6d834396bdf"}, "geometry": {"type": "Polygon", "coordinates": [[[19.43047724200005, 3.90999518700005], [19.415765160000035, 3.892803122000032], [19.407837176000044, 3.862792135000063], [19.403648280000027, 3.868731984000021], [19.39457340000007, 3.860347039000033], [19.385343360000036, 3.866233052000041], [19.365471360000072, 3.860263064000037], [19.374140128000022, 3.842632104000074], [19.35205848100003, 3.850219989000038], [19.359764280000036, 3.83695110900004], [19.351587235000068, 3.830187250000051], [19.369043280000028, 3.826462056000025], [19.36665540000007, 3.814006081000059], [19.373584320000077, 3.80901615800002], [19.367494384000054, 3.799972341000057], [19.35918036000004, 3.80609804300002], [19.346389200000033, 3.80227698300007], [19.361810166000055, 3.795768078000037], [19.352380320000066, 3.777940159000025], [19.363498200000038, 3.766781017000028], [19.362703320000037, 3.755492064000066], [19.354448157000036, 3.756093904000068], [19.355549137000025, 3.739071075000027], [19.317762360000074, 3.737280150000061], [19.296310320000032, 3.750629310000022], [19.300291194000067, 3.742615344000058], [19.282966560000034, 3.73459986000006], [19.26637848000007, 3.742936170000064], [19.259521061000044, 3.72053274600006], [19.26665748000005, 3.717387070000029], [19.268551440000067, 3.690705063000053], [19.255117320000068, 3.662013018000039], [19.24258032000006, 3.656121111000061], [19.24918020000007, 3.639158140000063], [19.242344161000062, 3.635861005000038], [19.246319280000023, 3.628538088000028], [19.272907188000033, 3.627217152000071], [19.27079640000005, 3.610620015000052], [19.282812480000075, 3.601083001000063], [19.27661525900004, 3.538861953000037], [19.248256440000034, 3.513691100000074], [19.267086240000026, 3.488345063000054], [19.247030280000047, 3.479148037000073], [19.238500440000053, 3.484119127000042], [19.23082542700007, 3.473906243000044], [19.232151317000046, 3.457347107000032], [19.195158142000025, 3.467989931000034], [19.19548044000004, 3.459476056000028], [19.203922440000042, 3.462562074000061], [19.208835360000023, 3.453178055000024], [19.204645320000054, 3.438399141000048], [19.166307561000053, 3.425546202000021], [19.180940467000028, 3.407062196000027], [19.15754940000005, 3.409796123000035], [19.129863240000077, 3.365752985000029], [19.076292360000025, 3.343520148000039], [19.094413320000058, 3.340959119000047], [19.097948132000056, 3.332021089000023], [19.090896557000065, 3.327569076000032], [19.098758160000045, 3.320751157000075], [19.071382523000068, 3.290751153000031], [19.08350532000003, 3.271321006000051], [19.07468244000006, 3.261784154000054], [19.076906160000078, 3.247078066000029], [19.08764424900005, 3.228553021000039], [19.08986328000003, 3.235022143000037], [19.097721360000037, 3.228434052000068], [19.08457742300004, 3.195371822000027], [19.085571, 3.126680815000043], [19.093885200000045, 3.11997612600004], [19.120634280000047, 3.123496021000051], [19.152652320000072, 3.08495109200004], [19.154909160000045, 3.067252044000043], [19.211649480000062, 3.070410014000061], [19.223684280000043, 3.079517985000052], [19.244051280000065, 3.080203131000076], [19.25370036000004, 3.056139056000063], [19.267379426000048, 3.061352933000023], [19.28097108000003, 3.048009950000051], [19.304853120000075, 3.003866427000048], [19.31277852000005, 2.963795889000039], [19.225601640000036, 2.904128600000035], [19.29353616000003, 2.786664432000066], [19.51412436000004, 2.855144295000059], [19.557022320000044, 2.83959210300003], [19.596408120000035, 2.847117744000059], [19.637890021000032, 2.832157223000024], [19.647884160000046, 2.817532063000044], [19.69575732000004, 2.813659073000053], [19.71652824000006, 2.818937065000057], [19.723331160000043, 2.869413018000046], [19.738975320000065, 2.883845004000023], [19.745620200000076, 2.905319114000065], [19.761799320000023, 2.91239108000002], [19.82637432000007, 2.909602008000036], [19.84414644000003, 2.917610112000034], [19.90626138300007, 2.909035951000021], [19.934381879000057, 2.877817599000025], [19.96773335900002, 2.873291039000037], [20.081741399000066, 2.917011081000055], [20.11623443900004, 2.924028074000034], [20.138712290000058, 2.919186265000064], [20.157825458000048, 2.954129084000044], [20.208601799000064, 2.951797172000056], [20.174560920000033, 3.035151877000033], [20.228471640000066, 3.140037693000068], [20.28440556000004, 3.189040820000059], [20.281153680000045, 3.303214207000053], [20.272674600000073, 3.319434987000022], [20.227436280000063, 3.352557101000059], [20.211336042000028, 3.383015044000047], [20.210197320000077, 3.409672165000075], [20.223286200000075, 3.448935408000068], [20.217278160000035, 3.468274439000027], [20.138506199000062, 3.523178123000037], [20.11127435900005, 3.567106086000024], [20.149963138000032, 3.63953897600004], [20.134004582000046, 3.655034924000063], [20.137121270000023, 3.710773104000054], [20.13096635900007, 3.730970111000033], [20.218324319000033, 3.771421041000053], [20.20272047900005, 3.797281057000021], [20.146690440000043, 3.80962200700003], [20.111761799000078, 3.826207421000049], [20.09993399900003, 3.841216537000037], [19.996082639000065, 3.873851380000076], [19.947434759000032, 3.908152141000073], [19.889578439000047, 3.970034044000045], [19.902872159000026, 4.037847086000056], [19.919174291000047, 4.057809241000029], [19.90346328000004, 4.07008109800006], [19.857971160000034, 4.080668059000061], [19.79306244000003, 4.08483801400007], [19.775087280000037, 4.071762156000034], [19.754383320000045, 4.079145038000036], [19.730961337000053, 4.06094803600007], [19.72015533700005, 4.06405901200003], [19.703743200000076, 4.055372087000023], [19.686529440000072, 4.079824033000023], [19.677385440000023, 4.077427142000033], [19.67589540000006, 4.066362118000029], [19.660293360000026, 4.067810018000046], [19.65169942800003, 4.07877002400005], [19.596199150000075, 4.059773019000033], [19.551910320000047, 4.064601048000043], [19.550306160000048, 4.042945108000026], [19.54060128200007, 4.050209062000022], [19.528948440000022, 4.046863032000033], [19.51184844000005, 4.060033142000066], [19.498638240000048, 4.030427146000022], [19.468120320000025, 4.012146138000048], [19.470581280000033, 3.97465010600007], [19.457100360000027, 3.970822987000076], [19.460062416000028, 3.951057180000021], [19.469269440000062, 3.947242104000054], [19.452224477000073, 3.933708229000047], [19.444715329000076, 3.950202864000062], [19.435871160000033, 3.941361162000021], [19.432344262000072, 3.949840022000046], [19.420482423000067, 3.944648259000076], [19.43157240000005, 3.936250094000059], [19.422817228000042, 3.919121219000033], [19.43047724200005, 3.90999518700005]]]}}]}