{"type":"FeatureCollection","features":[{"type":"Feature","properties":{"slug":"genoa","member_count":68,"matched_count":68,"unmatched":[],"source":"Overture Maps division_area (CC-BY 4.0)"},"geometry":{"type":"MultiPolygon","coordinates":[[[[8.9167385,44.3966635],[8.9382458,44.3887721],[8.8757212,44.4038284],[8.9167385,44.3966635]]],[[[8.8808633,44.399837],[8.8169294,44.4134288],[8.8701075,44.4032466],[8.8808633,44.399837]]],[[[8.6298401,44.3822231],[8.5932878,44.400136],[8.5924185,44.42274],[8.5850314,44.4291181],[8.6445629,44.439327],[8.6708647,44.4577829],[8.6537313,44.5035741],[8.6323984,44.5065655],[8.6200506,44.5001076],[8.6123861,44.508771],[8.5957895,44.4939885],[8.5746284,44.5097503],[8.5737565,44.5233248],[8.5866878,44.5241916],[8.587631,44.5332246],[8.6135365,44.5455137],[8.5978712,44.5558756],[8.6012114,44.5682388],[8.6164809,44.5707218],[8.608625,44.5761417],[8.6209595,44.5770925],[8.6238614,44.5863807],[8.6814198,44.5748825],[8.6905475,44.5824787],[8.720998,44.5798654],[8.7569839,44.5366904],[8.7498077,44.5256647],[8.7675643,44.524964],[8.7703056,44.4894655],[8.7882632,44.488031],[8.7859414,44.4971635],[8.801017,44.5007651],[8.7990825,44.5301328],[8.8287653,44.5430695],[8.8222098,44.5502514],[8.8260524,44.5618616],[8.852698,44.5592748],[8.8686074,44.5662442],[8.8913371,44.5506307],[8.9175028,44.561055],[8.9217734,44.56799],[8.902027,44.6091291],[8.910014,44.612048],[8.8826935,44.6390206],[8.9086768,44.6471571],[8.9242002,44.6741216],[8.9583369,44.6762637],[8.9730706,44.6626115],[9.0146907,44.6660707],[9.0387618,44.6408673],[9.0439089,44.6144252],[9.0769893,44.6259624],[9.0859135,44.6142753],[9.1035453,44.6096064],[9.1023796,44.5928539],[9.1107041,44.581971],[9.1351922,44.5744771],[9.152555,44.5742212],[9.2028035,44.5945157],[9.2044908,44.6149573],[9.2427958,44.6196201],[9.2535291,44.6069975],[9.2423646,44.60012],[9.2796716,44.595385],[9.2876534,44.6091006],[9.3004102,44.6077774],[9.3422242,44.5777804],[9.3610507,44.5849695],[9.3816849,44.5767821],[9.4056289,44.6008068],[9.4213062,44.5926043],[9.4230766,44.5746122],[9.4407042,44.5667175],[9.4518342,44.572412],[9.4539124,44.5606374],[9.4705618,44.5660661],[9.4907721,44.5589456],[9.4881805,44.5455699],[9.5046077,44.52996],[9.4946342,44.500403],[9.4968034,44.4827304],[9.4688731,44.4818807],[9.4714245,44.467952],[9.4581985,44.4422041],[9.4395996,44.4300785],[9.4381716,44.4190916],[9.4725648,44.4242841],[9.4790343,44.4092585],[9.4657374,44.4015846],[9.4721826,44.3863479],[9.4893289,44.3831427],[9.4961317,44.3668228],[9.5177585,44.3546677],[9.4992813,44.3268542],[9.5537664,44.2903843],[9.574846,44.2642525],[9.5715427,44.2535524],[9.5305933,44.2511754],[9.5204049,44.2347778],[9.5262582,44.2267745],[9.5119704,44.2249005],[9.5119576,44.2163377],[9.4880852,44.2391259],[9.472447,44.233431],[9.4437694,44.2381028],[9.4327541,44.2535044],[9.4185896,44.2595396],[9.4034368,44.2519385],[9.3949604,44.2693439],[9.3844997,44.2681988],[9.391661,44.2791074],[9.3753407,44.2914328],[9.2338816,44.3483168],[9.2258335,44.3352021],[9.2137739,44.3337037],[9.2188484,44.3319043],[9.2098159,44.3029965],[9.2143575,44.3033189],[9.2176152,44.2985403],[9.1451022,44.3223512],[9.1556858,44.3424561],[9.1418775,44.3606116],[9.0816284,44.3759029],[8.9857049,44.3917822],[8.9384078,44.3922612],[8.9187175,44.4070536],[8.926857,44.4083776],[8.9223587,44.4100417],[8.9276646,44.4103983],[8.9240355,44.4141386],[8.909828,44.409785],[8.917734,44.3981732],[8.8218603,44.4148883],[8.8230088,44.4177769],[8.8410319,44.41518],[8.8520474,44.4190387],[8.8357732,44.4239147],[8.827266,44.4238923],[8.8284176,44.4184925],[8.8221,44.4241206],[8.7770333,44.4266505],[8.7978407,44.422113],[8.7767311,44.4174625],[8.7436622,44.4270218],[8.6929483,44.4083042],[8.6800492,44.3930604],[8.6298401,44.3822231]]],[[[8.8208653,44.4150918],[8.8221533,44.4181463],[8.8210476,44.4145237],[8.8208653,44.4150918]]],[[[8.7950659,44.4121548],[8.8065063,44.42135],[8.8105969,44.4221669],[8.7951492,44.4119385],[8.7697011,44.4157402],[8.7950659,44.4121548]]],[[[8.8057699,44.421065],[8.8056197,44.4210841],[8.805659,44.4211223],[8.8057699,44.421065]]],[[[9.05388,44.378627],[9.0541035,44.3786162],[9.0538655,44.3784709],[9.05388,44.378627]]],[[[9.4325933,44.2516915],[9.4323072,44.2520421],[9.4327323,44.2519347],[9.4325933,44.2516915]]],[[[9.2793799,44.3293205],[9.2793124,44.3292118],[9.2792596,44.3292949],[9.2793799,44.3293205]]],[[[9.2782442,44.3299683],[9.2783793,44.3299336],[9.2782738,44.3298928],[9.2782442,44.3299683]]]]}}]}