{"type":"FeatureCollection","features":[{"type":"Feature","properties":{"slug":"ghaziabad","member_count":1,"matched_count":1,"unmatched":[],"source":"Overture Maps division_area (CC-BY 4.0)"},"geometry":{"type":"Polygon","coordinates":[[[77.3304796,28.6315684],[77.3985965,28.6367843],[77.4399245,28.6222705],[77.4565928,28.6378881],[77.4775503,28.627332],[77.5005626,28.6488262],[77.5110039,28.6423228],[77.5180351,28.6495864],[77.5420497,28.6335133],[77.5478375,28.6383277],[77.5418749,28.651674],[77.5605783,28.647595],[77.5662117,28.6529386],[77.5457851,28.6667517],[77.5459895,28.6847747],[77.5614194,28.6871352],[77.5699849,28.7020428],[77.5901928,28.6984355],[77.6151633,28.7160021],[77.6078,28.7296922],[77.6227971,28.7356346],[77.6408658,28.723898],[77.6548216,28.7344315],[77.6702222,28.7226867],[77.6825817,28.7242644],[77.6822177,28.7379316],[77.6909475,28.743444],[77.6796028,28.7627645],[77.6850243,28.7763242],[77.7079883,28.7896432],[77.7095278,28.8129976],[77.6920309,28.8237657],[77.699902,28.8530974],[77.6873147,28.8617846],[77.686624,28.8726091],[77.6740202,28.8768245],[77.6552174,28.8680709],[77.6423094,28.8818878],[77.5928738,28.8749482],[77.582615,28.8928301],[77.5714168,28.8871481],[77.5507438,28.8965487],[77.5368164,28.8879429],[77.501134,28.9011138],[77.4931162,28.8954083],[77.4565624,28.9067552],[77.4586968,28.9253528],[77.4447133,28.9277798],[77.4191156,28.8800953],[77.4028203,28.8775677],[77.4079492,28.8673704],[77.4013022,28.8499884],[77.4141512,28.8403852],[77.3900773,28.8284889],[77.4054905,28.8136782],[77.3942927,28.8037011],[77.4059908,28.7824393],[77.3951272,28.776643],[77.3633984,28.7861368],[77.3482374,28.8059969],[77.3413524,28.79493],[77.3241936,28.8021246],[77.3046204,28.7906251],[77.2916478,28.8135862],[77.2931737,28.8274492],[77.2813473,28.8343434],[77.2579146,28.8345473],[77.2490265,28.8226528],[77.2334841,28.8224593],[77.2220326,28.8339207],[77.2187202,28.8108429],[77.2021248,28.8135672],[77.1992428,28.8045263],[77.2072766,28.7866961],[77.2280336,28.7845746],[77.2210395,28.7791603],[77.2328799,28.774953],[77.2381149,28.7591641],[77.2586711,28.7526338],[77.2558344,28.7385417],[77.2756656,28.7355624],[77.2908705,28.7227353],[77.2912591,28.7063661],[77.3311068,28.7131973],[77.3236879,28.6987055],[77.3329522,28.6816422],[77.3252446,28.6778565],[77.3168228,28.6377479],[77.3304796,28.6315684]]]}}]}