{"type": "FeatureCollection", "features": [{"type": "Feature", "properties": {"slug": "gimcheon", "members": 1, "country": "South Korea", "input_hash": "a9a3e7133aa4fa10"}, "geometry": {"type": "Polygon", "coordinates": [[[128.1585645, 36.2581684], [128.1218719, 36.2532717], [128.1094264, 36.2374199], [128.0909728, 36.2536178], [128.0790423, 36.2415043], [128.039504, 36.2512321], [128.0310282, 36.2375952], [128.0614037, 36.1992478], [128.0381307, 36.1944192], [128.0098195, 36.2093768], [127.980401, 36.1983647], [127.9757661, 36.1875589], [127.9970522, 36.1553403], [127.987482, 36.1476128], [127.986731, 36.1283601], [127.966711, 36.1185153], [127.9684094, 36.1073812], [127.9578061, 36.0951983], [127.9610462, 36.0690299], [127.9359407, 36.0510252], [127.9166717, 36.0551193], [127.903398, 36.0391424], [127.8850431, 36.0360001], [127.8767737, 36.0225118], [127.8754868, 35.996978], [127.893218, 35.9867845], [127.8896051, 35.9796609], [127.9113671, 35.9491815], [127.8822365, 35.928884], [127.8881568, 35.9148166], [127.8830676, 35.89866], [127.8932278, 35.8867673], [127.9202454, 35.8928553], [127.933152, 35.8642355], [127.9257448, 35.8551803], [127.9510498, 35.861248], [127.9743292, 35.850474], [127.9815932, 35.8590955], [128.0110648, 35.8296177], [128.0301707, 35.8358839], [128.0498688, 35.829482], [128.077796, 35.8394569], [128.0768537, 35.8615786], [128.0871963, 35.8726379], [128.0717897, 35.879384], [128.0568981, 35.9035818], [128.0487871, 35.9366332], [128.0568122, 35.9421926], [128.0888271, 35.9215863], [128.0891275, 35.9469177], [128.0965948, 35.9554292], [128.1121301, 35.965086], [128.1323862, 35.9593893], [128.150711, 35.966649], [128.1570625, 35.9863754], [128.1708812, 35.993841], [128.1690359, 36.0361557], [128.1945705, 36.0326506], [128.1943988, 36.0455598], [128.2237958, 36.0558994], [128.2891537, 36.0428898], [128.2993269, 36.0520482], [128.3008718, 36.0639135], [128.2852077, 36.0814652], [128.2914304, 36.0961002], [128.2749939, 36.1067106], [128.2948207, 36.1329531], [128.2837486, 36.1412019], [128.2948207, 36.1688533], [128.2706594, 36.1752623], [128.2698011, 36.1972222], [128.2348251, 36.2016896], [128.2355117, 36.2256155], [128.2264137, 36.2321237], [128.1964373, 36.2453288], [128.170774, 36.2469382], [128.1585645, 36.2581684]]]}}]}