{"type":"FeatureCollection","features":[{"type":"Feature","properties":{"slug":"giresun","member_count":16,"matched_count":16,"unmatched":[],"source":"Overture Maps division_area (CC-BY 4.0)"},"geometry":{"type":"MultiPolygon","coordinates":[[[[38.88216,40.1858243],[38.8869709,40.145699],[38.9055405,40.1472164],[38.9208125,40.133325],[38.9232054,40.1196734],[38.9480781,40.1179901],[38.9640426,40.1026951],[38.9521121,40.0860834],[38.9363275,40.0865753],[38.9538381,40.0589696],[38.921403,40.0457644],[38.8758057,40.0600173],[38.8281014,40.0555634],[38.8007926,40.069993],[38.7747859,40.0646725],[38.7634479,40.0709201],[38.7693547,40.0742182],[38.7642657,40.0810206],[38.7486408,40.0861823],[38.6577129,40.0832596],[38.6602019,40.1074218],[38.6546406,40.1081172],[38.6012363,40.1062402],[38.5614966,40.0946196],[38.556776,40.1135267],[38.5164355,40.1204514],[38.5382793,40.1545398],[38.4902384,40.154471],[38.4827634,40.1636449],[38.4639667,40.1665864],[38.4456561,40.1560873],[38.444271,40.1294763],[38.4177302,40.1242909],[38.3996932,40.1521892],[38.395509,40.1449512],[38.3757395,40.1473216],[38.3367698,40.169376],[38.3248231,40.1690304],[38.3242178,40.1885126],[38.3016443,40.1845128],[38.2859802,40.2057876],[38.2606601,40.1973965],[38.2514333,40.2030672],[38.2564544,40.2091962],[38.1931113,40.2179463],[38.1799792,40.2288251],[38.1747436,40.2336085],[38.1889915,40.2515599],[38.1824683,40.2723225],[38.1881332,40.2876448],[38.1642722,40.3107526],[38.1663322,40.3241685],[38.1487369,40.3423575],[38.1583499,40.3512539],[38.1495093,40.357533],[38.1548308,40.3672776],[38.1465854,40.3879415],[38.1689215,40.4218643],[38.1739692,40.4885281],[38.1976545,40.4961978],[38.1903647,40.5089704],[38.1595724,40.5248586],[38.1020984,40.5271248],[38.0973746,40.5725767],[38.0848892,40.5794796],[38.085075,40.5884776],[38.0355039,40.5985938],[38.0334826,40.6110874],[38.0221078,40.6178578],[38.0250259,40.6261562],[38.0066048,40.6407588],[37.9910637,40.6680399],[37.9643713,40.6831797],[37.9741944,40.7232033],[37.9596658,40.7471289],[37.9805311,40.7472861],[37.9778518,40.7538994],[37.9887219,40.7540025],[37.9883896,40.7628922],[38.0453607,40.7840153],[38.0178323,40.7928379],[38.0066856,40.8160128],[38.0124475,40.8463107],[38.0201124,40.8467506],[38.0310125,40.8678556],[38.0197615,40.8819396],[38.0320072,40.9025176],[38.0522847,40.8928832],[38.078742,40.8989982],[38.0806007,40.9149318],[38.0992554,40.9273924],[38.1167518,40.9580096],[38.1899147,40.9389983],[38.2830075,40.9456219],[38.3581519,40.9091691],[38.3898991,40.9249629],[38.4017689,40.9155],[38.4294486,40.9124946],[38.4316937,40.9150401],[38.4564465,40.9189131],[38.5298846,40.9174605],[38.587282,40.9445847],[38.6250664,40.9734835],[38.64377,40.9735829],[38.6749212,40.9491378],[38.7143426,40.9504998],[38.7922748,41.0010853],[38.8172148,41.0114044],[38.8255308,41.0043114],[38.8714478,41.0111668],[38.9208999,41.0403204],[39.0287415,41.0332402],[39.1169958,41.0515752],[39.1628226,41.0793437],[39.1806227,41.0736897],[39.174401,41.049947],[39.1543571,41.0386258],[39.1544877,41.0074188],[39.1398024,40.9891472],[39.1512132,40.9595741],[39.1348456,40.9088425],[39.1519552,40.8934098],[39.1360229,40.8641805],[39.1496084,40.8516052],[39.1233252,40.8270892],[39.1235219,40.8177126],[39.142227,40.8019856],[39.1373719,40.7763645],[39.1190527,40.7854808],[39.1073154,40.8006265],[39.1065249,40.8192412],[39.0948485,40.8209546],[39.0811156,40.8373207],[39.0382018,40.8096886],[39.0207999,40.8087466],[39.0110777,40.7620811],[38.9997922,40.7677461],[38.9673041,40.7637713],[38.9658214,40.7389862],[38.9290236,40.7306086],[38.9511679,40.7073198],[38.9355467,40.7012035],[38.9329718,40.6911819],[38.9707373,40.6635824],[38.9657591,40.6327146],[38.9774321,40.6245069],[38.9697073,40.6159072],[38.969879,40.5947942],[38.9645575,40.5895801],[38.9532278,40.6009203],[38.9199255,40.6106947],[38.8332956,40.6169102],[38.7978057,40.5939193],[38.7724488,40.5495034],[38.750523,40.529776],[38.7549589,40.5088399],[38.7669752,40.4997032],[38.8205336,40.4974841],[38.8852499,40.4809038],[38.8837951,40.4717459],[38.9163243,40.472598],[38.9814024,40.4559506],[39.002838,40.4447263],[39.0069436,40.4125523],[39.0273141,40.3860603],[39.0696849,40.3784936],[39.0747478,40.361089],[39.0313338,40.3346376],[39.0133382,40.3350078],[38.9489006,40.2647941],[38.9077039,40.2468296],[38.9083992,40.2227251],[38.8917731,40.2128341],[38.8916451,40.203727],[38.8775252,40.2018217],[38.8730954,40.1911854],[38.88216,40.1858243]]],[[[38.4380754,40.9289727],[38.4353338,40.9294986],[38.4373637,40.9306811],[38.4380754,40.9289727]]],[[[38.7736273,40.9948037],[38.773815,40.9947005],[38.7736192,40.9947774],[38.7736273,40.9948037]]],[[[38.7744909,40.9949596],[38.7743971,40.9945892],[38.7738633,40.9947896],[38.7744909,40.9949596]]],[[[38.7759635,40.9970569],[38.7756014,40.9969517],[38.7755182,40.9972351],[38.7759635,40.9970569]]],[[[38.7903053,41.0020165],[38.790257,41.0020934],[38.7903857,41.0020529],[38.7903053,41.0020165]]],[[[38.7912923,41.0022331],[38.7910187,41.0019173],[38.7910026,41.0021764],[38.7912923,41.0022331]]]]}}]}