{"type": "FeatureCollection", "features": [{"type": "Feature", "properties": {"slug": "glazov", "members": 1, "country": "Russia", "input_hash": "1f2953643d2dfebd"}, "geometry": {"type": "Polygon", "coordinates": [[[52.5719028, 58.179556], [52.5461775, 58.1754847], [52.5669568, 58.1596862], [52.5552235, 58.1347921], [52.5830276, 58.1325305], [52.5787204, 58.125059], [52.5891763, 58.126128], [52.6131466, 58.1084917], [52.6448614, 58.1198043], [52.6722674, 58.1149086], [52.6623589, 58.1071815], [52.6694567, 58.1035564], [52.7052525, 58.1071036], [52.7129375, 58.1187295], [52.7379836, 58.1165824], [52.7357844, 58.1239566], [52.7101555, 58.1294721], [52.7229927, 58.1395351], [52.7178051, 58.1417058], [52.7559155, 58.1502856], [52.7106048, 58.154533], [52.7125825, 58.1691073], [52.7040569, 58.1759455], [52.6646377, 58.1788855], [52.6472116, 58.1920446], [52.5883035, 58.184676], [52.5991351, 58.1776622], [52.5713063, 58.1860641], [52.5719028, 58.179556]]]}}]}