{"type":"FeatureCollection","features":[{"type":"Feature","properties":{"slug":"glenwood-springs","member_count":23,"matched_count":23,"unmatched":[],"source":"Overture Maps division_area (CC-BY 4.0)"},"geometry":{"type":"MultiPolygon","coordinates":[[[[-106.710348,39.047603],[-106.749326,39.042519],[-106.74512,39.02703],[-106.782499,38.999298],[-106.785096,38.985869],[-106.827079,38.977691],[-106.846759,38.986882],[-106.861058,39.00956],[-106.876573,39.007148],[-106.878061,38.994393],[-106.895123,38.989819],[-106.96448,39.017189],[-106.967414,39.030934],[-106.996191,39.0340507],[-107.0013232,39.0420663],[-106.989401,39.0530702],[-106.988694,39.0708002],[-107.000181,39.0713895],[-107.06604,39.118782],[-107.282312,39.118784],[-107.296376,39.15483],[-107.352969,39.172959],[-107.377421,39.199793],[-107.379408,39.230812],[-107.37149,39.239132],[-107.394558,39.256694],[-107.378376,39.274804],[-107.394073,39.279388],[-107.396955,39.294465],[-107.412606,39.291877],[-107.437479,39.299564],[-107.4388,39.309019],[-107.451667,39.304528],[-107.465214,39.314337],[-107.462527,39.327224],[-107.430514,39.348222],[-107.430949,39.366178],[-109.0508343,39.3665569],[-109.0512853,39.6691716],[-108.8956262,39.6604209],[-108.8957978,39.6503104],[-108.5547067,39.6502444],[-108.5552217,39.6937151],[-107.937614,39.694206],[-107.937584,39.82505],[-107.430023,39.828957],[-107.430435,39.918007],[-107.31813,39.915653],[-107.316124,40.090916],[-107.037453,40.091473],[-107.031273,39.919018],[-106.434265,39.924889],[-106.431427,39.870716],[-106.385933,39.767952],[-106.363113,39.751244],[-106.342201,39.756744],[-106.322334,39.729141],[-106.299561,39.719227],[-106.284531,39.699314],[-106.263016,39.699814],[-106.26236,39.683949],[-106.239029,39.677647],[-106.237183,39.662239],[-106.185173,39.650085],[-106.176178,39.635139],[-106.180275,39.602947],[-106.20475,39.601097],[-106.213654,39.584763],[-106.208221,39.563011],[-106.198059,39.556229],[-106.21051,39.529011],[-106.238007,39.548454],[-106.258224,39.531643],[-106.247421,39.511265],[-106.250847,39.468197],[-106.22393,39.43425],[-106.22744,39.414753],[-106.210175,39.413876],[-106.210728,39.382928],[-106.225451,39.380981],[-106.251066,39.357705],[-106.259292,39.36204],[-106.283832,39.349491],[-106.312005,39.362278],[-106.357948,39.355137],[-106.380615,39.376324],[-106.403411,39.380223],[-106.433492,39.354087],[-106.426983,39.323342],[-106.432455,39.316346],[-106.468317,39.307313],[-106.476651,39.314758],[-106.500256,39.301229],[-106.504116,39.284897],[-106.483022,39.272581],[-106.481057,39.259676],[-106.499077,39.235415],[-106.489648,39.228012],[-106.49363,39.198348],[-106.511318,39.163407],[-106.561746,39.155011],[-106.564897,39.132668],[-106.558155,39.120811],[-106.56361,39.106429],[-106.586345,39.095719],[-106.576992,39.079474],[-106.57774,39.052608],[-106.597346,39.044628],[-106.599813,39.034746],[-106.591259,39.025942],[-106.5992631,38.9979933],[-106.61264,38.995738],[-106.64841,39.022175],[-106.6555735,39.0442979],[-106.684869,39.04518],[-106.70291,39.055938],[-106.710348,39.047603]]],[[[-106.5109754,38.6092945],[-106.5259165,38.6057696],[-106.507287,38.6114615],[-106.5109754,38.6092945]]]]}}]}