{"type": "FeatureCollection", "features": [{"type": "Feature", "properties": {"slug": "goes", "members": 1, "country": "Netherlands", "input_hash": "04e00977f6778300"}, "geometry": {"type": "Polygon", "coordinates": [[[3.9651695, 51.5063504], [3.9635061, 51.5206132], [3.9714493, 51.5284485], [3.9100614, 51.5499767], [3.8595104, 51.5411729], [3.8342365, 51.5530089], [3.7935817, 51.5424795], [3.7628571, 51.5534171], [3.7136072, 51.530367], [3.7452451, 51.5124719], [3.7055364, 51.5024559], [3.773744, 51.4974741], [3.810463, 51.4831253], [3.9128777, 51.4791216], [3.9257257, 51.4918246], [3.9651695, 51.5063504]]]}}]}