{"type":"FeatureCollection","features":[{"type":"Feature","properties":{"slug":"goiania","member_count":20,"matched_count":20,"unmatched":[],"source":"Overture Maps division_area (CC-BY 4.0)"},"geometry":{"type":"Polygon","coordinates":[[[-49.491,-17.067],[-49.469,-16.992],[-49.4867135,-16.9787336],[-49.5067549,-16.9992549],[-49.5222259,-17.0035436],[-49.5216251,-17.0202766],[-49.5395637,-17.0324126],[-49.5453572,-17.046753],[-49.5673084,-17.0344026],[-49.605764,-17.0659744],[-49.634,-17.01],[-49.595,-16.952],[-49.6727788,-16.9576102],[-49.6918117,-16.9526432],[-49.6991717,-16.9409229],[-49.7274958,-16.9569945],[-49.7321307,-16.9515759],[-49.7435405,-16.9559315],[-49.7487966,-16.9452418],[-49.7374358,-16.9458535],[-49.7252585,-16.932973],[-49.7366311,-16.911767],[-49.7144008,-16.8820791],[-49.6645546,-16.8761142],[-49.6084643,-16.8402591],[-49.5970488,-16.8157563],[-49.598,-16.802],[-49.637,-16.8],[-49.637,-16.789],[-49.616,-16.779],[-49.641,-16.77],[-49.638,-16.761],[-49.653,-16.76],[-49.655,-16.738],[-49.675,-16.724],[-49.673,-16.712],[-49.6916986,-16.6829796],[-49.6884585,-16.6697264],[-49.6678323,-16.6728047],[-49.6562827,-16.6626448],[-49.6541048,-16.630245],[-49.6334135,-16.59307],[-49.6031214,-16.5690291],[-49.595,-16.544],[-49.6192217,-16.554442],[-49.6381541,-16.5424316],[-49.6487965,-16.5496334],[-49.6588816,-16.5375249],[-49.6808012,-16.5359517],[-49.6957809,-16.5211786],[-49.6887591,-16.509113],[-49.6955127,-16.5021073],[-49.6970496,-16.4725304],[-49.6892347,-16.4569092],[-49.6960689,-16.4525979],[-49.6821858,-16.4239086],[-49.6693826,-16.4304819],[-49.6550381,-16.4252182],[-49.6657133,-16.4066112],[-49.6579886,-16.3924386],[-49.653,-16.331],[-49.6354151,-16.3141261],[-49.6291924,-16.3164738],[-49.6213818,-16.2904831],[-49.653,-16.222],[-49.619279,-16.2323521],[-49.5935727,-16.2261301],[-49.5819184,-16.2103348],[-49.536,-16.183],[-49.459,-16.213],[-49.454,-16.224],[-49.4029557,-16.1944102],[-49.3972808,-16.2040444],[-49.3825927,-16.1978811],[-49.3707724,-16.2044786],[-49.3774311,-16.306167],[-49.3521524,-16.305003],[-49.3333628,-16.287056],[-49.345,-16.27],[-49.3304908,-16.2723989],[-49.3157387,-16.2825741],[-49.31826,-16.3116343],[-49.3068257,-16.3110682],[-49.294,-16.322],[-49.23,-16.321],[-49.212,-16.34],[-49.183,-16.347],[-49.176,-16.365],[-49.1123866,-16.4274953],[-49.0966924,-16.4158824],[-49.1014404,-16.3867084],[-49.0925789,-16.3809207],[-49.0791035,-16.3883935],[-49.0688253,-16.3770092],[-49.049,-16.377],[-49.041,-16.398],[-49.023,-16.412],[-49.011,-16.398],[-48.9810585,-16.3997195],[-49.0018354,-16.4966427],[-48.9941819,-16.5294689],[-49.008658,-16.5557874],[-48.9928007,-16.5795421],[-48.9945817,-16.5881589],[-48.9689827,-16.5646726],[-48.948,-16.603],[-48.92,-16.627],[-48.959,-16.633],[-48.982,-16.649],[-49.0045494,-16.6360897],[-49.009,-16.663],[-48.971,-16.692],[-48.92,-16.692],[-48.876,-16.639],[-48.858,-16.63],[-48.849,-16.635],[-48.8538409,-16.6584359],[-48.872,-16.657],[-48.9169785,-16.7245035],[-48.9050389,-16.7380165],[-48.892,-16.734],[-48.8791609,-16.7415097],[-48.864,-16.757],[-48.868,-16.767],[-48.856,-16.751],[-48.834,-16.763],[-48.825,-16.778],[-48.836,-16.786],[-48.83,-16.794],[-48.807,-16.791],[-48.789,-16.81],[-48.791,-16.862],[-48.799,-16.87],[-48.805,-16.912],[-48.777,-16.92],[-48.769,-16.937],[-48.78,-16.979],[-48.766,-16.992],[-48.77,-17.012],[-48.715,-17.039],[-48.705,-17.056],[-48.707,-17.08],[-48.698,-17.094],[-48.683,-17.097],[-48.6805311,-17.1205965],[-48.640111,-17.1299626],[-48.6480396,-17.150211],[-48.6379194,-17.165357],[-48.6470992,-17.185586],[-48.6746023,-17.1640278],[-48.7233411,-17.1585392],[-48.7350072,-17.1691045],[-48.7645274,-17.1699799],[-48.7944397,-17.1953649],[-48.8413516,-17.0862259],[-48.844574,-17.0605584],[-48.8611216,-17.0485193],[-48.8819879,-17.0473443],[-48.9092105,-17.0643798],[-48.9235498,-17.0590017],[-48.9406354,-17.0783989],[-48.9604927,-17.074528],[-48.9625418,-17.0860899],[-48.9823533,-17.0923876],[-49.0139022,-17.0675767],[-49.0354034,-17.0666916],[-49.0425667,-17.0530997],[-49.0838907,-17.0604471],[-49.0900042,-17.0784559],[-49.092357,-17.0722388],[-49.1082786,-17.0779616],[-49.1080544,-17.0944342],[-49.1193063,-17.0960663],[-49.1196533,-17.1182814],[-49.1079713,-17.1244795],[-49.1100927,-17.1367039],[-49.1756201,-17.1197514],[-49.1923165,-17.1368036],[-49.2157695,-17.1017114],[-49.215,-17.092],[-49.231,-17.082],[-49.387,-17.156],[-49.424,-17.158],[-49.447,-17.142],[-49.462,-17.165],[-49.489,-17.159],[-49.479,-17.145],[-49.48,-17.132],[-49.493,-17.12],[-49.48,-17.114],[-49.474,-17.099],[-49.491,-17.067]]]}}]}