{"type":"FeatureCollection","features":[{"type":"Feature","properties":{"slug":"gorizia","member_count":25,"matched_count":25,"unmatched":[],"source":"Overture Maps division_area (CC-BY 4.0)"},"geometry":{"type":"MultiPolygon","coordinates":[[[[13.4171485,45.6672488],[13.4279618,45.6646413],[13.4308384,45.6645147],[13.4232236,45.6623421],[13.4171485,45.6672488]]],[[[13.4164655,45.6760657],[13.4177148,45.6742118],[13.4151183,45.6757447],[13.4164655,45.6760657]]],[[[13.4330384,45.6763042],[13.4341363,45.6750119],[13.433616,45.6749952],[13.4330384,45.6763042]]],[[[13.5523589,45.7247873],[13.4696164,45.7038734],[13.4330459,45.6767084],[13.4058323,45.6771511],[13.3899207,45.6739839],[13.3661999,45.6831981],[13.339691,45.682065],[13.2901375,45.7045958],[13.2536512,45.7113313],[13.2532937,45.711226],[13.2543817,45.7052077],[13.2541502,45.7050899],[13.2377648,45.7447888],[13.2401518,45.7571536],[13.2744158,45.7471777],[13.3147295,45.7477228],[13.3261986,45.7376484],[13.3720721,45.7373884],[13.3660385,45.7325285],[13.3900589,45.7235969],[13.4066998,45.7258854],[13.404394,45.7387647],[13.4127089,45.7421305],[13.4249914,45.7414783],[13.4619276,45.7499424],[13.4492428,45.74806],[13.4344432,45.760563],[13.4197864,45.7570816],[13.4426787,45.7886283],[13.425626,45.813449],[13.4292245,45.8391312],[13.4183978,45.8403154],[13.4060977,45.8575106],[13.4261055,45.8679677],[13.3876384,45.9130027],[13.422684,45.9321725],[13.4194715,45.9415946],[13.4308335,45.9481685],[13.4250106,45.9537673],[13.4429949,45.9575643],[13.4368959,45.9732207],[13.4565407,45.988187],[13.4650471,45.9846843],[13.4682968,45.9979599],[13.4599865,46.005087],[13.4711429,46.0118408],[13.4861849,46.0483342],[13.4969378,46.0513351],[13.508489,46.0459483],[13.5081573,46.0337523],[13.4969347,46.0164651],[13.4761639,46.0060818],[13.5016314,45.9804561],[13.5282962,45.9669282],[13.5685124,45.9687174],[13.5907621,45.9900856],[13.6184237,45.9832152],[13.6335566,45.9891267],[13.6430755,45.982677],[13.6328562,45.9492726],[13.6379998,45.9351654],[13.6089238,45.8992123],[13.5930493,45.8914144],[13.5864952,45.8819167],[13.5932562,45.8746776],[13.5751656,45.8534994],[13.5745954,45.8423426],[13.5971685,45.8196166],[13.5951242,45.8070653],[13.5760743,45.795202],[13.5801558,45.7751231],[13.5594777,45.7768328],[13.5635093,45.7834128],[13.557077,45.7824107],[13.5413228,45.8005758],[13.5346606,45.8042209],[13.5330904,45.8039653],[13.5481157,45.7902408],[13.5309631,45.7854923],[13.5384195,45.7819698],[13.5462153,45.7870973],[13.5521975,45.777876],[13.546068,45.7851395],[13.5258346,45.7712501],[13.5251239,45.7481815],[13.5164197,45.7443903],[13.5504468,45.7300522],[13.5569776,45.7351829],[13.5523589,45.7247873]]],[[[13.5379684,45.7824341],[13.5386041,45.7827131],[13.5381341,45.7823337],[13.5379684,45.7824341]]]]}}]}