{"type": "FeatureCollection", "features": [{"type": "Feature", "properties": {"slug": "greenville-ms", "members": 1, "country": "United States"}, "geometry": {"type": "Polygon", "coordinates": [[[-91.058152, 33.4286692], [-91.141793, 33.3500402], [-91.143667, 33.3283621], [-91.141615, 33.2995031], [-91.125539, 33.2802191], [-91.128078, 33.2684661], [-91.1001, 33.2380891], [-91.07853, 33.2832701], [-91.052369, 33.2853791], [-91.043624, 33.2746001], [-91.065629, 33.2329461], [-91.0916037, 33.2207075], [-91.0843016, 33.1805866], [-91.0884404, 33.1424024], [-91.1033836, 33.1320023], [-91.1279762, 33.1288948], [-91.1503673, 33.130804], [-91.1638641, 33.1423485], [-91.183662, 33.1416551], [-91.2017371, 33.1243303], [-91.1990333, 33.106057], [-91.1499864, 33.0819592], [-91.120348, 33.0567577], [-91.1279333, 33.0345533], [-91.1610317, 33.0207008], [-91.1662498, 33.011358], [-90.9142, 33.0078704], [-90.91362, 33.096832], [-90.701855, 33.096503], [-90.6793662, 33.1028999], [-90.6795817, 33.1150441], [-90.7005603, 33.1246836], [-90.6878295, 33.1493132], [-90.6793273, 33.2012953], [-90.7327222, 33.2311919], [-90.7320037, 33.2635774], [-90.7161395, 33.270403], [-90.765778, 33.269489], [-90.761696, 33.529285], [-91.2141143, 33.5286735], [-91.187367, 33.5105162], [-91.1856374, 33.4963636], [-91.208535, 33.4685702], [-91.231661, 33.4570642], [-91.235181, 33.4389362], [-91.206807, 33.4338102], [-91.177293, 33.4436022], [-91.16936, 33.4525932], [-91.175635, 33.4717252], [-91.1708921, 33.4924604], [-91.136656, 33.4812872], [-91.117975, 33.4537712], [-91.131885, 33.4300272], [-91.20258, 33.4167962], [-91.20922, 33.4062542], [-91.204758, 33.3987872], [-91.171968, 33.3809942], [-91.1426627, 33.3821567], [-91.1020617, 33.4104881], [-91.094279, 33.4426352], [-91.077814, 33.4556122], [-91.057621, 33.4453052], [-91.058152, 33.4286692]]]}}]}