{"type": "FeatureCollection", "features": [{"type": "Feature", "properties": {"slug": "greenwood", "members": 2, "country": "United States", "input_hash": "4091cf07f502f45c"}, "geometry": {"type": "Polygon", "coordinates": [[[-90.137459, 33.677265], [-89.787117, 33.677151], [-89.783974, 33.416981], [-89.714684, 33.41774], [-89.714188, 33.403183], [-89.6462199, 33.4024281], [-89.6451588, 33.2856629], [-89.701595, 33.2853901], [-89.7094638, 33.2633121], [-89.7213832, 33.2599223], [-89.7392828, 33.2378896], [-89.748204, 33.2141311], [-90.3218514, 33.3750703], [-90.3164607, 33.3623091], [-90.295803, 33.3623797], [-90.2813272, 33.3467007], [-90.2919869, 33.3238183], [-90.286232, 33.3145617], [-90.3050511, 33.3097438], [-90.3102388, 33.3207273], [-90.3316069, 33.3030026], [-90.3436115, 33.309593], [-90.3576227, 33.2968059], [-90.3640307, 33.2758859], [-90.376766, 33.2816797], [-90.3672569, 33.2616164], [-90.3754715, 33.2469448], [-90.3666495, 33.2396248], [-90.4093897, 33.2457895], [-90.4132929, 33.235063], [-90.453995, 33.267963], [-90.452728, 33.811962], [-90.1828311, 33.8094455], [-90.1709227, 33.7867674], [-90.1848779, 33.7657848], [-90.2255648, 33.7590817], [-90.2354264, 33.7657848], [-90.2967049, 33.7503669], [-90.3102259, 33.7350493], [-90.3115904, 33.7162982], [-90.2987206, 33.6974915], [-90.2810442, 33.6941115], [-90.2617551, 33.7033481], [-90.2518314, 33.7319287], [-90.2417837, 33.737035], [-90.2205099, 33.7221277], [-90.137543, 33.721828], [-90.137459, 33.677265]], [[-90.1278221922029, 33.67461630111895], [-90.12584932336063, 33.67603661762383], [-90.1285637, 33.6747579], [-90.1278221922029, 33.67461630111895]], [[-90.1248867, 33.6749355], [-90.12741375356839, 33.67453830537318], [-90.121999, 33.6735043], [-90.1248867, 33.6749355]], [[-90.1033817, 33.6618871], [-90.1176896, 33.6620374], [-90.10349798376987, 33.66144323029142], [-90.1033817, 33.6618871]]]}}]}