{"type": "FeatureCollection", "features": [{"type": "Feature", "properties": {"slug": "greeley", "members": 1, "country": "United States", "input_hash": "21725ceb6ef9d34b"}, "geometry": {"type": "Polygon", "coordinates": [[[-103.5743989, 40.7019618], [-103.573475, 41.0017299], [-104.9433753, 40.9982398], [-104.9455701, 40.3491044], [-105.05672, 40.349281], [-105.0555134, 40.0002641], [-105.0079727, 40.0003247], [-105.0080855, 40.007616], [-104.9896648, 40.0076281], [-104.9895917, 40.014865], [-104.9990856, 40.0148962], [-104.9990724, 40.0257693], [-104.9730722, 40.0295075], [-104.9800862, 40.0303242], [-104.9792574, 40.0437233], [-104.9610751, 40.0441601], [-104.961412, 40.0003388], [-104.1505575, 40.000874], [-104.1479509, 40.5243879], [-103.5818924, 40.5233596], [-103.5803634, 40.7017991], [-103.5743989, 40.7019618]]]}}]}