{"type":"FeatureCollection","features":[{"type":"Feature","properties":{"slug":"grosseto","member_count":29,"matched_count":29,"unmatched":[],"source":"Overture Maps division_area (CC-BY 4.0)"},"geometry":{"type":"MultiPolygon","coordinates":[[[[10.8827594,42.3498546],[10.8827672,42.3491625],[10.8822773,42.3497133],[10.8827594,42.3498546]]],[[[10.8819535,42.3499251],[10.8820109,42.349922],[10.8820321,42.3498357],[10.8819535,42.3499251]]],[[[10.8822211,42.3499722],[10.8822572,42.3499189],[10.8821637,42.3499047],[10.8822211,42.3499722]]],[[[10.8822343,42.3501456],[10.8823375,42.350212],[10.8823228,42.350109],[10.8822343,42.3501456]]],[[[10.8807703,42.3686488],[10.8812475,42.3690838],[10.8806809,42.3682943],[10.8807703,42.3686488]]],[[[10.8674198,42.3695494],[10.8672845,42.3694128],[10.8672675,42.369485],[10.8674198,42.3695494]]],[[[10.8813249,42.5756754],[10.8831449,42.5770418],[10.8841668,42.5756395],[10.8813249,42.5756754]]],[[[10.7137874,42.7973214],[10.7114629,42.7972723],[10.7115805,42.7982928],[10.7137874,42.7973214]]],[[[10.9057119,42.7550684],[10.8238522,42.7730412],[10.7906488,42.7727082],[10.7294587,42.8016212],[10.7655231,42.8170402],[10.7758608,42.8437669],[10.7688578,42.8690633],[10.7859692,42.8901408],[10.7653689,42.9150215],[10.7072636,42.9468154],[10.7503462,42.9851912],[10.7378642,43.0014368],[10.7413634,43.0145575],[10.780196,43.0041808],[10.7962196,43.0176626],[10.776849,43.0234128],[10.772981,43.0442286],[10.783806,43.0576663],[10.7804226,43.0633829],[10.7532048,43.0753202],[10.7270204,43.0669164],[10.7130881,43.0729069],[10.7274657,43.0827669],[10.7176545,43.1084854],[10.7491481,43.1244032],[10.7554034,43.1539863],[10.7640268,43.1524158],[10.7677744,43.141344],[10.8005233,43.1626135],[10.8153501,43.1507184],[10.8448392,43.1649508],[10.8661393,43.1570956],[10.9143779,43.1649696],[10.9424257,43.1603547],[10.9749644,43.1757712],[11.0124416,43.177315],[11.0218013,43.1891437],[11.0454368,43.1805474],[11.0591962,43.1843315],[11.0613911,43.1545504],[11.0502412,43.1445985],[11.0605603,43.1415822],[11.0578688,43.1312331],[11.0713445,43.1229763],[11.0612726,43.1130278],[11.0826301,43.0830286],[11.1233863,43.091453],[11.1668972,43.0783982],[11.1749138,43.0899501],[11.2181621,43.0865202],[11.2307942,43.0920871],[11.2419714,43.0841378],[11.2977236,43.0770194],[11.3089856,43.088968],[11.3219509,43.0841196],[11.3287162,43.0916391],[11.3534977,43.0795784],[11.3619888,43.0829725],[11.3680996,43.056921],[11.3592278,43.0545666],[11.3635752,43.0465773],[11.3537776,43.0402665],[11.3642687,43.0324559],[11.3517952,43.0271499],[11.3631791,43.0222346],[11.3621165,43.0066664],[11.3723148,43.0083283],[11.3707498,42.9982668],[11.3807048,42.996111],[11.3656857,42.9947758],[11.3774831,42.9842331],[11.3529147,42.9751104],[11.3595964,42.9655306],[11.4570154,42.957349],[11.5176551,42.9812159],[11.5286458,42.9749878],[11.5271166,42.9650868],[11.5694243,42.9708954],[11.5960321,42.9503906],[11.610546,42.9509039],[11.6240423,42.928114],[11.6213984,42.9136638],[11.6273149,42.9143671],[11.6197002,42.8812182],[11.6370557,42.8532851],[11.6250029,42.7972814],[11.6401276,42.7994799],[11.6613377,42.7882101],[11.6987614,42.7992424],[11.7314499,42.7933864],[11.782692,42.7669387],[11.7795649,42.757973],[11.820158,42.7451887],[11.8021255,42.7069266],[11.7761802,42.7093819],[11.7868559,42.689856],[11.7848585,42.6706761],[11.8094518,42.6585077],[11.8047112,42.6435784],[11.7784912,42.6333072],[11.7509662,42.6392046],[11.7519901,42.6233615],[11.7363894,42.6063526],[11.7104971,42.610609],[11.6781102,42.5942456],[11.6859371,42.584497],[11.681533,42.5811976],[11.6567537,42.5771597],[11.6431822,42.5662722],[11.6261471,42.5695113],[11.6142743,42.5570052],[11.6003421,42.5703077],[11.5789362,42.5675339],[11.5864643,42.5508285],[11.5808462,42.5475567],[11.588518,42.5422575],[11.5688252,42.5338266],[11.5601102,42.5159465],[11.5841884,42.506905],[11.5876572,42.4951787],[11.6162595,42.4886217],[11.6177074,42.4360395],[11.5442371,42.4421557],[11.5165751,42.433556],[11.4888884,42.4393704],[11.47628,42.4130591],[11.4497752,42.3940614],[11.4550543,42.3883797],[11.4490125,42.3777261],[11.3785486,42.3978768],[11.2904004,42.4045397],[11.2729474,42.4186187],[11.2419368,42.4182684],[11.2094881,42.4081564],[11.205504,42.401381],[11.2130957,42.4036232],[11.2120828,42.3973124],[11.2050322,42.3935251],[11.2109674,42.3939657],[11.213139,42.3880435],[11.1924525,42.3800572],[11.1900964,42.3636422],[11.1657078,42.3680032],[11.1536534,42.3610306],[11.1512731,42.3706255],[11.1271435,42.3860386],[11.0960708,42.3929193],[11.0877198,42.4055983],[11.087064,42.4298798],[11.094741,42.4298027],[11.1065088,42.4478768],[11.1233874,42.434498],[11.1578085,42.4331249],[11.1697362,42.4410371],[11.190958,42.4887078],[11.183728,42.5308263],[11.1567872,42.5627667],[11.1385719,42.5603896],[11.1339366,42.5511438],[11.1224579,42.5569918],[11.102062,42.6017949],[11.0823014,42.6134573],[11.085326,42.6268199],[11.0140729,42.656963],[10.9808692,42.7118322],[10.984287,42.7123732],[10.9855149,42.7152246],[10.9057119,42.7550684]]],[[[7.9930124,44.6335606],[7.9929037,44.6321052],[7.9923434,44.6322164],[7.9930124,44.6335606]]],[[[11.095496,42.2548118],[11.1097325,42.2629977],[11.1175109,42.252955],[11.1037452,42.2539169],[11.1022397,42.2461106],[11.1118823,42.2434197],[11.109285,42.237615],[11.0975413,42.2424773],[11.095496,42.2548118]]],[[[10.8814504,42.3672941],[10.8800945,42.3885077],[10.8858919,42.3897861],[10.9203102,42.368355],[10.9270519,42.3563637],[10.922314,42.3441651],[10.9318306,42.3363033],[10.9202144,42.3166058],[10.8824891,42.352674],[10.8661383,42.3534401],[10.8673226,42.3691992],[10.8773118,42.3652229],[10.8814504,42.3672941]]],[[[10.9302296,42.3556967],[10.9300524,42.3556345],[10.9300254,42.3557033],[10.9302296,42.3556967]]],[[[10.9272097,42.3558994],[10.9276582,42.3561814],[10.9277946,42.3556673],[10.9272097,42.3558994]]],[[[10.9294572,42.3560684],[10.9286625,42.3558689],[10.9284885,42.356163],[10.9294572,42.3560684]]],[[[10.9286472,42.3564162],[10.9288605,42.3565247],[10.9291106,42.3564806],[10.9286472,42.3564162]]],[[[11.082061,42.4190854],[11.0816806,42.4181271],[11.080202,42.4182677],[11.082061,42.4190854]]],[[[10.90077,42.5561762],[10.9004029,42.5564228],[10.9007052,42.5564944],[10.90077,42.5561762]]],[[[10.8944621,42.5645906],[10.8955925,42.5631367],[10.8954575,42.5629876],[10.8944621,42.5645906]]],[[[11.1295401,42.3776234],[11.1312092,42.3783128],[11.1306,42.3766401],[11.1295401,42.3776234]]],[[[11.2139446,42.3794279],[11.2093545,42.3810203],[11.2092268,42.3826618],[11.2139446,42.3794279]]]]}}]}