{"type": "FeatureCollection", "features": [{"type": "Feature", "properties": {"slug": "grozny", "members": 1, "country": "Russia", "input_hash": "0dd51a5eea606814"}, "geometry": {"type": "Polygon", "coordinates": [[[45.6065997, 43.2389285], [45.6077005, 43.2153624], [45.7019216, 43.1993581], [45.7430436, 43.1783006], [45.7487646, 43.2351385], [45.7658546, 43.2351797], [45.7749225, 43.2512682], [45.7633945, 43.2646638], [45.7705924, 43.2829626], [45.8083899, 43.2914781], [45.8154297, 43.3022617], [45.79954, 43.3094372], [45.798936, 43.3420034], [45.761812, 43.3419444], [45.7628242, 43.3533825], [45.7553091, 43.3529491], [45.7669921, 43.3626995], [45.7450264, 43.3611929], [45.7451054, 43.3954349], [45.7319589, 43.4270068], [45.6393945, 43.4391649], [45.5764479, 43.4303003], [45.5769186, 43.4218072], [45.5591706, 43.4193666], [45.472718, 43.433072], [45.455906, 43.4277854], [45.4586649, 43.3987955], [45.4729728, 43.3970521], [45.4705317, 43.3905226], [45.4373608, 43.3905243], [45.4324039, 43.3832836], [45.4415076, 43.3747821], [45.4853175, 43.3698594], [45.504525, 43.354887], [45.5176985, 43.3594648], [45.5638257, 43.3465481], [45.57914, 43.3181569], [45.606125, 43.3155082], [45.5873407, 43.2932621], [45.6028298, 43.2721414], [45.5756567, 43.2517621], [45.5887866, 43.23818], [45.6065997, 43.2389285]]]}}]}