{"type":"FeatureCollection","features":[{"type":"Feature","properties":{"slug":"grudzidz","member_count":7,"matched_count":7,"unmatched":[],"source":"Overture Maps division_area (CC-BY 4.0)"},"geometry":{"type":"Polygon","coordinates":[[[19.0616503,53.3856138],[19.0387728,53.350803],[19.0076617,53.3535751],[19.0043334,53.3650817],[18.9847338,53.3633227],[18.9753092,53.3495122],[18.9366106,53.3398527],[18.9328224,53.3467233],[18.891768,53.3422915],[18.8847966,53.332036],[18.8692607,53.3403654],[18.8732737,53.3435293],[18.8599319,53.3580486],[18.8105852,53.3875037],[18.7489802,53.3784856],[18.7498386,53.3684411],[18.7370053,53.3622048],[18.707438,53.3672131],[18.715596,53.3790944],[18.6802745,53.3952463],[18.6402035,53.3929907],[18.628055,53.4029147],[18.6070718,53.398823],[18.5966911,53.4114049],[18.607243,53.4249182],[18.6386914,53.4260486],[18.6328022,53.4345958],[18.6621808,53.4338676],[18.7097283,53.4559194],[18.705264,53.4397804],[18.6989273,53.4381779],[18.6930916,53.4339063],[18.6875719,53.43241],[18.6862883,53.4313114],[18.6956646,53.4348348],[18.7388735,53.4207664],[18.7611374,53.4257177],[18.762413,53.4360485],[18.8067277,53.4316375],[18.813482,53.4460516],[18.7792428,53.4581666],[18.7824688,53.4631668],[18.8131598,53.4780956],[18.8132536,53.486559],[18.8709088,53.500644],[18.8553596,53.5031809],[18.8551816,53.512811],[18.8297679,53.5241487],[18.8098773,53.5074665],[18.7658321,53.5075515],[18.7697652,53.5206222],[18.7563388,53.5238821],[18.7648292,53.5513489],[18.7635737,53.6109084],[18.8901397,53.5994978],[18.9084068,53.5917523],[18.905223,53.5775713],[18.9267527,53.5916779],[18.9768117,53.5873738],[18.9888332,53.5950544],[19.0246592,53.5905884],[19.0852084,53.598225],[19.1997008,53.5700594],[19.1892146,53.5477704],[19.2078912,53.5480953],[19.2199851,53.5283625],[19.1891991,53.5115588],[19.2256007,53.4887507],[19.2232379,53.4804013],[19.2366431,53.4675332],[19.2261564,53.456591],[19.1954897,53.4528394],[19.1865489,53.4418212],[19.1394984,53.4467227],[19.1396841,53.4379814],[19.11951,53.4299609],[19.1388412,53.4206664],[19.1068661,53.3806425],[19.0923588,53.3782466],[19.0767585,53.3926984],[19.0616503,53.3856138]]]}}]}