{"type": "FeatureCollection", "features": [{"type": "Feature", "properties": {"slug": "guadalajara-es", "members": 17, "country": "Spain", "input_hash": "86f20939bab10ff8"}, "geometry": {"type": "MultiPolygon", "coordinates": [[[[-3.1641887, 40.2499337], [-3.1731848, 40.234161], [-3.1957015, 40.2477395], [-3.1961414, 40.2576399], [-3.1835547, 40.2692734], [-3.1789089, 40.3142098], [-3.153409, 40.3317059], [-3.1561987, 40.3418556], [-3.141535, 40.3508024], [-3.1437444, 40.3579252], [-3.1052374, 40.347381], [-3.048387, 40.3627609], [-3.0644079, 40.3410319], [-3.066218, 40.3132825], [-3.0961623, 40.282342], [-3.0269068, 40.181104], [-3.0375339, 40.1746683], [-3.0502599, 40.1832586], [-3.0628271, 40.1812344], [-3.0675624, 40.1581945], [-3.0777913, 40.1661746], [-3.0882527, 40.2003198], [-3.0794307, 40.2083319], [-3.0798477, 40.2274009], [-3.108150359768985, 40.28594662958289], [-3.1641887, 40.2499337]]], [[[-3.1882465, 40.4818118], [-3.1598267, 40.4829444], [-3.1471433948960996, 40.47230514949095], [-3.1665272, 40.5064129], [-3.2175662, 40.5224278], [-3.2413322, 40.5526242], [-3.229808, 40.5673954], [-3.2310218, 40.5803208], [-3.2100351, 40.5985678], [-3.2175904, 40.5922026], [-3.2395039, 40.6131861], [-3.2871018, 40.6309519], [-3.2901606, 40.6437458], [-3.3119987, 40.6119331], [-3.3376126, 40.6253927], [-3.3233996, 40.6301268], [-3.3122397, 40.6687059], [-3.3179423, 40.6736632], [-3.2974786, 40.6883296], [-3.3114697, 40.6913739], [-3.3084055, 40.7070392], [-3.3141493, 40.712573], [-3.2788094, 40.7550311], [-3.2794317, 40.7650021], [-3.2719332, 40.7595517], [-3.2642293, 40.7707222], [-3.225223, 40.7641563], [-3.2195133702398953, 40.755341403528625], [-3.2240066, 40.7688701], [-3.2086414, 40.7811594], [-3.181986, 40.7846816], [-3.1721803, 40.7784357], [-3.1662493, 40.7856872], [-3.133932, 40.7694325], [-3.1430974, 40.7556204], [-3.1323249992384734, 40.74325260641041], [-3.0644768, 40.7120707], [-3.0784725, 40.6936302], [-3.0660338, 40.682386], [-3.0816156, 40.670034], [-3.0767092, 40.6629024], [-3.099248, 40.6242462], [-3.0856418, 40.6168336], [-3.0834186, 40.5972768], [-3.0595006, 40.6008049], [-3.0365528, 40.589238], [-3.0178815, 40.5900261], [-3.023662, 40.5619532], [-3.0171621, 40.5501886], [-3.0502171, 40.5467646], [-3.0690954, 40.5298538], [-3.057896, 40.5224094], [-3.0894317, 40.5156867], [-3.1023493, 40.5025048], [-3.1174748, 40.5267522], [-3.1270218, 40.5243998], [-3.1243611, 40.5412136], [-3.1293769, 40.5335054], [-3.1395719, 40.5416739], [-3.1365479, 40.5237945], [-3.1422299, 40.5198147], [-3.1354225, 40.5101109], [-3.1476475, 40.4978256], [-3.1086272, 40.4946431], [-3.1015228, 40.4707839], [-3.1523078, 40.4606296], [-3.156021, 40.4391826], [-3.1985835, 40.4421991], [-3.2002316, 40.4652059], [-3.1882465, 40.4818118]], [[-3.2919034127102975, 40.64924196390841], [-3.2920521, 40.6489842], [-3.2901606, 40.6437458], [-3.2919034127102975, 40.64924196390841]], [[-3.1262493, 40.5909682], [-3.1278155, 40.5880566], [-3.12572713519168, 40.59129220960203], [-3.1262493, 40.5909682]], [[-3.123731415638639, 40.58076799424329], [-3.1236822, 40.5808234], [-3.1252219, 40.5832006], [-3.123731415638639, 40.58076799424329]], [[-3.114592308483369, 40.580148543772296], [-3.116432, 40.5811382], [-3.1226096, 40.5801913], [-3.114592308483369, 40.580148543772296]], [[-3.1060818079581227, 40.57991378003322], [-3.0974502, 40.5916337], [-3.1052104, 40.5812869], [-3.1060818079581227, 40.57991378003322]], [[-3.1079451, 40.5769777], [-3.107783243315397, 40.5765159702817], [-3.1074847447310634, 40.577703104221634], [-3.1079451, 40.5769777]], [[-3.1097366935568647, 40.55621446235464], [-3.1031502, 40.5475496], [-3.102811095826762, 40.54724276185957], [-3.1097366935568647, 40.55621446235464]], [[-3.1111937, 40.555236], [-3.1108569044285574, 40.55397030051377], [-3.1097795512865907, 40.55618568096157], [-3.1111937, 40.555236]], [[-3.2840131, 40.6721657], [-3.286949, 40.6753025], [-3.282297913615153, 40.669523418760384], [-3.2840131, 40.6721657]], [[-3.2816193, 40.668478], [-3.2816551508383434, 40.66853322898177], [-3.2890624, 40.6605499], [-3.2816193, 40.668478]], [[-3.2748688, 40.6524405], [-3.2814937, 40.6498661], [-3.2676789576117833, 40.653103800491515], [-3.2748688, 40.6524405]], [[-3.2621489, 40.6573347], [-3.2621965, 40.6543887], [-3.2608595381923724, 40.6579744952158], [-3.2621489, 40.6573347]], [[-3.2486173, 40.6671661], [-3.2491199409509344, 40.666761748239004], [-3.248343169049954, 40.66708813200942], [-3.2486173, 40.6671661]], [[-3.2433353, 40.6656638], [-3.244873319101373, 40.6661012415176], [-3.2381702, 40.6637196], [-3.2433353, 40.6656638]], [[-3.2231210646740243, 40.65254545484101], [-3.2384121, 40.6585751], [-3.2313504, 40.6552561], [-3.2231210646740243, 40.65254545484101]], [[-3.1970409, 40.7027308], [-3.1964267202563783, 40.702234984660926], [-3.1958325604761937, 40.703737256423494], [-3.1970409, 40.7027308]], [[-3.1954075, 40.7040913], [-3.1955482834090487, 40.70397403795273], [-3.194199, 40.7021543], [-3.1954075, 40.7040913]], [[-3.1937987, 40.7051482], [-3.1938287844849818, 40.7049231939056], [-3.1920894, 40.7062422], [-3.1937987, 40.7051482]], [[-3.189649, 40.705017], [-3.1892360917448963, 40.705387425466455], [-3.1920894, 40.7062422], [-3.189649, 40.705017]], [[-3.1890409, 40.7104394], [-3.1877351452874314, 40.70671132142133], [-3.1867651883916475, 40.70660425639145], [-3.1890409, 40.7104394]], [[-3.1644692, 40.7125218], [-3.1686796, 40.7108582], [-3.1572953, 40.7127299], [-3.1644692, 40.7125218]], [[-3.1457407, 40.7182854], [-3.146254799990533, 40.718400973775346], [-3.1434719, 40.7148198], [-3.1457407, 40.7182854]], [[-3.1424107, 40.7113077], [-3.142784474903216, 40.71126271041891], [-3.1428293602744635, 40.71101028297057], [-3.1424107, 40.7113077]], [[-3.1563217, 40.7014253], [-3.1484797007399505, 40.70699627070574], [-3.1549062, 40.7035532], [-3.1563217, 40.7014253]], [[-3.086270744514157, 40.7206496479471], [-3.086335037843397, 40.71892426410939], [-3.0856538, 40.7190659], [-3.086270744514157, 40.7206496479471]], [[-3.210611945568384, 40.60537721041694], [-3.2084976, 40.6097056], [-3.2106486, 40.6058099], [-3.210611945568384, 40.60537721041694]], [[-3.2132751, 40.5317873], [-3.2171046, 40.5293747], [-3.216917094824084, 40.52923813949272], [-3.2132751, 40.5317873]], [[-3.2009481, 40.5197461], [-3.2016982, 40.517934], [-3.20089158441667, 40.51745040672894], [-3.2009481, 40.5197461]], [[-3.200415875921664, 40.64233394825295], [-3.2006976, 40.6419081], [-3.2002935, 40.6372962], [-3.200415875921664, 40.64233394825295]], [[-3.2038438, 40.7236121], [-3.21158, 40.7323907], [-3.205579223452336, 40.72336096505918], [-3.2038438, 40.7236121]], [[-3.2059675773867142, 40.72314445237928], [-3.2061865, 40.7230224], [-3.2056334, 40.7202848], [-3.2059675773867142, 40.72314445237928]], [[-3.2096848, 40.7209262], [-3.2094353766970243, 40.720581093356905], [-3.2056334, 40.7202848], [-3.2096848, 40.7209262]], [[-3.2083914, 40.716235], [-3.2075324, 40.7179481], [-3.2089858842665966, 40.716244299023494], [-3.2083914, 40.716235]], [[-3.21267468486999, 40.71630199986675], [-3.2127842, 40.7163351], [-3.212788491847858, 40.71630378005476], [-3.21267468486999, 40.71630199986675]], [[-3.2393086, 40.6711045], [-3.2393332509453105, 40.6712335488757], [-3.2404906, 40.6674805], [-3.2393086, 40.6711045]], [[-3.1570181, 40.7156942], [-3.158222016936394, 40.721181424817594], [-3.1583214, 40.7210976], [-3.1570181, 40.7156942]], [[-3.156203929553368, 40.72288358412561], [-3.155374533313146, 40.72346895747937], [-3.155509189531398, 40.72346956380369], [-3.156203929553368, 40.72288358412561]], [[-3.1521680300905075, 40.7239228983998], [-3.1517564, 40.7239171], [-3.1494774, 40.7267758], [-3.1521680300905075, 40.7239228983998]], [[-3.091843371302062, 40.538360073253415], [-3.1017340602833268, 40.546268207107936], [-3.0946952, 40.5398991], [-3.091843371302062, 40.538360073253415]], [[-3.080416278677788, 40.53274543206904], [-3.0857996963840604, 40.53509852484654], [-3.0823588, 40.5332416], [-3.080416278677788, 40.53274543206904]]], [[[-3.4425434, 40.8838019], [-3.3995568, 40.8648785], [-3.3955615, 40.8654868], [-3.3925171, 40.8643621], [-3.3978285, 40.8496782], [-3.4273525, 40.8397718], [-3.4516654, 40.8147259], [-3.4539903, 40.7913085], [-3.4236302, 40.7934638], [-3.4462672, 40.7645963], [-3.4658712, 40.7842568], [-3.5106571, 40.788617], [-3.4912271, 40.7994033], [-3.4767424, 40.8245075], [-3.4794241, 40.837928], [-3.4704191, 40.844334], [-3.4767694, 40.8514967], [-3.4677405, 40.8564883], [-3.4732309, 40.8644204], [-3.4408663, 40.8761061], [-3.4425434, 40.8838019]]], [[[-2.9931054, 40.3453109], [-2.9210841, 40.3019954], [-2.9257056, 40.2940253], [-2.9035542, 40.2668374], [-2.9755513, 40.2438917], [-2.9965243, 40.2726066], [-3.0141799, 40.2771913], [-2.998664, 40.3125266], [-3.0137201, 40.3314], [-2.9931054, 40.3453109]]], [[[-2.6349692, 40.5014408], [-2.6513033, 40.4400046], [-2.6638453, 40.4360507], [-2.6750694, 40.4483351], [-2.6851522, 40.4432909], [-2.6763564, 40.4357801], [-2.6850129, 40.4277319], [-2.701816, 40.4295694], [-2.7037949, 40.4219438], [-2.6807699, 40.4027111], [-2.6875524, 40.3962881], [-2.7174309, 40.4198248], [-2.711987, 40.4138653], [-2.7168348, 40.4074358], [-2.7280268, 40.4114267], [-2.7228998, 40.3971171], [-2.7698691, 40.4214006], [-2.7599417, 40.4416689], [-2.7834916, 40.4556075], [-2.7738134, 40.4752468], [-2.7830554, 40.4811024], [-2.7767143, 40.4897931], [-2.7421933, 40.4944689], [-2.7323513, 40.5093114], [-2.7342569, 40.5289196], [-2.7309874, 40.5375156], [-2.7308298, 40.5208305], [-2.6642691, 40.5212235], [-2.6409721, 40.497811], [-2.6349692, 40.5014408]]], [[[-2.992613, 40.6167026], [-3.0051449, 40.623036], [-2.9850785, 40.6333413], [-2.9812492, 40.6261336], [-2.992613, 40.6167026]]], [[[-2.4608708, 40.7081863], [-2.4397147, 40.6959064], [-2.4502644, 40.6795975], [-2.4438428, 40.6492344], [-2.4714229, 40.658508], [-2.491726, 40.6549057], [-2.52219, 40.6144156], [-2.5445984, 40.6169927], [-2.5768985, 40.6035935], [-2.6095817, 40.6074564], [-2.6335783, 40.6440838], [-2.6597705, 40.6426596], [-2.668704244136732, 40.655494854369884], [-2.6839245, 40.6543947], [-2.6770894, 40.6466192], [-2.7126353, 40.6566409], [-2.7098464, 40.6669128], [-2.7236179, 40.6897745], [-2.6614247, 40.701419], [-2.665059, 40.7155191], [-2.6495627, 40.7377333], [-2.6872215, 40.7864518], [-2.681088, 40.7901555], [-2.6772804, 40.8322416], [-2.6449693, 40.8351194], [-2.6268116, 40.824351], [-2.6209573, 40.8423488], [-2.6104554, 40.8450434], [-2.5924982, 40.832991], [-2.5870417, 40.812099], [-2.5141542, 40.7509083], [-2.4810629, 40.7562323], [-2.4799289, 40.774028], [-2.4657581, 40.7841609], [-2.4393839, 40.7832338], [-2.4123365, 40.7310568], [-2.4369261, 40.7277615], [-2.4382536, 40.7203747], [-2.4581323, 40.7231037], [-2.459564, 40.7089752], [-2.4762193, 40.7058611], [-2.4608708, 40.7081863]], [[-2.4855851873271466, 40.7078991272821], [-2.4857179, 40.708467], [-2.4864630681474913, 40.70805823058397], [-2.4855851873271466, 40.7078991272821]], [[-2.627477, 40.6639887], [-2.6326597, 40.6617976], [-2.632618162311654, 40.661542520043966], [-2.627477, 40.6639887]], [[-2.6321828, 40.6563141], [-2.632209125337719, 40.65649251792137], [-2.6326311178538324, 40.65614163692847], [-2.6321828, 40.6563141]], [[-2.6362427, 40.6547523], [-2.635457460145244, 40.65505437335283], [-2.6364863702083854, 40.65495143429227], [-2.6362427, 40.6547523]]], [[[-2.5663082, 40.8133111], [-2.574265, 40.8224573], [-2.5801507, 40.8255958], [-2.5693944, 40.8274389], [-2.5663082, 40.8133111]]]]}}]}