{"type": "FeatureCollection", "features": [{"type": "Feature", "properties": {"slug": "guadalajara", "members": 10, "country": "Mexico", "input_hash": "93632080b07f88e6"}, "geometry": {"type": "Polygon", "coordinates": [[[-103.1207995, 20.3990025], [-103.1342741, 20.3954182], [-103.12561, 20.3611528], [-103.1463472, 20.3357923], [-103.1570652, 20.3438936], [-103.1581126, 20.3365448], [-103.1842019, 20.3348931], [-103.1844106, 20.3273888], [-103.1953503, 20.3257581], [-103.2392781, 20.339236], [-103.2716813, 20.341633], [-103.2863198, 20.3327435], [-103.2990131, 20.3902837], [-103.2882648, 20.3994565], [-103.2877969, 20.4047796], [-103.3082517, 20.4019461], [-103.3104732, 20.3918138], [-103.3155902, 20.3980939], [-103.3279712, 20.3926863], [-103.3431647, 20.368598], [-103.3588227, 20.3617536], [-103.4344671, 20.3640503], [-103.506313, 20.4048546], [-103.5280655, 20.4113358], [-103.5485856, 20.4065212], [-103.5692444, 20.4624625], [-103.5959895, 20.4834893], [-103.589464, 20.4928944], [-103.596972, 20.4822553], [-103.614445, 20.4882762], [-103.6272487, 20.4838235], [-103.6559887, 20.5056873], [-103.6843665, 20.4996443], [-103.6889498, 20.5213223], [-103.714772, 20.5139078], [-103.7378653, 20.5566014], [-103.776565, 20.5734981], [-103.7869308, 20.5695386], [-103.8153547, 20.595887], [-103.8285536, 20.5925745], [-103.8224092, 20.6018192], [-103.8361942, 20.5840028], [-103.8478277, 20.5845666], [-103.8473757, 20.5944616], [-103.8151631, 20.6091927], [-103.8091541, 20.628517], [-103.7888468, 20.6351911], [-103.7729094, 20.6537581], [-103.7645007, 20.6524992], [-103.7714091, 20.6659719], [-103.7572359, 20.6815791], [-103.7810929, 20.719142], [-103.7700641, 20.7374039], [-103.7435572, 20.737371], [-103.7325972, 20.7238678], [-103.7126072, 20.7195501], [-103.6862646, 20.7211765], [-103.6874173, 20.7033949], [-103.6347616, 20.71817], [-103.6362593, 20.7000771], [-103.6172262, 20.6949615], [-103.6229544, 20.7218861], [-103.6039668, 20.7467507], [-103.6104753, 20.7666562], [-103.6232098, 20.7685641], [-103.6392957, 20.7508359], [-103.6518463, 20.754954], [-103.6509489, 20.7669757], [-103.6638767, 20.7603263], [-103.6649481, 20.76846], [-103.6610066, 20.793768], [-103.6400352, 20.8028346], [-103.6544219, 20.8368478], [-103.6405368, 20.8674818], [-103.6316584, 20.8705438], [-103.6333209, 20.885824], [-103.6552783, 20.904119], [-103.6168622, 20.961687], [-103.5822559, 20.9572617], [-103.5751748, 20.9682523], [-103.5550904, 20.9669699], [-103.5226797, 20.9981987], [-103.5077582, 20.982546], [-103.4780367, 20.9861769], [-103.4596494, 20.9698562], [-103.4347111, 20.9648294], [-103.4356944, 20.9358234], [-103.4035326, 20.9588975], [-103.394796, 20.9447406], [-103.3787394, 20.9538055], [-103.36957349802175, 20.935764444055774], [-103.3406148, 20.9468295], [-103.3378897, 20.9546012], [-103.3594292, 20.9664975], [-103.3566792, 20.9891156], [-103.3374792, 20.9996579], [-103.3342526, 21.011795], [-103.3485206, 21.0269442], [-103.3452619, 21.0460867], [-103.3328714, 21.0441593], [-103.3285111, 21.0553049], [-103.3018857, 21.0545837], [-103.2965583, 21.0648384], [-103.2757308, 21.0514466], [-103.2572019, 21.0707314], [-103.2582346, 21.0830664], [-103.2325861, 21.0790944], [-103.2096016, 21.0942206], [-103.1884469, 21.0851529], [-103.1883673, 21.0706597], [-103.1628818, 21.0728857], [-103.1259744, 21.0548494], [-103.1489548, 21.0319118], [-103.145702, 21.0151807], [-103.1541498, 20.9905005], [-103.1491483, 20.9832318], [-103.1357409, 20.9983544], [-103.1190029, 20.9949807], [-103.1192585, 20.9774756], [-103.1332449, 20.9758885], [-103.1194872, 20.9610907], [-103.1732431, 20.9475674], [-103.1825674, 20.9341872], [-103.152178, 20.9249982], [-103.1469597, 20.9094221], [-103.1544586, 20.8901938], [-103.1407505, 20.8847376], [-103.1383602, 20.8756932], [-103.1201294, 20.884916], [-103.102388, 20.8771348], [-103.1002464, 20.8553861], [-103.0865622, 20.8339994], [-103.0738069, 20.8283588], [-103.0699031, 20.8017931], [-103.0857984, 20.7795079], [-103.0823743, 20.7605208], [-103.1065205, 20.7653094], [-103.1451107, 20.7565424], [-103.1775468, 20.7351459], [-103.2107287, 20.7305122], [-103.228469, 20.7143584], [-103.28342880619276, 20.730406441108002], [-103.2661893697267, 20.705282726806274], [-103.2265681, 20.6976582], [-103.1875742, 20.670663], [-103.1818718, 20.6593244], [-103.1852162, 20.6288519], [-103.1754452, 20.6307861], [-103.162356, 20.618094], [-103.1399167, 20.6216588], [-103.147046, 20.5812368], [-103.1302805, 20.568366], [-103.1322042, 20.5468457], [-103.0965335, 20.5302377], [-103.1090193, 20.5179572], [-103.0889608, 20.5181718], [-103.0944528, 20.4832658], [-103.0809883, 20.4876979], [-103.0913201, 20.4161031], [-103.0842712, 20.4003808], [-103.1210802, 20.4065625], [-103.1207995, 20.3990025]], [[-103.57261476336308, 20.55276321745008], [-103.5728614, 20.5525593], [-103.5738704, 20.5440847], [-103.57261476336308, 20.55276321745008]], [[-103.53375731813284, 20.5964906061781], [-103.5344724, 20.5980827], [-103.5346893, 20.5916684], [-103.53375731813284, 20.5964906061781]], [[-103.4301027, 20.5792774], [-103.43086540486486, 20.58739133973985], [-103.43088297458935, 20.587397553772764], [-103.4301027, 20.5792774]], [[-103.4017755, 20.619573], [-103.40117563615985, 20.620351880797692], [-103.404932, 20.6191713], [-103.4017755, 20.619573]], [[-103.4004385, 20.621309], [-103.4041139, 20.6210639], [-103.40091459566058, 20.62069082343548], [-103.4004385, 20.621309]], [[-103.39654390829418, 20.636401772020495], [-103.3951218, 20.6421708], [-103.3966409, 20.6365624], [-103.39654390829418, 20.636401772020495]], [[-103.31165074742519, 20.64607863875495], [-103.3116509, 20.6461352], [-103.31212619764486, 20.64614287330631], [-103.31165074742519, 20.64607863875495]], [[-103.2822079, 20.6412202], [-103.2808767898322, 20.641088314948625], [-103.3116457, 20.6442075], [-103.2822079, 20.6412202]], [[-103.2455204, 20.5709679], [-103.2429803, 20.571289], [-103.2393612, 20.5739611], [-103.2455204, 20.5709679]], [[-103.2542522, 20.564857], [-103.2676865, 20.5668049], [-103.2384333, 20.5624145], [-103.2542522, 20.564857]], [[-103.1699491, 20.5317981], [-103.1696929526572, 20.527766760044504], [-103.1688281, 20.5298921], [-103.1699491, 20.5317981]], [[-103.1657493, 20.5391119], [-103.16563972672503, 20.540207996478465], [-103.17006195879613, 20.53306887173853], [-103.1657493, 20.5391119]], [[-103.1619801, 20.5487385], [-103.16197567170673, 20.549339836176152], [-103.1647853, 20.5487551], [-103.1619801, 20.5487385]], [[-103.16195289259589, 20.55243310543508], [-103.1626093, 20.5521654], [-103.16196700322634, 20.55051696482405], [-103.16195289259589, 20.55243310543508]], [[-103.148111, 20.5576684], [-103.14815476330581, 20.558060455434187], [-103.15463695041723, 20.555416797379625], [-103.148111, 20.5576684]], [[-103.14852848226693, 20.568811663888006], [-103.1489919, 20.5687722], [-103.14889161731642, 20.567981123705], [-103.14852848226693, 20.568811663888006]], [[-103.1428522, 20.5691115], [-103.14235951602762, 20.569337002854116], [-103.14367753699038, 20.56922476236794], [-103.1428522, 20.5691115]], [[-103.2063591, 20.4735479], [-103.2067339673457, 20.474144784737003], [-103.2031584, 20.4622587], [-103.2063591, 20.4735479]], [[-103.1288162, 20.4126505], [-103.1393934547582, 20.418462279278035], [-103.139216, 20.4182568], [-103.1288162, 20.4126505]], [[-103.3631997, 20.57262], [-103.368203, 20.5718577], [-103.36103866645013, 20.57231765063299], [-103.3631997, 20.57262]], [[-103.36346320441827, 20.55867405261973], [-103.3633425, 20.5629415], [-103.3635564, 20.5587844], [-103.36346320441827, 20.55867405261973]], [[-103.3300143, 20.5481514], [-103.3334263, 20.5716773], [-103.3317497620211, 20.553871858603575], [-103.3300143, 20.5481514]], [[-103.285035, 20.5330212], [-103.2941393, 20.53611], [-103.28499302274557, 20.532868149468882], [-103.285035, 20.5330212]], [[-103.2841044, 20.5296282], [-103.28467956711376, 20.53172527932192], [-103.28509595869252, 20.52958116245203], [-103.2841044, 20.5296282]], [[-103.2333284, 20.4967195], [-103.23671036931546, 20.493227521846578], [-103.2363, 20.4931244], [-103.2333284, 20.4967195]], [[-103.2031656, 20.4886744], [-103.1975208, 20.4969274], [-103.19493942568525, 20.49913963488875], [-103.1989132732388, 20.49645450430187], [-103.2031656, 20.4886744]], [[-103.2091888, 20.4837631], [-103.20795016695887, 20.47608128572749], [-103.20829565475205, 20.484491368072838], [-103.2091888, 20.4837631]], [[-103.2180936145164, 20.47518540172657], [-103.211842, 20.4774294], [-103.2179917, 20.4753482], [-103.2180936145164, 20.47518540172657]], [[-103.1760574, 20.5133864], [-103.1695403, 20.522974], [-103.16958392633776, 20.523159628678926], [-103.1760574, 20.5133864]], [[-103.17677751328753, 20.502754947212587], [-103.1760908, 20.5028862], [-103.17506711648892, 20.50661061937248], [-103.17677751328753, 20.502754947212587]], [[-103.18854859851966, 20.5034579196912], [-103.18732736240688, 20.50380638247775], [-103.1877758, 20.5039801], [-103.18854859851966, 20.5034579196912]], [[-103.6151979, 20.6928194], [-103.627423, 20.6867351], [-103.61510222009468, 20.692720507951638], [-103.6151979, 20.6928194]], [[-103.6120353, 20.6865168], [-103.6136143, 20.689244], [-103.61207049019471, 20.686365666006807], [-103.6120353, 20.6865168]], [[-103.6129292, 20.6826777], [-103.61214401620765, 20.686049888272972], [-103.6149504, 20.6803653], [-103.6129292, 20.6826777]], [[-103.60033175598693, 20.611446762061533], [-103.5975548, 20.6129419], [-103.6004454, 20.6121157], [-103.60033175598693, 20.611446762061533]], [[-103.598883, 20.6086739], [-103.60025327604298, 20.610984808893065], [-103.5993306, 20.6055537], [-103.598883, 20.6086739]], [[-103.58392712023937, 20.603787007215992], [-103.5923776, 20.6023436], [-103.5840288, 20.603612], [-103.58392712023937, 20.603787007215992]], [[-103.5674484, 20.6143637], [-103.57319275244413, 20.60673251145056], [-103.5729888, 20.6067382], [-103.5674484, 20.6143637]], [[-103.5366142, 20.6052995], [-103.5455996, 20.61017], [-103.5364802021875, 20.604965813222663], [-103.5366142, 20.6052995]], [[-103.5328484, 20.6010498], [-103.53458433697634, 20.60071491094434], [-103.5345261, 20.6005109], [-103.5328484, 20.6010498]], [[-103.2698837476978, 20.645198394069503], [-103.269658, 20.6451376], [-103.2708278, 20.6473008], [-103.2698837476978, 20.645198394069503]], [[-103.26384447379564, 20.66840074547903], [-103.2677135, 20.6640513], [-103.26382, 20.6681989], [-103.26384447379564, 20.66840074547903]], [[-103.2701524, 20.6977257], [-103.27018602246889, 20.697215650806033], [-103.26958047069733, 20.698742124185927], [-103.2701524, 20.6977257]], [[-103.2859372553724, 20.735680626696748], [-103.2840961, 20.730865], [-103.28373931142077, 20.730619817782227], [-103.2859372553724, 20.735680626696748]], [[-103.28745412960211, 20.738444397946576], [-103.28706795174216, 20.73828407719123], [-103.2871163, 20.7383954], [-103.28745412960211, 20.738444397946576]], [[-103.31315489485192, 20.753605306866785], [-103.31261030275773, 20.752309819019214], [-103.3017558, 20.7443817], [-103.31315489485192, 20.753605306866785]], [[-103.3267192, 20.7447985], [-103.3135452, 20.7508492], [-103.31263793727864, 20.752266644748282], [-103.3267192, 20.7447985]], [[-103.40491949286961, 20.711656361867846], [-103.400571, 20.7110615], [-103.395864, 20.7123067], [-103.40491949286961, 20.711656361867846]], [[-103.4070646, 20.7097626], [-103.40638409710022, 20.711551178418045], [-103.4065119, 20.711542], [-103.4070646, 20.7097626]], [[-103.40172982512942, 20.699474388267266], [-103.40175667483533, 20.699523647669167], [-103.4017495, 20.6994775], [-103.40172982512942, 20.699474388267266]], [[-103.40313374801038, 20.678008567687012], [-103.4036244, 20.6815452], [-103.4036144, 20.6779449], [-103.40313374801038, 20.678008567687012]], [[-103.3144024, 20.7565729], [-103.31407380227107, 20.75579122437688], [-103.31419138728862, 20.756809614776614], [-103.3144024, 20.7565729]], [[-103.3514446, 20.8988941], [-103.3522296, 20.8931709], [-103.35180900457931, 20.892650061820174], [-103.3514446, 20.8988941]], [[-103.35205087703024, 20.904485092606915], [-103.3516288, 20.9053939], [-103.3519238, 20.9125298], [-103.35205087703024, 20.904485092606915]], [[-103.35556287591201, 20.913229104193793], [-103.3554536, 20.9129758], [-103.3519238, 20.9125298], [-103.35556287591201, 20.913229104193793]]]}}]}