{"type": "FeatureCollection", "features": [{"type": "Feature", "properties": {"slug": "guantanamo", "members": 1, "country": "Cuba", "input_hash": "1fe82bfadcf2ddb4"}, "geometry": {"type": "Polygon", "coordinates": [[[-75.2411458, 20.036], [-75.2272801, 20.0303764], [-75.2266939, 20.0217109], [-75.2140721, 20.0214745], [-75.1978441, 20.0267824], [-75.1912113, 20.047194], [-75.1632241, 20.0423517], [-75.165239, 20.0287788], [-75.1421591, 20.028553], [-75.1298424, 20.0124968], [-75.1366316, 20.0258354], [-75.1244179, 20.035633], [-75.1191479, 20.0537671], [-75.0794786, 20.0646683], [-75.079097, 20.0388223], [-75.0573962, 20.0297875], [-75.048422, 20.0420744], [-75.0576246, 20.0762561], [-75.0547029, 20.1239594], [-75.1056831, 20.1125166], [-75.1137083, 20.1237998], [-75.1073997, 20.1441376], [-75.1676316, 20.150627], [-75.1590088, 20.1776214], [-75.1778555, 20.1714153], [-75.1792165, 20.1836921], [-75.1903224, 20.1859569], [-75.1887989, 20.1967413], [-75.1987231, 20.197275], [-75.2051354, 20.2083581], [-75.2196119, 20.2019385], [-75.2201878, 20.1848645], [-75.2534757, 20.1925605], [-75.2426899, 20.1681927], [-75.245415, 20.1375134], [-75.2315962, 20.1170438], [-75.239954, 20.0934984], [-75.2234222, 20.0748326], [-75.2329105, 20.070126], [-75.2266513, 20.0616639], [-75.2438035, 20.0482452], [-75.2411458, 20.036]]]}}]}