{"type":"FeatureCollection","features":[{"type":"Feature","properties":{"slug":"gudermes","member_count":1,"matched_count":1,"unmatched":["[recovered via metro-name fallback: Gudermes]"],"source":"Overture Maps division_area (CC-BY 4.0)"},"geometry":{"type":"Polygon","coordinates":[[[46.0605531,43.3440783],[46.072422,43.332044],[46.1373907,43.3238157],[46.154273,43.328268],[46.1465141,43.3532221],[46.1292505,43.3639604],[46.1391127,43.3717084],[46.1323268,43.3701408],[46.1306853,43.3840061],[46.1190552,43.3870625],[46.0982842,43.3845051],[46.0963101,43.3742742],[46.0638732,43.3590431],[46.0607922,43.3503511],[46.0692358,43.3512327],[46.0605531,43.3440783]]]}}]}