{"type": "FeatureCollection", "features": [{"type": "Feature", "properties": {"slug": "guigang", "members": 5, "country": "China", "input_hash": "bf7a67db540d6305"}, "geometry": {"type": "Polygon", "coordinates": [[[110.3908923, 24.040654], [110.3989218, 24.0193338], [110.3911117, 23.9941058], [110.394557, 23.9620297], [110.3510274, 23.9284028], [110.3544272, 23.8844098], [110.4055882, 23.87522], [110.4051392, 23.859196], [110.4384432, 23.8678453], [110.4527686, 23.8433138], [110.4599505, 23.8532998], [110.4674255, 23.848098], [110.4773409, 23.8529399], [110.4838125, 23.8454409], [110.4748991, 23.8296495], [110.4962727, 23.8034438], [110.5209851, 23.800252], [110.5464037, 23.8252103], [110.5682696, 23.8074589], [110.5694228, 23.7894467], [110.5791979, 23.7907488], [110.5506427, 23.7499753], [110.5424887, 23.7220055], [110.5479188, 23.7044494], [110.5674076, 23.7091563], [110.5615455, 23.6859029], [110.5672275, 23.6779812], [110.5393489, 23.6705384], [110.5377874, 23.6603413], [110.5440902, 23.6482716], [110.5722152, 23.6383107], [110.5844887, 23.6222293], [110.5868931, 23.6118661], [110.5738231, 23.5928797], [110.5921142, 23.5915647], [110.6011579, 23.5770632], [110.5967535, 23.5645037], [110.6145959, 23.5525593], [110.6077488, 23.5425007], [110.6148683, 23.5292494], [110.6127859, 23.4926217], [110.6236806, 23.4831317], [110.6239613, 23.4628571], [110.6111981, 23.4483929], [110.5979553, 23.4587707], [110.5775911, 23.4479813], [110.5754076, 23.4267078], [110.582395, 23.4171049], [110.5708247, 23.4063658], [110.5755787, 23.3883745], [110.5668063, 23.3857712], [110.5778606, 23.3776424], [110.5593979, 23.3693879], [110.5636847, 23.3621278], [110.5773953, 23.3656935], [110.5846031, 23.3560272], [110.5776387, 23.3480273], [110.587238, 23.3393418], [110.5858156, 23.3258755], [110.6112646, 23.3317564], [110.6311666, 23.3149157], [110.6588729, 23.3086947], [110.6509893, 23.2989367], [110.6575096, 23.271225], [110.6464613, 23.2736859], [110.6442264, 23.266863], [110.6474628, 23.2508108], [110.6299747, 23.2475038], [110.586663, 23.209078], [110.5696093, 23.2295757], [110.5561435, 23.2116254], [110.5391299, 23.2066751], [110.5445061, 23.1720852], [110.5566329, 23.1585203], [110.5481972, 23.1583508], [110.5508903, 23.1319691], [110.5372915, 23.1309102], [110.5231299, 23.1153888], [110.5162989, 23.1220971], [110.5203816, 23.104371], [110.5058978, 23.1083405], [110.4897884, 23.0681414], [110.4557696, 23.0745577], [110.4538973, 23.0649891], [110.4407237, 23.0659318], [110.4242464, 23.0523339], [110.4228164, 23.0420683], [110.4098527, 23.0454618], [110.4136397, 23.0573121], [110.4028996, 23.0653085], [110.3590387, 23.0445389], [110.3306661, 23.0533799], [110.3140392, 23.0263511], [110.3188959, 23.0177624], [110.3061482, 23.0138381], [110.2966446, 23.0290633], [110.2828368, 23.0019737], [110.2953141, 23.0000486], [110.2940181, 22.9798411], [110.2786113, 22.9679434], [110.2785492, 22.9538141], [110.2511675, 22.9341757], [110.2502428, 22.9234756], [110.2667867, 22.9103691], [110.2620583, 22.8989592], [110.25289, 22.8980518], [110.2643949, 22.8791966], [110.2575271, 22.870294], [110.2389549, 22.87596], [110.2183378, 22.867586], [110.2265086, 22.8811252], [110.2203732, 22.8945582], [110.1847934, 22.9090294], [110.1496748, 22.9102374], [110.11765, 22.8902499], [110.1104932, 22.89287], [110.1030573, 22.8995051], [110.1084935, 22.9155228], [110.0907929, 22.9241704], [110.0943333, 22.9300609], [110.0802645, 22.9509893], [110.0915709, 22.9566578], [110.0763833, 22.9661109], [110.0788613, 22.9712499], [110.0571776, 22.9462974], [110.0318516, 22.9626701], [110.0222535, 22.9586794], [110.0104436, 22.9647354], [110.0126175, 22.9772903], [109.9907773, 23.0039294], [109.9819856, 23.0010964], [109.9478843, 23.025517], [109.9332516, 23.0222541], [109.9297279, 23.028002], [109.9175429, 23.0203012], [109.8886686, 23.0290254], [109.8778652, 23.0103717], [109.8705547, 23.0145796], [109.8753167, 23.0044659], [109.8696293, 23.0007661], [109.8584308, 23.0063552], [109.8272598, 22.9789529], [109.7999238, 22.9800417], [109.8008478, 22.9642481], [109.8197837, 22.965125], [109.8335948, 22.9319472], [109.8415448, 22.9349331], [109.8372686, 22.9192364], [109.8577179, 22.9064221], [109.8361486, 22.9105568], [109.8288287, 22.9003128], [109.8407651, 22.891217], [109.84124, 22.8821872], [109.8500459, 22.8827294], [109.844107, 22.8863682], [109.8486431, 22.8907731], [109.8636313, 22.8785782], [109.8418645, 22.8790749], [109.8321451, 22.8914293], [109.8136035, 22.8878394], [109.8112233, 22.8617141], [109.8012417, 22.8592735], [109.7988736, 22.8464624], [109.7836685, 22.8583655], [109.7695869, 22.8539945], [109.7607687, 22.8595747], [109.7623988, 22.8515227], [109.7504862, 22.8426701], [109.7618813, 22.8133895], [109.7574906, 22.780136], [109.7875114, 22.7577161], [109.7812473, 22.7453252], [109.7503955, 22.7317065], [109.7286821, 22.7381159], [109.7150127, 22.7155062], [109.7238199, 22.7040394], [109.7160716, 22.6955974], [109.6872018, 22.6924872], [109.657571, 22.6656169], [109.6452675, 22.6709303], [109.6433377, 22.6627646], [109.620616, 22.6557827], [109.6083041, 22.6671095], [109.6072045, 22.6757312], [109.6181782, 22.6826965], [109.6146814, 22.6900895], [109.5968778, 22.7145261], [109.5836866, 22.7128846], [109.5772716, 22.720519], [109.5841977, 22.7268422], [109.5728193, 22.7411687], [109.5770191, 22.7515326], [109.5709037, 22.7648231], [109.5594973, 22.7641683], [109.5512174, 22.7777387], [109.5015884, 22.7746849], [109.5111967, 22.8163112], [109.525457, 22.812708], [109.5309794, 22.8175152], [109.5264657, 22.8242422], [109.5144331, 22.8306212], [109.4765954, 22.8253862], [109.4674445, 22.8466687], [109.4512533, 22.8520102], [109.4556323, 22.8607274], [109.4484678, 22.8680854], [109.4800352, 22.8807927], [109.4789128, 22.8935017], [109.4261609, 22.9169977], [109.4138418, 22.9121006], [109.4056183, 22.9290479], [109.3761961, 22.9349071], [109.3718583, 22.9516224], [109.3496616, 22.977002], [109.3516528, 22.9843883], [109.3104173, 23.0092302], [109.3110154, 23.0241309], [109.3319873, 23.038521], [109.3272638, 23.0432089], [109.340682, 23.0453954], [109.3350911, 23.0601856], [109.3395298, 23.057553], [109.3451257, 23.0719006], [109.3209741, 23.0986327], [109.304266, 23.0947138], [109.2832374, 23.1044837], [109.2470168, 23.1044409], [109.252765, 23.112003], [109.2431207, 23.1224155], [109.2477303, 23.1329396], [109.2351774, 23.151463], [109.2558233, 23.2133713], [109.249777, 23.2318284], [109.2284356, 23.2387412], [109.2368445, 23.2499869], [109.2281352, 23.2661659], [109.2087481, 23.2745286], [109.228865, 23.2748591], [109.2371945, 23.2870342], [109.2184949, 23.2911271], [109.2147016, 23.3062404], [109.2031123, 23.3110467], [109.2162639, 23.3227572], [109.2076469, 23.336583], [109.2463039, 23.3543722], [109.2616933, 23.3495084], [109.2675267, 23.3640442], [109.2738715, 23.3632276], [109.2712946, 23.376551], [109.2912641, 23.3830275], [109.2976726, 23.3988717], [109.3144681, 23.3991825], [109.3059734, 23.4006405], [109.3186104, 23.4186939], [109.3393055, 23.4113947], [109.3482806, 23.4194874], [109.3687173, 23.403224], [109.3670134, 23.3836318], [109.3994372, 23.3844369], [109.4244545, 23.3622455], [109.4393703, 23.3815261], [109.4781676, 23.3862606], [109.4833201, 23.3629489], [109.499008, 23.3495254], [109.4955504, 23.3399961], [109.5097019, 23.3356074], [109.5376331, 23.303214], [109.5615971, 23.3211127], [109.5708008, 23.3578518], [109.5872346, 23.3659131], [109.5911433, 23.3582669], [109.6078272, 23.3717841], [109.6434705, 23.4249993], [109.6589616, 23.4317787], [109.6893136, 23.4038439], [109.6985231, 23.4050091], [109.6958356, 23.4143377], [109.7219814, 23.4154612], [109.7220948, 23.4496793], [109.7361214, 23.470163], [109.7469182, 23.4574179], [109.7489576, 23.4642184], [109.7686374, 23.462661], [109.7823697, 23.4862085], [109.8315008, 23.4817703], [109.8423463, 23.4745004], [109.8478298, 23.450423], [109.8574714, 23.4415467], [109.8637041, 23.4585264], [109.8907425, 23.4774498], [109.8878823, 23.4982858], [109.8971771, 23.522258], [109.8969191, 23.538653], [109.8871165, 23.5424572], [109.8896349, 23.5605097], [109.917136, 23.5912924], [109.9140255, 23.6162881], [109.9255511, 23.6324864], [109.9189713, 23.6577814], [109.9225882, 23.6835391], [109.926335, 23.6899583], [109.9483167, 23.6911669], [109.9549219, 23.7148741], [109.947339, 23.7264616], [109.9740867, 23.739784], [109.9896441, 23.7807153], [110.0218912, 23.7799242], [110.0263802, 23.7904693], [110.064298, 23.8018209], [110.1008412, 23.8470854], [110.1294336, 23.8651704], [110.1411975, 23.8863427], [110.1869743, 23.8591029], [110.2007234, 23.8776112], [110.2003436, 23.9102071], [110.2094061, 23.9142048], [110.239429, 23.8907902], [110.2579745, 23.8985817], [110.2819522, 23.8550108], [110.2889843, 23.8569038], [110.2951639, 23.8690923], [110.2908297, 23.8848423], [110.3108038, 23.9110868], [110.3048396, 23.922934], [110.2925058, 23.9214757], [110.2955078, 23.9657632], [110.2845928, 23.9644852], [110.3018212, 23.9806165], [110.3052093, 24.0191708], [110.3403718, 24.0377307], [110.3908923, 24.040654]]]}}]}