{"type": "FeatureCollection", "features": [{"type": "Feature", "properties": {"slug": "gulu", "members": 1, "country": "Uganda", "input_hash": "23e5851d10b71792"}, "geometry": {"type": "Polygon", "coordinates": [[[32.2445682, 2.7832459], [32.2473111, 2.7656942], [32.23566, 2.7684594], [32.2113597, 2.7567866], [32.186498, 2.7625195], [32.172904, 2.7432327], [32.1711296, 2.7225337], [32.2007119, 2.7216757], [32.2240294, 2.7303845], [32.2423788, 2.7180932], [32.2601142, 2.7341177], [32.2722064, 2.7202726], [32.2608183, 2.6987329], [32.2677342, 2.6907161], [32.278752, 2.6916318], [32.2875663, 2.7087915], [32.3469612, 2.6946065], [32.3488551, 2.7064947], [32.3398581, 2.7136547], [32.3308649, 2.7486168], [32.3355583, 2.7558957], [32.3611781, 2.7588186], [32.3660499, 2.7800923], [32.3847095, 2.7771452], [32.3920046, 2.806368], [32.3788943, 2.815289], [32.3649165, 2.8073942], [32.3494184, 2.8150449], [32.3384307, 2.8378053], [32.3460982, 2.8506322], [32.3297087, 2.8807657], [32.3194612, 2.8852869], [32.2724197, 2.8508201], [32.2496251, 2.8607236], [32.2683253, 2.8003447], [32.2669784, 2.7867063], [32.2537175, 2.7834248], [32.2507276, 2.7911789], [32.2445682, 2.7832459]]]}}]}