{"type": "FeatureCollection", "features": [{"type": "Feature", "properties": {"slug": "gunnison", "members": 1, "country": "United States", "input_hash": "b95aa0985eb68da7"}, "geometry": {"type": "Polygon", "coordinates": [[[-107.39214, 39.254962], [-107.429818, 39.257128], [-107.431177, 39.24], [-107.464071, 39.228393], [-107.48398, 39.235583], [-107.500606, 39.217916], [-107.49955, 38.300812], [-107.63504, 38.301896], [-107.612717, 38.26216], [-107.590701, 38.252046], [-107.580243, 38.230824], [-107.580978, 38.212685], [-107.562189, 38.158792], [-107.56862, 38.147267], [-107.001119, 38.147072], [-107.000601, 38.425619], [-106.2469399, 38.422768], [-106.24563, 38.439239], [-106.269575, 38.444664], [-106.272552, 38.455207], [-106.288591, 38.461659], [-106.290404, 38.473602], [-106.303881, 38.47781], [-106.311375, 38.494921], [-106.330126, 38.493767], [-106.3449058, 38.5049109], [-106.342685, 38.521172], [-106.355508, 38.542607], [-106.344709, 38.568505], [-106.364459, 38.615221], [-106.385329, 38.624987], [-106.380008, 38.638558], [-106.429529, 38.651354], [-106.438177, 38.683283], [-106.451913, 38.698586], [-106.443323, 38.709339], [-106.425258, 38.710453], [-106.41692, 38.727062], [-106.412809, 38.791208], [-106.422684, 38.808354], [-106.416069, 38.824136], [-106.406753, 38.829353], [-106.38367, 38.824745], [-106.365235, 38.852792], [-106.349264, 38.854979], [-106.348979, 38.86502], [-106.3208, 38.893475], [-106.326009, 38.911014], [-106.373054, 38.906618], [-106.380864, 38.92571], [-106.402943, 38.910764], [-106.421414, 38.928206], [-106.437081, 38.914971], [-106.464889, 38.910377], [-106.526567, 38.955154], [-106.522018, 38.968878], [-106.52836, 38.980622], [-106.554128, 38.998663], [-106.576878, 38.99046], [-106.61264, 38.995738], [-106.648565, 39.022344], [-106.655195, 39.044146], [-106.684869, 39.04518], [-106.694962, 39.055576], [-106.749326, 39.042519], [-106.74512, 39.02703], [-106.782499, 38.999298], [-106.784378, 38.986448], [-106.801694, 38.978356], [-106.827079, 38.977691], [-106.846759, 38.986882], [-106.861383, 39.009644], [-106.876573, 39.007148], [-106.884343, 38.990516], [-106.908065, 38.992518], [-106.909995, 38.999884], [-106.96448, 39.017189], [-106.967414, 39.030934], [-106.996191, 39.0340507], [-107.0013232, 39.0420663], [-106.989401, 39.0530702], [-106.988694, 39.0708002], [-107.000181, 39.0713895], [-107.06604, 39.118782], [-107.282312, 39.118784], [-107.296376, 39.15483], [-107.352969, 39.172959], [-107.376904, 39.199078], [-107.379408, 39.230812], [-107.37149, 39.239132], [-107.39214, 39.254962]]]}}]}