{"type": "FeatureCollection", "features": [{"type": "Feature", "properties": {"slug": "gurdaspur", "members": 1, "country": "India", "input_hash": "7ac57842ed5576b3"}, "geometry": {"type": "Polygon", "coordinates": [[[75.3774154, 32.1907894], [75.3270159, 32.2138708], [75.3162201, 32.208041], [75.3201024, 32.204147], [75.3102357, 32.1967322], [75.3223126, 32.1793277], [75.2994657, 32.1533534], [75.2822832, 32.1469321], [75.279455, 32.117843], [75.2627719, 32.1119167], [75.2612419, 32.1013334], [75.231364, 32.0913923], [75.2350965, 32.1037229], [75.2270405, 32.1067622], [75.2237526, 32.0981354], [75.2156733, 32.1211456], [75.2026134, 32.1201277], [75.2057539, 32.1025878], [75.1979234, 32.098626], [75.1983412, 32.0827894], [75.1742722, 32.067671], [75.1576781, 32.0818264], [75.1229146, 32.0814668], [75.1066852, 32.0696835], [75.1048834, 32.0586799], [75.0910956, 32.0718159], [75.0839897, 32.0600447], [75.0687101, 32.0671757], [75.040731, 32.0425986], [75.0339733, 32.0506816], [75.0216241, 32.0486225], [75.0124113, 32.0356792], [75.002972, 32.0435802], [74.9718744, 32.0425224], [74.9780445, 32.0470766], [74.9739636, 32.0534562], [74.9480683, 32.0630898], [74.9188833, 32.0624825], [74.908366, 32.0514844], [74.9355859, 32.0114982], [74.9190913, 31.998896], [74.9172125, 31.9751831], [74.9391358, 31.9624807], [74.9732132, 31.9761484], [74.9719216, 31.9602953], [74.9428127, 31.9495105], [74.9386979, 31.941324], [74.914167, 31.9418707], [74.8887079, 31.927316], [74.9067945, 31.8943551], [74.919394, 31.8926198], [74.9165665, 31.8791626], [74.9383132, 31.8669047], [74.9443025, 31.8704954], [74.9419492, 31.8606396], [74.9620041, 31.8540078], [74.9691975, 31.8312581], [74.9836205, 31.8362744], [75.0129284, 31.8203869], [75.0281144, 31.8227982], [75.0218934, 31.8177159], [75.0398573, 31.8025285], [75.0737696, 31.8061403], [75.0824567, 31.7921197], [75.113581, 31.7789546], [75.0996964, 31.7641397], [75.10457, 31.7549912], [75.1374424, 31.7517905], [75.1439983, 31.7589369], [75.154629, 31.7472791], [75.1895373, 31.7414175], [75.1877699, 31.7340321], [75.2030522, 31.7306101], [75.1938626, 31.711018], [75.2132953, 31.7053648], [75.2128959, 31.6958053], [75.227279, 31.6917361], [75.2276134, 31.6840519], [75.284957, 31.6983938], [75.2843155, 31.6817854], [75.2975122, 31.6811102], [75.3132654, 31.6673226], [75.3019674, 31.6526301], [75.3271784, 31.6353715], [75.3387309, 31.6411833], [75.3726757, 31.624569], [75.4042713, 31.5935475], [75.4256532, 31.627683], [75.4680643, 31.6363447], [75.4941951, 31.6979667], [75.5427054, 31.7504539], [75.5294589, 31.7822757], [75.5524373, 31.7766046], [75.5638749, 31.7947648], [75.5591886, 31.7994205], [75.5675616, 31.8009487], [75.5685727, 31.8142243], [75.5623959, 31.8275012], [75.5510681, 31.8260432], [75.5478067, 31.8487137], [75.5695362, 31.8548303], [75.5691281, 31.8747248], [75.537, 31.9419386], [75.5310197, 31.9414203], [75.5434793, 31.9825701], [75.5571502, 31.9994757], [75.5348904, 32.0304579], [75.5628016, 32.0377326], [75.5737451, 32.067699], [75.6006409, 32.0941731], [75.5942853, 32.1114636], [75.5825974, 32.1070736], [75.5872544, 32.1410239], [75.5526102, 32.1331236], [75.5434088, 32.1455522], [75.5058526, 32.1452441], [75.4809705, 32.1597967], [75.4344203, 32.148986], [75.4343611, 32.164449], [75.4423428, 32.166812], [75.420162, 32.1637752], [75.4000835, 32.1900567], [75.3784829, 32.1834067], [75.3774154, 32.1907894]]]}}]}