{"type": "FeatureCollection", "features": [{"type": "Feature", "properties": {"slug": "hafar-al-batin", "members": 1, "country": "Saudi Arabia", "input_hash": "97d67ab335bd20b3"}, "geometry": {"type": "Polygon", "coordinates": [[[47.021468, 27.8240423], [47.2669902, 27.7065424], [47.6203295, 27.8277862], [47.61905, 27.8751699], [47.63866, 27.9546899], [47.65848, 27.9999899], [47.63499, 28.0494599], [47.62783, 28.1225799], [47.55689, 28.1345699], [47.56604, 28.1835399], [47.60701, 28.2664899], [47.64182, 28.3059699], [47.69829, 28.3466099], [47.72544, 28.3980799], [47.72044, 28.4118999], [47.69862, 28.4213899], [47.70462, 28.4290599], [47.69545, 28.4413799], [47.69995, 28.4581999], [47.69347, 28.4681999], [47.70528, 28.4788599], [47.68863, 28.4838599], [47.69012, 28.5041799], [47.6733, 28.5108399], [47.68263, 28.5184999], [47.66298, 28.5244999], [47.65165, 28.5621299], [47.6315, 28.5699699], [47.62117, 28.5867899], [47.59102, 28.5944499], [47.58936, 28.6264299], [47.58203, 28.6349299], [47.59019, 28.6510799], [47.57703, 28.6748999], [47.58119, 28.6953899], [47.5919377, 28.7027437], [47.5978872, 28.7567472], [47.5846975, 28.8356125], [47.5094701, 28.9344091], [47.4960415, 28.966682], [47.4651668, 28.9999169], [46.5631209, 29.1000448], [46.4245353, 29.0585661], [45.1719841, 29.1592544], [45.082735, 29.0807291], [45.0481149, 29.061744], [45.0313633, 29.0148394], [45.0414143, 28.9880368], [45.028013, 28.9511832], [45.0291298, 28.9266141], [45.0536988, 28.8685418], [45.0503485, 28.8406224], [45.0358304, 28.8138198], [45.0677289, 28.745521], [45.06069, 28.7197499], [45.0640946, 28.680332], [44.8410201, 28.0039702], [44.8303125, 27.9807705], [44.8053282, 27.9575707], [44.8053282, 27.9450786], [44.7785592, 27.9308018], [44.7018216, 28.0218162], [44.6459902, 28.0120882], [44.6504, 27.8521499], [44.6697833, 27.8342167], [44.7086833, 27.7257833], [44.8727269, 27.6259993], [44.89971, 27.6413699], [44.93983, 27.6447599], [44.99215, 27.6990099], [45.02556, 27.7020999], [45.03768, 27.6855899], [45.07085, 27.6666599], [45.10776, 27.5848999], [45.09491, 27.5468199], [45.0942, 27.4998699], [45.12902, 27.4662299], [45.12692, 27.4400699], [45.11874, 27.4328299], [45.12598, 27.3944999], [45.1671, 27.3111199], [45.25236, 27.2445399], [45.43598, 27.2179099], [45.4827, 27.2214099], [45.51423, 27.2377699], [45.54998, 27.2347299], [45.58175, 27.1985099], [45.54413, 27.1403499], [45.66865, 27.0777499], [45.69948, 27.0730699], [45.73499, 27.0557899], [45.75018, 27.0279899], [45.77727, 27.0064999], [45.81441, 27.0242499], [45.8296, 27.0910499], [45.84081, 27.1039099], [45.82049, 27.1662799], [45.84946, 27.2092699], [45.82796, 27.2351999], [45.82469, 27.2517799], [45.84385, 27.3491999], [45.83801, 27.3900799], [45.84431, 27.3984899], [45.97794, 27.4388999], [46.06531, 27.4419399], [46.5882966, 27.5294156], [46.8320651, 27.6434081], [46.9828859, 27.8047512], [47.021468, 27.8240423]]]}}]}