{"type": "FeatureCollection", "features": [{"type": "Feature", "properties": {"slug": "hamadan", "members": 1, "country": "Iran", "input_hash": "1e179ddbe708f0b2"}, "geometry": {"type": "Polygon", "coordinates": [[[48.6130794, 34.5966074], [48.6639156, 34.5891091], [48.6808619, 34.6221703], [48.6653052, 34.6649485], [48.6725283, 34.6755053], [48.7972571, 34.664669], [48.8117, 34.6549424], [48.8175334, 34.6343879], [48.871983, 34.6543921], [48.9033722, 34.6491137], [48.9297618, 34.6616195], [48.9597648, 34.6643897], [48.9964312, 34.6532825], [48.9825416, 34.6141132], [49.0011545, 34.5974473], [49.0442108, 34.6163331], [49.0619904, 34.6349478], [49.0700468, 34.6285595], [49.0753236, 34.588], [49.1069934, 34.5866104], [49.1347728, 34.6135541], [49.1350497, 34.6480043], [49.1281061, 34.6860629], [49.1050462, 34.7280092], [49.1033795, 34.7555095], [49.1492156, 34.7971742], [49.1681053, 34.8494021], [49.1631052, 34.8607875], [49.1789383, 34.8657855], [49.1875518, 34.8793991], [49.1750519, 34.9010596], [49.1758849, 34.9302345], [49.1389387, 34.9996779], [49.0614327, 35.0241237], [48.9597638, 35.0346776], [48.8533684, 35.0863457], [48.7369731, 35.0657975], [48.7158634, 35.0221837], [48.7216969, 35.0002184], [48.7147502, 34.9791187], [48.6997507, 34.9574504], [48.6755843, 34.9593988], [48.631968, 34.9899526], [48.5930786, 34.9691233], [48.4839065, 34.9424479], [48.4758502, 34.9341214], [48.4781657, 34.9068018], [48.4075146, 34.8613454], [48.3639017, 34.8143956], [48.3527922, 34.7658012], [48.3945185, 34.7555758], [48.4494613, 34.6932291], [48.4714205, 34.6835846], [48.4782772, 34.6679168], [48.4958057, 34.6572507], [48.4969147, 34.6422025], [48.5232259, 34.6110017], [48.5700233, 34.5935574], [48.6130794, 34.5966074]]]}}]}