{"type":"FeatureCollection","features":[{"type":"Feature","properties":{"slug":"hamburg","member_count":954,"matched_count":863,"unmatched":["L\u00fcchow-Dannenberg (DE-NI, type='Rural District')","Segeberg (DE-SH, type='Rural District')","Stormarn (DE-SH, type='Rural District')","Herzogtum Lauenburg (DE-SH, type='Rural District')","Ostholstein (DE-SH, type='Rural District')","Dithmarschen (DE-SH, type='Rural District')","Lurup (DE-HH, type='Quarter')","Ottensen (DE-HH, type='Quarter')","Bahrenfeld (DE-HH, type='Quarter')","Altona-Altstadt (DE-HH, type='Quarter')","Altona-Nord (DE-HH, type='Quarter')","Othmarschen (DE-HH, type='Quarter')","Rissen (DE-HH, type='Quarter')","Blankenese (DE-HH, type='Quarter')","Iserbrook (DE-HH, type='Quarter')","Gro\u00df Flottbek (DE-HH, type='Quarter')","Sternschanze (DE-HH, type='Quarter')","Nienstedten (DE-HH, type='Quarter')","Lohbr\u00fcgge (DE-HH, type='Quarter')","Neuallerm\u00f6he (\u2190 Allerm\u00f6he & Bergedorf) (DE-HH, type='Quarter')","Kirchwerder (DE-HH, type='Quarter')","Curslack (DE-HH, type='Quarter')","Billwerder (DE-HH, type='Quarter')","Neuengamme (DE-HH, type='Quarter')","Ochsenwerder (DE-HH, type='Quarter')","Altengamme (DE-HH, type='Quarter')","Allerm\u00f6he (DE-HH, type='Quarter')","Moorfleet (DE-HH, type='Quarter')","Tatenberg (DE-HH, type='Quarter')","Spadenland (DE-HH, type='Quarter')","Reitbrook (DE-HH, type='Quarter')","Eidelstedt (DE-HH, type='Quarter')","Lokstedt (DE-HH, type='Quarter')","Schnelsen (DE-HH, type='Quarter')","Stellingen (DE-HH, type='Quarter')","Harvestehude (DE-HH, type='Quarter')","Rotherbaum (DE-HH, type='Quarter')","Hoheluft-West (DE-HH, type='Quarter')","Billstedt (DE-HH, type='Quarter')","St. Pauli (DE-HH, type='Quarter')","St. Georg (DE-HH, type='Quarter')","Finkenwerder - Waltershof (DE-HH, type='Quarter')","Rothenburgsort (DE-HH, type='Quarter')","Borgfelde (DE-HH, type='Quarter')","HafenCity (DE-HH, type='Quarter')","Hammerbrook (DE-HH, type='Quarter')","Schiffsbev\u00f6lkerung - Insel Neuwerk [Seamen, Boatmen - Neuwerk Island] (DE-HH, type='Quarter')","Veddel (DE-HH, type='Quarter')","Hamburg-Altstadt [Old Town] (DE-HH, type='Quarter')","Billbrook (DE-HH, type='Quarter')","Kleiner Grasbrook - Steinwerder (DE-HH, type='Quarter')","Winterhude (DE-HH, type='Quarter')","Barmbek-Nord (DE-HH, type='Quarter')","Barmbek-S\u00fcd (DE-HH, type='Quarter')","Uhlenhorst (DE-HH, type='Quarter')","Ohlsdorf (DE-HH, type='Quarter')","Dulsberg (DE-HH, type='Quarter')","Alsterdorf (DE-HH, type='Quarter')","Fuhlsb\u00fcttel (DE-HH, type='Quarter')","Gro\u00df Borstel (DE-HH, type='Quarter')","Hoheluft-Ost (DE-HH, type='Quarter')","Neugraben-Fischbek (DE-HH, type='Quarter')","Ei\u00dfendorf (DE-HH, type='Quarter')","Heimfeld (DE-HH, type='Quarter')","Wilstorf (DE-HH, type='Quarter')","Hausbruch (DE-HH, type='Quarter')","Marmstorf (DE-HH, type='Quarter')","Neuenfelde (DE-HH, type='Quarter')","Sinstorf (DE-HH, type='Quarter')","Langenbek (DE-HH, type='Quarter')","Neuland - Gut Moor (DE-HH, type='Quarter')","Cranz (DE-HH, type='Quarter')","Francop (DE-HH, type='Quarter')","Altenwerder - Moorburg (DE-HH, type='Quarter')","Rahlstedt (DE-HH, type='Quarter')","Bramfeld (DE-HH, type='Quarter')","Farmsen-Berne (DE-HH, type='Quarter')","Jenfeld (DE-HH, type='Quarter')","Poppenb\u00fcttel (DE-HH, type='Quarter')","Sasel (DE-HH, type='Quarter')","Eilbek (DE-HH, type='Quarter')","Volksdorf (DE-HH, type='Quarter')","Steilshoop (DE-HH, type='Quarter')","Hummelsb\u00fcttel (DE-HH, type='Quarter')","Wellingsb\u00fcttel (DE-HH, type='Quarter')","Bergstedt (DE-HH, type='Quarter')","Lemsahl-Mellingstedt (DE-HH, type='Quarter')","Duvenstedt (DE-HH, type='Quarter')","Wohldorf-Ohlstedt (DE-HH, type='Quarter')","Alt-M\u00f6lln (DE-SH, type='Commune')","Neuendorf b. Elmshorn (DE-SH, type='Commune')"],"source":"Overture Maps division_area (CC-BY 4.0)"},"geometry":{"type":"MultiPolygon","coordinates":[[[[7.9444372,48.0982378],[7.937154,48.0822577],[7.9227601,48.0746029],[7.8936288,48.0802132],[7.9290296,48.1016155],[7.9444372,48.0982378]]],[[[7.9865114,48.3450679],[7.9977897,48.3267173],[7.9844651,48.3212052],[7.9779813,48.3041484],[7.950007,48.3209639],[7.9616631,48.3300241],[7.9586516,48.3399613],[7.9865114,48.3450679]]],[[[6.689076,49.3516564],[6.6578393,49.3796998],[6.6684127,49.3931224],[6.6943021,49.3815987],[6.7042422,49.3575507],[6.689076,49.3516564]]],[[[6.586007,49.9121089],[6.6098642,49.92534],[6.6174173,49.9070803],[6.5994357,49.896539],[6.586007,49.9121089]]],[[[7.9391077,50.0063479],[7.9588967,50.008892],[7.9672921,50.0028061],[7.9445656,49.9954176],[7.9284211,50.0104893],[7.9333932,50.0192008],[7.9391077,50.0063479]]],[[[6.4326768,50.0240114],[6.4324445,50.0091058],[6.4099448,50.0143966],[6.4326768,50.0240114]]],[[[7.5354964,50.0372252],[7.5252542,50.0488731],[7.5391189,50.0630417],[7.5702852,50.051345],[7.5559217,50.0390768],[7.5354964,50.0372252]]],[[[9.0771932,50.2129626],[9.0656157,50.2061064],[9.05719,50.2145171],[9.0356486,50.202032],[9.0129019,50.2085514],[9.032662,50.2266966],[9.0247884,50.2333434],[9.037842,50.2472016],[9.0576871,50.2499146],[9.0689824,50.2435879],[9.0643339,50.2366713],[9.0747878,50.2299313],[9.0771932,50.2129626]]],[[[8.4394847,50.4706953],[8.4257148,50.471392],[8.4126621,50.4851172],[8.4460684,50.4932998],[8.4539379,50.4850096],[8.4429015,50.476859],[8.4453728,50.4687955],[8.4365,50.4664636],[8.4394847,50.4706953]]],[[[6.6370659,50.8918203],[6.6175722,50.8945812],[6.6213177,50.9027765],[6.5952746,50.9054549],[6.5508208,50.8905722],[6.5193434,50.8956186],[6.5245347,50.9318016],[6.5033688,50.9309277],[6.4788124,50.9626701],[6.499831,50.9734438],[6.5611017,50.9729633],[6.5757445,50.9581601],[6.6062031,50.9476595],[6.6550461,50.9159819],[6.6370659,50.8918203]]],[[[8.8959261,50.9525298],[8.9376916,50.9509251],[8.940272,50.9401492],[8.8970729,50.9379234],[8.9074885,50.9487646],[8.8959261,50.9525298]]],[[[7.5691576,51.5364667],[7.6326038,51.5496658],[7.6287533,51.541645],[7.638157,51.5277026],[7.6328268,51.5191655],[7.5873022,51.505815],[7.5236703,51.5057158],[7.52047,51.5155825],[7.5108067,51.5120501],[7.5056224,51.5266508],[7.5630527,51.548259],[7.5691576,51.5364667]]],[[[6.0302248,51.7250101],[5.9941968,51.7383094],[5.9530286,51.741087],[5.9519882,51.7489494],[5.992067,51.7702459],[5.9823598,51.773697],[5.9902267,51.7834013],[5.9745484,51.785062],[5.9790653,51.7976507],[5.9465699,51.8134799],[5.9581508,51.8169313],[5.9450447,51.823544],[5.9629783,51.836914],[6.0022569,51.8324905],[6.0553047,51.8523541],[6.0514237,51.8566612],[6.0634856,51.8654512],[6.1010977,51.8490107],[6.2416582,51.8242472],[6.2357315,51.8059793],[6.244461,51.7958229],[6.234844,51.800503],[6.2319003,51.8105296],[6.2177485,51.8111331],[6.2011239,51.7889372],[6.180386,51.7890458],[6.1608716,51.7668236],[6.1249075,51.7689548],[6.1156615,51.7419192],[6.1055267,51.744503],[6.0971525,51.7318724],[6.0462674,51.7447022],[6.0302248,51.7250101]]],[[[8.9136413,52.6310429],[8.9089763,52.6624904],[8.918746,52.6636566],[8.9266064,52.687773],[8.9688472,52.6774988],[8.9674588,52.6892975],[8.9839044,52.6955259],[9.0198375,52.6815586],[9.0197847,52.6648201],[9.0106468,52.663993],[9.004235,52.6517209],[8.9847787,52.6575002],[8.9712736,52.6440529],[8.9673949,52.6505862],[8.9357597,52.6390542],[8.9330163,52.6308146],[8.9136413,52.6310429]]],[[[8.899846,52.763894],[8.9008462,52.7585149],[8.8949256,52.7627446],[8.899846,52.763894]]],[[[9.0480736,52.7883168],[9.0636074,52.7747134],[9.0641813,52.7626271],[9.0479855,52.7610792],[9.05772,52.7534162],[9.0580655,52.7398677],[9.0323916,52.7172685],[9.0101398,52.7176538],[9.0069225,52.7329393],[8.9944006,52.7394852],[8.9477925,52.7260648],[8.9045726,52.748454],[8.9335786,52.7639109],[8.9738095,52.7699427],[8.9686142,52.7752724],[8.977791,52.7865646],[9.0200957,52.8004024],[9.0134019,52.8047014],[9.0193211,52.8067202],[9.0420067,52.8063226],[9.0364615,52.8000343],[9.0561968,52.7917701],[9.0480736,52.7883168]]],[[[8.6894925,52.7810288],[8.6638733,52.8040732],[8.679295,52.8048642],[8.6789029,52.8146791],[8.699882,52.812465],[8.7031535,52.7951798],[8.6894925,52.7810288]]],[[[7.3907002,53.0127682],[7.3834859,53.0048328],[7.3916277,53.0016579],[7.3894594,52.989349],[7.3727813,52.9836894],[7.3192642,52.9866112],[7.2922537,52.9732012],[7.2011491,52.9828267],[7.2173595,53.0071125],[7.2310079,53.0070048],[7.2364231,53.0162714],[7.2912963,53.0200725],[7.2988669,53.0315959],[7.3187938,53.0295191],[7.3177803,53.0233413],[7.3016737,53.0234893],[7.3094088,53.015667],[7.3203102,53.023942],[7.3315641,53.0202116],[7.3276859,53.0151277],[7.3614023,53.018886],[7.3907002,53.0127682]]],[[[9.0347654,53.1848685],[9.0398876,53.1862764],[9.0292201,53.1960842],[9.0254088,53.2473029],[8.99136,53.2722354],[9.0124392,53.3002383],[8.9896303,53.3073586],[8.996808,53.3235718],[8.9725106,53.3376821],[8.9621413,53.3330126],[8.9409825,53.3421605],[8.9468475,53.3534942],[8.9379038,53.3590826],[8.9399251,53.3660836],[8.9070315,53.3741158],[8.9115004,53.3808792],[8.9019239,53.3844472],[8.9519954,53.407484],[8.9274188,53.4348342],[8.9072227,53.4384219],[8.9506407,53.4583047],[8.9663031,53.4554441],[8.9730343,53.469205],[8.9564304,53.4725449],[8.9545688,53.4920663],[8.9655844,53.5010913],[8.8964444,53.517537],[8.9327631,53.5365335],[8.9638267,53.5297499],[8.9819903,53.5362792],[8.9861593,53.5393522],[8.9727901,53.5485309],[8.9787938,53.5570636],[9.0266693,53.5550283],[9.0602989,53.572896],[9.1154161,53.5552033],[9.1388501,53.5938997],[9.1556289,53.5846458],[9.1589686,53.55558],[9.1855767,53.5315097],[9.2041448,53.5320917],[9.2110827,53.5409768],[9.2500417,53.54104],[9.2596184,53.547359],[9.2550928,53.5592207],[9.2215443,53.5697792],[9.2301392,53.5730934],[9.2244561,53.5870122],[9.2330331,53.6027338],[9.2200953,53.6036471],[9.2124569,53.6060996],[9.2127652,53.6089446],[9.2294522,53.6328814],[9.2573312,53.6291673],[9.2526011,53.6401954],[9.2780875,53.6435857],[9.271678,53.6545995],[9.2791858,53.6685615],[9.2576462,53.6769552],[9.248695,53.675568],[9.2472193,53.6674553],[9.2075592,53.6815464],[9.2985577,53.7297202],[9.2755879,53.7426885],[9.2615966,53.7681401],[9.2234127,53.7556788],[9.1854341,53.7723908],[9.1747043,53.7867775],[9.1681142,53.7799564],[9.1464369,53.7858226],[9.1419948,53.8007608],[9.1238864,53.7975416],[9.1200071,53.8115744],[9.1164351,53.8034683],[9.1022599,53.8006761],[9.0998682,53.8083971],[9.0657854,53.805254],[9.0657186,53.811837],[9.0402436,53.812633],[9.0132301,53.8402363],[9.0910496,53.8620238],[9.2752368,53.8572753],[9.2726932,53.8676653],[9.1997502,53.8800602],[9.0224593,53.8794795],[9.0184755,53.9002087],[8.9745804,53.8921478],[8.9067578,53.9383299],[8.8973807,53.9508329],[8.9019326,53.9582233],[8.8829966,53.9713594],[8.9004641,53.9848889],[8.8633548,53.9954341],[8.8729744,53.9989438],[8.8621374,53.9958737],[8.8371752,54.0303117],[8.8483326,54.0388042],[8.8820608,54.042989],[8.9260118,54.0284946],[8.9630699,54.0347026],[8.9797532,54.0432969],[8.9858383,54.0601716],[8.9744491,54.0648895],[8.979712,54.065712],[8.9811081,54.066106],[8.9559836,54.0643709],[8.9800238,54.0690956],[8.9487619,54.0914696],[8.9252438,54.1323425],[8.8948236,54.1332884],[8.8583787,54.1191468],[8.8268457,54.1439212],[8.8074897,54.1761719],[8.8167666,54.202328],[8.8402818,54.2205897],[8.8356554,54.2403667],[8.8446318,54.2564241],[8.8416816,54.2659728],[8.8979999,54.2614139],[8.9033154,54.2860692],[8.9454018,54.31262],[8.9737842,54.3188726],[8.994591,54.3384461],[8.9984353,54.3328766],[9.0637078,54.3375059],[9.0639669,54.3478772],[9.0451899,54.3517342],[9.0523292,54.3664875],[9.0796119,54.3623941],[9.0902077,54.37032],[9.1223181,54.3521121],[9.1143706,54.3467664],[9.1182808,54.3397166],[9.1087006,54.3375808],[9.1201074,54.3297265],[9.1180204,54.296432],[9.111468,54.2976825],[9.118974,54.2903789],[9.1472134,54.2874961],[9.1546125,54.3186766],[9.1728025,54.3176214],[9.1619561,54.3270623],[9.1703697,54.3331887],[9.1955677,54.3318269],[9.1924174,54.3155687],[9.2110743,54.3262576],[9.2255011,54.3225151],[9.2298852,54.3383583],[9.2204206,54.3465173],[9.2606442,54.3439388],[9.2679461,54.3395783],[9.2617412,54.3316252],[9.2779167,54.324625],[9.2710629,54.3165879],[9.2745254,54.3084048],[9.2600088,54.3048762],[9.2734666,54.3017176],[9.2675077,54.2960682],[9.2837381,54.2904029],[9.2875977,54.2752626],[9.3050309,54.2715201],[9.3322075,54.2833609],[9.3614399,54.2797104],[9.3627905,54.2916771],[9.3765613,54.2941078],[9.4033322,54.2815643],[9.4049771,54.2650812],[9.4323738,54.2581927],[9.4443681,54.241648],[9.433117,54.2371085],[9.4347648,54.2259387],[9.4429955,54.2231841],[9.428689,54.2093716],[9.4404553,54.1941963],[9.4268835,54.1885579],[9.4399495,54.1829886],[9.4417675,54.1732667],[9.4090527,54.1596621],[9.3842186,54.1591391],[9.3042966,54.1256465],[9.3139029,54.1187051],[9.3112392,54.0633826],[9.405572,54.070505],[9.4165728,54.070052],[9.4195102,54.0622769],[9.4268978,54.063996],[9.4201118,54.0712815],[9.4389669,54.0700234],[9.4373289,54.077851],[9.4508367,54.0799437],[9.4535904,54.0876115],[9.493147,54.0850138],[9.5262542,54.0997073],[9.5238422,54.0949148],[9.5353367,54.0912643],[9.5703364,54.0924819],[9.5840262,54.0875552],[9.5810001,54.0812456],[9.5924197,54.0691649],[9.6074783,54.0680474],[9.6016145,54.062771],[9.6050742,54.0488179],[9.6576361,54.0469822],[9.6807666,54.0633842],[9.6824593,54.0505806],[9.7071727,54.0488828],[9.7131238,54.0368373],[9.6891006,54.0219546],[9.725718,54.0092333],[9.7278328,53.9875235],[9.6755116,53.980986],[9.6894763,53.9725606],[9.7367784,53.9703988],[9.7482838,53.9790656],[9.7397653,53.9816356],[9.7558266,53.9870456],[9.7497094,54.0041386],[9.730894,54.0128923],[9.7432571,54.016644],[9.749325,54.028287],[9.7637993,54.0295273],[9.7434468,54.0346608],[9.7412646,54.0445607],[9.7529408,54.0515859],[9.8076689,54.0496292],[9.8195175,54.0412727],[9.8138214,54.0228437],[9.8561794,54.0195603],[9.8776816,54.0086792],[9.940878,54.0178717],[9.9570006,54.0490606],[9.9267532,54.0526952],[9.9351977,54.0762314],[9.9256406,54.0945869],[9.928843,54.102907],[9.9436406,54.1045276],[9.9611608,54.1336031],[9.9787152,54.1352908],[9.9804215,54.1476791],[9.9898061,54.1495523],[10.0231207,54.1402641],[10.0163107,54.1334396],[10.0362316,54.1274654],[10.0193674,54.118632],[10.0266436,54.0913564],[10.0163184,54.0800457],[10.0358823,54.0697978],[10.0259069,54.0585562],[10.1589417,54.0553071],[10.2488159,54.0834864],[10.2387515,54.0855123],[10.2404299,54.0911878],[10.255563,54.0873886],[10.2856663,54.1000601],[10.3545934,54.1076062],[10.3596729,54.0770243],[10.3292179,54.0512396],[10.3803177,54.0322946],[10.3938195,54.0181693],[10.4225687,54.0340795],[10.4261046,54.0252851],[10.4921009,54.0207457],[10.5118885,54.0285051],[10.5105807,54.0433089],[10.4891163,54.0488562],[10.4853747,54.058215],[10.4538103,54.060029],[10.4430189,54.0724656],[10.4168349,54.0821814],[10.4277721,54.0928202],[10.4223756,54.1156516],[10.4384509,54.1262865],[10.4328919,54.1183404],[10.4577069,54.1177226],[10.4789298,54.1044442],[10.4817071,54.1186576],[10.4935607,54.1226192],[10.5382661,54.1230744],[10.5411113,54.1337601],[10.5155194,54.1398824],[10.5039171,54.1599161],[10.4891253,54.1588571],[10.4951182,54.1676842],[10.4856948,54.1648574],[10.4829391,54.1737414],[10.494835,54.1844953],[10.5276098,54.1871582],[10.5406365,54.2067962],[10.5375917,54.2185947],[10.5495448,54.2183848],[10.5403061,54.2279866],[10.609799,54.2345713],[10.6067676,54.2239924],[10.623291,54.2262743],[10.6644187,54.2122131],[10.6765571,54.1912515],[10.7159655,54.2141931],[10.6990551,54.2185186],[10.6989989,54.2317251],[10.7213001,54.2472355],[10.7153548,54.2584092],[10.7293219,54.2696115],[10.7075963,54.2817189],[10.7177548,54.2977917],[10.7138402,54.3057625],[10.7857758,54.3116556],[10.8735351,54.3605919],[10.9312013,54.3819405],[11.0223665,54.3804795],[11.0251449,54.3678227],[11.0779679,54.3764044],[11.0899738,54.3912391],[11.1089036,54.3969957],[11.1098121,54.3889902],[11.1186277,54.3950826],[11.1287146,54.3902283],[11.1271355,54.3761255],[11.085756,54.3560116],[11.0785935,54.3417032],[11.0740792,54.3510869],[11.0475728,54.3552668],[11.0323649,54.3447214],[10.9705708,54.3324568],[10.9779866,54.3141392],[11.0213132,54.3088843],[11.0293979,54.2943418],[11.0770011,54.3027222],[11.0851677,54.2701599],[11.0141068,54.2575341],[11.0174968,54.2472062],[10.992298,54.2391863],[11.0254424,54.2253728],[11.0399593,54.2068045],[11.0535126,54.215496],[11.0559702,54.2369327],[11.0656931,54.2318043],[11.0725703,54.2444161],[11.0845469,54.2467006],[11.0948736,54.1969202],[10.9449834,54.1328569],[10.8781929,54.0879863],[10.8023894,54.0911804],[10.7923173,54.0752545],[10.75087,54.0468501],[10.7575951,54.0451696],[10.7542468,54.0328118],[10.7688701,54.0271646],[10.7598407,54.0248479],[10.7635562,54.0195643],[10.789196,53.996385],[10.8607103,53.9935365],[10.8798636,53.9847881],[10.8826548,53.9695656],[10.9096831,53.9475114],[10.895374,53.9343558],[10.898167,53.9224584],[10.9684554,53.9093065],[10.9114031,53.8973074],[10.9016085,53.9032501],[10.9115627,53.9146081],[10.8818162,53.9240696],[10.8484706,53.9049727],[10.8474159,53.8967786],[10.8192274,53.8935098],[10.8004927,53.8762969],[10.7714492,53.8732808],[10.7479903,53.8511092],[10.7540104,53.8489235],[10.7477806,53.8338481],[10.7621845,53.8223775],[10.7733749,53.7923761],[10.7584895,53.7473673],[10.8077912,53.7381933],[10.8116844,53.7196853],[10.8525062,53.7057771],[10.8507376,53.7002568],[10.8874274,53.7056483],[10.9225009,53.6993057],[10.9259913,53.6920172],[10.9183017,53.6895993],[10.9417298,53.6846055],[10.9387504,53.6659901],[10.954731,53.658688],[10.9523116,53.6468933],[10.9272247,53.6271436],[10.9349371,53.637368],[10.900332,53.6497031],[10.8897934,53.6623569],[10.87215,53.6636367],[10.8740542,53.6687997],[10.8390975,53.6809416],[10.8135447,53.6703656],[10.7923317,53.675032],[10.7977225,53.664865],[10.7820049,53.6660089],[10.7892337,53.6593526],[10.8656494,53.6418598],[10.8684484,53.6370783],[10.8590341,53.6400435],[10.864831,53.63501],[10.8314647,53.6179372],[10.8434061,53.5946716],[10.8650251,53.5931454],[10.8665413,53.5858906],[10.8903057,53.5906104],[10.8949205,53.5765771],[10.9112457,53.5720358],[10.8622794,53.5645447],[10.8236327,53.5751434],[10.8320757,53.5426764],[10.8134133,53.5209587],[10.8239007,53.5136937],[10.7863257,53.5102848],[10.7774504,53.4950374],[10.7558889,53.4833346],[10.7019504,53.4783179],[10.6930282,53.4548915],[10.6518107,53.4613492],[10.6322142,53.4549504],[10.6179561,53.4251034],[10.6168026,53.3843925],[10.5991362,53.377682],[10.5942589,53.3659923],[10.7015375,53.3699579],[10.7286995,53.3562252],[10.7375758,53.3420629],[10.7635386,53.3389446],[10.7581821,53.3304615],[10.8359219,53.3050851],[10.869909,53.3174977],[10.8660347,53.3269961],[10.8876051,53.3242523],[10.8803013,53.3355278],[10.9091139,53.3374099],[10.9194027,53.3482236],[10.9548028,53.333423],[10.9592717,53.3385756],[10.9881682,53.3334854],[10.9825752,53.3274487],[10.9989662,53.3208348],[11.0094669,53.2814236],[11.0289578,53.2771616],[11.079933,53.2205537],[11.1388337,53.2023797],[11.1449027,53.1977345],[11.1368112,53.1919737],[11.1926597,53.1821415],[11.189819,53.1665279],[11.1722947,53.1567117],[11.1832872,53.1373556],[11.2300472,53.1419324],[11.2334632,53.134484],[11.2123883,53.1228385],[11.2360177,53.1325666],[11.2163503,53.1220561],[11.2216307,53.114887],[11.2155888,53.09292],[11.2360432,53.0862916],[11.2256145,53.0734259],[11.2436981,53.0655785],[11.2499579,53.0453028],[11.2661091,53.0499457],[11.2764126,53.0377069],[11.3127529,53.0449955],[11.3266891,53.0622326],[11.3511318,53.0544698],[11.4431418,53.0783823],[11.4782287,53.0652184],[11.4522915,53.033281],[11.4275548,53.0363094],[11.434314,53.03888],[11.4277326,53.0476591],[11.4061031,53.0429626],[11.4060342,53.0367179],[11.4204274,53.0340303],[11.4082687,53.0206642],[11.3678819,53.0132265],[11.3338398,53.0313973],[11.3233461,53.0305907],[11.3170624,53.0200689],[11.3432227,53.0158799],[11.3311699,53.0045095],[11.3700947,52.9938845],[11.3737467,52.9801355],[11.3968541,52.9852166],[11.4418028,52.9775973],[11.4267747,52.967491],[11.4608891,52.9411847],[11.407765,52.9042183],[11.3847861,52.9037604],[11.2954458,52.8748502],[11.2912708,52.8889414],[11.2436976,52.8786251],[11.2205275,52.8976443],[11.1547638,52.9064202],[11.137512,52.8977722],[11.0971872,52.897796],[11.098728,52.9126916],[11.0391457,52.9134005],[11.0316559,52.9289502],[11.0466137,52.9364166],[11.0702111,52.9174859],[11.0813534,52.9198714],[11.0464657,52.9454001],[11.0635018,52.9490661],[11.0538975,52.9565681],[11.0342666,52.9536086],[11.0373571,52.9675192],[11.0238857,52.9712614],[11.0134513,52.9687021],[11.010252,52.9510577],[10.9954134,52.936598],[11.0038979,52.9228579],[11.0156513,52.920696],[11.0127879,52.9097612],[10.9961769,52.9096946],[10.9853862,52.8817699],[10.9677269,52.8793584],[10.9421043,52.853858],[10.8975005,52.856186],[10.8847635,52.845832],[10.8660104,52.8557468],[10.7647343,52.8420243],[10.7718178,52.8339036],[10.7571236,52.8198188],[10.7592573,52.7958001],[10.6934978,52.7816749],[10.6670104,52.7695572],[10.6705848,52.7643014],[10.6346381,52.7723214],[10.5938237,52.7946038],[10.5798007,52.8149787],[10.5520606,52.8324528],[10.5235773,52.8323148],[10.4587763,52.8090675],[10.4410406,52.8160235],[10.4147346,52.80494],[10.3795254,52.8165623],[10.3644031,52.8402019],[10.3183811,52.8372724],[10.3130094,52.8433045],[10.3222243,52.8469332],[10.3182554,52.8617797],[10.3021058,52.8662928],[10.310732,52.8753294],[10.2982157,52.868633],[10.2830336,52.8777469],[10.2711339,52.9043729],[10.2469429,52.9320286],[10.2318626,52.9382467],[10.2229396,52.9541753],[10.2163196,53.0075033],[10.1572533,53.0139557],[10.15516,53.0272017],[10.2182915,53.0241141],[10.2134564,53.0410202],[10.2201879,53.050511],[10.2118375,53.0763961],[10.2730653,53.0931677],[10.2869793,53.1103843],[10.2728231,53.1193655],[10.2450487,53.1070249],[10.2115085,53.1141236],[10.1815252,53.1035307],[10.1435016,53.1100927],[10.1179034,53.1055604],[10.0762285,53.1262464],[10.0487088,53.1505323],[10.032047,53.150508],[10.0255902,53.1582195],[9.9970071,53.159287],[10.0008552,53.1735706],[9.9848865,53.1793115],[9.9132257,53.1738009],[9.8875569,53.1952343],[9.8572151,53.202265],[9.8512135,53.2102394],[9.7986559,53.1869189],[9.755698,53.1975634],[9.7273109,53.2163824],[9.6822276,53.2194717],[9.6818957,53.2127428],[9.6959686,53.2080504],[9.6945621,53.1995357],[9.7112869,53.1971566],[9.7066725,53.187977],[9.7194795,53.1842294],[9.7178534,53.1790163],[9.7375524,53.1672402],[9.758339,53.1665927],[9.7230617,53.1566726],[9.6720042,53.1611471],[9.6734159,53.1366853],[9.6459771,53.1441124],[9.6513373,53.1366892],[9.6417459,53.1265113],[9.6320524,53.1285711],[9.6252892,53.1148813],[9.6461377,53.0898945],[9.6382011,53.0731363],[9.6231536,53.0642137],[9.626963,53.0601208],[9.6082188,53.0543776],[9.6177545,53.0468302],[9.6149132,53.0387302],[9.6744961,53.0209204],[9.6799713,53.0134782],[9.6539805,52.99651],[9.6800282,52.9899072],[9.6598289,52.982326],[9.6782498,52.9814669],[9.6287113,52.9547687],[9.6039377,52.9552183],[9.6039798,52.9424589],[9.5858207,52.9251711],[9.560936,52.9249265],[9.5530394,52.9464485],[9.5344093,52.951225],[9.5120621,52.9485912],[9.5041131,52.9354781],[9.468851,52.9304405],[9.4531472,52.9169651],[9.4566338,52.9305582],[9.4441667,52.9489743],[9.4639361,52.9587782],[9.4565472,52.9654004],[9.4634954,52.9694909],[9.4531947,52.9745741],[9.4575713,52.9893414],[9.437247,53.0029708],[9.3996487,52.9964009],[9.3731881,52.9822949],[9.3343195,52.9889313],[9.3502137,53.0040083],[9.3403779,53.0147746],[9.3255523,53.0070661],[9.3215052,53.0159537],[9.336705,53.0236764],[9.3457566,53.0449559],[9.3638882,53.0528154],[9.3268712,53.071736],[9.3270478,53.0888307],[9.2600001,53.0824759],[9.2737584,53.0628994],[9.2696859,53.0420813],[9.258969,53.031366],[9.222072,53.0425875],[9.2044638,53.0358532],[9.188023,53.0475775],[9.1858619,53.0635975],[9.1654269,53.0749552],[9.1526831,53.0997488],[9.1706127,53.1001109],[9.1684378,53.1079295],[9.1827386,53.1176269],[9.1732248,53.1266301],[9.1790708,53.1391555],[9.1937388,53.147347],[9.1871872,53.1600447],[9.165963,53.1639299],[9.1952883,53.1696685],[9.1778445,53.1797529],[9.1824505,53.183144],[9.1683525,53.1801056],[9.1724764,53.1717153],[9.132363,53.1675045],[9.1317806,53.1575709],[9.1091077,53.1441006],[9.071352,53.1511544],[9.0610294,53.1711741],[9.0347654,53.1848685]],[[10.1067864,53.4265871],[10.0877364,53.4072588],[10.0753751,53.4062873],[10.0686894,53.3859736],[10.0734591,53.3699594],[10.0566757,53.3631035],[10.1021081,53.3412449],[10.1735848,53.3619776],[10.1203162,53.3884432],[10.1466204,53.4080414],[10.1444382,53.4167599],[10.1067864,53.4265871]],[[10.0954309,53.3250951],[10.0675571,53.3167401],[10.0474506,53.3260857],[10.0556727,53.3139205],[10.0284554,53.3119755],[10.013843,53.3004914],[10.0204528,53.2912722],[10.0062493,53.2795042],[9.9974518,53.2847376],[9.9911259,53.3079708],[9.9799408,53.3086272],[9.9625955,53.3015061],[9.9479409,53.2707062],[9.9132773,53.283446],[9.8928038,53.2653526],[9.9476449,53.225933],[9.9493065,53.214022],[10.0201737,53.2148082],[10.0569,53.2323946],[10.0502584,53.2607666],[10.0803887,53.2831692],[10.0732648,53.3053236],[10.1025915,53.3137126],[10.0919489,53.3196807],[10.0954309,53.3250951]],[[9.2811732,54.0128659],[9.2551081,54.0122347],[9.241249,53.9971275],[9.2061656,53.9977656],[9.2053309,54.0049012],[9.2251142,54.0144725],[9.2057111,54.0184473],[9.1902667,54.0064217],[9.1647436,54.0102785],[9.1600199,54.0049192],[9.1667227,53.9798468],[9.1860628,53.983584],[9.1843039,53.9922592],[9.194893,53.9901124],[9.2240868,53.9712491],[9.2223621,53.9607645],[9.2133701,53.9599884],[9.2206671,53.954171],[9.2433091,53.9534587],[9.2968539,53.9897727],[9.2984407,54.0023912],[9.2811732,54.0128659]],[[9.5506291,53.7613973],[9.5380034,53.7414593],[9.5279831,53.7444173],[9.4859526,53.7077014],[9.5837273,53.7220028],[9.5634744,53.7553594],[9.5506291,53.7613973]],[[9.32475,53.2819094],[9.3472272,53.2587708],[9.3330008,53.2378329],[9.3173746,53.2327983],[9.3610767,53.2097569],[9.3998452,53.2191715],[9.4408632,53.2466724],[9.4315014,53.2520758],[9.436823,53.2574937],[9.4323112,53.2837534],[9.4212967,53.2918193],[9.3927575,53.281188],[9.3501531,53.2915691],[9.32475,53.2819094]],[[9.1125658,54.1092427],[9.0978709,54.1015667],[9.1054014,54.0897078],[9.0959835,54.0888744],[9.1258692,54.0831394],[9.1291596,54.0648461],[9.1465296,54.0666431],[9.16359,54.0805248],[9.1186791,54.0952218],[9.1234026,54.0975796],[9.108282,54.1013459],[9.1125658,54.1092427]],[[8.8970003,54.2289042],[8.8870455,54.2274319],[8.8696769,54.2094337],[8.9056013,54.2064908],[8.9277386,54.2305264],[8.9054918,54.2321577],[8.9041146,54.2443616],[8.8888732,54.2360187],[8.8970003,54.2289042]],[[8.9489527,54.2378044],[8.9961339,54.2235555],[9.0166019,54.2051136],[9.0513195,54.2104561],[9.0476651,54.2369089],[9.0045937,54.2609751],[8.9580498,54.2550395],[8.9510262,54.2454542],[8.9599617,54.2439314],[8.9489527,54.2378044]],[[9.0198464,54.3079929],[9.0684721,54.311255],[9.0643654,54.3247888],[9.0507054,54.3197573],[9.0243698,54.3252592],[9.0074662,54.3165978],[9.0198464,54.3079929]],[[9.1692479,54.2437817],[9.2022644,54.2340366],[9.2329042,54.2566074],[9.2011174,54.2695737],[9.1604696,54.2658869],[9.1692479,54.2437817]],[[9.5748693,53.8476201],[9.5930262,53.8247835],[9.5811874,53.8077463],[9.5628845,53.8069101],[9.5845893,53.791468],[9.6212161,53.7874896],[9.6336822,53.7708837],[9.6599862,53.7985698],[9.6775759,53.8458955],[9.6686791,53.8563853],[9.656688,53.8563012],[9.6480766,53.8736024],[9.6329622,53.8713734],[9.6234939,53.8591318],[9.5748693,53.8476201]],[[9.707448,53.8789528],[9.7409574,53.8468588],[9.7940373,53.8599319],[9.763239,53.8729068],[9.7508087,53.8929185],[9.7134147,53.8908708],[9.707448,53.8789528]],[[9.7327579,53.7571292],[9.7657294,53.7388239],[9.7813356,53.7380731],[9.7985709,53.750373],[9.7906011,53.7605914],[9.8449288,53.7836233],[9.8287157,53.7901538],[9.8318937,53.7989513],[9.8620489,53.8231582],[9.8511344,53.8303871],[9.8420802,53.8254865],[9.8448859,53.8170635],[9.8314149,53.8254255],[9.8268575,53.8057196],[9.7978642,53.8009973],[9.7881045,53.7910673],[9.7945395,53.7879311],[9.7899086,53.7824531],[9.766381,53.7740211],[9.7696514,53.7643505],[9.7327579,53.7571292]],[[9.8264301,53.5294518],[9.7655587,53.5410972],[9.7698734,53.5295292],[9.7812903,53.5186423],[9.7710683,53.5218512],[9.7635785,53.5082559],[9.7846248,53.5000117],[9.7819927,53.4923176],[9.8027631,53.4938403],[9.7998062,53.469426],[9.8618312,53.4296174],[9.8330976,53.418148],[9.843316,53.4062398],[9.8044114,53.4027895],[9.8241636,53.3936553],[9.8177821,53.3760459],[9.8400449,53.3690432],[9.8822552,53.3765717],[9.9022321,53.3671298],[9.8946954,53.3548866],[9.9132335,53.352109],[9.9116465,53.3403328],[9.9303073,53.3347267],[9.9581552,53.3423933],[9.9475955,53.3477927],[9.9559423,53.3562822],[9.9491617,53.3795813],[9.9214907,53.3840264],[9.9483799,53.3985123],[9.9415532,53.3985492],[9.9435288,53.4131051],[9.9252349,53.4193084],[9.9421349,53.4210198],[9.9438393,53.4294535],[9.9833604,53.4146162],[9.9959028,53.4258765],[10.0292108,53.4352988],[10.0146452,53.4420182],[10.022244,53.4475535],[10.0491847,53.449846],[10.0419722,53.4565508],[10.0516158,53.4639106],[10.037178,53.472365],[10.0000209,53.4727318],[9.9618177,53.483676],[9.941715,53.5033378],[9.9388148,53.5217156],[9.9088133,53.5132675],[9.8421967,53.515664],[9.8264301,53.5294518]],[[9.7072916,53.337588],[9.6893667,53.3288012],[9.6889877,53.2926503],[9.7349396,53.3061875],[9.7072916,53.337588]],[[9.6460907,53.2922226],[9.6670694,53.2959679],[9.6709081,53.3020572],[9.652698,53.2986278],[9.6460907,53.2922226]],[[9.6337955,53.2845821],[9.6535242,53.2803282],[9.6591917,53.2868374],[9.6787691,53.2830207],[9.6696053,53.2903963],[9.6337955,53.2845821]],[[9.5775445,54.0216301],[9.4963582,54.0265951],[9.4827906,54.0104716],[9.4981738,53.995868],[9.524439,54.0055376],[9.5836279,54.0035463],[9.5888839,54.0109507],[9.5775445,54.0216301]],[[9.4267666,53.9361717],[9.4787166,53.950036],[9.4717831,53.9514239],[9.4803081,53.9615401],[9.4622881,53.9728682],[9.4329479,53.9642012],[9.4036936,53.9779521],[9.3722361,53.969092],[9.3594126,53.9738833],[9.3623282,53.968771],[9.3997561,53.965876],[9.4166738,53.951048],[9.4326698,53.9540493],[9.4170068,53.944046],[9.4267666,53.9361717]],[[9.4242182,54.0508705],[9.4567965,54.0452087],[9.4718756,54.0358249],[9.4660739,54.0324215],[9.4776412,54.0325415],[9.5002998,54.0530544],[9.4791293,54.0695022],[9.483348,54.0649233],[9.468657,54.0584383],[9.4280234,54.0579943],[9.4242182,54.0508705]],[[9.5933098,53.5147936],[9.6295291,53.5092584],[9.6529311,53.5334013],[9.6130602,53.5385469],[9.5933098,53.5147936]],[[9.8597771,53.7108125],[9.829224,53.677938],[9.8196605,53.673442],[9.8458333,53.6630625],[9.879819,53.6772958],[9.8785849,53.6902884],[9.8886797,53.6955375],[9.8849782,53.703627],[9.8597771,53.7108125]],[[9.8395689,53.9319354],[9.8667431,53.9431882],[9.8238086,53.9588298],[9.8033153,53.9820258],[9.7772821,53.9812049],[9.7872375,53.9637377],[9.8120929,53.9573207],[9.8078622,53.9383977],[9.8395689,53.9319354]],[[10.009358,53.8591783],[10.0160566,53.8573635],[10.0162764,53.8591242],[10.009358,53.8591783]],[[10.435851,53.7938377],[10.4307746,53.7923043],[10.4358872,53.7875895],[10.4244003,53.7872096],[10.4317264,53.771598],[10.4192085,53.7726549],[10.4144462,53.7669322],[10.4443875,53.7536055],[10.4734438,53.7669952],[10.4705896,53.7815332],[10.4811058,53.7931732],[10.4494765,53.8040912],[10.430156,53.794538],[10.435851,53.7938377]],[[10.4469622,53.7465333],[10.4374628,53.7389651],[10.3970042,53.7375041],[10.4002548,53.7286541],[10.4093923,53.7335066],[10.4235692,53.7253086],[10.4608413,53.7287016],[10.4601403,53.7179373],[10.4830937,53.7101368],[10.4834304,53.6970764],[10.5043498,53.7032868],[10.4975443,53.714426],[10.5038823,53.7214168],[10.5254189,53.72053],[10.5360893,53.7326454],[10.5063899,53.7357538],[10.5078517,53.742897],[10.4911276,53.7567548],[10.4758967,53.7498284],[10.482178,53.743032],[10.4765616,53.7409719],[10.4469622,53.7465333]],[[10.4359466,53.7008674],[10.4100087,53.7022641],[10.4142091,53.6929212],[10.4032602,53.6731534],[10.4334287,53.6572733],[10.4346366,53.6461646],[10.4556905,53.647534],[10.4458288,53.6591431],[10.4597604,53.658233],[10.4678944,53.668731],[10.4483097,53.6704741],[10.4648705,53.677445],[10.4359466,53.7008674]],[[10.5798393,53.5018764],[10.5756873,53.4917829],[10.5974355,53.4808387],[10.576718,53.4681363],[10.5852114,53.4655181],[10.6166791,53.4709676],[10.6346995,53.4654118],[10.6797774,53.4963859],[10.6382911,53.4925332],[10.6271129,53.5000987],[10.5798393,53.5018764]],[[10.2412315,53.8191391],[10.2559392,53.8149117],[10.2473098,53.8039638],[10.2618056,53.7970747],[10.2627226,53.7872938],[10.2972251,53.7976709],[10.299403,53.8144449],[10.2794607,53.8160413],[10.2873492,53.8212454],[10.2768708,53.8285417],[10.2412315,53.8191391]],[[10.2743817,53.7764376],[10.2296139,53.7820335],[10.2382183,53.7763436],[10.2338789,53.7697447],[10.2431433,53.7678768],[10.236904,53.7624496],[10.2569604,53.7519375],[10.2528998,53.747711],[10.2953922,53.7459218],[10.315997,53.7610007],[10.2960997,53.7825414],[10.2743817,53.7764376]],[[10.2761058,53.1877092],[10.1843076,53.1814857],[10.187574,53.1639477],[10.1725099,53.1464834],[10.1780995,53.1360331],[10.197411,53.1322341],[10.2154923,53.1452927],[10.2692363,53.1427072],[10.2715961,53.160698],[10.2852139,53.1765608],[10.2761058,53.1877092]],[[10.0343376,53.1535175],[10.0351749,53.1528266],[10.035236,53.1534053],[10.0343376,53.1535175]],[[10.2338267,53.305309],[10.235259,53.3075652],[10.2325348,53.3069079],[10.2338267,53.305309]],[[10.3927757,53.4795929],[10.3931076,53.4562958],[10.4032092,53.4548832],[10.4366264,53.4710317],[10.4065323,53.4852292],[10.3927757,53.4795929]],[[10.4342928,53.352159],[10.4037499,53.3602471],[10.4065378,53.3665525],[10.3625355,53.3683898],[10.3857529,53.3602226],[10.3824564,53.3481047],[10.3946947,53.3240618],[10.4103928,53.3223],[10.4010015,53.3390273],[10.4310537,53.3442535],[10.4342928,53.352159]],[[10.7497123,53.7331439],[10.7194671,53.7384412],[10.7239143,53.722722],[10.7401315,53.7205423],[10.7497123,53.7331439]],[[10.7812068,53.2294893],[10.7258901,53.2413871],[10.7203173,53.2316213],[10.7333173,53.2196967],[10.7117222,53.2156205],[10.7287566,53.1952864],[10.7643288,53.1964255],[10.7782566,53.2012667],[10.778166,53.2129788],[10.7933553,53.2178773],[10.7810493,53.2218884],[10.7812068,53.2294893]],[[11.0775102,53.0185585],[11.0713464,53.0093253],[11.0758147,53.001579],[11.099923,52.9965488],[11.117672,52.9719333],[11.0645816,52.9565839],[11.0732726,52.9547131],[11.0672506,52.9486236],[11.1003794,52.9451518],[11.1267719,52.9561635],[11.1346109,52.9437598],[11.1474183,52.9443429],[11.1413778,52.9385499],[11.1463055,52.9327011],[11.1666475,52.9321561],[11.1686877,52.9239499],[11.2335677,52.9338208],[11.2574058,52.9178002],[11.2899075,52.9538295],[11.2999308,52.9536212],[11.2813662,52.9590922],[11.2822635,52.9727039],[11.2544905,52.97878],[11.245914,52.9733694],[11.2512881,52.9824702],[11.2447814,52.9855506],[11.2597704,53.0009878],[11.215936,53.0104608],[11.196229,53.0189906],[11.2015185,53.0264519],[11.1813298,53.0328468],[11.1110523,53.0327911],[11.1162489,53.0269787],[11.1083463,53.0256129],[11.0969952,53.0309685],[11.0999456,53.0233414],[11.0775102,53.0185585]],[[10.8759535,53.1486431],[10.8826363,53.1423835],[10.8798209,53.1385838],[10.909998,53.1313374],[10.903033,53.1243199],[10.8884754,53.1208915],[10.8884469,53.1134084],[10.9148657,53.1054969],[10.9204726,53.0920305],[10.9566066,53.0907966],[10.99767,53.123762],[11.0139072,53.1170029],[11.0260706,53.1229651],[11.0174142,53.1336082],[10.9898608,53.1302946],[10.9650982,53.1492413],[10.9098238,53.1604343],[10.9076879,53.149215],[10.8759535,53.1486431]],[[10.8302495,53.0765568],[10.8311126,53.0774288],[10.8278043,53.0775567],[10.8302495,53.0765568]],[[10.874872,53.140852],[10.8737263,53.1346766],[10.8756042,53.1375256],[10.8769972,53.1383221],[10.8790557,53.1390068],[10.8778881,53.140572],[10.874872,53.140852]],[[10.8749851,53.1418678],[10.8759896,53.1408668],[10.8765367,53.1408269],[10.8749851,53.1418678]],[[10.8900721,53.1090799],[10.8892572,53.1049541],[10.8935216,53.1072643],[10.8900721,53.1090799]],[[10.9049756,53.1287156],[10.9047236,53.12904],[10.9046353,53.1287712],[10.9049756,53.1287156]],[[10.8777284,53.1384233],[10.8773717,53.138312],[10.8780262,53.138095],[10.8777284,53.1384233]],[[10.8802322,53.1416567],[10.8796232,53.1417977],[10.8787728,53.1414709],[10.8802322,53.1416567]],[[10.8809668,53.1417937],[10.8814621,53.1426461],[10.8806081,53.1421404],[10.8809668,53.1417937]],[[10.8677352,53.1462178],[10.8674942,53.146675],[10.8671773,53.1464715],[10.8677352,53.1462178]]],[[[8.6940301,53.3929142],[8.7261179,53.3959536],[8.7267968,53.4059371],[8.7454358,53.4193246],[8.7794586,53.4274673],[8.7913172,53.4245166],[8.7918563,53.4136576],[8.8012193,53.4162898],[8.8283498,53.4037131],[8.8245257,53.3931289],[8.8326025,53.3915656],[8.7894344,53.3892461],[8.7918626,53.382385],[8.7744823,53.3727431],[8.7756279,53.3793615],[8.7532402,53.382895],[8.7116664,53.3767375],[8.6978347,53.3831217],[8.6940301,53.3929142]]],[[[7.1446298,53.6224911],[7.1666415,53.6264393],[7.2017269,53.6486743],[7.2173133,53.627559],[7.1969305,53.6203862],[7.2041983,53.6139467],[7.1657445,53.6068047],[7.1446298,53.6224911]]],[[[8.7033094,53.7361709],[8.732631,53.7258338],[8.7402972,53.7129181],[8.7248407,53.6950196],[8.6764534,53.6974152],[8.672507,53.7089001],[8.680313,53.7215579],[8.7033094,53.7361709]]],[[[8.5606667,53.9050833],[8.5747146,53.843377],[8.5338059,53.8852572],[8.429328,53.8932944],[8.1044993,54.02505],[8.394369,54.02765],[8.5456774,53.9300833],[8.5606667,53.9050833]]],[[[8.7000473,54.0682083],[8.688674,54.0600672],[8.6998374,54.0571833],[8.6811458,54.0535253],[8.7015344,54.0476194],[8.6816443,54.0484394],[8.6773885,54.0556465],[8.6818534,54.0652924],[8.7000473,54.0682083]]],[[[7.890813,54.1699462],[7.8685066,54.1880123],[7.8651057,54.1907535],[7.8912352,54.1931864],[7.9032712,54.186417],[7.9194565,54.1917432],[7.9228441,54.1845044],[7.9067399,54.1823117],[7.908181,54.1693031],[7.890813,54.1699462]]],[[[8.9296747,54.7037212],[8.9262345,54.6977018],[8.9811943,54.6973646],[9.0036915,54.6846627],[9.0005964,54.6759638],[8.9777428,54.6713081],[8.9768963,54.6579316],[8.9533303,54.6597969],[8.9526104,54.6529671],[8.9084534,54.6653493],[8.8581295,54.6626926],[8.8673277,54.6537595],[8.8811783,54.6546075],[8.8683658,54.6526187],[8.8529163,54.6670642],[8.8596272,54.6801818],[8.8502503,54.6898041],[8.8553148,54.697505],[8.8498123,54.7136121],[8.9126211,54.7245088],[8.9065912,54.7126581],[8.9296747,54.7037212]]],[[[9.3357004,47.7443464],[9.341674,47.715872],[9.3285139,47.7116169],[9.3265046,47.7003085],[9.3098086,47.7118381],[9.3051492,47.7252477],[9.2806924,47.7304182],[9.2705351,47.7481197],[9.2261169,47.7585404],[9.2223264,47.7635653],[9.2329994,47.7677486],[9.2256444,47.7750002],[9.2340593,47.7790442],[9.2213198,47.7863803],[9.2357637,47.7986477],[9.2593923,47.8011989],[9.2746646,47.7920812],[9.3382829,47.8168417],[9.3422977,47.8025536],[9.357143,47.8032628],[9.3471237,47.7923541],[9.3517112,47.7831106],[9.3358215,47.7806336],[9.3660543,47.7569173],[9.3582785,47.7434181],[9.3429049,47.7385551],[9.3357004,47.7443464]]],[[[9.2953981,48.845749],[9.3334096,48.8623113],[9.3488748,48.8623899],[9.3620767,48.8594791],[9.3508378,48.8585022],[9.3379786,48.844833],[9.2953981,48.845749]]],[[[9.4084752,49.5257117],[9.4300578,49.4934153],[9.4251721,49.4848524],[9.3969843,49.4836867],[9.3857986,49.4801148],[9.3856954,49.4702922],[9.3548979,49.4689811],[9.3141366,49.4520134],[9.2436361,49.4655257],[9.2487195,49.4793407],[9.2296999,49.4805808],[9.2244543,49.4903769],[9.2321963,49.4970892],[9.2324885,49.5139361],[9.2564387,49.5165048],[9.2639106,49.5254145],[9.2616306,49.5383807],[9.2777536,49.5403128],[9.2528377,49.5528645],[9.2769354,49.5575618],[9.2629285,49.5706015],[9.2426954,49.5747428],[9.2482864,49.5805848],[9.2402607,49.5819173],[9.2524529,49.5942015],[9.2731624,49.5882679],[9.2835716,49.5706414],[9.2938731,49.5687307],[9.3056662,49.5910297],[9.3554571,49.5625206],[9.3640522,49.5488194],[9.3964963,49.5514373],[9.4008987,49.5407585],[9.4109379,49.5384943],[9.4084752,49.5257117]]],[[[9.1835373,51.9885997],[9.188301,51.9805349],[9.2144339,51.9823125],[9.2244931,51.9728994],[9.2084267,51.9666694],[9.2103336,51.9599935],[9.1874182,51.9649054],[9.1881736,51.9726827],[9.1745189,51.9832831],[9.1835373,51.9885997]]],[[[9.0913063,52.5733612],[9.1154965,52.5819566],[9.1138981,52.5966882],[9.1266215,52.6059581],[9.1537256,52.6023174],[9.1634787,52.6106812],[9.1992797,52.5971091],[9.2075164,52.5849173],[9.1912573,52.5737811],[9.1619834,52.5716155],[9.1212604,52.5800799],[9.1043925,52.5764285],[9.1049441,52.5704501],[9.0913063,52.5733612]]],[[[9.4466349,47.7926477],[9.4492219,47.7921643],[9.4471354,47.7913848],[9.4466349,47.7926477]]],[[[9.4960525,51.8463363],[9.4964018,51.8457873],[9.4956947,51.8460742],[9.4960525,51.8463363]]],[[[9.4706967,51.8911921],[9.4576483,51.9293619],[9.5080053,51.9251429],[9.4988974,51.9141184],[9.5214947,51.9016799],[9.4921402,51.8866628],[9.4900011,51.8786873],[9.5424126,51.8751395],[9.5572457,51.8663671],[9.5429026,51.8592933],[9.5515331,51.8577093],[9.5481593,51.8488025],[9.5214802,51.8505162],[9.5025304,51.8456612],[9.5265262,51.8489334],[9.5337658,51.8454002],[9.5369154,51.8384073],[9.5267236,51.8482049],[9.5033621,51.8445982],[9.4878894,51.8486041],[9.4728068,51.8499218],[9.459586,51.8543954],[9.4674247,51.8750617],[9.4627196,51.8848534],[9.4706967,51.8911921]],[[9.5020552,51.846312],[9.5007157,51.8464905],[9.5004994,51.8455937],[9.5020552,51.846312]]],[[[9.4228552,54.0843481],[9.4291746,54.0794718],[9.4158606,54.0720387],[9.414253,54.0742349],[9.4228552,54.0843481]]],[[[9.5330264,54.0984338],[9.5308631,54.0992615],[9.5364165,54.0993932],[9.5330264,54.0984338]]],[[[9.646057,49.0459744],[9.6687576,49.0677528],[9.7153623,49.0771594],[9.7163451,49.0833411],[9.7037952,49.080913],[9.698477,49.0922508],[9.7201371,49.0971664],[9.7455251,49.0919945],[9.7342018,49.082207],[9.7362904,49.0710637],[9.7499871,49.0697175],[9.745002,49.0555579],[9.7577594,49.0454732],[9.7339765,49.0456919],[9.7351424,49.0388243],[9.707113,49.0298361],[9.6761931,49.0452121],[9.6531573,49.0365024],[9.646057,49.0459744]]],[[[9.534471,51.844398],[9.5388527,51.8421688],[9.5407488,51.8412553],[9.5385141,51.8403758],[9.534471,51.844398]]],[[[9.54358,51.8478759],[9.5434943,51.8489783],[9.5437525,51.8489618],[9.54358,51.8478759]]],[[[9.9863928,50.9336755],[9.9659921,50.9338655],[9.9541994,50.9220013],[9.9500908,50.9444747],[9.9750153,50.9433742],[9.9863928,50.9336755]]],[[[9.908868,51.5182909],[9.9228226,51.5104036],[9.9147887,51.4883714],[9.9031736,51.4851153],[9.9315425,51.4660274],[9.9225366,51.4519988],[9.9054584,51.4557542],[9.8763234,51.4458946],[9.8826581,51.4320982],[9.8551337,51.4390013],[9.8452338,51.4182847],[9.8058754,51.409996],[9.7768583,51.4188959],[9.7541971,51.414136],[9.7568555,51.4235903],[9.7278663,51.43489],[9.7314911,51.4401154],[9.7642095,51.4363026],[9.75834,51.4284478],[9.765775,51.4271944],[9.7896166,51.4404329],[9.7891237,51.4293341],[9.7991994,51.4255179],[9.8393055,51.4289782],[9.8335402,51.4356957],[9.8521724,51.4429202],[9.8400163,51.448344],[9.8429417,51.4607721],[9.8064039,51.4821945],[9.8165374,51.4939136],[9.8058257,51.4992605],[9.8061063,51.5206635],[9.8532069,51.5103791],[9.908868,51.5182909]]],[[[9.9627107,54.4306545],[9.9610768,54.4448318],[10.004886,54.442485],[10.0368751,54.4560978],[10.0689405,54.4218495],[10.0195163,54.4181538],[10.0006228,54.4093839],[9.989713,54.4241314],[9.9627107,54.4306545]]],[[[10.1465432,53.0474376],[10.1537377,53.0568193],[10.165545,53.0419911],[10.1508023,53.036438],[10.1465432,53.0474376]]],[[[10.2040563,53.0654257],[10.1993069,53.0664466],[10.1993526,53.0693668],[10.2040563,53.0654257]]],[[[10.2737032,51.5558391],[10.3021792,51.5499918],[10.3067815,51.5318565],[10.3016914,51.5279163],[10.2696687,51.5475295],[10.27815,51.5508307],[10.2737032,51.5558391]]],[[[10.4274063,51.9755678],[10.4192081,52.0055503],[10.4646719,52.0193462],[10.4566842,52.0372248],[10.4627104,52.0406051],[10.4991917,52.0210435],[10.4790161,52.0050976],[10.48306,51.9916042],[10.4575495,51.9728104],[10.4597005,51.965602],[10.4274063,51.9755678]]],[[[10.4130752,52.7524169],[10.4530462,52.7552769],[10.4829302,52.7409362],[10.4747915,52.6946326],[10.4506661,52.6873166],[10.4556263,52.6764936],[10.4255807,52.67736],[10.4286811,52.6696539],[10.4060133,52.6575646],[10.3850623,52.6895895],[10.367256,52.6920105],[10.378506,52.6948444],[10.36345,52.7225312],[10.4037264,52.7595734],[10.4156994,52.7603459],[10.4130752,52.7524169]]],[[[10.7305693,48.7819504],[10.7370923,48.7420591],[10.6953201,48.739054],[10.6596155,48.7265481],[10.6590375,48.742657],[10.6428225,48.747819],[10.6508661,48.7553662],[10.6473209,48.7683957],[10.6228437,48.7782524],[10.6177504,48.8059144],[10.631886,48.8081692],[10.6325106,48.8235848],[10.6521231,48.8303238],[10.6730081,48.8303557],[10.6656837,48.819101],[10.67834,48.8134622],[10.6758142,48.8086054],[10.6959262,48.8093756],[10.6926888,48.8054939],[10.7239864,48.8069663],[10.7220231,48.8136405],[10.7423207,48.8228799],[10.7551268,48.8117024],[10.7699395,48.812945],[10.7686819,48.7901145],[10.7305693,48.7819504]]],[[[11.494507,47.7610026],[11.4888935,47.7608624],[11.4889893,47.7616616],[11.494507,47.7610026]]],[[[11.037173,47.7779089],[11.0384016,47.7778376],[11.0379877,47.777264],[11.037173,47.7779089]]],[[[13.2669415,50.8077127],[13.3034434,50.7939912],[13.3104912,50.785022],[13.2807179,50.7630338],[13.2502965,50.7758546],[13.240685,50.7709617],[13.1962203,50.7842466],[13.2040204,50.790437],[13.2005785,50.7980748],[13.2127663,50.798926],[13.2116489,50.8094972],[13.2640238,50.8368022],[13.2814791,50.8238705],[13.2824427,50.8168454],[13.2669415,50.8077127]]],[[[11.187365,50.8769289],[11.1948378,50.9002147],[11.1770516,50.9131561],[11.2121898,50.909373],[11.2165984,50.8931518],[11.2469107,50.8807435],[11.2462898,50.8748603],[11.2081725,50.8820767],[11.2077291,50.8643477],[11.187365,50.8769289]]],[[[11.596386,52.0388756],[11.5957103,52.0276588],[11.6115062,52.0264323],[11.6008654,52.0105608],[11.5504407,52.0210321],[11.531393,52.0120571],[11.5288082,52.0197968],[11.5464005,52.0301981],[11.5852548,52.0296083],[11.596386,52.0388756]]],[[[12.9461387,52.446187],[12.9712393,52.4482408],[12.9745895,52.4269567],[12.9502397,52.4277039],[12.9474231,52.4128935],[12.9365471,52.4143744],[12.9360201,52.4274478],[12.9482956,52.4346243],[12.9461387,52.446187]]],[[[11.0642002,52.4495102],[11.084135,52.4559396],[11.0968886,52.4528112],[11.080478,52.4293426],[11.0634111,52.4389763],[11.0493848,52.4327101],[11.0383213,52.4444938],[11.0577046,52.4523386],[11.0530103,52.4558191],[11.0647114,52.454973],[11.0642002,52.4495102]]],[[[10.7917664,52.7477945],[10.7881695,52.7333104],[10.794657,52.7205791],[10.7697469,52.7163939],[10.7649673,52.7334691],[10.7740655,52.749504],[10.781072,52.7538661],[10.7917664,52.7477945]]],[[[12.5402942,52.8831416],[12.501848,52.8758839],[12.5060902,52.8973739],[12.5319188,52.9077241],[12.5402942,52.8831416]]],[[[11.1100467,52.9520173],[11.1082155,52.951061],[11.1083954,52.9524687],[11.1100467,52.9520173]]],[[[11.072896,52.9551312],[11.0714847,52.9560967],[11.0723133,52.9561789],[11.072896,52.9551312]]],[[[11.4640362,52.9613433],[11.4686432,52.9567588],[11.4625653,52.9591115],[11.4640362,52.9613433]]],[[[11.5977599,53.0358632],[11.5539423,53.0069757],[11.5605499,53.0038787],[11.5566244,52.9986846],[11.5485455,52.9984998],[11.5139119,53.0065345],[11.5159358,53.0127166],[11.5047264,53.01548],[11.5091252,53.0221103],[11.4898287,53.0301304],[11.5060645,53.0490701],[11.5467711,53.0525685],[11.5785603,53.0366405],[11.5977599,53.0358632]]],[[[11.429967,53.0336141],[11.4272524,53.0359351],[11.4302759,53.0350829],[11.429967,53.0336141]]],[[[13.8961037,53.6213916],[13.882187,53.6161425],[13.9045759,53.6128483],[13.9026962,53.6044052],[13.8628987,53.5971931],[13.8618944,53.6281413],[13.8523865,53.6321577],[13.8047086,53.6243995],[13.7729351,53.6500881],[13.7277453,53.6390726],[13.694269,53.6509739],[13.7231351,53.6681173],[13.7820836,53.6788559],[13.8156194,53.6534855],[13.8405257,53.6644993],[13.8530534,53.651768],[13.8607747,53.6565167],[13.9006849,53.6452988],[13.8902758,53.6307519],[13.8961037,53.6213916]]],[[[11.1702901,54.5215228],[11.233571,54.506556],[11.2527333,54.4717752],[11.2971302,54.4321236],[11.3129403,54.4021529],[11.2306325,54.4121576],[11.1734739,54.4013915],[11.1193076,54.4024116],[11.0943611,54.4101447],[11.1013591,54.4358079],[11.0881182,54.4360379],[11.0813532,54.4387333],[11.0969561,54.4408282],[11.0943749,54.4462048],[11.0746958,54.445048],[11.0635121,54.4528562],[11.0513959,54.4430188],[11.0216704,54.4436733],[11.0215396,54.4373917],[11.032448,54.4373737],[11.0452084,54.4294695],[11.0345774,54.4314072],[11.0091762,54.4417356],[11.0044597,54.4488064],[11.0172355,54.4945367],[11.0390122,54.5190583],[11.0678404,54.5359981],[11.1702901,54.5215228]]]]}}]}