{"type":"FeatureCollection","features":[{"type":"Feature","properties":{"slug":"hangzhou","member_count":2,"matched_count":1,"unmatched":["[recovered via metro-name fallback: Hangzhou]"],"source":"Overture Maps division_area (CC-BY 4.0)"},"geometry":{"type":"MultiPolygon","coordinates":[[[[120.4655707,27.1645702],[120.4817364,27.1511163],[120.4847404,27.1434143],[120.4654527,27.152195],[120.4655707,27.1645702]]],[[[120.5213412,27.1839159],[120.5353484,27.1736678],[120.521543,27.1660104],[120.5302012,27.1592652],[120.5233294,27.1493692],[120.5126569,27.1555291],[120.5259258,27.1774665],[120.5213412,27.1839159]]],[[[120.4655908,27.165718],[120.4485501,27.1717905],[120.4612416,27.168516],[120.4655908,27.165718]]],[[[120.5394816,27.1689717],[120.5382317,27.1718782],[120.5436873,27.1691817],[120.5394816,27.1689717]]],[[[120.504511,27.1851351],[120.5084807,27.1883084],[120.5113828,27.1841187],[120.504511,27.1851351]]],[[[120.5453235,27.2483894],[120.5626452,27.2458378],[120.5626398,27.2447314],[120.5526835,27.2400288],[120.5453235,27.2483894]]],[[[120.5823192,27.337634],[120.5797845,27.3458062],[120.5951053,27.3512166],[120.5943596,27.3434999],[120.5823192,27.337634]]],[[[121.0155875,27.4239521],[121.0151487,27.4224233],[121.0117735,27.4183905],[121.0155875,27.4239521]]],[[[121.0815411,27.4275517],[121.0707767,27.4350047],[121.0827772,27.4346084],[121.0815411,27.4275517]]],[[[121.0616475,27.4465943],[121.0680374,27.4412982],[121.0574104,27.4461682],[121.0616475,27.4465943]]],[[[120.9615931,27.4501565],[120.9610552,27.4516302],[120.9657007,27.4535713],[120.9615931,27.4501565]]],[[[121.0520598,27.477695],[121.0689725,27.4722455],[121.065098,27.4807719],[121.1056182,27.4479284],[121.0799816,27.4649228],[121.0883434,27.4537771],[121.05907912222223,27.4644195],[121.0659228,27.447666],[121.0438053,27.4644397],[121.0557251,27.4660307],[121.0520598,27.477695]]],[[[121.1185642,27.4684689],[121.1055984,27.4688316],[121.1037327,27.4768816],[121.1185642,27.4684689]]],[[[121.1310359,27.4734644],[121.1210727,27.4734501],[121.1218829,27.4762282],[121.1310359,27.4734644]]],[[[121.0598731,27.4859639],[121.0625982,27.4817972],[121.053291,27.4868634],[121.0598731,27.4859639]]],[[[121.0851195,27.491771],[121.0822213,27.4952624],[121.0948277,27.4936192],[121.0851195,27.491771]]],[[[121.0517443,27.6349492],[121.0583979,27.640023],[121.0605611,27.6386686],[121.0517443,27.6349492]]],[[[120.9339112,27.6431],[120.9375,27.6410376],[120.9359014,27.6395501],[120.9339112,27.6431]]],[[[120.83417,27.65137],[120.8262901,27.64803],[120.8183947,27.6383498],[120.8192522,27.6477999],[120.83417,27.65137]]],[[[120.9337449,27.6439791],[120.9329215,27.6504631],[120.9365559,27.6485481],[120.9337449,27.6439791]]],[[[120.9846179,27.665345],[120.96523,27.6474401],[120.9642417,27.664601],[120.9761255,27.6733338],[120.9846179,27.665345]]],[[[120.9369433,27.6633826],[120.9346854,27.6645813],[120.9440288,27.6661512],[120.9369433,27.6633826]]],[[[120.84261,27.67027],[120.83615,27.6755699],[120.83612,27.67686],[120.84261,27.67027]]],[[[120.8223099,27.68873],[120.8287859,27.690181],[120.83771,27.68409],[120.8335,27.67772],[120.8223099,27.68873]]],[[[120.9185958,27.6828868],[120.9142184,27.6833048],[120.9201407,27.6856515],[120.9185958,27.6828868]]],[[[120.9210634,27.6932801],[120.9217983,27.6925439],[120.9162086,27.6881168],[120.9210634,27.6932801]]],[[[120.8123159,27.6973507],[120.8158243,27.695351],[120.8104706,27.6912661],[120.8123159,27.6973507]]],[[[120.9088653,27.702277],[120.9087051,27.6928515],[120.8981037,27.6983054],[120.9088653,27.702277]]],[[[120.8838718,27.7082473],[120.8979776,27.713869],[120.8935903,27.708711],[120.8838718,27.7082473]]],[[[121.1269364,27.7654018],[121.1400445,27.7617268],[121.12945,27.75624],[121.1269364,27.7654018]]],[[[121.14276,27.7649277],[121.1496246,27.7649465],[121.1505199,27.75858],[121.1427216,27.7574665],[121.14276,27.7649277]]],[[[121.1268985,27.7711073],[121.1336494,27.7794279],[121.1456431,27.7745566],[121.1268985,27.7711073]]],[[[121.06973,27.7816499],[121.0863901,27.795799],[121.0922,27.78659],[121.06973,27.7816499]]],[[[121.1364211,27.8043959],[121.1529599,27.8193101],[121.1394999,27.7944399],[121.1312136,27.7928962],[121.114865,27.8079631],[121.1364211,27.8043959]]],[[[121.092537,27.8110487],[121.0945286,27.8097178],[121.091314,27.8067819],[121.092537,27.8110487]]],[[[121.1086249,27.8478094],[121.1895127,27.8670691],[121.1805679,27.8606256],[121.19291,27.85251],[121.1827721,27.8392945],[121.1789369,27.8478526],[121.1684199,27.84627],[121.1775001,27.8397],[121.1702477,27.8340777],[121.1759945,27.8316289],[121.1696886,27.8222834],[121.17837,27.8226425],[121.1742149,27.8168255],[121.1562539,27.8242952],[121.1219133,27.8164281],[121.085674,27.8209073],[121.0978764,27.825648],[121.0914482,27.8309409],[121.1086249,27.8478094]]],[[[121.0947932,27.8698798],[121.0858036,27.8717585],[121.0974345,27.874012],[121.0947932,27.8698798]]],[[[121.1441601,27.87719],[121.1395317,27.8789103],[121.1492799,27.88254],[121.1441601,27.87719]]],[[[121.1445276,27.9055289],[121.1391565,27.8770772],[121.0984672,27.8709575],[121.1110765,27.8842159],[121.1072275,27.890548],[121.1226971,27.9021897],[121.157299,27.9091353],[121.1445276,27.9055289]]],[[[120.9534135,27.9574271],[121.0530496,27.8666042],[121.0854989,27.8689801],[121.0626143,27.8447587],[121.0611123,27.8505739],[121.0359532,27.8537517],[121.0209006,27.8365762],[121.0212064,27.8674294],[121.0320049,27.8675384],[121.033743,27.8792086],[121.0108423,27.9039675],[120.9572089,27.8787345],[120.9962136,27.8402976],[120.9641236,27.8656557],[120.9201434,27.9239335],[120.8437759,27.973858],[120.8890466,27.9790314],[120.9213397,27.9735577],[120.9534135,27.9574271]]],[[[121.119107,27.9238458],[121.1193243,27.9144795],[121.1085606,27.9078595],[121.1055779,27.9183641],[121.119107,27.9238458]]],[[[121.1196814,27.9789914],[121.1479301,27.9617399],[121.1351403,27.9624903],[121.1214999,27.9491601],[121.0447631,27.9475902],[121.0361936,27.9623952],[121.072458,27.9874192],[121.0737999,27.97692],[121.1217001,27.9876201],[121.1196814,27.9789914]]],[[[121.0846782,28.0052463],[121.0484399,27.9862586],[121.0380103,27.9847896],[121.0382935,27.9927715],[121.0689995,28.0100396],[121.0846782,28.0052463]]],[[[121.0540822,28.0126634],[121.0590303,28.0119521],[121.0492208,28.0105249],[121.0540822,28.0126634]]],[[[121.1615449,28.0244898],[121.1571944,28.0213051],[121.1422813,28.016032],[121.1461061,28.0220036],[121.1615449,28.0244898]]],[[[121.1247078,28.1525562],[121.1239994,28.1552339],[121.1287848,28.1549814],[121.1247078,28.1525562]]],[[[121.1216444,28.1643707],[121.118069,28.1605659],[121.1200887,28.1652243],[121.1216444,28.1643707]]],[[[121.14712,28.176666],[121.1540589,28.1762156],[121.157767,28.1664338],[121.1433555,28.1656842],[121.14712,28.176666]]],[[[121.13024,28.2642301],[121.1383146,28.2637924],[121.1331624,28.2546527],[121.13024,28.2642301]]],[[[121.148323,28.2648319],[121.1506766,28.2707449],[121.1627606,28.2599464],[121.148323,28.2648319]]],[[[121.1571246,28.337928],[121.151433,28.339793],[121.154246,28.3438321],[121.1571246,28.337928]]],[[[120.2468929,30.9290122],[120.3654171,30.9506246],[120.3491504,30.9118579],[120.3608529,30.8822849],[120.3750069,30.8928629],[120.4195439,30.9028461],[120.4131037,30.9277028],[120.4316324,30.9258529],[120.4286548,30.8919545],[120.4486258,30.8705434],[120.4355729,30.8605432],[120.4520238,30.8499223],[120.4538531,30.8178079],[120.4613445,30.8081005],[120.4721756,30.8082943],[120.4745843,30.7797194],[120.4835482,30.7659996],[120.4998548,30.7603342],[120.5458502,30.816412],[120.5532236,30.8362939],[120.581831,30.8572828],[120.6045892,30.8508284],[120.6405443,30.8580171],[120.6511071,30.8494055],[120.6547425,30.8678473],[120.6630815,30.8645434],[120.6801779,30.8869934],[120.6867061,30.8726407],[120.6971459,30.8709186],[120.6944396,30.8842857],[120.7087354,30.8879222],[120.7063294,30.932122],[120.6929174,30.9522246],[120.6783862,30.9580116],[120.6923981,30.9719516],[120.6983042,30.9667835],[120.704298,30.9739204],[120.7247954,30.973419],[120.7414466,30.96525],[120.7655208,30.9803698],[120.7623826,30.993035],[120.7695472,31.0035491],[120.8031173,31.0083722],[120.8614836,30.9920337],[120.8808155,31.0034616],[120.8850575,30.9990624],[120.8930142,31.0197373],[120.935542,31.0114998],[120.9317977,31.0193339],[120.9457505,31.0197798],[120.9446374,31.0324329],[120.9540037,31.030985],[120.959014,31.0187707],[120.985513,31.0166398],[120.9864932,30.996639],[120.9981984,30.9807825],[120.9875044,30.9705558],[120.9965958,30.9399876],[120.9945412,30.9140385],[121.0006835,30.9108859],[120.986299,30.8977766],[121.0173829,30.8772426],[121.0104749,30.8565415],[120.9934938,30.8467528],[120.9852005,30.8304891],[120.9997326,30.8285268],[121.0071568,30.8375048],[121.0367015,30.8171735],[121.0360382,30.8294474],[121.0446587,30.828045],[121.0611432,30.850254],[121.1085532,30.8563049],[121.1193249,30.8495751],[121.1137892,30.8369816],[121.1329801,30.8326851],[121.1234778,30.8121549],[121.1225684,30.7808669],[121.1700676,30.7745597],[121.1863347,30.783206],[121.1925383,30.7755526],[121.1950207,30.7854178],[121.214379,30.7882971],[121.2281174,30.7580176],[121.2669316,30.7356319],[121.2609285,30.7070865],[121.26782183148565,30.692754974490477],[121.1548033,30.6334517],[121.1450478,30.6032462],[121.1256613,30.5938641],[121.0845963,30.59566],[121.0402393,30.578048],[120.9586023,30.5227428],[120.93334,30.47766],[120.9371368,30.4521989],[120.9607156,30.4358494],[120.9388332,30.4148902],[120.9140468,30.409912],[120.9159458,30.3789796],[120.8951368,30.3692937],[120.8485692,30.3225413],[120.8112576,30.3014128],[120.7937452,30.2937809],[120.7659562,30.3029625],[120.7490354,30.325487],[120.7425061,30.3605843],[120.7357174,30.3631648],[120.7421064,30.3637804],[120.7391694,30.3711674],[120.6923112,30.3939334],[120.6592025,30.36117],[120.6974342,30.2784208],[120.7456349,30.2218713],[120.7616329,30.2252365],[120.8512373,30.210733],[120.9053117,30.2215106],[120.9636259,30.2490431],[121.1298895,30.3799653],[121.2008285,30.3996039],[121.2897934,30.4000989],[121.3338178,30.3832603],[121.4037752,30.3379911],[121.411972,30.3199147],[121.4395934,30.3104537],[121.4371858,30.2961568],[121.4645621,30.2748964],[121.4822298,30.2483956],[121.5169887,30.2203633],[121.5272338,30.2273012],[121.5657854,30.1802165],[121.5499607,30.1699942],[121.566942,30.1795999],[121.5762104,30.1693397],[121.5803814,30.15608],[121.5650001,30.1477621],[121.5818572,30.1555621],[121.6007655,30.1346424],[121.6076241,30.1169352],[121.5925682,30.1072106],[121.6113319,30.116142],[121.650407,30.0687295],[121.6779748,30.0163576],[121.6676643,30.0086559],[121.68368,30.0096544],[121.6748071,30.001316],[121.7182618,29.9804223],[121.7478599,29.9811599],[121.7949092,29.9683],[121.815557,29.9528349],[121.8096018,29.9470316],[121.912145,29.923222],[121.9341364,29.8907058],[122.0077927,29.8919144],[122.0098755,29.8782998],[122.0130064,29.8770066],[122.0198266,29.8815951],[122.0251032,29.8936711],[122.0765081,29.8906564],[122.1165097,29.9108019],[122.1332896,29.9017072],[122.13815,29.8896401],[122.1328853,29.8774829],[122.003033,29.8191457],[121.98849,29.81876],[121.9460128,29.7849648],[121.9331199,29.7844784],[121.9382549,29.7802343],[121.9137397,29.7568501],[121.9222899,29.7496302],[121.9069201,29.7527701],[121.8891815,29.7413848],[121.8864614,29.7169905],[121.865504,29.697612],[121.7875864,29.6634771],[121.74544,29.6077099],[121.7156183,29.5886306],[121.71034,29.56751],[121.70101,29.5611201],[121.68653,29.5659901],[121.6518184,29.5486723],[121.6142213,29.5441904],[121.6218446,29.5362917],[121.5719832,29.5165457],[121.5551752,29.5258525],[121.5625405,29.5334606],[121.5544652,29.5366057],[121.5261601,29.50773],[121.5151501,29.50735],[121.5223996,29.5164351],[121.5168632,29.5281079],[121.4552906,29.5136693],[121.45062,29.5068699],[121.4619199,29.49878],[121.4422399,29.47823],[121.4442132,29.4148014],[121.4683961,29.4217497],[121.4741499,29.46677],[121.4977998,29.4796536],[121.5027778,29.4918765],[121.5114804,29.4921231],[121.5229112,29.4794034],[121.5181835,29.4734553],[121.5329448,29.4634565],[121.5213039,29.454935],[121.5223797,29.4445574],[121.5141799,29.4430501],[121.5139201,29.4199],[121.4998199,29.4203799],[121.48676,29.40956],[121.4852699,29.40106],[121.4893073,29.3842386],[121.4880101,29.39363],[121.5138476,29.4015266],[121.54332,29.439],[121.5532225,29.4332872],[121.5428201,29.4533901],[121.55569,29.45791],[121.56633,29.47448],[121.6443981,29.4968028],[121.689609,29.5297478],[121.7218599,29.54049],[121.75114,29.52817],[121.7805281,29.5365562],[121.766681,29.5137803],[121.7798766,29.5329432],[121.780679,29.51347],[121.7596084,29.5011551],[121.76382,29.47646],[121.7750901,29.4678301],[121.78713,29.4689599],[121.78703,29.47745],[121.8028074,29.4758385],[121.8169937,29.4907267],[121.8293,29.5331199],[121.8436152,29.53605],[121.8259965,29.547314],[121.74268,29.54571],[121.7434099,29.5575401],[121.7755599,29.5755899],[121.7946991,29.6052891],[121.8648774,29.623826],[121.9024136,29.6251233],[121.8970428,29.630397],[121.922892,29.6440629],[121.9559294,29.6331306],[121.9515725,29.6187472],[121.9679843,29.6210701],[121.97583,29.6140599],[121.9720479,29.6065485],[121.9797207,29.6086341],[121.97526,29.5975999],[121.9882056,29.5991952],[121.9893299,29.5879299],[121.9957999,29.5885],[121.97649,29.5777999],[121.98203,29.5537999],[121.99147,29.5509099],[121.9797234,29.5456014],[121.9548181,29.5110319],[121.95648,29.47734],[121.9764359,29.4676904],[121.9852811,29.4476003],[121.9736401,29.45176],[121.9770798,29.4403759],[121.9623198,29.4354344],[121.9703758,29.4323701],[121.9621216,29.4271038],[121.9712264,29.4142272],[121.9621844,29.4204318],[121.9651605,29.41602],[121.9257872,29.387101],[121.933777,29.3717297],[121.9240017,29.3550443],[121.9380799,29.33882],[121.9531084,29.3388323],[121.9402326,29.3304664],[121.9452901,29.3231901],[121.9285489,29.3231527],[121.9207301,29.3139899],[121.93015,29.3109799],[121.925481,29.2895172],[121.9334525,29.2857252],[121.9539258,29.2858936],[121.9686916,29.2750932],[121.97971,29.28578],[121.99559,29.2814001],[121.9843501,29.2705975],[121.99782,29.2631501],[121.9778676,29.2681243],[121.9805301,29.2623801],[121.9679296,29.2626935],[121.969918,29.2524881],[121.95847,29.2523],[121.95846,29.23996],[121.9740128,29.2218349],[121.9645,29.2222599],[121.9609743,29.2144204],[121.9569835,29.2265002],[121.9499191,29.227693],[121.9363406,29.1965879],[121.9002926,29.1866594],[121.8770778,29.1679107],[121.8605924,29.1705088],[121.8471175,29.160561],[121.8127477,29.1569773],[121.7861199,29.16983],[121.782926,29.1948168],[121.7979768,29.2481006],[121.7938899,29.2697],[121.8059218,29.2871312],[121.80172,29.30192],[121.8099623,29.3156505],[121.8244524,29.3156149],[121.81907,29.3241901],[121.8392923,29.3239457],[121.8144032,29.3386773],[121.80397,29.33537],[121.8049829,29.3188536],[121.7938636,29.3003235],[121.799693,29.2931217],[121.7892859,29.2779832],[121.7864242,29.297398],[121.791403,29.319124],[121.7984038,29.3194794],[121.791108,29.3193432],[121.7882001,29.3292306],[121.7979419,29.333056],[121.79335,29.33939],[121.804052,29.3539309],[121.7899758,29.3642145],[121.8053201,29.3708801],[121.8123006,29.3837316],[121.7776652,29.3632883],[121.7691999,29.3715699],[121.7732431,29.3636799],[121.7663364,29.3544309],[121.7894286,29.3464589],[121.7773199,29.33024],[121.78594,29.32184],[121.7815027,29.3074278],[121.7842734,29.2683466],[121.7553918,29.1986964],[121.7563462,29.1610059],[121.7050243,29.1323217],[121.6264093,29.1876374],[121.6029999,29.2318299],[121.5997642,29.2672329],[121.574648,29.2566025],[121.5429068,29.2774714],[121.5278837,29.2733186],[121.5441799,29.2757],[121.5489459,29.2626608],[121.5785694,29.2428397],[121.5819168,29.2295642],[121.5771961,29.2204257],[121.5663278,29.2276729],[121.53055,29.2235999],[121.5253906,29.1915807],[121.5521926,29.1740983],[121.5489525,29.170028],[121.5563285,29.174],[121.5505725,29.168782],[121.5717565,29.1711372],[121.5897904,29.163452],[121.6058651,29.1408931],[121.5660166,29.1341281],[121.5392295,29.1401204],[121.5346432,29.1253722],[121.6503921,29.1031508],[121.63029,29.0868],[121.6309199,29.06108],[121.63831,29.0562699],[121.6310199,29.0425701],[121.58904,29.04123],[121.577367,29.0517029],[121.5820682,29.0573776],[121.5438,29.05309],[121.5449599,29.0329201],[121.52755,29.0121499],[121.52734,28.99672],[121.5594199,29.0140399],[121.5438563,29.0202483],[121.5540272,29.0495529],[121.5760133,29.0486056],[121.5991948,29.0352921],[121.6278067,29.0381121],[121.66322,29.0536901],[121.66094,29.0493],[121.6747873,29.0333867],[121.67471,29.0420785],[121.6649943,29.0460547],[121.67876,29.0419531],[121.68418,29.0279199],[121.67887,29.02041],[121.6949,29.0252],[121.71055,29.0137801],[121.6912865,29.0061204],[121.6891599,29.01653],[121.6774701,29.0152499],[121.6847199,29.0089001],[121.6778541,28.999401],[121.682615,28.9901823],[121.665701,28.9770783],[121.685214,28.9636793],[121.6932285,28.9730048],[121.6972893,28.9609687],[121.7123899,28.9597799],[121.7015433,28.9504898],[121.7037079,28.9438075],[121.7328581,28.9423241],[121.7068601,28.9336449],[121.7032948,28.9263759],[121.7097267,28.9258242],[121.6987525,28.9132591],[121.6528451,28.8986871],[121.5643242,28.9317071],[121.5474612,28.9553597],[121.5353255,28.9561894],[121.5136881,28.9416727],[121.6040772,28.9125219],[121.6392356,28.8931076],[121.6536766,28.8775558],[121.6450989,28.8736099],[121.6492563,28.8647288],[121.6363616,28.8599779],[121.6813302,28.865955],[121.6621403,28.8390854],[121.6822153,28.8326592],[121.6779976,28.8253044],[121.6857557,28.8297213],[121.6794533,28.8247367],[121.6886687,28.8025986],[121.6857424,28.7988897],[121.6977467,28.7999979],[121.6868676,28.7941381],[121.6821778,28.7968189],[121.6878399,28.8042462],[121.676977,28.7968354],[121.6818774,28.7890878],[121.6650882,28.7268243],[121.70069,28.7195515],[121.6655499,28.7258779],[121.6352015,28.7048764],[121.5682258,28.6913785],[121.5134887,28.6942544],[121.5100712,28.6632693],[121.5434647,28.651454],[121.5886639,28.5682514],[121.603349,28.5669428],[121.598511,28.5371796],[121.6169438,28.5447524],[121.6149496,28.5367682],[121.6232738,28.5333172],[121.6193336,28.5234033],[121.6315799,28.5186399],[121.616292,28.512713],[121.6188616,28.5039592],[121.6052288,28.4903678],[121.5787361,28.493897],[121.584772,28.4846092],[121.6056784,28.4820773],[121.6126469,28.4921754],[121.6241133,28.4940401],[121.6241965,28.4867817],[121.6321599,28.4932763],[121.6286449,28.4868583],[121.6386107,28.4889977],[121.6316316,28.4839763],[121.6375922,28.4764623],[121.6481191,28.4811637],[121.6443184,28.4734824],[121.6572031,28.4728476],[121.6598833,28.4650365],[121.6540387,28.4542955],[121.6347915,28.4611988],[121.6284156,28.4566843],[121.6100492,28.4714526],[121.600399,28.4641276],[121.5957461,28.4287344],[121.6383532,28.4136655],[121.6478878,28.4190146],[121.6560962,28.4071506],[121.6517497,28.4020428],[121.6633499,28.3992521],[121.6449272,28.396293],[121.6375673,28.3833255],[121.6528634,28.3802052],[121.6375807,28.3659534],[121.6144051,28.3637671],[121.6211931,28.3585627],[121.6121614,28.3524977],[121.6275385,28.3567795],[121.6171718,28.3482984],[121.6283311,28.3416804],[121.6481889,28.353541],[121.6570938,28.3539872],[121.6484651,28.3439566],[121.6654542,28.3473683],[121.6402012,28.3170495],[121.6433354,28.305075],[121.6318542,28.2954219],[121.6386566,28.285395],[121.6160345,28.2788377],[121.6233911,28.2728709],[121.614503,28.2658194],[121.6258487,28.2655714],[121.6072664,28.2527216],[121.5597832,28.248764],[121.5562768,28.2591957],[121.5614328,28.250236],[121.5881932,28.2539005],[121.5795987,28.2578275],[121.5918671,28.2738435],[121.5818283,28.2673018],[121.5707511,28.2718365],[121.5779874,28.2793148],[121.5781376,28.3017901],[121.5137686,28.3303083],[121.4618008,28.3294878],[121.4620395,28.3040713],[121.4475757,28.305696],[121.4406475,28.266247],[121.4313751,28.271841],[121.435664,28.2629585],[121.4207489,28.2557357],[121.4305738,28.2488124],[121.4064628,28.2320751],[121.4011078,28.235408],[121.4092523,28.2297291],[121.4032549,28.2141156],[121.3913767,28.2074691],[121.3871113,28.2196036],[121.3651065,28.2231752],[121.3632631,28.2129693],[121.3814646,28.2003259],[121.368731,28.1940558],[121.3801992,28.1852801],[121.3894519,28.1945566],[121.3937,28.1880901],[121.3844633,28.1636648],[121.3691601,28.15977],[121.3600837,28.1395751],[121.3517399,28.14155],[121.35467,28.147378],[121.3410364,28.1412932],[121.3332473,28.1509724],[121.2914794,28.1076811],[121.2864903,28.0921291],[121.2933664,28.0932128],[121.2759703,28.0843944],[121.29162,28.0712401],[121.2627489,28.0710112],[121.2686097,28.0730091],[121.2640857,28.0830216],[121.233117,28.0819687],[121.2304771,28.074218],[121.2601391,28.0702387],[121.2457906,28.0656481],[121.2448764,28.0583396],[121.2367942,28.0594388],[121.2403314,28.0662708],[121.2308022,28.0630153],[121.2187582,28.0711101],[121.2201199,28.0639001],[121.2071643,28.0616495],[121.2229364,28.0556594],[121.1541683,28.0370093],[121.15534,28.0539199],[121.1432025,28.0590226],[121.1501904,28.07884],[121.1331479,28.1001747],[121.1335517,28.1200286],[121.1216966,28.1192709],[121.1335023,28.1202138],[121.1326119,28.1388604],[121.1474499,28.1436238],[121.1586937,28.1376045],[121.1632899,28.1491999],[121.1732376,28.149127],[121.18971,28.1657401],[121.1809544,28.1664174],[121.2054425,28.1692611],[121.20203,28.1836499],[121.2095629,28.1966385],[121.1940701,28.2169801],[121.2112717,28.2584383],[121.2344399,28.26921],[121.2436129,28.2912793],[121.231218,28.2960111],[121.2324625,28.3063218],[121.2212017,28.3205296],[121.2136364,28.3180888],[121.2133893,28.33081],[121.2192756,28.3407643],[121.2387505,28.3420615],[121.2533918,28.3473872],[121.2750064,28.3627983],[121.2387872,28.3484919],[121.2404361,28.3434686],[121.2130634,28.3445214],[121.2144944,28.3599742],[121.1956841,28.3802531],[121.2035859,28.38485],[121.1997154,28.3948736],[121.1859423,28.3874763],[121.1748111,28.3948972],[121.1800414,28.3795451],[121.1715844,28.389036],[121.1703882,28.381315],[121.1853951,28.3671717],[121.1844215,28.3577708],[121.1470181,28.3424865],[121.1472326,28.3230516],[121.1317483,28.3141192],[121.1281273,28.3070586],[121.1367774,28.3022884],[121.1203703,28.2840696],[121.0858369,28.283191],[121.0798489,28.2940473],[121.0670909,28.2845019],[121.1161727,28.2777771],[121.1321948,28.2412726],[121.1216833,28.2097619],[121.1006855,28.1780925],[121.0933091,28.1775138],[121.098491,28.1715771],[121.0917914,28.1460314],[121.0642096,28.1630329],[121.0744321,28.1535117],[121.0658719,28.1421255],[121.0145089,28.1076897],[121.0108423,28.0114168],[120.9589188,27.9810027],[120.8913103,27.998411],[120.8497167,27.997781],[120.8217654,27.9882529],[120.8162266,27.9672849],[120.8497502,27.9480519],[120.8469634,27.9428024],[120.860542,27.940626],[120.9049138,27.8996628],[120.9136766,27.8823263],[120.8309727,27.7683332],[120.8054039,27.783522],[120.7940655,27.768885],[120.7715464,27.7831779],[120.7488227,27.7346298],[120.7524503,27.7295847],[120.7216334,27.7079424],[120.7442495,27.6884592],[120.7036119,27.7165618],[120.6840121,27.6976022],[120.6917936,27.686497],[120.6764201,27.64059],[120.6619901,27.63391],[120.6741161,27.6235104],[120.6497851,27.5925974],[120.6290024,27.583969],[120.6066267,27.5928702],[120.6000497,27.5886463],[120.6377336,27.5578142],[120.6597029,27.5114699],[120.6726144,27.5116989],[120.6622986,27.5047713],[120.6412876,27.5070177],[120.6302845,27.4886015],[120.6380716,27.4997211],[120.6631704,27.502369],[120.6734177,27.4951625],[120.664553,27.4947188],[120.6623912,27.4853976],[120.6882886,27.4762363],[120.6624287,27.445394],[120.6484437,27.4481051],[120.6500021,27.435508],[120.6386805,27.4265425],[120.6436318,27.4170717],[120.6375289,27.4064124],[120.6466492,27.4084285],[120.6476068,27.4008277],[120.6372776,27.3948718],[120.6507887,27.3941019],[120.6449498,27.3644313],[120.6337154,27.3716113],[120.6292778,27.3642628],[120.6183168,27.3651983],[120.6226652,27.3769649],[120.6112128,27.3777113],[120.6129411,27.3921302],[120.6001183,27.3904036],[120.5943453,27.3809626],[120.5600045,27.404263],[120.5426605,27.4009263],[120.5529081,27.3920955],[120.5406043,27.3948413],[120.5398602,27.3877586],[120.5610681,27.3792713],[120.5541372,27.3678764],[120.5321377,27.3578441],[120.535921,27.3377579],[120.5081655,27.3380771],[120.5254617,27.3262944],[120.5424294,27.3305025],[120.54277,27.3182899],[120.5634794,27.3280625],[120.5533071,27.321289],[120.5556808,27.3086739],[120.5402917,27.3007444],[120.5550143,27.3027274],[120.563415,27.2953452],[120.5437611,27.2911817],[120.5504827,27.2845275],[120.5392429,27.2760475],[120.5188233,27.2763258],[120.5249789,27.2640656],[120.5174205,27.2598013],[120.5203253,27.2484967],[120.5385268,27.2435677],[120.5255516,27.2330746],[120.532017,27.2253306],[120.5189466,27.2258279],[120.5111897,27.2157828],[120.5190968,27.1956255],[120.496404,27.19099],[120.4750503,27.1668843],[120.4571703,27.19285],[120.4686924,27.1943984],[120.458039,27.2111652],[120.4616141,27.2166855],[120.4450586,27.2216346],[120.4441829,27.2097268],[120.4312934,27.2141238],[120.4228009,27.1906369],[120.4348151,27.1785725],[120.4334432,27.1688023],[120.4171407,27.1814584],[120.4219687,27.1867957],[120.4030953,27.1946557],[120.3992879,27.2076464],[120.405052,27.2123289],[120.4021659,27.2145138],[120.4010796,27.2126175],[120.3966808,27.212379],[120.394696,27.2138961],[120.4101348,27.2346463],[120.3911394,27.2477288],[120.408445,27.2602805],[120.4177737,27.2534135],[120.4265445,27.2601709],[120.3976411,27.2865335],[120.4034185,27.2925165],[120.3906673,27.3059498],[120.3947389,27.3107115],[120.3832322,27.3114456],[120.3742629,27.3272594],[120.344764,27.3472738],[120.352124,27.3563362],[120.3387934,27.368828],[120.3483421,27.389554],[120.3415829,27.3991797],[120.3209567,27.3998608],[120.3133178,27.4122905],[120.3027338,27.3964841],[120.2853799,27.3995941],[120.2688307,27.390821],[120.2526784,27.4122429],[120.2613258,27.4245332],[120.2477592,27.4428017],[120.2133518,27.4214048],[120.2002627,27.4317324],[120.1734728,27.4236809],[120.13089,27.4257331],[120.1242971,27.4174573],[120.132612,27.4105857],[120.1295596,27.3979748],[120.1014715,27.4018563],[120.0917566,27.3953457],[120.0941491,27.3803228],[120.0732601,27.3734346],[120.046159,27.3404073],[120.0219548,27.3449437],[120.0234783,27.3550355],[119.9907446,27.383238],[119.9826926,27.3734823],[119.9518901,27.367899],[119.9510693,27.361982],[119.9619377,27.362649],[119.932149,27.3394638],[119.9396109,27.3385108],[119.9339783,27.3330211],[119.9406946,27.3175131],[119.9011481,27.321793],[119.8748195,27.3134808],[119.8716438,27.3040431],[119.8599923,27.3105543],[119.8674059,27.3188095],[119.8513555,27.3181136],[119.841485,27.3274072],[119.8301554,27.3157782],[119.8403156,27.3100395],[119.8361206,27.3022126],[119.8183536,27.3053587],[119.8146629,27.2994097],[119.791038,27.3137954],[119.7850299,27.3054922],[119.7659352,27.3089105],[119.7658038,27.329628],[119.7742796,27.3232419],[119.7802877,27.3303143],[119.7640013,27.3384727],[119.7644805,27.3490338],[119.7461417,27.3532863],[119.7352396,27.3664941],[119.7458227,27.3802365],[119.7362137,27.3787413],[119.7206783,27.4046329],[119.7051644,27.407395],[119.7002721,27.4278139],[119.6808958,27.4419829],[119.6986198,27.4497903],[119.7059798,27.4667553],[119.7054004,27.4999352],[119.6983194,27.5031708],[119.7040915,27.5176537],[119.6802628,27.5446256],[119.6607363,27.536549],[119.6530545,27.5436933],[119.6721196,27.5768025],[119.6277022,27.5849997],[119.6202349,27.6187143],[119.643538,27.643675],[119.6349335,27.6544522],[119.6381092,27.668288],[119.6155357,27.6769344],[119.5817184,27.6666726],[119.5696807,27.6747111],[119.5525789,27.6644871],[119.5380091,27.6794427],[119.5338249,27.6617314],[119.4965529,27.6528176],[119.492948,27.6291327],[119.4999003,27.6150068],[119.4837642,27.6024193],[119.486897,27.5898493],[119.4793439,27.582242],[119.4874763,27.5706398],[119.4652891,27.5282339],[119.4340467,27.51105],[119.4273734,27.5113545],[119.4284034,27.5271683],[119.4101858,27.5389083],[119.3632579,27.5343228],[119.3522072,27.5235529],[119.3410921,27.524276],[119.335041,27.5095846],[119.3404698,27.4915222],[119.3324661,27.4840604],[119.3163514,27.4854119],[119.3094206,27.4684308],[119.2754316,27.457978],[119.2632007,27.4248808],[119.2429447,27.4214715],[119.241035,27.4340035],[119.2395329,27.4224048],[119.2201566,27.4197953],[119.1912961,27.4210715],[119.1749882,27.4314134],[119.1432309,27.4284424],[119.1346693,27.4378695],[119.1168165,27.4391835],[119.1222882,27.4561121],[119.1133618,27.4635568],[119.1264725,27.4676311],[119.1217947,27.4838129],[119.1101432,27.4873726],[119.0857458,27.4678786],[119.0688533,27.4767789],[119.0610051,27.4701394],[119.0505016,27.482033],[119.0335286,27.4822329],[119.0161157,27.5016672],[118.9926892,27.4984934],[118.9867294,27.5082809],[118.9773416,27.5008107],[118.9849055,27.4815095],[118.9576757,27.4733521],[118.9527833,27.4525133],[118.9333534,27.4658034],[118.8988709,27.4651275],[118.8726604,27.5198897],[118.8563096,27.515332],[118.8521683,27.5225729],[118.8642168,27.5453486],[118.8739157,27.5398406],[118.8890755,27.5551271],[118.8923424,27.5734596],[118.9072823,27.5708871],[118.8978195,27.5859316],[118.9127004,27.6167179],[118.8988924,27.6282392],[118.8972938,27.6505843],[118.8699782,27.6856277],[118.876673,27.6943298],[118.8719737,27.7088445],[118.8963711,27.7100223],[118.8935709,27.7225499],[118.86765,27.7370038],[118.850559,27.7670546],[118.8511383,27.7794712],[118.8349807,27.7819772],[118.8344335,27.7928735],[118.8479411,27.7986915],[118.821795,27.850147],[118.8331139,27.8672776],[118.8230181,27.8777861],[118.8283528,27.8909045],[118.8155079,27.8984871],[118.814038,27.9205492],[118.7960672,27.9238387],[118.8023972,27.9263319],[118.7961638,27.9349389],[118.7472832,27.9460758],[118.7241518,27.9739557],[118.7285936,27.992772],[118.7202358,28.0143602],[118.7290335,28.0355559],[118.7257612,28.0420994],[118.712908,28.0353475],[118.7117815,28.0675025],[118.745513,28.0961744],[118.7593639,28.0984742],[118.767389,28.1172214],[118.7987816,28.1212146],[118.7957024,28.1423608],[118.8061416,28.1512438],[118.7943935,28.1719869],[118.7561345,28.1737649],[118.7679791,28.1933973],[118.7984705,28.2108042],[118.8088131,28.2336625],[118.7886858,28.2466493],[118.7616598,28.2381618],[118.7514138,28.2557505],[118.7236798,28.257735],[118.7411088,28.267955],[118.7295967,28.2617608],[118.7363881,28.2789912],[118.721872,28.284542],[118.7319517,28.2931723],[118.7279713,28.2977068],[118.7224245,28.2876881],[118.723771,28.3097129],[118.7071574,28.3205229],[118.7086379,28.3148559],[118.6890256,28.3078285],[118.6872125,28.2931109],[118.6701965,28.272552],[118.6565709,28.2724859],[118.6475265,28.2821517],[118.6168849,28.2596534],[118.6065908,28.2659151],[118.6097542,28.2752316],[118.5969615,28.2571775],[118.5903418,28.261997],[118.5924232,28.2760575],[118.5677361,28.2914954],[118.556267,28.282539],[118.5426092,28.2842397],[118.5448301,28.2703031],[118.5412574,28.2665329],[118.5414488,28.2771593],[118.5308182,28.2719378],[118.5186946,28.2813297],[118.5113776,28.2731378],[118.5007077,28.2832287],[118.4918457,28.2792652],[118.4874094,28.2664738],[118.4998548,28.2561852],[118.4870821,28.2414652],[118.4752643,28.249969],[118.436324,28.2518828],[118.4448588,28.2624317],[118.4335077,28.26435],[118.4281218,28.2915521],[118.4562039,28.3043918],[118.4664071,28.3205327],[118.4772813,28.3198665],[118.482163,28.3328522],[118.4764123,28.3383293],[118.4751892,28.330614],[118.4646535,28.3305385],[118.4730756,28.3371348],[118.4667993,28.336096],[118.4693635,28.3453878],[118.4529698,28.3831887],[118.430906,28.4048657],[118.4251821,28.4014612],[118.4349454,28.415265],[118.4521759,28.4192729],[118.4448803,28.4214054],[118.4614348,28.4522085],[118.4578514,28.4587807],[118.4648681,28.4542082],[118.4613919,28.4627163],[118.4773269,28.4731216],[118.4674242,28.4860037],[118.4521195,28.4856112],[118.4473828,28.4748911],[118.4328506,28.4962276],[118.4093544,28.5008477],[118.4339073,28.5056833],[118.4405834,28.5156449],[118.4338135,28.5250529],[118.4281916,28.5194817],[118.4237981,28.5191329],[118.4152579,28.547575],[118.4231865,28.5506756],[118.410548,28.5544546],[118.4038693,28.5671949],[118.4126509,28.576033],[118.4103978,28.5863777],[118.4205097,28.5893028],[118.415848,28.6003763],[118.4083378,28.5985865],[118.4080481,28.6113544],[118.4178972,28.61175],[118.4287977,28.6289282],[118.4168243,28.649465],[118.4274673,28.6545633],[118.4278643,28.679392],[118.4126508,28.6828416],[118.4142548,28.6948887],[118.406986,28.7010199],[118.3856249,28.7034761],[118.3871967,28.7135306],[118.3968633,28.717332],[118.390072,28.7262751],[118.3966112,28.7263409],[118.3863115,28.7351327],[118.394841,28.7389615],[118.382256,28.7491726],[118.3914345,28.7568244],[118.3801639,28.7582681],[118.3734691,28.7877056],[118.3784419,28.7902937],[118.3592159,28.8161712],[118.2952237,28.8284614],[118.2898379,28.8381985],[118.3000463,28.8436963],[118.2827032,28.8664553],[118.2656443,28.9210209],[118.2506653,28.9266185],[118.1897936,28.9067307],[118.188719,28.9165028],[118.2173066,28.9381702],[118.2208233,28.9495732],[118.1940401,28.957371],[118.1752646,28.9839342],[118.149989,28.9903421],[118.1414527,28.9793261],[118.1313246,28.9844094],[118.1201559,28.9977107],[118.1272035,29.0110861],[118.1224115,29.018647],[118.1082416,29.0120483],[118.1049031,28.9942635],[118.094589,28.993128],[118.1053555,29.0062825],[118.1024683,29.0140427],[118.0911988,29.0015627],[118.0825782,29.0335556],[118.0676758,29.0390477],[118.0604179,29.0525378],[118.0723368,29.066076],[118.0703728,29.0776412],[118.0321151,29.0970614],[118.0348992,29.1103353],[118.0483639,29.1179183],[118.0332087,29.1282887],[118.0384611,29.1603494],[118.022407,29.1709614],[118.0405984,29.2184916],[118.079198,29.2226775],[118.0677747,29.2921488],[118.0972308,29.2864268],[118.1089413,29.2957138],[118.1648868,29.2844945],[118.1620963,29.2942952],[118.174123,29.3017755],[118.1616561,29.3166413],[118.203979,29.3504463],[118.198235,29.3704043],[118.2031799,29.3799132],[118.1852859,29.3951428],[118.1995735,29.3984616],[118.2145187,29.4245278],[118.2440606,29.4342506],[118.2809088,29.4292468],[118.2914877,29.4209119],[118.3098184,29.4257255],[118.311215,29.4574747],[118.2993972,29.4924211],[118.3060753,29.5003523],[118.3258927,29.4985094],[118.3413309,29.4785103],[118.356885,29.4813193],[118.3781013,29.5126675],[118.4101591,29.512611],[118.4247832,29.5036182],[118.4356534,29.5179399],[118.4543471,29.5089013],[118.4539126,29.5159178],[118.4736912,29.511581],[118.4899589,29.521463],[118.4944474,29.578785],[118.531242,29.5936989],[118.5693937,29.6412762],[118.6158281,29.6569314],[118.6425483,29.6464467],[118.6885858,29.703738],[118.7133586,29.7100887],[118.7195975,29.7268513],[118.7401056,29.7416547],[118.7425035,29.7768147],[118.7257934,29.7889525],[118.7320912,29.7900605],[118.7327886,29.8153182],[118.7570036,29.822616],[118.7477875,29.8468743],[118.7603402,29.8519412],[118.7793705,29.8460205],[118.8382396,29.8953617],[118.8357935,29.934131],[118.8467691,29.943642],[118.8590536,29.9399232],[118.8676822,29.9504121],[118.8874877,29.9379824],[118.8862512,29.9651151],[118.8944024,29.9850805],[118.8851756,30.0125649],[118.8991016,30.0288772],[118.8861385,30.0391849],[118.8790682,30.1016023],[118.861721,30.1008771],[118.8612181,30.1230968],[118.8508809,30.1223498],[118.8588524,30.1364915],[118.876791,30.1270175],[118.8879544,30.1315041],[118.8947779,30.1467113],[118.8839545,30.1521612],[118.8767374,30.1346079],[118.8518894,30.1438306],[118.8549645,30.1499202],[118.8414294,30.158931],[118.8434786,30.1658233],[118.8952131,30.1826019],[118.9273513,30.2079592],[118.8994885,30.217685],[118.8997219,30.2270181],[118.8792057,30.2399236],[118.8772316,30.2522597],[118.8902135,30.2601833],[118.8728757,30.2856642],[118.8758127,30.3175523],[118.9187334,30.3358654],[118.9138518,30.3406526],[118.9346999,30.3470883],[118.9353651,30.3553745],[118.9486634,30.3621558],[118.9552993,30.3488196],[118.9642418,30.3546755],[118.9701051,30.3479956],[118.9823681,30.3512361],[118.9843637,30.3336158],[119.0262709,30.3303183],[119.0302835,30.3141299],[119.0434585,30.3138427],[119.0503464,30.3053399],[119.0856228,30.3256232],[119.1221649,30.3069525],[119.149046,30.3069108],[119.1821213,30.2939176],[119.205021,30.2948293],[119.2015261,30.3037939],[119.2121422,30.2945352],[119.2188048,30.3025063],[119.2230588,30.2906629],[119.2350108,30.3028074],[119.2444584,30.3437645],[119.27239,30.343093],[119.2952961,30.3663215],[119.3209595,30.3744765],[119.3387103,30.3660854],[119.3442464,30.3506065],[119.3961203,30.3705287],[119.3988455,30.3838757],[119.3621823,30.3882788],[119.3623674,30.3989283],[119.3513113,30.4093707],[119.356665,30.4202238],[119.3472451,30.4225182],[119.3457109,30.4402612],[119.3295264,30.4492286],[119.3316615,30.4736432],[119.3235827,30.486218],[119.3326485,30.5065747],[119.3228209,30.5224124],[119.3275912,30.5365206],[119.2671543,30.5116724],[119.2557388,30.5214419],[119.2570531,30.5294408],[119.2415177,30.5281562],[119.2364001,30.5355307],[119.2324036,30.5487304],[119.2413407,30.5631063],[119.2627126,30.5765378],[119.2513615,30.5973927],[119.234131,30.6085479],[119.2430681,30.6224071],[119.2513078,30.6160179],[119.3072909,30.6229887],[119.3349177,30.6677194],[119.352116,30.6694912],[119.384957,30.6913502],[119.4056529,30.6458551],[119.4410902,30.6517254],[119.4425708,30.6729333],[119.4594929,30.6801099],[119.4643208,30.6978382],[119.4802961,30.7035209],[119.4848183,30.7213141],[119.4748083,30.7378775],[119.4820395,30.7471539],[119.4738427,30.7560146],[119.4750926,30.7745125],[119.5219696,30.7784001],[119.550511,30.8282803],[119.5736772,30.831415],[119.5691724,30.861859],[119.5564963,30.8623655],[119.5508476,30.8755137],[119.5552276,30.8925109],[119.5481573,30.9028265],[119.5799542,30.9327757],[119.5763205,30.9456192],[119.5869742,30.9490789],[119.57497,30.9656594],[119.627198,31.0114998],[119.6328789,31.0299943],[119.6237165,31.0321915],[119.6285874,31.0470836],[119.6209806,31.0565691],[119.6281904,31.06723],[119.6207124,31.0831916],[119.6356536,31.1060759],[119.6453203,31.105194],[119.6320367,31.1091773],[119.6368606,31.1166899],[119.6198983,31.112483],[119.6140954,31.1238552],[119.629097,31.1351606],[119.6477061,31.1332458],[119.6462792,31.1437695],[119.633351,31.1364049],[119.6368807,31.1506103],[119.6690726,31.168986],[119.6982095,31.153413],[119.709861,31.1723068],[119.7460869,31.1713475],[119.7608283,31.1757813],[119.7605762,31.1825784],[119.7829673,31.1787232],[119.7889861,31.1684604],[119.7835144,31.1565439],[119.7936103,31.1603173],[119.8029014,31.1502269],[119.8271137,31.1632115],[119.8078233,31.1662824],[119.8218567,31.1775965],[119.8788482,31.1632345],[119.9162087,31.1737709],[119.9364942,31.1442424],[119.943409,31.1068119],[119.9802089,31.0628003],[119.9952547,31.0304436],[120.0483249,31.0081285],[120.1015305,30.9678995],[120.1044153,30.9583948],[120.1311368,30.9446541],[120.1935947,30.9310611],[120.2468929,30.9290122]],[[118.1830516,29.2949077],[118.1840564,29.3011892],[118.178378,29.3009517],[118.1830516,29.2949077]]],[[[120.9623641,30.4636723],[120.9674522,30.4633186],[120.9672023,30.4606726],[120.9623641,30.4636723]]],[[[121.2229999,27.6124001],[121.21412,27.61717],[121.2241901,27.61936],[121.2229999,27.6124001]]],[[[121.2051099,27.62092],[121.2106,27.6202099],[121.20091,27.61237],[121.2051099,27.62092]]],[[[121.1942209,27.6182045],[121.1907649,27.625252],[121.2025639,27.6289925],[121.1979103,27.6316207],[121.216042,27.6351138],[121.1942209,27.6182045]]],[[[121.1737599,27.6305301],[121.1621799,27.6321901],[121.1705101,27.63462],[121.1737599,27.6305301]]],[[[121.191334,27.6549673],[121.1869127,27.6541946],[121.1900155,27.657393],[121.191334,27.6549673]]],[[[121.2169808,27.8246215],[121.2198266,27.8213883],[121.2095618,27.8230464],[121.2169808,27.8246215]]],[[[121.1546399,27.87361],[121.1754901,27.8733699],[121.1483652,27.8621781],[121.1546399,27.87361]]],[[[121.19047,27.9818501],[121.1817232,27.9671877],[121.1689371,27.9836295],[121.1936407,28.0023129],[121.1904404,27.9967557],[121.2170478,27.9917995],[121.23515,27.99594],[121.19047,27.9818501]]],[[[121.4141001,28.0374301],[121.4077799,28.0408701],[121.41559,28.04173],[121.4141001,28.0374301]]],[[[121.24974,28.0434501],[121.2562574,28.0533129],[121.2566576,28.0466106],[121.24974,28.0434501]]],[[[121.2501371,28.0584479],[121.244683,28.0543217],[121.2458987,28.0582015],[121.2501371,28.0584479]]],[[[121.4013274,28.0556823],[121.413496,28.059572],[121.413314,28.0536973],[121.4013274,28.0556823]]],[[[121.2861154,28.0629737],[121.2782414,28.0652567],[121.2901913,28.0663398],[121.2861154,28.0629737]]],[[[121.4979234,28.0773004],[121.5047336,28.092786],[121.5228814,28.1050636],[121.5277899,28.0980153],[121.5218568,28.0900814],[121.5117019,28.0927411],[121.4979234,28.0773004]]],[[[121.4000095,28.0810328],[121.3970556,28.0952204],[121.4064486,28.1048597],[121.4091934,28.0862389],[121.4000095,28.0810328]]],[[[121.4873689,28.1008308],[121.4825436,28.0995934],[121.4863068,28.1026172],[121.4873689,28.1008308]]],[[[121.3522074,28.0929766],[121.3391987,28.0946235],[121.369454,28.1120797],[121.3522074,28.0929766]]],[[[121.3890601,28.12965],[121.39946,28.1325901],[121.38394,28.1223899],[121.3890601,28.12965]]],[[[121.4160946,28.211388],[121.4193079,28.2112202],[121.4185837,28.2082704],[121.4160946,28.211388]]],[[[121.6449393,28.2243527],[121.6511232,28.2239332],[121.6487789,28.2206647],[121.6449393,28.2243527]]],[[[121.1507732,28.2293876],[121.1787486,28.2388683],[121.1683926,28.2135282],[121.1575162,28.2100751],[121.1507732,28.2293876]]],[[[121.6358131,28.2296334],[121.6405633,28.2268353],[121.6292296,28.2304841],[121.6420493,28.2350142],[121.6358131,28.2296334]]],[[[121.6099662,28.2518976],[121.6009337,28.2452387],[121.5891534,28.2459405],[121.6001961,28.2454844],[121.6099662,28.2518976]]],[[[121.1632454,28.2467001],[121.1677194,28.2557209],[121.1711553,28.2484167],[121.1632454,28.2467001]]],[[[121.1962621,28.2616102],[121.2007937,28.2655454],[121.2034856,28.2602178],[121.1962621,28.2616102]]],[[[121.6832292,28.2926196],[121.6852033,28.2846932],[121.6830844,28.2767661],[121.6731776,28.2832004],[121.6832292,28.2926196]]],[[[121.6562167,28.290194],[121.6602373,28.2992324],[121.6614524,28.2936187],[121.6562167,28.290194]]],[[[121.6452438,28.3034219],[121.6509327,28.3000212],[121.6444445,28.2953191],[121.6452438,28.3034219]]],[[[121.2043127,28.3287512],[121.2072283,28.3329608],[121.2097791,28.3284254],[121.2043127,28.3287512]]],[[[121.1696854,28.3385654],[121.1877394,28.3544982],[121.2032948,28.3310213],[121.1920457,28.3222489],[121.1696854,28.3385654]]],[[[121.1964807,28.365208],[121.2067831,28.3562413],[121.2035081,28.3409356],[121.1928141,28.3601689],[121.1964807,28.365208]]],[[[121.6532837,28.3595588],[121.6387019,28.3527715],[121.6533145,28.3681983],[121.6532837,28.3595588]]],[[[121.6782384,28.3770221],[121.6823825,28.3700767],[121.6738925,28.3747662],[121.6782384,28.3770221]]],[[[121.660303,28.4138837],[121.6687077,28.4176216],[121.662278,28.4068789],[121.660303,28.4138837]]],[[[121.669271,28.4088977],[121.6764379,28.4177561],[121.684632,28.4070834],[121.669271,28.4088977]]],[[[121.6708454,28.4231416],[121.6485871,28.4199677],[121.6598546,28.426935],[121.6708454,28.4231416]]],[[[121.6695003,28.4300435],[121.6465527,28.4307298],[121.6340536,28.4302841],[121.6365695,28.4358198],[121.6695003,28.4300435]]],[[[121.6451244,28.5351046],[121.6491008,28.5378721],[121.6480896,28.5304447],[121.6451244,28.5351046]]],[[[121.6505277,28.5465784],[121.6436774,28.5488355],[121.6510454,28.5479614],[121.6505277,28.5465784]]],[[[121.6740024,28.8909706],[121.672381,28.8847989],[121.6524938,28.8966559],[121.7013542,28.9055272],[121.700791,28.8902779],[121.6896048,28.8836575],[121.6740024,28.8909706]]],[[[121.6754615,29.0638129],[121.6669053,29.0571076],[121.6541004,29.0668841],[121.6754615,29.0638129]]],[[[121.6654623,29.0726512],[121.6712719,29.0747188],[121.6697967,29.0698802],[121.6654623,29.0726512]]],[[[121.5964007,29.198536],[121.5952098,29.1928088],[121.5876943,29.1935534],[121.5964007,29.198536]]],[[[121.5989542,29.2058456],[121.6104555,29.2003529],[121.6089696,29.1994445],[121.5989542,29.2058456]]],[[[121.5649475,29.4864576],[121.5723321,29.4885336],[121.5724975,29.4851752],[121.5649475,29.4864576]]],[[[121.5314227,29.4885564],[121.5291747,29.4886915],[121.5338586,29.494277],[121.5314227,29.4885564]]],[[[121.5868742,29.4978395],[121.5799706,29.4932874],[121.5751913,29.490432],[121.5868742,29.4978395]]],[[[121.5899044,29.4965954],[121.5988952,29.5110149],[121.6078752,29.5073431],[121.5899044,29.4965954]]],[[[121.6564799,29.53638],[121.65509,29.5409901],[121.6633799,29.53669],[121.6564799,29.53638]]],[[[121.6961226,29.5515429],[121.6762501,29.541955],[121.661396,29.5464399],[121.6828215,29.5565757],[121.6961226,29.5515429]]],[[[121.64362,30.25992],[121.6497225,30.2593914],[121.6488666,30.2579223],[121.64362,30.25992]]],[[[121.5669834,30.577507],[121.5711481,30.5838126],[121.5690211,30.5790098],[121.5669834,30.577507]]],[[[121.6334643,30.6124334],[121.6131671,30.6082294],[121.6268142,30.6183539],[121.6334643,30.6124334]]],[[[121.6886473,28.2700681],[121.6961762,28.271039],[121.6948807,28.2682881],[121.6886473,28.2700681]]],[[[121.7296851,28.2714382],[121.7349234,28.272976],[121.7343199,28.270107],[121.7296851,28.2714382]]],[[[121.6848841,28.2723063],[121.6843209,28.2764449],[121.6861635,28.2752036],[121.6848841,28.2723063]]],[[[121.6853937,28.3879661],[121.6885173,28.3798127],[121.6825316,28.3780996],[121.6853937,28.3879661]]],[[[121.7197873,28.3806339],[121.7255001,28.3857899],[121.7281672,28.3804765],[121.7197873,28.3806339]]],[[[121.9095138,28.399149],[121.9168013,28.3987314],[121.9080887,28.3909756],[121.9095138,28.399149]]],[[[121.7145676,28.4061106],[121.7166087,28.4074682],[121.7181314,28.4048014],[121.7145676,28.4061106]]],[[[121.8867736,28.4075295],[121.8928417,28.4125705],[121.8904276,28.4101266],[121.8867736,28.4075295]]],[[[121.8512433,28.4342507],[121.8566673,28.4302513],[121.8472081,28.4272821],[121.8512433,28.4342507]]],[[[121.9158572,28.4554546],[121.8904218,28.4363576],[121.8834467,28.4419391],[121.8645532,28.4284643],[121.8852344,28.453614],[121.9158572,28.4554546]]],[[[121.923704,28.4577113],[121.9119197,28.4610987],[121.9140172,28.4665598],[121.923704,28.4577113]]],[[[121.8946298,28.5012911],[121.9129834,28.499266],[121.8996061,28.4886089],[121.9031036,28.4799827],[121.8726072,28.4784032],[121.8916679,28.4899768],[121.8782593,28.4926922],[121.8859509,28.5013035],[121.8674463,28.5022566],[121.8932267,28.5160931],[121.8870249,28.5098721],[121.8946298,28.5012911]]],[[[121.8083136,28.6038704],[121.8163046,28.6029183],[121.8066327,28.5991052],[121.8083136,28.6038704]]],[[[121.8114613,28.6144538],[121.8201145,28.6114412],[121.8171549,28.6067466],[121.8000491,28.6016666],[121.8114613,28.6144538]]],[[[121.8600201,28.6166899],[121.8693501,28.61626],[121.86617,28.61404],[121.8600201,28.6166899]]],[[[121.7431169,28.693861],[121.7541688,28.6975016],[121.7436594,28.6938081],[121.7572032,28.690403],[121.7622545,28.7077218],[121.773252,28.7049341],[121.7678401,28.69665],[121.7759103,28.6911806],[121.7870864,28.6923225],[121.8036745,28.706479],[121.789189,28.6829272],[121.7783271,28.68286],[121.76845,28.69434],[121.7517268,28.6874666],[121.7431169,28.693861]]],[[[121.9147201,28.6973999],[121.90813,28.7001701],[121.91279,28.7007299],[121.9147201,28.6973999]]],[[[121.8587959,28.740208],[121.8689883,28.7324797],[121.8582219,28.7256259],[121.8565214,28.7322822],[121.843687,28.7316848],[121.8533134,28.7407301],[121.8437246,28.7465689],[121.8553787,28.7544165],[121.8587476,28.7492149],[121.8762571,28.7536076],[121.8587959,28.740208]]],[[[121.80128,28.75792],[121.8123399,28.7600701],[121.80394,28.7551099],[121.80128,28.75792]]],[[[121.9068718,28.7639066],[121.8884075,28.7587337],[121.8936109,28.7544118],[121.877228,28.7533113],[121.8896359,28.7652139],[121.9068718,28.7639066]]],[[[121.8276899,28.7715301],[121.8195601,28.7676],[121.8160001,28.75959],[121.8172001,28.7691199],[121.8276899,28.7715301]]],[[[121.83393,28.77414],[121.8477901,28.7884201],[121.84173,28.7947899],[121.8528001,28.7972],[121.85386,28.80776],[121.84653,28.81027],[121.8628199,28.8158099],[121.86785,28.8104501],[121.86074,28.8060199],[121.87377,28.80252],[121.85975,28.80241],[121.8580399,28.7856699],[121.83393,28.77414]]],[[[121.6955801,28.8304899],[121.6897299,28.83121],[121.6993799,28.83054],[121.6955801,28.8304899]]],[[[121.84353,28.8436801],[121.85197,28.8465801],[121.8488099,28.84218],[121.84353,28.8436801]]],[[[121.7655113,28.8801276],[121.7653021,28.8759234],[121.7588353,28.8747961],[121.7655113,28.8801276]]],[[[121.7605499,28.8943901],[121.7560999,28.8994901],[121.76047,28.90056],[121.7605499,28.8943901]]],[[[121.7654199,28.90266],[121.77067,28.9037301],[121.77158,28.90092],[121.7654199,28.90266]]],[[[121.72281,28.92104],[121.7254801,28.91824],[121.7185001,28.9149601],[121.72281,28.92104]]],[[[121.8045301,28.95883],[121.79805,28.9621199],[121.79804,28.96315],[121.8045301,28.95883]]],[[[121.7635499,28.9865],[121.77291,28.98607],[121.7688601,28.98217],[121.7635499,28.9865]]],[[[121.8003399,29.04264],[121.80206,29.04599],[121.8063499,29.04218],[121.8003399,29.04264]]],[[[121.68533,29.06446],[121.6771499,29.0628299],[121.6771401,29.06412],[121.68533,29.06446]]],[[[121.78368,29.0777299],[121.7797599,29.0756399],[121.7822001,29.07943],[121.78368,29.0777299]]],[[[121.8378901,29.08747],[121.82518,29.0852999],[121.8369901,29.0761501],[121.8264501,29.0637101],[121.8341001,29.05966],[121.81759,29.0569399],[121.8146545,29.0658909],[121.80363,29.0624801],[121.78646,29.07801],[121.7878173,29.0996528],[121.81624,29.1021929],[121.8378901,29.08747]]],[[[121.7041401,29.0816199],[121.6905999,29.08791],[121.6949,29.09503],[121.7041401,29.0816199]]],[[[121.7423099,29.09715],[121.7461,29.09848],[121.7452999,29.0912701],[121.7423099,29.09715]]],[[[121.690836,29.0961404],[121.6775322,29.1058218],[121.6771406,29.1132974],[121.6865471,29.1134426],[121.6953823,29.1020768],[121.690836,29.0961404]]],[[[121.6865432,29.1235089],[121.689396,29.1158212],[121.682194,29.1188393],[121.6865432,29.1235089]]],[[[121.7956379,29.1528968],[121.7965425,29.1427354],[121.7977166,29.1531369],[121.83006,29.1401649],[121.8664965,29.1441439],[121.8673508,29.1220189],[121.8847167,29.1211824],[121.870383,29.0902879],[121.8300855,29.0978653],[121.8285285,29.1060574],[121.8095747,29.1141445],[121.7832783,29.1134637],[121.7750734,29.1419301],[121.7956379,29.1528968]]],[[[121.8257779,29.1475348],[121.81905,29.14736],[121.8161327,29.1499875],[121.8257779,29.1475348]]],[[[121.8156606,29.1532529],[121.8214247,29.1560637],[121.823903,29.1527773],[121.8156606,29.1532529]]],[[[121.8523452,29.1614627],[121.8638706,29.1694846],[121.875034,29.1654632],[121.8523452,29.1614627]]],[[[121.89153,29.16419],[121.8817099,29.1642201],[121.90233,29.16852],[121.89153,29.16419]]],[[[121.7884415,29.311474],[121.7854241,29.3074675],[121.7850834,29.3148442],[121.7884415,29.311474]]],[[[121.7378699,29.60121],[121.75092,29.6046801],[121.7475871,29.6007435],[121.7378699,29.60121]]],[[[121.81027,29.97453],[121.80496,29.97475],[121.8096601,29.9765899],[121.81027,29.97453]]],[[[121.84364,30.1029099],[121.88219,30.0950099],[121.8745999,30.0844],[121.8882126,30.083715],[121.8850401,30.07703],[121.8986272,30.0599311],[121.9192781,30.0513204],[121.92844,30.00101],[121.8609251,29.9687594],[121.8479625,29.9732877],[121.8362427,30.0002675],[121.8451545,30.009807],[121.8386626,30.0534533],[121.8523246,30.0702136],[121.84364,30.1029099]]],[[[121.8200742,30.069465],[121.8239754,30.0765077],[121.8158738,30.0902405],[121.8379497,30.1025606],[121.839956,30.080291],[121.8479919,30.0717959],[121.8408385,30.0622902],[121.8200742,30.069465]]],[[[121.8572415,30.1074195],[121.85884,30.11873],[121.8644799,30.1172299],[121.8653928,30.1089034],[121.8572415,30.1074195]]],[[[121.89112,30.2208401],[121.89469,30.2198401],[121.88674,30.2155299],[121.89112,30.2208401]]],[[[121.7165451,30.2511116],[121.7232733,30.2510543],[121.7218195,30.2493351],[121.7165451,30.2511116]]],[[[121.8982933,30.3379039],[121.8925122,30.3404983],[121.8962226,30.3421455],[121.8982933,30.3379039]]],[[[121.7177299,30.57388],[121.7251,30.57832],[121.72736,30.57577],[121.7177299,30.57388]]],[[[121.93823,28.7233099],[121.91679,28.70925],[121.9125901,28.7202801],[121.93823,28.7233099]]],[[[121.9270635,29.0435642],[121.9503584,29.0474871],[121.9325513,29.0367261],[121.9270635,29.0435642]]],[[[121.9619912,29.0568919],[121.9457035,29.0513478],[121.9444817,29.0580266],[121.9294319,29.057063],[121.927695,29.0774243],[121.9106537,29.0801854],[121.900236,29.0728235],[121.9032133,29.0930255],[121.889365,29.1216979],[121.8672582,29.1309857],[121.87308,29.146592],[121.9036947,29.1562886],[121.9291046,29.1807703],[121.9436932,29.184941],[121.9815069,29.1492238],[121.97315,29.14915],[121.9708425,29.1410996],[121.980249,29.132033],[121.9748953,29.1273236],[121.9824511,29.1089762],[121.9581717,29.0967661],[121.9798306,29.0895004],[121.9592124,29.0805299],[121.9533196,29.059914],[121.9619912,29.0568919]]],[[[121.9742462,29.1945977],[121.9667226,29.1832269],[121.9772074,29.1783161],[121.97505,29.16382],[121.9487464,29.1894065],[121.9742462,29.1945977]]],[[[122.040765,29.1795034],[122.0582423,29.1744028],[122.0700413,29.1800912],[122.0507012,29.1615611],[122.0380881,29.1706017],[122.0316401,29.1545295],[122.0241702,29.1611419],[122.0094395,29.1548715],[122.0170777,29.1705865],[122.0114887,29.1736381],[122.0168799,29.1744403],[122.0203856,29.168577],[122.0226788,29.1802388],[122.0379084,29.1819647],[122.0264621,29.1896688],[122.0354515,29.1924459],[122.0279574,29.1993836],[122.0354274,29.2014803],[122.0317554,29.2085848],[122.0507629,29.2034868],[122.0434003,29.1977926],[122.0525466,29.1907834],[122.0403144,29.1878025],[122.040765,29.1795034]]],[[[121.9376436,29.1879812],[121.93574,29.1892267],[121.9376398,29.1905488],[121.9376436,29.1879812]]],[[[121.9487168,29.1991503],[121.9489717,29.2145265],[121.9578713,29.2151984],[121.9674656,29.1964311],[121.9487168,29.1991503]]],[[[121.9511755,29.2227271],[121.95127,29.22588],[121.9540733,29.2246509],[121.9511755,29.2227271]]],[[[121.9903101,29.22143],[121.9796699,29.2303501],[121.9928701,29.2299299],[121.9903101,29.22143]]],[[[122.00696,29.2277199],[121.9972399,29.23331],[122.01273,29.2380599],[122.00696,29.2277199]]],[[[121.9721648,29.2339505],[121.9734299,29.2390418],[121.9802141,29.2355514],[121.9721648,29.2339505]]],[[[122.0285247,29.2898939],[122.0318319,29.2903535],[122.0290169,29.2866258],[122.0285247,29.2898939]]],[[[121.98904,29.2908599],[121.9814399,29.28823],[121.9793399,29.2928501],[121.98904,29.2908599]]],[[[122.00128,29.2990701],[122.00997,29.29591],[122.00483,29.2969],[122.00128,29.2990701]]],[[[121.9964301,29.34596],[122.0034599,29.34704],[122.0083499,29.34296],[121.9964301,29.34596]]],[[[121.9811099,29.35073],[121.97339,29.34527],[121.9807899,29.3394101],[121.9656301,29.3428999],[121.9811099,29.35073]]],[[[121.9695301,29.40774],[121.9693399,29.41211],[121.97616,29.4054799],[121.9695301,29.40774]]],[[[122.0144017,29.4118811],[122.0133338,29.4059075],[122.0005744777708,29.408701538771837],[122.0022585,29.4153363],[122.0144017,29.4118811]]],[[[121.9884365,29.4727465],[121.9748155,29.4780944],[121.9833714,29.4773777],[121.9884365,29.4727465]]],[[[121.9859661,29.5120525],[122.0008296,29.5053636],[121.9804341,29.507168],[121.979612,29.4995812],[121.9719234,29.5006271],[121.9859661,29.5120525]]],[[[121.96635,29.50571],[121.9645101,29.51161],[121.9695201,29.5108799],[121.96635,29.50571]]],[[[121.99751,29.5645899],[121.99784,29.5612499],[121.99518,29.5627701],[121.99751,29.5645899]]],[[[122.0291939,29.626965],[122.0335559,29.6162673],[122.0220814,29.606973],[122.0185845,29.6212817],[122.0291939,29.626965]]],[[[121.99662,29.6252799],[121.9997899,29.63122],[122.00452,29.62997],[121.99662,29.6252799]]],[[[121.9897501,29.635],[121.9879999,29.63345],[121.9858899,29.63832],[121.9897501,29.635]]],[[[121.96205,29.63736],[121.95381,29.6361401],[121.9538956,29.6369898],[121.96205,29.63736]]],[[[122.0099652,29.7117893],[122.0053679,29.7128469],[122.0087716,29.7147734],[122.0099652,29.7117893]]],[[[122.0279655,29.7244591],[122.032257,29.7397753],[122.0254415,29.7395214],[122.019074,29.7158334],[122.0105687,29.7227214],[122.0084524,29.7483663],[122.0209032,29.7583281],[122.0392656,29.7563861],[122.0279655,29.7244591]]],[[[121.9977826,29.753295],[121.9943199,29.7549704],[121.9974232,29.7573129],[121.9977826,29.753295]]],[[[122.0500588,29.75927],[122.0434982,29.7597729],[122.0517661,29.7611607],[122.0500588,29.75927]]],[[[122.0388794,29.7661609],[122.04209,29.7669572],[122.0408562,29.7627312],[122.0388794,29.7661609]]],[[[122.0204192,29.7970942],[122.0252886,29.7927502],[121.9947624,29.7648559],[121.9236487,29.7496311],[121.9293433,29.7655485],[121.9782984,29.8074421],[122.0241809,29.8235537],[122.030822,29.8155346],[122.0204192,29.7970942]]],[[[122.02817,29.80285],[122.0339479,29.8027763],[122.02883,29.7959101],[122.02817,29.80285]]],[[[122.0342663,29.8128999],[122.0348933,29.8141339],[122.0393639,29.8087014],[122.0342663,29.8128999]]],[[[122.0201868,29.8930331],[122.0196769,29.8841011],[122.0119026,29.8783683],[122.0094651,29.8927316],[122.0201868,29.8930331]]],[[[121.9728596,29.8948723],[121.9774066,29.8927741],[121.9550829,29.8926434],[121.9728596,29.8948723]]],[[[121.9852471,29.8959537],[121.9957071,29.9001527],[121.9979547,29.8943576],[121.9852471,29.8959537]]],[[[122.0036113,29.8957906],[122.0025821,29.9010112],[122.0133291,29.9027378],[122.0036113,29.8957906]]],[[[122.0256547,29.9084314],[122.0208898,29.908992],[122.0255211,29.9133061],[122.0256547,29.9084314]]],[[[122.0057434,29.918282],[122.0171964,29.9147564],[122.0131382,29.9039301],[122.0025744,29.9088697],[122.0057434,29.918282]]],[[[121.9438326,29.8935294],[121.9221738,29.9302376],[121.9652735,29.9570505],[121.9979086,29.9201883],[121.9943789,29.9032512],[121.9438326,29.8935294]]],[[[122.0402527,29.9664768],[122.0529771,29.958762],[122.03462,29.9325248],[122.0261013,29.9545186],[122.0402527,29.9664768]]],[[[122.0391245,29.9858605],[122.04732,29.9913799],[122.0510957,29.9834806],[122.0391245,29.9858605]]],[[[121.9604918,30.06122],[121.9676292,30.0657142],[121.9701236,30.0521219],[121.9604918,30.06122]]],[[[121.97458,30.0687599],[121.9699999,30.0679501],[121.9724472,30.0702715],[121.97458,30.0687599]]],[[[121.9826982,30.0867835],[121.9873886,30.0756984],[121.9782745,30.0699651],[121.9721199,30.07723],[121.9826982,30.0867835]]],[[[121.9405741,30.0677865],[121.9259401,30.06901],[121.9308796,30.0804294],[121.9075901,30.09702],[121.9369699,30.1156501],[121.9581914,30.108354],[121.9405741,30.0677865]]],[[[121.9688134,30.0880811],[121.9622272,30.0991553],[121.9735703,30.1019086],[121.9780442,30.0951766],[121.9688134,30.0880811]]],[[[122.0618713,30.1908644],[122.0602834,30.1830245],[122.0275819,30.1637912],[122.010688,30.1831647],[122.039094,30.202473],[122.0618713,30.1908644]]],[[[121.9638486,30.298595],[121.9533625,30.290612],[121.9169408,30.311931],[121.9386131,30.3352722],[121.9782346,30.3447319],[121.9843447,30.3411995],[121.9781435,30.3331771],[121.9882446,30.3291107],[121.9954008,30.3087054],[121.9842482,30.2931549],[121.9638486,30.298595]]],[[[121.9906799,30.5902899],[121.98917,30.5927299],[121.9951099,30.59303],[121.9906799,30.5902899]]],[[[122.0218099,30.59722],[122.0295799,30.5941899],[122.0202399,30.5919401],[122.0218099,30.59722]]],[[[122.0044318,30.6581469],[122.0425124,30.6544978],[122.0378374,30.6493176],[122.0044318,30.6581469]]],[[[122.05376,29.20877],[122.0581499,29.2098299],[122.0561599,29.20339],[122.05376,29.20877]]],[[[122.17062,29.40554],[122.1812779,29.4032917],[122.170034,29.4024879],[122.17062,29.40554]]],[[[122.2011383,29.4205269],[122.1859503,29.4201788],[122.17669,29.4111112],[122.1760167,29.4268838],[122.1947801,29.4269948],[122.194701,29.4379414],[122.2064558,29.4430873],[122.2226255,29.4355237],[122.2038031,29.4358368],[122.2011383,29.4205269]]],[[[122.2068635,29.4476817],[122.1986548,29.4498099],[122.1989349,29.4512062],[122.2068635,29.4476817]]],[[[122.1871546,29.4551731],[122.1789511,29.459029],[122.1906039,29.4675237],[122.1871546,29.4551731]]],[[[122.15149,29.62122],[122.15158,29.6109299],[122.1412801,29.61087],[122.15149,29.62122]]],[[[122.13378,29.62676],[122.13405,29.63011],[122.1386301,29.62757],[122.13378,29.62676]]],[[[122.14256,29.63299],[122.14579,29.63456],[122.14524,29.62967],[122.14256,29.63299]]],[[[122.1504044,29.6746272],[122.1371815,29.6638676],[122.1375093,29.6787628],[122.1273319,29.6720819],[122.1054139,29.6784854],[122.0746537,29.7086842],[122.0443019,29.7219317],[122.0590346,29.7421187],[122.0683483,29.7764398],[122.0999591,29.781731],[122.1201783,29.7937876],[122.1417414,29.7465724],[122.1743905,29.7307207],[122.2060867,29.6928282],[122.1983992,29.6913798],[122.1872399,29.66002],[122.1780099,29.6540501],[122.1720479,29.6613289],[122.1771494,29.6726311],[122.1544201,29.6585299],[122.1504044,29.6746272]]],[[[122.1956459,29.767],[122.1965262,29.7585493],[122.1896195,29.7576249],[122.1879888,29.7656859],[122.1956459,29.767]]],[[[122.188316,29.7884404],[122.170195,29.7980817],[122.197693,29.7928212],[122.188316,29.7884404]]],[[[122.1639454,29.7985006],[122.157429,29.8055465],[122.1700126,29.8096886],[122.1739501,29.8054877],[122.1639454,29.7985006]]],[[[122.1802412,29.8186751],[122.1917707,29.8222389],[122.1972719,29.8074788],[122.1911055,29.8076976],[122.1802412,29.8186751]]],[[[122.0637708,29.8281931],[122.0434719,29.8083476],[122.0316702,29.8223479],[122.0553809,29.8324186],[122.0637708,29.8281931]]],[[[122.0583128,29.9420056],[122.0508605,29.9455093],[122.05776,29.94876],[122.0583128,29.9420056]]],[[[122.0782649,29.9557154],[122.0855579,29.9579951],[122.0942214,29.9436141],[122.0787263,29.938617],[122.0782649,29.9557154]]],[[[122.0651033,29.9497419],[122.0637976,29.9536327],[122.0666127,29.9529462],[122.0651033,29.9497419]]],[[[122.16232,29.9500542],[122.136432,29.9471793],[122.1277222,29.9573375],[122.1571709,29.9683014],[122.1654072,29.9594405],[122.16232,29.9500542]]],[[[122.0670266,29.9601678],[122.073061,29.9649832],[122.0717767,29.9516089],[122.0670266,29.9601678]]],[[[122.0824224,29.9589595],[122.08066,29.96384],[122.0827009,29.9653399],[122.0824224,29.9589595]]],[[[122.1244676,29.9639301],[122.1242772,29.9676704],[122.1425392,29.9672885],[122.1244676,29.9639301]]],[[[122.0884092,29.9721098],[122.0917785,29.9637954],[122.0897635,29.9636367],[122.0884092,29.9721098]]],[[[122.12113,29.96373],[122.1060377,29.962702],[122.1093892,29.9806668],[122.123475,29.9756437],[122.12113,29.96373]]],[[[122.1943026,29.9606584],[122.178998,29.9587829],[122.1382759,29.9766111],[122.1641911,29.9904299],[122.1943026,29.9606584]]],[[[122.1314341,29.9766333],[122.1359002,29.9773728],[122.1358541,29.973113],[122.1314341,29.9766333]]],[[[122.0809129,29.9740505],[122.07701,29.97578],[122.0804122,29.9767123],[122.0809129,29.9740505]]],[[[122.0625748,29.9788375],[122.0660602,29.9796707],[122.0653681,29.9741137],[122.0625748,29.9788375]]],[[[122.0820791,29.9801412],[122.0903952,29.9843823],[122.0933048,29.9797259],[122.0820791,29.9801412]]],[[[122.1785232,29.9841303],[122.1848962,29.9770883],[122.1728651,29.9871098],[122.1785232,29.9841303]]],[[[122.1015978,29.9830671],[122.1071915,29.9847486],[122.1052668,29.981472],[122.1015978,29.9830671]]],[[[122.135079,29.9840143],[122.1294342,29.9860425],[122.1405887,29.9881753],[122.135079,29.9840143]]],[[[122.0685808,30.0000716],[122.089602,29.9856403],[122.0694391,29.9749862],[122.0685808,30.0000716]]],[[[122.0923993,29.995675],[122.09188,29.9971],[122.0965901,29.99867],[122.0923993,29.995675]]],[[[122.0960604,30.001552],[122.0992739,30.0036941],[122.1037828,29.9964886],[122.0960604,30.001552]]],[[[122.2909157,30.1021653],[122.2999976,30.0918804],[122.2953567,30.0779765],[122.2606878,30.079341],[122.2506358,30.0667367],[122.2872464,30.0668989],[122.3259643,30.0205435],[122.3417657,30.0169224],[122.32805,30.0057199],[122.3366081,29.9989973],[122.3183774,29.9447602],[122.2802004,29.9412039],[122.2307582,29.9722119],[122.1643793,29.994126],[122.11971,29.98996],[122.098478,30.0094239],[122.065829,30.0110574],[122.02543,29.99366],[122.0005802960519,30.03568508883976],[121.974738,30.05992],[121.9888831,30.0744673],[121.9846539,30.103804],[121.9486982,30.153064],[121.9342518,30.162081],[121.948845,30.1848621],[121.9765608,30.1721742],[121.9757219,30.1651172],[122.0296832,30.1507548],[122.0275217,30.1436413],[122.0984942,30.1602674],[122.1502308,30.1116242],[122.1656937,30.1181624],[122.1848265,30.1098939],[122.236852,30.1100329],[122.2536843,30.1000645],[122.2909157,30.1021653]]],[[[122.1435081,30.1339489],[122.157955,30.1203996],[122.13617,30.1307781],[122.1435081,30.1339489]]],[[[122.1600366,30.1344406],[122.1659653,30.137485],[122.1662463,30.1347341],[122.1600366,30.1344406]]],[[[122.1344112,30.1666004],[122.1297046,30.1668897],[122.1323487,30.1696399],[122.1344112,30.1666004]]],[[[122.1222816,30.1679449],[122.1186767,30.1677901],[122.1258079,30.1710693],[122.1222816,30.1679449]]],[[[122.2136842,30.1916542],[122.199012,30.1835591],[122.203379,30.1760034],[122.1823517,30.172627],[122.1784834,30.1664573],[122.18492,30.16333],[122.171272,30.1577521],[122.1642024,30.1409874],[122.1476328,30.1496226],[122.1399618,30.1650906],[122.1429491,30.1896739],[122.1729265,30.2019296],[122.1741577,30.1926879],[122.2136842,30.1916542]]],[[[122.2012128,30.2043097],[122.209595,30.2064021],[122.2051174,30.2006066],[122.2012128,30.2043097]]],[[[122.0819037,30.2107126],[122.0751932,30.206858],[122.0783285,30.213327],[122.0819037,30.2107126]]],[[[122.1306109,30.2236235],[122.1493402,30.2196874],[122.1238822,30.2099909],[122.1306109,30.2236235]]],[[[122.1963224,30.2281126],[122.2009358,30.2173472],[122.1751812,30.2178153],[122.1755621,30.2296769],[122.1963224,30.2281126]]],[[[122.1524929,30.2377679],[122.1563024,30.241359],[122.1601224,30.2395381],[122.1524929,30.2377679]]],[[[122.1973986,30.2411558],[122.1958932,30.237297],[122.1947288,30.2426466],[122.1973986,30.2411558]]],[[[122.2087169,30.3361519],[122.2235723,30.331758],[122.2164819,30.327548],[122.228588,30.3062972],[122.2424483,30.3046525],[122.217145,30.2925811],[122.2337412,30.2770426],[122.223984,30.2619678],[122.2269378,30.2367715],[122.2180546,30.2333459],[122.2137815,30.2397034],[122.2000185,30.2382801],[122.1974409,30.2429991],[122.1893473,30.247149],[122.1440126,30.2501437],[122.1119964,30.26933],[122.1129245,30.2754199],[122.0985492,30.277756],[122.1020441,30.284582],[122.0980167,30.2780838],[122.0485441,30.303138],[122.0619665,30.3014921],[122.0684159,30.3087054],[122.0870411,30.3016495],[122.1163174,30.3197433],[122.1302113,30.315263],[122.1346544,30.3209889],[122.1265621,30.3345927],[122.0948222,30.3229731],[122.0872705,30.326586],[122.1238075,30.3385501],[122.1392879,30.316599],[122.1484711,30.3179703],[122.1731025,30.3411173],[122.1706322,30.3534708],[122.1871211,30.3396549],[122.18935,30.3280851],[122.2087169,30.3361519]]],[[[122.1360579,30.5647168],[122.133992,30.5660647],[122.1401821,30.568478],[122.1360579,30.5647168]]],[[[122.06752,30.5749201],[122.05129,30.59345],[122.0921601,30.5937399],[122.0775372,30.587561],[122.0939077,30.5893312],[122.06752,30.5749201]]],[[[122.1528026,30.5865586],[122.1626272,30.5854973],[122.1518251,30.5833742],[122.1528026,30.5865586]]],[[[122.1263605,30.5921816],[122.1314767,30.5923041],[122.1306906,30.588937],[122.1263605,30.5921816]]],[[[122.0459223,30.5899065],[122.0459199,30.5948401],[122.0495786,30.5939791],[122.0459223,30.5899065]]],[[[122.1119926,30.6224304],[122.1429,30.6216],[122.1200048,30.597005],[122.0984668,30.6039772],[122.1071585,30.6141286],[122.088433,30.6046406],[122.0372787,30.6428185],[122.07099,30.6470801],[122.0623603,30.6407332],[122.0786119,30.6418695],[122.1057101,30.6229],[122.1037721,30.6163539],[122.1070021,30.6226669],[122.1093671,30.6145594],[122.1119926,30.6224304]]],[[[122.2376794,28.8677754],[122.2351198,28.8564305],[122.2276687,28.8635576],[122.2376794,28.8677754]]],[[[122.2509764,28.8856276],[122.2495186,28.8807124],[122.2430531,28.8833824],[122.2509764,28.8856276]]],[[[122.2593141,28.8915483],[122.2642427,28.8853129],[122.2557521,28.8820464],[122.2593141,28.8915483]]],[[[122.2258629,29.3767234],[122.2182655,29.378335],[122.2234368,29.3822218],[122.2258629,29.3767234]]],[[[122.2548375,29.4566807],[122.2526488,29.4530279],[122.2483063,29.4563397],[122.2548375,29.4566807]]],[[[122.223266,29.4620391],[122.2161519,29.4612301],[122.2188234,29.4663818],[122.223266,29.4620391]]],[[[122.232838,29.4637826],[122.2396642,29.4675972],[122.2408216,29.463709],[122.232838,29.4637826]]],[[[122.2269224,29.4671357],[122.2290695,29.4644785],[122.2249255,29.4659077],[122.2269224,29.4671357]]],[[[122.21584,29.6362799],[122.22318,29.63902],[122.2138099,29.6329201],[122.2096601,29.63675],[122.21639,29.6419401],[122.21584,29.6362799]]],[[[122.22988,29.64858],[122.2225,29.65098],[122.2322301,29.6505199],[122.22988,29.64858]]],[[[122.2385999,29.6631601],[122.2356901,29.6585101],[122.22563,29.66488],[122.2385999,29.6631601]]],[[[122.2302699,29.67468],[122.22872,29.68445],[122.23762,29.6758799],[122.2302699,29.67468]]],[[[122.22516,29.68816],[122.2072558,29.6931722],[122.2248624,29.6923787],[122.22516,29.68816]]],[[[122.2462946,29.6919067],[122.2421426,29.682917],[122.20247,29.7074399],[122.2057923,29.7173919],[122.2322506,29.716276],[122.2239089,29.7115517],[122.23155,29.6997699],[122.2771239,29.6907929],[122.2760189,29.6787924],[122.2462946,29.6919067]]],[[[122.1955941,29.7262373],[122.2156973,29.7261559],[122.2154599,29.7201172],[122.1955941,29.7262373]]],[[[122.22888,29.74206],[122.23651,29.7326899],[122.22151,29.74073],[122.22888,29.74206]]],[[[122.2556274,29.7492093],[122.2816461,29.7435504],[122.2899177,29.7510495],[122.3047842,29.7445099],[122.2919901,29.7413682],[122.3075791,29.7348297],[122.2902372,29.7363307],[122.2844315,29.7277047],[122.2705525,29.7384361],[122.25447,29.7355901],[122.2221012,29.7598215],[122.2141001,29.7754714],[122.2214144,29.7833494],[122.242797,29.7834332],[122.2560069,29.7748637],[122.244873,29.7711771],[122.2442266,29.7596914],[122.2556274,29.7492093]]],[[[122.2079638,29.7916224],[122.2072499,29.79286],[122.2115607,29.7947798],[122.2079638,29.7916224]]],[[[122.2382052,29.7999416],[122.2387124,29.7953756],[122.2343525,29.8002261],[122.2382052,29.7999416]]],[[[122.2340023,29.8018284],[122.2197213,29.8065811],[122.2228371,29.8116648],[122.2340023,29.8018284]]],[[[122.30277,29.7954601],[122.3231877,29.7803528],[122.3099699,29.7778044],[122.3115783,29.7703699],[122.2946001,29.7841],[122.2722703,29.7889328],[122.21899,29.8379401],[122.22866,29.8467399],[122.2568457,29.8495595],[122.2974374,29.8393514],[122.3046101,29.828],[122.3141986,29.8310065],[122.3186319,29.8224172],[122.2971699,29.8235648],[122.29322,29.8122501],[122.3108271,29.8079052],[122.30277,29.7954601]]],[[[122.32349,29.8277101],[122.31514,29.8410401],[122.3281901,29.83057],[122.32349,29.8277101]]],[[[122.3723746,29.8287118],[122.3533701,29.8367301],[122.35702,29.84357],[122.3718667,29.8439093],[122.3657601,29.8377],[122.3747799,29.83568],[122.3723746,29.8287118]]],[[[122.3444001,29.8787401],[122.3338259,29.8727224],[122.33948,29.8643199],[122.3188799,29.8557301],[122.3020799,29.85282],[122.28032,29.86349],[122.2791925,29.8754855],[122.2978229,29.8855549],[122.3444001,29.8787401]]],[[[122.2456472,29.8773466],[122.27244,29.87091],[122.255683,29.8645146],[122.2456472,29.8773466]]],[[[122.3316,29.89437],[122.3377799,29.89594],[122.3339701,29.89361],[122.3316,29.89437]]],[[[122.3004249,29.8931056],[122.2967103,29.8959444],[122.30679,29.89707],[122.3004249,29.8931056]]],[[[122.351664,29.9504149],[122.3671967,29.955721],[122.3880001,29.93952],[122.3974,29.94741],[122.4075349,29.9447599],[122.4086702,29.9527175],[122.4211049,29.9456106],[122.4152416,29.9361323],[122.4272459,29.9217182],[122.4013263,29.9192049],[122.4299057,29.9092592],[122.4224981,29.8953383],[122.4290573,29.8870144],[122.4180847,29.8888995],[122.4152681,29.8765111],[122.3925126,29.8668703],[122.3999901,29.861],[122.3911222,29.8544261],[122.4107636,29.8481823],[122.4034957,29.8346983],[122.4118784,29.8321151],[122.3877601,29.8345901],[122.36648,29.86445],[122.376953,29.878382],[122.3697317,29.896841],[122.3411965,29.9090406],[122.3234616,29.9323862],[122.3457992,29.9598752],[122.351664,29.9504149]]],[[[122.3074237,29.9436012],[122.3096667,29.9313357],[122.296248,29.9257142],[122.2842419,29.9374176],[122.3074237,29.9436012]]],[[[122.2728921,29.9356715],[122.2348429,29.947729],[122.1877728,29.9784835],[122.2296274,29.9636163],[122.2728921,29.9356715]]],[[[122.3702174,29.9601069],[122.3771426,29.961696],[122.3743301,29.9534799],[122.3702174,29.9601069]]],[[[122.39323,29.9753736],[122.3667084,29.9821543],[122.3808825,30.0193651],[122.3755583,30.0260581],[122.3922041,30.0235152],[122.4032924,30.0336167],[122.3965171,30.0113107],[122.4146193,30.0061892],[122.3912413,30.002386],[122.3861276,29.9898638],[122.39323,29.9753736]]],[[[122.3968416,30.0410262],[122.4015194,30.0383142],[122.396096,30.0350634],[122.3968416,30.0410262]]],[[[122.30647,30.0925301],[122.31103,30.0956401],[122.3174713,30.0771928],[122.30647,30.0925301]]],[[[122.32935,30.23102],[122.3240601,30.22276],[122.3197401,30.22788],[122.32935,30.23102]]],[[[122.2053064,30.2247486],[122.23272,30.2344751],[122.2408202,30.2211528],[122.2053064,30.2247486]]],[[[122.269169,30.2305721],[122.2768878,30.2298583],[122.2719805,30.2283281],[122.269169,30.2305721]]],[[[122.2113132,30.2392417],[122.2139774,30.2352444],[122.2055492,30.23197],[122.2113132,30.2392417]]],[[[122.4049526,30.2335006],[122.393977,30.2276977],[122.3952967,30.2390992],[122.3877986,30.2439618],[122.3816845,30.232233],[122.3466843,30.245863],[122.343573,30.2360775],[122.3330399,30.2409252],[122.3282307,30.2330603],[122.3169091,30.2418915],[122.3108661,30.2361748],[122.3088062,30.2428206],[122.3021597,30.2325922],[122.2928578,30.2385663],[122.2831911,30.2296583],[122.2725508,30.2386798],[122.3126149,30.2506755],[122.3144388,30.2703909],[122.3275039,30.2675323],[122.3300305,30.274044],[122.3455095,30.2674119],[122.3961094,30.2764739],[122.4027747,30.2740602],[122.4061328,30.2551981],[122.408579,30.2600727],[122.4197021,30.2518039],[122.4091101,30.2396739],[122.3999771,30.2412983],[122.4049526,30.2335006]]],[[[122.3040479,30.2661771],[122.3109613,30.2528198],[122.2504755,30.2396994],[122.2598049,30.2709886],[122.2962601,30.2723067],[122.2977662,30.263981],[122.3040479,30.2661771]]],[[[122.3543927,30.2784515],[122.3544386,30.2818292],[122.3725501,30.2826699],[122.3543927,30.2784515]]],[[[122.2515999,30.2882101],[122.2462799,30.2861199],[122.2447901,30.2884201],[122.2515999,30.2882101]]],[[[122.3864829,30.4258672],[122.3735011,30.4165507],[122.3773849,30.4263807],[122.3626971,30.419442],[122.3611146,30.4312976],[122.3483741,30.434873],[122.3422265,30.4132522],[122.2780734,30.4237001],[122.2856373,30.4290311],[122.2744622,30.4756112],[122.2903258,30.4766622],[122.300443,30.4646364],[122.3129368,30.4715349],[122.3507774,30.4594622],[122.3690647,30.4781139],[122.3749226,30.476015],[122.3800456,30.472136],[122.3668921,30.465723],[122.3723638,30.4568773],[122.3820734,30.4600264],[122.3886234,30.4524288],[122.3932046,30.4601327],[122.4270594,30.4469441],[122.4220169,30.4315289],[122.4137664,30.4297296],[122.424919,30.4290543],[122.4259865,30.4180727],[122.4349451,30.4147789],[122.4051994,30.4156532],[122.3864829,30.4258672]]],[[[122.3676258,30.4844053],[122.3657712,30.4859754],[122.3733101,30.4876501],[122.3676258,30.4844053]]],[[[122.2934103,30.4900872],[122.3053461,30.4952413],[122.3032595,30.5032393],[122.3198,30.4970199],[122.2934103,30.4900872]]],[[[122.3117352,30.5169801],[122.3411751,30.5301015],[122.3397106,30.5067873],[122.3117352,30.5169801]]],[[[122.2696727,30.515231],[122.2534105,30.5151039],[122.2639972,30.5289695],[122.2696727,30.515231]]],[[[122.3594301,30.5899301],[122.3524399,30.5904099],[122.3580801,30.5925099],[122.3594301,30.5899301]]],[[[122.3559801,30.5935299],[122.3616,30.5991899],[122.3678999,30.5898399],[122.3559801,30.5935299]]],[[[122.3229699,30.5961799],[122.3385499,30.60089],[122.3357599,30.59611],[122.3229699,30.5961799]]],[[[122.2778803,30.6492195],[122.2851062,30.6524915],[122.2942954,30.6469927],[122.2732401,30.6402613],[122.2853798,30.6459197],[122.2778803,30.6492195]]],[[[122.3864518,30.7431827],[122.3827952,30.7619867],[122.3905367,30.7630259],[122.3864518,30.7431827]]],[[[122.3908877,30.7703675],[122.3947451,30.7700625],[122.3926903,30.7662585],[122.3908877,30.7703675]]],[[[122.4254601,29.87089],[122.41909,29.87446],[122.41641,29.87626],[122.4254601,29.87089]]],[[[122.45031,29.93993],[122.4633601,29.92995],[122.45274,29.9282299],[122.4455801,29.9414501],[122.4552699,29.9502399],[122.45031,29.93993]]],[[[122.4213517,29.9470838],[122.4203018,29.9506837],[122.4262116,29.9494238],[122.4213517,29.9470838]]],[[[122.4543701,29.95332],[122.4404899,29.95377],[122.4454701,29.9597099],[122.4543701,29.95332]]],[[[122.44865,29.9725801],[122.4406901,29.97076],[122.44834,29.9751499],[122.44865,29.9725801]]],[[[122.4285588,30.0239587],[122.4230736,30.0433248],[122.4335664,30.0266015],[122.4285588,30.0239587]]],[[[122.4165899,30.0496],[122.4174799,30.0496101],[122.4190001,30.0416399],[122.4165899,30.0496]]],[[[122.7570453,30.1450161],[122.7831654,30.1295917],[122.7642299,30.1265601],[122.7554583,30.1344922],[122.7570453,30.1450161]]],[[[122.7118501,30.17764],[122.71895,30.1838201],[122.72312,30.1753501],[122.7154299,30.17121],[122.7118501,30.17764]]],[[[122.6856703,30.182575],[122.66942,30.21136],[122.6821479,30.2085758],[122.6856703,30.182575]]],[[[122.6466317,30.2130717],[122.6507597,30.1918432],[122.64878,30.18623],[122.63242,30.20702],[122.6354467,30.2150644],[122.6466317,30.2130717]]],[[[122.70055,30.2094266],[122.7086396,30.2118124],[122.7097206,30.1902324],[122.6995665,30.1985593],[122.70055,30.2094266]]],[[[122.5826961,30.2041714],[122.5883,30.2073999],[122.58686,30.19788],[122.5826961,30.2041714]]],[[[122.58975,30.21332],[122.59242,30.21333],[122.59243,30.21024],[122.58975,30.21332]]],[[[122.5667701,30.22045],[122.5627701,30.2217201],[122.5672101,30.22199],[122.5667701,30.22045]]],[[[122.55506,30.22246],[122.56038,30.2248],[122.5605401,30.2227399],[122.55506,30.22246]]],[[[122.4858695,30.2332758],[122.4990432,30.2276827],[122.4976766,30.2183113],[122.4693981,30.2281705],[122.4858695,30.2332758]]],[[[122.52806,30.23369],[122.51981,30.22414],[122.51622,30.2326101],[122.52806,30.23369]]],[[[122.4429595,30.2472428],[122.4349934,30.239704],[122.4345669,30.2468501],[122.4429595,30.2472428]]],[[[122.4654619,30.2475151],[122.4625826,30.2418486],[122.4568534,30.2441356],[122.4654619,30.2475151]]],[[[122.50338,30.40934],[122.49871,30.4129599],[122.5042099,30.41157],[122.50338,30.40934]]],[[[122.4868301,30.4163901],[122.4948599,30.4123099],[122.4904099,30.4119],[122.4868301,30.4163901]]],[[[122.4714768,30.4059749],[122.4559468,30.4259042],[122.4465644,30.4263714],[122.461043,30.4390263],[122.4714285,30.4378747],[122.4690145,30.432033],[122.482447,30.4196779],[122.4714768,30.4059749]]],[[[122.4839704,30.4234978],[122.4801564,30.4244703],[122.4834502,30.427773],[122.4839704,30.4234978]]],[[[122.4491699,30.4373199],[122.4525003,30.4399087],[122.4531792,30.4346959],[122.4491699,30.4373199]]],[[[122.5119768,30.437973],[122.5127037,30.4398427],[122.5159009,30.4371728],[122.5119768,30.437973]]],[[[122.9380122,30.4377383],[122.9305878,30.4354835],[122.932283,30.4420626],[122.9380122,30.4377383]]],[[[122.5026575,30.4379649],[122.5002636,30.4416337],[122.5048073,30.4430003],[122.5026575,30.4379649]]],[[[122.42121,30.6241701],[122.4274501,30.6249799],[122.4215601,30.61388],[122.42121,30.6241701]]],[[[122.4574999,30.6217499],[122.45301,30.6266201],[122.46344,30.6233199],[122.4574999,30.6217499]]],[[[122.5086855,30.6497803],[122.5126165,30.6512653],[122.5183798,30.6457271],[122.5086855,30.6497803]]],[[[122.5556226,30.6814361],[122.5720435,30.6654354],[122.5839204,30.6660352],[122.5786686,30.6584122],[122.5604906,30.6600006],[122.5678056,30.646792],[122.543419,30.6543236],[122.5556226,30.6814361]]],[[[122.529332,30.6739339],[122.5408694,30.6619162],[122.5196322,30.6721707],[122.529332,30.6739339]]],[[[122.4755489,30.6725164],[122.4761902,30.6742774],[122.4805324,30.6714132],[122.4755489,30.6725164]]],[[[122.414453,30.6872953],[122.4306904,30.6763234],[122.4049026,30.673752],[122.414453,30.6872953]]],[[[122.7895701,30.7281599],[122.79331,30.7189001],[122.7857099,30.7230101],[122.7787157,30.716213],[122.78532,30.69986],[122.77519,30.6983],[122.7713952,30.710677],[122.7525599,30.70906],[122.7759555,30.7318481],[122.7895701,30.7281599]]],[[[122.4391117,30.7343253],[122.4241732,30.7446394],[122.4439137,30.7458788],[122.4664636,30.718539],[122.481253,30.7121011],[122.5307501,30.7241399],[122.5209701,30.7161301],[122.5339601,30.7058901],[122.5039856,30.69981],[122.4963013,30.7082839],[122.48713,30.6987701],[122.4805303,30.7053143],[122.4594801,30.6930001],[122.4469499,30.69873],[122.4423695,30.6894819],[122.4239108,30.6866518],[122.4260639,30.7076129],[122.439743,30.7178794],[122.4391117,30.7343253]]],[[[122.8290201,30.72718],[122.8327278,30.7027925],[122.8223848,30.717235],[122.8005999,30.72354],[122.8120074,30.7351665],[122.8168101,30.7269101],[122.8290201,30.72718]]],[[[122.4474925,30.7613043],[122.4658047,30.7541506],[122.4668872,30.7324145],[122.4627043,30.7464628],[122.447473,30.7459777],[122.4474925,30.7613043]]],[[[122.4255627,30.7581374],[122.4273169,30.7620281],[122.4442524,30.7662504],[122.4255627,30.7581374]]],[[[122.7923495,30.7780037],[122.7716294,30.7910368],[122.7860101,30.79167],[122.7923495,30.7780037]]],[[[122.6675382,30.7898052],[122.6702955,30.7861496],[122.6621363,30.7887879],[122.6675382,30.7898052]]],[[[122.72168,30.7879501],[122.71779,30.79411],[122.72435,30.79154],[122.72168,30.7879501]]],[[[122.76664,30.7930501],[122.7588801,30.79625],[122.76872,30.7972999],[122.76664,30.7930501]]],[[[122.6617473,30.7978798],[122.666755,30.7983613],[122.6630723,30.7938351],[122.6617473,30.7978798]]],[[[122.663236,30.8123729],[122.6644027,30.807655],[122.6581577,30.8074549],[122.663236,30.8123729]]],[[[122.6326454,30.8170629],[122.6089346,30.8222249],[122.6180863,30.8283471],[122.6326454,30.8170629]]],[[[122.6370731,30.8191837],[122.64019,30.8312099],[122.65767,30.82046],[122.6370731,30.8191837]]],[[[122.6713701,30.8618899],[122.68722,30.8499801],[122.70003,30.8521901],[122.68367,30.84071],[122.6621799,30.8503001],[122.6732,30.85136],[122.6713701,30.8618899]]]]}}]}