{"type": "FeatureCollection", "features": [{"type": "Feature", "properties": {"slug": "hardenberg", "members": 1, "country": "Netherlands", "input_hash": "b05f6fded6911ef5"}, "geometry": {"type": "Polygon", "coordinates": [[[6.3697779, 52.635002], [6.3277977, 52.6586927], [6.3030637, 52.5971411], [6.4026445, 52.5914028], [6.4150153, 52.5700123], [6.4883556, 52.569001], [6.5049387, 52.5758854], [6.5218267, 52.5605857], [6.541323, 52.5189698], [6.5540576, 52.5124597], [6.5644051, 52.5188709], [6.5612825, 52.5129312], [6.6096435, 52.4925048], [6.5951881, 52.4803033], [6.6130014, 52.4656032], [6.6268208, 52.4738313], [6.6495556, 52.4730899], [6.653659, 52.4878322], [6.6693013, 52.4949807], [6.6975846, 52.4862982], [6.7053325, 52.5210076], [6.6808799, 52.5533174], [6.7162642, 52.5485248], [6.7259734, 52.5632551], [6.766692, 52.5616369], [6.7187716, 52.588636], [6.7272888, 52.6149279], [6.7007917, 52.6284096], [6.7085465, 52.6487154], [6.6145268, 52.6740493], [6.5528214, 52.665595], [6.5138615, 52.6462938], [6.5186042, 52.6140878], [6.4700732, 52.6250073], [6.4597883, 52.6157598], [6.4418797, 52.6156373], [6.4312429, 52.6283779], [6.3838368, 52.6121977], [6.3697779, 52.635002]]]}}]}