{"type":"FeatureCollection","features":[{"type":"Feature","properties":{"slug":"harrison-ar","member_count":17,"matched_count":2,"unmatched":["Balance of Boone County (US-AR, type='Balance')","Harrison city (US-AR, type='City')","Diamond City city (US-AR, type='City')","Bergman town (US-AR, type='Town')","Bellefonte town (US-AR, type='Town')","Alpena town (US-AR, type='Town')","Lead Hill town (US-AR, type='Town')","Valley Springs town (US-AR, type='Town')","Omaha town (US-AR, type='Town')","Everton town (US-AR, type='Town')","Zinc town (US-AR, type='Town')","South Lead Hill town (US-AR, type='Town')","Balance of Newton County (US-AR, type='Balance')","Jasper city (US-AR, type='City')","Western Grove town (US-AR, type='Town')"],"source":"Overture Maps division_area (CC-BY 4.0)"},"geometry":{"type":"Polygon","coordinates":[[[-92.9446407,36.1152247],[-92.9454716,36.0717777],[-92.9384516,36.0716341],[-92.951416,35.724678],[-93.519745,35.7345298],[-93.5170384,35.8233552],[-93.5260588,35.8236209],[-93.5236135,35.8814923],[-93.5059332,35.8810084],[-93.5048335,35.9251167],[-93.486902,35.9243091],[-93.4862028,35.9533203],[-93.4683837,35.9531338],[-93.468068,35.9675379],[-93.450777,35.967451],[-93.4456837,36.0807385],[-93.4801676,36.0815252],[-93.4795646,36.1250883],[-93.30085,36.1215153],[-93.2960482,36.4984375],[-92.8541777,36.4979822],[-92.854602,36.464639],[-92.884897,36.490854],[-92.890725,36.114245],[-92.9446407,36.1152247]]]}}]}