{"type":"FeatureCollection","features":[{"type":"Feature","properties":{"slug":"hartford","member_count":78,"matched_count":4,"unmatched":["New Britain city (US-CT, type='City')","West Hartford town (US-CT, type='Town')","Manchester town (US-CT, type='Town')","East Hartford town (US-CT, type='Town')","Southington town (US-CT, type='Town')","Enfield town (US-CT, type='Town')","Glastonbury town (US-CT, type='Town')","Newington town (US-CT, type='Town')","Vernon town (US-CT, type='Town')","Windsor town (US-CT, type='Town')","Farmington town (US-CT, type='Town')","Mansfield town (US-CT, type='Town')","Wethersfield town (US-CT, type='Town')","South Windsor town (US-CT, type='Town')","Simsbury town (US-CT, type='Town')","Bloomfield town (US-CT, type='Town')","Rocky Hill town (US-CT, type='Town')","Berlin town (US-CT, type='Town')","Avon town (US-CT, type='Town')","Plainville town (US-CT, type='Town')","Ellington town (US-CT, type='Town')","Suffield town (US-CT, type='Town')","Tolland town (US-CT, type='Town')","Windsor Locks town (US-CT, type='Town')","Coventry town (US-CT, type='Town')","Granby town (US-CT, type='Town')","Stafford town (US-CT, type='Town')","East Windsor town (US-CT, type='Town')","Somers town (US-CT, type='Town')","Canton town (US-CT, type='Town')","Hebron town (US-CT, type='Town')","Marlborough town (US-CT, type='Town')","Willington town (US-CT, type='Town')","Columbia town (US-CT, type='Town')","East Granby town (US-CT, type='Town')","Bolton town (US-CT, type='Town')","Andover town (US-CT, type='Town')","Middletown city (US-CT, type='City')","Cromwell town (US-CT, type='Town')","Clinton town (US-CT, type='Town')","East Hampton town (US-CT, type='Town')","Balance of Old Saybrook town (US-CT, type='Balance')","Portland town (US-CT, type='Town')","East Haddam town (US-CT, type='Town')","Haddam town (US-CT, type='Town')","Old Lyme town (US-CT, type='Town')","Durham town (US-CT, type='Town')","Westbrook town (US-CT, type='Town')","Essex town (US-CT, type='Town')","Killingworth town (US-CT, type='Town')","Deep River town (US-CT, type='Town')","Middlefield town (US-CT, type='Town')","Chester town (US-CT, type='Town')","Lyme town (US-CT, type='Town')","Fenwick borough (US-CT, type='Borough')","Waterbury city (US-CT, type='City')","Bristol city (US-CT, type='City')","Shelton city (US-CT, type='City')","Naugatuck borough (US-CT, type='Borough')","Cheshire town (US-CT, type='Town')","Watertown town (US-CT, type='Town')","Southbury town (US-CT, type='Town')","Ansonia city (US-CT, type='City')","Seymour town (US-CT, type='Town')","Wolcott town (US-CT, type='Town')","Oxford town (US-CT, type='Town')","Derby city (US-CT, type='City')","Plymouth town (US-CT, type='Town')","Woodbury town (US-CT, type='Town')","Prospect town (US-CT, type='Town')","Middlebury town (US-CT, type='Town')","Thomaston town (US-CT, type='Town')","Beacon Falls town (US-CT, type='Town')","Bethlehem town (US-CT, type='Town')"],"source":"Overture Maps division_area (CC-BY 4.0)"},"geometry":{"type":"MultiPolygon","coordinates":[[[[-81.996906,38.986398],[-81.991942,39.005479],[-82.001822,39.009337],[-81.99413,39.017662],[-81.980936,38.991572],[-81.985738,38.980329],[-81.996906,38.986398]]],[[[-72.53694870958043,41.25511180923967],[-72.54622749117186,41.26092432471486],[-72.523708,41.2669433],[-72.53694870958043,41.25511180923967]]],[[[-72.54724371626952,41.26254319028672],[-72.5476559,41.2643314],[-72.54703923579267,41.26579567987455],[-72.54724371626952,41.26254319028672]]],[[[-72.5467899,41.2700974],[-72.54665065455097,41.27197649704638],[-72.54677452277704,41.2700062350353],[-72.5467899,41.2700974]]],[[[-72.5449299,41.2734124],[-72.5855999,41.3073564],[-72.5859439,41.3240224],[-72.6142699,41.3296284],[-72.6123289,41.3861874],[-72.6320339,41.4121464],[-72.6493979,41.4175554],[-72.6422579,41.4292444],[-72.6486419,41.4354004],[-72.7464325,41.423475],[-72.7338602,41.4856],[-72.7433246,41.4831386],[-72.7521813,41.5789025],[-72.8008576,41.5732944],[-72.8193561,41.5538936],[-72.8298253,41.5620763],[-72.8278784,41.5705038],[-72.8484679,41.5672559],[-72.8441429,41.5447071],[-72.8527142,41.5463049],[-72.859025,41.527422],[-72.846707,41.502847],[-72.8866696,41.4479619],[-72.919337,41.4597554],[-73.001812,41.4711674],[-73.004229,41.462557],[-73.025752,41.4596044],[-73.02946,41.4195004],[-73.0411542,41.4209959],[-73.04889,41.3841384],[-73.0382587,41.3222039],[-73.0410214,41.3137764],[-73.061746,41.310079],[-73.068751,41.289196],[-73.0867222,41.2775696],[-73.086752,41.254596],[-73.1082958,41.2685903],[-73.1474467,41.2557554],[-73.1544687,41.269196],[-73.1737082,41.2684927],[-73.2050025,41.2991435],[-73.176814,41.337587],[-73.1579781,41.3829674],[-73.1741551,41.3841834],[-73.1879581,41.3973044],[-73.1865581,41.4086044],[-73.2182361,41.4290784],[-73.2384121,41.4262614],[-73.2452601,41.4399034],[-73.2636791,41.4345404],[-73.2736971,41.4516534],[-73.2977611,41.4482844],[-73.2995941,41.4701194],[-73.3104744,41.4688238],[-73.3271664,41.4850371],[-73.31939,41.5051557],[-73.2522661,41.5121424],[-73.2673371,41.6032074],[-73.2534971,41.6044554],[-73.2614471,41.6646495],[-73.1420321,41.6723025],[-73.0684023,41.7071008],[-72.8982234,41.723165],[-72.9084721,41.7760645],[-72.9247055,41.787811],[-72.9278424,41.8024822],[-72.9200434,41.8067352],[-72.9490161,41.806431],[-72.9363634,41.8403981],[-72.9523154,41.8429545],[-72.953828,41.8543112],[-72.9406628,41.8952102],[-72.9157002,41.8969844],[-72.8637009,42.0375285],[-72.8137839,42.0367437],[-72.8170238,41.9976982],[-72.766733,42.0032657],[-72.7589428,42.0154362],[-72.7651168,42.0224491],[-72.7520155,42.028947],[-72.7558941,42.0363492],[-72.5821627,42.0247409],[-72.53156,42.0345758],[-72.2050781,42.0310776],[-72.2343836,41.9583707],[-72.2163428,41.9587294],[-72.2175574,41.8353271],[-72.1645711,41.835023],[-72.1563199,41.753498],[-72.1710324,41.7484073],[-72.1878035,41.7550841],[-72.1955107,41.7393425],[-72.1906107,41.731592],[-72.1977978,41.728171],[-72.2524156,41.7282028],[-72.239075,41.7139666],[-72.2498163,41.6993956],[-72.2741202,41.6927555],[-72.2683413,41.6714738],[-72.3342268,41.6436065],[-72.3243552,41.6178225],[-72.3262666,41.6001104],[-72.3757281,41.6012633],[-72.3842125,41.5887035],[-72.4097781,41.6025508],[-72.4164179,41.5901146],[-72.4667689,41.5836462],[-72.4308051,41.5246503],[-72.3258899,41.5340332],[-72.3049752,41.4332018],[-72.2765286,41.4403983],[-72.2822162,41.4061142],[-72.2767258,41.3663054],[-72.24866758264206,41.29872946282242],[-72.2617587,41.2824195],[-72.30698,41.2799228],[-72.3884417,41.2604546],[-72.3984611,41.2781074],[-72.4509074,41.279154],[-72.4682421,41.2693251],[-72.4653834,41.2772335],[-72.4729245,41.2710722],[-72.473812,41.2811552],[-72.4728608,41.269318],[-72.4945222,41.2682617],[-72.5094166,41.2562996],[-72.518632,41.2578432],[-72.5121055,41.2611588],[-72.5183462,41.2599253],[-72.520492,41.2702591],[-72.5168202,41.2650728],[-72.5126215,41.2649666],[-72.5100826,41.267317],[-72.51685,41.2656633],[-72.525026,41.2784013],[-72.523099,41.2692704],[-72.5456578,41.2629277],[-72.5374171,41.2693588],[-72.5458048,41.2659324],[-72.5449299,41.2734124]]]]}}]}