{"type": "FeatureCollection", "features": [{"type": "Feature", "properties": {"slug": "haugesund", "members": 2, "country": "Norway", "input_hash": "679811c66afbb6cf"}, "geometry": {"type": "MultiPolygon", "coordinates": [[[[5.0605744, 59.2325534], [5.055922, 59.2337892], [5.0577624, 59.2376839], [5.0605744, 59.2325534]]], [[[5.1535077, 59.2799048], [5.1509627, 59.2786842], [5.1481815, 59.2826892], [5.1535077, 59.2799048]]], [[[5.0370933, 59.3687797], [5.0369676, 59.3658911], [5.0313271, 59.3700126], [5.0370933, 59.3687797]]], [[[5.148778, 59.3718307], [5.147453, 59.3697281], [5.1451267, 59.3703545], [5.148778, 59.3718307]]], [[[5.1607167, 59.3716001], [5.1497019, 59.3748913], [5.1595427, 59.3743732], [5.1607167, 59.3716001]]], [[[5.1678382, 59.3751073], [5.1625871, 59.3743607], [5.1658324, 59.376974], [5.1678382, 59.3751073]]], [[[5.1524385, 59.3920822], [5.1620278, 59.3881148], [5.1533931, 59.3750233], [5.1442715, 59.3818474], [5.1524385, 59.3920822]]], [[[5.1588132, 59.390703], [5.15383, 59.3925575], [5.1603413, 59.3909155], [5.1588132, 59.390703]]], [[[5.1626035, 59.403237], [5.1698815, 59.387933], [5.1561397, 59.396746], [5.1626035, 59.403237]]], [[[5.1064375, 59.416796], [5.1170729, 59.4195247], [5.1158656, 59.4128975], [5.1064375, 59.416796]]], [[[5.1353959, 59.4196534], [5.1417747, 59.4223355], [5.1364233, 59.4180597], [5.1353959, 59.4196534]]], [[[5.1253761, 59.4343488], [5.1214917, 59.431368], [5.1175282, 59.4382566], [5.1253761, 59.4343488]]], [[[5.0978294, 59.4329054], [5.0942569, 59.4377698], [5.1013629, 59.441061], [5.0978294, 59.4329054]]], [[[5.1129255, 59.4390936], [5.103066, 59.4334022], [5.1059601, 59.4413866], [5.1129255, 59.4390936]]], [[[5.0844035, 59.4305115], [5.0709222, 59.4380852], [5.0863074, 59.4435156], [5.0819109, 59.4489747], [5.0916807, 59.4391752], [5.0844035, 59.4305115]]], [[[5.0954286, 59.4455665], [5.0992915, 59.4411516], [5.0933763, 59.4383603], [5.0954286, 59.4455665]]], [[[5.2434213, 59.1336466], [5.2501936, 59.1309589], [5.2381618, 59.132029], [5.2434213, 59.1336466]]], [[[5.2450468, 59.1350843], [5.2406779, 59.1334706], [5.2350485, 59.1379139], [5.2450468, 59.1350843]]], [[[5.1760203, 59.1523952], [5.1759809, 59.1468501], [5.1725049, 59.1474297], [5.1760203, 59.1523952]]], [[[5.1735046, 59.2542433], [5.1761095, 59.2632921], [5.1759056, 59.2540119], [5.1735046, 59.2542433]]], [[[5.2750854, 59.2867275], [5.2603949, 59.2837448], [5.2290977, 59.2989022], [5.2116144, 59.3117846], [5.2317965, 59.3086042], [5.2298952, 59.314691], [5.2092046, 59.3182768], [5.2175405, 59.3215968], [5.20439, 59.3205563], [5.2063603, 59.3154028], [5.1951126, 59.3274241], [5.2029316, 59.3310967], [5.1873326, 59.3397906], [5.2010825, 59.3429042], [5.1884377, 59.3546111], [5.2257863, 59.3448035], [5.2124448, 59.3515735], [5.2193588, 59.353065], [5.2178872, 59.3610634], [5.2096141, 59.3613281], [5.2225523, 59.3636202], [5.2401689, 59.3580148], [5.2361734, 59.3622277], [5.2411325, 59.3737704], [5.2405925, 59.3652877], [5.256739, 59.3659404], [5.2447268, 59.3662355], [5.2413285, 59.3746324], [5.2337003, 59.3682624], [5.2159293, 59.3867539], [5.2262457, 59.3919215], [5.2205754, 59.4010197], [5.2339646, 59.3984438], [5.2292807, 59.4038458], [5.2374568, 59.4019986], [5.2325567, 59.4098382], [5.2391742, 59.4124069], [5.2941592, 59.3759], [5.2939607, 59.3677553], [5.2806951, 59.3678649], [5.2787842, 59.3593344], [5.3030578, 59.3493039], [5.2785957, 59.3434792], [5.2785048, 59.3365234], [5.3073932, 59.3200442], [5.3175708, 59.3234636], [5.3253166, 59.3113179], [5.3179346, 59.3056563], [5.2888723, 59.308295], [5.2916883, 59.3014982], [5.3075691, 59.3010745], [5.2974444, 59.2924307], [5.3149114, 59.2920336], [5.31241, 59.2857885], [5.2841407, 59.2832036], [5.3164359, 59.2843635], [5.3097063, 59.2834488], [5.3302206, 59.2717511], [5.3246065, 59.2174071], [5.3093538, 59.1781829], [5.312116, 59.1638416], [5.3027774, 59.1644795], [5.2926804, 59.1400321], [5.2755675, 59.1528729], [5.2758062, 59.1430421], [5.2568231, 59.1495716], [5.2531293, 59.1477743], [5.2596916, 59.1437426], [5.2432018, 59.1399686], [5.2281229, 59.1529186], [5.2021706, 59.1430737], [5.1911488, 59.1487338], [5.2022647, 59.1552792], [5.1905674, 59.166228], [5.1955384, 59.1699482], [5.1732486, 59.1865538], [5.1839041, 59.1969583], [5.1667482, 59.2048923], [5.1818101, 59.2165802], [5.1691025, 59.2272767], [5.1873211, 59.2341119], [5.1833877, 59.2413757], [5.1958965, 59.2479038], [5.1780071, 59.2551361], [5.1838707, 59.2674881], [5.196482, 59.270294], [5.1854344, 59.2750643], [5.1878495, 59.2841657], [5.1960927, 59.278742], [5.21142, 59.2857808], [5.2060488, 59.2917591], [5.2116, 59.2943813], [5.2151939, 59.3032837], [5.2551781, 59.2813996], [5.2750854, 59.2867275]]], [[[5.1786266, 59.2765312], [5.1798169, 59.2826162], [5.1852372, 59.2829715], [5.1786266, 59.2765312]]], [[[5.1970894, 59.3015662], [5.2089385, 59.2951788], [5.1900671, 59.2963985], [5.1970894, 59.3015662]]], [[[5.1908887, 59.3094098], [5.1899213, 59.3084603], [5.1832295, 59.3113325], [5.1908887, 59.3094098]]], [[[5.2363316, 59.3668553], [5.2364058, 59.3655631], [5.2260635, 59.3685863], [5.2363316, 59.3668553]]], [[[5.2075405, 59.3769361], [5.213671, 59.37507], [5.2087733, 59.3758028], [5.2075405, 59.3769361]]], [[[5.1821691, 59.3771612], [5.1824675, 59.3789116], [5.188308, 59.3780303], [5.1821691, 59.3771612]]], [[[5.1870956, 59.3822695], [5.1795281, 59.3807341], [5.1836967, 59.3859198], [5.1870956, 59.3822695]]], [[[5.1781752, 59.3808001], [5.165192, 59.3793057], [5.1624101, 59.3886332], [5.1781752, 59.3808001]]], [[[5.2230654, 59.4169136], [5.2354417, 59.4143403], [5.2283547, 59.4116532], [5.2230654, 59.4169136]]], [[[5.2524496, 59.4120964], [5.2392486, 59.4175303], [5.2427957, 59.4184178], [5.2524496, 59.4120964]]], [[[5.1892078, 59.511064], [5.1934329, 59.5106501], [5.1901968, 59.5068058], [5.1892078, 59.511064]]], [[[5.276908, 59.1406747], [5.267471, 59.1435464], [5.276102, 59.1420459], [5.276908, 59.1406747]]], [[[5.2594057, 59.1451214], [5.256237, 59.1472744], [5.2571492, 59.1477585], [5.2594057, 59.1451214]]], [[[5.3577211, 59.2570402], [5.3631462, 59.2569776], [5.3624635, 59.2476055], [5.3577211, 59.2570402]]], [[[5.3606705, 59.2578639], [5.3628092, 59.2695059], [5.3665161, 59.2587728], [5.3606705, 59.2578639]]], [[[5.366656, 59.272942], [5.3721381, 59.2690946], [5.3679002, 59.2641287], [5.366656, 59.272942]]], [[[5.4140266, 59.2691558], [5.4014247, 59.2654832], [5.4038792, 59.2728951], [5.4140266, 59.2691558]]], [[[5.3986251, 59.2907994], [5.41705, 59.2745108], [5.4094224, 59.2710557], [5.3899785, 59.2811602], [5.3986251, 59.2907994]]], [[[5.3566566, 59.3284776], [5.369181, 59.3198556], [5.3629532, 59.3326295], [5.3778927, 59.3336755], [5.3711415, 59.3254708], [5.3812716, 59.3156049], [5.3632704, 59.291331], [5.3678152, 59.2864556], [5.377001, 59.2980778], [5.3833515, 59.2838527], [5.3691575, 59.2761104], [5.3646556, 59.2828573], [5.3593687, 59.2716573], [5.3485668, 59.271502], [5.3340498, 59.3165754], [5.3566566, 59.3284776]]], [[[5.3437069, 59.3247213], [5.3360139, 59.3210821], [5.3380899, 59.3274822], [5.3437069, 59.3247213]]], [[[5.2866011, 59.3377946], [5.301316, 59.3461788], [5.313397, 59.3375532], [5.2866011, 59.3377946]]], [[[5.301419, 59.3578844], [5.31026, 59.3526415], [5.3014699, 59.3521869], [5.301419, 59.3578844]]], [[[5.3664841, 59.4161535], [5.3753169, 59.3912202], [5.3649552, 59.3771332], [5.3749786, 59.3383863], [5.344287, 59.3249732], [5.34352, 59.3318927], [5.3253334, 59.3363983], [5.3179857, 59.3544048], [5.3011746, 59.3668836], [5.2987344, 59.3837834], [5.3180129, 59.3877406], [5.298603163236132, 59.383779480046876], [5.2982468, 59.386121], [5.2570439, 59.4215757], [5.2466183, 59.4221628], [5.2579388, 59.4244498], [5.2544269, 59.4303423], [5.238036, 59.4331137], [5.2459446, 59.4341442], [5.235633, 59.4394445], [5.2465923, 59.4448817], [5.2336368, 59.4581467], [5.2446402, 59.4648874], [5.2341729, 59.4654551], [5.2580754, 59.4697731], [5.2290955, 59.4691147], [5.2448143, 59.4758541], [5.2244207, 59.479425], [5.2337118, 59.4829277], [5.2248067, 59.4843085], [5.2289512, 59.4925569], [5.2224917, 59.4931879], [5.2289996, 59.4952743], [5.2216977, 59.5005973], [5.2432948, 59.5033375], [5.2699263, 59.4934622], [5.2558611, 59.4849362], [5.3146956, 59.4754202], [5.3648683, 59.4949986], [5.3736933, 59.4849199], [5.3972594, 59.4832447], [5.3747098, 59.4553003], [5.3482897, 59.4473453], [5.3469914, 59.4177895], [5.3664841, 59.4161535]]], [[[5.2740886, 59.4065217], [5.2550304, 59.4123531], [5.2629165, 59.4138757], [5.2740886, 59.4065217]]], [[[5.2622321, 59.4148087], [5.2555439, 59.4140243], [5.2492988, 59.4189433], [5.2553572, 59.4210655], [5.2622321, 59.4148087]]], [[[5.2837928, 59.4866468], [5.27427, 59.4856291], [5.2800389, 59.4880308], [5.2837928, 59.4866468]]]]}}]}