{"type":"FeatureCollection","features":[{"type":"Feature","properties":{"slug":"heihe","member_count":6,"matched_count":6,"unmatched":[],"source":"Overture Maps division_area (CC-BY 4.0)"},"geometry":{"type":"MultiPolygon","coordinates":[[[[126.1619629,46.4565049],[126.1369009,46.4773136],[126.1750927,46.4866443],[126.3120679,46.4944526],[126.3097494,46.5005346],[126.354948,46.5125471],[126.3558469,46.4726486],[126.3395399,46.4211957],[126.2569709,46.4138594],[126.2692449,46.3860985],[126.2081339,46.3849144],[126.2083959,46.4003629],[126.1824749,46.4256908],[126.1907149,46.4288849],[126.1874529,46.4331441],[126.1436769,46.4233247],[126.1619629,46.4565049]]],[[[125.9958215,48.6526235],[125.9130815,48.6333407],[125.8594535,48.6088538],[125.8292656,48.6105788],[125.8732528,48.6379439],[125.8607713,48.6562349],[125.8803863,48.6550409],[125.8991393,48.6785279],[125.9479368,48.7046814],[125.9729158,48.7035104],[125.9807203,48.7249794],[125.9744798,48.7343484],[126.0527745,48.7528032],[126.0378855,48.719896],[126.0406325,48.7083426],[126.0632915,48.6997332],[126.0738895,48.6769204],[126.1271505,48.6766154],[126.2030935,48.7080706],[126.2110335,48.6948201],[126.3385735,48.6682981],[126.3175725,48.6949171],[126.2879255,48.7086426],[126.3025165,48.7344635],[126.3148766,48.7408038],[126.3419986,48.7340115],[126.3432705,48.7027964],[126.3745135,48.6821736],[126.3778805,48.6310157],[126.3181375,48.6040027],[126.2900475,48.6112409],[126.2625825,48.6303046],[126.2282505,48.6246314],[126.1968365,48.6297376],[126.1934035,48.61317],[126.1405315,48.6221353],[126.0877785,48.6178262],[126.0758415,48.6289436],[126.0080355,48.640855],[125.9958215,48.6526235]]],[[[128.9812965,48.449806],[128.9618471,48.4273995],[128.9464492,48.4239756],[128.9709866,48.4069827],[128.9583757,48.4059742],[128.9147033,48.3685419],[128.9128113,48.3296434],[128.8976288,48.3127174],[128.9036863,48.2843399],[128.8916318,48.2713049],[128.8515168,48.2690389],[128.8367003,48.2466164],[128.8092958,48.2489089],[128.7839963,48.2733954],[128.7601473,48.3587419],[128.7316893,48.4019814],[128.6722258,48.4087904],[128.5568388,48.3728944],[128.5341493,48.3778764],[128.4915923,48.3690679],[128.4466703,48.3540609],[128.4238128,48.3242339],[128.4209686,48.3495752],[128.4360746,48.3751242],[128.4141026,48.4626204],[128.2918796,48.5299629],[128.2918796,48.5481486],[128.2781466,48.5754136],[128.2465606,48.6017566],[128.2493076,48.6271786],[128.1971226,48.6262705],[128.1765236,48.6317167],[128.1710296,48.6416991],[128.2451876,48.6507725],[128.2479346,48.6671011],[128.2836396,48.6988353],[128.2836396,48.7251132],[128.2534276,48.7423229],[128.2424416,48.7577165],[128.3440646,48.7749141],[128.3577976,48.7921068],[128.3591706,48.8129115],[128.3838906,48.82557],[128.3949086,48.8737118],[128.3543966,48.9450165],[128.3426996,49.0242225],[128.0475386,49.0597498],[127.9637896,49.1020344],[127.9054686,49.0592998],[127.8052186,49.0557007],[127.6761286,49.0682981],[127.5452903,49.1008691],[127.5217133,49.0776595],[127.5127333,49.0465815],[127.4746168,49.0144385],[127.4270173,49.018902],[127.3576433,49.0491755],[127.2525328,49.0093005],[127.2598268,48.9885369],[127.2436678,48.978546],[127.1953813,48.977627],[127.1685028,48.98423],[127.1554868,49.0017775],[127.1466293,49.042347],[127.1042863,49.0396995],[127.0844878,49.057518],[127.0358123,49.0732765],[127.0065003,49.104786],[126.9532468,49.100315],[126.9390413,49.1273269],[126.8916013,49.1464575],[126.8921738,49.169365],[126.8801803,49.181984],[126.8652803,49.188141],[126.8252103,49.183953],[126.7950668,49.215317],[126.7514038,49.2241555],[126.7223433,49.277668],[126.7205123,49.3582305],[126.6890868,49.406658],[126.7360918,49.415985],[126.7611463,49.448036],[126.8131483,49.465664],[126.8481523,49.5157205],[126.8432768,49.533268],[126.8528518,49.549919],[126.9221268,49.5801545],[126.9567108,49.60796],[127.0092613,49.6062735],[127.0401078,49.5898095],[127.0660703,49.592724],[127.1055373,49.6139185],[127.1702118,49.601513],[127.2209013,49.6086654],[127.2453688,49.6248705],[127.2555998,49.6627425],[127.3512193,49.6479605],[127.3966668,49.609154],[127.4942473,49.6089365],[127.5489728,49.618473],[127.5733488,49.6466635],[127.6108168,49.657814],[127.6301878,49.6916655],[127.6729574,49.69498],[127.6872401,49.667035],[127.7814385,49.622189],[127.8104031,49.5859405],[127.9026669,49.5731326],[127.9590478,49.5963876],[128.0083823,49.5775792],[128.0346679,49.5558275],[128.1022596,49.5447461],[128.138051,49.5468484],[128.1694894,49.5360636],[128.1982183,49.5376031],[128.2499716,49.5648864],[128.29113,49.5622162],[128.3167068,49.543451],[128.335762,49.5410007],[128.35742,49.551653],[128.3663177,49.5821426],[128.3834409,49.5899328],[128.4604767,49.5891776],[128.5529286,49.6019577],[128.6200554,49.5904204],[128.6583782,49.5700031],[128.7173616,49.5623248],[128.730428,49.5910431],[128.7527745,49.593385],[128.7958359,49.5777982],[128.8030403,49.5648645],[128.7944938,49.5426055],[128.7472023,49.5131138],[128.7390005,49.4963611],[128.7431887,49.4830985],[128.7569747,49.4757692],[128.7932722,49.4717556],[128.86689,49.4894043],[128.9065374,49.4769345],[128.9288643,49.4611106],[128.9836595,49.4569225],[129.0269373,49.4258602],[129.0504957,49.3745551],[129.0734497,49.3535964],[129.1262318,49.3504731],[129.1745703,49.3885157],[129.1979542,49.396194],[129.2260499,49.3995096],[129.2611258,49.3918313],[129.3087974,49.3570316],[129.3030088,49.349865],[129.2834013,49.349758],[129.2512818,49.3713],[129.2263488,49.375492],[129.2178343,49.3560065],[129.1982728,49.3522225],[129.1806183,49.3372415],[129.1808623,49.3194125],[129.1651613,49.315189],[129.1610718,49.2824595],[129.1808318,49.2439425],[129.1977843,49.2303315],[129.2100523,49.1990775],[129.2309263,49.176792],[129.2238008,49.161064],[129.2263033,49.1026155],[129.2504418,49.063713],[129.2727968,49.056526],[129.3122408,49.0471419],[129.3964388,49.049393],[129.4271543,49.0385515],[129.4356843,49.016865],[129.4232178,49.0106355],[129.4251403,48.98938],[129.4515532,48.9627835],[129.4449185,48.9531181],[129.5189027,48.9327027],[129.4979848,48.9202302],[129.5191655,48.9071473],[129.4895884,48.8966933],[129.5147247,48.8903244],[129.5025585,48.8781844],[129.5186832,48.867341],[129.505282,48.8637824],[129.4991792,48.8703961],[129.4990491,48.8604492],[129.4799993,48.8423209],[129.4547179,48.8367996],[129.4468081,48.8278635],[129.4468688,48.8111344],[129.4244784,48.8118674],[129.4343618,48.8053999],[129.4295491,48.8035387],[129.3849854,48.8146621],[129.3780521,48.8074334],[129.3555929,48.8110611],[129.3523948,48.8000176],[129.3178464,48.8010732],[129.3120728,48.7841909],[129.3032513,48.7849529],[129.2989357,48.7976867],[129.2735674,48.7917011],[129.251466,48.7720333],[129.2596569,48.7532274],[129.2477159,48.7462844],[129.1642,48.7621214],[129.1764153,48.752746],[129.1585619,48.747713],[129.156687,48.7348252],[129.2127686,48.6924022],[129.2238068,48.6740388],[129.1842422,48.6483747],[129.1917498,48.6400084],[129.1900618,48.6220093],[129.1340178,48.6122747],[129.1271654,48.6048792],[129.1000159,48.6131945],[129.0784882,48.6033522],[129.0584907,48.5763669],[129.0259985,48.5679692],[129.0255944,48.555471],[129.0083213,48.5517395],[129.0106652,48.5427132],[128.9905616,48.5263554],[128.9963514,48.5101022],[128.9804134,48.4958508],[128.9869127,48.4810525],[128.9812965,48.449806]]],[[[125.1193771,49.1795235],[125.1546097,49.1642075],[125.1546097,49.1749268],[125.1729889,49.1971359],[125.2128067,49.1925392],[125.2204666,49.2323608],[125.2066879,49.2476768],[125.2215244,49.2668504],[125.205662,49.2749768],[125.2229053,49.2858194],[125.2489516,49.2736858],[125.2783056,49.2376655],[125.2610536,49.2214108],[125.2743576,49.1888856],[125.3433226,49.1826014],[125.3519036,49.1691679],[125.3417756,49.1535643],[125.3194596,49.1497471],[125.3096746,49.1585035],[125.3196306,49.1668108],[125.3167126,49.1808383],[125.2943966,49.1799413],[125.2671026,49.146715],[125.2693346,49.1339125],[125.1891786,49.1371777],[125.1476366,49.1288663],[125.1411106,49.1411068],[125.1193653,49.1358861],[125.1193771,49.1795235]]],[[[127.3139366,50.0943071],[127.3427757,50.118088],[127.3935827,50.1330556],[127.5089517,50.1046535],[127.5222344,50.0866601],[127.5016447,50.0594152],[127.4894543,49.9904387],[127.4990212,49.9719288],[127.5312576,49.9475955],[127.4818216,49.9408812],[127.4526386,49.9593239],[127.4279196,49.960208],[127.4169336,49.9575579],[127.4265476,49.9278447],[127.3942756,49.9300548],[127.3863786,49.9453014],[127.3180566,49.9469545],[127.3015766,49.9557908],[127.2864706,49.986705],[127.2936826,49.9976354],[127.2720536,49.9899101],[127.2741106,50.0325977],[127.2864706,50.0370079],[127.2919636,50.0713962],[127.3111896,50.0793275],[127.3139366,50.0943071]]]]}}]}