{"type": "FeatureCollection", "features": [{"type": "Feature", "properties": {"slug": "helena", "members": 2, "country": "United States", "input_hash": "f6c5e323b36989a2"}, "geometry": {"type": "Polygon", "coordinates": [[[-111.7879753, 46.5689499], [-111.7845156, 46.0497654], [-111.660576, 46.0492888], [-111.661518, 45.827834], [-111.680834, 45.821582], [-111.705467, 45.795738], [-111.726992, 45.793468], [-111.756081, 45.804237], [-111.78821, 45.792512], [-111.80342, 45.79643], [-111.810637, 45.812938], [-111.834429, 45.820174], [-111.872147, 45.818027], [-111.883862, 45.830459], [-111.910327, 45.828563], [-111.909689, 45.839283], [-111.93007, 45.857612], [-111.984039, 45.846493], [-112.022071, 45.858756], [-112.047907, 45.855033], [-112.047396, 45.849375], [-112.085801, 45.851101], [-112.094976, 45.83875], [-112.11796, 45.83411], [-112.118869, 45.812461], [-112.112238, 45.805518], [-112.133236, 45.788036], [-112.136926, 45.771023], [-112.155337, 45.755746], [-112.18538, 45.747368], [-112.214769, 45.76561], [-112.255006, 45.770961], [-112.273944, 45.791232], [-112.426269, 45.843497], [-112.430366, 45.854579], [-112.404045, 45.887326], [-112.420947, 45.910626], [-112.416147, 45.922326], [-112.436148, 45.939526], [-112.429748, 45.958726], [-112.44535, 45.998026], [-112.435868, 46.014455], [-112.442423, 46.030081], [-112.473021, 46.040542], [-112.477122, 46.051336], [-112.461876, 46.073286], [-112.471311, 46.082115], [-112.46611, 46.092622], [-112.502739, 46.113526], [-112.502284, 46.121791], [-112.520365, 46.135602], [-112.512255, 46.155222], [-112.516752, 46.165883], [-112.504818, 46.184134], [-112.524444, 46.185401], [-112.539808, 46.174869], [-112.57685, 46.178859], [-112.581842, 46.198845], [-112.573451, 46.214659], [-112.597814, 46.235296], [-112.580018, 46.240924], [-112.559155, 46.263922], [-112.557571, 46.277762], [-112.572403, 46.296639], [-112.570336, 46.304868], [-112.556296, 46.30747], [-112.532945, 46.335373], [-112.503954, 46.330196], [-112.492289, 46.342475], [-112.472268, 46.340745], [-112.464611, 46.328863], [-112.454085, 46.328932], [-112.450817, 46.350942], [-112.426005, 46.357464], [-112.426093, 46.36898], [-112.414647, 46.37152], [-112.417315, 46.377092], [-112.403413, 46.386812], [-112.350562, 46.384878], [-112.336737, 46.404067], [-112.30941457888558, 46.42169475581741], [-112.3235151, 46.4332424], [-112.3213986, 46.4433929], [-112.3045243, 46.4506777], [-112.3063547, 46.5110013], [-112.2933742, 46.5179626], [-112.2939241, 46.5315269], [-112.3167667, 46.574904], [-112.293295, 46.6045033], [-112.2986925, 46.6262517], [-112.3109631, 46.6335492], [-112.3068516, 46.6369058], [-112.3209348, 46.6560192], [-112.4106285, 46.6559893], [-112.4107864, 46.6994322], [-112.5354722, 46.6995737], [-112.5356904, 46.8343183], [-112.7954075, 46.8317168], [-112.7957846, 47.1769212], [-113.0590661, 47.1793326], [-113.0595087, 47.4879876], [-113.0913681, 47.4803693], [-113.1155666, 47.4915545], [-113.1254449, 47.5412641], [-113.1177773, 47.5704733], [-113.1463943, 47.601344], [-113.1355226, 47.6203135], [-113.1444772, 47.637046], [-113.1302612, 47.6415695], [-113.1285046, 47.6607452], [-113.1473285, 47.6780628], [-113.1659014, 47.7199092], [-113.1652452, 47.7286997], [-113.1387763, 47.7456179], [-113.1208546, 47.7413393], [-113.0809891, 47.749788], [-113.0829931, 47.7725515], [-113.0664576, 47.776145], [-113.0614694, 47.7878161], [-113.06688, 47.7990135], [-113.0600151, 47.8080508], [-113.0624307, 47.822175], [-113.0694158, 47.8291839], [-113.0581938, 47.8425454], [-113.0579082, 47.8708475], [-113.0631847, 47.8857037], [-113.0906114, 47.8930282], [-113.0934457, 47.9079414], [-113.0866902, 47.9182646], [-113.0659318, 47.9266384], [-113.0221253, 47.9271642], [-113.0138354, 47.9416068], [-112.9847501, 47.9539821], [-112.9747932, 47.9136996], [-112.9529792, 47.9054488], [-112.948984, 47.8794804], [-112.9273146, 47.8597127], [-112.9118762, 47.8262612], [-112.9226844, 47.7874731], [-112.9185106, 47.7728229], [-112.9269508, 47.7615168], [-112.9016037, 47.7280287], [-112.9022387, 47.7078027], [-112.9153422, 47.6952537], [-112.878876, 47.6603954], [-112.8779896, 47.6494258], [-112.8598921, 47.6405888], [-112.8572093, 47.6296854], [-112.8170177, 47.6074236], [-112.80085, 47.609699], [-112.773567, 47.597263], [-112.7313546, 47.6174469], [-112.695592, 47.622173], [-112.6816097, 47.6142628], [-112.6755235, 47.6222029], [-112.6471129, 47.6206327], [-112.6161348, 47.6356182], [-112.5786864, 47.6330006], [-112.549223, 47.6519454], [-112.5212094, 47.6397835], [-112.5120228, 47.620244], [-112.4279999, 47.6059068], [-112.4183122, 47.5966109], [-112.4180947, 47.5819393], [-112.4053331, 47.5763796], [-112.4071975, 47.5539079], [-112.3744448, 47.546483], [-112.3444266, 47.5511434], [-112.3429643, 47.5390831], [-112.3191407, 47.5429342], [-112.281821, 47.5070223], [-112.2188776, 47.5088622], [-112.2062736, 47.5022874], [-112.1794077, 47.5140178], [-112.1599921, 47.5094497], [-112.1457575, 47.5169399], [-112.1093999, 47.5065117], [-112.0852819, 47.5157949], [-112.0479585, 47.5160204], [-112.0450858, 47.1927687], [-112.0251342, 47.1942152], [-112.0260192, 47.1993855], [-112.0113349, 47.1955941], [-112.0099455, 47.1790964], [-111.9781571, 47.18435], [-111.982512, 47.1738361], [-111.97667, 47.1685523], [-111.9661464, 47.1732011], [-111.9637058, 47.1587233], [-111.9464973, 47.1552121], [-111.9397222, 47.1421766], [-111.8963354, 47.1358671], [-111.8963867, 47.1214582], [-111.8748711, 47.1215879], [-111.8749474, 47.1288119], [-111.7893602, 47.1289801], [-111.790236, 46.913764], [-111.6581024, 46.9134293], [-111.6212963, 46.9032298], [-111.6032101, 46.8889123], [-111.61299, 46.8851451], [-111.6100453, 46.8768189], [-111.6423105, 46.8653455], [-111.6348864, 46.8528844], [-111.645622, 46.843887], [-111.6394797, 46.8321325], [-111.6252216, 46.8322249], [-111.5894749, 46.8056787], [-111.5324729, 46.8044251], [-111.5239423, 46.8171324], [-111.5091312, 46.816321], [-111.511614, 46.8086059], [-111.4957571, 46.790074], [-111.4967522, 46.7647433], [-111.5093737, 46.7595598], [-111.5449954, 46.7691951], [-111.5611499, 46.7661], [-111.5673106, 46.7767773], [-111.5876117, 46.7817396], [-111.6025761, 46.7782011], [-111.6251547, 46.7458764], [-111.6393351, 46.7381], [-111.6401322, 46.5822237], [-111.6317579, 46.5690438], [-112.0292985, 46.5689956], [-111.7879753, 46.5689499]], [[-112.2201414, 46.4363562], [-112.2200422907777, 46.43665949133337], [-112.2239895, 46.4345404], [-112.2201414, 46.4363562]], [[-112.241494, 46.423012], [-112.2307579, 46.4305018], [-112.24226586497385, 46.422918694668546], [-112.241494, 46.423012]], [[-112.247202, 46.422322], [-112.24444896732574, 46.42265479476966], [-112.251273, 46.424074], [-112.247202, 46.422322]], [[-112.268787, 46.414911], [-112.26860286463993, 46.41504997008307], [-112.278578, 46.419361], [-112.268787, 46.414911]], [[-112.28606887057937, 46.41794261591841], [-112.2857442, 46.417747], [-112.278578, 46.419361], [-112.28606887057937, 46.41794261591841]], [[-112.29380716890765, 46.42167291876335], [-112.294732, 46.422153], [-112.29677751315327, 46.421676595387], [-112.29380716890765, 46.42167291876335]], [[-112.30627052752062, 46.42257311194342], [-112.306698, 46.422923], [-112.30757019926858, 46.42252865338876], [-112.30627052752062, 46.42257311194342]]]}}]}