{"type": "FeatureCollection", "features": [{"type": "Feature", "properties": {"slug": "herat", "members": 2, "country": "Afghanistan", "input_hash": "8384948f672cbf7a"}, "geometry": {"type": "Polygon", "coordinates": [[[62.3795464, 34.3834388], [62.3886461, 34.3202175], [62.4076854, 34.2903817], [62.4321673, 34.2753937], [62.3278307, 34.2532383], [62.2465247, 34.2591393], [62.1894081, 34.2866135], [62.0747485, 34.2860852], [61.9858841, 34.3143952], [61.9600746, 34.3360212], [61.9249268, 34.3432685], [61.9332301, 34.3723119], [61.9767485, 34.391902], [61.9933269, 34.4119538], [61.9807047, 34.4444307], [61.9876751, 34.451111], [61.9831538, 34.4667997], [61.9718503, 34.4810879], [61.977502, 34.5158664], [61.986168, 34.5341813], [62.0166874, 34.547527], [62.0647271, 34.6168588], [62.0737699, 34.6371666], [62.0635967, 34.6621181], [62.1022169, 34.6813304], [62.1061267, 34.6953409], [62.1250265, 34.696432], [62.1637717, 34.721704], [62.3049291, 34.6746596], [62.2973693, 34.6583049], [62.3026891, 34.6264011], [62.3154286, 34.6155717], [62.3108088, 34.5640553], [62.3400678, 34.5150448], [62.3365679, 34.4991246], [62.3204685, 34.4937018], [62.3187885, 34.4177456], [62.3389478, 34.4208637], [62.3795464, 34.3834388]], [[62.1102134, 34.3769549], [62.122852, 34.37003], [62.127212714925705, 34.369025857215505], [62.1102134, 34.3769549]]]}}]}