{"type": "FeatureCollection", "features": [{"type": "Feature", "properties": {"slug": "heze", "members": 9, "country": "China", "input_hash": "dec1ce9e2fbeef22"}, "geometry": {"type": "Polygon", "coordinates": [[[116.140107, 35.104281], [116.133597, 35.092592], [116.146076, 35.085714], [116.144678, 35.074529], [116.12665, 35.048059], [116.107264, 35.053639], [116.103748, 35.028641], [116.120278, 35.017711], [116.131412, 34.992068], [116.138693, 34.986552], [116.147226, 34.993451], [116.147836, 34.978318], [116.165389, 34.968247], [116.149337, 34.941724], [116.185047, 34.939379], [116.194873, 34.913837], [116.216617, 34.909521], [116.230228, 34.896127], [116.254527, 34.905552], [116.27178, 34.877073], [116.318982, 34.873091], [116.331262, 34.858578], [116.367705, 34.862615], [116.386216, 34.859651], [116.387945, 34.849804], [116.407721, 34.850236], [116.4010906, 34.8297364], [116.4069432, 34.8165956], [116.395517, 34.8111563], [116.3990951, 34.7672417], [116.38982, 34.7596221], [116.3980544, 34.7512304], [116.3594198, 34.750728], [116.356641, 34.7435873], [116.3646769, 34.7300713], [116.3552034, 34.7200364], [116.3620269, 34.7140749], [116.3782596, 34.7183521], [116.3796759, 34.7058903], [116.3890636, 34.7026445], [116.3708997, 34.6828713], [116.3751161, 34.6577499], [116.3603639, 34.6516735], [116.3691401, 34.6410025], [116.3652563, 34.6275447], [116.32056, 34.6211571], [116.3250983, 34.6085042], [116.3135809, 34.5984943], [116.2914419, 34.6090914], [116.2736052, 34.6060449], [116.277076, 34.5823798], [116.2595075, 34.5837798], [116.2411183, 34.5617562], [116.2433767, 34.5529778], [116.2261033, 34.5564239], [116.2125635, 34.5750126], [116.1961484, 34.5794824], [116.1936164, 34.5715143], [116.1487054, 34.5565829], [116.1358308, 34.5589156], [116.1247157, 34.5792352], [116.1002326, 34.5978894], [116.0138011, 34.5995673], [115.9935879, 34.6162569], [115.9824514, 34.6085572], [115.9734392, 34.5831571], [115.8208751, 34.5585975], [115.7908129, 34.5791821], [115.6961118, 34.6019873], [115.6911228, 34.5712694], [115.6781735, 34.5567199], [115.6170545, 34.5760068], [115.5286618, 34.5745817], [115.4890976, 34.6043701], [115.4786387, 34.6290415], [115.4555365, 34.6381202], [115.4529112, 34.6554958], [115.4397869, 34.6629698], [115.4482412, 34.6997073], [115.4379415, 34.7039764], [115.442748, 34.711632], [115.4222774, 34.7325842], [115.4464817, 34.7435124], [115.4309785, 34.7580267], [115.4401731, 34.7661796], [115.4233503, 34.7888891], [115.4260325, 34.8043072], [115.4078851, 34.8118973], [115.3955626, 34.8328451], [115.3690624, 34.8290583], [115.3138303, 34.8618837], [115.2919006, 34.8616724], [115.279026, 34.8401542], [115.279541, 34.8525164], [115.2697134, 34.8569889], [115.2545857, 34.8383754], [115.2389001, 34.844416], [115.2289008, 34.8926193], [115.2398013, 34.8924785], [115.2495217, 34.9102175], [115.2237296, 34.9163232], [115.2102756, 34.9048329], [115.1833892, 34.9155139], [115.186522, 34.9261759], [115.1969933, 34.9264046], [115.2062845, 34.9440835], [115.2170241, 34.9468713], [115.2127647, 34.9603167], [115.1992035, 34.9604485], [115.1928949, 34.9520862], [115.1836681, 34.9603519], [115.1543784, 34.9589538], [115.1236081, 34.985091], [115.1263064, 35.0011183], [115.1097894, 35.0077313], [115.104897, 34.9935467], [115.0912499, 35.0013512], [115.0866794, 34.9955155], [115.0555014, 34.9963241], [115.0472832, 34.985513], [115.0281858, 34.9801333], [115.0275636, 34.9689683], [115.0065135, 34.9773378], [115.0023079, 34.9891872], [114.9555301, 34.9962889], [114.9124002, 34.9698299], [114.9012852, 34.9776542], [114.9021864, 34.9900661], [114.8766517, 34.9982049], [114.8789683, 35.0227748], [114.8618678, 35.0226213], [114.8645391, 35.0167753], [114.8514316, 35.0076787], [114.8617117, 35.0002529], [114.8321056, 35.0080653], [114.8169103, 35.0547409], [114.8188957, 35.0633671], [114.8820163, 35.0910765], [114.8823318, 35.1057416], [114.8614293, 35.1353886], [114.8361469, 35.1555745], [114.8395381, 35.1683079], [114.8847264, 35.1933015], [114.9273348, 35.1986407], [114.9265408, 35.2443924], [114.962697, 35.2743712], [114.9641347, 35.2865978], [115.0116715, 35.3320438], [115.0178137, 35.3727063], [115.0691271, 35.3759116], [115.0811219, 35.3929858], [115.0777316, 35.4111757], [115.0856924, 35.4160723], [115.1085448, 35.403498], [115.1104331, 35.418468], [115.1154113, 35.3999125], [115.1189518, 35.4184855], [115.162515, 35.4283784], [115.1897351, 35.4243846], [115.2133164, 35.4072113], [115.2732324, 35.4619633], [115.3169632, 35.4773419], [115.320987, 35.4878788], [115.3549893, 35.4947552], [115.3417682, 35.5222374], [115.3466177, 35.5412361], [115.3520626, 35.5377702], [115.3589934, 35.5409524], [115.3394294, 35.553335], [115.3520894, 35.5552379], [115.3548574, 35.5648038], [115.3629148, 35.560082], [115.365994, 35.5702757], [115.3768515, 35.5689055], [115.391947, 35.5937998], [115.4021072, 35.5948904], [115.4083728, 35.6248611], [115.4228568, 35.6199074], [115.432105, 35.6222971], [115.4183507, 35.6259599], [115.4267514, 35.6504267], [115.4411387, 35.64952], [115.433135, 35.6568953], [115.4655576, 35.6666146], [115.4476297, 35.6723585], [115.4642486, 35.6750429], [115.4785394, 35.7041123], [115.5018854, 35.7144966], [115.4960489, 35.718434], [115.5045032, 35.7252629], [115.5187082, 35.7247403], [115.523858, 35.7321608], [115.5544138, 35.7286422], [115.5575681, 35.7368636], [115.5865144, 35.7274229], [115.5866003, 35.7383964], [115.6875883, 35.7539171], [115.6895757, 35.7892291], [115.698568, 35.7889486], [115.7006307, 35.8058929], [115.7117896, 35.8029454], [115.7292807, 35.8330055], [115.7578407, 35.8383321], [115.7676962, 35.8544386], [115.8111302, 35.8442927], [115.8158131, 35.8527471], [115.8541939, 35.8544678], [115.8645658, 35.8728091], [115.879743, 35.839649], [115.872011, 35.834237], [115.88159, 35.832475], [115.869475, 35.833488], [115.872636, 35.823157], [115.865603, 35.815902], [115.886173, 35.805549], [115.91123, 35.810305], [115.917593, 35.796644], [115.946341, 35.791396], [115.968952, 35.772607], [115.98931, 35.775101], [116.008911, 35.752807], [116.036688, 35.754578], [116.043321, 35.731341], [116.066662, 35.724409], [116.068985, 35.703179], [116.087368, 35.700777], [116.086166, 35.679011], [116.108508, 35.687417], [116.114671, 35.675977], [116.108958, 35.658995], [116.115533, 35.656389], [116.109417, 35.647879], [116.129351, 35.635667], [116.126049, 35.626426], [116.109929, 35.620376], [116.103369, 35.597713], [116.130691, 35.588705], [116.123412, 35.579897], [116.112445, 35.582743], [116.104477, 35.563476], [116.122539, 35.532444], [116.114322, 35.517619], [116.123996, 35.514416], [116.112835, 35.490033], [116.125903, 35.490571], [116.128878, 35.471647], [116.157539, 35.473199], [116.153987, 35.446074], [116.172718, 35.4504], [116.169513, 35.463184], [116.179446, 35.477393], [116.181405, 35.46653], [116.191178, 35.463985], [116.187861, 35.454331], [116.201164, 35.466168], [116.194355, 35.449845], [116.201683, 35.444038], [116.198828, 35.436282], [116.212211, 35.4358], [116.214975, 35.415244], [116.205128, 35.400559], [116.22718, 35.369856], [116.209702, 35.343199], [116.18873, 35.333337], [116.193624, 35.324743], [116.184239, 35.315019], [116.183751, 35.304239], [116.192157, 35.305271], [116.196082, 35.2944], [116.214913, 35.284424], [116.217857, 35.26509], [116.261536, 35.274596], [116.281078, 35.245029], [116.275249, 35.21243], [116.265766, 35.208281], [116.270069, 35.202647], [116.258813, 35.188601], [116.24173, 35.186652], [116.226832, 35.205384], [116.225236, 35.192119], [116.206819, 35.194509], [116.20802, 35.180842], [116.218651, 35.171565], [116.208962, 35.163698], [116.208439, 35.14841], [116.193616, 35.140173], [116.19065, 35.129325], [116.199348, 35.126922], [116.181309, 35.112323], [116.140107, 35.104281]]]}}]}