{"type": "FeatureCollection", "features": [{"type": "Feature", "properties": {"slug": "hilo", "members": 1, "country": "United States", "input_hash": "4f422fe5e7f9702a"}, "geometry": {"type": "Polygon", "coordinates": [[[-155.7976903, 19.0105665], [-155.6955706, 18.9457603], [-155.6837164, 18.9317966], [-155.6818968, 18.9111686], [-155.6644601, 18.9167091], [-155.6333734, 18.9407794], [-155.619917, 18.9683913], [-155.5989962, 18.970231], [-155.5799773, 19.0187485], [-155.5539767, 19.0451345], [-155.5552493, 19.0792226], [-155.50995, 19.1209591], [-155.5039128, 19.1362116], [-155.4503983, 19.1490817], [-155.4143583, 19.1849494], [-155.3486206, 19.212536], [-155.3385515, 19.2311403], [-155.2938197, 19.2635347], [-155.2604745, 19.2713098], [-155.1925585, 19.2558757], [-155.1842359, 19.2634446], [-155.1306787, 19.2732833], [-155.0711177, 19.311295], [-154.9912532, 19.3389987], [-154.9296662, 19.3941641], [-154.888443, 19.415856], [-154.8268421, 19.4648092], [-154.807181, 19.493719], [-154.8119913, 19.5106886], [-154.8067486, 19.5180357], [-154.8140236, 19.5286807], [-154.9056894, 19.570296], [-154.9449909, 19.6020825], [-154.9465975, 19.6226288], [-154.9789595, 19.6358132], [-154.9785293, 19.6886156], [-155.0014333, 19.7347659], [-155.0385377, 19.7393864], [-155.0622004, 19.7235715], [-155.0646752, 19.7303038], [-155.071436, 19.7234832], [-155.0854195, 19.7255967], [-155.0910297, 19.7485333], [-155.0858831, 19.8004733], [-155.0936982, 19.809936], [-155.0834229, 19.8524155], [-155.1189009, 19.8831425], [-155.1383539, 19.9148317], [-155.210724, 19.9731055], [-155.2796115, 20.0186216], [-155.4376461, 20.0919676], [-155.5560173, 20.1286935], [-155.5942479, 20.1207565], [-155.6084277, 20.1364788], [-155.6382067, 20.1459248], [-155.6510384, 20.1640703], [-155.7166924, 20.1927342], [-155.731127, 20.2045031], [-155.7313239, 20.2200083], [-155.7715483, 20.2466542], [-155.7787514, 20.2423746], [-155.8539814, 20.2683958], [-155.8879054, 20.2516173], [-155.9042811, 20.1954229], [-155.8836004, 20.1057807], [-155.8231192, 20.0276711], [-155.8292293, 19.979895], [-155.8551938, 19.9656921], [-155.8614623, 19.9508629], [-155.8878002, 19.931641], [-155.887645, 19.914271], [-155.8990683, 19.9092044], [-155.9058169, 19.8881917], [-155.9234327, 19.8700142], [-155.9211751, 19.8553737], [-155.9720559, 19.8486365], [-156.0149801, 19.8018734], [-156.0386123, 19.7880239], [-156.0504141, 19.7725707], [-156.0529578, 19.7359433], [-156.0618813, 19.7276657], [-156.0495666, 19.7151302], [-156.0451839, 19.6930603], [-156.0266769, 19.6762476], [-156.031067, 19.6520466], [-155.9948841, 19.6397739], [-155.9746154, 19.6039412], [-155.9620976, 19.562094], [-155.9668791, 19.5525062], [-155.9557512, 19.5323916], [-155.9600046, 19.5139718], [-155.9510796, 19.5067689], [-155.9484543, 19.4837564], [-155.9200549, 19.4770011], [-155.9283465, 19.4590062], [-155.9190854, 19.4278694], [-155.9046393, 19.4103688], [-155.9110335, 19.3965856], [-155.8953939, 19.3765995], [-155.8855815, 19.3445015], [-155.8887668, 19.2886583], [-155.9008081, 19.2481175], [-155.8986258, 19.2114468], [-155.9063452, 19.2030908], [-155.9070661, 19.1686424], [-155.9161811, 19.1549148], [-155.9104272, 19.1443591], [-155.9182825, 19.1339676], [-155.906849, 19.0798593], [-155.8835306, 19.0527078], [-155.8789979, 19.0338227], [-155.850267, 19.0193414], [-155.7976903, 19.0105665]]]}}]}