{"type":"FeatureCollection","features":[{"type":"Feature","properties":{"slug":"hilton-head","member_count":13,"matched_count":13,"unmatched":[],"source":"Overture Maps division_area (CC-BY 4.0)"},"geometry":{"type":"Polygon","coordinates":[[[-81.1436632,32.2291323],[-81.156587,32.24391],[-81.14577,32.2511198],[-81.1463349,32.2633343],[-81.1378075,32.2647756],[-81.1418759,32.2716818],[-81.1231364,32.2754084],[-81.1269708,32.2831025],[-81.119557,32.2864693],[-81.122933,32.307295],[-81.1334815,32.3080513],[-81.1307493,32.3254286],[-81.1378691,32.3271475],[-81.1284994,32.3408199],[-81.1441479,32.3513963],[-81.1516607,32.3416428],[-81.1602764,32.3404553],[-81.1545457,32.3497912],[-81.1740765,32.3628337],[-81.167555,32.368364],[-81.1817053,32.3791977],[-81.1782259,32.3930342],[-81.2083123,32.4361417],[-81.1994939,32.4419574],[-81.2047294,32.4525475],[-81.1977166,32.4482376],[-81.1872603,32.4642256],[-81.2335577,32.4986702],[-81.2388326,32.507442],[-81.2339359,32.5183908],[-81.252882,32.51833],[-81.2799945,32.5366239],[-81.2746804,32.5443139],[-81.28127,32.556471],[-81.014625,32.753058],[-80.976198,32.720565],[-80.964508,32.694861],[-80.946244,32.688104],[-80.9496,32.662328],[-80.962951,32.652403],[-80.959022,32.642828],[-80.902448,32.621561],[-80.8304501,32.7035514],[-80.806953,32.688965],[-80.787483,32.688221],[-80.78862,32.682838],[-80.778305,32.68692],[-80.772659,32.676239],[-80.768631,32.681477],[-80.765622,32.675267],[-80.744888,32.674229],[-80.738419,32.682598],[-80.728534,32.673663],[-80.71965,32.680172],[-80.703327,32.664586],[-80.67115,32.671642],[-80.668854,32.663574],[-80.680527,32.662846],[-80.684494,32.654613],[-80.67823,32.642666],[-80.660693,32.64328],[-80.658638,32.635115],[-80.675746,32.627131],[-80.654396,32.626877],[-80.660655,32.615141],[-80.647828,32.596371],[-80.620881,32.5812],[-80.609914,32.590029],[-80.599788,32.581047],[-80.579835,32.584273],[-80.576166,32.577761],[-80.584206,32.567728],[-80.565224,32.565488],[-80.566016,32.550943],[-80.551504,32.565769],[-80.536483,32.529224],[-80.51776,32.519136],[-80.502944,32.495652],[-80.3448069,32.4174777],[-80.3830663,32.3742826],[-80.4456112,32.2814117],[-80.6954042,32.1057017],[-80.745536,32.078667],[-80.83612305238385,32.0784919986074],[-80.8508558,32.0342145],[-80.922803,32.039142],[-81.003914,32.1006],[-81.032633,32.085476],[-81.050317,32.085324],[-81.091575,32.110909],[-81.113343,32.1132],[-81.119995,32.134265],[-81.112236,32.150804],[-81.129756,32.165839],[-81.121149,32.174902],[-81.111132,32.172703],[-81.120439,32.1787],[-81.121795,32.191794],[-81.114032,32.195701],[-81.121885,32.195538],[-81.138925,32.219768],[-81.152064,32.222042],[-81.1436632,32.2291323]]]}}]}