{"type": "FeatureCollection", "features": [{"type": "Feature", "properties": {"slug": "ho-chi-minh-city", "members": 30, "country": "Vietnam", "input_hash": "42e956c889503cbc"}, "geometry": {"type": "MultiPolygon", "coordinates": [[[[106.9744465, 10.459317], [106.9717306, 10.4685553], [106.9778381, 10.4740853], [106.9744465, 10.459317]]], [[[106.8468153, 10.8648961], [106.8816459, 10.8100813], [106.8643995, 10.7891759], [106.8738005, 10.7687001], [106.8638538, 10.7650669], [106.8465768, 10.7754044], [106.8248281, 10.7595803], [106.8252961, 10.7772193], [106.8179665, 10.7803911], [106.8013778, 10.760408], [106.7708469, 10.7452907], [106.752304, 10.7204199], [106.7582045, 10.692344], [106.807532, 10.6565399], [106.8250354, 10.6287879], [106.8379655, 10.6263197], [106.8434381, 10.6384115], [106.8603392, 10.6367029], [106.8819583, 10.647984], [106.9113714, 10.6081568], [106.9215029, 10.6097301], [106.9837328, 10.5792082], [106.9903366, 10.6046794], [107.0082867, 10.6130075], [106.9975855, 10.6231715], [106.9987656, 10.6342013], [107.0175147, 10.6315562], [107.0139195, 10.6436473], [107.0444585, 10.6574539], [107.096489, 10.6519593], [107.1338375, 10.6850708], [107.139219, 10.7278796], [107.1434154, 10.7237922], [107.1463028, 10.729839], [107.1390292, 10.7325411], [107.1384305, 10.7450088], [107.1543825, 10.7442287], [107.1822703, 10.7682366], [107.2052319, 10.77485], [107.2065405, 10.7580717], [107.2315876, 10.7641014], [107.2440599, 10.7561422], [107.3004983, 10.7549603], [107.3054382, 10.7128578], [107.2997157, 10.7039189], [107.307762, 10.6940779], [107.2999327, 10.6835579], [107.317911, 10.6686104], [107.3489593, 10.6772965], [107.3507517, 10.7085878], [107.3610895, 10.7282076], [107.371649, 10.7316671], [107.4008098, 10.769081], [107.4190497, 10.7711264], [107.4455595, 10.80494], [107.4574949, 10.7913673], [107.4717835, 10.7936118], [107.4849772, 10.7685505], [107.5052501, 10.7715976], [107.5061197, 10.7458978], [107.5443548, 10.7059903], [107.5381547, 10.6785896], [107.5683188, 10.618984], [107.563464, 10.6151667], [107.5719469, 10.600185], [107.57139942622379, 10.566160558772788], [107.5127414, 10.5011255], [107.4705803, 10.4978247], [107.4421971, 10.467282], [107.3693135, 10.4675437], [107.3335201, 10.4454722], [107.322611, 10.4471414], [107.2565786, 10.3800284], [107.2396807, 10.3786258], [107.2123836, 10.4054347], [107.1651537, 10.3989183], [107.110572, 10.3599945], [107.0836157, 10.3203669], [107.0716463, 10.3343942], [107.0728156, 10.3468858], [107.0599705, 10.3570749], [107.0554274, 10.3812532], [107.0622497, 10.3873603], [107.0728888, 10.3801752], [107.0776355, 10.392481], [107.0924496, 10.3878548], [107.1026089, 10.3940074], [107.1187724, 10.4165236], [107.1136067, 10.4363096], [107.0748546, 10.4329238], [107.0501499, 10.4500355], [107.0362893, 10.4768057], [107.0261613, 10.4752364], [107.0250614, 10.4660102], [107.0025897, 10.4955768], [107.013858, 10.5141925], [106.9764907, 10.5037803], [106.9663292, 10.4639828], [106.944303, 10.4722484], [106.9321096, 10.4655397], [106.9381509, 10.435943], [106.9755734, 10.4159911], [106.9714522, 10.40725], [106.9167624, 10.381286], [106.8820732, 10.3761721], [106.8750134, 10.3779778], [106.8814892, 10.3885354], [106.873462, 10.4079881], [106.854031, 10.4100459], [106.80912302445931, 10.388403151697073], [106.7536353, 10.4673029], [106.7452324, 10.4978311], [106.7456478, 10.5763631], [106.7355638, 10.5774085], [106.736842, 10.5863966], [106.7287025, 10.5800465], [106.7202879, 10.5963776], [106.7236747, 10.6117188], [106.7327945, 10.6099603], [106.7275447, 10.6161848], [106.7332404, 10.6288844], [106.722928, 10.6451945], [106.7009535, 10.6538464], [106.6912555, 10.6486175], [106.6857032, 10.6566582], [106.6697641, 10.6393346], [106.6569372, 10.6433228], [106.6528386, 10.6322999], [106.6349407, 10.6253147], [106.629483, 10.64203], [106.6212058, 10.6409296], [106.6245614, 10.6474547], [106.6053836, 10.6586959], [106.6006523, 10.6506916], [106.5798284, 10.6560951], [106.5754631, 10.6491116], [106.5686163, 10.656583], [106.5579277, 10.648603], [106.5489702, 10.6574327], [106.5504213, 10.6856057], [106.5338586, 10.6881685], [106.5302547, 10.7172794], [106.5202276, 10.7236952], [106.5093718, 10.7170518], [106.4871569, 10.7298149], [106.4635618, 10.7565046], [106.5045673, 10.7889907], [106.5318605, 10.902406], [106.4535377, 10.9419195], [106.4118982, 10.973542], [106.3731933, 10.9696228], [106.3567007, 10.9915971], [106.4128983, 11.0089007], [106.4090037, 11.0226333], [106.4247771, 11.0473832], [106.420216, 11.0633818], [106.4260116, 11.09165], [106.4484858, 11.1307276], [106.4297882, 11.1488217], [106.4369738, 11.1570769], [106.431663, 11.173576], [106.4104334, 11.1723511], [106.4051335, 11.1881421], [106.4003596, 11.1815537], [106.3879979, 11.1856286], [106.3835412, 11.228365], [106.3712302, 11.244706], [106.3614916, 11.2381321], [106.3512855, 11.2485384], [106.3643375, 11.260805], [106.3504303, 11.262909], [106.3551638, 11.2880612], [106.3437736, 11.2827258], [106.3447595, 11.2942305], [106.3354677, 11.2952884], [106.3452063, 11.3241565], [106.327367, 11.3442798], [106.3603071, 11.3976764], [106.3684221, 11.445809], [106.4085928, 11.4691507], [106.4233839, 11.495733], [106.43547, 11.5015756], [106.4893734, 11.4995541], [106.5400649, 11.4675565], [106.5564, 11.4849987], [106.573033, 11.4553224], [106.5414924, 11.4265219], [106.5478458, 11.403439], [106.5388844, 11.3875329], [106.5621281, 11.3698386], [106.6132392, 11.387468], [106.6161176, 11.3632552], [106.6712996, 11.3537498], [106.6789286, 11.3755403], [106.6734163, 11.4012617], [106.6864013, 11.3955296], [106.6976104, 11.4030679], [106.708939, 11.3993765], [106.7268686, 11.4323665], [106.7407103, 11.4330179], [106.7555513, 11.4492604], [106.7539307, 11.4766821], [106.7969042, 11.4912057], [106.8060746, 11.4518982], [106.7844111, 11.4293312], [106.7706967, 11.4264331], [106.7694551, 11.4040494], [106.7890352, 11.4012203], [106.7936754, 11.3795437], [106.8115515, 11.3758307], [106.8250462, 11.38418], [106.856701, 11.374921], [106.856696, 11.3459903], [106.8632948, 11.3396516], [106.8554089, 11.3290718], [106.8571052, 11.314496], [106.8750254, 11.3073648], [106.8724059, 11.3273442], [106.8841276, 11.3395939], [106.9023133, 11.3415151], [106.9079355, 11.3536479], [106.944876, 11.3542388], [106.9532128, 11.3287158], [106.9377127, 11.3123315], [106.9415634, 11.2934255], [106.9245484, 11.2710096], [106.931608, 11.2450035], [106.9107968, 11.2413836], [106.9183877, 11.2353785], [106.9132724, 11.2317602], [106.9179865, 11.2196593], [106.90145496022781, 11.209142617950812], [106.9065578925149, 11.192710352035471], [106.9333631, 11.1889692], [106.9457716, 11.1765986], [106.941439, 11.1676811], [106.9657958, 11.1483146], [106.9539631, 11.1405556], [106.9657555, 11.1095875], [106.9468188, 11.0893022], [106.9450899, 11.0776506], [106.9525802, 11.0718664], [106.947984, 11.059818], [106.9331405, 11.0648224], [106.9226678, 11.056287], [106.9085434, 11.0227521], [106.8940929, 11.0278991], [106.8734527, 11.0198138], [106.8403539, 11.0397396], [106.8281793, 11.0642643], [106.8021223, 11.0594706], [106.8121448, 11.0298802], [106.774694, 11.0059231], [106.7962039, 10.9734812], [106.7959017, 10.9712959], [106.7789048, 10.9627997], [106.7755185, 10.9592452], [106.7832499, 10.9646174], [106.7885699, 10.9530679], [106.8183053, 10.9409256], [106.8404473, 10.9131631], [106.8513221, 10.8753108], [106.8468153, 10.8648961]], [[106.76222754759061, 10.962320460849924], [106.7619663, 10.9618707], [106.76234891773419, 10.961473895693398], [106.76222754759061, 10.962320460849924]], [[106.76426249355369, 10.959489368949466], [106.76502612485406, 10.958697423983065], [106.76368854739694, 10.960084595689922], [106.76426249355369, 10.959489368949466]], [[106.7944724, 10.9236986], [106.8011304, 10.9200413], [106.80147282692428, 10.920081588518496], [106.7944724, 10.9236986]], [[106.80469482074903, 10.9204606748245], [106.80597819741796, 10.920611671551091], [106.80431757728256, 10.920416289937393], [106.80469482074903, 10.9204606748245]], [[106.80878084096796, 10.919420206115086], [106.81179787879562, 10.91775818168958], [106.80715776304902, 10.920314326540435], [106.80878084096796, 10.919420206115086]], [[106.81201622398319, 10.917593333067233], [106.8115171, 10.9154174], [106.8121066, 10.9175251], [106.81201622398319, 10.917593333067233]], [[106.813948, 10.9075083], [106.8161058, 10.9033521], [106.81636687856508, 10.903332597635922], [106.813948, 10.9075083]], [[106.7732134, 10.9594608], [106.7713282, 10.9652616], [106.77085429080711, 10.965079976456959], [106.7732134, 10.9594608]]], [[[106.9874191, 10.4802777], [106.9831572, 10.480061], [106.9854804, 10.485568], [106.9874191, 10.4802777]]], [[[106.9866813, 10.5034206], [106.9917649, 10.4988249], [106.9831269, 10.4952359], [106.9866813, 10.5034206]]], [[[107.0948955, 10.3962569], [107.0979989, 10.4023589], [107.0983422, 10.397022], [107.0948955, 10.3962569]]], [[[107.1023869, 10.4079095], [107.1000776, 10.4090175], [107.1005952, 10.4110409], [107.1023869, 10.4079095]]]]}}]}