{"type": "FeatureCollection", "features": [{"type": "Feature", "properties": {"slug": "ho-municipal", "members": 1, "country": "Ghana", "input_hash": "829d88a3091ab3bd"}, "geometry": {"type": "Polygon", "coordinates": [[[0.6354494, 6.6298067], [0.649652, 6.674318], [0.642662, 6.688304], [0.648102, 6.712867], [0.641364, 6.72241], [0.649959, 6.737609], [0.618778, 6.754806], [0.608712, 6.746976], [0.58086, 6.762033], [0.566203, 6.788668], [0.57984, 6.807286], [0.547108, 6.833678], [0.545721, 6.827384], [0.5227861, 6.8270015], [0.5066692, 6.8135896], [0.4972463, 6.7937862], [0.5032018, 6.7872059], [0.5219287, 6.7887659], [0.5232313, 6.7723427], [0.52032, 6.7611894], [0.4968132, 6.7435729], [0.4883267, 6.7526556], [0.4804817, 6.7435924], [0.4795034, 6.760679], [0.4622195, 6.7464947], [0.458841, 6.7717671], [0.4505886, 6.7784557], [0.421494, 6.7563385], [0.4239776, 6.7351881], [0.4165096, 6.7198522], [0.4292671, 6.6891607], [0.4273793, 6.6650243], [0.3956881, 6.6321881], [0.3744504, 6.6316718], [0.3596289, 6.5845178], [0.3386414, 6.5747401], [0.394543, 6.5690871], [0.4322991, 6.5443943], [0.4334421, 6.5201658], [0.4638264, 6.5792829], [0.4825427, 6.5544766], [0.4923752, 6.5785591], [0.4889594, 6.5993889], [0.5200047, 6.5973951], [0.5242182, 6.5719702], [0.5458871, 6.5801135], [0.5530907, 6.5915913], [0.5835836, 6.5779742], [0.6129856, 6.5992498], [0.6354494, 6.6298067]]]}}]}