{"type":"FeatureCollection","features":[{"type":"Feature","properties":{"slug":"hobart","member_count":6,"matched_count":6,"unmatched":[],"source":"Overture Maps division_area (CC-BY 4.0)"},"geometry":{"type":"MultiPolygon","coordinates":[[[[147.133006,-43.499222],[147.132744,-43.498828],[147.133121,-43.498948],[147.133006,-43.499222]]],[[[147.129463,-43.499576],[147.130324,-43.498242],[147.130655,-43.49826],[147.129463,-43.499576]]],[[[147.133614,-43.498249],[147.132478,-43.498537],[147.133669,-43.497603],[147.133614,-43.498249]]],[[[147.246873,-43.493754],[147.247382,-43.494138],[147.247142,-43.494414],[147.246873,-43.493754]]],[[[147.152861,-43.4906806],[147.1518194,-43.4914823],[147.1513004,-43.4904025],[147.152861,-43.4906806]]],[[[147.1291664,-43.4835912],[147.129974,-43.4829579],[147.1299937,-43.483437],[147.1291664,-43.4835912]]],[[[147.107827,-43.441441],[147.107328,-43.440965],[147.107352,-43.440916],[147.107827,-43.441441]]],[[[147.108316,-43.441257],[147.107771,-43.440931],[147.108192,-43.440949],[147.108316,-43.441257]]],[[[147.108199,-43.440313],[147.107999,-43.440603],[147.107872,-43.440428],[147.108199,-43.440313]]],[[[147.105774,-43.395818],[147.103303,-43.406492],[147.099116,-43.409174],[147.09824,-43.389602],[147.105774,-43.395818]]],[[[147.21576,-43.317831],[147.22375,-43.315864],[147.228191,-43.321652],[147.225189,-43.322378],[147.21576,-43.317831]]],[[[147.179781,-43.287926],[147.1809,-43.287234],[147.180924,-43.287624],[147.179781,-43.287926]]],[[[147.36098,-42.913976],[147.355825,-42.951631],[147.344861,-42.954772],[147.338745,-42.974329],[147.324561,-42.983244],[147.330564,-42.988973],[147.324779,-43.005982],[147.34426,-43.051796],[147.31394,-43.059601],[147.285961,-43.013908],[147.273211,-43.015712],[147.282764,-43.020323],[147.274267,-43.022791],[147.281312,-43.021264],[147.262483,-43.069861],[147.3012336,-43.0879083],[147.285656,-43.110926],[147.266874,-43.107548],[147.271683,-43.119891],[147.24931,-43.125542],[147.262905,-43.131293],[147.252902,-43.132515],[147.256333,-43.138528],[147.243353,-43.147117],[147.248233,-43.151391],[147.240879,-43.16125],[147.24844,-43.166759],[147.239616,-43.174464],[147.25565,-43.188295],[147.261685,-43.223905],[147.24255,-43.252942],[147.242525,-43.268124],[147.219579,-43.281201],[147.189074,-43.27651],[147.167154,-43.28369],[147.1737906,-43.2477875],[147.200634,-43.250405],[147.216019,-43.242871],[147.208283,-43.241822],[147.213912,-43.223361],[147.178599,-43.21152],[147.194903,-43.192305],[147.188109,-43.182602],[147.186394,-43.139076],[147.179846,-43.135919],[147.184787,-43.120776],[147.1730133,-43.0623557],[147.204976,-43.045299],[147.174649,-43.038421],[147.175752,-43.033167],[147.147688,-43.034119],[147.124212,-43.024252],[147.126532,-43.01615],[147.118628,-43.012118],[147.122478,-43.000533],[147.141242,-42.998888],[147.139998,-42.982331],[147.157648,-42.94402],[147.151539,-42.939133],[147.157297,-42.919689],[147.150368,-42.913349],[147.151094,-42.855752],[147.136232,-42.84421],[147.1738337,-42.8297539],[147.178769,-42.814615],[147.200835,-42.806465],[147.197819,-42.797584],[147.211632,-42.766635],[147.229261,-42.745184],[147.241399,-42.749993],[147.244491,-42.754295],[147.22916,-42.747941],[147.253504,-42.765788],[147.2526355,-42.7866173],[147.283208,-42.7900003],[147.258758,-42.792359],[147.266121,-42.796655],[147.253877,-42.806525],[147.262346,-42.811369],[147.256393,-42.815282],[147.2774681,-42.8257772],[147.297954,-42.818638],[147.306678,-42.823434],[147.297717,-42.823906],[147.30189,-42.833835],[147.308287,-42.826025],[147.323172,-42.833978],[147.31428,-42.847567],[147.327849,-42.844611],[147.319664,-42.855132],[147.337176,-42.865199],[147.341498,-42.882171],[147.332388,-42.88256],[147.339448,-42.886796],[147.332321,-42.900205],[147.36098,-42.913976]]],[[[147.139875,-42.767072],[147.112126,-42.751262],[147.115539,-42.736587],[147.091688,-42.721262],[147.18902,-42.694913],[147.217434,-42.676934],[147.249934,-42.682945],[147.2726416,-42.6778518],[147.303305,-42.655376],[147.314513,-42.66728],[147.319033,-42.657695],[147.321249,-42.670409],[147.338803,-42.677305],[147.373398,-42.675501],[147.371682,-42.682632],[147.400431,-42.686277],[147.415193,-42.677797],[147.429973,-42.67964],[147.427628,-42.675222],[147.463465,-42.678783],[147.492708,-42.685743],[147.4901729,-42.6958494],[147.523443,-42.700051],[147.530062,-42.682608],[147.544984,-42.67535],[147.565015,-42.693042],[147.595354,-42.672391],[147.636209,-42.6731151],[147.617254,-42.6749],[147.62856,-42.6866],[147.633756,-42.687203],[147.6263,-42.678126],[147.65662,-42.682328],[147.665303,-42.6698155],[147.697309,-42.694205],[147.742182,-42.694114],[147.750867,-42.705573],[147.768714,-42.703658],[147.775062,-42.710671],[147.9175963,-42.718774],[147.913925,-42.731496],[147.9372576,-42.7350784],[147.9008129,-42.7439971],[147.878762,-42.77147],[147.870306,-42.815219],[147.887039,-42.845801],[147.86202,-42.837914],[147.860435,-42.828892],[147.854337,-42.841397],[147.863689,-42.846491],[147.843106,-42.84963],[147.845216,-42.860134],[147.838996,-42.861586],[147.84998,-42.872029],[147.839631,-42.876522],[147.831241,-42.868619],[147.827455,-42.880649],[147.79338,-42.89626],[147.790421,-42.9031098],[147.772878,-42.900264],[147.766934,-42.907282],[147.742511,-42.895326],[147.728179,-42.899002],[147.720748,-42.887218],[147.668635,-42.901826],[147.670329,-42.893701],[147.660437,-42.887086],[147.641817,-42.890092],[147.64138,-42.875349],[147.60592,-42.86932],[147.607115,-42.855847],[147.617139,-42.850726],[147.590034,-42.838698],[147.565095,-42.837913],[147.523065,-42.850725],[147.503239,-42.865674],[147.511346,-42.875807],[147.494981,-42.910087],[147.531468,-42.931933],[147.53476,-42.956763],[147.550146,-42.968175],[147.553974,-42.985945],[147.524164,-42.993179],[147.529082,-43.005858],[147.521928,-43.020564],[147.441954,-43.037129],[147.419157,-43.050857],[147.403775,-43.037152],[147.415333,-43.021045],[147.396872,-43.006648],[147.404364,-42.988752],[147.391794,-42.97592],[147.40898,-42.962693],[147.409979,-42.979989],[147.419667,-42.985135],[147.417926,-43.003009],[147.427943,-43.018929],[147.443643,-43.025161],[147.431516,-43.02712],[147.465846,-43.02407],[147.47322,-43.00891],[147.470157,-42.984508],[147.459351,-42.976328],[147.445221,-42.978518],[147.445939,-42.964518],[147.473946,-42.91151],[147.434582,-42.908997],[147.433618,-42.924341],[147.421113,-42.940253],[147.408588,-42.939112],[147.416991,-42.908033],[147.404833,-42.88501],[147.36661,-42.882576],[147.36583,-42.870188],[147.352402,-42.875777],[147.350546,-42.860557],[147.358638,-42.848718],[147.343894,-42.850707],[147.337793,-42.84514],[147.344737,-42.837434],[147.333777,-42.841081],[147.334908,-42.833894],[147.317373,-42.824903],[147.319693,-42.816542],[147.283182,-42.802651],[147.292675,-42.789574],[147.284354,-42.778008],[147.2646776,-42.7784988],[147.260522,-42.7652944],[147.2666759,-42.7556508],[147.253681,-42.751619],[147.256518,-42.745786],[147.25223,-42.751215],[147.2573033,-42.7561916],[147.254491,-42.757499],[147.2478161,-42.7465111],[147.202302,-42.72657],[147.194729,-42.731233],[147.207539,-42.736747],[147.174867,-42.740202],[147.1487564,-42.7527255],[147.139875,-42.767072]]],[[[147.286411,-43.534143],[147.284523,-43.534904],[147.284303,-43.534302],[147.286411,-43.534143]]],[[[147.285571,-43.534035],[147.287324,-43.53231],[147.288525,-43.533781],[147.285571,-43.534035]]],[[[147.299843,-43.53204],[147.299822,-43.532914],[147.299285,-43.532795],[147.299843,-43.53204]]],[[[147.299164,-43.531811],[147.298665,-43.5318],[147.299261,-43.531547],[147.299164,-43.531811]]],[[[147.297509,-43.529597],[147.297881,-43.527987],[147.298618,-43.528385],[147.297509,-43.529597]]],[[[147.295841,-43.526606],[147.299213,-43.525198],[147.296144,-43.527632],[147.295841,-43.526606]]],[[[147.291359,-43.526227],[147.295197,-43.526637],[147.293165,-43.528474],[147.291359,-43.526227]]],[[[147.249316,-43.494949],[147.248812,-43.493759],[147.248932,-43.493676],[147.249316,-43.494949]]],[[[147.247656,-43.494673],[147.248442,-43.493718],[147.248376,-43.494654],[147.247656,-43.494673]]],[[[147.249012,-43.493544],[147.249585,-43.49425],[147.249618,-43.494478],[147.249012,-43.493544]]],[[[147.249258,-43.493549],[147.249688,-43.493742],[147.249558,-43.493955],[147.249258,-43.493549]]],[[[147.322387,-43.084455],[147.358373,-43.063802],[147.367992,-43.072459],[147.362672,-43.08692],[147.388156,-43.102874],[147.38994,-43.12108],[147.400789,-43.127288],[147.391254,-43.155358],[147.409119,-43.168897],[147.411442,-43.200137],[147.426676,-43.206258],[147.433434,-43.231601],[147.430188,-43.252141],[147.422787,-43.253822],[147.412692,-43.242189],[147.374762,-43.254059],[147.342383,-43.277397],[147.32225,-43.30677],[147.329054,-43.360146],[147.348831,-43.368234],[147.366378,-43.349958],[147.372106,-43.349038],[147.382607,-43.371948],[147.37899,-43.390186],[147.364169,-43.39257],[147.338063,-43.423932],[147.34643,-43.429339],[147.34174,-43.441763],[147.33151,-43.441701],[147.321124,-43.469187],[147.324504,-43.503144],[147.294468,-43.516113],[147.290686,-43.505105],[147.271717,-43.500481],[147.262868,-43.488071],[147.246492,-43.492823],[147.241173,-43.479823],[147.247356,-43.474999],[147.239976,-43.465908],[147.253316,-43.46283],[147.249596,-43.446294],[147.200743,-43.436653],[147.206031,-43.428921],[147.237099,-43.426151],[147.218906,-43.417607],[147.206663,-43.428189],[147.202077,-43.424403],[147.1992122,-43.4450698],[147.2039584,-43.4528629],[147.1789865,-43.473564],[147.1877982,-43.4794749],[147.1832303,-43.4889672],[147.1776891,-43.4937247],[147.1554181,-43.4844597],[147.1496535,-43.4877225],[147.1465385,-43.4986474],[147.1430131,-43.4923014],[147.1338868,-43.4993609],[147.1407756,-43.4879857],[147.1316358,-43.4828542],[147.1354164,-43.4581698],[147.0928693,-43.4286891],[147.0968714,-43.4121256],[147.11608,-43.411352],[147.1535654,-43.4580726],[147.175202,-43.459856],[147.171288,-43.450246],[147.179848,-43.443178],[147.174147,-43.437918],[147.190275,-43.428026],[147.183513,-43.420983],[147.174092,-43.423906],[147.174679,-43.411159],[147.167764,-43.40885],[147.185657,-43.386902],[147.178861,-43.352406],[147.188674,-43.348724],[147.199018,-43.375801],[147.218937,-43.376397],[147.217915,-43.362334],[147.22909,-43.358173],[147.221744,-43.339335],[147.240399,-43.328862],[147.246454,-43.304371],[147.270868,-43.295368],[147.271097,-43.276974],[147.2861047,-43.265937],[147.2908567,-43.2417923],[147.30237,-43.281409],[147.3190246,-43.2844522],[147.3455384,-43.2490669],[147.34866,-43.23008],[147.340864,-43.219041],[147.380851,-43.207346],[147.381568,-43.191743],[147.369314,-43.179387],[147.354818,-43.186886],[147.331763,-43.185503],[147.335132,-43.171088],[147.299542,-43.181043],[147.299918,-43.170471],[147.275833,-43.166803],[147.2956,-43.157025],[147.28181,-43.144301],[147.310034,-43.134064],[147.329164,-43.151675],[147.337019,-43.136509],[147.352721,-43.130959],[147.356638,-43.138605],[147.36091,-43.114961],[147.353228,-43.128066],[147.33783,-43.120303],[147.328146,-43.131224],[147.322526,-43.126471],[147.329787,-43.115841],[147.306462,-43.113627],[147.316946,-43.109452],[147.322387,-43.084455]]],[[[147.292015,-43.196604],[147.289282,-43.197693],[147.290326,-43.195418],[147.292015,-43.196604]]],[[[147.291989,-43.172314],[147.292961,-43.175407],[147.291611,-43.175851],[147.291989,-43.172314]]],[[[147.301997,-43.516227],[147.300981,-43.516959],[147.300627,-43.517342],[147.301021,-43.516636],[147.301997,-43.516227]]],[[[147.363569,-43.398667],[147.364419,-43.399694],[147.363675,-43.400425],[147.363569,-43.398667]]],[[[147.431163,-43.252435],[147.429772,-43.252548],[147.431062,-43.252003],[147.431163,-43.252435]]],[[[147.489377,-43.071957],[147.488868,-43.071046],[147.489772,-43.070985],[147.489377,-43.071957]]],[[[147.484655,-43.067655],[147.486226,-43.068351],[147.485569,-43.068739],[147.484655,-43.067655]]],[[[147.417079,-43.057497],[147.417258,-43.059322],[147.416154,-43.058766],[147.417079,-43.057497]]],[[[147.473213,-43.045068],[147.486001,-43.045969],[147.488606,-43.065381],[147.478145,-43.056564],[147.473213,-43.045068]]],[[[147.784232,-42.910106],[147.7846,-42.913827],[147.782692,-42.913252],[147.784232,-42.910106]]],[[[147.650774,-42.907478],[147.648875,-42.906875],[147.649555,-42.90642],[147.650774,-42.907478]]],[[[147.812369,-42.904035],[147.801081,-42.895812],[147.808124,-42.890106],[147.818258,-42.894898],[147.812369,-42.904035]]],[[[147.597916,-42.879365],[147.597875,-42.878958],[147.598096,-42.879129],[147.597916,-42.879365]]],[[[147.602408,-42.868259],[147.600092,-42.866881],[147.60233,-42.865789],[147.602408,-42.868259]]],[[[147.601273,-42.863753],[147.601282,-42.865233],[147.600052,-42.86355],[147.601273,-42.863753]]]]}}]}