{"type":"FeatureCollection","features":[{"type":"Feature","properties":{"slug":"hoogeveen","member_count":2,"matched_count":2,"unmatched":[],"source":"Overture Maps division_area (CC-BY 4.0)"},"geometry":{"type":"Polygon","coordinates":[[[6.5528214,52.665595],[6.5138615,52.6462938],[6.5186042,52.6140878],[6.4700732,52.6250073],[6.4597883,52.6157598],[6.4418797,52.6156373],[6.4312429,52.6283779],[6.3838368,52.6121977],[6.364441,52.6431746],[6.3262899,52.6589861],[6.3269896,52.6691942],[6.2953669,52.662286],[6.2657942,52.666865],[6.2698148,52.682228],[6.2834781,52.6822482],[6.2758739,52.6902161],[6.285012,52.6897052],[6.2866181,52.6991771],[6.2758077,52.6954634],[6.2743031,52.7061853],[6.2489841,52.7082205],[6.2169036,52.7031577],[6.2163198,52.718604],[6.2520276,52.7583106],[6.2988371,52.7664953],[6.2932078,52.7789939],[6.3097534,52.7954379],[6.3536562,52.7989196],[6.3429568,52.7896927],[6.3554996,52.7795159],[6.3779166,52.7852036],[6.3940418,52.7774485],[6.4129479,52.7883182],[6.4204336,52.7808979],[6.4369825,52.7919967],[6.4469204,52.7858893],[6.4554508,52.8005565],[6.4918051,52.7931233],[6.4906692,52.770885],[6.5127291,52.7620843],[6.5663854,52.7655789],[6.5574001,52.7453649],[6.5874674,52.7356899],[6.5764285,52.7242655],[6.5967793,52.7235467],[6.5957944,52.7132179],[6.6299375,52.7127266],[6.6294532,52.6696882],[6.6145268,52.6740493],[6.5528214,52.665595]]]}}]}