{"type": "FeatureCollection", "features": [{"type": "Feature", "properties": {"slug": "horsham", "members": 16, "country": "United Kingdom", "input_hash": "0a2209cb183281de"}, "geometry": {"type": "Polygon", "coordinates": [[[-0.3915505, 51.1165148], [-0.3003738, 51.1247395], [-0.241661, 51.1430306], [-0.200077, 51.138781], [-0.2369203, 51.1094425], [-0.2325185, 51.0973524], [-0.2193996, 51.0995671], [-0.2118357, 51.0919335], [-0.2108725, 51.0791894], [-0.2267852, 51.041572], [-0.2191863, 51.0379258], [-0.2469648, 51.0335112], [-0.2491087, 51.0249513], [-0.2366767, 51.021088], [-0.2453241, 51.0123357], [-0.2320426, 51.0108513], [-0.2420238, 50.9907305], [-0.2295747, 50.9870091], [-0.2408388, 50.9725474], [-0.240897, 50.9527202], [-0.224483, 50.9429507], [-0.2319705, 50.9358202], [-0.2238112, 50.9117897], [-0.2441816, 50.9073692], [-0.248687, 50.8730772], [-0.2398885, 50.8659553], [-0.2577091, 50.8714891], [-0.2566064, 50.8623418], [-0.3438134, 50.8629401], [-0.3646236, 50.8745326], [-0.3639217, 50.8884865], [-0.3800895, 50.8856003], [-0.3927407, 50.8933798], [-0.4131858, 50.8795952], [-0.4117647, 50.8865662], [-0.4305406, 50.8929804], [-0.4400089, 50.8775349], [-0.449305, 50.8817353], [-0.4515264, 50.8954748], [-0.4649453, 50.8839789], [-0.4766115, 50.8850635], [-0.4828657, 50.8991039], [-0.493062, 50.8924085], [-0.4907884, 50.8852827], [-0.4999411, 50.8998903], [-0.5292978, 50.8814261], [-0.5564563, 50.8826275], [-0.5594401, 50.8897788], [-0.5428589, 50.8916495], [-0.5558341, 50.9043631], [-0.5517167, 50.9130254], [-0.5363079, 50.9138009], [-0.5653454, 50.9314502], [-0.5687313, 50.9425188], [-0.5496963, 50.9539901], [-0.5337724, 50.9502516], [-0.5248813, 50.9870447], [-0.507293, 50.9905363], [-0.5176699, 50.9985596], [-0.5107051, 51.0078236], [-0.486246, 51.0101119], [-0.4758806, 51.0209628], [-0.47322, 51.0338553], [-0.4839531, 51.0409969], [-0.4756641, 51.0563828], [-0.4841529, 51.056816], [-0.4784325, 51.0664764], [-0.4865032, 51.0702017], [-0.4921512, 51.0944886], [-0.4414691, 51.1033014], [-0.4384612, 51.0979124], [-0.3915505, 51.1165148]]]}}]}