{"type":"FeatureCollection","features":[{"type":"Feature","properties":{"slug":"houghton-mi","member_count":30,"matched_count":3,"unmatched":["Hancock city (US-MI, type='City')","Balance of Calumet charter township (US-MI, type='Balance')","Portage charter township (US-MI, type='Township')","Balance of Torch Lake township (US-MI, type='Balance')","Chassell township (US-MI, type='Township')","Laurium village (US-MI, type='Village')","Osceola township (US-MI, type='Township')","Balance of Adams township (US-MI, type='Balance')","Stanton township (US-MI, type='Township')","Franklin township (US-MI, type='Township')","Lake Linden village (US-MI, type='Village')","Balance of Schoolcraft township (US-MI, type='Balance')","South Range village (US-MI, type='Village')","Calumet village (US-MI, type='Village')","Hancock township (US-MI, type='Township')","Laird township (US-MI, type='Township')","Quincy township (US-MI, type='Township')","Duncan township (US-MI, type='Township')","Elm River township (US-MI, type='Township')","Copper City village (US-MI, type='Village')","Lake Linden village (US-MI, type='Village')","Balance of Allouez township (US-MI, type='Balance')","Grant township (US-MI, type='Township')","Eagle Harbor township (US-MI, type='Township')","Ahmeek village (US-MI, type='Village')","Sherman township (US-MI, type='Township')","Houghton township (US-MI, type='Township')"],"source":"Overture Maps division_area (CC-BY 4.0)"},"geometry":{"type":"MultiPolygon","coordinates":[[[[-89.137326,47.8274611],[-89.1378777,47.8274792],[-89.1372254,47.8275417],[-89.137326,47.8274611]]],[[[-89.2720214,47.8613153],[-89.2719184,47.8613295],[-89.2718958,47.8612973],[-89.2720214,47.8613153]]],[[[-89.2658928,47.8631801],[-89.2660344,47.8629258],[-89.2664334,47.8629592],[-89.2658928,47.8631801]]],[[[-89.277399,47.8639866],[-89.2761861,47.864558],[-89.2758031,47.8642154],[-89.277399,47.8639866]]],[[[-89.3172349,47.8654393],[-89.3180131,47.8650407],[-89.3181931,47.8650262],[-89.3172349,47.8654393]]],[[[-89.3169839,47.8655312],[-89.3168046,47.8656479],[-89.316719,47.8655779],[-89.3169839,47.8655312]]],[[[-89.3163855,47.8656964],[-89.3164812,47.8658801],[-89.3162834,47.8657897],[-89.3163855,47.8656964]]],[[[-89.3147793,47.8662874],[-89.3151191,47.8664005],[-89.3142128,47.8665968],[-89.3147793,47.8662874]]],[[[-89.2661999,47.8664501],[-89.2641711,47.8670911],[-89.2673809,47.8659669],[-89.2661999,47.8664501]]],[[[-88.9588516,47.8718475],[-88.9586885,47.8717105],[-88.9589901,47.8717379],[-88.9588516,47.8718475]]],[[[-88.9583462,47.8717764],[-88.9584034,47.8719573],[-88.9582158,47.8718696],[-88.9583462,47.8717764]]],[[[-88.9580204,47.8720232],[-88.9578818,47.8719245],[-88.9581019,47.8719299],[-88.9580204,47.8720232]]],[[[-88.9564233,47.8724511],[-88.9565698,47.8722702],[-88.9567328,47.8722976],[-88.9564233,47.8724511]]],[[[-89.2260875,47.8767633],[-89.255878,47.8684306],[-89.2627802,47.8699749],[-89.2556306,47.8764741],[-89.2260875,47.8767633]]],[[[-89.2314242,47.8780603],[-89.2331521,47.8787992],[-89.2312069,47.8784538],[-89.2314242,47.8780603]]],[[[-89.2263828,47.8796324],[-89.2242759,47.8793093],[-89.2272094,47.8787677],[-89.2263828,47.8796324]]],[[[-89.2148624,47.8848792],[-89.2193287,47.8798843],[-89.2232967,47.8802863],[-89.2148624,47.8848792]]],[[[-89.2191609,47.886268],[-89.2191789,47.8866118],[-89.2187001,47.886474],[-89.2191609,47.886268]]],[[[-89.2432268,47.8905819],[-89.2403622,47.8859201],[-89.247045,47.8877781],[-89.2432268,47.8905819]]],[[[-89.2291612,47.8959146],[-89.2332152,47.8881398],[-89.2374188,47.8896911],[-89.2291612,47.8959146]]],[[[-88.9105642,47.8937629],[-88.9096347,47.8937517],[-88.9108904,47.8934998],[-88.9105642,47.8937629]]],[[[-88.9079957,47.8942941],[-88.9079548,47.8945353],[-88.907653,47.8945626],[-88.9079957,47.8942941]]],[[[-88.9058095,47.8959275],[-88.905989,47.8957794],[-88.9060134,47.8958288],[-88.9058095,47.8959275]]],[[[-88.9053201,47.8961796],[-88.905418,47.8959602],[-88.9054833,47.8959822],[-88.9053201,47.8961796]]],[[[-88.9023189,47.8970121],[-88.9021154,47.8967872],[-88.9027514,47.8966558],[-88.9023189,47.8970121]]],[[[-88.9013078,47.8971818],[-88.9018297,47.8971655],[-88.9012995,47.8972969],[-88.9013078,47.8971818]]],[[[-89.1805124,47.904127],[-89.1802528,47.9042197],[-89.1805462,47.9040457],[-89.1805124,47.904127]]],[[[-88.8721875,47.9062184],[-88.8686526,47.9070251],[-88.873998,47.9051663],[-88.8721875,47.9062184]]],[[[-89.1749821,47.9039233],[-89.1668739,47.9106775],[-89.1661457,47.9089579],[-89.1749821,47.9039233]]],[[[-88.8660007,47.9079255],[-88.8648676,47.9083922],[-88.8645657,47.9084196],[-88.8660007,47.9079255]]],[[[-88.8506742,47.9122152],[-88.8475837,47.9127722],[-88.851159,47.9117643],[-88.8506742,47.9122152]]],[[[-88.8470666,47.912758],[-88.8466101,47.9129556],[-88.8470666,47.9127087],[-88.8470666,47.912758]]],[[[-88.8472951,47.9128457],[-88.8472216,47.9127415],[-88.8473195,47.9127415],[-88.8472951,47.9128457]]],[[[-88.8468312,47.9145073],[-88.850083,47.9141542],[-88.8451137,47.9151773],[-88.8468312,47.9145073]]],[[[-89.2110498,47.9143879],[-89.2107971,47.9144811],[-89.210748,47.9144482],[-89.2110498,47.9143879]]],[[[-88.8389444,47.9157321],[-88.8388465,47.915595],[-88.8389851,47.9156005],[-88.8389444,47.9157321]]],[[[-88.8379249,47.9160394],[-88.8382103,47.9157652],[-88.8384061,47.9157871],[-88.8379249,47.9160394]]],[[[-88.8434651,47.9191305],[-88.8438811,47.9191414],[-88.8434734,47.9191744],[-88.8434651,47.9191305]]],[[[-88.8432858,47.9193006],[-88.8436121,47.9192895],[-88.8432859,47.9193444],[-88.8432858,47.9193006]]],[[[-88.8431226,47.9193225],[-88.8420054,47.9197615],[-88.8431226,47.9192129],[-88.8431226,47.9193225]]],[[[-88.8281051,47.9196875],[-88.8280153,47.9195065],[-88.8285048,47.9194407],[-88.8281051,47.9196875]]],[[[-88.8275585,47.9197972],[-88.8277544,47.9198246],[-88.827265,47.9199837],[-88.8275585,47.9197972]]],[[[-88.8264003,47.9203237],[-88.8261148,47.920258],[-88.8265798,47.9202141],[-88.8264003,47.9203237]]],[[[-88.8248586,47.9208394],[-88.8244998,47.9208832],[-88.8249729,47.9207242],[-88.8248586,47.9208394]]],[[[-88.8233415,47.9213111],[-88.8235046,47.9211191],[-88.8235862,47.9211411],[-88.8233415,47.9213111]]],[[[-88.8226725,47.9214044],[-88.8227296,47.9212728],[-88.8228275,47.921355],[-88.8226725,47.9214044]]],[[[-89.2030593,47.9221418],[-89.2029777,47.9222954],[-89.2029125,47.9222241],[-89.2030593,47.9221418]]],[[[-88.81727,47.92318],[-88.8222403,47.9217443],[-88.8172093,47.9233086],[-88.81727,47.92318]]],[[[-89.2005637,47.9235622],[-89.200841,47.9235896],[-89.2006044,47.9236937],[-89.2005637,47.9235622]]],[[[-88.8236931,47.9261417],[-88.82384,47.9262349],[-88.8236278,47.9262514],[-88.8236931,47.9261417]]],[[[-88.8232607,47.9264215],[-88.8234729,47.926246],[-88.8235464,47.9263447],[-88.8232607,47.9264215]]],[[[-88.8209275,47.9270632],[-88.821156,47.9271344],[-88.8209275,47.927118],[-88.8209275,47.9270632]]],[[[-88.895803,47.9420004],[-88.8962765,47.9418306],[-88.8964884,47.9419512],[-88.895803,47.9420004]]],[[[-88.8935862,47.9420416],[-88.8936519,47.942509],[-88.8931284,47.9423143],[-88.8935862,47.9420416]]],[[[-88.8354672,47.9645573],[-88.8325765,47.9652993],[-88.831761,47.9649902],[-88.8354672,47.9645573]]],[[[-88.83232,47.9688939],[-88.8322956,47.9690913],[-88.8321976,47.968883],[-88.83232,47.9688939]]],[[[-88.8322286,47.9709826],[-88.8224245,47.9742012],[-88.8193323,47.9687886],[-88.8359563,47.9673417],[-88.8259006,47.9708083],[-88.8322286,47.9709826]]],[[[-88.9197609,47.8888508],[-89.0826515,47.8448498],[-89.119245,47.8279306],[-89.1452244,47.8280521],[-89.1593612,47.823765],[-89.1692777,47.8250508],[-89.1924949,47.8332672],[-89.2022032,47.8506461],[-89.2355478,47.853251],[-89.2005308,47.8821788],[-89.2146749,47.8883324],[-89.1729831,47.9007557],[-89.1524779,47.9171293],[-89.2222452,47.8943828],[-89.2158867,47.8995397],[-89.2208345,47.9108271],[-89.2093206,47.9141854],[-89.200905,47.9187428],[-89.1794262,47.935115],[-88.9874175,48.0046585],[-88.9063366,48.0243487],[-88.844095,48.0538623],[-88.8656509,48.0430251],[-88.8269186,48.0490351],[-88.7721426,48.0701832],[-88.7643481,48.0852097],[-88.6861569,48.1129806],[-88.7058181,48.0941493],[-88.7073619,48.0856171],[-88.7098495,48.0849969],[-88.712361,48.0831322],[-88.712418,48.0825837],[-88.7068135,48.0855569],[-88.6858605,48.1092188],[-88.678739,48.1085772],[-88.6701251,48.1107367],[-88.6846651,48.1160242],[-88.682498,48.1174975],[-88.6774107,48.1167127],[-88.6685341,48.1177442],[-88.665782,48.1192955],[-88.675535,48.1209528],[-88.6525449,48.1242548],[-88.6522107,48.1278538],[-88.6616625,48.1280483],[-88.6431679,48.1372763],[-88.6180218,48.1449846],[-88.6530201,48.129861],[-88.6432814,48.1294462],[-88.6371848,48.1319604],[-88.6208233,48.1369502],[-88.6178416,48.1372367],[-88.6434723,48.1267101],[-88.6616701,48.1211151],[-88.5772842,48.14634],[-88.5605279,48.1479858],[-88.5779711,48.1411308],[-88.5582423,48.1437088],[-88.5489819,48.1499097],[-88.5566926,48.1517363],[-88.5253376,48.1655648],[-88.535548,48.156235],[-88.5281714,48.1572803],[-88.5507689,48.1477549],[-88.5547683,48.1443721],[-88.5184343,48.1582036],[-88.5245683,48.1534023],[-88.5039866,48.1640314],[-88.4878433,48.1783566],[-88.4768648,48.177862],[-88.4591417,48.1844746],[-88.5316276,48.1480034],[-88.5211451,48.150824],[-88.5290318,48.1454858],[-88.5240739,48.146345],[-88.4223961,48.1908974],[-88.5372022,48.1276121],[-88.5256715,48.1322799],[-88.5177523,48.1340951],[-88.5095783,48.1373583],[-88.4789921,48.1510363],[-88.4782072,48.1534657],[-88.4701035,48.1551628],[-88.4532485,48.1639346],[-88.4492484,48.163321],[-88.4537478,48.1615492],[-88.4540344,48.1606115],[-88.4596643,48.1585542],[-88.4620319,48.1565413],[-88.4624003,48.1555486],[-88.5009,48.1396547],[-88.5434116,48.1137745],[-88.5940075,48.0929627],[-88.6332364,48.0739544],[-88.6457215,48.0649284],[-88.6295936,48.0611653],[-88.616815,48.0762668],[-88.5791551,48.0902174],[-88.584015,48.0855831],[-88.5769269,48.0827987],[-88.596326,48.0763679],[-88.5782268,48.0784447],[-88.5741241,48.0635247],[-88.6070573,48.0421642],[-88.6606465,48.0285562],[-88.6774246,48.0143461],[-88.6577456,48.0265815],[-88.6394263,48.0267013],[-88.7197098,47.9946504],[-88.7583336,47.9839714],[-88.7672648,47.9860546],[-88.8036481,47.9851926],[-88.8289963,47.9805342],[-88.8815626,47.9533322],[-88.9507913,47.9335566],[-88.9228808,47.9377316],[-89.0023008,47.9086163],[-88.9974725,47.9005319],[-89.0054813,47.8979047],[-89.0008908,47.8904335],[-88.9531104,47.8902221],[-88.8993098,47.9019349],[-88.9197609,47.8888508]]],[[[-88.957119,48.0217415],[-88.9572988,48.0217799],[-88.9571026,48.0217909],[-88.957119,48.0217415]]],[[[-88.9568983,48.0218896],[-88.9568165,48.02178],[-88.9569964,48.0217909],[-88.9568983,48.0218896]]],[[[-88.9565387,48.0218897],[-88.9558932,48.0221969],[-88.9557215,48.0222133],[-88.9565387,48.0218897]]],[[[-88.9553783,48.0222353],[-88.9556235,48.0222681],[-88.9553292,48.0223286],[-88.9553783,48.0222353]]],[[[-88.8444167,48.0485408],[-88.8478011,48.0477529],[-88.8441468,48.0495924],[-88.8444167,48.0485408]]],[[[-88.8310242,48.0501421],[-88.8306236,48.0501312],[-88.8310324,48.0499447],[-88.8310242,48.0501421]]],[[[-88.839123,48.0554693],[-88.8367533,48.0568791],[-88.8354752,48.0569562],[-88.839123,48.0554693]]],[[[-88.8239362,48.0614274],[-88.8240835,48.0619044],[-88.8236173,48.0617838],[-88.8239362,48.0614274]]],[[[-88.822235,48.0621348],[-88.8208771,48.0627053],[-88.8206644,48.0625846],[-88.822235,48.0621348]]],[[[-88.8105662,47.9255776],[-88.8110966,47.9256489],[-88.810501,47.9257147],[-88.8105662,47.9255776]]],[[[-88.8102072,47.9257201],[-88.8103867,47.9258243],[-88.8097341,47.9259833],[-88.8102072,47.9257201]]],[[[-88.8086081,47.9263178],[-88.8091466,47.9261094],[-88.80922,47.9261478],[-88.8086081,47.9263178]]],[[[-88.8070498,47.9267893],[-88.8071395,47.9268934],[-88.8067561,47.9268879],[-88.8070498,47.9267893]]],[[[-88.8051487,47.9275569],[-88.8054669,47.9275295],[-88.8050916,47.9276501],[-88.8051487,47.9275569]]],[[[-88.8021297,47.9286478],[-88.8032721,47.9283299],[-88.8021297,47.9287026],[-88.8021297,47.9286478]]],[[[-88.7983748,47.9345748],[-88.8178569,47.9281545],[-88.7853473,47.9396777],[-88.7983748,47.9345748]]],[[[-88.7891691,47.9378687],[-88.7892506,47.9380278],[-88.7890873,47.9379949],[-88.7891691,47.9378687]]],[[[-88.7885895,47.9382744],[-88.7886385,47.9380222],[-88.7887773,47.9380661],[-88.7885895,47.9382744]]],[[[-88.7875367,47.9384332],[-88.7876917,47.9385155],[-88.7873489,47.9386141],[-88.7875367,47.9384332]]],[[[-88.7868999,47.9388389],[-88.786892,47.9386031],[-88.7870796,47.9386031],[-88.7868999,47.9388389]]],[[[-88.7858961,47.9390031],[-88.7856186,47.9392772],[-88.7854553,47.9392552],[-88.7858961,47.9390031]]],[[[-88.7826473,47.9405157],[-88.7836107,47.9399622],[-88.783986,47.9400445],[-88.7826473,47.9405157]]],[[[-88.7831941,47.9404501],[-88.784247,47.9401926],[-88.7830472,47.9405707],[-88.7831941,47.9404501]]],[[[-88.7640894,47.9469699],[-88.7642737,47.9467392],[-88.7647318,47.9465535],[-88.7640894,47.9469699]]],[[[-88.7599309,47.9481389],[-88.7620553,47.9479681],[-88.7580268,47.9491185],[-88.7599309,47.9481389]]],[[[-88.7575749,47.9493161],[-88.7569274,47.9495855],[-88.7576649,47.949199],[-88.7575749,47.9493161]]],[[[-88.756647,47.9496204],[-88.7568241,47.949571],[-88.7565144,47.9496751],[-88.756647,47.9496204]]],[[[-88.8090822,47.9723119],[-88.8117515,47.9717133],[-88.8120142,47.9718391],[-88.8090822,47.9723119]]],[[[-88.8186999,47.9740493],[-88.8160296,47.9744387],[-88.8198022,47.9735447],[-88.8186999,47.9740493]]],[[[-88.8069036,47.9760115],[-88.8081597,47.975348],[-88.8092226,47.9755885],[-88.8069036,47.9760115]]],[[[-88.78096,47.9767101],[-88.7810334,47.9768417],[-88.7809192,47.976765],[-88.78096,47.9767101]]],[[[-88.7813264,47.9786403],[-88.7811959,47.9783442],[-88.7815878,47.9784539],[-88.7813264,47.9786403]]],[[[-88.7891368,47.980715],[-88.7923711,47.9800941],[-88.7956218,47.9806509],[-88.7891368,47.980715]]],[[[-88.7849131,47.9799883],[-88.7761354,47.9818327],[-88.7721361,47.98093],[-88.7849131,47.9799883]]],[[[-88.7790137,47.9824151],[-88.7784338,47.9825557],[-88.7780047,47.982394],[-88.7790137,47.9824151]]],[[[-88.7810707,47.9828607],[-88.7807764,47.9831567],[-88.7805314,47.9830524],[-88.7810707,47.9828607]]],[[[-88.7885355,47.9832533],[-88.7882578,47.9830284],[-88.7886662,47.9831601],[-88.7885355,47.9832533]]],[[[-88.7532333,47.9831509],[-88.752539,47.9831725],[-88.7533233,47.9830303],[-88.7532333,47.9831509]]],[[[-88.7753106,47.9832886],[-88.776028,47.9831133],[-88.7761597,47.9832145],[-88.7753106,47.9832886]]],[[[-88.7536063,47.9834889],[-88.7535002,47.9836791],[-88.7532276,47.9835701],[-88.7536063,47.9834889]]],[[[-88.7714308,47.9849537],[-88.7740559,47.9825028],[-88.775359,47.9834662],[-88.7714308,47.9849537]]],[[[-88.7537886,47.9838807],[-88.7576803,47.9839777],[-88.7524172,47.9845958],[-88.7537886,47.9838807]]],[[[-88.7522595,47.9847108],[-88.7516958,47.9847982],[-88.7522596,47.9846779],[-88.7522595,47.9847108]]],[[[-88.7522883,47.9847368],[-88.7527048,47.9848192],[-88.7522146,47.9848464],[-88.7522883,47.9847368]]],[[[-88.770056,47.9848943],[-88.7707173,47.9850056],[-88.7698972,47.9849363],[-88.770056,47.9848943]]],[[[-88.7697446,47.9850696],[-88.7695787,47.9850245],[-88.7697446,47.985032],[-88.7697446,47.9850696]]],[[[-88.8063908,48.0594868],[-88.8066934,48.0596787],[-88.8062272,48.0597226],[-88.8063908,48.0594868]]],[[[-88.7992522,48.0617061],[-88.7984121,48.0613292],[-88.7995868,48.0614069],[-88.7992522,48.0617061]]],[[[-88.8186278,48.0637472],[-88.8189795,48.0632591],[-88.8191676,48.0633633],[-88.8186278,48.0637472]]],[[[-88.7929723,48.0637704],[-88.7935917,48.0638476],[-88.7928668,48.0639148],[-88.7929723,48.0637704]]],[[[-88.8174418,48.0641804],[-88.8153885,48.0645862],[-88.818088,48.0637691],[-88.8174418,48.0641804]]],[[[-88.812239,48.0648714],[-88.8124844,48.0650743],[-88.8118546,48.0650633],[-88.812239,48.0648714]]],[[[-88.8113638,48.0654362],[-88.8111757,48.0652771],[-88.8114374,48.0653265],[-88.8113638,48.0654362]]],[[[-88.781102,48.068689],[-88.7806354,48.0692427],[-88.7802755,48.0692097],[-88.781102,48.068689]]],[[[-88.7763916,48.0694483],[-88.7787897,48.0697741],[-88.7751946,48.0709511],[-88.7763916,48.0694483]]],[[[-88.7730996,48.0709581],[-88.7727803,48.0709589],[-88.7732838,48.0707484],[-88.7730996,48.0709581]]],[[[-88.7754634,48.0712974],[-88.775267,48.0714728],[-88.7752098,48.0712974],[-88.7754634,48.0712974]]],[[[-88.7748397,48.073973],[-88.7750689,48.0737593],[-88.7751588,48.0738306],[-88.7748397,48.073973]]],[[[-88.7742831,48.074214],[-88.7742096,48.0740112],[-88.7744796,48.0740606],[-88.7742831,48.074214]]],[[[-88.7852387,48.0756688],[-88.7845998,48.0755918],[-88.7855971,48.0752027],[-88.7852387,48.0756688]]],[[[-88.783424,48.0764867],[-88.7833932,48.0761963],[-88.7839652,48.0760621],[-88.783424,48.0764867]]],[[[-88.7518484,48.0948928],[-88.7520452,48.0945749],[-88.7522498,48.0945859],[-88.7518484,48.0948928]]],[[[-88.7516031,48.094635],[-88.7512754,48.0948925],[-88.7511444,48.0948595],[-88.7516031,48.094635]]],[[[-88.7505467,48.0951224],[-88.7503012,48.0949852],[-88.7505387,48.0949469],[-88.7505467,48.0951224]]],[[[-88.7489231,48.095905],[-88.7500766,48.0954109],[-88.7505463,48.095424],[-88.7489231,48.095905]]],[[[-88.7333996,48.1006335],[-88.7329499,48.1011546],[-88.732778,48.1011711],[-88.7333996,48.1006335]]],[[[-88.7320985,48.1012098],[-88.7292504,48.1020553],[-88.7285379,48.1016662],[-88.7320985,48.1012098]]],[[[-88.7304211,48.101989],[-88.7301426,48.1019014],[-88.7305519,48.1019506],[-88.7304211,48.101989]]],[[[-88.7293733,48.1021759],[-88.7296678,48.1019948],[-88.729717,48.1020551],[-88.7293733,48.1021759]]],[[[-88.7289395,48.1021815],[-88.7290133,48.1023404],[-88.7288823,48.1022912],[-88.7289395,48.1021815]]],[[[-88.7288281,48.1024031],[-88.7178149,48.1059117],[-88.7258982,48.1024048],[-88.7288281,48.1024031]]],[[[-88.7080262,48.1097543],[-88.7077481,48.1105055],[-88.7056851,48.1111913],[-88.7080262,48.1097543]]],[[[-88.6834502,48.1108516],[-88.6859083,48.1097368],[-88.6864705,48.1099925],[-88.6834502,48.1108516]]],[[[-88.7141376,48.1161245],[-88.7139083,48.1163],[-88.7138182,48.1161958],[-88.7141376,48.1161245]]],[[[-88.7128521,48.1166621],[-88.7132534,48.1165414],[-88.7134581,48.1165962],[-88.7128521,48.1166621]]],[[[-88.683704,48.1169496],[-88.6837673,48.1172519],[-88.6834971,48.1172519],[-88.683704,48.1169496]]],[[[-88.6686537,47.2208977],[-88.5760501,47.2446731],[-88.5025889,47.292209],[-88.4196431,47.372127],[-88.2846963,47.4223197],[-88.2405357,47.4294346],[-88.2196772,47.4406125],[-88.2189305,47.4493113],[-88.1822286,47.4578193],[-88.062999,47.467892],[-88.0469744,47.4750987],[-87.98309,47.4788688],[-87.9766575,47.47997],[-87.9772383,47.4802882],[-87.9508711,47.4788931],[-87.938316,47.4801844],[-87.9025755,47.477046],[-87.8900621,47.4743743],[-87.9028698,47.471773],[-87.875794,47.4675171],[-87.8474645,47.4694034],[-87.8609501,47.4742863],[-87.8561844,47.4761085],[-87.8024814,47.4734953],[-87.7311566,47.4496294],[-87.7156329,47.4398442],[-87.7127299,47.4280268],[-87.7131219,47.4012406],[-87.7522899,47.4048719],[-87.7672769,47.3939221],[-87.8145066,47.384788],[-87.8567902,47.3955368],[-87.9569959,47.3874093],[-87.9649264,47.3667962],[-87.9394812,47.3472105],[-87.9428028,47.3367324],[-88.0577015,47.2970064],[-88.0967638,47.2614052],[-88.120015,47.253292],[-88.1729035,47.2123588],[-88.2111383,47.2101127],[-88.228782,47.1980892],[-88.2425124,47.1699656],[-88.2323686,47.1454954],[-88.2474847,47.1361162],[-88.2583856,47.1449213],[-88.2776377,47.1408477],[-88.2883076,47.1312157],[-88.2975939,47.0986481],[-88.3487417,47.0778947],[-88.368195,47.0187014],[-88.4104611,46.978194],[-88.4426588,46.9752934],[-88.4512027,46.938932],[-88.5520979,46.9384725],[-88.5519664,46.8517987],[-88.678952,46.8518056],[-88.6792818,46.420042],[-88.9912186,46.4197564],[-88.9894027,46.6800887],[-88.8639802,46.6789208],[-88.8637387,46.7650708],[-88.9324918,46.7648005],[-88.9332329,47.0312771],[-88.8891785,47.1003508],[-88.8420368,47.1164468],[-88.8148463,47.1412677],[-88.7651351,47.1542881],[-88.7296013,47.1856181],[-88.6686537,47.2208977]]],[[[-88.5982127,48.0467953],[-88.598597,48.0467513],[-88.5981964,48.0468611],[-88.5982127,48.0467953]]],[[[-88.5959566,48.0482984],[-88.5958503,48.0484795],[-88.5958338,48.048304],[-88.5959566,48.0482984]]],[[[-88.579448,48.0585945],[-88.5796607,48.0585451],[-88.5794481,48.0586493],[-88.579448,48.0585945]]],[[[-88.5783685,48.0593897],[-88.5785566,48.0592252],[-88.5786303,48.0592416],[-88.5783685,48.0593897]]],[[[-88.576741,48.0602454],[-88.5768392,48.0604098],[-88.5764138,48.0604319],[-88.576741,48.0602454]]],[[[-88.5755468,48.0608597],[-88.5756532,48.0609693],[-88.5754651,48.0609473],[-88.5755468,48.0608597]]],[[[-88.6389943,48.068877],[-88.6398421,48.0686878],[-88.638893,48.0689755],[-88.6389943,48.068877]]],[[[-88.5732259,48.0730277],[-88.5729888,48.0729673],[-88.5732505,48.0729124],[-88.5732259,48.0730277]]],[[[-88.5734554,48.0746616],[-88.57339,48.0744917],[-88.5735782,48.074552],[-88.5734554,48.0746616]]],[[[-88.576467,48.0765696],[-88.5759515,48.0767944],[-88.5757879,48.0767287],[-88.576467,48.0765696]]],[[[-88.5766963,48.0774798],[-88.5768354,48.0773042],[-88.5769254,48.0774194],[-88.5766963,48.0774798]]],[[[-88.5772132,48.0825409],[-88.5771478,48.0824257],[-88.577295,48.0824586],[-88.5772132,48.0825409]]],[[[-88.5766161,48.0832922],[-88.5765506,48.0834074],[-88.5764523,48.0833744],[-88.5766161,48.0832922]]],[[[-88.5763134,48.0836706],[-88.5761987,48.0835116],[-88.5763379,48.0836377],[-88.5763134,48.0836706]]],[[[-88.5767395,48.086149],[-88.576985,48.085979],[-88.577075,48.0860284],[-88.5767395,48.086149]]],[[[-88.5773537,48.087125],[-88.5771654,48.0872786],[-88.5770999,48.0872402],[-88.5773537,48.087125]]],[[[-88.577853,48.087443],[-88.5778365,48.0871743],[-88.5782212,48.0872839],[-88.577853,48.087443]]],[[[-88.5771088,48.0893293],[-88.5785901,48.0893676],[-88.5769778,48.0894939],[-88.5771088,48.0893293]]],[[[-88.575374,48.0911117],[-88.5748993,48.0915011],[-88.5747521,48.0912873],[-88.575374,48.0911117]]],[[[-88.5699966,48.0913151],[-88.5692354,48.0914577],[-88.5700129,48.0912438],[-88.5699966,48.0913151]]],[[[-88.5757507,48.0916216],[-88.5758406,48.09132],[-88.5760616,48.09149],[-88.5757507,48.0916216]]],[[[-88.5699311,48.0915509],[-88.5696937,48.0915619],[-88.5699475,48.091507],[-88.5699311,48.0915509]]],[[[-88.5704632,48.0917592],[-88.5704631,48.0914028],[-88.5706841,48.0916057],[-88.5704632,48.0917592]]],[[[-88.5761109,48.0920438],[-88.57625,48.0916873],[-88.5770357,48.0918847],[-88.5761109,48.0920438]]],[[[-88.5688384,48.092181],[-88.5695546,48.0917758],[-88.5703732,48.0919402],[-88.5688384,48.092181]]],[[[-88.5690612,48.0965792],[-88.5704756,48.0958591],[-88.5709507,48.096465],[-88.5690612,48.0965792]]],[[[-88.6764544,48.1102221],[-88.677085,48.110085],[-88.6771586,48.1101398],[-88.6764544,48.1102221]]],[[[-88.6765035,48.110381],[-88.6763478,48.1107758],[-88.6759958,48.1106825],[-88.6765035,48.110381]]],[[[-88.6670431,48.119356],[-88.6679279,48.1186433],[-88.6684272,48.1190218],[-88.6670431,48.119356]]],[[[-88.676726,48.1210445],[-88.6772237,48.1211499],[-88.6765539,48.1211235],[-88.676726,48.1210445]]],[[[-88.6567985,48.1261663],[-88.65652,48.1261279],[-88.656864,48.126117],[-88.6567985,48.1261663]]],[[[-88.6730644,48.1263738],[-88.6738304,48.1272026],[-88.671677,48.1268972],[-88.6730644,48.1263738]]],[[[-88.6468438,48.1301988],[-88.6467538,48.1300288],[-88.6469504,48.1300563],[-88.6468438,48.1301988]]],[[[-88.6427482,48.1302302],[-88.6429369,48.1300602],[-88.6429858,48.1302522],[-88.6427482,48.1302302]]],[[[-88.6642149,48.1343273],[-88.6646654,48.1342725],[-88.6642066,48.1343711],[-88.6642149,48.1343273]]],[[[-88.6706371,48.1344162],[-88.6704814,48.1346136],[-88.6705224,48.1343943],[-88.6706371,48.1344162]]],[[[-88.6702029,48.1344161],[-88.6701783,48.1346519],[-88.6698916,48.1345477],[-88.6702029,48.1344161]]],[[[-88.6693919,48.1346353],[-88.6695557,48.1347669],[-88.6693018,48.1346957],[-88.6693919,48.1346353]]],[[[-88.6358301,48.1349318],[-88.6358136,48.1350689],[-88.6355761,48.1350524],[-88.6358301,48.1349318]]],[[[-88.6634027,48.1366575],[-88.66115,48.1366186],[-88.6665327,48.1351173],[-88.6634027,48.1366575]]],[[[-88.6225273,48.137026],[-88.6219629,48.1377392],[-88.6208485,48.1376301],[-88.6225273,48.137026]]],[[[-88.6180799,48.1378891],[-88.6189724,48.1374226],[-88.6191281,48.1375048],[-88.6180799,48.1378891]]],[[[-88.6229393,48.1390657],[-88.6232016,48.1392355],[-88.6226364,48.1393126],[-88.6229393,48.1390657]]],[[[-88.6201882,48.1406791],[-88.6231696,48.1398881],[-88.618829,48.1412939],[-88.6201882,48.1406791]]],[[[-88.6184024,48.1408171],[-88.6185337,48.1409815],[-88.6182388,48.1409652],[-88.6184024,48.1408171]]],[[[-88.6067541,48.1428947],[-88.5969715,48.143778],[-88.6136267,48.1390885],[-88.6067541,48.1428947]]],[[[-88.6203388,48.1434536],[-88.6210841,48.1432284],[-88.621166,48.1432558],[-88.6207813,48.1434918],[-88.6203388,48.1434536]]],[[[-88.6162415,48.1428305],[-88.604913,48.1459113],[-88.6187472,48.1415188],[-88.6162415,48.1428305]]],[[[-88.5850593,48.1443046],[-88.5859359,48.1443263],[-88.5848381,48.1445404],[-88.5850593,48.1443046]]],[[[-88.5840598,48.1447435],[-88.5835682,48.1447106],[-88.5840761,48.144694],[-88.5840598,48.1447435]]],[[[-88.5987847,48.1448202],[-88.596095,48.1449694],[-88.5992495,48.1444151],[-88.5987847,48.1448202]]],[[[-88.5919624,48.1447753],[-88.5927354,48.1449324],[-88.5904462,48.1451688],[-88.5919624,48.1447753]]],[[[-88.5889618,48.1454619],[-88.5753637,48.1485245],[-88.5740297,48.1485123],[-88.5889618,48.1454619]]],[[[-88.5878113,48.1603044],[-88.656277,48.134605],[-88.6521307,48.1380266],[-88.6644864,48.1349316],[-88.6212256,48.1526816],[-88.5878113,48.1603044]]],[[[-88.5827936,48.1484789],[-88.5837223,48.1474903],[-88.5864619,48.1473091],[-88.5827936,48.1484789]]],[[[-88.5805159,48.1486138],[-88.5802448,48.148561],[-88.5807334,48.1484937],[-88.5805159,48.1486138]]],[[[-88.5819111,48.153731],[-88.6033151,48.1489613],[-88.6181416,48.1436985],[-88.6025485,48.150677],[-88.5819111,48.153731]]],[[[-88.5719208,48.1489471],[-88.5697464,48.1496659],[-88.5688695,48.1496746],[-88.5719208,48.1489471]]],[[[-88.5760948,48.1488987],[-88.5759945,48.1496958],[-88.5740811,48.1498827],[-88.5760948,48.1488987]]],[[[-88.5711591,48.1500014],[-88.5717801,48.1500504],[-88.5707578,48.1503],[-88.5711591,48.1500014]]],[[[-88.5893437,48.1509652],[-88.5889552,48.1509858],[-88.5894964,48.1508813],[-88.5893437,48.1509652]]],[[[-88.5753843,48.1517743],[-88.5763443,48.1511635],[-88.577446,48.1508205],[-88.5768104,48.1514466],[-88.5753843,48.1517743]]],[[[-88.5810984,48.1538056],[-88.580388,48.1537513],[-88.5813175,48.1535892],[-88.5810984,48.1538056]]],[[[-88.5751899,48.1618966],[-88.5747555,48.1617924],[-88.5752226,48.1617814],[-88.5751899,48.1618966]]],[[[-88.5783426,48.1625986],[-88.5666918,48.1663606],[-88.5793435,48.1617055],[-88.5783426,48.1625986]]],[[[-88.5689407,48.0913151],[-88.5688261,48.0915016],[-88.568777,48.0914742],[-88.5689407,48.0913151]]],[[[-88.5688343,48.0919238],[-88.5687034,48.0921487],[-88.5683187,48.0920445],[-88.5688343,48.0919238]]],[[[-88.568016,48.0923626],[-88.5680813,48.0920391],[-88.5682205,48.0920829],[-88.568016,48.0923626]]],[[[-88.5636697,48.0949838],[-88.5640134,48.0951757],[-88.5636205,48.0950496],[-88.5636697,48.0949838]]],[[[-88.5637484,48.095923],[-88.5635418,48.0958742],[-88.5637374,48.0958657],[-88.5637484,48.095923]]],[[[-88.5603543,48.0968507],[-88.5657749,48.0955332],[-88.5654203,48.093941],[-88.5742999,48.0940939],[-88.5603543,48.0968507]]],[[[-88.5579148,48.0992115],[-88.5575874,48.099195],[-88.5579557,48.0991731],[-88.5579148,48.0992115]]],[[[-88.5583896,48.0990689],[-88.5581603,48.0993102],[-88.5581112,48.0991347],[-88.5583896,48.0990689]]],[[[-88.5595684,48.0992499],[-88.5593146,48.0993924],[-88.559372,48.0992608],[-88.5595684,48.0992499]]],[[[-88.5618578,48.1000561],[-88.5640626,48.1000833],[-88.561383,48.1007986],[-88.5618578,48.1000561]]],[[[-88.5510131,48.1021666],[-88.557489,48.0993869],[-88.5592163,48.099568],[-88.5607799,48.0986577],[-88.5627037,48.0989319],[-88.5510131,48.1021666]]],[[[-88.5508903,48.1020186],[-88.5506119,48.102205],[-88.5505056,48.1021392],[-88.5508903,48.1020186]]],[[[-88.5505136,48.1026436],[-88.5506856,48.1024847],[-88.5507592,48.1025614],[-88.5505136,48.1026436]]],[[[-88.5454451,48.1053738],[-88.5455598,48.1050393],[-88.5457481,48.1052971],[-88.5454451,48.1053738]]],[[[-88.5439059,48.1054448],[-88.5437504,48.1052913],[-88.5439386,48.1053132],[-88.5439059,48.1054448]]],[[[-88.5448146,48.1055108],[-88.54461,48.1054121],[-88.544831,48.1054669],[-88.5448146,48.1055108]]],[[[-88.5476223,48.1073591],[-88.5332496,48.1137392],[-88.5312089,48.116409],[-88.5246241,48.1160076],[-88.5476223,48.1073591]]],[[[-88.533415,48.1108055],[-88.5327846,48.110597],[-88.5336362,48.1104821],[-88.533415,48.1108055]]],[[[-88.5322353,48.1118417],[-88.5322927,48.1115236],[-88.5323827,48.1116004],[-88.5322353,48.1118417]]],[[[-88.527452,48.1137869],[-88.5275501,48.1140995],[-88.5272553,48.1139185],[-88.527452,48.1137869]]],[[[-88.5271898,48.1140391],[-88.5270424,48.1139733],[-88.5271816,48.1139788],[-88.5271898,48.1140391]]],[[[-88.5341992,48.1141067],[-88.5336668,48.1143534],[-88.5335358,48.1142985],[-88.5341992,48.1141067]]],[[[-88.5259199,48.1150203],[-88.5262312,48.1148833],[-88.5263294,48.1149107],[-88.5259199,48.1150203]]],[[[-88.5248877,48.1154696],[-88.524765,48.1152996],[-88.525199,48.1153216],[-88.5248877,48.1154696]]],[[[-88.524875,48.1162197],[-88.5246996,48.1161536],[-88.5248787,48.1161785],[-88.524875,48.1162197]]],[[[-88.5231023,48.1167264],[-88.5230915,48.116864],[-88.5230203,48.1168305],[-88.5231023,48.1167264]]],[[[-88.5287328,48.1169897],[-88.5284398,48.1168281],[-88.5288556,48.116891],[-88.5287328,48.1169897]]],[[[-88.522443,48.1168702],[-88.522677,48.1170229],[-88.5222138,48.1169806],[-88.522443,48.1168702]]],[[[-88.5267994,48.1168945],[-88.5264519,48.1170284],[-88.5263415,48.1170152],[-88.5267994,48.1168945]]],[[[-88.522132,48.1173175],[-88.5224208,48.1173789],[-88.5221482,48.1174026],[-88.522132,48.1173175]]],[[[-88.5219607,48.1187428],[-88.5260161,48.1188395],[-88.5191151,48.1202057],[-88.5219607,48.1187428]]],[[[-88.5227622,48.1178622],[-88.512994,48.122049],[-88.5121438,48.1212745],[-88.5177527,48.1183953],[-88.5227622,48.1178622]]],[[[-88.5168315,48.1211297],[-88.5163374,48.1221811],[-88.5157906,48.1217981],[-88.5168315,48.1211297]]],[[[-88.5205694,48.1340335],[-88.5205774,48.1342364],[-88.52043,48.1342199],[-88.5205694,48.1340335]]],[[[-88.5175045,48.1352825],[-88.5178324,48.135014],[-88.5180208,48.1350744],[-88.5175045,48.1352825]]],[[[-88.565985,48.1433305],[-88.5658702,48.1435005],[-88.5658047,48.1434018],[-88.565985,48.1433305]]],[[[-88.5655835,48.1435005],[-88.5645429,48.1439775],[-88.5637646,48.144005],[-88.5655835,48.1435005]]],[[[-88.565854,48.1447672],[-88.5655671,48.1445149],[-88.5666241,48.1444107],[-88.565854,48.1447672]]],[[[-88.5525803,48.1454466],[-88.5524983,48.1456933],[-88.5523754,48.1456495],[-88.5525803,48.1454466]]],[[[-88.55235,48.1493343],[-88.5523417,48.1495536],[-88.5521861,48.1494274],[-88.55235,48.1493343]]],[[[-88.5656165,48.1508098],[-88.5655099,48.1505905],[-88.5658541,48.1506344],[-88.5656165,48.1508098]]],[[[-88.5168737,48.1530102],[-88.5175047,48.1529117],[-88.5168407,48.1531254],[-88.5168737,48.1530102]]],[[[-88.5689112,48.1568962],[-88.5681325,48.1571321],[-88.568944,48.156825],[-88.5689112,48.1568962]]],[[[-88.5601095,48.1541236],[-88.552252,48.158022],[-88.546233,48.16013],[-88.5601095,48.1541236]]],[[[-88.5487369,48.157884],[-88.5517883,48.1565575],[-88.5510773,48.1570359],[-88.5487369,48.157884]]],[[[-88.5677966,48.1571979],[-88.5678621,48.1573623],[-88.5676163,48.157313],[-88.5677966,48.1571979]]],[[[-88.5672886,48.1575543],[-88.5655593,48.1583384],[-88.5651413,48.1583385],[-88.5672886,48.1575543]]],[[[-88.5203189,48.1585333],[-88.5209747,48.1584952],[-88.5202451,48.1586869],[-88.5203189,48.1585333]]],[[[-88.5290798,48.1590463],[-88.5286861,48.1594683],[-88.5284075,48.1594135],[-88.5290798,48.1590463]]],[[[-88.5192855,48.1594048],[-88.5166044,48.1605059],[-88.5194907,48.1591197],[-88.5192855,48.1594048]]],[[[-88.5431313,48.1604448],[-88.5441065,48.1598357],[-88.5443943,48.1598312],[-88.5431313,48.1604448]]],[[[-88.5226945,48.1600805],[-88.5211693,48.1609409],[-88.5204643,48.1611434],[-88.5226945,48.1600805]]],[[[-88.5514809,48.1642296],[-88.5615569,48.160081],[-88.5560707,48.1632507],[-88.5514809,48.1642296]]],[[[-88.5157493,48.163483],[-88.51807,48.1622831],[-88.5200949,48.1618342],[-88.5157493,48.163483]]],[[[-88.5674513,48.1642418],[-88.5668103,48.1646717],[-88.5666841,48.1645718],[-88.5674513,48.1642418]]],[[[-88.5506115,48.1649734],[-88.5507263,48.1646061],[-88.5515542,48.1643594],[-88.5506115,48.1649734]]],[[[-88.5469771,48.1661531],[-88.545622,48.1654217],[-88.54704,48.1655894],[-88.5469771,48.1661531]]],[[[-88.5654201,48.1672819],[-88.5651087,48.1676109],[-88.5649776,48.1675286],[-88.5654201,48.1672819]]],[[[-88.5194666,48.1679699],[-88.5209592,48.1672357],[-88.5194092,48.1680632],[-88.5194666,48.1679699]]],[[[-88.5626414,48.1681647],[-88.5630184,48.1679672],[-88.5631168,48.1680221],[-88.5626414,48.1681647]]],[[[-88.5403333,48.1692975],[-88.5411456,48.1690869],[-88.5399659,48.1696118],[-88.5403333,48.1692975]]],[[[-88.5500997,48.1717278],[-88.5501899,48.1716017],[-88.5503784,48.171695],[-88.5500997,48.1717278]]],[[[-88.5497403,48.1718236],[-88.549555,48.1720749],[-88.5494178,48.1720665],[-88.5497403,48.1718236]]],[[[-88.5543615,48.1718821],[-88.5540909,48.1721178],[-88.5539925,48.1720411],[-88.5543615,48.1718821]]],[[[-88.5522237,48.1730945],[-88.5464904,48.1750506],[-88.552484,48.1724467],[-88.5522237,48.1730945]]],[[[-88.5450555,48.1757248],[-88.5451785,48.1759277],[-88.5448669,48.1757961],[-88.5450555,48.1757248]]],[[[-88.5427151,48.1768938],[-88.542103,48.1778093],[-88.5409415,48.1778925],[-88.5427151,48.1768938]]],[[[-88.5117341,48.1216047],[-88.5114463,48.121412],[-88.5117242,48.1214066],[-88.5117341,48.1216047]]],[[[-88.5123058,48.1215595],[-88.5121009,48.1216526],[-88.512101,48.1216197],[-88.5123058,48.1215595]]],[[[-88.5112577,48.1219221],[-88.5110693,48.1219427],[-88.5111859,48.1218356],[-88.5112577,48.1219221]]],[[[-88.5116901,48.122075],[-88.5117803,48.1219654],[-88.5118539,48.1220477],[-88.5116901,48.122075]]],[[[-88.5124576,48.1220744],[-88.5119523,48.1224662],[-88.5112643,48.1223282],[-88.5124576,48.1220744]]],[[[-88.5103218,48.1226494],[-88.5113407,48.1226654],[-88.5104079,48.1229112],[-88.5103218,48.1226494]]],[[[-88.5089767,48.1233871],[-88.5104122,48.1231731],[-88.5082107,48.1240355],[-88.5089767,48.1233871]]],[[[-88.5119398,48.1237966],[-88.5116499,48.123653],[-88.5120113,48.1237519],[-88.5119398,48.1237966]]],[[[-88.5138832,48.123795],[-88.5101491,48.1253936],[-88.5153854,48.1227881],[-88.5138832,48.123795]]],[[[-88.5090821,48.1261543],[-88.508961,48.1262432],[-88.5089418,48.1261268],[-88.5090821,48.1261543]]],[[[-88.5035441,48.1260202],[-88.5024573,48.1273299],[-88.5006591,48.1277191],[-88.5035441,48.1260202]]],[[[-88.5055667,48.1270346],[-88.5056601,48.1269024],[-88.5057132,48.1269328],[-88.5055667,48.1270346]]],[[[-88.5058065,48.1273176],[-88.5059466,48.1272003],[-88.506012,48.1273044],[-88.5058065,48.1273176]]],[[[-88.4996352,48.1284295],[-88.4998743,48.1282222],[-88.4999546,48.1283471],[-88.4996352,48.1284295]]],[[[-88.4984509,48.1289851],[-88.4994133,48.1285472],[-88.4994479,48.1286842],[-88.4984509,48.1289851]]],[[[-88.5035101,48.1285317],[-88.5032451,48.1294214],[-88.5015729,48.1292557],[-88.5035101,48.1285317]]],[[[-88.4978105,48.1291793],[-88.497549,48.1297917],[-88.4971927,48.1296018],[-88.4978105,48.1291793]]],[[[-88.4966738,48.129901],[-88.4972587,48.1298595],[-88.4967376,48.1301345],[-88.4966738,48.129901]]],[[[-88.4952769,48.1306574],[-88.4952799,48.1304545],[-88.4954058,48.1305202],[-88.4952769,48.1306574]]],[[[-88.4941307,48.1311302],[-88.4944587,48.1314262],[-88.4936643,48.1315307],[-88.4941307,48.1311302]]],[[[-88.49488,48.1338971],[-88.4982556,48.1309093],[-88.5008948,48.1305236],[-88.49488,48.1338971]]],[[[-88.4913639,48.1329795],[-88.4910934,48.1328151],[-88.4914702,48.1328369],[-88.4913639,48.1329795]]],[[[-88.4900208,48.1332214],[-88.4903486,48.1334297],[-88.489898,48.133375],[-88.4900208,48.1332214]]],[[[-88.4897998,48.1335615],[-88.4894968,48.1335287],[-88.4895212,48.13343],[-88.4897998,48.1335615]]],[[[-88.4911219,48.1340958],[-88.4914993,48.1340888],[-88.4911274,48.1341532],[-88.4911219,48.1340958]]],[[[-88.5077603,48.1344698],[-88.5080387,48.1346948],[-88.5076291,48.1346069],[-88.5077603,48.1344698]]],[[[-88.4903834,48.1345075],[-88.4895554,48.1348132],[-88.4903788,48.1344718],[-88.4903834,48.1345075]]],[[[-88.5146422,48.1354029],[-88.5145448,48.1356393],[-88.5144126,48.1355899],[-88.5146422,48.1354029]]],[[[-88.4860501,48.1357894],[-88.4862872,48.1352959],[-88.4864019,48.1353341],[-88.4860501,48.1357894]]],[[[-88.5148839,48.1361632],[-88.5157346,48.1355965],[-88.5158739,48.1356383],[-88.5148839,48.1361632]]],[[[-88.4828255,48.1382937],[-88.4901674,48.134662],[-88.4947428,48.1338878],[-88.4859368,48.1381819],[-88.4828255,48.1382937]]],[[[-88.5140556,48.136428],[-88.5138671,48.1366369],[-88.5136051,48.136608],[-88.5140556,48.136428]]],[[[-88.5130356,48.1366717],[-88.5132813,48.1367814],[-88.5130028,48.1367046],[-88.5130356,48.1366717]]],[[[-88.4993382,48.1376187],[-88.4991557,48.1375462],[-88.4995212,48.1374329],[-88.4993382,48.1376187]]],[[[-88.4983408,48.1380358],[-88.498497,48.1379753],[-88.4985052,48.1380077],[-88.4983408,48.1380358]]],[[[-88.5108402,48.1392442],[-88.5085047,48.1388475],[-88.5148128,48.1368742],[-88.5108402,48.1392442]]],[[[-88.5106106,48.1411258],[-88.5103305,48.1409274],[-88.5111646,48.1407817],[-88.5106106,48.1411258]]],[[[-88.4919387,48.141094],[-88.4914488,48.1415275],[-88.4906952,48.1416299],[-88.4919387,48.141094]]],[[[-88.5032912,48.1421851],[-88.5036278,48.141637],[-88.5046438,48.1415826],[-88.5032912,48.1421851]]],[[[-88.4760314,48.1420943],[-88.4671639,48.1445311],[-88.4792723,48.139863],[-88.4760314,48.1420943]]],[[[-88.492312,48.1462467],[-88.4927567,48.1465551],[-88.492298,48.1463989],[-88.492312,48.1462467]]],[[[-88.4888469,48.1477586],[-88.4884206,48.1475724],[-88.4889861,48.1476488],[-88.4888469,48.1477586]]],[[[-88.4860195,48.1489468],[-88.4855376,48.1490232],[-88.4861201,48.1488688],[-88.4860195,48.1489468]]],[[[-88.4836989,48.1499617],[-88.4829586,48.1499313],[-88.4840319,48.1495856],[-88.4836989,48.1499617]]],[[[-88.5139479,48.153157],[-88.5150135,48.1530149],[-88.5138084,48.153316],[-88.5139479,48.153157]]],[[[-88.5158162,48.1533717],[-88.51598,48.1535198],[-88.5157586,48.1535361],[-88.5158162,48.1533717]]],[[[-88.51371,48.1534311],[-88.5134231,48.1534968],[-88.5134149,48.1534419],[-88.51371,48.1534311]]],[[[-88.4804264,48.1540066],[-88.479529,48.1546498],[-88.4793225,48.154583],[-88.4804264,48.1540066]]],[[[-88.5119783,48.1559856],[-88.5127242,48.1558872],[-88.5118879,48.1561555],[-88.5119783,48.1559856]]],[[[-88.4752674,48.1564498],[-88.4757592,48.1565593],[-88.4749428,48.1567579],[-88.4752674,48.1564498]]],[[[-88.5014507,48.1598627],[-88.5104877,48.1549979],[-88.515611,48.1536787],[-88.5138067,48.1551256],[-88.5014507,48.1598627]]],[[[-88.4742437,48.1571707],[-88.4714281,48.1585032],[-88.4711086,48.1584957],[-88.4742437,48.1571707]]],[[[-88.5006801,48.1600213],[-88.5007782,48.1601584],[-88.500598,48.1601364],[-88.5006801,48.1600213]]],[[[-88.5030986,48.166345],[-88.504952,48.1656002],[-88.5026552,48.1669973],[-88.5030986,48.166345]]],[[[-88.4722027,48.1739265],[-88.4722296,48.1735728],[-88.4734596,48.1733138],[-88.4722027,48.1739265]]],[[[-88.4979814,48.1750451],[-88.4980549,48.1748037],[-88.4983009,48.1747927],[-88.4979814,48.1750451]]],[[[-88.4972602,48.1752374],[-88.4974979,48.1751824],[-88.4975472,48.1752592],[-88.4972602,48.1752374]]],[[[-88.4891721,48.1789098],[-88.4896476,48.1788658],[-88.4891558,48.1789866],[-88.4891721,48.1789098]]],[[[-88.4889838,48.1791677],[-88.4887705,48.1791513],[-88.4889755,48.1791073],[-88.4889838,48.1791677]]],[[[-88.4882952,48.1793159],[-88.4878201,48.1796891],[-88.487574,48.1796563],[-88.4882952,48.1793159]]],[[[-88.4830159,48.1802943],[-88.4830158,48.1801299],[-88.4832207,48.1801517],[-88.4830159,48.1802943]]],[[[-88.4824995,48.1804865],[-88.4826716,48.1802999],[-88.4827455,48.1803712],[-88.4824995,48.1804865]]],[[[-88.4782282,48.181031],[-88.4782281,48.180861],[-88.4784331,48.1809596],[-88.4782282,48.181031]]],[[[-88.4766708,48.181536],[-88.4774657,48.1811574],[-88.4783185,48.1811626],[-88.4766708,48.181536]]],[[[-88.4813118,48.1818798],[-88.4811968,48.1815618],[-88.4814674,48.1815781],[-88.4813118,48.1818798]]],[[[-88.4756062,48.1836201],[-88.4757374,48.1834556],[-88.4758768,48.1835213],[-88.4756062,48.1836201]]],[[[-88.4968686,48.1986079],[-88.4971801,48.1984815],[-88.4972951,48.1986021],[-88.4968686,48.1986079]]],[[[-88.4671273,48.1451734],[-88.4617298,48.14731],[-88.4671683,48.14482],[-88.4671273,48.1451734]]],[[[-88.4645349,48.1471709],[-88.4647047,48.1469166],[-88.4648069,48.1469475],[-88.4645349,48.1471709]]],[[[-88.4606087,48.1478648],[-88.4606963,48.1483515],[-88.4598158,48.1483714],[-88.4606087,48.1478648]]],[[[-88.4620357,48.1482173],[-88.4615776,48.1485222],[-88.4614025,48.1484744],[-88.4620357,48.1482173]]],[[[-88.4596444,48.1485029],[-88.4596034,48.1483768],[-88.4596854,48.1484261],[-88.4596444,48.1485029]]],[[[-88.4605698,48.1490701],[-88.4602642,48.1491036],[-88.4606136,48.1490049],[-88.4605698,48.1490701]]],[[[-88.460185,48.1492685],[-88.4596906,48.149226],[-88.4602699,48.1491917],[-88.460185,48.1492685]]],[[[-88.4540757,48.1510749],[-88.4542108,48.1517503],[-88.4534028,48.1519083],[-88.4540757,48.1510749]]],[[[-88.4532395,48.1520783],[-88.4531657,48.1519522],[-88.4533379,48.1519686],[-88.4532395,48.1520783]]],[[[-88.4521983,48.1526884],[-88.4511904,48.1527872],[-88.4529439,48.1521125],[-88.4521983,48.1526884]]],[[[-88.4466858,48.155188],[-88.4465614,48.155648],[-88.4461285,48.1556213],[-88.4466858,48.155188]]],[[[-88.4721276,48.1549429],[-88.4723738,48.1555295],[-88.4702434,48.156073],[-88.4721276,48.1549429]]],[[[-88.4611304,48.156662],[-88.4613518,48.1567224],[-88.4611141,48.1567278],[-88.4611304,48.156662]]],[[[-88.4609829,48.1566566],[-88.4608437,48.1567827],[-88.4607453,48.1567663],[-88.4609829,48.1566566]]],[[[-88.4589594,48.1587736],[-88.4587954,48.1585325],[-88.4590003,48.1585214],[-88.4589594,48.1587736]]],[[[-88.4695429,48.159185],[-88.4698968,48.1592582],[-88.4689792,48.1595179],[-88.4695429,48.159185]]],[[[-88.4692559,48.1602443],[-88.4689407,48.16052],[-88.4687721,48.160496],[-88.4692559,48.1602443]]],[[[-88.4608827,48.1604856],[-88.4606622,48.1611317],[-88.4598433,48.161182],[-88.4608827,48.1604856]]],[[[-88.4363809,48.161405],[-88.436717,48.1613227],[-88.4363809,48.1615092],[-88.4363809,48.161405]]],[[[-88.4596465,48.1617143],[-88.4598889,48.1612992],[-88.4601336,48.1615312],[-88.4596465,48.1617143]]],[[[-88.4525019,48.1614617],[-88.4527479,48.161648],[-88.4524118,48.161533],[-88.4525019,48.1614617]]],[[[-88.4532069,48.1616864],[-88.4531495,48.1615493],[-88.4532888,48.1616096],[-88.4532069,48.1616864]]],[[[-88.4673673,48.161572],[-88.4654374,48.1623494],[-88.4673173,48.1613974],[-88.4673673,48.161572]]],[[[-88.4361611,48.1631542],[-88.4363846,48.1628282],[-88.4365104,48.1628471],[-88.4361611,48.1631542]]],[[[-88.4359742,48.163276],[-88.4357813,48.163223],[-88.436007,48.1632212],[-88.4359742,48.163276]]],[[[-88.4629434,48.1636397],[-88.4623204,48.1638006],[-88.4631879,48.1633566],[-88.4629434,48.1636397]]],[[[-88.4541367,48.1649821],[-88.4587152,48.1624838],[-88.4591251,48.1627368],[-88.4541367,48.1649821]]],[[[-88.4319385,48.1644135],[-88.430247,48.164862],[-88.4331064,48.1635907],[-88.4319385,48.1644135]]],[[[-88.4601379,48.1655066],[-88.4615593,48.1641829],[-88.4623662,48.1642645],[-88.4601379,48.1655066]]],[[[-88.4591518,48.1646439],[-88.4583128,48.165189],[-88.4579677,48.1652581],[-88.4591518,48.1646439]]],[[[-88.4294719,48.1654807],[-88.4293295,48.1653912],[-88.429535,48.1653843],[-88.4294719,48.1654807]]],[[[-88.4293013,48.1655855],[-88.4293996,48.1657172],[-88.4292274,48.1656623],[-88.4293013,48.1655855]]],[[[-88.4591601,48.1656651],[-88.4592767,48.1658415],[-88.4590551,48.1657282],[-88.4591601,48.1656651]]],[[[-88.4292856,48.165864],[-88.4292693,48.1657544],[-88.4294249,48.1658422],[-88.4292856,48.165864]]],[[[-88.4505689,48.1668633],[-88.4528225,48.1656848],[-88.4536687,48.165663],[-88.4505689,48.1668633]]],[[[-88.4276833,48.1663478],[-88.4277057,48.1665798],[-88.4273778,48.1664482],[-88.4276833,48.1663478]]],[[[-88.4583623,48.166158],[-88.4578333,48.167252],[-88.456023,48.1674819],[-88.4583623,48.166158]]],[[[-88.4549888,48.1680778],[-88.455585,48.1675914],[-88.4557036,48.1676348],[-88.4549888,48.1680778]]],[[[-88.4253142,48.1692757],[-88.425911,48.168823],[-88.4262417,48.1689188],[-88.4253142,48.1692757]]],[[[-88.4267159,48.1757616],[-88.4396123,48.1701374],[-88.4333786,48.1743486],[-88.4267159,48.1757616]]],[[[-88.4434181,48.1730952],[-88.4421978,48.1734288],[-88.444008,48.1726083],[-88.4434181,48.1730952]]],[[[-88.4379434,48.173565],[-88.437796,48.1732739],[-88.4382327,48.1733233],[-88.4379434,48.173565]]],[[[-88.4475564,48.1735655],[-88.4475121,48.1737452],[-88.4474301,48.173685],[-88.4475564,48.1735655]]],[[[-88.4707954,48.1741408],[-88.4714103,48.1741241],[-88.4707054,48.1743054],[-88.4707954,48.1741408]]],[[[-88.438503,48.1753219],[-88.4388636,48.1753713],[-88.4385029,48.1753768],[-88.438503,48.1753219]]],[[[-88.4283199,48.1758496],[-88.4291072,48.1759994],[-88.4283366,48.1761254],[-88.4283199,48.1758496]]],[[[-88.4404233,48.1761176],[-88.4404024,48.1762985],[-88.4401162,48.1762566],[-88.4404233,48.1761176]]],[[[-88.4470165,48.1740274],[-88.4429048,48.1755936],[-88.4408803,48.1754334],[-88.4373714,48.1780881],[-88.4322169,48.179702],[-88.4450946,48.1729631],[-88.4470165,48.1740274]]],[[[-88.427068,48.1766141],[-88.4282843,48.1763523],[-88.4269497,48.1768944],[-88.427068,48.1766141]]],[[[-88.4258999,48.1772225],[-88.4269686,48.1771911],[-88.4258504,48.1774319],[-88.4258999,48.1772225]]],[[[-88.4317577,48.1798696],[-88.4277649,48.181035],[-88.4384066,48.1756651],[-88.4317577,48.1798696]]],[[[-88.4357549,48.1793751],[-88.4356811,48.179578],[-88.435591,48.1795012],[-88.4357549,48.1793751]]],[[[-88.4349599,48.1799489],[-88.4351157,48.1796802],[-88.435214,48.1797515],[-88.4349599,48.1799489]]],[[[-88.4689549,48.1810011],[-88.4687664,48.181204],[-88.4686762,48.1811547],[-88.4689549,48.1810011]]],[[[-88.4281466,48.1813883],[-88.4278103,48.1814103],[-88.4279579,48.1812951],[-88.4281466,48.1813883]]],[[[-88.4332542,48.1806647],[-88.4304523,48.1830509],[-88.4296207,48.1828327],[-88.4332542,48.1806647]]],[[[-88.4721202,48.1816198],[-88.4724809,48.1815703],[-88.4719972,48.1817075],[-88.4721202,48.1816198]]],[[[-88.4678975,48.1815882],[-88.4680534,48.1818787],[-88.4676517,48.1818679],[-88.4678975,48.1815882]]],[[[-88.4284091,48.1816674],[-88.4284994,48.1818825],[-88.4282843,48.1818934],[-88.4284091,48.1816674]]],[[[-88.4672909,48.1819776],[-88.4673402,48.1822464],[-88.466791,48.1823178],[-88.4672909,48.1819776]]],[[[-88.4272913,48.1813791],[-88.4254139,48.182703],[-88.423768,48.1832426],[-88.4272913,48.1813791]]],[[[-88.4281697,48.1819117],[-88.4260578,48.1835571],[-88.4251054,48.1836187],[-88.4281697,48.1819117]]],[[[-88.4264479,48.1845248],[-88.4293765,48.1834405],[-88.4264183,48.184938],[-88.4264479,48.1845248]]],[[[-88.426145,48.1848041],[-88.4261614,48.1846287],[-88.4263008,48.1847713],[-88.426145,48.1848041]]],[[[-88.4259499,48.1847934],[-88.42604,48.1849305],[-88.4258761,48.1848646],[-88.4259499,48.1847934]]],[[[-88.4259539,48.1852421],[-88.4258719,48.1850886],[-88.4260359,48.1851654],[-88.4259539,48.1852421]]],[[[-88.4397983,48.1861823],[-88.43929,48.1866539],[-88.4391095,48.1866045],[-88.4397983,48.1861823]]],[[[-88.2692756,47.0695629],[-88.2740177,47.0716141],[-88.2788456,47.0703835],[-88.2700696,47.0769517],[-88.2692756,47.0695629]]],[[[-87.6238278,47.4265123],[-87.5855113,47.4196285],[-87.6066983,47.4150435],[-87.6009898,47.4079972],[-87.6523364,47.4164495],[-87.6238278,47.4265123]]],[[[-87.6644879,47.4169872],[-87.6639283,47.4174691],[-87.6634216,47.4171552],[-87.6639833,47.4168605],[-87.6644879,47.4169872]]],[[[-88.1770362,47.4588361],[-88.1777614,47.4584837],[-88.1779874,47.4585389],[-88.1770362,47.4588361]]],[[[-88.1162689,47.4677701],[-88.1146207,47.4679293],[-88.1156567,47.4674879],[-88.1162689,47.4677701]]],[[[-88.1008517,47.4690209],[-88.099822,47.4684224],[-88.1012598,47.4685264],[-88.1008517,47.4690209]]],[[[-88.0804949,47.4704011],[-88.0853918,47.4691256],[-88.0863109,47.4691796],[-88.0804949,47.4704011]]],[[[-87.8890882,47.474422],[-87.8786962,47.475059],[-87.8856121,47.4735592],[-87.8890882,47.474422]]],[[[-88.0338011,47.476392],[-88.0337352,47.4765087],[-88.0332141,47.4765108],[-88.0338011,47.476392]]],[[[-88.0316193,47.4767272],[-88.0308658,47.4765638],[-88.0319583,47.4765617],[-88.0316193,47.4767272]]],[[[-88.030486,47.4765617],[-88.031117,47.4767569],[-88.0290639,47.4769479],[-88.030486,47.4765617]]],[[[-87.9821105,47.4793504],[-87.9815203,47.4793016],[-87.9821607,47.4793059],[-87.9821105,47.4793504]]],[[[-87.9812974,47.4793865],[-87.9811373,47.4793568],[-87.9813037,47.479342],[-87.9812974,47.4793865]]],[[[-87.9538315,47.4795338],[-87.9517689,47.4796484],[-87.9516999,47.4795593],[-87.9519542,47.4793493],[-87.9538315,47.4795338]]],[[[-87.952108,47.479746],[-87.9521174,47.4797927],[-87.9520546,47.4797778],[-87.952108,47.479746]]],[[[-87.9796461,47.4798766],[-87.97953,47.4797981],[-87.9796901,47.4798384],[-87.9796461,47.4798766]]],[[[-87.9784061,47.4798215],[-87.9793918,47.4798193],[-87.979486,47.479883],[-87.9784061,47.4798215]]],[[[-87.9660198,47.47996],[-87.9660826,47.4798688],[-87.9661297,47.4799112],[-87.9660198,47.47996]]],[[[-87.9697259,47.4799688],[-87.9695752,47.4799306],[-87.9698044,47.4799094],[-87.9697259,47.4799688]]],[[[-87.9684796,47.479867],[-87.9685989,47.4800303],[-87.9682284,47.4799794],[-87.9684796,47.479867]]],[[[-87.9651628,47.4799197],[-87.9653354,47.4799961],[-87.9650027,47.4799515],[-87.9651628,47.4799197]]],[[[-87.9691137,47.4799433],[-87.969412,47.4799709],[-87.9690949,47.4799858],[-87.9691137,47.4799433]]],[[[-87.9663055,47.4799939],[-87.9662396,47.4799494],[-87.9663275,47.4799727],[-87.9663055,47.4799939]]],[[[-87.9706534,47.4800067],[-87.9708292,47.4799494],[-87.9709297,47.4800024],[-87.9706534,47.4800067]]],[[[-87.9680495,47.4800473],[-87.9674593,47.4800325],[-87.9681813,47.480007],[-87.9680495,47.4800473]]],[[[-87.979756,47.4800145],[-87.9800574,47.4799912],[-87.9800825,47.4800336],[-87.979756,47.4800145]]],[[[-87.9783339,47.480093],[-87.9787608,47.480057],[-87.9794735,47.4800315],[-87.9783339,47.480093]]],[[[-87.9666288,47.4801828],[-87.9647641,47.4801509],[-87.9668643,47.4799833],[-87.9666288,47.4801828]]],[[[-87.9780859,47.4801164],[-87.977932,47.4800782],[-87.9781267,47.480093],[-87.9780859,47.4801164]]],[[[-87.9645569,47.4801128],[-87.9645851,47.4801552],[-87.9644784,47.4801594],[-87.9645569,47.4801128]]],[[[-87.9785191,47.4801376],[-87.9785882,47.4801885],[-87.9783998,47.4801588],[-87.9785191,47.4801376]]],[[[-87.9695264,47.4801552],[-87.9702453,47.4801785],[-87.9692941,47.4802379],[-87.9695264,47.4801552]]],[[[-87.967872,47.4802613],[-87.9679034,47.4801191],[-87.9683178,47.4801573],[-87.967872,47.4802613]]],[[[-87.9780419,47.4802373],[-87.9781612,47.4801843],[-87.9781895,47.4802161],[-87.9780419,47.4802373]]],[[[-88.4221119,48.1700887],[-88.4192133,48.1713648],[-88.4273143,48.1669734],[-88.4221119,48.1700887]]],[[[-88.4212972,48.1713883],[-88.4216237,48.1710757],[-88.4217579,48.1711135],[-88.4212972,48.1713883]]],[[[-88.4240917,48.1773225],[-88.4244343,48.1774414],[-88.423803,48.177562],[-88.4240917,48.1773225]]],[[[-88.4253637,48.177765],[-88.4248165,48.1777987],[-88.425786,48.1773277],[-88.4253637,48.177765]]],[[[-88.4217847,48.1796726],[-88.4181697,48.1802241],[-88.4239342,48.1785383],[-88.4217847,48.1796726]]],[[[-88.4257859,48.1849366],[-88.4256382,48.1850956],[-88.4254988,48.1850409],[-88.4257859,48.1849366]]],[[[-88.4254261,48.1851466],[-88.4257212,48.1853989],[-88.4250324,48.1853001],[-88.4254261,48.1851466]]],[[[-88.4249794,48.185582],[-88.4247662,48.1854722],[-88.4252335,48.1855656],[-88.4249794,48.185582]]],[[[-88.4209777,48.189987],[-88.4207317,48.1899376],[-88.4209614,48.1898773],[-88.4209777,48.189987]]],[[[-88.3660765,48.2258102],[-88.3662244,48.2258924],[-88.3660193,48.2259583],[-88.3660765,48.2258102]]],[[[-88.3580447,48.2326482],[-88.3466935,48.2370609],[-88.3379932,48.2383692],[-88.3529438,48.2335257],[-88.3672164,48.2226674],[-88.3580447,48.2326482]]],[[[-88.355084,48.2308928],[-88.3548458,48.2308436],[-88.3551413,48.2307831],[-88.355084,48.2308928]]],[[[-88.3463855,48.2330345],[-88.3475182,48.2329574],[-88.3465335,48.2334621],[-88.3463855,48.2330345]]],[[[-88.343308,48.2338141],[-88.343021,48.2340445],[-88.3429306,48.2339677],[-88.343308,48.2338141]]],[[[-88.3428239,48.234072],[-88.3430702,48.2341706],[-88.3427255,48.2341159],[-88.3428239,48.234072]]],[[[-88.3539053,48.2349621],[-88.3537739,48.2348469],[-88.3539463,48.2348853],[-88.3539053,48.2349621]]],[[[-88.3534785,48.2349348],[-88.3531913,48.2350994],[-88.3531257,48.2350885],[-88.3534785,48.2349348]]],[[[-88.353019,48.2352311],[-88.3529289,48.2353736],[-88.3528386,48.2353188],[-88.353019,48.2352311]]],[[[-88.3391859,48.2361012],[-88.3393827,48.235964],[-88.3394731,48.2360517],[-88.3391859,48.2361012]]],[[[-88.3494337,48.2361103],[-88.349278,48.2363186],[-88.3491137,48.2362749],[-88.3494337,48.2361103]]],[[[-88.3371948,48.2372276],[-88.335819,48.2374465],[-88.3379055,48.2363982],[-88.3371948,48.2372276]]],[[[-88.3344062,48.2370639],[-88.3346606,48.2368446],[-88.3347509,48.2369322],[-88.3344062,48.2370639]]],[[[-88.3354777,48.237579],[-88.3352657,48.2380762],[-88.3341332,48.238321],[-88.3354777,48.237579]]],[[[-88.2707865,48.261507],[-88.2698242,48.2617534],[-88.2693825,48.261625],[-88.2707865,48.261507]]],[[[-88.2684899,48.2620039],[-88.2661166,48.2618659],[-88.2687121,48.2616202],[-88.2684899,48.2620039]]],[[[-88.2660181,48.2618604],[-88.2658046,48.2618219],[-88.2659854,48.2617507],[-88.2660181,48.2618604]]],[[[-88.2654873,48.2619203],[-88.2641371,48.26226],[-88.263431,48.2620732],[-88.2654873,48.2619203]]],[[[-88.2630501,48.2622135],[-88.260688,48.2626427],[-88.2604392,48.2624657],[-88.2630501,48.2622135]]]]}}]}