{"type": "FeatureCollection", "features": [{"type": "Feature", "properties": {"slug": "huangshan", "members": 7, "country": "China", "input_hash": "7c59676a411df9c2"}, "geometry": {"type": "Polygon", "coordinates": [[[118.2527482, 30.2564909], [118.2654619, 30.234117], [118.2880997, 30.2313918], [118.2894623, 30.1957248], [118.3084202, 30.1979595], [118.3206725, 30.1749973], [118.3420336, 30.1638063], [118.3293843, 30.1560559], [118.3541036, 30.1207885], [118.3508527, 30.1083802], [118.3734262, 30.0959703], [118.3868155, 30.10969], [118.410666, 30.0967431], [118.4326443, 30.1068807], [118.4441377, 30.0959879], [118.4573579, 30.1001844], [118.4721315, 30.0790377], [118.4918618, 30.0821849], [118.4942007, 30.0693911], [118.4851992, 30.0638385], [118.5052943, 30.0505966], [118.5132229, 30.0319425], [118.4946406, 30.0221427], [118.497017, 29.9990652], [118.5126221, 29.9685285], [118.5284257, 29.9702526], [118.5393047, 29.9556782], [118.5643941, 29.9652616], [118.5660624, 29.9768699], [118.6094991, 29.9842632], [118.6097181, 30.0060057], [118.6401236, 30.0317985], [118.6532235, 30.0238751], [118.6914825, 30.0333776], [118.691504, 30.055147], [118.7007737, 30.0658256], [118.7313911, 30.0638548], [118.738035, 30.0930068], [118.7637466, 30.072209], [118.7673783, 30.0811637], [118.7907886, 30.0822778], [118.825314, 30.1078604], [118.8522756, 30.1138188], [118.861721, 30.1008771], [118.8790682, 30.1016023], [118.8861385, 30.0391849], [118.8991016, 30.0288772], [118.8851756, 30.0125649], [118.8944024, 29.9850805], [118.8862512, 29.9651151], [118.8874877, 29.9379824], [118.8676822, 29.9504121], [118.8590536, 29.9399232], [118.8467691, 29.943642], [118.8357935, 29.934131], [118.8382396, 29.8953617], [118.7793705, 29.8460205], [118.7603402, 29.8519412], [118.7477875, 29.8468743], [118.7570036, 29.822616], [118.7327886, 29.8153182], [118.7320912, 29.7900605], [118.7257934, 29.7889525], [118.7425035, 29.7768147], [118.743614, 29.7520084], [118.7195975, 29.7268513], [118.7148821, 29.7112581], [118.6885858, 29.703738], [118.6687749, 29.6711952], [118.6375594, 29.6436214], [118.6158281, 29.6569314], [118.5693937, 29.6412762], [118.531242, 29.5936989], [118.4944474, 29.578785], [118.490632, 29.5227426], [118.4736912, 29.511581], [118.4587406, 29.5166647], [118.4543471, 29.5089013], [118.4356534, 29.5179399], [118.4247832, 29.5036182], [118.4101591, 29.512611], [118.3781013, 29.5126675], [118.356885, 29.4813193], [118.3413309, 29.4785103], [118.3258927, 29.4985094], [118.3060753, 29.5003523], [118.3006466, 29.4807767], [118.3118373, 29.4518975], [118.3099995, 29.4259566], [118.3030853, 29.4228077], [118.2435188, 29.4341992], [118.2145187, 29.4245278], [118.1953141, 29.3952274], [118.1846492, 29.4087201], [118.1347913, 29.4187885], [118.1273563, 29.4299254], [118.1345554, 29.4418061], [118.1322041, 29.4597175], [118.121316, 29.4773744], [118.1383146, 29.4930366], [118.1311906, 29.5082359], [118.1036273, 29.52589], [118.0964242, 29.5397773], [118.051823, 29.541496], [118.0349045, 29.5670078], [118.0187077, 29.5766301], [117.9954734, 29.577628], [117.9793006, 29.5602858], [117.9713401, 29.5699587], [117.9540787, 29.5715352], [117.9405816, 29.552147], [117.9287022, 29.561032], [117.8769149, 29.5461094], [117.8743611, 29.5544423], [117.8377346, 29.5573569], [117.8067555, 29.5786589], [117.7812548, 29.5611866], [117.7505069, 29.563222], [117.7249781, 29.5494722], [117.7106497, 29.5629333], [117.7044999, 29.5508719], [117.6841806, 29.5571876], [117.6750616, 29.5707744], [117.6775051, 29.594701], [117.662724, 29.5973393], [117.6584829, 29.6126006], [117.6429515, 29.6171278], [117.5933006, 29.5858117], [117.5770825, 29.5952498], [117.5412702, 29.5970724], [117.537189, 29.5910771], [117.5203088, 29.6076452], [117.522303, 29.6620217], [117.504379, 29.674524], [117.4887699, 29.6636895], [117.4685818, 29.6675902], [117.4693131, 29.6827936], [117.4642116, 29.6875152], [117.4528974, 29.6803098], [117.4451552, 29.6947273], [117.4522577, 29.7190712], [117.4467122, 29.7279366], [117.454673, 29.7351569], [117.4389466, 29.7487719], [117.4417448, 29.7632318], [117.4247074, 29.7659141], [117.4029815, 29.8017359], [117.4123853, 29.8104217], [117.4231249, 29.8478002], [117.4126267, 29.8533323], [117.3879885, 29.8481465], [117.3782104, 29.8209414], [117.3598707, 29.8138938], [117.3424333, 29.8251838], [117.3338717, 29.857687], [117.3117837, 29.839804], [117.2849965, 29.8382289], [117.2851199, 29.8232907], [117.2721112, 29.8268324], [117.2469521, 29.8384755], [117.2381241, 29.8508942], [117.2611919, 29.885102], [117.2518873, 29.9098869], [117.2015177, 29.9331655], [117.1982539, 29.9719813], [117.2069549, 29.9837655], [117.2439051, 29.9830314], [117.2670954, 29.999028], [117.2794336, 29.9942521], [117.3202085, 30.0011418], [117.3503834, 30.0155006], [117.380982, 30.0093179], [117.378729, 30.0201222], [117.3907399, 30.0350123], [117.4287629, 30.023132], [117.4475706, 30.0284778], [117.4580526, 30.0461946], [117.4851267, 30.0342441], [117.5060856, 30.0389318], [117.5341093, 30.0583043], [117.5306868, 30.0791119], [117.538771, 30.0894909], [117.5301102, 30.086388], [117.5228709, 30.0961374], [117.5333004, 30.1131294], [117.5494676, 30.1038471], [117.5457071, 30.0944062], [117.5547241, 30.0860616], [117.5660272, 30.1040769], [117.5552363, 30.1075693], [117.5945682, 30.1324525], [117.6057888, 30.1337663], [117.6099178, 30.1147598], [117.6260046, 30.1019577], [117.6457493, 30.1187217], [117.6712104, 30.1095135], [117.6679905, 30.1247264], [117.6784505, 30.1260534], [117.6774017, 30.1357412], [117.6932299, 30.1459049], [117.7545762, 30.1618073], [117.7773213, 30.1565568], [117.8135955, 30.1870541], [117.8224468, 30.1821388], [117.849462, 30.196105], [117.8551376, 30.218812], [117.8193998, 30.2265714], [117.8199363, 30.2466763], [117.8559744, 30.2706319], [117.8903174, 30.2737081], [117.8814232, 30.2967956], [117.9066245, 30.3007608], [117.901772, 30.311944], [117.9284692, 30.3279254], [117.9206744, 30.334113], [117.9355238, 30.337655], [117.9139423, 30.3665066], [117.9499912, 30.394329], [117.9524159, 30.403879], [117.9346919, 30.4246229], [117.9459357, 30.4502275], [117.9290807, 30.4560172], [117.9425239, 30.4859407], [117.953875, 30.4908592], [117.962295, 30.5171408], [117.9835295, 30.4996417], [118.0114674, 30.5025444], [118.0238485, 30.4959809], [118.059833, 30.5189789], [118.1213093, 30.5122409], [118.1254613, 30.5022301], [118.1143999, 30.4951119], [118.1125009, 30.4751227], [118.0943477, 30.472062], [118.1081343, 30.4498668], [118.1031024, 30.431848], [118.1145428, 30.4259907], [118.151246, 30.4355712], [118.1570916, 30.4482139], [118.1760392, 30.4495172], [118.1627762, 30.4553698], [118.1792664, 30.4763802], [118.1808784, 30.4663352], [118.2069898, 30.4713962], [118.226401, 30.4481168], [118.2100253, 30.4406065], [118.2177622, 30.4143201], [118.2514854, 30.392852], [118.2507242, 30.3809203], [118.2729868, 30.3827698], [118.2752091, 30.3748213], [118.2944298, 30.3724309], [118.2897919, 30.3602138], [118.3003504, 30.353817], [118.2945684, 30.3432287], [118.3052323, 30.3144065], [118.2897418, 30.3045638], [118.3154425, 30.2962125], [118.3127975, 30.2850487], [118.2884538, 30.2856694], [118.2692814, 30.2721561], [118.2718885, 30.2600032], [118.2527482, 30.2564909]]]}}]}