{"type": "FeatureCollection", "features": [{"type": "Feature", "properties": {"slug": "huanuco", "members": 1, "country": "Peru", "input_hash": "b576b6b5bddaa483"}, "geometry": {"type": "Polygon", "coordinates": [[[-76.2130059, -9.5075117], [-76.2721465, -9.5254882], [-76.3134687, -9.5165801], [-76.3389707, -9.5272169], [-76.3607266, -9.5468066], [-76.3654805, -9.578711], [-76.4248886, -9.6489805], [-76.4547422, -9.6620684], [-76.4768476, -9.661709], [-76.4629864, -9.706959], [-76.4654454, -9.7221347], [-76.4768066, -9.72475], [-76.4839941, -9.7404062], [-76.4671582, -9.7502012], [-76.4633146, -9.7619316], [-76.4704746, -9.8094882], [-76.4660117, -9.8212169], [-76.443123, -9.8266211], [-76.455086, -9.8816131], [-76.4873711, -9.9064864], [-76.5481992, -9.9218379], [-76.5478476, -9.9436465], [-76.5776777, -9.965877], [-76.5733184, -9.9708204], [-76.5859239, -10.017371], [-76.5784472, -10.0314492], [-76.5964805, -10.0402695], [-76.606461, -10.0831115], [-76.595787, -10.1019356], [-76.5682891, -10.0958457], [-76.5468847, -10.1113867], [-76.5348399, -10.1400625], [-76.539084, -10.1650976], [-76.5292949, -10.1957579], [-76.5051542, -10.1800684], [-76.5138241, -10.1608575], [-76.5100079, -10.1522734], [-76.4805215, -10.1569044], [-76.4614725, -10.149086], [-76.4552832, -10.1557832], [-76.4336779, -10.1285079], [-76.4311875, -10.1595919], [-76.4495547, -10.1949356], [-76.44975, -10.2141562], [-76.436082, -10.2335312], [-76.4301914, -10.2003555], [-76.4110059, -10.1787226], [-76.4163711, -10.1491426], [-76.4106055, -10.1371387], [-76.3734395, -10.1494902], [-76.3693847, -10.1308379], [-76.3547305, -10.1219472], [-76.347373, -10.1262012], [-76.2927382, -10.0753496], [-76.2622949, -10.0624726], [-76.2287949, -10.0367637], [-76.2320117, -10.0261095], [-76.2014239, -10.0164414], [-76.164246, -9.9813184], [-76.136209, -9.9862812], [-76.1273164, -9.980291], [-76.1153632, -9.9401055], [-76.124543, -9.9253906], [-76.117207, -9.9031016], [-76.1232247, -9.8883575], [-76.0868086, -9.8813222], [-76.0620704, -9.8195899], [-76.0475586, -9.8242382], [-75.9640761, -9.8148027], [-75.9256601, -9.7949434], [-75.8924356, -9.790961], [-75.8723204, -9.7936972], [-75.8671799, -9.8042579], [-75.8417774, -9.8144472], [-75.8242949, -9.8321406], [-75.7998261, -9.820416], [-75.7935976, -9.8109512], [-75.8104492, -9.765041], [-75.8040449, -9.7334961], [-75.8199142, -9.7100902], [-75.7978281, -9.7027851], [-75.7662754, -9.6681367], [-75.763336, -9.6528419], [-75.745998, -9.6466582], [-75.7206875, -9.6206797], [-75.7482325, -9.593168], [-75.7569922, -9.5652871], [-75.7537011, -9.5485117], [-75.7755292, -9.5232051], [-75.7775879, -9.4909336], [-75.7919239, -9.46292], [-75.784752, -9.4069707], [-75.8093497, -9.3909981], [-75.8523711, -9.4263027], [-75.8701875, -9.421416], [-75.8867715, -9.4277597], [-75.9464336, -9.4969922], [-75.955627, -9.4922461], [-76.0107344, -9.5081211], [-76.0376094, -9.4973437], [-76.0489726, -9.4791972], [-76.0719844, -9.471668], [-76.0983817, -9.4725644], [-76.1073723, -9.4799289], [-76.1190856, -9.4750269], [-76.1248628, -9.481163], [-76.1392031, -9.4704551], [-76.1599355, -9.4694434], [-76.2130059, -9.5075117]]]}}]}