{"type":"FeatureCollection","features":[{"type":"Feature","properties":{"slug":"huizhou","member_count":1,"matched_count":1,"unmatched":[],"source":"Overture Maps division_area (CC-BY 4.0)"},"geometry":{"type":"Polygon","coordinates":[[[114.4788109,23.2665021],[114.4635597,23.2588068],[114.4540978,23.2357269],[114.4460595,23.2387326],[114.4491149,23.2271353],[114.4256597,23.2041192],[114.4063202,23.2091994],[114.3969886,23.2034037],[114.3818758,23.2143389],[114.3569364,23.2065217],[114.3597928,23.1949014],[114.3475615,23.1928912],[114.3508778,23.1812839],[114.3392803,23.1795823],[114.344758,23.1704107],[114.3266025,23.1552644],[114.3111986,23.1588179],[114.3082047,23.1411902],[114.2921544,23.1243917],[114.2198713,23.1200604],[114.202714,23.1140896],[114.1781355,23.0900448],[114.1498755,23.0843029],[114.1411926,23.0639789],[114.1231835,23.05059],[114.1461185,23.0224532],[114.1346543,23.0285248],[114.1191423,22.9968053],[114.1535159,22.9810929],[114.1786283,22.9991314],[114.2104606,22.989247],[114.2186453,22.9666736],[114.2018235,22.9571741],[114.2093836,22.9497324],[114.2078517,22.9315022],[114.2241017,22.9175012],[114.2465032,22.9297067],[114.24784,22.9440596],[114.275071,22.9761232],[114.2943765,22.9827568],[114.3184816,22.9656259],[114.3052008,22.9853113],[114.3269801,22.9922623],[114.3533506,23.0194891],[114.3713977,23.0212313],[114.3738551,23.0014181],[114.3932213,23.0029667],[114.3965886,22.9889047],[114.4054083,22.9859375],[114.4070228,22.9647569],[114.4331863,22.966838],[114.4330726,22.959468],[114.4597826,22.9477518],[114.4573432,22.9530508],[114.4891057,22.9714035],[114.5024824,22.9882893],[114.5032285,22.9995267],[114.4934562,23.0000541],[114.493663,23.002596],[114.5151129,23.0043551],[114.5337756,23.0258893],[114.539583,23.0358454],[114.5334893,23.0639731],[114.5405706,23.0722868],[114.5552508,23.072788],[114.5577512,23.0889706],[114.5700688,23.0926146],[114.5751554,23.1202769],[114.5650774,23.1250515],[114.5835235,23.1379187],[114.6015013,23.125205],[114.6433323,23.1326532],[114.6396954,23.1401399],[114.6513012,23.1592174],[114.6701546,23.1568714],[114.6846431,23.1736466],[114.6898255,23.2038341],[114.7119083,23.2131539],[114.7237229,23.2311252],[114.7782537,23.227225],[114.7885925,23.2423551],[114.7839828,23.2667806],[114.7638966,23.2820107],[114.7779325,23.3040502],[114.771952,23.3160727],[114.7569515,23.3172324],[114.7497467,23.331397],[114.7337662,23.3296625],[114.7307538,23.3371298],[114.7228894,23.3302591],[114.7227077,23.3409497],[114.7111445,23.3505223],[114.7151905,23.3612297],[114.6928291,23.3688669],[114.7004249,23.3722645],[114.6890183,23.3980814],[114.7028554,23.4068787],[114.6814496,23.4162036],[114.6553812,23.4060091],[114.6477083,23.4145423],[114.646102,23.3996372],[114.626691,23.4142551],[114.6014553,23.4125944],[114.5971635,23.3908158],[114.5738938,23.3791572],[114.5563193,23.3964572],[114.53987,23.3988332],[114.5045956,23.3626276],[114.4984425,23.3258224],[114.5026018,23.3210829],[114.5180908,23.3279507],[114.5270305,23.3037844],[114.5667743,23.2697375],[114.500608,23.2473326],[114.4788109,23.2665021]]]}}]}