{"type": "FeatureCollection", "features": [{"type": "Feature", "properties": {"slug": "hunedoara", "members": 7, "country": "Romania", "input_hash": "83b32760dfa4abbc"}, "geometry": {"type": "Polygon", "coordinates": [[[23.0562915, 45.7699079], [23.0815119, 45.7714866], [23.0978156, 45.7491819], [23.1245627, 45.7439724], [23.1313892, 45.7318187], [23.0860511, 45.7199991], [23.0645618, 45.7305073], [23.0348796, 45.7055119], [23.0196617, 45.7113046], [23.0210072, 45.7059098], [23.00642, 45.703511], [22.9586201, 45.7041712], [22.92454, 45.6929188], [22.9121754, 45.680085], [22.9059596, 45.6926084], [22.9208592, 45.7128784], [22.9111253, 45.7135698], [22.899068, 45.7298215], [22.8592638, 45.7204165], [22.8398443, 45.7354181], [22.7695336, 45.7567716], [22.7521835, 45.7735164], [22.77760489995214, 45.78782886978568], [22.7584971, 45.7976224], [22.7462291, 45.819686], [22.7664758, 45.8321643], [22.7819689, 45.8215488], [22.7844009, 45.8304295], [22.7693065, 45.8420524], [22.7709212, 45.8484579], [22.7864574, 45.859905], [22.8077929, 45.8512928], [22.8137807, 45.8661238], [22.8273301, 45.8689271], [22.8251936, 45.8835353], [22.8600745, 45.8883071], [22.8598319, 45.8990224], [22.8757483, 45.9101254], [22.9140738, 45.9080774], [22.9276309, 45.8856852], [22.9662231, 45.8871075], [22.9920442, 45.873324], [22.9972688, 45.881427], [23.0181597, 45.8762048], [23.0432502, 45.9022825], [23.0458696, 45.9144761], [23.0519735, 45.9092354], [23.042092, 45.8537871], [23.0634922, 45.851073], [23.0714712, 45.8354337], [23.0564951, 45.8295258], [23.053800676089466, 45.82069152376018], [23.0613194, 45.8182352], [23.0515812, 45.7996251], [23.0628322, 45.7804855], [23.051447, 45.7738192], [23.0426365, 45.7803177], [23.0562915, 45.7699079]], [[22.778988, 45.7861588], [22.7819501, 45.7861272], [22.778579289454456, 45.78665231103288], [22.778988, 45.7861588]], [[22.868272, 45.7780193], [22.86882399112341, 45.77814035044119], [22.8609951, 45.779443], [22.868272, 45.7780193]], [[22.9082353, 45.7915241], [22.90750248740575, 45.79175697005267], [22.909878, 45.7855283], [22.9082353, 45.7915241]], [[22.890832833656447, 45.806058758739944], [22.8906923, 45.8060268], [22.896964, 45.8012026], [22.890832833656447, 45.806058758739944]], [[22.972584853287785, 45.80040651163287], [22.971946, 45.8057009], [22.9723881, 45.8013843], [22.972584853287785, 45.80040651163287]], [[22.9722745, 45.8081281], [22.9701258, 45.8063681], [22.970460246297417, 45.806245507664194], [22.9722745, 45.8081281]], [[23.0456129, 45.8319265], [23.0444564, 45.8324888], [23.044055083727066, 45.83249431646145], [23.0456129, 45.8319265]], [[22.9970772, 45.7933487], [22.981986835573764, 45.792414738249605], [22.9829596, 45.7919666], [22.9970772, 45.7933487]], [[22.97242057269186, 45.79391190656083], [22.9749778835566, 45.795643659254296], [22.97468710225323, 45.796639967655096], [22.97242057269186, 45.79391190656083]], [[22.973146519684406, 45.79761524509289], [22.973178, 45.7974588], [22.9759808, 45.7981971], [22.973146519684406, 45.79761524509289]], [[22.8813944, 45.8355447], [22.87710921668813, 45.83341232411044], [22.9036997, 45.8337406], [22.8813944, 45.8355447]], [[22.8599575, 45.8807631], [22.85979299082782, 45.88079851504368], [22.860072971475706, 45.88030224690527], [22.8599575, 45.8807631]], [[22.85937809087326, 45.87096791475751], [22.859182716699554, 45.87219180392376], [22.8590232, 45.8719352], [22.85937809087326, 45.87096791475751]], [[22.86159898722464, 45.86720886546672], [22.860430440697034, 45.86809964585805], [22.8606984, 45.8673693], [22.86159898722464, 45.86720886546672]], [[22.8703977, 45.8613827], [22.86720306427143, 45.86169013286664], [22.8672752, 45.8612176], [22.8703977, 45.8613827]], [[22.8830179, 45.859777], [22.882347208785596, 45.860094004431424], [22.88264663506397, 45.85942878941124], [22.8830179, 45.859777]], [[22.8889702, 45.8471482], [22.8831575, 45.8466156], [22.88934017978682, 45.84645814217813], [22.8889702, 45.8471482]], [[22.8902788, 45.8447075], [22.889722472688963, 45.84574511888128], [22.88771, 45.8393667], [22.8902788, 45.8447075]], [[22.8722466, 45.8308912], [22.87624505285094, 45.83324807563141], [22.8756033, 45.8331261], [22.8722466, 45.8308912]], [[22.87658673468077, 45.82127164394448], [22.8722279, 45.8270465], [22.8754808, 45.8212505], [22.87658673468077, 45.82127164394448]], [[22.8759985, 45.8167149], [22.8771506, 45.8205246], [22.87700307571539, 45.820720049373676], [22.8759985, 45.8167149]], [[22.86553805740908, 45.8138688005221], [22.8685259, 45.8139908], [22.868872277119344, 45.814263017764446], [22.86553805740908, 45.8138688005221]], [[22.8440948, 45.8156036], [22.8578235, 45.8135538], [22.86354695602836, 45.81378749994435], [22.8440948, 45.8156036]], [[22.7895874, 45.8322885], [22.791840732170993, 45.83474753259028], [22.791774, 45.834784], [22.7895874, 45.8322885]], [[22.950868683600323, 45.882279101487335], [22.95411312334049, 45.87599534116245], [22.9531767, 45.8798352], [22.950868683600323, 45.882279101487335]]]}}]}