{"type": "FeatureCollection", "features": [{"type": "Feature", "properties": {"slug": "hung-yen", "members": 1, "country": "Vietnam", "input_hash": "1633bd2e7b3900a0"}, "geometry": {"type": "MultiPolygon", "coordinates": [[[[106.5967261, 20.3021678], [106.5981536, 20.2892642], [106.6085783, 20.2874285], [106.5921025, 20.2523023], [106.5780031, 20.2731167], [106.5967261, 20.3021678]]], [[[106.6223908, 20.4399537], [106.6227838, 20.4384054], [106.6177844, 20.4304708], [106.6223908, 20.4399537]]], [[[106.6027732, 20.470263], [106.600213, 20.486605], [106.598384, 20.5050607], [106.6053772, 20.4804965], [106.6027732, 20.470263]]], [[[106.5664555, 20.2766522], [106.5257176, 20.3164922], [106.4979393, 20.3083214], [106.4742497, 20.2908319], [106.4425672, 20.2936034], [106.3993374, 20.3374948], [106.3568559, 20.3526823], [106.3393487, 20.3774209], [106.2847674, 20.3333393], [106.2581251, 20.3306063], [106.2541675, 20.3558664], [106.2834607, 20.380197], [106.2852166, 20.3942362], [106.275221, 20.4029761], [106.2162397, 20.4146861], [106.209701, 20.4291404], [106.2247806, 20.4677644], [106.1832245, 20.4847086], [106.1719243, 20.5464865], [106.1582524, 20.5653239], [106.1321571, 20.5747521], [106.1290003, 20.6102522], [106.1076812, 20.618498], [106.0766052, 20.6030956], [106.052969, 20.6122692], [106.031569, 20.6452135], [106.0377374, 20.6685804], [106.0302529, 20.6891838], [106.0077338, 20.703962], [105.9731613, 20.7005034], [105.9641467, 20.7249735], [105.9669104, 20.7732365], [105.9293067, 20.7865185], [105.918955, 20.7980636], [105.9110864, 20.8300843], [105.9332806, 20.851543], [105.9359849, 20.8650343], [105.8953656, 20.8964629], [105.912995, 20.9181616], [105.9084591, 20.9263283], [105.9157999, 20.9357539], [105.9030199, 20.9471529], [105.9129866, 20.9737153], [105.9640828, 20.9633659], [105.9616257, 20.9890839], [105.9917131, 21.001202], [106.0157738, 21.00212], [106.0288872, 20.9930266], [106.0551181, 21.0068682], [106.0767853, 20.9949513], [106.0903841, 21.0062821], [106.1156881, 20.9959605], [106.1149341, 20.9832473], [106.138168, 20.9749575], [106.135042, 20.960306], [106.1498995, 20.9602684], [106.1581977, 20.9509314], [106.1482646, 20.9291332], [106.1551789, 20.9172315], [106.1362056, 20.9036883], [106.1472686, 20.8826289], [106.1413052, 20.857226], [106.1261802, 20.8478652], [106.1248778, 20.8297838], [106.1406373, 20.8171977], [106.1311326, 20.8066885], [106.1517236, 20.7821101], [106.1655796, 20.784968], [106.1810348, 20.763397], [106.1928273, 20.765799], [106.2035017, 20.751852], [106.2153164, 20.7502642], [106.218528, 20.7325392], [106.2124331, 20.7294228], [106.2488346, 20.6863215], [106.2695282, 20.6847149], [106.2488119, 20.695507], [106.2628425, 20.7041059], [106.2752862, 20.6928324], [106.288617, 20.6944446], [106.2846313, 20.7115207], [106.3027211, 20.6895895], [106.335499, 20.711368], [106.3601163, 20.7018391], [106.4046984, 20.7287481], [106.4167786, 20.7170951], [106.4006382, 20.6883948], [106.4541625, 20.6403201], [106.4500743, 20.6201809], [106.4660386, 20.6135822], [106.4717056, 20.5981335], [106.4818634, 20.599455], [106.4931173, 20.6166392], [106.5298084, 20.6030299], [106.5400385, 20.6083589], [106.5463739, 20.6268133], [106.5689628, 20.6199468], [106.6012813, 20.6397658], [106.6130914, 20.6262845], [106.63622064296896, 20.62707289271842], [106.635923, 20.6081997], [106.6266176, 20.607386], [106.6112047, 20.5872895], [106.6055941, 20.5897702], [106.6065179, 20.5774501], [106.5795253, 20.5574438], [106.5856176, 20.5427603], [106.5748879, 20.5225191], [106.5833676, 20.4966963], [106.5981586, 20.4870349], [106.5977762, 20.4368346], [106.6071819, 20.4352032], [106.5991873, 20.4280681], [106.6043508, 20.4241363], [106.5950405, 20.4232144], [106.5760804, 20.3675598], [106.5862519, 20.3383332], [106.5787153, 20.3353119], [106.5898546, 20.3169312], [106.5897232, 20.3080843], [106.5809822, 20.3082671], [106.5917423, 20.3007463], [106.5798678, 20.2821586], [106.5664555, 20.2766522]]]]}}]}