{"type": "FeatureCollection", "features": [{"type": "Feature", "properties": {"slug": "huntsville", "members": 4, "country": "United States", "input_hash": "fa18520ad3c6966c"}, "geometry": {"type": "Polygon", "coordinates": [[[-86.552994, 34.543888], [-86.581268, 34.373055], [-86.581749, 34.304897], [-87.10966434059492, 34.31417147497241], [-87.10955, 34.299698], [-87.529849, 34.3046089], [-87.5295586, 34.5594985], [-87.5076291, 34.5835764], [-87.5148755, 34.5977676], [-87.5026674, 34.6092829], [-87.5065995, 34.6169818], [-87.4768367, 34.6376488], [-87.4837615, 34.6479769], [-87.4589734, 34.6442899], [-87.4603484, 34.6494894], [-87.44512, 34.6526365], [-87.4430834, 34.6754525], [-87.4525119, 34.6769915], [-87.4527718, 34.6927563], [-87.4260705, 34.7093864], [-87.435851, 34.7294197], [-87.4237311, 34.7381308], [-87.4278874, 34.7517207], [-87.4160822, 34.7635159], [-87.4343621, 34.7740587], [-87.4287645, 34.7951135], [-87.374985, 34.804977], [-87.3479898, 34.8022226], [-87.3373389, 34.7983694], [-87.3068678, 34.7575344], [-87.2876572, 34.7517722], [-87.260676, 34.758626], [-87.278049, 34.773134], [-87.276499, 34.780755], [-87.214914, 34.816011], [-87.2107603, 34.9990141], [-86.311274, 34.991098], [-86.312739, 34.975488], [-86.289371, 34.968625], [-86.287048, 34.957738], [-86.259185, 34.945375], [-86.255771, 34.929228], [-86.272236, 34.924099], [-86.280086, 34.939253], [-86.293259, 34.945045], [-86.311036, 34.934699], [-86.32624, 34.937102], [-86.311391, 34.911954], [-86.341599, 34.894774], [-86.339839, 34.885005], [-86.3513, 34.873662], [-86.334897, 34.847886], [-86.338324, 34.835854], [-86.326491, 34.83026], [-86.344807, 34.812564], [-86.334013, 34.788379], [-86.341753, 34.780861], [-86.342251, 34.74431], [-86.358121, 34.735034], [-86.359034, 34.63261], [-86.325807, 34.609609], [-86.331615, 34.605411], [-86.326853, 34.599403], [-86.303471, 34.593382], [-86.307275, 34.582514], [-86.299676, 34.580175], [-86.331581, 34.573005], [-86.329775, 34.565631], [-86.306631, 34.561058], [-86.311021, 34.539485], [-86.334207, 34.509732], [-86.355262, 34.523513], [-86.36921, 34.513745], [-86.390469, 34.520128], [-86.389059, 34.499677], [-86.412239, 34.494303], [-86.424314, 34.479368], [-86.452856, 34.484135], [-86.46891, 34.475633], [-86.528114, 34.498349], [-86.552994, 34.543888]], [[-87.0557798, 34.6524632], [-87.0512059, 34.6499906], [-87.0668008, 34.6602031], [-87.0557798, 34.6524632]], [[-86.7828962, 34.5501619], [-86.7742672, 34.5499681], [-86.78519918480548, 34.55053122977956], [-86.7828962, 34.5501619]], [[-86.7617159, 34.5522294], [-86.7548912, 34.5543614], [-86.7742672, 34.5499681], [-86.7617159, 34.5522294]], [[-86.70443229809237, 34.58879729697127], [-86.707488, 34.5889931], [-86.7144771, 34.5869838], [-86.70443229809237, 34.58879729697127]], [[-86.694450888061, 34.58772944447848], [-86.695938, 34.588253], [-86.69741878986721, 34.58834788593773], [-86.694450888061, 34.58772944447848]], [[-86.652313, 34.549252], [-86.646172, 34.548805], [-86.65647432514425, 34.55045015540567], [-86.652313, 34.549252]], [[-86.58204868919697, 34.582172075618324], [-86.5856775, 34.5832391], [-86.58783155256528, 34.58305090966808], [-86.58204868919697, 34.582172075618324]], [[-86.5730635955905, 34.5787509487817], [-86.5748056, 34.5800423], [-86.57602122825793, 34.58039974629871], [-86.5730635955905, 34.5787509487817]], [[-86.55015737840574, 34.54999429799031], [-86.5500579, 34.5517121], [-86.55104901564934, 34.55414348208639], [-86.55015737840574, 34.54999429799031]], [[-87.22477637890854, 34.76281238933034], [-87.2285444, 34.7638688], [-87.2369953, 34.7635825], [-87.22477637890854, 34.76281238933034]], [[-87.1275255, 34.7041918], [-87.121514, 34.6977812], [-87.12841077950121, 34.706171567409925], [-87.1275255, 34.7041918]], [[-87.0889736, 34.6717757], [-87.0984264, 34.6812332], [-87.10459103828381, 34.68565169453043], [-87.0889736, 34.6717757]], [[-87.110031, 34.360584], [-87.10982769376432, 34.33484906555927], [-87.106667, 34.50008], [-87.110031, 34.360584]]]}}]}