{"type":"FeatureCollection","features":[{"type":"Feature","properties":{"slug":"huntingdon","member_count":22,"matched_count":2,"unmatched":["Brampton, the Stukeleys and the Alconburys (GB-ENG, type='MSOA')","Yaxley & Farcet (GB-ENG, type='MSOA')","Little Paxton, Love's Farm & Great Gransden (GB-ENG, type='MSOA')","St Neots Eynesbury (GB-ENG, type='MSOA')","Huntingdon Central & West (GB-ENG, type='MSOA')","Houghton, Hemingford & Fenstanton (GB-ENG, type='MSOA')","Somersham, Riptons & Raveleys (GB-ENG, type='MSOA')","St Ives North (GB-ENG, type='MSOA')","Huntingdon Sapley & Oxmoor (GB-ENG, type='MSOA')","Buckden & Perry (GB-ENG, type='MSOA')","St Ives South (GB-ENG, type='MSOA')","Sawtry & Gidding (GB-ENG, type='MSOA')","Warboys & Bury (GB-ENG, type='MSOA')","St Neots Eaton Ford (GB-ENG, type='MSOA')","Kimbolton, Great Staughton & Molesworth (GB-ENG, type='MSOA')","St Neots Priory Park (GB-ENG, type='MSOA')","Huntingdon Hartford (GB-ENG, type='MSOA')","Bluntisham, Earith & Needingworth (GB-ENG, type='MSOA')","St Neots Eaton Socon (GB-ENG, type='MSOA')","Stilton, Elton & Folksworth (GB-ENG, type='MSOA')"],"source":"Overture Maps division_area (CC-BY 4.0)"},"geometry":{"type":"MultiPolygon","coordinates":[[[[-0.1309134,52.3308321],[-0.1479749,52.2958015],[-0.1426181,52.2831896],[-0.175502,52.280215],[-0.1751911,52.2893659],[-0.2164762,52.3054466],[-0.2099366,52.3184408],[-0.1818593,52.3167041],[-0.1695482,52.3325863],[-0.1309134,52.3308321]]],[[[-0.0093284,52.4621694],[-0.0226639,52.4637947],[-0.0579098,52.4372033],[-0.1060897,52.4473025],[-0.1212946,52.4376039],[-0.1404617,52.4478452],[-0.1355334,52.4503987],[-0.1691721,52.4465495],[-0.170628,52.4371853],[-0.1859091,52.4424721],[-0.1826604,52.467418],[-0.1675939,52.4834053],[-0.1787988,52.4860242],[-0.1755396,52.495924],[-0.1434542,52.5111772],[-0.1144388,52.489041],[-0.0976804,52.5017261],[-0.0905564,52.4962397],[-0.0708154,52.5059058],[-0.0696996,52.5168755],[-0.0545827,52.5133955],[-0.0479694,52.5105426],[-0.0527239,52.5020265],[-0.0385109,52.5018437],[-0.0388542,52.4732889],[-0.0093284,52.4621694]]]]}}]}