{"type": "FeatureCollection", "features": [{"type": "Feature", "properties": {"slug": "hyderabad-sindh", "members": 2, "country": "Pakistan", "input_hash": "7210fcec4e3c962d"}, "geometry": {"type": "Polygon", "coordinates": [[[67.164772, 26.930038], [67.168327, 27.000517], [67.186821, 27.093163], [67.185287, 27.143936], [67.168526, 27.24365], [67.144218, 27.300304], [67.161568, 27.347908], [67.18821, 27.379723], [67.2003471, 27.435561], [67.2269432, 27.4331053], [67.2530572, 27.4201923], [67.2859518, 27.3907798], [67.3173015, 27.3924183], [67.3310344, 27.3754609], [67.3615257, 27.3853308], [67.3647658, 27.3623315], [67.388777, 27.3901892], [67.4499099, 27.386855], [67.4538581, 27.364847], [67.4670116, 27.3621409], [67.4794356, 27.3440162], [67.4753516, 27.3318644], [67.5238765, 27.3079294], [67.6379026, 27.3073383], [67.6528372, 27.3172524], [67.6749522, 27.3051179], [67.8125174, 27.3074631], [67.8763754, 27.318826], [67.941199, 27.2928191], [67.9851014, 27.292514], [67.9676778, 27.2675881], [67.9735572, 27.247216], [67.9449327, 27.2393943], [67.9489023, 27.2250658], [67.9591806, 27.2217648], [67.9561979, 27.2034264], [67.9857181, 27.1955792], [67.989486, 27.1849835], [68.0487092, 27.1550504], [68.063463, 27.1297338], [68.0909346, 27.1297967], [68.1116198, 27.0915345], [68.0906342, 27.0789829], [68.0658506, 27.0906176], [68.0326341, 27.0727544], [68.0279349, 27.0475882], [68.049414, 27.0327955], [68.0466889, 27.026335], [68.0045294, 27.0267091], [67.9931139, 27.0138635], [67.9495119, 27.021854], [67.9306292, 27.0155649], [67.9389547, 26.9851038], [67.9944016, 26.9752147], [68.009422, 26.9620954], [67.9901744, 26.9293289], [67.9851533, 26.8999735], [67.9565288, 26.9041833], [67.9723216, 26.9341259], [67.9704494, 26.9439082], [67.9844827, 26.9442142], [67.9727025, 26.9539884], [67.9003258, 26.9592482], [67.8937636, 26.9460196], [67.94273, 26.9384207], [67.9106723, 26.9165919], [67.8606525, 26.9005815], [67.8333369, 26.8754917], [67.8567472, 26.8442269], [67.9013363, 26.8186075], [67.8943917, 26.7316429], [67.9237458, 26.7050397], [67.9390022, 26.7087392], [67.9392168, 26.6969118], [67.9037792, 26.6692966], [67.8942949, 26.6474927], [67.8387815, 26.628875], [67.8011018, 26.5941126], [67.7962738, 26.5751538], [67.8164813, 26.5568802], [67.8477451, 26.5760723], [67.8855982, 26.5693677], [67.8986874, 26.5466426], [67.9458728, 26.5396168], [67.9378047, 26.5062867], [67.9034939, 26.4885426], [67.8976789, 26.4777872], [67.9009834, 26.3895504], [67.9129138, 26.3617911], [67.8857484, 26.3465629], [67.883152, 26.3346404], [67.897908, 26.3223306], [67.93945, 26.3140987], [67.9682891, 26.2930931], [68.0171053, 26.2848976], [68.037348, 26.2424147], [68.0036809, 26.2046285], [68.0794265, 26.1357619], [68.1002142, 26.1261436], [68.1199982, 26.1016163], [68.1313707, 26.0553415], [68.1573989, 26.0373548], [68.213854, 26.0165065], [68.2253553, 26.004126], [68.2434324, 26.0045378], [68.2680443, 26.021874], [68.2812837, 26.0142813], [68.2955316, 26.0277598], [68.3040503, 26.0256196], [68.3218746, 26.0542249], [68.374167, 26.0964341], [68.4110527, 26.0837151], [68.4251058, 26.0570873], [68.4410489, 26.0571451], [68.4696091, 26.0387345], [68.5211111, 26.0442472], [68.5409165, 26.0551585], [68.5694767, 26.0527103], [68.5611511, 26.0387912], [68.5485787, 26.0418018], [68.5076806, 26.0274067], [68.5070369, 26.0171292], [68.5249326, 26.0117491], [68.5207269, 25.9907083], [68.4932885, 25.9591474], [68.4920244, 25.9122401], [68.476554, 25.8895339], [68.5164804, 25.8854549], [68.5268016, 25.8610318], [68.547564, 25.8553296], [68.516901, 25.843917], [68.5254626, 25.8229041], [68.5346679, 25.8228462], [68.557983, 25.7953196], [68.5523396, 25.7678247], [68.5791822, 25.7599346], [68.5797616, 25.7484549], [68.5655781, 25.7334174], [68.6034805, 25.7155347], [68.6047465, 25.7056747], [68.6149818, 25.7095608], [68.6112267, 25.7031613], [68.6395419, 25.6826226], [68.6472452, 25.6904735], [68.6532104, 25.6780588], [68.7144603, 25.6705958], [68.7241377, 25.6947487], [68.7747778, 25.7127104], [68.8979448, 25.6943427], [68.9138846, 25.6568822], [68.8916115, 25.5287694], [68.9134544, 25.4770068], [68.9462642, 25.4429619], [68.9694599, 25.4016246], [68.9757111, 25.3142674], [68.9644458, 25.315567], [68.9610555, 25.3007274], [68.9390399, 25.2791728], [68.895774, 25.2639361], [68.9002372, 25.2409969], [68.8339012, 25.2308397], [68.7887428, 25.2297209], [68.8067957, 25.2761972], [68.7359424, 25.2773808], [68.7068369, 25.285072], [68.6823108, 25.2310257], [68.7030389, 25.2061388], [68.6636929, 25.2058248], [68.6617907, 25.1775923], [68.6365351, 25.1770486], [68.6148956, 25.1612835], [68.6602356, 25.1450654], [68.6816985, 25.164232], [68.6906249, 25.1620568], [68.6828787, 25.1391372], [68.6304481, 25.0655951], [68.611737, 25.0612995], [68.6145288, 25.0527505], [68.6483461, 25.0321241], [68.6572725, 25.0360903], [68.6823369, 25.027563], [68.6953188, 25.0125522], [68.7482564, 24.9926379], [68.7668816, 24.9715734], [68.7924377, 24.9622168], [68.7861506, 24.9182787], [68.7930293, 24.8960454], [68.7851329, 24.8694941], [68.7772002, 24.8630848], [68.7436404, 24.8711836], [68.7393217, 24.8588107], [68.7368111, 24.8213456], [68.7471537, 24.7829146], [68.7187438, 24.7836549], [68.7182288, 24.7960006], [68.7077789, 24.7994095], [68.69808, 24.7931955], [68.6973719, 24.7806693], [68.6608724, 24.78628], [68.653491, 24.7961954], [68.6712158, 24.8236157], [68.639394, 24.8493202], [68.6697352, 24.8604182], [68.6673351, 24.8693366], [68.6812396, 24.8757025], [68.655984, 24.88491], [68.6329695, 24.8746087], [68.6070057, 24.847897], [68.5773297, 24.8566004], [68.5513016, 24.8537188], [68.5318022, 24.8677642], [68.5007967, 24.8725259], [68.4811804, 24.8394714], [68.4724257, 24.8669247], [68.4628985, 24.8732711], [68.4554561, 24.7852119], [68.3997261, 24.7790905], [68.3879907, 24.7684325], [68.3317286, 24.8246411], [68.3225672, 24.8284661], [68.3123362, 24.8175185], [68.2596977, 24.8923256], [68.2675941, 24.906775], [68.2912605, 24.919666], [68.3225486, 24.9226758], [68.3201225, 24.9356688], [68.2896926, 24.9514731], [68.2906311, 24.9391874], [68.2730529, 24.9391044], [68.256459, 24.957159], [68.2415419, 24.9588273], [68.2588747, 25.0016072], [68.2847613, 25.1284915], [68.3098467, 25.1390178], [68.3395556, 25.1173011], [68.3605669, 25.1194357], [68.3635195, 25.1535004], [68.3548449, 25.168292], [68.2899569, 25.1906624], [68.2893389, 25.2106059], [68.337427, 25.2640048], [68.349129, 25.2968572], [68.3008807, 25.2956156], [68.2491991, 25.3055274], [68.232239, 25.2965675], [68.1774218, 25.3040997], [68.1290019, 25.3712838], [68.1192744, 25.3996543], [68.0386622, 25.4494312], [68.0138515, 25.4493899], [67.9859558, 25.4176328], [67.9486481, 25.4070686], [67.9356018, 25.3859581], [67.9240204, 25.3825255], [67.9331642, 25.3230014], [67.8975411, 25.2990162], [67.8447381, 25.2282256], [67.8547244, 25.1777353], [67.850645, 25.1341982], [67.8319224, 25.1185113], [67.758932, 25.0855355], [67.7423839, 25.0721851], [67.7237315, 25.0393603], [67.7061305, 25.0323509], [67.6532817, 25.0302771], [67.5869496, 25.0464773], [67.5654576, 25.0136895], [67.5347416, 24.9852912], [67.5205326, 24.984229], [67.5164253, 25.0487857], [67.4434614, 25.1335548], [67.3297747, 25.1654356], [67.3011415, 25.1837676], [67.2994478, 25.1968987], [67.3221529, 25.229948], [67.3213289, 25.2517274], [67.3334368, 25.2565507], [67.3792029, 25.3392034], [67.3839637, 25.3762672], [67.4089158, 25.4227193], [67.4065354, 25.4406818], [67.4221909, 25.4521937], [67.4214356, 25.4875494], [67.4092362, 25.5127527], [67.4032559, 25.6148992], [67.3861356, 25.6583565], [67.34594, 25.676796], [67.386711, 25.763092], [67.413673, 25.802301], [67.46302, 25.840706], [67.458908, 25.902752], [67.438484, 25.946766], [67.453499, 25.99618], [67.45443, 26.089937], [67.422905, 26.150402], [67.398674, 26.163879], [67.374222, 26.196285], [67.276703, 26.39403], [67.20002, 26.511515], [67.176994, 26.577885], [67.154648, 26.707762], [67.159859, 26.752636], [67.179214, 26.771408], [67.164772, 26.930038]]]}}]}