{"type":"FeatureCollection","features":[{"type":"Feature","properties":{"slug":"ibiza","member_count":5,"matched_count":4,"unmatched":["Eivissa (Ibiza) [Ibiza Town] (ES-IB, type='Municipality')"],"source":"Overture Maps division_area (CC-BY 4.0)"},"geometry":{"type":"MultiPolygon","coordinates":[[[[1.2437867,38.8610465],[1.2435292,38.8606722],[1.2438726,38.8614074],[1.2437867,38.8610465]]],[[[1.2013585,38.8645601],[1.1884963,38.8625918],[1.1878974,38.8635534],[1.1981109,38.8707729],[1.2013585,38.8645601]]],[[[1.2152738,38.8691196],[1.2137546,38.8682709],[1.2068194,38.8682842],[1.2152738,38.8691196]]],[[[1.196361,38.8713557],[1.1953568,38.8710007],[1.1971731,38.8720315],[1.196361,38.8713557]]],[[[1.2191973,38.8900523],[1.2184152,38.8899128],[1.2186012,38.8902385],[1.2191973,38.8900523]]],[[[1.1894764,38.9565552],[1.1880088,38.9562345],[1.1898482,38.9575242],[1.1894764,38.9565552]]],[[[1.1934964,38.9595934],[1.1996856,38.9569819],[1.1897156,38.9578755],[1.1934964,38.9595934]]],[[[1.2018743,38.9587355],[1.201273,38.9583459],[1.2008663,38.958763],[1.2018743,38.9587355]]],[[[1.199676,38.9592375],[1.1998435,38.9591436],[1.1996292,38.9591983],[1.199676,38.9592375]]],[[[1.2194335,38.9643589],[1.2192967,38.9641926],[1.219178,38.9642891],[1.2194335,38.9643589]]],[[[1.2172582,38.964776],[1.2180159,38.9650638],[1.2178858,38.9651561],[1.2172582,38.964776]]],[[[1.2184375,38.9667612],[1.2186352,38.9666725],[1.2184641,38.9665571],[1.2184375,38.9667612]]],[[[1.1649009,38.9686075],[1.1667524,38.9686595],[1.1648672,38.9675032],[1.1649009,38.9686075]]],[[[1.1652812,38.9693548],[1.1656198,38.969813],[1.1660879,38.9688837],[1.1652812,38.9693548]]],[[[1.2162742,38.966755],[1.2150762,38.972285],[1.2201918,38.968302],[1.2162742,38.966755]]],[[[1.1647981,38.9716767],[1.1668332,38.9728425],[1.1671437,38.9717811],[1.1647981,38.9716767]]],[[[1.2319936,38.9734988],[1.2317515,38.9738499],[1.2320452,38.9739302],[1.2319936,38.9734988]]],[[[1.2319752,38.9769169],[1.2317026,38.9771154],[1.2319342,38.977213],[1.2319752,38.9769169]]],[[[1.1587486,38.978267],[1.1583283,38.9784332],[1.158756,38.9783587],[1.1587486,38.978267]]],[[[1.1572738,38.9784733],[1.1574803,38.9785364],[1.1575467,38.9784504],[1.1572738,38.9784733]]],[[[1.1579965,38.9784217],[1.157908,38.9787342],[1.158332,38.9784963],[1.1579965,38.9784217]]],[[[1.161228,38.9788896],[1.1603425,38.9798753],[1.1615749,38.9808719],[1.161228,38.9788896]]],[[[1.1614603,38.9821527],[1.1614773,38.9827015],[1.1616698,38.9825533],[1.1614603,38.9821527]]],[[[1.1684823,38.984913],[1.168885,38.9845939],[1.168298,38.9843645],[1.1684823,38.984913]]],[[[1.2138809,38.9953252],[1.2104582,38.9840776],[1.218932,38.9782827],[1.2064221,38.9816776],[1.2138809,38.9953252]]],[[[1.2866781,38.9906597],[1.2864514,38.9906451],[1.28678,38.9907118],[1.2866781,38.9906597]]],[[[1.2930455,39.0107726],[1.2932687,39.0118931],[1.2938866,39.0103992],[1.2930455,39.0107726]]],[[[1.4037276,38.8146427],[1.404625,38.8135865],[1.4026743,38.8140981],[1.4037276,38.8146427]]],[[[1.4113801,38.8137874],[1.4109831,38.8182536],[1.412512,38.8145419],[1.4113801,38.8137874]]],[[[1.4043715,38.8170237],[1.4040132,38.8156311],[1.4016746,38.8159687],[1.4043715,38.8170237]]],[[[1.4018412,38.8249392],[1.4016031,38.8251776],[1.401588,38.8252571],[1.4018412,38.8249392]]],[[[1.4080819,38.8262776],[1.4079314,38.8264922],[1.4081804,38.8263624],[1.4080819,38.8262776]]],[[[1.4076962,38.8266229],[1.4072856,38.8271307],[1.4078568,38.826906],[1.4076962,38.8266229]]],[[[1.3709974,38.8289287],[1.3712871,38.8289224],[1.3708955,38.8286424],[1.3709974,38.8289287]]],[[[1.3706621,38.8299086],[1.3708284,38.8297081],[1.3707158,38.8296078],[1.3706621,38.8299086]]],[[[1.405396,38.8302694],[1.4052064,38.8308617],[1.4060895,38.8304725],[1.405396,38.8302694]]],[[[1.4056152,38.8309892],[1.4057246,38.8308673],[1.4055703,38.8308998],[1.4056152,38.8309892]]],[[[1.2982495,38.869917],[1.2982643,38.870011],[1.2983313,38.8699505],[1.2982495,38.869917]]],[[[1.2983608,38.8702219],[1.2982093,38.8700799],[1.2981932,38.870199],[1.2983608,38.8702219]]],[[[1.2985164,38.8704746],[1.2981771,38.8702679],[1.2980698,38.8705936],[1.2985164,38.8704746]]],[[[1.2993999,38.8701515],[1.299732,38.871541],[1.2995888,38.8701782],[1.2993999,38.8701515]]],[[[1.4060246,38.8719082],[1.4066222,38.8716282],[1.4056119,38.8715976],[1.4060246,38.8719082]]],[[[1.3895953,38.917984],[1.4078788,38.9074894],[1.4016939,38.9014437],[1.4101643,38.8910387],[1.4033121,38.8744553],[1.4061345,38.8315145],[1.384146,38.8422816],[1.3805397,38.8343925],[1.371102,38.830416],[1.3611688,38.8606716],[1.3431466,38.871077],[1.3205479,38.8557931],[1.3160608,38.8678427],[1.2975748,38.8621061],[1.3052432,38.8679425],[1.2974872,38.876474],[1.2716731,38.8794435],[1.2480268,38.8557531],[1.235753,38.8727415],[1.2240542,38.8708704],[1.2256089,38.8879888],[1.2133018,38.8975022],[1.2241085,38.9135969],[1.2207308,38.9227172],[1.2365168,38.9388845],[1.2146818,38.9574194],[1.2297204,38.9746402],[1.2323084,38.9686696],[1.2429644,38.972851],[1.2449163,38.9658572],[1.2838819,38.9742186],[1.303255,38.9696512],[1.3066098,38.9784719],[1.2969919,38.9754542],[1.296461,38.9854258],[1.2844525,38.9938743],[1.2990362,39.0096048],[1.2900383,39.0283292],[1.3253578,39.0475482],[1.3263647,39.0528548],[1.3416776,39.0529973],[1.3446098,39.0668215],[1.3500534,39.0637259],[1.3595047,39.0743212],[1.3754538,39.0622492],[1.3866279,39.0782411],[1.3973098,39.0803553],[1.3982478,39.0744097],[1.4170029,39.0774525],[1.4262998,39.0925346],[1.4404486,39.0804645],[1.4640448,39.1016539],[1.4843899,39.1009573],[1.4851707,39.1083408],[1.4884537,39.1105345],[1.4934268,39.108507],[1.4920049,39.1022112],[1.4974249,39.0984577],[1.5092357,39.1028312],[1.5072494,39.1138233],[1.5155813,39.1088588],[1.5330273,39.1184135],[1.5422168,39.1161056],[1.5372522,39.1066315],[1.5574233,39.0933062],[1.5922867,39.0979065],[1.6043348,39.0910459],[1.5986341,39.0821869],[1.6020633,39.0788451],[1.609605,39.0788781],[1.5917459,39.0752219],[1.5879998,39.0633033],[1.5955337,39.051329],[1.6100641,39.043774],[1.6087353,39.0346992],[1.6201589,39.036743],[1.6215867,39.0276812],[1.6058973,39.029519],[1.5954229,39.0246596],[1.5945691,39.015474],[1.5850902,39.0157996],[1.5779104,39.0011813],[1.5812489,38.9893257],[1.5523691,38.9925559],[1.5461048,38.9829711],[1.5338941,38.9827187],[1.5310297,38.9561262],[1.5200434,38.9530197],[1.5277456,38.9511723],[1.5280435,38.9452982],[1.5101014,38.9467426],[1.5053867,38.9331812],[1.5027799,38.9339184],[1.4999021,38.9332413],[1.4888463,38.9279857],[1.4748019,38.9156235],[1.4768508,38.912932],[1.4411002,38.9200054],[1.4408601,38.9259505],[1.4197533,38.9216574],[1.384856,38.9296324],[1.3895953,38.917984]]],[[[1.4757408,38.9154769],[1.4758307,38.9155912],[1.4758607,38.915456],[1.4757408,38.9154769]]],[[[1.4931167,38.9162631],[1.4928186,38.916386],[1.4931086,38.9164932],[1.4931167,38.9162631]]],[[[1.3242406,39.0475857],[1.3242675,39.0477045],[1.3242967,39.0476933],[1.3242406,39.0475857]]],[[[1.3138547,39.0492203],[1.3142013,39.0491119],[1.314105,39.0489512],[1.3138547,39.0492203]]],[[[1.3147837,39.0496913],[1.3164829,39.0503702],[1.3152266,39.0496838],[1.3160785,39.0487942],[1.31501,39.04894],[1.3147837,39.0496913]]],[[[1.315655,39.0497511],[1.3157464,39.0498371],[1.3158234,39.0497549],[1.315655,39.0497511]]],[[[1.3256434,39.0500231],[1.3257057,39.0499947],[1.3256549,39.0499647],[1.3256434,39.0500231]]],[[[1.4037955,39.0773745],[1.403289,39.07755],[1.4038629,39.0774138],[1.4037955,39.0773745]]],[[[1.4315529,39.0911605],[1.4326714,39.0930171],[1.4320019,39.0910519],[1.4315529,39.0911605]]],[[[1.4641944,39.1034632],[1.4641736,39.1021493],[1.4615279,39.1021366],[1.4641944,39.1034632]]],[[[1.496902,38.9205939],[1.4967243,38.9200696],[1.4967539,38.9206361],[1.496902,38.9205939]]],[[[1.501823,38.9331199],[1.5021774,38.933162],[1.5018005,38.9329024],[1.501823,38.9331199]]],[[[1.5068318,38.9369291],[1.5068576,38.9371695],[1.5070121,38.937036],[1.5068318,38.9369291]]],[[[1.5285913,38.9455012],[1.52887,38.9449557],[1.5281705,38.9453335],[1.5285913,38.9455012]]],[[[1.5774868,38.981729],[1.5779872,38.9827574],[1.5794012,38.9824442],[1.5774868,38.981729]]],[[[1.5830934,38.985258],[1.584574,38.9823682],[1.5837912,38.9821654],[1.5830934,38.985258]]],[[[1.5765055,38.9843526],[1.5766692,38.9845609],[1.5768975,38.9844279],[1.5765055,38.9843526]]],[[[1.5846167,38.9998174],[1.5847777,39.0005512],[1.5848903,38.9999759],[1.5846167,38.9998174]]],[[[1.586784,39.0010014],[1.5869073,39.0023479],[1.5876155,39.0015267],[1.586784,39.0010014]]],[[[1.5832166,39.0029024],[1.5830611,39.003219],[1.5834312,39.0029858],[1.5832166,39.0029024]]],[[[1.5824307,39.0033924],[1.582471,39.0032982],[1.5823476,39.0033649],[1.5824307,39.0033924]]],[[[1.5836726,39.0036359],[1.5836351,39.0033357],[1.583619,39.003565],[1.5836726,39.0036359]]],[[[1.5820526,39.0044029],[1.5821169,39.0044863],[1.582251,39.0044113],[1.5820526,39.0044029]]],[[[1.581527,39.0050679],[1.5816636,39.0049953],[1.5815189,39.0050283],[1.581527,39.0050679]]],[[[1.5822404,39.0051034],[1.5821922,39.0050721],[1.5821761,39.0051367],[1.5822404,39.0051034]]],[[[1.6502837,39.0323067],[1.636108,39.0407814],[1.6462021,39.0407457],[1.6502837,39.0323067]]],[[[1.6062998,39.0470691],[1.6062998,39.0463708],[1.6059874,39.0466838],[1.6062998,39.0470691]]],[[[1.6047473,39.0798967],[1.605432,39.0799597],[1.6047386,39.0796921],[1.6047473,39.0798967]]],[[[1.6092569,39.0803159],[1.6098829,39.0800991],[1.6090996,39.0800222],[1.6092569,39.0803159]]],[[[1.6107815,39.0815578],[1.611315,39.0809859],[1.6104064,39.0804625],[1.6107815,39.0815578]]],[[[1.5922745,39.0980108],[1.5936725,39.0983048],[1.5935529,39.0980894],[1.5922745,39.0980108]]],[[[1.4945283,39.1027907],[1.494355,39.1033204],[1.4948262,39.1033794],[1.4945283,39.1027907]]],[[[1.5171675,39.1147508],[1.5139705,39.1166254],[1.5183679,39.1155338],[1.5171675,39.1147508]]]]}}]}