{"type": "FeatureCollection", "features": [{"type": "Feature", "properties": {"slug": "idr", "members": 1, "country": "Turkey", "input_hash": "ae8831c8b2b53f1e"}, "geometry": {"type": "Polygon", "coordinates": [[[43.7553756, 39.8252354], [43.7188786, 39.7737634], [43.7709273, 39.7634508], [43.7903141, 39.7784967], [43.8257911, 39.7803022], [43.8810399, 39.7577566], [43.9764267, 39.7475712], [43.9988204, 39.7278452], [44.0450143, 39.7400855], [44.0939492, 39.7326339], [44.1290757, 39.7439973], [44.1952105, 39.7059878], [44.2308216, 39.7061741], [44.3199703, 39.6672114], [44.3424998, 39.6705679], [44.3032472, 39.7673762], [44.3095345, 39.8129169], [44.251394, 39.7981477], [44.2183702, 39.8160132], [44.2113933, 39.855182], [44.1816254, 39.8818373], [44.1513924, 39.9611469], [44.1149294, 40.0045325], [44.1211593, 40.0246324], [44.115629, 40.0353384], [44.0197473, 40.0255671], [43.988606, 40.0317913], [43.9563462, 40.0163607], [43.9447103, 40.0236483], [43.8975773, 40.0211868], [43.856921, 40.0433478], [43.8245823, 40.0479772], [43.824859, 40.0585889], [43.8083292, 40.0617298], [43.7981311, 40.0395045], [43.80886, 39.9953549], [43.797971, 39.9384088], [43.8018142, 39.8965282], [43.7773138, 39.8733047], [43.7553756, 39.8252354]]]}}]}