{"type": "FeatureCollection", "features": [{"type": "Feature", "properties": {"slug": "ikast", "members": 1, "country": "Denmark", "input_hash": "8f9bac86555dd67a"}, "geometry": {"type": "Polygon", "coordinates": [[[9.503321, 55.9715638], [9.4359859, 56.0047887], [9.4182193, 56.0286505], [9.3878691, 56.0221019], [9.3452243, 56.0270981], [9.3479498, 56.0538995], [9.3081297, 56.0761465], [9.3167506, 56.0811989], [9.3177632, 56.1000253], [9.3817421, 56.0883377], [9.4190128, 56.0949937], [9.4036457, 56.1289987], [9.4226447, 56.1367436], [9.3863277, 56.1516703], [9.3910306, 56.1729508], [9.3584401, 56.1815675], [9.3662367, 56.1933143], [9.3297927, 56.1964846], [9.3219798, 56.1998645], [9.3267419, 56.2094682], [9.2797305, 56.2051516], [9.2324239, 56.225752], [9.2156014, 56.219457], [9.1902389, 56.2421123], [9.2021203, 56.26617], [9.1955435, 56.2758976], [9.1868315, 56.2683433], [9.1093298, 56.2672307], [9.15608, 56.2364983], [9.1428745, 56.2320722], [9.1495616, 56.2088772], [9.1066863, 56.208826], [9.070825, 56.1747619], [9.1133174, 56.1597339], [9.1038014, 56.1390569], [9.1178002, 56.1260207], [9.1015123, 56.1036875], [9.1087137, 56.0937292], [9.1198762, 56.0961355], [9.1402499, 56.0674323], [9.1781823, 56.0636003], [9.1527036, 56.055039], [9.1878473, 56.0511305], [9.1665322, 56.0235129], [9.1250824, 56.0250743], [9.1321776, 56.000963], [9.1062861, 55.9909565], [9.0468985, 55.9828483], [8.9859858, 55.9925731], [8.9881882, 55.9780176], [9.0127577, 55.9685951], [8.9979973, 55.9470751], [8.9998841, 55.9175278], [8.9655513, 55.8848713], [8.9675472, 55.8652168], [8.9577904, 55.8454122], [9.0095363, 55.8306586], [9.030071, 55.84064], [9.046295, 55.836454], [9.0588157, 55.8506649], [9.0709303, 55.844452], [9.0973053, 55.8772038], [9.1176409, 55.8692693], [9.1687556, 55.8969921], [9.1959081, 55.9168618], [9.1969957, 55.9336785], [9.2272908, 55.9566007], [9.2574977, 55.953468], [9.294879, 55.9354014], [9.3354765, 55.9313834], [9.3504189, 55.9380783], [9.4351096, 55.9098871], [9.5021876, 55.9068913], [9.5173107, 55.89971], [9.5401873, 55.911456], [9.5400898, 55.9057528], [9.5583813, 55.9054273], [9.559108, 55.9164884], [9.5346975, 55.9194553], [9.5134407, 55.9334577], [9.5177175, 55.9438011], [9.510208, 55.9457546], [9.503321, 55.9715638]]]}}]}