{"type": "FeatureCollection", "features": [{"type": "Feature", "properties": {"slug": "ilam", "members": 1, "country": "Iran", "input_hash": "f1e8a136da88a206"}, "geometry": {"type": "Polygon", "coordinates": [[[46.3342904, 33.652788], [46.2972667, 33.6434513], [46.271324, 33.6466357], [46.1021439, 33.5971677], [46.1721362, 33.5755592], [46.1877696, 33.5824046], [46.2004533, 33.6119633], [46.2608645, 33.6298375], [46.3510353, 33.551579], [46.4174274, 33.5101861], [46.4338175, 33.5132466], [46.4996532, 33.4974117], [46.5557663, 33.4596383], [46.7029975, 33.4229661], [46.8041128, 33.3843524], [46.8374456, 33.3604634], [46.8538358, 33.3740782], [46.8507826, 33.4032488], [46.7999462, 33.4404721], [46.7907796, 33.4688025], [46.8043891, 33.4893594], [46.7601837, 33.5114729], [46.7204968, 33.5015832], [46.6621611, 33.515748], [46.593268, 33.5913023], [46.5365988, 33.6401961], [46.5154859, 33.6357545], [46.4313117, 33.67799], [46.3919401, 33.6854144], [46.3420922, 33.6402671], [46.3342904, 33.652788]]]}}]}