{"type": "FeatureCollection", "features": [{"type": "Feature", "properties": {"slug": "iloilo", "members": 1, "country": "Philippines", "input_hash": "a47d336a21278250"}, "geometry": {"type": "Polygon", "coordinates": [[[122.5981062, 10.6876858], [122.6171611, 10.7507653], [122.5712575, 10.7811925], [122.5600844, 10.7658753], [122.5415949, 10.7599562], [122.5328596, 10.7373054], [122.5130801, 10.7395371], [122.5241281, 10.7131963], [122.5124489, 10.6912281], [122.4986818, 10.6947964], [122.487965, 10.639315], [122.5369621, 10.6594624], [122.5550651, 10.6753688], [122.5864362, 10.679333], [122.5981062, 10.6876858]]]}}]}