{"type":"FeatureCollection","features":[{"type":"Feature","properties":{"slug":"international-falls","member_count":1,"matched_count":1,"unmatched":[],"source":"Overture Maps division_area (CC-BY 4.0)"},"geometry":{"type":"Polygon","coordinates":[[[-93.4673889,48.5464444],[-93.61225,48.5223889],[-93.6284444,48.5318611],[-93.6593056,48.5164167],[-93.7933611,48.5163056],[-93.8185,48.5314167],[-93.8063611,48.5795],[-93.8334444,48.6256111],[-93.8443611,48.6302222],[-94.2241944,48.6494444],[-94.2509444,48.6568889],[-94.2529722,48.6863333],[-94.2829167,48.7056111],[-94.4213889,48.7085833],[-94.4311988,48.7002426],[-94.431732,48.41288],[-94.4252296,48.3674371],[-94.418243,47.846035],[-93.7760243,47.8464754],[-93.7758717,47.8987384],[-93.0809786,47.8920609],[-93.0807113,47.978502],[-93.0881423,47.978521],[-93.0889283,48.0669873],[-93.0956803,48.0674684],[-93.093192,48.6276308],[-93.1783889,48.62325],[-93.2075278,48.6425],[-93.2546667,48.6428056],[-93.3486667,48.6264444],[-93.3526944,48.6134722],[-93.3714444,48.6058611],[-93.4056667,48.6098333],[-93.4398333,48.5936944],[-93.4654722,48.5916389],[-93.4576667,48.5597222],[-93.4673889,48.5464444]]]}}]}