{"type": "FeatureCollection", "features": [{"type": "Feature", "properties": {"slug": "irkutsk", "members": 2, "country": "Russia", "input_hash": "6f6441e827f2cd17"}, "geometry": {"type": "Polygon", "coordinates": [[[104.048532, 52.3962029], [104.0781485, 52.3998522], [104.1082165, 52.4216704], [104.0918355, 52.4245308], [104.0962096, 52.4284285], [104.0883575, 52.4310773], [104.0942864, 52.433542], [104.0819165, 52.4309722], [104.0887266, 52.4373563], [104.0767693, 52.4346189], [104.0673307, 52.4605333], [104.0532732, 52.469289], [104.0558937, 52.4830612], [104.0448511, 52.486016], [104.0481341, 52.4903082], [104.030799, 52.4937459], [104.0324834, 52.4861548], [103.9946181, 52.4799322], [103.9538384, 52.505854], [103.957293, 52.5417871], [103.9865692, 52.5580515], [103.9599466, 52.562814], [103.9401536, 52.5780619], [103.9389467, 52.6039533], [103.9468861, 52.617224], [103.9305303, 52.623709], [103.935374, 52.6344759], [103.8545001, 52.6772555], [103.824695, 52.6764181], [103.8343969, 52.7024515], [103.856008, 52.7054753], [103.8991202, 52.7298254], [103.9368215, 52.7187977], [103.9289356, 52.7115831], [103.9371531, 52.698908], [103.9555869, 52.7010909], [103.9410406, 52.7062606], [103.957128, 52.7090163], [103.942785, 52.716823], [103.9494355, 52.7214345], [103.9385024, 52.7249447], [103.9456426, 52.7274356], [103.9426501, 52.7351981], [103.9204538, 52.7321463], [103.9347048, 52.7431643], [103.9121079, 52.7397799], [103.9266148, 52.7492531], [103.9043673, 52.7622173], [103.9049115, 52.7720704], [103.916989, 52.7756892], [103.9079907, 52.7913587], [103.9096393, 52.8063205], [103.9016477, 52.8065465], [103.9069847, 52.817654], [103.8981467, 52.8405357], [103.9296094, 52.849675], [103.8717787, 52.8733419], [103.8714145, 52.8845676], [103.8923186, 52.8912186], [103.9059201, 52.9128746], [103.9003102, 52.9615492], [103.9859737, 52.9623614], [103.9854226, 53.0025769], [104.0003035, 53.0090677], [104.0121684, 53.0037576], [104.0162019, 53.022695], [104.0589156, 53.0318283], [104.1474089, 53.0060587], [104.1648627, 53.0202523], [104.1918228, 53.0082111], [104.2016614, 53.0193336], [104.2537473, 53.0392125], [104.2971794, 53.0293705], [104.3078283, 53.0155416], [104.3308583, 53.0132442], [104.3367535, 53.0167435], [104.3262919, 53.0320841], [104.3425402, 53.0383795], [104.3683424, 53.0222351], [104.3853885, 53.0224719], [104.3785383, 53.0498458], [104.4134958, 53.0402937], [104.4084635, 53.0195067], [104.4206921, 53.0113718], [104.4503183, 53.0084059], [104.4603046, 53.0228245], [104.4710013, 53.0224595], [104.4863521, 52.9951802], [104.4452274, 52.9816611], [104.4273669, 52.9609132], [104.4078377, 52.9629209], [104.4027142, 52.9424728], [104.3818095, 52.9217118], [104.364099, 52.9213273], [104.3508405, 52.9336013], [104.3412193, 52.9211383], [104.3102894, 52.9304465], [104.3193044, 52.9067914], [104.3150282, 52.8823215], [104.3266571, 52.8734565], [104.3259987, 52.8622384], [104.3576103, 52.8323229], [104.3577809, 52.8398563], [104.3866928, 52.8421418], [104.3970697, 52.8395529], [104.3966658, 52.8283297], [104.4068025, 52.8203502], [104.4322305, 52.829715], [104.4730016, 52.8215483], [104.5132958, 52.757522], [104.5541837, 52.7453912], [104.5776652, 52.729524], [104.5663488, 52.7204249], [104.5244335, 52.7249882], [104.5260363, 52.6971517], [104.55126, 52.6834335], [104.5510068, 52.6682572], [104.5800464, 52.6621228], [104.5769402, 52.6558016], [104.5984906, 52.6619518], [104.6022178, 52.6505962], [104.6159045, 52.6516915], [104.6224412, 52.6439946], [104.6026252, 52.6370672], [104.6645754, 52.5866526], [104.7281276, 52.5557378], [104.7410713, 52.5420826], [104.7710044, 52.5337327], [104.7414367, 52.512532], [104.7274439, 52.4915097], [104.7474381, 52.4905994], [104.7804617, 52.4573516], [104.8048727, 52.4508616], [104.8451981, 52.4172542], [104.8750815, 52.4087772], [104.9195371, 52.3816673], [104.9652572, 52.3730175], [105.0237666, 52.393485], [105.0223847, 52.3994036], [105.038583, 52.4021283], [105.0482303, 52.4199625], [105.0737239, 52.4339639], [105.1001104, 52.4234824], [105.1393644, 52.4382204], [105.1427801, 52.4524564], [105.1646624, 52.4607021], [105.163098, 52.4685763], [105.1799025, 52.4763266], [105.2047834, 52.5129206], [105.2348594, 52.5261984], [105.2351398, 52.5425073], [105.2453737, 52.552865], [105.2675885, 52.5568021], [105.2621913, 52.5649109], [105.2770663, 52.5785277], [105.3049456, 52.5798444], [105.321387, 52.5907618], [105.336195, 52.5828196], [105.3561398, 52.5878927], [105.3877046, 52.5746895], [105.4127286, 52.5746594], [105.3951127, 52.5415664], [105.4084671, 52.538869], [105.4936723, 52.5746143], [105.5080425, 52.5718436], [105.542308, 52.5922427], [105.5462474, 52.5792817], [105.5653498, 52.5717684], [105.6096, 52.5913396], [105.6458286, 52.5825692], [105.648717, 52.5500202], [105.6584855, 52.5438331], [105.6554511, 52.5319302], [105.6806507, 52.509572], [105.7059973, 52.509006], [105.7153616, 52.5009349], [105.7296838, 52.507126], [105.7555469, 52.490901], [105.7856651, 52.5022111], [105.8011531, 52.4862396], [105.8961764, 52.4972967], [105.9592803, 52.5562489], [105.9919722, 52.5302688], [106.0137124, 52.525194], [106.173292, 52.3624929], [105.982336, 52.1732022], [105.8080234, 51.9847841], [105.7722075, 51.9548508], [105.6006624, 51.8541874], [105.4244242, 51.7861492], [105.2923633, 51.744991], [105.0011055, 51.6886664], [104.8773594, 51.672184], [104.8153638, 51.887935], [104.7965142, 51.9104212], [104.7555426, 51.9278858], [104.7498727, 51.920608], [104.7633762, 51.9108317], [104.7555974, 51.890088], [104.6814233, 51.8819057], [104.6749016, 51.8698338], [104.6414104, 51.8600296], [104.5744036, 51.8689002], [104.5595999, 51.8837981], [104.5175408, 51.8877466], [104.4838922, 51.880173], [104.4689563, 51.9093519], [104.4275832, 51.9256556], [104.4265617, 51.9462039], [104.3835285, 51.9601336], [104.3624714, 51.9346365], [104.3024945, 51.9621367], [104.2183305, 51.9017121], [104.1478356, 51.9095287], [104.1401351, 51.8062062], [103.9129066, 51.8095499], [103.9131347, 51.8269436], [103.9688648, 51.8538078], [103.9632011, 51.8572669], [103.9703625, 51.8630771], [104.0494595, 51.8929725], [104.1184941, 51.9317503], [104.1449702, 51.9319238], [104.1522767, 51.9686738], [104.1967188, 51.9673807], [104.2016618, 51.9965396], [104.195872, 52.0161582], [104.2003505, 52.0249602], [104.2143315, 52.0249432], [104.2130008, 52.0644349], [104.1862496, 52.0716508], [104.2075611, 52.0808391], [104.1619063, 52.1439351], [104.166101, 52.1778995], [104.1570554, 52.18693], [104.1297989, 52.184117], [104.1366931, 52.1935828], [104.1338045, 52.2046552], [104.1276651, 52.2038381], [104.1365466, 52.2269798], [104.1173638, 52.2330451], [104.1104703, 52.2471159], [104.1022094, 52.2437192], [104.0951554, 52.2532199], [104.0265102, 52.2544154], [103.9919398, 52.2650831], [103.9735459, 52.276915], [103.9663169, 52.3000212], [103.9798876, 52.3084171], [103.9634887, 52.3137208], [103.9781275, 52.3160452], [103.944112, 52.3264884], [104.0027276, 52.3796833], [104.0254186, 52.3918105], [104.0487383, 52.3877548], [104.048532, 52.3962029]], [[104.3738641, 52.2837177], [104.37394438341278, 52.2834975673167], [104.37780863368191, 52.28469656298741], [104.3738641, 52.2837177]], [[104.3898556, 52.2876861], [104.38829390124083, 52.287298553781326], [104.3961561, 52.2869411], [104.3898556, 52.2876861]], [[104.4088268, 52.2951407], [104.40875117989081, 52.29487596605212], [104.4096181, 52.2934018], [104.4088268, 52.2951407]], [[104.4393778, 52.2902517], [104.4354209, 52.2878419], [104.43960255186931, 52.29010442119629], [104.4393778, 52.2902517]], [[104.44307991243353, 52.28929223925839], [104.4434971, 52.289156], [104.44356917344646, 52.289421615264686], [104.44307991243353, 52.28929223925839]], [[104.4433475, 52.2909851], [104.44377910456832, 52.29019528314436], [104.445191, 52.2953986], [104.4433475, 52.2909851]], [[104.2062566, 52.3046835], [104.20780973392279, 52.305569539469545], [104.1996306, 52.3041572], [104.2062566, 52.3046835]], [[104.1890683, 52.24536], [104.1902048, 52.2442235], [104.1944355, 52.2418186], [104.1890683, 52.24536]], [[104.2417404, 52.2495642], [104.2375329, 52.2491005], [104.24657315245425, 52.24817908843195], [104.2417404, 52.2495642]], [[104.3636236, 52.2629751], [104.3605528, 52.2600092], [104.36853617799304, 52.26500529032533], [104.3636236, 52.2629751]], [[104.38715011469688, 52.26328923199355], [104.3691409, 52.2652552], [104.36900682523964, 52.265199791763884], [104.38715011469688, 52.26328923199355]], [[104.4212068, 52.2592613], [104.4202852, 52.2579712], [104.42236804947315, 52.25896757267323], [104.4212068, 52.2592613]]]}}]}