{"type": "FeatureCollection", "features": [{"type": "Feature", "properties": {"slug": "ishim", "members": 1, "country": "Russia", "input_hash": "fd0db011a164adba"}, "geometry": {"type": "Polygon", "coordinates": [[[69.4982193, 56.1337496], [69.479258, 56.1276951], [69.4395359, 56.1321442], [69.4299166, 56.1143446], [69.435477, 56.1073915], [69.3783467, 56.1003975], [69.371073, 56.0912151], [69.4280089, 56.0863453], [69.4332219, 56.0753882], [69.4415255, 56.0827241], [69.4671888, 56.0786378], [69.5136207, 56.0527397], [69.5292735, 56.0661671], [69.5087831, 56.0648789], [69.4967724, 56.076541], [69.5215861, 56.0770376], [69.5234767, 56.0839493], [69.5089221, 56.0866175], [69.5117162, 56.0915965], [69.5506859, 56.087615], [69.5868184, 56.104742], [69.5888238, 56.1282266], [69.5693728, 56.1237304], [69.5342822, 56.1360701], [69.5161874, 56.1375762], [69.5062414, 56.1280306], [69.4982193, 56.1337496]]]}}]}