{"type": "FeatureCollection", "features": [{"type": "Feature", "properties": {"slug": "iskitim", "members": 1, "country": "Russia", "input_hash": "a539b30133a94cf5"}, "geometry": {"type": "Polygon", "coordinates": [[[83.2173346, 54.6979667], [83.2589992, 54.6558051], [83.2884348, 54.6524716], [83.2628228, 54.6236517], [83.3020426, 54.5982013], [83.2730052, 54.5949198], [83.2785874, 54.5706983], [83.2708871, 54.5672413], [83.2977816, 54.5596348], [83.2783456, 54.5296596], [83.2875354, 54.5302385], [83.300398, 54.5520725], [83.3216374, 54.5469492], [83.3032691, 54.5747017], [83.3152771, 54.5738017], [83.3294533, 54.5554987], [83.3297453, 54.565524], [83.353701, 54.5749158], [83.3492854, 54.611504], [83.3219937, 54.6110385], [83.3265354, 54.6421419], [83.367046, 54.6447966], [83.3545199, 54.6496036], [83.3518572, 54.6642947], [83.3345266, 54.6606467], [83.3018737, 54.6689173], [83.2607221, 54.6926381], [83.2173346, 54.6979667]]]}}]}