{"type": "FeatureCollection", "features": [{"type": "Feature", "properties": {"slug": "islamabad", "members": 2, "country": "Pakistan", "input_hash": "ccef109f6f171a77"}, "geometry": {"type": "Polygon", "coordinates": [[[73.236305, 33.832142], [73.256828, 33.851154], [73.334015, 33.881714], [73.349541, 33.919136], [73.375244, 33.934685], [73.380066, 33.948463], [73.369255, 33.962063], [73.379562, 33.975594], [73.437553, 33.983913], [73.468147, 34.018757], [73.5272709, 33.9894996], [73.5461669, 33.9407682], [73.5938498, 33.8882665], [73.5596079, 33.7813447], [73.5982601, 33.7496409], [73.6067547, 33.7259531], [73.6001604, 33.7016397], [73.5670237, 33.6668826], [73.578186, 33.6394651], [73.5677018, 33.6192939], [73.5860736, 33.6156062], [73.5983044, 33.5995223], [73.6094195, 33.6040975], [73.6060338, 33.5874749], [73.629182, 33.5695089], [73.6229808, 33.5411483], [73.6387736, 33.5337437], [73.6397607, 33.5251937], [73.6103298, 33.5117724], [73.6182389, 33.4977809], [73.6073864, 33.502552], [73.6024265, 33.4973447], [73.6096478, 33.4729406], [73.6198863, 33.477648], [73.6199385, 33.4648394], [73.6334828, 33.4560281], [73.6110404, 33.4387214], [73.595894, 33.4380221], [73.5862409, 33.4257503], [73.6023519, 33.4199403], [73.5724534, 33.3887462], [73.5683371, 33.361648], [73.5852582, 33.3551835], [73.5719974, 33.3375376], [73.580641, 33.326498], [73.5953433, 33.3398694], [73.6017272, 33.3313739], [73.5953863, 33.3221408], [73.5984654, 33.3018866], [73.6124022, 33.291816], [73.6072142, 33.2828536], [73.6155343, 33.2480708], [73.6388529, 33.2268014], [73.6303462, 33.2220947], [73.6366118, 33.210103], [73.6514708, 33.2145883], [73.6749603, 33.1998843], [73.6629287, 33.1586631], [73.6375765, 33.1539475], [73.6303573, 33.1384255], [73.6376529, 33.1000563], [73.6553984, 33.0780875], [73.7030129, 33.0728192], [73.7497258, 33.0531314], [73.7455282, 33.0373074], [73.7608652, 33.0167016], [73.7602995, 32.9945073], [73.784266, 32.9666077], [73.7739878, 32.9512861], [73.7454238, 32.9378084], [73.7447801, 32.9181949], [73.6935606, 32.8858203], [73.6658373, 32.8495944], [73.628432, 32.8270006], [73.5972111, 32.7688312], [73.5875766, 32.7281351], [73.5139553, 32.677433], [73.4747736, 32.6721408], [73.4031475, 32.6260458], [73.2964389, 32.6134727], [73.250777, 32.59113], [73.2529871, 32.5835185], [73.2392113, 32.5765573], [73.2226459, 32.5816019], [73.2079474, 32.5737364], [73.1726925, 32.5841151], [73.129584, 32.5650022], [73.1045215, 32.5740619], [73.0863254, 32.5621268], [73.057336, 32.5689987], [73.003134, 32.5338379], [72.9847447, 32.5414536], [72.9616134, 32.5365876], [72.9153935, 32.5100278], [72.8929274, 32.5059743], [72.8445403, 32.4705535], [72.7911536, 32.4481209], [72.7769057, 32.4315146], [72.7609841, 32.4279105], [72.7292697, 32.4404791], [72.68423, 32.41947], [72.6306502, 32.4085108], [72.618412, 32.437137], [72.6418508, 32.4606736], [72.6404561, 32.4724411], [72.6490606, 32.4818903], [72.650112, 32.5006951], [72.6391686, 32.5215405], [72.6452626, 32.5258465], [72.6412929, 32.5549338], [72.665583, 32.6083444], [72.6334035, 32.5973602], [72.5875072, 32.6074401], [72.5615175, 32.6615829], [72.5393294, 32.6664412], [72.5444088, 32.6776643], [72.5364914, 32.7320204], [72.5216318, 32.7456289], [72.5222083, 32.7709872], [72.5005728, 32.772225], [72.4875687, 32.787068], [72.5171721, 32.8254063], [72.5301077, 32.8513748], [72.5271736, 32.8630371], [72.5449959, 32.8793643], [72.5281313, 32.8965514], [72.5374217, 32.9113404], [72.5367586, 32.9379185], [72.5317884, 32.9533692], [72.5107554, 32.9688176], [72.5224418, 33.0003347], [72.5044517, 33.0448182], [72.5346554, 33.0843597], [72.5061988, 33.1090614], [72.5005445, 33.1572781], [72.4686301, 33.1418506], [72.4493612, 33.1508516], [72.3375499, 33.1241321], [72.2327734, 33.1273579], [72.1776619, 33.1128801], [72.1645711, 33.124675], [72.1395603, 33.1277528], [72.0906283, 33.1052112], [72.0577226, 33.119021], [72.0313511, 33.0989804], [72.0201287, 33.1057929], [71.9683728, 33.0975064], [71.9322167, 33.0791869], [71.9285045, 33.0607738], [71.905695, 33.0482384], [71.8498192, 33.0480045], [71.8464503, 33.0323192], [71.7982296, 33.0010737], [71.7625023, 33.0087653], [71.7444191, 33.0037059], [71.7485658, 33.0173835], [71.7418985, 33.0294775], [71.7354425, 33.021665], [71.719701, 33.0223876], [71.7263431, 33.0373169], [71.713375, 33.11175], [71.753797, 33.153496], [71.761086, 33.182653], [71.75976, 33.201207], [71.7127126, 33.2462756], [71.7094, 33.286687], [71.727954, 33.303916], [71.731929, 33.319819], [71.717351, 33.343012], [71.733255, 33.364216], [71.831325, 33.409276], [71.855843, 33.403975], [71.871084, 33.410601], [71.867108, 33.447709], [71.961866, 33.52325], [71.969155, 33.540479], [71.954577, 33.564997], [71.977107, 33.582888], [71.985721, 33.667043], [72.0062866, 33.7120972], [72.021503, 33.72138], [72.040057, 33.753187], [72.083129, 33.765777], [72.071864, 33.783668], [72.103671, 33.785656], [72.193127, 33.760476], [72.209693, 33.761139], [72.219633, 33.771741], [72.247464, 33.763789], [72.236862, 33.783006], [72.2401123, 33.8571167], [72.2316895, 33.8942871], [72.3238643, 33.9479907], [72.3813064, 33.957943], [72.3813064, 33.972521], [72.403847, 33.974509], [72.4025245, 33.9917388], [72.4402921, 34.0036649], [72.4490948, 33.9934951], [72.543002, 33.999027], [72.551615, 33.961256], [72.645048, 33.939389], [72.654325, 33.926136], [72.629144, 33.916197], [72.628479, 33.9036865], [72.6118774, 33.8936768], [72.606615, 33.87445], [72.638421, 33.878426], [72.646373, 33.864511], [72.699384, 33.8718], [72.7093258, 33.8817387], [72.707998, 33.902281], [72.735829, 33.907582], [72.72589, 33.921498], [72.770949, 33.951317], [72.78619, 33.940052], [72.791491, 33.888366], [72.835888, 33.88704], [72.839201, 33.852583], [72.8223385, 33.8423243], [72.8187077, 33.8195037], [72.8408969, 33.8402715], [72.8712809, 33.8134042], [72.8571016, 33.7964575], [72.8403217, 33.7916785], [72.8481322, 33.7662809], [72.931862, 33.747837], [72.933067, 33.733578], [72.960533, 33.736019], [73.056267, 33.780769], [73.236305, 33.832142]]]}}]}