{"type": "FeatureCollection", "features": [{"type": "Feature", "properties": {"slug": "ivano-frankivsk", "members": 1, "country": "Ukraine", "input_hash": "3835352856fcc477"}, "geometry": {"type": "Polygon", "coordinates": [[[24.5511121, 49.1395775], [24.5577081, 49.0805461], [24.5335409, 49.051437], [24.5705876, 49.037191], [24.5564738, 49.0281398], [24.5649067, 49.0192084], [24.5296812, 49.0078861], [24.536612, 48.9949616], [24.5144919, 48.9776221], [24.5148298, 48.9699177], [24.4936135, 48.9612523], [24.3962279, 48.8639845], [24.3717939, 48.8699985], [24.335787, 48.8265137], [24.3316483, 48.8078386], [24.3096435, 48.7784165], [24.2912972, 48.7707644], [24.2977881, 48.7619707], [24.2867857, 48.7548838], [24.2445537, 48.7527706], [24.2448842, 48.7339919], [24.2586386, 48.7285836], [24.2321169, 48.7184217], [24.237889, 48.7113994], [24.2124242, 48.6918032], [24.1965294, 48.6931559], [24.1736126, 48.6784621], [24.1784853, 48.6679225], [24.1516721, 48.6607027], [24.1436362, 48.6394775], [24.1019118, 48.6480729], [24.1025287, 48.6283492], [24.1105002, 48.6203037], [24.0956569, 48.6077382], [24.1024268, 48.5648579], [24.1334224, 48.5423529], [24.1260946, 48.5323755], [24.1994423, 48.5201825], [24.2472339, 48.5561703], [24.2483336, 48.5739132], [24.275161, 48.5938568], [24.2903383, 48.5984078], [24.3006259, 48.5915116], [24.312661, 48.6059097], [24.3723053, 48.6169046], [24.3665063, 48.620981], [24.3724501, 48.6328288], [24.4673279, 48.6451453], [24.4625133, 48.6522566], [24.4807094, 48.669523], [24.480055, 48.6820129], [24.5202076, 48.6795123], [24.541279, 48.7004658], [24.5802033, 48.6860096], [24.5841676, 48.6930691], [24.5495591, 48.7101109], [24.5486391, 48.7222421], [24.5943224, 48.7112808], [24.6267718, 48.7277219], [24.6418611, 48.7564901], [24.7231278, 48.7386806], [24.7414057, 48.7465775], [24.7541513, 48.7658773], [24.7406999, 48.7711769], [24.7539947, 48.775301], [24.7663874, 48.7661757], [24.7678011, 48.7743442], [24.7928626, 48.7892551], [24.8128084, 48.7834962], [24.8095672, 48.7929503], [24.8515919, 48.7678364], [24.8943603, 48.7583277], [24.9043464, 48.7583763], [24.9075291, 48.7695226], [24.9202061, 48.7679046], [24.9308849, 48.7546381], [24.9652819, 48.7455929], [24.9789537, 48.7275362], [25.0006177, 48.7369416], [24.9748002, 48.75505], [24.9794846, 48.7627871], [24.9931421, 48.7562634], [24.9978741, 48.7407748], [25.0059217, 48.7472522], [25.00636, 48.7385475], [25.0386885, 48.7297142], [25.0564051, 48.7120178], [25.0571807, 48.699248], [25.0926399, 48.6744042], [25.1137198, 48.6763923], [25.157499, 48.6483457], [25.1497048, 48.648324], [25.1756182, 48.6422942], [25.2098629, 48.6557321], [25.2227454, 48.6508287], [25.2426253, 48.6812186], [25.2095178, 48.7108774], [25.2595761, 48.7343892], [25.2471452, 48.7464387], [25.2569036, 48.7508395], [25.2459614, 48.7684534], [25.2237493, 48.7824398], [25.2427442, 48.7942465], [25.2391251, 48.8134298], [25.2608621, 48.8266903], [25.3009628, 48.8247886], [25.3248824, 48.8357034], [25.3230926, 48.8462159], [25.2918309, 48.8451678], [25.2839205, 48.8622287], [25.2662352, 48.8663007], [25.2391186, 48.8662448], [25.228142, 48.8484058], [25.2101307, 48.8468145], [25.2301449, 48.8869132], [25.2295009, 48.9093256], [25.238245, 48.9220048], [25.2328591, 48.9324613], [25.2098749, 48.9219068], [25.1908258, 48.9270798], [25.1981439, 48.9147253], [25.1675139, 48.8937422], [25.1705651, 48.8703733], [25.1399316, 48.8687422], [25.1182455, 48.9236093], [25.1474515, 48.9436136], [25.1097598, 48.9637789], [25.1071849, 48.982222], [25.1194282, 48.9948119], [25.0875404, 48.9932813], [25.0872766, 48.9840181], [25.0784253, 48.9841232], [25.0174572, 49.0113635], [24.9654863, 48.9927996], [24.9695627, 49.0113149], [24.9049871, 49.0496944], [24.9068601, 49.0735733], [24.9162995, 49.0830878], [24.9912198, 49.0712032], [24.9906452, 49.0860419], [24.9721039, 49.0965038], [24.9853817, 49.1167563], [24.9564535, 49.1275642], [24.8997975, 49.1290557], [24.8665209, 49.1619302], [24.8564621, 49.1635193], [24.8564072, 49.1778128], [24.9334307, 49.2349261], [24.8433199, 49.2625519], [24.8406365, 49.2830725], [24.8280908, 49.2853678], [24.8285837, 49.3207852], [24.8359683, 49.340807], [24.8592875, 49.3470144], [24.8332612, 49.3632], [24.8280529, 49.3857903], [24.8113238, 49.3885144], [24.7755831, 49.3775254], [24.771195, 49.4311427], [24.7239868, 49.4815538], [24.7285056, 49.49205], [24.6996066, 49.4919679], [24.6561351, 49.505438], [24.6400256, 49.4971454], [24.5695913, 49.5341219], [24.505327, 49.5128466], [24.4922352, 49.523459], [24.4909367, 49.5351144], [24.4985206, 49.5396449], [24.4875626, 49.5477232], [24.4519072, 49.540135], [24.4493485, 49.545233], [24.4343341, 49.5364098], [24.4398154, 49.5116119], [24.4013917, 49.4950409], [24.4180938, 49.473818], [24.410474, 49.4448809], [24.3598599, 49.4307159], [24.3738133, 49.4299746], [24.3758476, 49.4133982], [24.3897592, 49.4090804], [24.3870089, 49.395005], [24.40602, 49.393311], [24.4293638, 49.3732931], [24.4004994, 49.3619071], [24.3935887, 49.3423157], [24.4010421, 49.3362501], [24.3807614, 49.3078873], [24.3586958, 49.3223664], [24.3414682, 49.3103827], [24.3019053, 49.3162908], [24.2994207, 49.2878664], [24.305422, 49.2773065], [24.3389757, 49.2919665], [24.3639187, 49.2807444], [24.3584781, 49.2620699], [24.3511639, 49.2615717], [24.3467974, 49.2432454], [24.3409995, 49.2432092], [24.3579039, 49.2333716], [24.3883263, 49.2275757], [24.4599116, 49.2327863], [24.4747522, 49.223797], [24.489271, 49.2287437], [24.5101815, 49.2165774], [24.5279968, 49.2261811], [24.5493203, 49.2117837], [24.550994, 49.1961692], [24.5767861, 49.194802], [24.559553, 49.1807408], [24.5141566, 49.1821137], [24.5034881, 49.1625146], [24.5511121, 49.1395775]]]}}]}