{"type": "FeatureCollection", "features": [{"type": "Feature", "properties": {"slug": "iwaki", "members": 1, "country": "Japan", "input_hash": "f97bb93de530878f"}, "geometry": {"type": "Polygon", "coordinates": [[[140.789581, 36.856487], [140.794621, 36.884527], [140.816363, 36.908185], [140.8625893, 36.917766], [140.87484920000003, 36.932621300000015], [140.8804677, 36.927716699999976], [140.8851226, 36.93783939999997], [140.9026139, 36.94437140000004], [140.92353220000004, 36.93475829999998], [140.969548, 36.973151], [140.970607, 36.987928], [140.982992, 36.995522], [140.974075, 37.015341], [140.973737, 37.048952], [140.983597, 37.090603], [141.000424, 37.115341], [141.001369, 37.180446], [140.956669, 37.185889], [140.916202, 37.203352], [140.899074, 37.221564], [140.872602, 37.222251], [140.867097, 37.227889], [140.87809, 37.240684], [140.867071, 37.259685], [140.877394, 37.277283], [140.859146, 37.27435], [140.852972, 37.259144], [140.837573, 37.26191], [140.805564, 37.25191], [140.787478, 37.267458], [140.795839, 37.280006], [140.779865, 37.288188], [140.778528, 37.296445], [140.743221, 37.297066], [140.727228, 37.318156], [140.713751, 37.319062], [140.695583, 37.314994], [140.682808, 37.234487], [140.606995, 37.204008], [140.601104, 37.178986], [140.611089, 37.155511], [140.624023, 37.142952], [140.632544, 37.154678], [140.663784, 37.089784], [140.652959, 37.085196], [140.657274, 37.075045], [140.640476, 37.068902], [140.64285, 37.056738], [140.625011, 37.049188], [140.617171, 37.015053], [140.598513, 37.015742], [140.599385, 37.005226], [140.565963, 36.98581], [140.582225, 36.965594], [140.592946, 36.926467], [140.614686, 36.904509], [140.695018, 36.888791], [140.71412, 36.872832], [140.740985, 36.875522], [140.766812, 36.861554], [140.777186, 36.867387], [140.789581, 36.856487]]]}}]}