{"type":"FeatureCollection","features":[{"type":"Feature","properties":{"slug":"izmir","member_count":30,"matched_count":30,"unmatched":[],"source":"Overture Maps division_area (CC-BY 4.0)"},"geometry":{"type":"MultiPolygon","coordinates":[[[[26.1956024,38.2933836],[26.1940711,38.2920489],[26.1948539,38.2937962],[26.1956024,38.2933836]]],[[[26.2076597,38.2966354],[26.2112009,38.2922635],[26.210581,38.2907216],[26.2076597,38.2966354]]],[[[26.4310851,38.1987118],[26.3893055,38.2240095],[26.389611,38.2366005],[26.4021597,38.2443448],[26.3910804,38.2610843],[26.3793111,38.2611709],[26.3862108,38.2460537],[26.366577,38.2276221],[26.3354171,38.2258598],[26.3071095,38.2407146],[26.3025087,38.2557481],[26.2899448,38.2632553],[26.2603644,38.2699192],[26.2395012,38.2635914],[26.2303093,38.2737165],[26.2339926,38.2938229],[26.2492115,38.2852097],[26.2726352,38.2904085],[26.2828528,38.3009607],[26.2812875,38.3228956],[26.2875218,38.3171095],[26.3023527,38.3234972],[26.2838075,38.3485568],[26.2848515,38.3764374],[26.3014452,38.3552127],[26.3153119,38.3766091],[26.3188368,38.3617407],[26.311419,38.3528139],[26.3186797,38.3581909],[26.3244467,38.3530232],[26.3120619,38.3394336],[26.3184625,38.3302742],[26.3382146,38.3246237],[26.3446085,38.3337277],[26.3438899,38.319907],[26.3631429,38.3077027],[26.375297,38.3088851],[26.3852887,38.3175607],[26.3851785,38.3493489],[26.3868185,38.3373146],[26.3946088,38.3427529],[26.4015793,38.3347785],[26.3935911,38.3249837],[26.3961501,38.3204168],[26.4091656,38.3319465],[26.4229309,38.3324333],[26.4198337,38.3390165],[26.4508196,38.3480449],[26.4832102,38.3760496],[26.4731402,38.3870415],[26.4758777,38.4017654],[26.4669844,38.4129118],[26.4597261,38.4093081],[26.4618459,38.4183021],[26.451026,38.4279485],[26.469531,38.4272213],[26.4913108,38.4007074],[26.5158324,38.4278139],[26.4955224,38.4480243],[26.4351854,38.4774815],[26.4192845,38.4761325],[26.4129764,38.4578838],[26.3930596,38.4474429],[26.3913209,38.4633159],[26.4120812,38.4940209],[26.4007887,38.5055058],[26.3893069,38.5056943],[26.3949273,38.5083885],[26.3906496,38.5210967],[26.3815279,38.5191845],[26.3717243,38.5308351],[26.3749512,38.5415163],[26.3809555,38.5236926],[26.3805865,38.5445354],[26.3596163,38.566658],[26.3631317,38.5896716],[26.3532361,38.6379849],[26.3606095,38.6596254],[26.3980253,38.6674279],[26.4146279,38.6798274],[26.4354965,38.6709812],[26.474457,38.6748188],[26.5012607,38.6532132],[26.5227859,38.6499231],[26.5281332,38.6439647],[26.5216144,38.6404081],[26.5236142,38.6296025],[26.5485836,38.6018988],[26.5619436,38.6020134],[26.5692071,38.5589568],[26.6047824,38.5329612],[26.6246176,38.5313385],[26.6415805,38.4700277],[26.6311232,38.4628901],[26.6206181,38.4726574],[26.5863161,38.4693197],[26.5973269,38.4675338],[26.5881479,38.4621245],[26.6009796,38.4598394],[26.604026,38.4514581],[26.599099,38.4339535],[26.5840088,38.4273615],[26.600874,38.4157923],[26.6110015,38.4226508],[26.628116,38.3831621],[26.6443109,38.3720756],[26.6437367,38.3398549],[26.6744897,38.3113133],[26.7037299,38.3196865],[26.6922827,38.3440912],[26.6730101,38.346489],[26.6779984,38.3601162],[26.6887179,38.3514135],[26.6755334,38.3921611],[26.6863417,38.4028767],[26.6858787,38.4146295],[26.706921,38.434372],[26.7209057,38.4265637],[26.7196224,38.4367176],[26.7247554,38.4358997],[26.7325034,38.4221328],[26.7354947,38.4292969],[26.7403108,38.4214947],[26.7350835,38.4139784],[26.7624158,38.3840837],[26.7647745,38.367992],[26.7781878,38.3629535],[26.7892943,38.3777101],[26.7798868,38.3641593],[26.8031722,38.3551417],[26.8350441,38.3705779],[26.9804453,38.396534],[27.0174828,38.4181065],[27.0485353,38.4128734],[27.0530385,38.405546],[27.0592696,38.4153799],[27.0868051,38.3986554],[27.1195461,38.4111918],[27.1487875,38.4472236],[27.147462,38.4422653],[27.1546545,38.4474381],[27.1681152,38.4411729],[27.1709014,38.4483216],[27.1588866,38.467054],[27.1333395,38.4647549],[27.1120793,38.4486887],[27.0594674,38.4741327],[27.0390072,38.4591826],[27.039413,38.466201],[27.02417,38.4717331],[26.9890423,38.4506125],[26.9848775,38.4568603],[26.9842554,38.4483674],[26.9736431,38.4549352],[26.971971,38.4355674],[26.9675424,38.4500168],[26.9545863,38.4439652],[26.9548379,38.4404325],[26.9472952,38.4299734],[26.9439432,38.427929],[26.9520764,38.4437323],[26.9240071,38.4548776],[26.9085476,38.4867101],[26.8830515,38.5085295],[26.8410195,38.5208122],[26.8182707,38.537525],[26.8322893,38.5673795],[26.8368291,38.5612713],[26.8306385,38.5577675],[26.8470374,38.5604947],[26.8401897,38.5876827],[26.8304616,38.5780503],[26.8273369,38.5909776],[26.8190828,38.5868762],[26.8009524,38.5994158],[26.8048666,38.602885],[26.8003834,38.599527],[26.7997858,38.6111342],[26.7566518,38.6158693],[26.7544876,38.6283847],[26.7704209,38.6353551],[26.7661998,38.640978],[26.7494504,38.6345564],[26.7334959,38.653994],[26.7228337,38.6520703],[26.7346696,38.6668619],[26.754874,38.6689804],[26.7466095,38.6784404],[26.733407,38.6751897],[26.7411778,38.6816096],[26.7287064,38.6951864],[26.732567,38.7190123],[26.7267747,38.7209374],[26.7432518,38.7325726],[26.7399129,38.7414595],[26.78076,38.7364136],[26.7872441,38.746969],[26.8128172,38.7513692],[26.823806,38.7621704],[26.8380984,38.7527077],[26.8324583,38.7505311],[26.8366984,38.7421898],[26.8574501,38.752894],[26.8756086,38.7358625],[26.8954775,38.734114],[26.9072629,38.7664358],[26.9300843,38.7562718],[26.9343039,38.7576445],[26.9388809,38.762994],[26.9393705,38.7653208],[26.931549,38.7646647],[26.9380286,38.7678764],[26.9283199,38.7723615],[26.9329146,38.7807238],[26.9231611,38.7756443],[26.8925535,38.8242078],[26.9140323,38.817447],[26.9445312,38.8360343],[26.942154,38.8123466],[26.9553486,38.8026861],[26.9734306,38.8057828],[26.9839082,38.8252348],[26.9621245,38.830279],[26.9699283,38.8464731],[26.9869571,38.8470832],[26.9907446,38.8562692],[27.0238657,38.8723411],[27.0196013,38.8653661],[27.0273909,38.8632941],[27.0266289,38.8554759],[27.0282623,38.8635391],[27.0591178,38.8660232],[27.0659611,38.8791715],[27.05999,38.8883381],[27.065779,38.8894333],[27.0370009,38.8953666],[27.0444796,38.909685],[27.0573486,38.9143484],[27.0435062,38.9411547],[27.0028582,38.9176322],[27.0167973,38.9179733],[27.0191229,38.9133543],[26.9951577,38.9160372],[26.9977496,38.906836],[26.966677,38.9335246],[26.9465787,38.9391828],[26.9355317,38.9365376],[26.9394075,38.9260553],[26.9191346,38.939787],[26.8777909,38.9159762],[26.8560834,38.9149238],[26.8505258,38.9332386],[26.8214154,38.9364503],[26.8122633,38.9520366],[26.8021494,38.9508813],[26.7971843,38.9960399],[26.816507,39.0254071],[26.7992788,39.0155831],[26.7991431,39.0318292],[26.8813421,39.064255],[26.8876599,39.0753829],[26.8745857,39.1009802],[26.8361466,39.141501],[26.8130336,39.1567402],[26.768627,39.1666813],[26.8307483,39.2340067],[26.8785865,39.2361056],[26.8978357,39.266816],[26.9059038,39.2635931],[26.9088982,39.2781421],[26.9315457,39.2916061],[26.9703305,39.2930342],[26.9987164,39.2776526],[27.0164752,39.2923783],[27.0108813,39.3086009],[27.066493,39.3243388],[27.0788312,39.3322228],[27.0788312,39.3507926],[27.1058039,39.3652131],[27.1427393,39.3658886],[27.1783263,39.3793937],[27.2176737,39.3680306],[27.2179413,39.345101],[27.2248119,39.3398704],[27.2382402,39.3513402],[27.2739458,39.3561187],[27.2936547,39.3765398],[27.3141789,39.3748148],[27.3288345,39.3831327],[27.3534786,39.3753373],[27.3765324,39.3854872],[27.4019283,39.3705534],[27.4078953,39.3287954],[27.4389714,39.3183711],[27.4417019,39.3099625],[27.4635136,39.3068827],[27.4681592,39.2974763],[27.4619472,39.2908837],[27.480433,39.2680786],[27.4696273,39.2239688],[27.4795747,39.1998766],[27.4485254,39.1855579],[27.4550915,39.1728749],[27.4381184,39.1666033],[27.4392986,39.1577189],[27.5054364,39.1306077],[27.4950242,39.1162851],[27.5223183,39.0913665],[27.5223613,39.0677553],[27.5305152,39.0662142],[27.5392592,39.0453027],[27.5638497,39.0260269],[27.5518656,39.0173248],[27.5451493,39.0295358],[27.5309443,39.0324944],[27.4690604,38.9905034],[27.4646278,38.9646924],[27.4720358,38.9497267],[27.4548363,38.9302075],[27.402247,38.9229339],[27.393894,38.9428385],[27.3462587,38.9512557],[27.3337805,38.9171448],[27.3177489,38.9108001],[27.3139,38.9265812],[27.3012936,38.9280919],[27.2734308,38.9221073],[27.2664142,38.9035244],[27.2304303,38.9031854],[27.2286486,38.8769856],[27.2352576,38.8686327],[27.224459,38.8518322],[27.1885643,38.8803106],[27.1686691,38.8743712],[27.1587235,38.8530729],[27.1718931,38.8455571],[27.1845645,38.8211782],[27.1127128,38.8002195],[27.1394974,38.7677415],[27.1484506,38.7437914],[27.1811306,38.7226005],[27.2043187,38.7249054],[27.2235417,38.7117683],[27.2230344,38.690348],[27.2021431,38.691284],[27.2026315,38.6819322],[27.2287568,38.669992],[27.2399461,38.6495854],[27.2277551,38.6408477],[27.2429936,38.5757036],[27.275578,38.5535623],[27.2860689,38.5515077],[27.2903037,38.5580714],[27.3053654,38.5429294],[27.3339536,38.5424949],[27.3503754,38.5339925],[27.3733,38.5401],[27.3956,38.5596],[27.4511,38.549],[27.5138,38.4817],[27.5377,38.473],[27.5478,38.4536],[27.5936192,38.4714404],[27.6189045,38.5048312],[27.6396167,38.492945],[27.6343757,38.4880198],[27.6538601,38.4718446],[27.700128,38.4500841],[27.7171044,38.38605],[27.7091809,38.3654152],[27.7357108,38.3627263],[27.7550348,38.3286978],[27.7613216,38.3367015],[27.7962213,38.3387937],[27.8178696,38.3066878],[27.8276288,38.3053031],[27.8343772,38.3138652],[27.8588808,38.3080215],[27.8682869,38.3300832],[27.8883902,38.3396872],[27.8875612,38.3501201],[27.8683877,38.3628166],[27.8664565,38.3816328],[27.9141022,38.4148067],[27.9098629,38.4185745],[27.9211006,38.4184153],[27.9235773,38.4035467],[27.9706096,38.3769484],[28.0000534,38.3773683],[28.0212362,38.3921181],[28.0323712,38.3855733],[28.050631,38.4007367],[28.0816481,38.3993582],[28.0830177,38.406907],[28.1170485,38.3748817],[28.143408,38.3616259],[28.1573305,38.3586172],[28.1684267,38.3677924],[28.1890301,38.3688366],[28.1932999,38.3476997],[28.2118656,38.3402993],[28.205949,38.3211139],[28.2108103,38.313258],[28.2337785,38.3297624],[28.2508871,38.3173063],[28.2839907,38.311705],[28.3129178,38.3221936],[28.356534,38.2980655],[28.3671899,38.2752967],[28.379488,38.2680221],[28.3735026,38.2552914],[28.4052216,38.2672501],[28.4657901,38.2593999],[28.4876346,38.2465897],[28.4930754,38.2281612],[28.486283,38.1968993],[28.4334192,38.1757605],[28.4636885,38.1559911],[28.4619633,38.1395071],[28.4850677,38.1225949],[28.4684354,38.1041449],[28.4360706,38.0877267],[28.4000927,38.1001811],[28.389911,38.1114843],[28.3754405,38.1078114],[28.3660293,38.1292952],[28.3316529,38.1222475],[28.331786,38.1010159],[28.3092254,38.092224],[28.3011688,38.0779587],[28.3097564,38.0547847],[28.2928689,38.0548346],[28.279297,38.0332154],[28.2350115,38.0353813],[28.2115498,38.0444983],[28.1894127,38.0371088],[28.1581521,38.0492739],[28.1511241,38.0283902],[28.1414192,38.0224544],[28.102169,38.0312928],[28.0728788,38.0266692],[28.0515845,38.0389644],[28.0364755,38.0206316],[28.0331174,38.0019617],[28.0176129,37.9949818],[28.0182926,37.9820507],[28.0070999,37.9811459],[28.0073733,37.9657834],[27.9658938,37.9994117],[27.900342,37.9933131],[27.9062192,38.0149138],[27.8796,38.0123144],[27.8767562,37.9909881],[27.8561329,37.9704221],[27.8430734,37.9784123],[27.8135847,37.9627746],[27.7782435,37.9751802],[27.7553487,37.9491681],[27.7332044,37.9812214],[27.7228993,37.975699],[27.6940007,37.9824256],[27.6529822,37.9624801],[27.6226893,37.9722983],[27.6223027,38.0074621],[27.5240417,38.0077742],[27.5090146,37.9982933],[27.4987364,37.9769676],[27.4847857,37.9781635],[27.473191,37.9665139],[27.4928336,37.9589889],[27.4947834,37.937718],[27.5020505,37.9374906],[27.456023,37.9264864],[27.4591757,37.8962961],[27.4256515,37.8772585],[27.4379897,37.8657742],[27.4405581,37.8386567],[27.3897385,37.8152305],[27.3743731,37.8377336],[27.3916894,37.8510267],[27.3786807,37.8781223],[27.3718572,37.8708518],[27.3580545,37.8809507],[27.3169015,37.8722099],[27.2715964,37.9220023],[27.276992,37.927762],[27.2710541,37.950046],[27.2385675,37.9857582],[27.2058897,37.9926338],[27.1671853,37.9812715],[27.118946,37.9923095],[27.0973863,38.0165325],[27.0759366,38.0124732],[27.0680685,38.0338826],[27.0464191,38.0500532],[27.0178024,38.0546451],[26.9768561,38.075159],[26.9398807,38.0740538],[26.8975761,38.0612079],[26.8718495,38.0301752],[26.8649885,38.0325553],[26.8679878,38.0396976],[26.8573517,38.0462059],[26.8458723,38.0720047],[26.8511729,38.1017439],[26.8333128,38.1247963],[26.8365687,38.131932],[26.8196849,38.1438807],[26.8242955,38.1583985],[26.797016,38.1730925],[26.7747343,38.1616308],[26.7746486,38.1743551],[26.7676398,38.1757947],[26.7723967,38.1969515],[26.7827682,38.1907068],[26.7888643,38.1992503],[26.7571887,38.2220861],[26.7451589,38.2129172],[26.7359272,38.2163264],[26.7326001,38.2073602],[26.6966385,38.2114957],[26.686423,38.2024391],[26.6784305,38.2117782],[26.6745303,38.2047125],[26.6530521,38.2102602],[26.6452637,38.2022478],[26.6358604,38.2079421],[26.6235526,38.1383869],[26.6068691,38.1394978],[26.6014038,38.147111],[26.6070688,38.1348414],[26.6128122,38.1352991],[26.6143877,38.1134699],[26.6044609,38.1032557],[26.5835889,38.1085966],[26.5842677,38.1260189],[26.5714561,38.1438707],[26.5624625,38.143804],[26.5666851,38.1270327],[26.5605698,38.1179912],[26.5437376,38.1202502],[26.5413551,38.1303969],[26.5313162,38.128117],[26.5327667,38.1390661],[26.5215671,38.1422692],[26.5238579,38.1553469],[26.5124038,38.1676218],[26.5202944,38.1652204],[26.5182498,38.1878529],[26.5057859,38.1757261],[26.5010345,38.1836628],[26.4967981,38.1777051],[26.487486,38.1828774],[26.4908481,38.1954136],[26.4582646,38.1917204],[26.4620007,38.2038695],[26.451752,38.2015062],[26.4514768,38.2090042],[26.4390059,38.2129544],[26.4430643,38.2184427],[26.4298089,38.2221662],[26.4189621,38.2203903],[26.4310851,38.1987118]]],[[[26.4498355,38.3675224],[26.4561295,38.3598701],[26.4460997,38.3644553],[26.4498355,38.3675224]]],[[[26.467763,38.372197],[26.4668765,38.3723415],[26.467564,38.372614],[26.467763,38.372197]]],[[[26.4769842,38.3761108],[26.4774348,38.3756003],[26.4768978,38.3760669],[26.4769842,38.3761108]]],[[[26.4702711,38.3760368],[26.4697471,38.3763981],[26.4700402,38.3766196],[26.4702711,38.3760368]]],[[[26.4660564,38.3821878],[26.4656592,38.3796773],[26.465583,38.3806044],[26.4660564,38.3821878]]],[[[26.4581311,38.3787902],[26.4590054,38.3802073],[26.4594117,38.3793759],[26.4581311,38.3787902]]],[[[26.4488382,38.3903165],[26.4495469,38.3861746],[26.4477859,38.3890498],[26.4488382,38.3903165]]],[[[26.4289563,38.3883288],[26.4285811,38.3890756],[26.4287941,38.3891602],[26.4289563,38.3883288]]],[[[26.4293332,38.3913089],[26.4281669,38.390164],[26.4289882,38.391834],[26.4293332,38.3913089]]],[[[26.44688,38.3915076],[26.4494148,38.3951689],[26.4491117,38.3929926],[26.44688,38.3915076]]],[[[26.4670282,38.3881125],[26.4625433,38.4013537],[26.4650667,38.402426],[26.4670282,38.3881125]]],[[[26.4492301,38.3979261],[26.4498811,38.3985372],[26.4496295,38.3976986],[26.4492301,38.3979261]]],[[[26.4601244,38.4048355],[26.4598039,38.4045115],[26.4598061,38.4047317],[26.4601244,38.4048355]]],[[[26.3108182,38.4151735],[26.3151044,38.4174726],[26.315394,38.4161108],[26.3108182,38.4151735]]],[[[26.3071328,38.4230309],[26.3091364,38.42268],[26.3103756,38.4193934],[26.3071328,38.4230309]]],[[[26.3233448,38.4229279],[26.3240442,38.4232242],[26.3239154,38.4225056],[26.3233448,38.4229279]]],[[[26.3652949,38.4279781],[26.3658062,38.427534],[26.3652147,38.4268679],[26.3652949,38.4279781]]],[[[26.3728966,38.4271883],[26.3867623,38.4348627],[26.3885218,38.4224782],[26.3728966,38.4271883]]],[[[26.3679922,38.4275802],[26.3690945,38.4380562],[26.373378,38.4347913],[26.3679922,38.4275802]]],[[[26.8327764,38.1256215],[26.830078,38.1242153],[26.830084,38.1267606],[26.8327764,38.1256215]]],[[[26.8031104,38.1501362],[26.802345,38.1499299],[26.8029517,38.1506471],[26.8031104,38.1501362]]],[[[26.8029924,38.151961],[26.8031487,38.1528683],[26.8033283,38.1529963],[26.8029924,38.151961]]],[[[26.8014236,38.1576676],[26.8039189,38.1620542],[26.8047503,38.1627047],[26.8043644,38.1627143],[26.8053761,38.1638801],[26.8054068,38.1620206],[26.8014236,38.1576676]]],[[[26.8036404,38.1627083],[26.8043929,38.1625754],[26.8033335,38.1625526],[26.8036404,38.1627083]]],[[[26.6746257,38.3292737],[26.6780681,38.3337719],[26.6792613,38.3302703],[26.6746257,38.3292737]]],[[[26.7839523,38.3948496],[26.7917554,38.3961461],[26.7853899,38.3932002],[26.7839523,38.3948496]]],[[[26.4903332,38.4055129],[26.4928476,38.4048496],[26.4900817,38.4035097],[26.4903332,38.4055129]]],[[[26.7734232,38.4088593],[26.7701163,38.4045451],[26.7683281,38.4104333],[26.7734232,38.4088593]]],[[[26.7958664,38.4149804],[26.7988923,38.4071057],[26.793507,38.4067805],[26.7921533,38.4100416],[26.7958664,38.4149804]]],[[[26.7822161,38.4184974],[26.7846886,38.4149732],[26.7806545,38.4167797],[26.7822161,38.4184974]]],[[[26.9462016,38.9321771],[26.9451954,38.9324558],[26.944597,38.9338245],[26.9462016,38.9321771]]],[[[26.7966988,38.9978355],[26.7926799,39.0079694],[26.7987485,39.0109982],[26.7966988,38.9978355]]],[[[27.0488214,38.4125615],[27.0516526,38.4126637],[27.0518999,38.4124457],[27.0488214,38.4125615]]]]}}]}