{"type":"FeatureCollection","features":[{"type":"Feature","properties":{"slug":"jacksonville","member_count":38,"matched_count":38,"unmatched":[],"source":"Overture Maps division_area (CC-BY 4.0)"},"geometry":{"type":"MultiPolygon","coordinates":[[[[-81.434182,29.397027],[-81.450685,29.378519],[-81.680903,29.32443],[-81.675403,29.338646],[-81.656325,29.337968],[-81.668525,29.371704],[-81.741422,29.371049],[-81.74183,29.42994],[-81.774905,29.429249],[-81.7760977,29.4872724],[-81.8426875,29.4861852],[-81.8430862,29.5211926],[-81.887622,29.509214],[-81.901689,29.515955],[-81.912051,29.503906],[-81.931601,29.516458],[-81.963956,29.503847],[-82.00377,29.501633],[-82.031973,29.492265],[-82.055899,29.471232],[-82.056071,29.656846],[-82.049052,29.713368],[-82.055584,29.7183637],[-82.0493219,29.718434],[-82.0461187,29.7474543],[-82.0493907,30.1431434],[-82.458364,30.136449],[-82.459793,30.584267],[-82.2147,30.568481],[-82.234065,30.557749],[-82.2403157,30.5377855],[-82.225072,30.50769],[-82.201307,30.4851783],[-82.2108734,30.425379],[-82.1928437,30.3789541],[-82.1616859,30.3572642],[-82.126556,30.3684046],[-82.1049583,30.368995],[-82.0656341,30.3556558],[-82.0420162,30.3654799],[-82.035861,30.384875],[-82.0439171,30.4148566],[-82.0335929,30.4276285],[-82.0400205,30.4366332],[-82.0167996,30.4755062],[-82.0192183,30.5328234],[-82.0051282,30.5636278],[-82.0157737,30.6018797],[-82.0274161,30.6067034],[-82.0282296,30.6223552],[-82.049273,30.6555704],[-82.0503648,30.6759464],[-82.0360118,30.7064746],[-82.0456277,30.7276616],[-82.0391272,30.750224],[-82.011661,30.7616415],[-82.0239144,30.7837098],[-82.0172733,30.7913663],[-81.9734371,30.7789857],[-81.9620365,30.7974374],[-81.964237,30.817928],[-81.9497482,30.8280238],[-81.9384438,30.8300837],[-81.9286595,30.8175059],[-81.9042044,30.818548],[-81.89212,30.910004],[-81.896278,30.904818],[-81.906219,30.908799],[-81.90216,30.914991],[-81.915519,30.913462],[-81.891899,30.960243],[-81.913464,30.974555],[-81.917578,30.985858],[-81.914543,30.99608],[-81.907354,30.995817],[-81.911453,31.010948],[-81.904701,31.037184],[-81.935829,31.047617],[-81.936927,31.060495],[-81.926078,31.061224],[-81.927351,31.079311],[-81.915883,31.095281],[-81.840671,31.097665],[-81.818821,31.136774],[-81.801463,31.151188],[-81.7907208,31.1460555],[-81.766322,31.169595],[-81.762458,31.153261],[-81.72229,31.148718],[-81.686225,31.122419],[-81.662078,31.12554],[-81.632881,31.107793],[-81.620399,31.117023],[-81.580215,31.11544],[-81.562606,31.130285],[-81.557929,31.121363],[-81.571952,31.094183],[-81.556297,31.080603],[-81.534554,31.081517],[-81.526565,31.063194],[-81.492668,31.05464],[-81.483802,31.033077],[-81.452522,31.03639],[-81.426895,30.991634],[-81.304779,30.985712],[-81.312126,30.954456],[-81.345207,30.931503],[-81.362682,30.845926],[-81.400482,30.766426],[-81.359146,30.744314],[-81.3470257,30.7123887],[-81.451241,30.709484],[-81.4740761,30.7139662],[-81.4872465,30.7262984],[-81.5312951,30.7244349],[-81.53388515539312,30.715512942197524],[-81.530922,30.7224779],[-81.4993008,30.721194],[-81.5020179,30.7105519],[-81.5191133,30.7109424],[-81.5194849,30.699013],[-81.5283216,30.702528],[-81.548865,30.6937579],[-81.5561533,30.7080844],[-81.5822712,30.7046583],[-81.5822712,30.7143328],[-81.5639597831227,30.71434868951459],[-81.56581413418886,30.718291745444635],[-81.5849424,30.7148067],[-81.5837196,30.7039376],[-81.5603774,30.7075172],[-81.5580921,30.6948569],[-81.566904,30.6979291],[-81.5620164,30.6931195],[-81.5419405,30.6867653],[-81.5406436,30.6932096],[-81.5202233,30.6751365],[-81.5268454,30.6677289],[-81.5207642,30.6667073],[-81.523916,30.6231037],[-81.5134074,30.6650992],[-81.5056443,30.6669906],[-81.495532,30.6534542],[-81.5049048,30.6664648],[-81.4838233,30.6745013],[-81.4873272,30.6451144],[-81.510286,30.6336732],[-81.5023134,30.622907],[-81.503707,30.6321589],[-81.4905087,30.6395525],[-81.4883423,30.630329],[-81.4967155,30.6282374],[-81.4827224,30.6243176],[-81.4929784,30.6227348],[-81.4875663,30.6197023],[-81.494927,30.6104987],[-81.5022762,30.6146842],[-81.4824743,30.5958307],[-81.4987764,30.5805724],[-81.4959647,30.5657429],[-81.5172602,30.5686267],[-81.5345229,30.559879],[-81.5291551,30.5574198],[-81.5384521,30.5486965],[-81.5338436,30.5453454],[-81.5358284,30.5460844],[-81.5354635,30.544154],[-81.5386042,30.5460611],[-81.5394303,30.544435],[-81.5345635,30.5432402],[-81.5355407,30.5458858],[-81.5345853,30.5437541],[-81.533281,30.5442913],[-81.5335711,30.5483787],[-81.538102,30.5487516],[-81.5287643,30.5567916],[-81.5231572,30.5444537],[-81.5298709,30.5305426],[-81.5418414,30.5258127],[-81.5467709,30.5454676],[-81.55117406355981,30.543891125354495],[-81.544871,30.525299],[-81.533569,30.525828],[-81.525924,30.532383],[-81.520165,30.544595],[-81.522622,30.559982],[-81.513683,30.567408],[-81.496043,30.562138],[-81.484939,30.53868],[-81.47233085006249,30.530397557725195],[-81.479787,30.533708],[-81.433697,30.506566],[-81.358793,30.501504],[-81.353574,30.44666],[-81.319799,30.416465],[-81.317461,30.394077],[-81.335381,30.361292],[-81.33538,30.337771],[-81.317928,30.252939],[-81.37853418728326,30.252856163207756],[-81.309897,29.973241],[-81.2691676,29.8738093],[-81.2549356,29.7801205],[-81.21085435086047,29.670637560706957],[-81.24726,29.659093],[-81.261018,29.669076],[-81.274466,29.652681],[-81.30074,29.651216],[-81.307658,29.64218],[-81.324345,29.653478],[-81.324059,29.62561],[-81.52366,29.622432],[-81.519914,29.494897],[-81.487594,29.448251],[-81.477493,29.397152],[-81.456292,29.389652],[-81.434182,29.397027]],[[-81.5375435,30.7085722],[-81.5484076,30.7181477],[-81.56111120043867,30.711649101476485],[-81.5498776,30.7164886],[-81.5375435,30.7085722]],[[-81.6594300913229,30.562915877427407],[-81.6593974,30.5631292],[-81.65946356370368,30.563375451665323],[-81.6594300913229,30.562915877427407]],[[-81.657323,30.568496],[-81.6250221,30.5862095],[-81.6156559662542,30.58012940353468],[-81.6137694,30.5804618],[-81.6112015859524,30.58291924114088],[-81.6253257,30.5869176],[-81.657323,30.568496]],[[-81.6052005,30.5854507],[-81.6108932,30.577158],[-81.610816,30.5761563],[-81.60845449216535,30.574890342457817],[-81.6052005,30.5854507]],[[-81.6003749,30.5680652],[-81.60133657440613,30.568877563382387],[-81.60136816130905,30.56768308145716],[-81.6003749,30.5680652]],[[-81.60439644789179,30.56651806632393],[-81.6141856,30.5631788],[-81.6141096,30.561559],[-81.610228,30.554786],[-81.606822,30.5535573],[-81.5819917,30.5677108],[-81.5955835,30.5732304],[-81.5874934,30.5778001],[-81.5976964,30.5776066],[-81.5927763,30.5660483],[-81.6066786,30.5547174],[-81.6137309,30.562927],[-81.60439644789179,30.56651806632393]],[[-81.58477919003094,30.55819618696364],[-81.5886111,30.5483892],[-81.585319,30.54435],[-81.577122,30.538574],[-81.5680509,30.5368274],[-81.56289651374242,30.539694109903],[-81.5876797,30.5482958],[-81.58477919003094,30.55819618696364]]],[[[-81.5252442,30.6919353],[-81.5147839,30.6881991],[-81.5303969,30.6884942],[-81.5252442,30.6919353]]],[[[-81.4896613,30.7067103],[-81.4888302,30.7168534],[-81.4920067,30.7195028],[-81.4891126,30.7177748],[-81.486705,30.7125329],[-81.4896613,30.7067103]]],[[[-81.4959591,30.5710915],[-81.4865336,30.5716785],[-81.4838659,30.5768079],[-81.4706168,30.5578712],[-81.4665265,30.5328038],[-81.4959591,30.5710915]]],[[[-81.4968747,30.5803471],[-81.4884569,30.5884103],[-81.4888422,30.5795816],[-81.4726291,30.5761876],[-81.4775493,30.5694249],[-81.4828846,30.5776422],[-81.4887533,30.5727681],[-81.4968747,30.5803471]]],[[[-81.4669331,30.5880746],[-81.4706219,30.5785118],[-81.4878919,30.5813266],[-81.4859637,30.5877138],[-81.4669331,30.5880746]]],[[[-81.4801807,30.6075154],[-81.4894444,30.6118085],[-81.4821436,30.6190988],[-81.4801807,30.6075154]]],[[[-81.4873751,30.6946342],[-81.487587,30.7001312],[-81.4857771,30.6997147],[-81.4873751,30.6946342]]],[[[-81.4820786,30.5447383],[-81.4690073,30.5308506],[-81.4793221,30.5361864],[-81.4820786,30.5447383]]],[[[-81.4702865,30.5754803],[-81.4645857,30.5834557],[-81.4709153,30.5728097],[-81.4702865,30.5754803]]],[[[-81.4831757,30.6619728],[-81.4660776,30.6676804],[-81.454246,30.6921667],[-81.4393288,30.6686839],[-81.4449616,30.6870307],[-81.452765,30.6926266],[-81.4592947,30.6910809],[-81.4598684,30.7034109],[-81.4260279,30.7008928],[-81.4422007,30.594055],[-81.4360887,30.5145137],[-81.4579163,30.5340353],[-81.4539204,30.5344214],[-81.4506493,30.5421014],[-81.454271,30.5345081],[-81.4613663,30.5388065],[-81.4522312,30.5469548],[-81.4625345,30.5505053],[-81.4572569,30.5551261],[-81.4629002,30.5506485],[-81.460055,30.5409044],[-81.4638501,30.5412584],[-81.4679038,30.5630182],[-81.4624011,30.5664576],[-81.4709343,30.5677614],[-81.461615,30.5726906],[-81.4622923,30.5942429],[-81.4735076,30.6112224],[-81.4770287,30.6028752],[-81.4804126,30.6206025],[-81.4728785,30.6264334],[-81.4805127,30.6218787],[-81.4840669,30.6298572],[-81.4766847,30.6328279],[-81.4844568,30.6304751],[-81.487604,30.6404156],[-81.4654653,30.6447263],[-81.4730332,30.648149],[-81.4707383,30.6548342],[-81.4832899,30.6456199],[-81.4831757,30.6619728]]],[[[-81.4792795,30.6700331],[-81.4749863,30.6691112],[-81.479044,30.6682719],[-81.4792795,30.6700331]]],[[[-81.4637154,30.6871224],[-81.4825524,30.7053129],[-81.4720522,30.6977239],[-81.4637154,30.6871224]]]]}}]}