{"type":"FeatureCollection","features":[{"type":"Feature","properties":{"slug":"jackson-mi","member_count":29,"matched_count":2,"unmatched":["Blackman charter township (US-MI, type='Township')","Summit township (US-MI, type='Township')","Leoni township (US-MI, type='Township')","Spring Arbor township (US-MI, type='Township')","Napoleon township (US-MI, type='Township')","Balance of Columbia township (US-MI, type='Balance')","Balance of Grass Lake charter township (US-MI, type='Balance')","Rives township (US-MI, type='Township')","Henrietta township (US-MI, type='Township')","Balance of Sandstone township (US-MI, type='Balance')","Balance of Hanover township (US-MI, type='Balance')","Liberty township (US-MI, type='Township')","Waterloo township (US-MI, type='Township')","Norvell township (US-MI, type='Township')","Tompkins township (US-MI, type='Township')","Balance of Parma township (US-MI, type='Balance')","Pulaski township (US-MI, type='Township')","Balance of Concord township (US-MI, type='Balance')","Brooklyn village (US-MI, type='Village')","Balance of Springport township (US-MI, type='Balance')","Grass Lake village (US-MI, type='Village')","Concord village (US-MI, type='Village')","Springport village (US-MI, type='Village')","Parma village (US-MI, type='Village')","Hanover village (US-MI, type='Village')","Parma village (US-MI, type='Village')","Cement City village (US-MI, type='Village')"],"source":"Overture Maps division_area (CC-BY 4.0)"},"geometry":{"type":"Polygon","coordinates":[[[-84.131963,42.071577],[-84.7096133,42.0703289],[-84.7184119,42.4214936],[-84.131136,42.424567],[-84.131963,42.071577]]]}}]}