{"type": "FeatureCollection", "features": [{"type": "Feature", "properties": {"slug": "jackson-wy", "members": 2, "country": "United States", "input_hash": "dbee61a32f70ef70"}, "geometry": {"type": "Polygon", "coordinates": [[[-111.045473, 43.501051], [-111.067784, 43.526143], [-111.103897, 43.52382], [-111.143501, 43.546657], [-111.207561, 43.543857], [-111.218138, 43.558334], [-111.215238, 43.573827], [-111.226346, 43.590126], [-111.226081, 43.606378], [-111.243839, 43.621853], [-111.399765, 43.621976], [-111.398781, 43.92289], [-111.354543, 43.948104], [-111.348155, 43.938265], [-111.333326, 43.939259], [-111.325196, 43.923513], [-111.308826, 43.919173], [-111.236044, 43.949077], [-111.217281, 43.939489], [-111.204401, 43.943679], [-111.202377, 43.934351], [-111.187256, 43.932114], [-111.113677, 43.968572], [-111.0473068484313, 43.98339744841333], [-111.053384, 44.6665178], [-110.667867, 44.666291], [-110.667899, 44.582792], [-110.375334, 44.583016], [-110.372719, 44.570868], [-110.384504, 44.563845], [-110.333455, 44.547717], [-110.315625, 44.5561], [-110.292234, 44.544804], [-110.298469, 44.530092], [-110.276498, 44.516384], [-110.296296, 44.430419], [-110.278024, 44.413945], [-110.260043, 44.409449], [-110.253853, 44.389783], [-110.228784, 44.374722], [-110.225334, 44.338799], [-110.202513, 44.327763], [-110.203183, 44.313291], [-110.209803, 44.314381], [-110.203842, 44.30561], [-110.189267, 44.300374], [-110.182115, 44.309425], [-110.183436, 44.301906], [-110.16221, 44.299043], [-110.144793, 44.283187], [-110.141163, 44.274034], [-110.150532, 44.270509], [-110.139942, 44.263222], [-110.143376, 44.253988], [-110.131745, 44.249952], [-110.138026, 44.236837], [-110.132957, 44.225563], [-110.123667, 44.211487], [-110.114938, 44.216496], [-110.109745, 44.210114], [-110.123519, 44.203768], [-110.108851, 44.19334], [-110.123774, 44.192474], [-110.114469, 44.18949], [-110.11761, 44.181201], [-110.105395, 44.1846], [-110.122834, 44.175012], [-110.116108, 44.168171], [-110.127823, 44.159158], [-110.119596, 44.132578], [-110.053357, 44.132628], [-110.056688, 43.378286], [-110.344031, 43.378006], [-110.343959, 43.291165], [-110.57838, 43.29164], [-110.5784522, 43.2347394], [-110.813993, 43.235178], [-110.813988, 43.315906], [-111.044617, 43.31572], [-111.04714507357538, 43.98004249011278], [-111.045473, 43.501051]]]}}]}