{"type": "FeatureCollection", "features": [{"type": "Feature", "properties": {"slug": "jaffna", "members": 1, "country": "Sri Lanka", "input_hash": "be5b8e89ef9faf59"}, "geometry": {"type": "MultiPolygon", "coordinates": [[[[79.5300863, 9.3887799], [79.524168, 9.3846173], [79.5230328, 9.393009], [79.5300863, 9.3887799]]], [[[79.7044977, 9.4759684], [79.6549922, 9.5052038], [79.6515086, 9.5487468], [79.6596306, 9.5560936], [79.6922388, 9.5313647], [79.7237445, 9.5270413], [79.7291059, 9.4826641], [79.7200497, 9.4744148], [79.7044977, 9.4759684]]], [[[79.791979, 9.5838477], [79.7966371, 9.5923613], [79.800717, 9.5790581], [79.791979, 9.5838477]]], [[[79.792648, 9.5894677], [79.7913801, 9.5953872], [79.7972472, 9.5947159], [79.792648, 9.5894677]]], [[[79.8106217, 9.5986666], [79.8051518, 9.6018268], [79.8129884, 9.6272041], [79.8169872, 9.6209444], [79.8206702, 9.6255452], [79.8229002, 9.6097926], [79.8415866, 9.607897], [79.8474421, 9.6179316], [79.8642034, 9.6030809], [79.861385, 9.571103], [79.8430382, 9.5675483], [79.8031626, 9.5775477], [79.8106217, 9.5986666]]], [[[79.763483, 9.5897138], [79.7627635, 9.6133544], [79.7705921, 9.6220471], [79.7738677, 9.5846116], [79.763483, 9.5897138]]], [[[79.8520231, 9.6340761], [79.8610862, 9.6168158], [79.8538524, 9.6239903], [79.8520231, 9.6340761]]], [[[79.7760743, 9.6440485], [79.7739676, 9.6517783], [79.7771606, 9.6508701], [79.7760743, 9.6440485]]], [[[79.7640954, 9.6604953], [79.7830693, 9.687134], [79.7869883, 9.6657591], [79.7693193, 9.6512239], [79.7640954, 9.6604953]]], [[[79.7934259, 9.6779884], [79.7910853, 9.6849659], [79.7936335, 9.6883151], [79.7934259, 9.6779884]]], [[[79.8141906, 9.7157182], [79.812999, 9.689757], [79.8075674, 9.6952055], [79.8141906, 9.7157182]]], [[[79.8632262, 9.7619866], [79.9018876, 9.7668335], [79.8918964, 9.7636646], [79.8972565, 9.753948], [79.8883253, 9.7275777], [79.8926522, 9.7136683], [79.880254, 9.7036983], [79.8500276, 9.7126891], [79.8614165, 9.7268975], [79.8552403, 9.7463094], [79.8632262, 9.7619866]]], [[[79.9094757, 9.7471061], [79.9042415, 9.7482725], [79.9086122, 9.7499364], [79.9094757, 9.7471061]]], [[[80.19918697379693, 9.571970558812135], [80.19917371989347, 9.571974062747792], [80.199331, 9.5730753], [80.19918697379693, 9.571970558812135]]], [[[80.1858059, 9.5993152], [80.1932638, 9.5965965], [80.1850945, 9.5955902], [80.1858059, 9.5993152]]], [[[80.0028446, 9.6284667], [80.0075983, 9.6305342], [80.0009724, 9.603621], [79.9860612, 9.5971188], [79.9659607, 9.606264], [79.9649173, 9.611294], [79.9773869, 9.6050474], [79.9849936, 9.6123068], [79.9871019, 9.6349289], [80.0028446, 9.6284667]]], [[[80.0028768, 9.6298443], [79.9992362, 9.6349434], [80.0056869, 9.6333396], [80.0028768, 9.6298443]]], [[[79.9918038, 9.6413163], [80.0004204, 9.6364163], [79.9909481, 9.6413057], [79.9918038, 9.6413163]]], [[[80.005825, 9.6382621], [79.9928407, 9.6430606], [80.0031884, 9.6430378], [80.005825, 9.6382621]]], [[[79.9931496, 9.6341043], [79.9844706, 9.6430721], [79.9951897, 9.6481204], [79.9996264, 9.6456543], [79.9950827, 9.6475812], [79.9900812, 9.641573], [79.9931496, 9.6341043]]], [[[80.16836272882958, 9.64487088768438], [80.17122447068614, 9.641575164071767], [80.1679444, 9.6391532], [80.16836272882958, 9.64487088768438]]], [[[80.0071522, 9.6479274], [80.0138094, 9.641544], [80.0028445, 9.6486308], [80.0071522, 9.6479274]]], [[[80.4548269, 9.5399056], [80.4469671, 9.5748349], [80.4006023, 9.6110191], [80.3321095, 9.6494583], [80.2954617, 9.6913193], [80.25295450203012, 9.612274660994318], [80.1629113, 9.6554869], [80.1563519, 9.6451003], [80.1623245, 9.6360395], [80.1726919, 9.6367019], [80.1716834, 9.6224406], [80.1593426, 9.6238792], [80.1768064, 9.6152555], [80.173223, 9.6031407], [80.1805079, 9.6031936], [80.1850355, 9.595048], [80.2082929, 9.5858682], [80.1996314, 9.5750358], [80.1488648, 9.6187182], [80.0697656, 9.6646202], [80.0802833, 9.6417292], [80.1342485, 9.6083132], [80.0981445, 9.6183041], [80.0491063, 9.649262], [80.0194345, 9.6500226], [80.0034113, 9.6603829], [79.9978778, 9.6880817], [79.9881918, 9.6919367], [79.9799687, 9.6853186], [79.965619, 9.7070559], [79.9546484, 9.6885222], [79.9397504, 9.6929471], [79.9255779, 9.7385507], [79.90637, 9.7580799], [79.9075555, 9.7714448], [79.9734199, 9.8063978], [80.0363634, 9.8177752], [80.0266915, 9.8228927], [80.1006719, 9.80884], [80.1397598, 9.8252764], [80.21193, 9.8358107], [80.2504495, 9.8268113], [80.2824882, 9.7679027], [80.359776, 9.6667432], [80.62108677839285, 9.459322963028663], [80.6011039, 9.4592134], [80.4725246, 9.5212044], [80.4548269, 9.5399056]]], [[[79.907793, 9.6171318], [79.8689707, 9.6390065], [79.840723, 9.7025268], [79.8637296, 9.7031838], [79.8732193, 9.6930882], [79.8855574, 9.6996239], [79.8999978, 9.6838819], [79.8995358, 9.6704608], [79.9304777, 9.6814832], [79.9321488, 9.6662804], [79.9243368, 9.6630612], [79.9326758, 9.6631696], [79.9242309, 9.659715], [79.9675304, 9.6325992], [79.984535, 9.6351087], [79.9758044, 9.6133977], [79.9222548, 9.6331578], [79.907793, 9.6171318]]], [[[79.9345946, 9.6731799], [79.9375038, 9.6738327], [79.9354067, 9.6707939], [79.9345946, 9.6731799]]]]}}]}