{"type": "FeatureCollection", "features": [{"type": "Feature", "properties": {"slug": "jakobstad", "members": 1, "country": "Finland", "input_hash": "d042f72f95386410"}, "geometry": {"type": "MultiPolygon", "coordinates": [[[[22.4975047, 63.7381741], [22.6736613, 63.7104252], [22.6993425, 63.7205529], [22.7313976, 63.7139837], [22.7397039, 63.6993623], [22.7446063, 63.7048728], [22.7505538, 63.7014602], [22.7457337, 63.6984181], [22.7862379, 63.6950665], [22.8234406, 63.6628983], [22.8199875, 63.6515346], [22.8042724, 63.6467501], [22.8177579, 63.6380346], [22.7834556, 63.6422112], [22.7590898, 63.6635467], [22.7334601, 63.6663466], [22.7297906, 63.6578429], [22.6849402, 63.6449127], [22.6749639, 63.6502125], [22.6134211, 63.6219827], [22.5997988, 63.6288457], [22.5781274, 63.6147272], [22.5246366, 63.6121018], [22.5186221, 63.6223728], [22.3795777, 63.665746], [21.9787569, 63.7599523], [22.0965521, 63.8329791], [22.4975047, 63.7381741]]], [[[22.580239, 63.7278488], [22.5762505, 63.729318], [22.5816197, 63.7302746], [22.580239, 63.7278488]]], [[[22.5816419, 63.7594081], [22.5862607, 63.7685992], [22.6036442, 63.7666234], [22.5957483, 63.7552499], [22.5816419, 63.7594081]]]]}}]}