{"type": "FeatureCollection", "features": [{"type": "Feature", "properties": {"slug": "jamba", "members": 1, "country": "Angola", "input_hash": "37c28f5c7d2ac9ee"}, "geometry": {"type": "Polygon", "coordinates": [[[16.347339880844288, -15.208851386944161], [16.357142485282097, -15.203912190712856], [16.29711069438008, -15.124564346225384], [16.278570181910595, -15.031472869924585], [16.267445873992756, -15.006402827613954], [16.252613464080753, -14.999239418412117], [16.252613464080753, -14.977747750465937], [16.27115397665341, -14.95983637939537], [16.27115397665341, -14.924009149894346], [16.226656746250853, -14.870257112796594], [16.215532438539242, -14.820076460322355], [16.219240541156523, -14.77705521367102], [16.245197258926737, -14.730439246219134], [16.23778105360526, -14.669464859673326], [16.204408130557056, -14.6300017873304], [16.16732710549678, -14.612061679615806], [16.145078489782406, -14.572588290641477], [16.122829874716388, -14.551054368882376], [16.02641920870576, -14.507980226998654], [16.0078786958274, -14.472078705076456], [16.015294901064294, -14.396666623245494], [16.056084029082797, -14.35715487698269], [16.078332644365503, -14.346377734814496], [16.11541366939491, -14.299670798380873], [16.119121772055735, -14.217011688796845], [16.074624541818366, -14.18825360151311], [16.05237592653566, -14.184658583820578], [16.011586798488224, -14.127130555507279], [15.98192197810073, -14.101957467563807], [15.922592337325852, -14.098361085075283], [15.881803208956399, -14.105553793343006], [15.85955459389038, -14.130726483949388], [15.77693806933462, -14.120082371506783], [15.727101170910146, -14.186815601423461], [15.665398344647883, -14.230526727423978], [15.636920117004081, -14.269629516026953], [15.577590476229432, -14.327121284046939], [15.41621385321406, -14.435165887749633], [15.361630584055831, -14.446656915925814], [15.329640041761195, -14.424501682892128], [15.306857459711637, -14.467155435562574], [15.27344300603886, -14.48480286956584], [15.236990874759556, -14.520093523802416], [15.292808200689876, -14.595986099187485], [15.307047314511806, -14.646505391191624], [15.309420499999021, -14.722262494062875], [15.33315235649394, -14.777342050226252], [15.366376955286626, -14.800287746518507], [15.371123326261113, -14.841583880351209], [15.44231889537059, -14.937910824965911], [15.487409422323537, -14.944789671037768], [15.523007206907096, -14.965424887834558], [15.532499949276485, -15.004397097050287], [15.544365877578457, -15.020442414051615], [15.541992691948394, -15.038778442387468], [15.525380392537159, -15.047945865499344], [15.432826152523205, -15.073154244943566], [15.40197473939213, -15.089194386250085], [15.406721111029015, -15.123562040039872], [15.447065266345078, -15.144179958893176], [15.458931194679735, -15.176248285332974], [15.45570366243561, -15.40489109440864], [15.425326886275741, -15.461989815691311], [15.435958757582114, -15.483946675996947], [15.505706430014357, -15.49343551743442], [15.517944556609336, -15.476587108263686], [15.57738688564666, -15.436145330163072], [15.654312253281034, -15.419292261910755], [15.729489316815886, -15.38558202423286], [15.92879594996458, -15.392324508703723], [15.97774845649468, -15.409179764380497], [16.040687393333883, -15.414236074930272], [16.173558482615647, -15.409179764380497], [16.25558889725562, -15.354563784287393], [16.26789695582596, -15.334062241882805], [16.329437249899968, -15.27686310442715], [16.348458794872386, -15.246638390317116], [16.347339880844288, -15.208851386944161]]]}}]}