{"type": "FeatureCollection", "features": [{"type": "Feature", "properties": {"slug": "jamestown-sh", "members": 1, "country": "Saint Helena, Ascension and Tristan da Cunha", "input_hash": "3deb69a7742b88cf"}, "geometry": {"type": "Polygon", "coordinates": [[[-5.7464439, -16.0274459], [-5.7119476, -16.0025129], [-5.6746852, -16.0023227], [-5.6509661, -15.9759478], [-5.6363618, -15.9738926], [-5.6408948, -15.9596941], [-5.6343502, -15.9495642], [-5.6518972, -15.9364266], [-5.6573421, -15.9115726], [-5.6863906, -15.913471], [-5.7013325, -15.9044671], [-5.7119959, -15.9191236], [-5.7600353, -15.9498883], [-5.767048, -15.9704804], [-5.789768, -15.9962085], [-5.7588283, -16.0083266], [-5.7464439, -16.0274459]]]}}]}