{"type":"FeatureCollection","features":[{"type":"Feature","properties":{"slug":"jammu","member_count":1,"matched_count":1,"unmatched":["[recovered via metro-name fallback: Jammu]"],"source":"Overture Maps division_area (CC-BY 4.0)"},"geometry":{"type":"Polygon","coordinates":[[[75.2662228,34.6383125],[75.1765707,34.6437873],[75.1574278,34.6571365],[75.1202631,34.6476312],[75.0867461,34.6549567],[75.0617011,34.6386203],[75.0333957,34.6373447],[75.0251774,34.6289837],[74.9962162,34.6522252],[74.9838902,34.6456508],[74.93577,34.6726763],[74.8728936,34.6815788],[74.8419039,34.6733948],[74.7237203,34.6832316],[74.6508426,34.7059418],[74.5802199,34.761681],[74.5055037,34.7696774],[74.4786579,34.7794668],[74.4680367,34.7713609],[74.4484807,34.7823207],[74.4345687,34.773179],[74.3956982,34.7854894],[74.309727,34.7825041],[74.2414768,34.7270764],[74.1582914,34.6882429],[74.1447218,34.6710367],[74.1465895,34.6586085],[74.1141613,34.6645785],[74.107998,34.6798556],[74.0911142,34.6690842],[74.072176,34.6691946],[74.0298234,34.6831881],[73.9695011,34.6864939],[73.9530507,34.6707469],[73.9476099,34.6552058],[73.9533602,34.6489654],[73.9332757,34.6437498],[73.9282298,34.6079932],[73.9529139,34.5977363],[73.9521398,34.5829432],[73.9604808,34.5820165],[73.9516041,34.5693785],[73.9565744,34.5663465],[73.9435458,34.5530894],[73.9421972,34.5645271],[73.9167598,34.5628317],[73.93876,34.5536824],[73.9050294,34.5279357],[73.9090587,34.5160267],[73.8966,34.5131709],[73.8824438,34.4837101],[73.8878311,34.4528662],[73.8481463,34.4307499],[73.8429643,34.4351351],[73.8408422,34.4260503],[73.804728,34.4270698],[73.7559108,34.3808906],[73.7500338,34.3440774],[73.775482,34.3321394],[73.814938,34.3467239],[73.8095897,34.3373231],[73.8146685,34.3323483],[73.8538505,34.3213679],[73.865235,34.3345051],[73.8874822,34.3329698],[73.9048735,34.3515467],[73.9154967,34.3512118],[73.939008,34.336531],[73.9215406,34.3127816],[73.9317497,34.3050606],[73.931936,34.3111935],[73.9425279,34.3114282],[73.9355039,34.2832134],[73.9905304,34.270513],[74.0091965,34.2228857],[73.9990315,34.198918],[74.0143453,34.1952429],[73.9897933,34.1758194],[73.9623991,34.1724852],[73.9585758,34.1605275],[73.9662735,34.1546693],[73.9522368,34.1521184],[73.9474086,34.1359393],[73.9268231,34.1274427],[73.9266279,34.1033117],[73.9045882,34.1046407],[73.9010944,34.0890652],[73.9075495,34.0824371],[73.8965205,34.0580449],[73.9284497,34.0214452],[73.9859616,34.0119666],[74.0051242,34.0213045],[74.0161109,34.0396137],[74.0550168,34.0303752],[74.1383961,34.0466104],[74.1632943,34.0270472],[74.1752505,34.0324838],[74.19725,34.0167725],[74.2147504,34.016532],[74.2169479,34.0261654],[74.2334958,34.023636],[74.2387289,34.0123304],[74.2560584,34.0049691],[74.2662591,33.986617],[74.2613315,33.9784064],[74.2775692,33.9687827],[74.2669511,33.9534871],[74.2820103,33.9353935],[74.2701498,33.9199052],[74.2812784,33.9023671],[74.2771469,33.8928358],[74.2521111,33.8858416],[74.1894755,33.8389396],[74.1137336,33.8227473],[74.0941055,33.8281977],[74.0602091,33.8239262],[74.0096383,33.7759598],[74.0047949,33.7449886],[73.9614172,33.7234751],[73.9658616,33.7076153],[73.9813147,33.7067968],[73.978573,33.6981906],[73.9903788,33.6839227],[73.9830822,33.6747375],[73.9944045,33.6542533],[73.9844381,33.6557709],[73.9811116,33.6414466],[74.0250113,33.595156],[74.0315669,33.5785112],[74.0555961,33.5757952],[74.0634577,33.5844406],[74.0811754,33.5847842],[74.0966297,33.5710433],[74.1071586,33.5750723],[74.1406958,33.5577297],[74.1596239,33.5330331],[74.1567609,33.5126572],[74.1638716,33.5013936],[74.1924993,33.4787338],[74.1897048,33.4687217],[74.1817423,33.4708841],[74.185055,33.4463758],[74.1768779,33.4345081],[74.1789735,33.412343],[74.1885483,33.4085514],[74.1866703,33.3848975],[74.1719891,33.3694415],[74.1662856,33.3377332],[74.0904861,33.2835677],[74.0569457,33.2790708],[74.0491543,33.2861852],[74.0249518,33.264647],[74.0150596,33.2687102],[74.0154118,33.254759],[74.0002955,33.2365092],[74.0168307,33.205223],[74.0679978,33.196146],[74.0863584,33.1735885],[74.1295342,33.1596389],[74.1636297,33.1225303],[74.1639491,33.1050499],[74.182914,33.0957848],[74.1701155,33.0735367],[74.2089296,33.0686736],[74.2140777,33.0604523],[74.2767058,33.0378118],[74.3247504,33.0309118],[74.3195063,33.0063277],[74.3398618,32.9533037],[74.312081,32.9360384],[74.3145221,32.9285375],[74.3279578,32.9189723],[74.3728406,32.9189545],[74.4148999,32.8976659],[74.4194835,32.8392103],[74.4376317,32.8233252],[74.4482712,32.7935718],[74.4846716,32.7652272],[74.511169,32.7644091],[74.5124275,32.7450774],[74.5429981,32.7514411],[74.5470764,32.7455812],[74.5555932,32.7586695],[74.5661337,32.7600679],[74.5795704,32.749422],[74.6174961,32.7613582],[74.6376307,32.7514702],[74.6320336,32.7760044],[74.6586371,32.7874585],[74.632886,32.8089145],[74.65255,32.8278456],[74.665525,32.8239114],[74.7052513,32.8419547],[74.7045635,32.8172782],[74.6544721,32.7290994],[74.66387,32.725748],[74.6536886,32.6969868],[74.6662354,32.6756038],[74.6961652,32.6658887],[74.6950998,32.6605712],[74.6695751,32.6382691],[74.6545443,32.6371385],[74.6541645,32.6152176],[74.6384844,32.6146113],[74.6415316,32.5995735],[74.6590573,32.5967445],[74.6484434,32.585532],[74.6550299,32.5809404],[74.651679,32.5630341],[74.673099,32.5679814],[74.6732817,32.5536013],[74.6611393,32.5540702],[74.6618844,32.545845],[74.6902298,32.5342565],[74.6814161,32.4927543],[74.6879953,32.4870188],[74.7081937,32.4933924],[74.7167917,32.476575],[74.7553114,32.4829091],[74.7962676,32.4769213],[74.812594,32.4800549],[74.8200292,32.499531],[74.846244,32.490118],[74.857683,32.494076],[74.867609,32.485132],[74.877163,32.4938754],[74.8845033,32.4904327],[74.8763793,32.4772933],[74.9184735,32.4640494],[74.9392494,32.4712834],[74.9431284,32.4522482],[74.9516442,32.4464738],[74.9657215,32.4581534],[74.9920259,32.4523841],[75.0155009,32.4643859],[75.0265301,32.4975874],[75.0852207,32.4690859],[75.0996311,32.4780347],[75.1088465,32.4739344],[75.1087734,32.4602413],[75.1208567,32.4552093],[75.1189896,32.4436653],[75.1343815,32.4282106],[75.1275052,32.4239474],[75.1329117,32.4088308],[75.1534767,32.4211007],[75.1917727,32.4261495],[75.2016077,32.4152786],[75.193071,32.4111975],[75.1928197,32.4010051],[75.2091429,32.394732],[75.2132163,32.4027162],[75.2454276,32.3847531],[75.2569423,32.3894015],[75.2582499,32.372343],[75.2728221,32.3763273],[75.2896896,32.3701123],[75.2892031,32.35583],[75.3028137,32.3450964],[75.3220014,32.3436966],[75.3271449,32.3278159],[75.3481006,32.3449624],[75.3622627,32.3334864],[75.3747511,32.3375839],[75.3936767,32.3274487],[75.4114651,32.3286998],[75.4310131,32.3155535],[75.4676628,32.3259256],[75.4690146,32.3385085],[75.489335,32.3455063],[75.4943561,32.340956],[75.4806447,32.3335046],[75.4828334,32.3199962],[75.5110931,32.3086803],[75.5042696,32.2925019],[75.5090761,32.2840488],[75.5337095,32.2773729],[75.5427646,32.3056698],[75.538001,32.3337403],[75.5540943,32.3519778],[75.5964946,32.3778232],[75.6863594,32.3903988],[75.708332,32.4100379],[75.7214641,32.4052553],[75.7304763,32.4217396],[75.7269573,32.432317],[75.7418918,32.4317736],[75.7283735,32.4395972],[75.7281589,32.4531058],[75.7707132,32.4620183],[75.8236024,32.4953314],[75.8320379,32.5138396],[75.8400938,32.5138329],[75.8720557,32.5461136],[75.8741643,32.5535038],[75.8630664,32.5605192],[75.8786034,32.5680017],[75.8783841,32.586706],[75.9057426,32.5983124],[75.9189225,32.6209594],[75.9181007,32.6338824],[75.9316254,32.6320555],[75.9333785,32.6474702],[75.9160472,32.6431501],[75.9149743,32.6532678],[75.9055758,32.6578204],[75.893181,32.6482685],[75.8840709,32.6519146],[75.897471,32.6702252],[75.8981494,32.6970424],[75.9224924,32.745886],[75.8822342,32.7852014],[75.8794138,32.8115266],[75.8655582,32.8135083],[75.8511242,32.8358463],[75.8184704,32.8535406],[75.7967592,32.8842339],[75.8142924,32.8960201],[75.8325962,32.9241287],[75.8730095,32.9241553],[75.9160529,32.9068013],[75.9498792,32.8733889],[76.0273048,32.9147029],[76.038712,32.9332581],[76.0937279,32.9640677],[76.1067155,33.004438],[76.1596176,33.0057248],[76.180505,33.0198639],[76.242565,33.0200274],[76.2733801,33.0372144],[76.2763178,33.0513892],[76.2896218,33.0596366],[76.2803871,33.0729343],[76.2860937,33.1018665],[76.4039156,33.1849104],[76.4787858,33.1790786],[76.5085233,33.1941695],[76.5477788,33.1988403],[76.5608462,33.2089787],[76.5958606,33.205763],[76.5982535,33.1904787],[76.6119935,33.1865877],[76.6121531,33.1724823],[76.6435709,33.1617278],[76.7091663,33.1802229],[76.7473655,33.1790266],[76.7802275,33.2366486],[76.7716809,33.2499106],[76.7529332,33.2487351],[76.7370128,33.2610827],[76.7347847,33.2819031],[76.727521,33.2835629],[76.731553,33.3008546],[76.7165216,33.3329078],[76.6913405,33.3251321],[76.6681938,33.3417946],[76.6705782,33.3489991],[76.6566807,33.3576368],[76.6504485,33.3830329],[76.6319575,33.4091178],[76.6364817,33.4146652],[76.6268876,33.4367444],[76.5825773,33.424132],[76.5699369,33.4647973],[76.5504965,33.4642854],[76.507924,33.5001211],[76.500848,33.5176653],[76.4592736,33.5329889],[76.462544,33.5507848],[76.4477069,33.5642465],[76.4283067,33.5379915],[76.3981899,33.5450935],[76.381073,33.551946],[76.37517,33.5675578],[76.380381,33.5785019],[76.3632631,33.5897056],[76.3587141,33.6036825],[76.3116359,33.6097229],[76.299448,33.5983565],[76.3097906,33.5766204],[76.3027954,33.5673594],[76.2610817,33.5658217],[76.2468767,33.5474395],[76.2211704,33.5521606],[76.2052059,33.5728303],[76.2255907,33.5788014],[76.2313413,33.5873461],[76.224904,33.60068],[76.2390661,33.6027531],[76.229453,33.6301287],[76.2717676,33.6452422],[76.2841701,33.6616034],[76.2658023,33.6801755],[76.2636995,33.7142735],[76.2703943,33.7305144],[76.2640282,33.746983],[76.2444204,33.758411],[76.2121841,33.7609043],[76.192563,33.7934176],[76.1636399,33.7997561],[76.1552619,33.846527],[76.122497,33.8877428],[76.0321161,33.9184633],[76.0468048,33.9342843],[76.0243674,33.9820894],[75.9778527,33.9712669],[75.9669229,33.9545156],[75.8929703,33.9689526],[75.8528065,33.9619423],[75.8407255,33.9527413],[75.8316963,33.9561091],[75.8224365,33.965934],[75.8420285,34.0061275],[75.8245913,34.005358],[75.768625,34.0395582],[75.7686012,34.0530798],[75.7376775,34.0597789],[75.7437536,34.0728584],[75.6728685,34.1441176],[75.6929921,34.1582322],[75.6831909,34.1701409],[75.689829,34.2017748],[75.6634003,34.1992301],[75.6483738,34.2121877],[75.6081442,34.1956857],[75.5947001,34.1976303],[75.5802941,34.2137896],[75.5545234,34.2113053],[75.5319285,34.2261032],[75.4955896,34.2335145],[75.4694874,34.2800518],[75.4031901,34.2848517],[75.3930002,34.2961846],[75.4008326,34.3154011],[75.3764345,34.3413955],[75.3860706,34.3502697],[75.3850483,34.3661426],[75.3745485,34.3709805],[75.3772616,34.3866366],[75.3659331,34.3955655],[75.3786713,34.4069409],[75.3269726,34.4393844],[75.3529959,34.469134],[75.3427933,34.4887433],[75.352519,34.5173747],[75.365847,34.5214077],[75.3664001,34.5380975],[75.3442609,34.5628576],[75.3198414,34.5648693],[75.2861067,34.5955278],[75.248544,34.6009539],[75.2548121,34.6188367],[75.2679417,34.6206744],[75.2662228,34.6383125]]]}}]}