{"type": "FeatureCollection", "features": [{"type": "Feature", "properties": {"slug": "jepara", "members": 1, "country": "Indonesia", "input_hash": "a6e5a48c4f137f2b"}, "geometry": {"type": "MultiPolygon", "coordinates": [[[[110.4060464, -5.8918326], [110.4109308, -5.8851426], [110.4058076, -5.8969418], [110.4060464, -5.8918326]]], [[[110.3438654, -5.8914828], [110.3423492, -5.8899715], [110.3437693, -5.8902257], [110.3438654, -5.8914828]]], [[[110.3580219, -5.8760192], [110.3531931, -5.8798782], [110.357999, -5.8724723], [110.3580219, -5.8760192]]], [[[110.2308431, -5.8634759], [110.231849, -5.8616882], [110.2327931, -5.8627928], [110.2308431, -5.8634759]]], [[[110.2390748, -5.8482991], [110.2396998, -5.8502843], [110.238879, -5.8497907], [110.2390748, -5.8482991]]], [[[110.37801, -5.8325735], [110.3788511, -5.8310852], [110.3796926, -5.830297], [110.37801, -5.8325735]]], [[[110.1972699, -5.8157015], [110.1809272, -5.8163513], [110.1923829, -5.8099591], [110.1972699, -5.8157015]]], [[[110.3733502, -5.8064994], [110.374922, -5.8070665], [110.3732583, -5.8079241], [110.3733502, -5.8064994]]], [[[110.1632059, -5.8002739], [110.1646087, -5.8007222], [110.1633185, -5.8019284], [110.1632059, -5.8002739]]], [[[110.340811, -5.7987582], [110.3451642, -5.793568], [110.3474763, -5.7949449], [110.3467226, -5.7986274], [110.3430265, -5.8000658], [110.340811, -5.7987582]]], [[[110.2387449, -5.7668636], [110.2393689, -5.7690789], [110.2342442, -5.7702968], [110.2387449, -5.7668636]]], [[[110.2317685, -5.7377587], [110.2519079, -5.7283125], [110.2483754, -5.74195], [110.2553116, -5.7543849], [110.245311, -5.7626498], [110.2317685, -5.7377587]]], [[[110.1860207, -5.738095], [110.1918197, -5.7405236], [110.1917928, -5.7433471], [110.1860207, -5.738095]]], [[[110.4097679, -5.7457116], [110.4038617, -5.734695], [110.4100415, -5.7311401], [110.4131046, -5.7365978], [110.4097679, -5.7457116]]], [[[110.4028915, -5.7329027], [110.4022559, -5.7318643], [110.4033601, -5.7326106], [110.4028915, -5.7329027]]], [[[110.8823337, -6.6255817], [110.8761469, -6.6156059], [110.8635851, -6.627079], [110.8598005, -6.6232926], [110.8591928, -6.6470263], [110.8471603, -6.651906], [110.8508758, -6.6645369], [110.8332214, -6.6890673], [110.8391266, -6.7028265], [110.8203659, -6.7089166], [110.8250198, -6.7360415], [110.836937, -6.7379985], [110.8302078, -6.7546801], [110.8148308, -6.7489397], [110.7980347, -6.7585654], [110.7927621, -6.7527865], [110.7675284, -6.7697636], [110.7576783, -6.7939987], [110.7207624, -6.7884327], [110.7047501, -6.7947569], [110.6949463, -6.7684273], [110.667366, -6.7650556], [110.6716463, -6.7261771], [110.6660843, -6.7175407], [110.6180649, -6.70612], [110.6207435, -6.7116168], [110.6047134, -6.7245912], [110.5936386, -6.724783], [110.6141442, -6.7096179], [110.6447643, -6.6557308], [110.6382894, -6.6187219], [110.6521994, -6.6107102], [110.6556205, -6.5969418], [110.6436861, -6.5850169], [110.6546482, -6.5846173], [110.6617078, -6.5737139], [110.6442926, -6.5566746], [110.6642693, -6.5427107], [110.6654066, -6.5324846], [110.6772439, -6.5338573], [110.6830341, -6.5214189], [110.6640574, -6.5024448], [110.6910217, -6.4980876], [110.6898871, -6.4878993], [110.7107627, -6.4727617], [110.71823, -6.452144], [110.7573956, -6.441976], [110.784966, -6.425611], [110.8153206, -6.4249926], [110.8381838, -6.4070118], [110.9179178, -6.4026831], [110.975014, -6.4105008], [110.9770126, -6.4372391], [110.96875, -6.4640188], [110.9294205, -6.4958339], [110.9125595, -6.4996586], [110.9083252, -6.5249681], [110.9178085, -6.5402884], [110.9085541, -6.5571637], [110.9120026, -6.6006646], [110.9021954, -6.6237769], [110.8823337, -6.6255817]]], [[[110.62608, -6.5735887], [110.6311206, -6.5776668], [110.6255074, -6.5758416], [110.62608, -6.5735887]]], [[[110.92003, -6.3851346], [110.9209178, -6.3810562], [110.923596, -6.3810536], [110.92003, -6.3851346]]], [[[110.4279907, -5.8924025], [110.4261347, -5.8814164], [110.4334518, -5.8965282], [110.4279907, -5.8924025]]], [[[110.5852222, -5.8667721], [110.579838, -5.8598287], [110.585646, -5.8615419], [110.5852222, -5.8667721]]], [[[110.5986253, -5.865082], [110.6015779, -5.8553616], [110.6033965, -5.839158], [110.6083833, -5.8474382], [110.5986253, -5.865082]]], [[[110.5854392, -5.8431974], [110.5855787, -5.8455134], [110.5825411, -5.8453507], [110.5854392, -5.8431974]]], [[[110.4759434, -5.7762011], [110.4866964, -5.771024], [110.4750931, -5.7942164], [110.4950139, -5.8179003], [110.4830727, -5.8238147], [110.4849476, -5.837023], [110.4680657, -5.8312487], [110.4775581, -5.8542466], [110.4641631, -5.8636173], [110.4470043, -5.8633081], [110.4485527, -5.8894687], [110.4313722, -5.8817714], [110.4319525, -5.8592815], [110.410641, -5.8401476], [110.445039, -5.8344187], [110.4759729, -5.8191504], [110.4796923, -5.8081656], [110.4719952, -5.7977255], [110.4763055, -5.8143419], [110.4673576, -5.8128957], [110.4688489, -5.8047463], [110.4614675, -5.8121165], [110.4613388, -5.8005674], [110.4505563, -5.8136935], [110.4759434, -5.7762011]]], [[[110.5082467, -5.8196881], [110.5087215, -5.8215914], [110.5078829, -5.8212203], [110.5082467, -5.8196881]]], [[[110.5076226, -5.8073684], [110.5089215, -5.8103006], [110.507498, -5.8099725], [110.5076226, -5.8073684]]], [[[110.5537194, -5.8039404], [110.5608004, -5.7980377], [110.5550806, -5.80437], [110.5537194, -5.8039404]]], [[[110.5767703, -5.7888207], [110.577604, -5.7877583], [110.5784815, -5.7900375], [110.5767703, -5.7888207]]], [[[110.5098553, -5.7824506], [110.5146029, -5.783457], [110.5138535, -5.7855162], [110.5098553, -5.7824506]]], [[[110.4108916, -5.7311558], [110.4105027, -5.7309076], [110.4104925, -5.730647], [110.4108916, -5.7311558]]]]}}]}