{"type":"FeatureCollection","features":[{"type":"Feature","properties":{"slug":"jiamusi","member_count":10,"matched_count":8,"unmatched":["F\u00f9j\u012dn Sh\u00ec (CN-HL, type='County-level City')","F\u016dyu\u0103n Sh\u00ec (CN-HL, type='County-level City')"],"source":"Overture Maps division_area (CC-BY 4.0)"},"geometry":{"type":"MultiPolygon","coordinates":[[[[125.6331099,46.1310451],[125.7205569,46.1459726],[125.6896579,46.1098054],[125.6930909,46.0898076],[125.6858809,46.0777822],[125.7308569,46.0826644],[125.7324009,46.0542004],[125.7512839,46.0549145],[125.7538589,46.0620617],[125.7780629,46.0657549],[125.7784069,46.0732571],[125.7955729,46.0744482],[125.8019239,46.0652779],[125.8359459,46.0608627],[125.8410959,46.0308377],[125.8107119,46.0255935],[125.8180939,45.9821919],[125.7894259,45.9641763],[125.7802949,45.9485077],[125.7059809,45.9614461],[125.7048649,45.9755806],[125.6849529,45.9927572],[125.6777479,46.015741],[125.6657269,46.014697],[125.6636669,46.042824],[125.6362009,46.0523553],[125.6372329,46.0782002],[125.6210929,46.101058],[125.6331099,46.1310451]]],[[[126.2962263,46.6188394],[126.2708242,46.6523364],[126.3588719,46.6632994],[126.3780979,46.6854432],[126.3746649,46.6986306],[126.3842779,46.6929794],[126.4100269,46.6983956],[126.4107139,46.7040458],[126.3815309,46.7113441],[126.4196399,46.7179353],[126.4371489,46.7120501],[126.4385229,46.6962766],[126.4484789,46.6903894],[126.5360259,46.7035759],[126.5494149,46.6623604],[126.5476187,46.6508332],[126.5299073,46.6492309],[126.5036698,46.6290969],[126.4901428,46.6385459],[126.4749528,46.6374399],[126.4494398,46.6248244],[126.4359128,46.6124839],[126.4594498,46.5987739],[126.4564888,46.5926969],[126.430041,46.5802805],[126.4317791,46.5693212],[126.419188,46.5661844],[126.4231434,46.557703],[126.393327,46.5517344],[126.3900654,46.5401641],[126.3720409,46.5380387],[126.3513371,46.5505251],[126.3387089,46.580896],[126.3277304,46.5868369],[126.3168097,46.5801269],[126.2980073,46.584092],[126.2908588,46.5987698],[126.2962263,46.6188394]]],[[[126.943438,47.3750692],[126.94314,47.4026222],[126.955842,47.4417906],[126.995625,47.4422547],[127.028027,47.4545001],[127.13806,47.4461449],[127.16441,47.4568823],[127.1882093,47.4401514],[127.1671068,47.4135244],[127.1610563,47.3984109],[127.1671378,47.3835029],[127.1567533,47.3660619],[127.1458663,47.3621179],[127.1356733,47.3401754],[127.1083852,47.3232867],[127.0712909,47.3418841],[127.0401279,47.3243954],[126.963868,47.3373949],[126.956487,47.340303],[126.943438,47.3750692]]],[[[125.106369,49.1243858],[125.1411106,49.1411068],[125.1476366,49.1288663],[125.1891786,49.1371777],[125.2520066,49.1324605],[125.2454836,49.0750323],[125.2537236,49.039035],[125.2266006,49.012245],[125.2197346,48.9914112],[125.1512415,49.0008715],[125.0597465,48.9926502],[125.0184485,49.0223613],[125.0163885,49.0304656],[125.0537246,49.0917669],[125.0879898,49.1289825],[125.106369,49.1243858]]],[[[130.7307933,46.5970964],[130.7773856,46.6087153],[130.8204017,46.5843376],[130.8734706,46.5951741],[130.9051767,46.5934653],[130.9301607,46.5827947],[130.9587698,46.5452397],[130.964868,46.5290428],[130.9590703,46.5162033],[130.9680952,46.5053788],[131.018353,46.4879243],[131.0234297,46.4746817],[131.0110176,46.444932],[131.0584819,46.4235482],[131.0511481,46.4136705],[131.056081,46.3985233],[131.0823686,46.3877515],[131.0961541,46.3949014],[131.1255647,46.3859022],[131.141193,46.3910928],[131.1608291,46.3697711],[131.1821738,46.3622473],[131.2225115,46.3717262],[131.2333518,46.3675303],[131.2596751,46.355798],[131.2708155,46.3389579],[131.265904,46.3333953],[131.2883016,46.3286371],[131.2729617,46.3187979],[131.2772011,46.3077301],[131.3331837,46.2964354],[131.3419,46.2822405],[131.4030913,46.2470319],[131.3906094,46.2297548],[131.4167074,46.2163665],[131.3983371,46.1944989],[131.3834265,46.1312419],[131.3686866,46.1272114],[131.36629,46.1186463],[131.338034,46.1245251],[131.3323865,46.1164427],[131.3334162,46.1037042],[131.3573847,46.1112794],[131.3635547,46.0892448],[131.3613319,46.0723361],[131.3353051,46.0733337],[131.330514,46.066911],[131.3452418,46.0394749],[131.3407914,46.0319737],[131.3471294,46.0175356],[131.3404537,46.0102734],[131.3137498,46.0102051],[131.310843,45.9945854],[131.2914947,45.9859083],[131.275302,45.9661502],[131.2740887,46.0316374],[131.2663706,46.0467811],[131.2481844,46.0554853],[131.2158898,46.0472465],[131.201793,46.0231528],[131.174781,46.0309753],[131.1465655,46.0280618],[131.1354032,46.0052709],[131.054984,46.065561],[131.0254711,46.0196927],[130.9437293,46.0232851],[130.9235102,46.0104826],[130.8826245,46.0255854],[130.8374995,46.0162541],[130.8291427,46.0232306],[130.8120337,46.0105509],[130.7610192,46.0095715],[130.7493417,45.9919424],[130.7225013,46.0016489],[130.6951099,45.9995181],[130.6826601,45.9926196],[130.6936634,45.9647311],[130.6862147,45.944285],[130.6658302,45.9518207],[130.6483052,45.9457165],[130.6438051,45.9620737],[130.6234979,45.9648546],[130.6076131,45.9775349],[130.5690242,45.9832011],[130.572705,45.9903258],[130.5450178,46.0027093],[130.5436391,46.018729],[130.5248033,46.0175638],[130.5229601,46.0254981],[130.4980018,46.0294747],[130.4950674,46.0410339],[130.4792388,46.0470546],[130.4633709,46.0410732],[130.4614661,46.0480826],[130.4249178,46.0554695],[130.4249683,46.0683885],[130.4138364,46.0696107],[130.4116634,46.0772082],[130.3999093,46.0727374],[130.3857742,46.0856864],[130.3522897,46.0917414],[130.3420942,46.0862168],[130.3278505,46.0980613],[130.2427058,46.1104876],[130.2301091,46.1218316],[130.2303332,46.1319169],[130.204892,46.1331593],[130.2010928,46.1460105],[130.1697837,46.1728877],[130.1722124,46.1781132],[130.1508618,46.1868927],[130.1568875,46.1879069],[130.153912,46.2013301],[130.1424641,46.2041828],[130.1477688,46.2078691],[130.1298523,46.2269324],[130.0601958,46.2635154],[130.0626528,46.2822649],[130.0272523,46.3012999],[130.0135803,46.3269234],[129.9845583,46.3406409],[129.9467163,46.3453979],[129.9372098,46.3627279],[129.9221648,46.3710824],[129.9244688,46.3815764],[129.9765778,46.3894884],[129.9862058,46.3804169],[130.0263052,46.3845401],[130.0328274,46.3752788],[130.0278181,46.3732051],[130.0462776,46.3673174],[130.0429891,46.360763],[130.059028,46.362391],[130.0691696,46.3699341],[130.0626762,46.3782411],[130.0741452,46.3876286],[130.1000213,46.3840674],[130.1230163,46.3981474],[130.1188203,46.4064409],[130.1383818,46.4100339],[130.1354218,46.4265709],[130.1550748,46.4346619],[130.1619713,46.4571229],[130.1621398,46.4661329],[130.1397455,46.4905801],[130.1472447,46.4997599],[130.14615,46.5365674],[130.1664227,46.5854076],[130.1899373,46.6173023],[130.1810718,46.6228284],[130.1550702,46.6123645],[130.1462374,46.5989382],[130.119554,46.5955646],[130.1111298,46.5840834],[130.107042,46.5744102],[130.1221758,46.5476032],[130.1203613,46.5304794],[130.1336323,46.5017139],[130.0861019,46.5222873],[130.0664086,46.5146674],[130.0667977,46.5234342],[130.0288536,46.5292263],[130.0272758,46.5386845],[130.0587717,46.5557039],[130.0612028,46.5851305],[130.0784425,46.6019424],[130.0666975,46.6105726],[130.0536032,46.5853458],[130.0235322,46.5967235],[130.0211339,46.581825],[130.0045657,46.5774178],[129.9948273,46.5651094],[129.9785308,46.5639154],[129.9520395,46.604218],[129.9326036,46.6075996],[129.9132122,46.6270007],[129.8988642,46.6071045],[129.8564198,46.5925736],[129.8162657,46.5585989],[129.7472228,46.5319559],[129.6971869,46.5408257],[129.6726281,46.535068],[129.6339471,46.5570927],[129.6331189,46.578892],[129.6193536,46.5809127],[129.5857988,46.6071032],[129.5430797,46.6174196],[129.5316163,46.6114464],[129.4958309,46.6173456],[129.5079038,46.6479529],[129.5201866,46.6496578],[129.5181564,46.6628254],[129.5635934,46.6824867],[129.5677417,46.7043082],[129.6253605,46.7194539],[129.6650524,46.714942],[129.6848636,46.7216583],[129.7016204,46.7403804],[129.688774,46.7615994],[129.6985998,46.8003243],[129.6475802,46.8015112],[129.6436872,46.8096163],[129.6238723,46.8122334],[129.592643,46.854486],[129.5853164,46.8801054],[129.5680679,46.8959905],[129.5507547,46.8978142],[129.5484163,46.9241869],[129.5648,46.9350811],[129.5318225,46.950599],[129.5255128,46.9769059],[129.5640516,46.967233],[129.5822095,46.9753362],[129.5856159,47.0013392],[129.5593927,47.0303777],[129.5786365,47.0274035],[129.6193564,47.0405126],[129.6424999,47.0361468],[129.7013895,47.0610833],[129.7102477,47.076733],[129.6848318,47.1193239],[129.7249545,47.1225563],[129.7317673,47.1365718],[129.7497726,47.1433024],[129.7408448,47.1703184],[129.7743225,47.1777975],[129.7740226,47.2079395],[129.7843234,47.2220196],[129.7791339,47.2394255],[129.7890318,47.2637864],[129.8027467,47.2681054],[129.8304119,47.2554284],[129.8545604,47.2590227],[129.8702948,47.2738827],[129.8775839,47.2954931],[129.8923628,47.3025157],[129.9250102,47.291733],[129.9280548,47.2580644],[129.9353638,47.2541009],[129.9688127,47.2584242],[129.9833754,47.2500982],[129.9919389,47.2304751],[130.0097257,47.2233602],[130.0414733,47.2232204],[130.1254824,47.2009028],[130.1424927,47.1675857],[130.1373002,47.133646],[130.2027224,47.0892093],[130.2231762,47.0907061],[130.2316113,47.0796703],[130.298203,47.0626997],[130.3581207,47.058921],[130.375474,47.0633986],[130.3628108,47.080441],[130.3695793,47.1101618],[130.4086159,47.1044302],[130.4022294,47.1198426],[130.4200643,47.1035295],[130.4212012,47.0918275],[130.4377153,47.0905544],[130.4211252,47.0906014],[130.4243372,47.0725005],[130.4402621,47.0728457],[130.4433037,47.0598769],[130.46273,47.0523735],[130.4622584,47.0604499],[130.481918,47.0610021],[130.4852694,47.0436101],[130.5108415,47.0439866],[130.5186789,47.0563698],[130.6138954,47.0533466],[130.6166687,47.0665176],[130.6398184,47.0769498],[130.617539,47.0856023],[130.6330302,47.0928313],[130.6205781,47.0963371],[130.5826924,47.1438548],[130.5969094,47.1455912],[130.6007592,47.1550583],[130.6268673,47.1549365],[130.6488196,47.1838346],[130.6411964,47.194796],[130.6844834,47.2020309],[130.6656379,47.2220608],[130.6371397,47.2334781],[130.6399365,47.2414526],[130.6131061,47.2579454],[130.6167749,47.2664421],[130.5859868,47.2783905],[130.5854748,47.2872439],[130.5709977,47.2917125],[130.5712329,47.3024437],[130.5479534,47.3217846],[130.6034258,47.3351033],[130.6743294,47.3286744],[130.6992924,47.3139166],[130.7843271,47.288379],[130.9786081,47.3170971],[130.9666696,47.3055813],[130.975962,47.2896385],[130.9627927,47.2760709],[130.9782389,47.2684415],[130.9807004,47.2488416],[130.9476985,47.2336302],[130.9629679,47.22016],[131.0420501,47.2139733],[131.0837813,47.1944845],[131.0984846,47.1943222],[131.1242031,47.2139056],[131.1533004,47.2208967],[131.2665565,47.2069975],[131.3135979,47.186287],[131.3464516,47.1908498],[131.3834375,47.2142793],[131.4277337,47.2277571],[131.4505184,47.2179343],[131.5036113,47.2131947],[131.4953518,47.1753623],[131.502146,47.1553779],[131.5398657,47.1343004],[131.5589388,47.1092035],[131.5460638,47.0722951],[131.4000623,47.0662201],[131.3971431,47.0238958],[131.2045286,46.9631894],[131.0774156,46.9534795],[131.0514426,46.9881326],[131.0223655,46.9683954],[131.0052409,46.9867936],[130.9351981,46.9472948],[130.9022471,46.9390775],[130.8286582,46.9375202],[130.8378621,46.9078549],[130.8536802,46.9093124],[130.8557525,46.8987645],[130.8421453,46.8970171],[130.8574851,46.8882428],[130.8302136,46.8858214],[130.8318061,46.8758809],[130.8158259,46.8744307],[130.8173264,46.8508297],[130.7905752,46.8491269],[130.7832223,46.8625032],[130.7316222,46.8260757],[130.7053041,46.8199075],[130.6752028,46.8329964],[130.6583355,46.8288905],[130.6607244,46.7872283],[130.6491709,46.777523],[130.660248,46.7413762],[130.7012831,46.7407793],[130.7051664,46.7255792],[130.7225862,46.7134335],[130.7145258,46.6895723],[130.7375283,46.6769196],[130.7149403,46.6467685],[130.7118829,46.6231636],[130.7239548,46.6156754],[130.7211032,46.6065116],[130.7307933,46.5970964]],[[130.5569477,46.9960206],[130.5441388,46.9889063],[130.5273042,46.9193357],[130.4908902,46.8756986],[130.4563061,46.8701946],[130.4467908,46.8573079],[130.360422,46.8556812],[130.3531026,46.8406633],[130.3349871,46.8320261],[130.3101012,46.8436672],[130.275883,46.8355312],[130.3380979,46.7980896],[130.3223811,46.793088],[130.3218483,46.7841815],[130.3312393,46.7821328],[130.3304476,46.7631151],[130.3471361,46.7617338],[130.3503351,46.7700748],[130.3507852,46.7618922],[130.3733876,46.7635847],[130.3850722,46.7409407],[130.4103708,46.7455581],[130.4413815,46.7281651],[130.456724,46.7318707],[130.4364417,46.7471591],[130.4993075,46.7457029],[130.4815558,46.7613243],[130.4718498,46.8107029],[130.5093949,46.8268459],[130.5065707,46.8190024],[130.5361416,46.816615],[130.5439497,46.8204802],[130.5419562,46.8336655],[130.5758464,46.8330972],[130.5974432,46.8423023],[130.5902996,46.8615029],[130.5653803,46.8709303],[130.5459432,46.8904613],[130.5883061,46.9039699],[130.5879738,46.9138437],[130.6015964,46.9183828],[130.5911303,46.930523],[130.5716932,46.9355145],[130.5780061,46.9478776],[130.6052512,46.9562693],[130.5838465,46.9933997],[130.5569477,46.9960206]]]]}}]}