{"type":"FeatureCollection","features":[{"type":"Feature","properties":{"slug":"jiaxing","member_count":7,"matched_count":7,"unmatched":[],"source":"Overture Maps division_area (CC-BY 4.0)"},"geometry":{"type":"Polygon","coordinates":[[[120.8993873,30.2656161],[120.8017863,30.2575133],[120.7606811,30.2632474],[120.7248204,30.3004257],[120.7020138,30.3564502],[120.6757338,30.3753078],[120.6355485,30.389614],[120.5023689,30.392523],[120.4411412,30.3823881],[120.4083539,30.3188419],[120.3724063,30.3461053],[120.3833008,30.372604],[120.3961854,30.3752778],[120.3953332,30.386259],[120.3402253,30.3700911],[120.3370338,30.3784982],[120.316574,30.3797431],[120.3103512,30.3980492],[120.3015321,30.3956709],[120.330259,30.4220882],[120.3262317,30.4296014],[120.3364384,30.4440952],[120.3325921,30.4665044],[120.3387989,30.4673105],[120.3338759,30.4758064],[120.3222121,30.4727829],[120.3144861,30.5233329],[120.2946161,30.5221749],[120.2908371,30.5665929],[120.3145911,30.5805669],[120.2944901,30.5985639],[120.2991041,30.6125419],[120.3354761,30.6222169],[120.3290521,30.6289459],[120.3354801,30.6286859],[120.3394361,30.6433499],[120.3359641,30.6615849],[120.3476401,30.6672979],[120.3591541,30.6562899],[120.3733661,30.6586419],[120.3782351,30.6732099],[120.4333393,30.6843046],[120.4473465,30.6808139],[120.4511873,30.6877984],[120.4373628,30.6941662],[120.4381639,30.7046461],[120.4619976,30.7039095],[120.4819024,30.7301722],[120.4675779,30.7489521],[120.4653402,30.7668464],[120.5005753,30.7606344],[120.5458502,30.816412],[120.5532236,30.8362939],[120.5837944,30.8583328],[120.6045892,30.8508284],[120.6405443,30.8580171],[120.6511071,30.8494055],[120.6547425,30.8678473],[120.6630815,30.8645434],[120.6791747,30.8868323],[120.6867061,30.8726407],[120.6971459,30.8709186],[120.6944396,30.8842857],[120.7087354,30.8879222],[120.7081775,30.9222083],[120.7021559,30.9418681],[120.6783862,30.9580116],[120.6852489,30.9673981],[120.7227248,30.9735478],[120.7414466,30.96525],[120.7655208,30.9803698],[120.7623826,30.993035],[120.7695472,31.0035491],[120.8031173,31.0083722],[120.8614836,30.9920337],[120.8808155,31.0034616],[120.8850575,30.9990624],[120.8930142,31.0197373],[120.935542,31.0114998],[120.9317977,31.0193339],[120.9457505,31.0197798],[120.9442672,31.0315642],[120.9503934,31.0323318],[120.959014,31.0187707],[120.9869538,31.0157185],[120.9864932,30.996639],[120.9981984,30.9807825],[120.9875044,30.9705558],[120.9965958,30.9399876],[120.9945412,30.9140385],[121.0006835,30.9108859],[120.9862156,30.8981476],[121.0169591,30.8806035],[121.0104749,30.8565415],[120.9934938,30.8467528],[120.9852005,30.8304891],[120.9997326,30.8285268],[121.0071568,30.8375048],[121.0367015,30.8171735],[121.0360382,30.8294474],[121.0446587,30.828045],[121.0611432,30.850254],[121.1085532,30.8563049],[121.1193249,30.8495751],[121.1137892,30.8369816],[121.1329801,30.8326851],[121.1234778,30.8121549],[121.1225684,30.7808669],[121.1700676,30.7745597],[121.1863347,30.783206],[121.1925383,30.7755526],[121.1950207,30.7854178],[121.214379,30.7882971],[121.2281174,30.7580176],[121.2669316,30.7356319],[121.2609285,30.7070865],[121.2743559,30.6800638],[121.3506882,30.6693672],[121.5062556,30.6785906],[121.5062423,30.283623],[121.3143424,30.4408324],[121.2059503,30.4544462],[121.1067999,30.4086765],[120.9914299,30.3134874],[120.9339471,30.2794727],[120.8993873,30.2656161]]]}}]}