{"type":"FeatureCollection","features":[{"type":"Feature","properties":{"slug":"jilin","member_count":9,"matched_count":7,"unmatched":["Sh\u016bl\u00e1n Sh\u00ec (CN-JL, type='County-level City')","Hu\u00e0di\u00e0n Sh\u00ec (CN-JL, type='County-level City')"],"source":"Overture Maps division_area (CC-BY 4.0)"},"geometry":{"type":"MultiPolygon","coordinates":[[[[112.036188,26.467087],[112.00897,26.455941],[112.004606,26.438119],[111.987623,26.435903],[111.983129,26.458555],[111.952418,26.458077],[111.954472,26.482284],[111.922362,26.515014],[111.965202,26.53825],[112.001017,26.537034],[112.017328,26.561721],[112.028935,26.549946],[112.0345,26.526737],[112.055227,26.529954],[112.06639,26.514976],[112.080795,26.530093],[112.097187,26.523788],[112.115179,26.528806],[112.120595,26.517461],[112.112476,26.509446],[112.143809,26.502472],[112.1244,26.483925],[112.070208,26.497664],[112.049645,26.483944],[112.058498,26.462196],[112.036188,26.467087]]],[[[111.3503075,33.862194],[111.3321527,33.8470128],[111.3423705,33.8319285],[111.3432535,33.8093748],[111.3592535,33.7849732],[111.3892112,33.7764072],[111.372745,33.7661669],[111.3280407,33.7699603],[111.3135102,33.7640403],[111.295191,33.7776001],[111.2593605,33.7847401],[111.2549864,33.8263445],[111.2326994,33.8439186],[111.2302687,33.8568553],[111.2104123,33.8640762],[111.2130826,33.8740252],[111.199594,33.8800794],[111.1968687,33.8903373],[111.2294233,33.8964257],[111.2186153,33.9175915],[111.2293701,33.9334955],[111.2567362,33.9286805],[111.270579,33.9361018],[111.2789379,33.9269576],[111.3066432,33.925992],[111.3151495,33.9137873],[111.3111054,33.9050374],[111.3314071,33.8995737],[111.3329852,33.8893358],[111.3512367,33.8869169],[111.3503075,33.862194]]],[[[126.6496722,43.4567685],[126.6430517,43.4337921],[126.6552996,43.4230089],[126.6552921,43.4100128],[126.6064103,43.3987403],[126.6106539,43.3794113],[126.594475,43.3634821],[126.5525536,43.3538996],[126.5441969,43.3451152],[126.5609616,43.3312698],[126.5589427,43.3184262],[126.5261092,43.3109081],[126.4825501,43.3462328],[126.4691382,43.3371884],[126.4338265,43.3488285],[126.4362311,43.3608126],[126.4230887,43.3732816],[126.4331494,43.3858341],[126.4170557,43.4043014],[126.4045981,43.4061249],[126.3964474,43.3926743],[126.3489475,43.3794881],[126.3496162,43.3588411],[126.3324975,43.349154],[126.2619247,43.376394],[126.2551192,43.3894234],[126.2384873,43.3903388],[126.2318815,43.3979686],[126.2398502,43.4012327],[126.2365345,43.4065025],[126.1813433,43.4136074],[126.1862476,43.40727],[126.171248,43.4001431],[126.1688777,43.3907945],[126.1491212,43.3952521],[126.1296153,43.4066452],[126.1323585,43.415469],[126.1237132,43.4265758],[126.1316557,43.4488326],[126.120666,43.4537462],[126.0858492,43.4516926],[126.0800781,43.4397673],[126.0688372,43.4375768],[126.0593675,43.4448785],[126.044283,43.4382462],[126.0386683,43.45005],[126.0287073,43.4503055],[126.0124044,43.4441898],[126.005127,43.4311269],[125.9686464,43.4173388],[125.9625876,43.4059029],[125.9505218,43.4059405],[125.9399413,43.4135691],[125.9340349,43.4349124],[125.917763,43.4341186],[125.9086345,43.449208],[125.8757648,43.4542909],[125.8673778,43.4825465],[125.8471021,43.4972286],[125.8684729,43.5224229],[125.8483393,43.5336331],[125.8620143,43.5405847],[125.8641037,43.5584978],[125.8760749,43.5646685],[125.8807234,43.5915725],[125.8898783,43.598381],[125.8808142,43.6167789],[125.8880529,43.6270507],[125.8814701,43.6315676],[125.8823837,43.6476036],[125.8716372,43.6500537],[125.8758898,43.655041],[125.8679564,43.666082],[125.8734344,43.6683252],[125.8612709,43.6808431],[125.8653606,43.6883225],[125.8428968,43.6955386],[125.8386232,43.7158096],[125.8272694,43.7260077],[125.8284982,43.7458321],[125.8224234,43.7480187],[125.827649,43.7494513],[125.8101092,43.7588434],[125.8128443,43.7664761],[125.8046299,43.7650595],[125.8133994,43.7746568],[125.7973237,43.7886234],[125.816375,43.8615886],[125.8543978,43.8581646],[125.8588982,43.8515197],[125.8786762,43.8611992],[125.8938577,43.8516671],[125.9115595,43.8594982],[125.9549636,43.8468122],[125.9787112,43.8540085],[125.9833771,43.8729339],[126.035924,43.879618],[126.0381299,43.8961493],[126.0311026,43.8941716],[126.0309854,43.9000721],[126.038857,43.9182547],[126.0169593,43.9309156],[126.0314034,43.9368504],[126.0190639,43.9765294],[125.993986,43.9952817],[125.999602,44.0245751],[126.0365689,44.0594094],[126.0574888,44.0641619],[126.0588342,44.0786893],[126.1004491,44.1236802],[126.1239293,44.1109899],[126.1340509,44.1167231],[126.1276966,44.1291105],[126.1559868,44.1371966],[126.1507527,44.1428648],[126.1567683,44.1557036],[126.1709351,44.1620012],[126.2029138,44.154614],[126.2192075,44.1742752],[126.2668207,44.1798442],[126.2729142,44.1564844],[126.2815339,44.1754035],[126.293687,44.1762849],[126.2926014,44.1908856],[126.3255355,44.1850998],[126.3437738,44.1724182],[126.388791,44.1800824],[126.4191909,44.1687241],[126.4542463,44.1732904],[126.4645595,44.1833857],[126.4617232,44.2021112],[126.4930863,44.2174247],[126.5032451,44.2405297],[126.5253022,44.2383293],[126.5356238,44.2246361],[126.5528891,44.2328565],[126.5512051,44.2414066],[126.6019593,44.2253037],[126.6331486,44.2388675],[126.658487,44.2347489],[126.6642857,44.2378126],[126.6563087,44.2424088],[126.6806228,44.2705857],[126.6728885,44.2847273],[126.6970635,44.2922353],[126.6990864,44.305087],[126.7088696,44.2982378],[126.7283481,44.3011161],[126.734573,44.284844],[126.7197719,44.2729821],[126.7190948,44.2555032],[126.748184,44.2708466],[126.7684616,44.2367883],[126.7955884,44.2298703],[126.780692,44.2145492],[126.7997195,44.2056768],[126.7709698,44.1879729],[126.7884956,44.1539369],[126.7844672,44.1460984],[126.7961165,44.1435415],[126.7990765,44.1251603],[126.8185175,44.1041986],[126.8191941,44.0944288],[126.8119865,44.1038512],[126.8104058,44.0968556],[126.7874949,44.106381],[126.7699615,44.1046563],[126.7537472,44.0777429],[126.7646357,44.0748645],[126.7679833,44.0542058],[126.7497843,44.0513274],[126.7478906,44.0431776],[126.7735405,44.0382269],[126.7728356,44.029533],[126.7930085,44.0099572],[126.8203395,44.0110102],[126.8315105,43.9952906],[126.8301548,43.9844054],[126.852768,43.9662589],[126.8352195,43.9560434],[126.8247068,43.9361069],[126.8329747,43.9356509],[126.8312741,43.9199775],[126.8544491,43.9083872],[126.8356319,43.8972125],[126.8144743,43.9040458],[126.8110123,43.8992053],[126.8457183,43.8537832],[126.8407293,43.8434196],[126.8250574,43.8393127],[126.8068857,43.8115918],[126.8286863,43.7845488],[126.8299055,43.7697458],[126.8203568,43.756155],[126.8302274,43.7446384],[126.7855739,43.7015283],[126.7753587,43.6685604],[126.7968821,43.6521618],[126.858641,43.6555113],[126.9032349,43.6393592],[126.9250273,43.6465879],[126.9422579,43.6331866],[126.9359922,43.6175454],[126.9008248,43.5901576],[126.9149398,43.5814629],[126.9196168,43.4976884],[126.9321056,43.4703224],[126.9105405,43.4665782],[126.9101061,43.4555415],[126.8912803,43.4554364],[126.8672622,43.4427973],[126.8590773,43.4448774],[126.8572492,43.4612178],[126.8188344,43.4824755],[126.7966459,43.4665729],[126.7127255,43.4702567],[126.7104085,43.455121],[126.6967961,43.4460798],[126.6784346,43.4479876],[126.6660957,43.4584848],[126.6496722,43.4567685]]]]}}]}