{"type": "FeatureCollection", "features": [{"type": "Feature", "properties": {"slug": "jimma", "members": 2, "country": "Ethiopia", "input_hash": "80202517227bad7f"}, "geometry": {"type": "Polygon", "coordinates": [[[37.288442452897506, 7.335615245777662], [37.238631591162665, 7.313256332750005], [37.1549800634728, 7.241869635199502], [37.11140215076622, 7.226480051778974], [37.040308197135694, 7.241219929635902], [36.965440475408634, 7.225937576715242], [36.96659428110714, 7.243127855029963], [36.95625946960358, 7.261692718936312], [36.879948149678874, 7.330890137666423], [36.8417289115696, 7.327186010054205], [36.79190407796501, 7.253486149892817], [36.67335240842384, 7.329236967872565], [36.652532106143454, 7.346206275002997], [36.63374187306088, 7.379054901403975], [36.599121281884344, 7.370225358886692], [36.48470450399874, 7.41719858853195], [36.40707821147528, 7.40973408790536], [36.37541769904498, 7.41676385026572], [36.349447339569295, 7.446602619896638], [36.30253657097655, 7.4510625313798], [36.225475372477526, 7.485571214795669], [36.157334370210975, 7.543798851171807], [36.12839391884942, 7.556818355209947], [36.08772323821979, 7.555068520317245], [36.04584257032938, 7.566658116041336], [36.036102421223454, 7.573757832843354], [36.03326241804641, 7.592627021578312], [36.05268287764617, 7.655074284766012], [36.04267276008459, 7.67553342708679], [36.02133243859946, 7.693182713754338], [35.9980121703374, 7.74628047369452], [35.94240130407442, 7.775079358927366], [35.84938989006271, 7.840116761876223], [35.90320098997381, 7.927352876042594], [35.90590108196296, 7.947162021947064], [35.86956344414293, 8.066428072270368], [35.885629357804206, 8.08309880023271], [35.9015199508593, 8.129784671905028], [35.914640393059024, 8.151472737492606], [35.93436097201244, 8.161171825520997], [36.073274874109664, 8.168200742556923], [36.12760652187763, 8.207717106450144], [36.142056885669184, 8.196768015681075], [36.18497804808892, 8.186988721021747], [36.21479890604154, 8.19440797311623], [36.26828049939796, 8.225125098508906], [36.294091165232636, 8.211496206640048], [36.31679190214657, 8.240543586260891], [36.331371313207036, 8.242929321754206], [36.37038324322185, 8.198527077132296], [36.40685419998413, 8.183828234866144], [36.41738444196148, 8.168679528909989], [36.393493491203394, 8.084456979647737], [36.39922356887192, 8.06210891887114], [36.41624399127619, 8.047250164759127], [36.44154465300519, 8.037080971238213], [36.47162549393435, 8.038020781244168], [36.5334772820597, 8.061388518811253], [36.570328276679525, 8.054988955360079], [36.59090874364889, 8.025621455913223], [36.598538853089124, 7.994984116339837], [36.612239199424195, 7.987474728738356], [36.634829868454695, 7.999663580720289], [36.65328051872098, 8.040189968016573], [36.66800096821214, 8.05253883440925], [36.72189246346813, 8.055958341203235], [36.74332310150226, 8.069277097229724], [36.76065370692374, 8.104633939723096], [36.77701419570975, 8.116372847375388], [36.79960474416774, 8.094624678887353], [36.8174853282062, 8.12014237330079], [36.82056549152522, 8.143240339969005], [36.80327523445674, 8.202865169936114], [36.788524915111104, 8.228143004984494], [36.75078400697382, 8.264779923063275], [36.72246390309435, 8.4496338241563], [36.661192459245875, 8.51751809672137], [36.760135401479175, 8.57081305972791], [36.79530654753435, 8.615129045107942], [36.845828081322075, 8.651695645618808], [36.9528610483173, 8.65217519850183], [36.98891211206935, 8.669703523510366], [37.00552261503911, 8.681802394119995], [37.026113540085596, 8.772584352767108], [37.046574228648076, 8.802931609300988], [37.064804790999986, 8.81803020757743], [37.17490799614141, 8.85833623597327], [37.187818413312854, 8.873164883138937], [37.201518768049525, 8.867245347707474], [37.2103789695831, 8.856686240880347], [37.206288781983574, 8.839137799030567], [37.22244908263896, 8.802330963056766], [37.225849049156544, 8.771213679513162], [37.14482658041351, 8.711479245733626], [37.137266307523184, 8.695290696833542], [37.142426397360104, 8.682871768509505], [37.17979737411317, 8.668552878691271], [37.19063752679365, 8.631956049546186], [37.22584831217792, 8.585569989344144], [37.26265933019297, 8.58624978646483], [37.35708138744126, 8.451891230930734], [37.38862201551338, 8.389816564781924], [37.450073404916544, 8.315692851402579], [37.46419623660095, 8.312801111301837], [37.47283193563883, 8.267201375762125], [37.51807213130145, 8.2374812828564], [37.61114259807798, 8.214471102936397], [37.62469865048416, 8.20116106987439], [37.592948287386584, 8.094261047480108], [37.603640711780514, 7.965995933910968], [37.55832840952251, 7.949477819263164], [37.54008813046165, 7.954997629320299], [37.514807844672106, 8.000805697173258], [37.49160751577954, 8.01819499909717], [37.39259657165765, 7.99403672022235], [37.39062097073368, 7.963111292475428], [37.437521149161554, 7.919671173201035], [37.40565082601842, 7.828411155132523], [37.402000569202386, 7.683831033734492], [37.44591061828807, 7.565490853192383], [37.40802530401243, 7.493360837251118], [37.38053845483734, 7.381191214816388], [37.33196084004001, 7.350901685848973], [37.332028031566004, 7.344638444696382], [37.288442452897506, 7.335615245777662]]]}}]}