{"type": "FeatureCollection", "features": [{"type": "Feature", "properties": {"slug": "jinan", "members": 12, "country": "China", "input_hash": "1f45d3799c70e73d"}, "geometry": {"type": "Polygon", "coordinates": [[[116.9154739, 37.8445626], [116.9395709, 37.8360898], [116.9690639, 37.84065], [117.0233524, 37.8318106], [117.0881876, 37.8485543], [117.149356, 37.8385957], [117.1796667, 37.8489733], [117.2614768, 37.837985], [117.3335803, 37.8623936], [117.403581, 37.8405897], [117.4326221, 37.8534662], [117.4771446, 37.9169611], [117.5058497, 37.9411389], [117.518551, 37.9902387], [117.5350857, 38.0107036], [117.5429284, 38.0028079], [117.5540811, 38.0051201], [117.563663, 37.985245], [117.555829, 37.97623], [117.562484, 37.974838], [117.558912, 37.96059], [117.568158, 37.958056], [117.524143, 37.924395], [117.531288, 37.907782], [117.537588, 37.908468], [117.533221, 37.885923], [117.560823, 37.882072], [117.558381, 37.877383], [117.55871, 37.874165], [117.56332, 37.881949], [117.571716, 37.877438], [117.577774, 37.853471], [117.584617, 37.856768], [117.600396, 37.844435], [117.582626, 37.82261], [117.560359, 37.812227], [117.559093, 37.798013], [117.554464, 37.801531], [117.542145, 37.786426], [117.54131, 37.766946], [117.515585, 37.758733], [117.527219, 37.746542], [117.538175, 37.746962], [117.536256, 37.725871], [117.55071, 37.7130776], [117.53348, 37.712988], [117.537339, 37.703267], [117.52546, 37.688409], [117.48331, 37.679915], [117.472517, 37.651029], [117.460425, 37.653712], [117.457372, 37.66316], [117.449851, 37.660678], [117.445325, 37.673412], [117.428332, 37.669529], [117.399244, 37.680758], [117.383947, 37.657195], [117.356256, 37.650417], [117.350589, 37.66506], [117.362186, 37.69189], [117.342464, 37.706633], [117.341001, 37.677987], [117.32289, 37.675885], [117.308444, 37.66443], [117.307028, 37.642213], [117.298802, 37.639742], [117.311678, 37.629311], [117.30561, 37.593189], [117.274984, 37.577126], [117.276385, 37.549219], [117.258458, 37.53786], [117.260997, 37.528174], [117.227696, 37.536759], [117.22132, 37.514243], [117.194015, 37.496962], [117.193127, 37.488857], [117.154493, 37.486123], [117.148937, 37.472572], [117.120712, 37.478995], [117.120655, 37.486246], [117.105967, 37.481238], [117.088263, 37.469119], [117.100514, 37.455386], [117.093, 37.451299], [117.097858, 37.443039], [117.091693, 37.434327], [117.068698, 37.434363], [117.0539, 37.423292], [117.0255085, 37.4419836], [117.012288, 37.434706], [117.007947, 37.412255], [117.021526, 37.398859], [116.992613, 37.392664], [116.992652, 37.378052], [117.004715, 37.364001], [116.977192, 37.329219], [116.988877, 37.319288], [116.986678, 37.295462], [116.997178, 37.29409], [116.996084, 37.280028], [117.033137, 37.266634], [117.024547, 37.26379], [117.026282, 37.25247], [117.03874, 37.242676], [117.028731, 37.236729], [117.029676, 37.222938], [117.016169, 37.214242], [117.031766, 37.206617], [117.031463, 37.194447], [117.045214, 37.195192], [117.058361, 37.182107], [117.055019, 37.163505], [117.044387, 37.160993], [117.054302, 37.136982], [117.037928, 37.130914], [117.03557, 37.11578], [117.031055, 37.121306], [117.017481, 37.116577], [116.999213, 37.129318], [116.972719, 37.111095], [116.948854, 37.112298], [116.943202, 37.103607], [116.911228, 37.100501], [116.918405, 37.052433], [116.941032, 37.030451], [116.9044447, 37.0222569], [116.8904139, 37.0047945], [116.868963, 36.997712], [116.894301, 36.977068], [116.892239, 36.962493], [116.9273666, 36.9601596], [116.916879, 36.934218], [116.953151, 36.91517], [116.94871, 36.906062], [116.961564, 36.894299], [116.950949, 36.8681], [116.9593388, 36.8435592], [116.9469201, 36.8379352], [116.9293356, 36.8450446], [116.927855, 36.8236972], [116.9149911, 36.8203563], [116.8816674, 36.833324], [116.8772685, 36.8213955], [116.8834484, 36.8120678], [116.8656707, 36.8117929], [116.8585253, 36.777719], [116.8641686, 36.7555448], [116.8790388, 36.7581063], [116.8809914, 36.7452204], [116.799463, 36.7089925], [116.7937875, 36.6946445], [116.7750708, 36.692806], [116.7742595, 36.6669092], [116.7571644, 36.650795], [116.751918, 36.6293763], [116.7279927, 36.6156852], [116.6874806, 36.6074176], [116.686476, 36.5865352], [116.6545216, 36.5769579], [116.6546962, 36.5541249], [116.6235726, 36.543878], [116.6047316, 36.5208121], [116.6235133, 36.5067174], [116.6221669, 36.499516], [116.58816, 36.4878683], [116.5912084, 36.4785885], [116.6063487, 36.4751382], [116.6137969, 36.4297686], [116.541037, 36.408363], [116.54251, 36.419366], [116.530566, 36.418312], [116.534127, 36.428535], [116.518243, 36.423486], [116.506291, 36.429894], [116.501691, 36.448099], [116.485506, 36.454712], [116.471062, 36.443641], [116.455795, 36.447889], [116.450723, 36.461867], [116.45827, 36.476418], [116.447805, 36.477996], [116.437702, 36.498001], [116.422868, 36.501179], [116.39197, 36.526218], [116.397219, 36.552913], [116.388469, 36.576096], [116.40262, 36.579433], [116.403145, 36.600536], [116.410983, 36.608046], [116.409281, 36.617305], [116.397297, 36.620125], [116.406298, 36.639354], [116.399388, 36.646608], [116.407676, 36.653885], [116.39922, 36.666247], [116.404578, 36.678779], [116.391143, 36.69147], [116.393031, 36.717713], [116.380226, 36.724846], [116.388621, 36.741262], [116.402286, 36.745768], [116.392062, 36.763861], [116.397111, 36.772501], [116.389535, 36.774928], [116.391774, 36.789691], [116.370671, 36.796178], [116.392569, 36.809138], [116.40344, 36.806563], [116.393852, 36.819779], [116.404349, 36.837847], [116.398194, 36.840154], [116.406297, 36.85866], [116.422113, 36.863288], [116.42827, 36.875263], [116.411598, 36.878425], [116.415767, 36.904327], [116.449803, 36.901885], [116.444372, 36.916299], [116.433569, 36.91673], [116.442788, 36.934248], [116.437655, 36.940118], [116.44694, 36.933047], [116.464783, 36.939465], [116.465511, 36.946915], [116.452029, 36.956253], [116.441422, 36.952697], [116.4297992, 36.9606857], [116.4290794, 36.9768425], [116.4093719, 36.9762683], [116.4022693, 36.9682818], [116.3849593, 36.9714993], [116.3687144, 36.9619468], [116.3551497, 36.9742036], [116.3428446, 36.9724357], [116.3399593, 36.9804844], [116.3259279, 36.9682593], [116.2941796, 36.9992736], [116.2830247, 36.9951069], [116.2769965, 37.0051122], [116.2486841, 37.0080185], [116.2446862, 37.02503], [116.2274831, 37.0314272], [116.2165137, 37.009825], [116.2299622, 37.0096209], [116.2285055, 37.0006999], [116.2029477, 36.9875917], [116.2137958, 36.9789747], [116.2057555, 36.9626212], [116.1789, 36.9607836], [116.1771732, 36.950561], [116.1661474, 36.9463325], [116.1648906, 36.9212364], [116.1389324, 36.9104853], [116.1180585, 36.8897941], [116.1095559, 36.8977256], [116.0924501, 36.8914102], [116.0979193, 36.8774934], [116.0441171, 36.8942101], [116.0237733, 36.8865672], [116.0206618, 36.8961767], [116.0174548, 36.8856988], [116.00585, 36.8811637], [115.9856984, 36.8799737], [115.9733707, 36.8927855], [115.9568954, 36.8814415], [115.9445661, 36.8838409], [115.9396757, 36.8943963], [115.9039259, 36.8912797], [115.8801136, 36.9047783], [115.8756696, 36.9180864], [115.8607946, 36.9008331], [115.8456625, 36.9053008], [115.8529054, 36.9081034], [115.8483659, 36.915865], [115.8270386, 36.9189107], [115.8261, 36.9105352], [115.785461, 36.9138674], [115.7738014, 36.904616], [115.7548016, 36.9339552], [115.7781276, 36.9464866], [115.7916338, 36.9688149], [115.787122, 36.9742376], [115.7791448, 36.9692268], [115.7811289, 36.98251], [115.7704271, 36.9919765], [115.8004931, 37.0089955], [115.8063657, 37.0289501], [115.8168049, 37.0287859], [115.8615229, 37.073488], [115.8794652, 37.118907], [115.8739357, 37.1515259], [115.9054647, 37.1743055], [115.8989948, 37.1879088], [115.9030575, 37.2021773], [115.9345753, 37.2268587], [115.9474888, 37.2232314], [115.9647347, 37.2404734], [115.970903, 37.2746761], [115.962367, 37.287481], [115.9790075, 37.3159685], [115.9673452, 37.3194071], [115.9791102, 37.326242], [115.9696323, 37.3362897], [116.00288, 37.342282], [115.9946716, 37.3504754], [116.0082006, 37.3489487], [116.0182267, 37.3591785], [116.033982, 37.3573151], [116.0341108, 37.3627728], [116.0449254, 37.3565391], [116.0472, 37.36771], [116.08058, 37.3729174], [116.1029434, 37.3676071], [116.1601992, 37.3844955], [116.1884178, 37.3652063], [116.2315214, 37.3612208], [116.2796748, 37.4035039], [116.2645664, 37.4118114], [116.2689803, 37.4186643], [116.2569532, 37.4196851], [116.2623348, 37.4294341], [116.23842, 37.4204213], [116.2208354, 37.4273655], [116.2382591, 37.4459368], [116.2376153, 37.4556211], [116.2238234, 37.4587637], [116.2186897, 37.4792238], [116.229397, 37.4790983], [116.2356198, 37.4908724], [116.2742758, 37.466096], [116.2655988, 37.478415], [116.2847785, 37.4835069], [116.2779244, 37.4881145], [116.2872335, 37.497083], [116.2785947, 37.5002407], [116.2926129, 37.5088887], [116.2745643, 37.509879], [116.2777903, 37.5175556], [116.2705927, 37.5214367], [116.2856583, 37.5223738], [116.2819414, 37.5492508], [116.2945748, 37.5589673], [116.2938287, 37.5688352], [116.2998394, 37.5635392], [116.3237651, 37.5695828], [116.3280809, 37.5753737], [116.3134763, 37.5784963], [116.3222452, 37.5812528], [116.3471246, 37.5602025], [116.3575423, 37.5693021], [116.373775, 37.5623712], [116.3672304, 37.5573788], [116.3735819, 37.5433353], [116.3630623, 37.5255923], [116.3822186, 37.5205676], [116.3819075, 37.5114109], [116.3989341, 37.5119811], [116.4171409, 37.4792685], [116.4320326, 37.4754882], [116.4507436, 37.5133683], [116.4791965, 37.5222355], [116.5142139, 37.5592248], [116.5351028, 37.5693436], [116.569116, 37.6091982], [116.6047559, 37.6257589], [116.6355002, 37.6658514], [116.6326276, 37.6800192], [116.6478698, 37.677039], [116.6570072, 37.6849394], [116.6739754, 37.7270574], [116.6943991, 37.7299494], [116.6978878, 37.7416891], [116.7038438, 37.734632], [116.7186875, 37.743546], [116.713838, 37.764591], [116.7330267, 37.7563719], [116.7448859, 37.7601395], [116.7494233, 37.7872241], [116.7430666, 37.7995239], [116.8069121, 37.8406193], [116.8347152, 37.8339652], [116.9154739, 37.8445626]]]}}]}