{"type": "FeatureCollection", "features": [{"type": "Feature", "properties": {"slug": "juneau-ak", "members": 1, "country": "United States", "input_hash": "27bde15138f8589c"}, "geometry": {"type": "MultiPolygon", "coordinates": [[[[-134.77593058847867, 58.10844991054953], [-134.7762522932397, 58.10799010228341], [-134.776204, 58.108261], [-134.77593058847867, 58.10844991054953]]], [[[-134.77409178322958, 58.1110780900349], [-134.7739, 58.112373], [-134.77310976430724, 58.11248167640554], [-134.77409178322958, 58.1110780900349]]], [[[-134.77040380871279, 58.11634926215728], [-134.7705149645249, 58.12174306997976], [-134.7702684, 58.1165428], [-134.77040380871279, 58.11634926215728]]], [[[-134.77118707476464, 58.13591848594515], [-134.771192, 58.132916], [-134.773316, 58.13605], [-134.77118707476464, 58.13591848594515]]], [[[-134.77171530313498, 58.14705930248339], [-134.772749, 58.149794], [-134.77187517619512, 58.15043117066066], [-134.77171530313498, 58.14705930248339]]], [[[-134.77216333710757, 58.15650874626864], [-134.772315, 58.157084], [-134.77220032468736, 58.157288847951925], [-134.77216333710757, 58.15650874626864]]], [[[-134.77253970310034, 58.16444664720691], [-134.772726, 58.165048], [-134.77258408603615, 58.16538272367128], [-134.77253970310034, 58.16444664720691]]], [[[-134.77221977058866, 58.1667318790845], [-134.771901, 58.166851], [-134.77173100682123, 58.16684760371147], [-134.77221977058866, 58.1667318790845]]], [[[-134.761836, 58.169567], [-134.76085983342983, 58.17080749680594], [-134.771164, 58.167701], [-134.761836, 58.169567]]], [[[-134.8946147, 58.461964], [-134.861231, 58.440039], [-134.8077091, 58.3747542], [-134.8409675, 58.3703236], [-134.8973879, 58.4369505], [-134.8957596, 58.4519791], [-134.9182516, 58.4649985], [-134.9245656, 58.4869004], [-134.9059952, 58.4816862], [-134.8946147, 58.461964]]], [[[-134.9928537, 58.4588607], [-134.9830756, 58.4620943], [-134.9787451, 58.454556], [-134.9928537, 58.4588607]]], [[[-134.9389315, 58.4725986], [-134.9981343, 58.4814105], [-135.0253406, 58.5052414], [-135.0293939, 58.5200272], [-135.0034495, 58.5047073], [-134.9695247, 58.5018434], [-134.9690442, 58.4859643], [-134.9389315, 58.4725986]]], [[[-135.0439167, 58.5339303], [-135.038361, 58.5332389], [-135.0284851, 58.5233723], [-135.0374223, 58.5252853], [-135.0439167, 58.5339303]]], [[[-134.8958068, 58.5556268], [-134.9091839, 58.55446], [-134.9239435, 58.5702407], [-134.9031261, 58.5650885], [-134.8958068, 58.5556268]]], [[[-134.9303055, 58.5750104], [-134.935863, 58.5773261], [-134.9261427, 58.5759837], [-134.9303055, 58.5750104]]], [[[-134.9541272, 58.6356291], [-134.953059, 58.6296485], [-134.9630114, 58.6408055], [-134.9541272, 58.6356291]]], [[[-133.5798776, 57.9081053], [-133.5746527, 57.9174293], [-133.52706313173545, 57.916054711177495], [-133.57367096248007, 57.88195809415135], [-133.5798776, 57.9081053]]], [[[-134.10741258659917, 58.09922106745465], [-134.10745888701769, 58.099259805471476], [-134.1074275, 58.0992558], [-134.10741258659917, 58.09922106745465]]], [[[-134.466819, 58.094185], [-134.531804, 58.096726], [-134.545, 58.083423], [-134.570203, 58.077855], [-134.548792, 58.066524], [-134.553923, 58.053616], [-134.621446, 58.059183], [-134.665358, 58.030004], [-134.695669, 58.030358], [-134.722533, 58.056915], [-134.76194, 58.07809], [-134.756067, 58.086058], [-134.76576638396259, 58.096414094779476], [-134.7557924, 58.0994818], [-134.7643621, 58.1026351], [-134.7527747, 58.1247604], [-134.7623896, 58.1628574], [-134.7255556, 58.1749307], [-134.74016827829954, 58.1919078773075], [-134.70965543440886, 58.22555922081826], [-134.7124379, 58.1960215], [-134.7020307, 58.1865475], [-134.6999268, 58.1609119], [-134.6291253, 58.1634171], [-134.5834669, 58.1783245], [-134.5859755, 58.1732814], [-134.5690404, 58.1710087], [-134.5608405, 58.1756202], [-134.5813229, 58.1738755], [-134.5663986, 58.1786963], [-134.5710476, 58.1911366], [-134.558787, 58.1950154], [-134.5161109, 58.1752597], [-134.4203631, 58.1694725], [-134.3707245, 58.148477], [-134.3437277, 58.1473351], [-134.33061923445726, 58.130161199347505], [-134.413709, 58.114212], [-134.421487, 58.10425], [-134.466819, 58.094185]]], [[[-134.2660313, 58.157438], [-134.2321322, 58.1571416], [-134.2074831, 58.1667026], [-134.1786376642978, 58.15942816767966], [-134.3298643, 58.1326028], [-134.3300711, 58.142474], [-134.3022366, 58.1528229], [-134.2776106, 58.144033], [-134.2660313, 58.157438]]], [[[-134.5904167, 58.1794026], [-134.5890643, 58.1842596], [-134.58506, 58.1822846], [-134.5904167, 58.1794026]]], [[[-134.2798, 58.19118], [-134.3226, 58.19487], [-134.46089, 58.22999], [-134.50117, 58.2256], [-134.50597, 58.21702], [-134.57709, 58.22859], [-134.62902, 58.24814], [-134.68926, 58.30128], [-134.67727, 58.29554], [-134.67144, 58.31237], [-134.60364, 58.32498], [-134.6066, 58.33355], [-134.59295, 58.33055], [-134.60321, 58.33531], [-134.58578, 58.34329], [-134.5268, 58.3449], [-134.38388, 58.27608], [-134.25552, 58.19762], [-134.2798, 58.19118]]], [[[-134.74702, 58.34199], [-134.73236, 58.32986], [-134.74942, 58.34294], [-134.74702, 58.34199]]], [[[-134.66418, 58.34275], [-134.65254, 58.34096], [-134.66773, 58.33068], [-134.66418, 58.34275]]], [[[-134.5006585, 58.3400463], [-134.5074606, 58.3406545], [-134.5137263, 58.3433686], [-134.5006585, 58.3400463]]], [[[-134.59191, 58.35117], [-134.58957, 58.34808], [-134.5947, 58.34454], [-134.59191, 58.35117]]], [[[-134.66268, 58.35308], [-134.66307, 58.34895], [-134.66562, 58.34966], [-134.66268, 58.35308]]], [[[-134.69115, 58.34815], [-134.70598, 58.35407], [-134.69721, 58.36301], [-134.69115, 58.34815]]], [[[-133.6450768, 57.8877619], [-133.6546469, 57.8740259], [-133.62909749255752, 57.84133209138309], [-133.696619, 57.795049], [-133.7236118, 57.8037524], [-133.7461537, 57.8309234], [-133.7446404, 57.8415989], [-133.8504052, 57.9347771], [-133.8455558, 57.9436045], [-133.8531947, 57.9522361], [-133.830235, 57.9611844], [-133.8333464, 57.9685599], [-133.7611322, 57.9956902], [-133.7324953, 57.9532722], [-133.7117672, 57.9456088], [-133.6998035, 57.9298622], [-133.6804068, 57.9316329], [-133.691082, 57.9441454], [-133.6901438, 57.9591367], [-133.7047947, 57.9736237], [-133.7015104, 57.9843416], [-133.6517286, 58.0171401], [-133.6015713, 58.011923], [-133.5672114, 58.0282171], [-133.6571467, 58.026146], [-133.7120193, 57.9957639], [-133.7287724, 58.0146055], [-133.7595083, 58.0287004], [-133.7578476, 58.0440943], [-133.775357, 58.0647635], [-133.7467861, 58.0775756], [-133.7410998, 58.0965981], [-133.7123036, 58.1009808], [-133.6928737, 58.1163811], [-133.715915, 58.1273454], [-133.7167829, 58.1356746], [-133.668412, 58.1531122], [-133.7217021, 58.1444384], [-133.7290943, 58.1299452], [-133.7301457, 58.1391606], [-133.7386927, 58.1409851], [-133.7438572, 58.1331456], [-133.7323666, 58.1352696], [-133.733418, 58.1294183], [-133.7464428, 58.1260873], [-133.7296844, 58.1104927], [-133.7614095, 58.1042462], [-133.7585664, 58.0845698], [-133.7883067, 58.0712155], [-133.7969113, 58.0477908], [-133.8307286, 58.0593547], [-133.8073611, 58.0411698], [-133.8093567, 58.0236405], [-133.7860966, 58.0101327], [-133.8426805, 57.9896424], [-133.8529587, 57.9925483], [-133.888557, 57.9742669], [-133.9269233, 57.9848933], [-133.9898157, 58.0288105], [-133.944499, 58.0395713], [-134.0024972, 58.0347635], [-134.0285039, 58.0574304], [-134.0146852, 58.0602741], [-134.0159726, 58.0766339], [-134.036175, 58.0614207], [-134.0515496, 58.0621874], [-134.0706897, 58.1018822], [-134.0662372, 58.1174833], [-134.0825021, 58.1240278], [-134.074713, 58.130319], [-134.060507, 58.1219656], [-134.0439534, 58.1262686], [-134.0763545, 58.1437022], [-134.0775883, 58.1658077], [-134.0886605, 58.1784988], [-134.0813711, 58.191703], [-134.0852552, 58.2139367], [-134.0539763, 58.2298728], [-134.0595528, 58.2638565], [-134.0813901, 58.2792487], [-134.0054171, 58.2922418], [-133.9876047, 58.3106431], [-133.9667454, 58.3177038], [-134.0045366, 58.3424225], [-133.992327, 58.3523815], [-133.9935988, 58.364734], [-134.0003974, 58.3678257], [-133.9974976, 58.3780998], [-134.0071416, 58.3744338], [-134.0166485, 58.4009684], [-134.0022422, 58.411656], [-133.9479095, 58.4223976], [-133.9227079, 58.4432986], [-133.934466, 58.4397459], [-133.9322945, 58.4505843], [-133.950954, 58.4735082], [-133.942784, 58.4900888], [-133.925761, 58.4996758], [-133.9743123, 58.4996659], [-133.9854128, 58.4932926], [-133.9768617, 58.4958705], [-133.9782353, 58.4690959], [-133.9680243, 58.4635418], [-133.981923, 58.4319495], [-133.9900173, 58.4453057], [-133.9965038, 58.4299202], [-134.0143439, 58.4190906], [-134.0571966, 58.4103291], [-134.0840541, 58.4142393], [-134.0436686, 58.4031272], [-134.0632972, 58.3748385], [-134.0515778, 58.3656454], [-134.0610192, 58.3539028], [-134.0555165, 58.351889], [-134.0572838, 58.3349656], [-134.1113724, 58.3109185], [-134.1443953, 58.306338], [-134.1373935, 58.2982276], [-134.1513146, 58.2847816], [-134.1468586, 58.2721478], [-134.1021879, 58.2463264], [-134.1038763, 58.2354302], [-134.1382649, 58.2287976], [-134.14967, 58.20079], [-134.22741, 58.20821], [-134.32377, 58.26112], [-134.3934498, 58.2861627], [-134.4066363, 58.2992533], [-134.42775, 58.29948], [-134.4604, 58.32412], [-134.52012, 58.35067], [-134.51607, 58.35598], [-134.56996, 58.35313], [-134.57577, 58.34478], [-134.58512, 58.3458], [-134.57924, 58.35208], [-134.59251, 58.35169], [-134.59878, 58.34273], [-134.60983, 58.34583], [-134.6010683, 58.3558422], [-134.6136975, 58.3578706], [-134.611466, 58.3515549], [-134.61994, 58.34988], [-134.62058, 58.36119], [-134.62166, 58.34438], [-134.63564, 58.34079], [-134.65291, 58.35019], [-134.64307, 58.35579], [-134.64172, 58.38075], [-134.6481333, 58.3871056], [-134.70101, 58.38003], [-134.68969, 58.37867], [-134.69289, 58.37269], [-134.71813, 58.37828], [-134.7262, 58.37198], [-134.77552, 58.39196], [-134.74833, 58.39572], [-134.77035, 58.41372], [-134.76644, 58.41982], [-134.75815, 58.41083], [-134.75739, 58.42152], [-134.76372, 58.43429], [-134.76775, 58.42857], [-134.7881, 58.47224], [-134.78186, 58.47656], [-134.79025, 58.48292], [-134.7864819, 58.4946309], [-134.8242467, 58.514538], [-134.8414923, 58.5134765], [-134.8354183, 58.5237382], [-134.8134166, 58.5250057], [-134.8389857, 58.5301632], [-134.8293416, 58.5314002], [-134.8574621, 58.5428815], [-134.9084616, 58.5963079], [-134.9404603, 58.6109434], [-134.9451238, 58.6263147], [-134.9379471, 58.626685], [-134.9674249, 58.6467546], [-134.9900866, 58.6766783], [-134.9472565, 58.6746224], [-134.9349619, 58.6814861], [-134.9205208, 58.6643469], [-134.905718, 58.6605667], [-134.9463988, 58.7052823], [-134.9443603, 58.7259854], [-134.9300909, 58.7323342], [-134.9389315, 58.741911], [-134.9304842, 58.7522164], [-134.9357182, 58.7875176], [-134.9534369, 58.7841843], [-134.9892497, 58.809797], [-134.9540643, 58.8334474], [-134.9969949, 58.8264434], [-135.0023282, 58.8092303], [-134.9932623, 58.7935523], [-135.0069952, 58.790328], [-135.0041843, 58.7766993], [-135.030545, 58.7886212], [-135.0160611, 58.7597546], [-135.0333881, 58.7508785], [-135.0252342, 58.7312594], [-135.0682891, 58.7655354], [-135.0806701, 58.7906893], [-135.1374793, 58.8303824], [-135.1530361, 58.8557723], [-135.1397753, 58.8739235], [-135.1474893, 58.8988992], [-135.1748049, 58.9365917], [-135.17548963581703, 58.97386479718923], [-134.313489, 58.9621822], [-134.336463, 58.9234136], [-134.258073, 58.8610358], [-133.840506, 58.7294442], [-133.7071183, 58.6122742], [-133.5578053, 58.5231314], [-133.377303, 58.4305483], [-133.461504, 58.3877233], [-133.345432, 58.2763325], [-133.172311, 58.1536756], [-133.51111458133596, 57.92736517887798], [-133.5883641, 57.9274459], [-133.6056697, 57.9100774], [-133.6030412, 57.8614319], [-133.6277175, 57.8685997], [-133.6450768, 57.8877619]]], [[[-133.9641491, 58.4919084], [-133.9673517, 58.4909246], [-133.9594836, 58.4957974], [-133.9641491, 58.4919084]]], [[[-133.9721778, 58.4898594], [-133.966326, 58.4957124], [-133.9587844, 58.4981102], [-133.965932, 58.4948021], [-133.9721778, 58.4898594]]]]}}]}