{"type": "FeatureCollection", "features": [{"type": "Feature", "properties": {"slug": "junin", "members": 1, "country": "Argentina", "input_hash": "42fbe0b2e1fb62f4"}, "geometry": {"type": "Polygon", "coordinates": [[[-61.0489615, -34.6917858], [-60.9041264, -34.8111619], [-60.8489835, -34.7631008], [-60.8156622, -34.7889122], [-60.7645369, -34.7409992], [-60.7954502, -34.7167393], [-60.7186321, -34.6458867], [-60.7431095, -34.6488088], [-60.7593859, -34.6301001], [-60.6475257, -34.5326808], [-60.7592915, -34.4449764], [-60.7533493, -34.4397819], [-60.9016913, -34.3267302], [-60.9306987, -34.3369772], [-60.9519107, -34.3337486], [-60.9663609, -34.345505], [-61.0415773, -34.2832774], [-61.0704115, -34.3073517], [-61.0980254, -34.284428], [-61.1377241, -34.3175465], [-61.1278517, -34.3257816], [-61.1811876, -34.3722472], [-61.1932897, -34.4268498], [-61.2289953, -34.4385305], [-61.2363049, -34.4337167], [-61.2311805, -34.4226258], [-61.2388723, -34.4036173], [-61.2522242, -34.4019666], [-61.2674179, -34.416867], [-61.3004653, -34.4282023], [-61.3552435, -34.4736449], [-61.2760308, -34.5407469], [-61.3392282, -34.5917488], [-61.2052974, -34.7018156], [-61.2236603, -34.7164824], [-61.1867607, -34.7474009], [-61.1814444, -34.7428608], [-61.1464572, -34.7719637], [-61.0489615, -34.6917858]]]}}]}