{"type": "FeatureCollection", "features": [{"type": "Feature", "properties": {"slug": "jyvaskyla", "members": 1, "country": "Finland", "input_hash": "10da6b3ed0a099f4"}, "geometry": {"type": "Polygon", "coordinates": [[[25.8941968, 62.2838237], [25.878648, 62.2726379], [25.8811286, 62.2925381], [25.8629101, 62.2851163], [25.8552494, 62.2919204], [25.8524647, 62.2861252], [25.8556664, 62.2958926], [25.8167178, 62.3056028], [25.828934, 62.3340534], [25.8462486, 62.3494647], [25.8423122, 62.3684808], [25.8185328, 62.3813299], [25.7862049, 62.3899456], [25.7440871, 62.3796096], [25.6170291, 62.426619], [25.579132, 62.428747], [25.5050741, 62.3781048], [25.4898572, 62.3976048], [25.4078279, 62.3900776], [25.4051159, 62.3984101], [25.3614412, 62.3956418], [25.3666118, 62.3838352], [25.3245586, 62.3770554], [25.3122891, 62.3922966], [25.2854162, 62.3891839], [25.3024519, 62.365395], [25.3695949, 62.3774662], [25.4425376, 62.357138], [25.4445089, 62.3451776], [25.4886441, 62.3462975], [25.4132259, 62.2664163], [25.4234076, 62.244889], [25.335314, 62.2329877], [25.3471587, 62.1976989], [25.2852095, 62.1523537], [25.313957, 62.1234875], [25.3475994, 62.1097827], [25.3125844, 62.088257], [25.3167915, 62.0820562], [25.2825774, 62.0707342], [25.2607866, 62.048339], [25.3366325, 62.0419124], [25.3432737, 62.0164291], [25.371182, 62.0059824], [25.3240744, 61.987723], [25.3302623, 61.9780997], [25.3456791, 61.9747171], [25.3335973, 61.9642138], [25.3408919, 61.9634291], [25.3356787, 61.9507818], [25.3512173, 61.9462776], [25.3661642, 61.9557165], [25.4111872, 61.9363807], [25.4083607, 61.9297454], [25.4426023, 61.9314477], [25.4465859, 61.9169329], [25.5962253, 61.8392056], [25.606332, 61.854257], [25.622112, 61.859193], [25.7516511, 61.8495334], [25.793947, 61.892319], [25.8501917, 61.8906326], [25.888827, 61.907284], [25.982696, 61.97026], [25.951413, 61.997469], [25.835942, 62.044466], [25.770355, 62.049114], [25.767973, 62.063555], [25.692748, 62.075712], [25.63408, 62.06667], [25.53949, 62.071735], [25.531347, 62.072699], [25.533642, 62.083848], [25.4797015, 62.0861091], [25.50615, 62.121136], [25.526681, 62.139357], [25.5367437, 62.1389268], [25.541823, 62.15996], [25.509579, 62.15828], [25.501117, 62.17645], [25.479358, 62.184428], [25.470566, 62.203284], [25.493884, 62.233032], [25.5291495, 62.2307817], [25.570777, 62.242832], [25.586024, 62.223452], [25.590398, 62.188241], [25.666044, 62.203067], [25.669787, 62.191809], [25.692751, 62.175777], [25.736981, 62.1689389], [25.7475277, 62.1816303], [25.7615828, 62.1800617], [25.7939843, 62.1523976], [25.7634589, 62.151985], [25.7502307, 62.1442817], [25.7198951, 62.1520462], [25.7052467, 62.1438136], [25.7292696, 62.1331721], [25.7328614, 62.1076557], [25.7952048, 62.0944411], [25.8039228, 62.1282027], [25.8630632, 62.1343146], [25.9127619, 62.0899519], [25.9608991, 62.0746556], [25.9408244, 62.1369879], [25.9777936, 62.1696721], [26.0490519, 62.1707308], [26.0485798, 62.1796849], [26.0213381, 62.1807613], [26.0048121, 62.1922571], [26.0175408, 62.2033823], [26.0502279, 62.1806728], [26.0193975, 62.223629], [26.0349737, 62.2331695], [26.0427434, 62.223557], [26.051348, 62.237074], [26.0445311, 62.264352], [26.0510008, 62.2676018], [25.9964327, 62.2795698], [25.9620505, 62.2986245], [25.9368723, 62.271401], [25.8941968, 62.2838237]]]}}]}