{"type":"FeatureCollection","features":[{"type":"Feature","properties":{"slug":"kaluga","member_count":1,"matched_count":1,"unmatched":[],"source":"Overture Maps division_area (CC-BY 4.0)"},"geometry":{"type":"Polygon","coordinates":[[[36.2691521,54.6063776],[36.2844193,54.5981245],[36.2771988,54.6002128],[36.2678861,54.606738],[36.2729019,54.6110099],[36.2640452,54.6126719],[36.2478044,54.6064782],[36.2536382,54.6019903],[36.2479734,54.5994422],[36.2412572,54.6004241],[36.2459633,54.6065528],[36.2276371,54.6097862],[36.2328458,54.6006852],[36.2257553,54.5885949],[36.2340189,54.5750138],[36.2062776,54.5702088],[36.20936,54.5648491],[36.1989272,54.5650494],[36.2057551,54.5589686],[36.1568642,54.538694],[36.1575293,54.5294996],[36.1527228,54.5249795],[36.1514997,54.5432562],[36.140728,54.550139],[36.1156654,54.5310685],[36.1017608,54.5387376],[36.1051082,54.5352145],[36.0941434,54.532712],[36.0918474,54.5230866],[36.0757756,54.516249],[36.0495972,54.5183664],[36.0471994,54.5244377],[36.0308111,54.5229184],[36.0196833,54.5376823],[35.9879976,54.5288287],[36.0246634,54.519998],[36.0203934,54.5274824],[36.0310793,54.5225697],[36.0357141,54.5218163],[36.0467005,54.5238587],[36.0487389,54.5167846],[36.0674071,54.5117399],[36.0853243,54.5199606],[36.0847664,54.5128485],[36.0991645,54.5085134],[36.1378419,54.5311058],[36.1371231,54.5271088],[36.1984062,54.5072302],[36.1714553,54.5025705],[36.1780187,54.4918335],[36.1699372,54.4930938],[36.1715948,54.4836273],[36.2057844,54.4865303],[36.1986422,54.4787405],[36.2211942,54.4707858],[36.2114758,54.4646584],[36.2354368,54.4585078],[36.2711906,54.4683854],[36.2935924,54.4661469],[36.3161445,54.4771385],[36.3497042,54.4645755],[36.3599181,54.4671196],[36.3410997,54.4703244],[36.3368082,54.4903581],[36.3278389,54.4901961],[36.3200497,54.4948074],[36.3031626,54.4938228],[36.2868333,54.47606],[36.2940645,54.4913178],[36.2825632,54.48885],[36.2824988,54.4923647],[36.2685299,54.4914549],[36.2656545,54.4890993],[36.2668239,54.4874416],[36.2573933,54.4833655],[36.2634015,54.4906822],[36.2462139,54.494932],[36.3134622,54.4954055],[36.3332033,54.4945706],[36.3410353,54.4928258],[36.3408779,54.5034919],[36.3500132,54.5090383],[36.3799031,54.509408],[36.3847145,54.5174746],[36.3769094,54.5185309],[36.3793388,54.5240551],[36.3978741,54.5320863],[36.3828671,54.531828],[36.3918352,54.5364335],[36.3746564,54.5559177],[36.3842009,54.5605148],[36.3797391,54.5666682],[36.3657424,54.5604456],[36.366233,54.5746911],[36.3733198,54.5821012],[36.3826478,54.5794284],[36.3914596,54.5588103],[36.4036478,54.56245],[36.4026694,54.5702536],[36.3849376,54.5857709],[36.3661626,54.5807189],[36.3429782,54.5875883],[36.3290012,54.5702967],[36.304096,54.5733553],[36.2889361,54.5799158],[36.3056945,54.5839015],[36.3117027,54.574512],[36.3210002,54.5812211],[36.2984545,54.5879515],[36.3026005,54.5940008],[36.2799883,54.6143805],[36.2691521,54.6063776]],[[36.3023257,54.4806355],[36.3147926,54.4934988],[36.322689,54.4911807],[36.3222545,54.4766211],[36.3023257,54.4806355]],[[36.3001353,54.5942838],[36.2884191,54.5975578],[36.2913169,54.6008858],[36.3001353,54.5942838]],[[36.2681329,54.481237],[36.274876,54.4914455],[36.2790441,54.485871],[36.2681329,54.481237]],[[36.100409,54.5253157],[36.0954737,54.5176565],[36.0899591,54.518628],[36.0946369,54.5290949],[36.100409,54.5253157]],[[36.2332159,54.5968379],[36.2401843,54.5918342],[36.2303781,54.5937239],[36.2332159,54.5968379]]]}}]}