{"type": "FeatureCollection", "features": [{"type": "Feature", "properties": {"slug": "kandy", "members": 1, "country": "Sri Lanka", "input_hash": "d8cb2cb00656f99b"}, "geometry": {"type": "Polygon", "coordinates": [[[80.569906, 7.453601], [80.5402967, 7.4497279], [80.5562631, 7.4189701], [80.5489602, 7.4149027], [80.5385447, 7.4218044], [80.5293504, 7.4121557], [80.5167608, 7.4136881], [80.5182178, 7.3895275], [80.511417, 7.3859939], [80.4703242, 7.4128286], [80.4611195, 7.4106902], [80.4722392, 7.3937267], [80.4514108, 7.3617441], [80.4590195, 7.3512512], [80.4262087, 7.3596149], [80.421896, 7.353206], [80.4313, 7.326357], [80.481398, 7.284783], [80.479547, 7.263561], [80.503988, 7.257993], [80.518767, 7.240886], [80.522355, 7.220308], [80.513252, 7.208088], [80.548126, 7.169357], [80.529276, 7.161654], [80.534624, 7.150431], [80.510302, 7.148978], [80.500549, 7.12797], [80.455778, 7.122054], [80.445778, 7.113723], [80.464699, 7.065427], [80.471131, 7.065217], [80.460917, 7.03133], [80.473394, 7.037301], [80.497459, 7.026068], [80.517356, 6.980073], [80.562208, 6.938773], [80.578575, 6.945194], [80.577706, 6.959399], [80.589523, 6.964871], [80.602768, 6.994509], [80.561773, 7.040289], [80.55208, 7.064955], [80.5397373, 7.0588743], [80.541222, 7.073382], [80.5543852, 7.0824162], [80.561081, 7.076751], [80.571563, 7.081987], [80.577899, 7.074364], [80.627106, 7.079256], [80.637841, 7.099292], [80.648559, 7.102919], [80.688851, 7.09271], [80.729422, 7.158065], [80.7713079, 7.1997716], [80.766678, 7.236809], [80.752977, 7.25118], [80.751405, 7.273234], [80.8017021, 7.2263823], [80.8054787, 7.2018214], [80.850395, 7.190273], [80.88043, 7.194532], [80.883944, 7.180826], [80.897596, 7.198641], [80.917268, 7.202429], [80.97294, 7.196259], [80.983282, 7.212626], [81.008157, 7.216473], [81.016526, 7.233403], [80.976271, 7.362927], [80.982724, 7.393734], [80.969458, 7.413288], [80.9742061, 7.4883552], [80.9324104, 7.4896114], [80.9181638, 7.4621822], [80.909522, 7.464931], [80.9066802, 7.4580591], [80.8990679, 7.4747161], [80.8793242, 7.4640327], [80.862696, 7.474764], [80.850121, 7.472473], [80.820365, 7.45991], [80.790271, 7.427766], [80.753326, 7.448612], [80.727754, 7.474571], [80.701151, 7.457319], [80.712143, 7.426093], [80.706017, 7.39522], [80.698389, 7.38697], [80.671213, 7.384084], [80.654014, 7.38461], [80.624666, 7.401921], [80.586165, 7.429488], [80.569906, 7.453601]]]}}]}