{"type": "FeatureCollection", "features": [{"type": "Feature", "properties": {"slug": "kapan", "members": 1, "country": "Armenia", "input_hash": "1e8db2c45ea46ab5"}, "geometry": {"type": "Polygon", "coordinates": [[[46.5735189, 39.215281], [46.6333087, 39.2309119], [46.5896931, 39.2355589], [46.5718064, 39.2556614], [46.5470497, 39.2601005], [46.5196425, 39.2986771], [46.5373557, 39.3091867], [46.50301, 39.34357], [46.47836, 39.33155], [46.4596039, 39.3382216], [46.4577813, 39.3269899], [46.4177499, 39.3262994], [46.3907988, 39.3374296], [46.3666825, 39.3764388], [46.3205122, 39.3822366], [46.2939043, 39.3652387], [46.2947131, 39.3483158], [46.3112222, 39.3370452], [46.2554791, 39.3262322], [46.2487229, 39.3216493], [46.2473111, 39.2984376], [46.2785787, 39.2648015], [46.3123903, 39.2621539], [46.323205, 39.2286525], [46.3420791, 39.2147088], [46.337573, 39.188769], [46.3192139, 39.1848772], [46.314416, 39.176592], [46.330719, 39.1279713], [46.3030343, 39.1207265], [46.2870698, 39.1280775], [46.2732167, 39.1161716], [46.2532869, 39.1161716], [46.2439896, 39.1027453], [46.2561433, 39.088197], [46.2694642, 39.0968837], [46.2978913, 39.0895294], [46.3074357, 39.0685814], [46.2996079, 39.0452275], [46.3121049, 39.0330676], [46.3542314, 39.0297122], [46.3715342, 39.0184482], [46.4344401, 39.0025285], [46.4923284, 38.9646836], [46.514828, 38.9634263], [46.5236008, 38.9706634], [46.5192286, 38.9952598], [46.5464832, 39.0020864], [46.5359352, 39.0391327], [46.5540906, 39.0571606], [46.5161378, 39.0629383], [46.5366583, 39.0837841], [46.5308337, 39.094589], [46.501621, 39.1061735], [46.5046206, 39.1237871], [46.4837361, 39.133737], [46.4967541, 39.1411665], [46.4964623, 39.1502855], [46.463017, 39.1485273], [46.4596397, 39.1593224], [46.4403586, 39.1546906], [46.4316546, 39.1876961], [46.4481184, 39.2007904], [46.4638114, 39.2005661], [46.5076818, 39.177503], [46.5040962, 39.1844443], [46.5107658, 39.1896968], [46.49862, 39.1955], [46.51503, 39.21258], [46.5321537, 39.1892595], [46.5373395, 39.1589134], [46.5465666, 39.1780831], [46.5669491, 39.188167], [46.5684635, 39.1986852], [46.58616, 39.2012973], [46.5716836, 39.2088854], [46.5735189, 39.215281]]]}}]}