{"type":"FeatureCollection","features":[{"type":"Feature","properties":{"slug":"kapfenberg","member_count":20,"matched_count":18,"unmatched":["Bruck-M\u00fcrzzuschlag (AT-6, type='District')","Sankt Barbara im M\u00fcrztal (AT-6, type='Commune')"],"source":"Overture Maps division_area (CC-BY 4.0)"},"geometry":{"type":"Polygon","coordinates":[[[15.422241,47.359053],[15.421801,47.344597],[15.391895,47.326767],[15.3981,47.319604],[15.391411,47.307763],[15.3691166,47.3196097],[15.3366744,47.3121268],[15.2826045,47.3428203],[15.217802,47.336785],[15.191488,47.377732],[15.197463,47.39905],[15.17432,47.405458],[15.16766,47.424677],[15.15173,47.430427],[15.153438,47.441627],[15.160884,47.442955],[15.140796,47.448255],[15.110183,47.438653],[15.093192,47.442583],[15.0775103,47.4613256],[15.055916,47.471704],[15.039266,47.526441],[14.982959,47.5367755],[14.977634,47.541986],[14.983403,47.551629],[14.971058,47.56847],[14.952857,47.562657],[14.938737,47.577256],[14.934093,47.601456],[14.961808,47.59697],[15.0652,47.610153],[15.074106,47.633324],[15.06725,47.651352],[15.0826349,47.6641098],[15.0745707,47.6855927],[15.082484,47.702811],[15.098772,47.719809],[15.139078,47.734173],[15.138237,47.742894],[15.0892702,47.741597],[15.1301626,47.7471829],[15.139404,47.7614352],[15.2006503,47.7537833],[15.21046,47.764437],[15.20085,47.775048],[15.2173065,47.7960299],[15.28717,47.790182],[15.2984525,47.8206523],[15.337865,47.82789],[15.374938,47.825377],[15.391212,47.812853],[15.406077,47.812803],[15.410482,47.784804],[15.438684,47.79082],[15.449979,47.772728],[15.5103718,47.7666147],[15.5167127,47.761834],[15.5085424,47.7530349],[15.513893,47.746507],[15.6072616,47.7522508],[15.6359526,47.7154183],[15.6517783,47.7176417],[15.6787319,47.698995],[15.697024,47.71303],[15.715425,47.712644],[15.71439,47.696578],[15.728678,47.664176],[15.725096,47.646452],[15.744087,47.640977],[15.740942,47.633265],[15.780354,47.642617],[15.821774,47.637952],[15.840298,47.6181002],[15.8600617,47.6181732],[15.84149,47.563939],[15.790599,47.573988],[15.6972309,47.5199285],[15.648875,47.50434],[15.645545,47.483286],[15.629543,47.486019],[15.5969271,47.4734117],[15.6071843,47.4661121],[15.5835794,47.4450948],[15.582386,47.413212],[15.536793,47.402479],[15.5315784,47.3625854],[15.4613736,47.3582167],[15.442103,47.36577],[15.422241,47.359053]],[[15.410356,47.652367],[15.389233,47.633911],[15.402473,47.634893],[15.408604,47.617771],[15.433554,47.605168],[15.413595,47.557206],[15.455524,47.557557],[15.4678272,47.5208743],[15.481101,47.519793],[15.511509,47.493987],[15.542392,47.492253],[15.529743,47.51798],[15.528132,47.54689],[15.507462,47.54606],[15.5047238,47.5517811],[15.513676,47.571831],[15.507113,47.576315],[15.526701,47.587702],[15.53349,47.603451],[15.525289,47.61189],[15.5480533,47.6405419],[15.51981,47.633971],[15.502072,47.648473],[15.480781,47.645173],[15.420432,47.659782],[15.408711,47.658542],[15.410356,47.652367]]]}}]}