{"type": "FeatureCollection", "features": [{"type": "Feature", "properties": {"slug": "karagandy", "members": 5, "country": "Kazakhstan", "input_hash": "4a67d5cf7af11fdb"}, "geometry": {"type": "Polygon", "coordinates": [[[72.7092465, 49.7618402], [72.7019677, 49.747125], [72.7055436, 49.7333525], [72.746999, 49.7020323], [72.7268044, 49.696829], [72.7182985, 49.6809298], [72.7139716, 49.6861699], [72.6923567, 49.6819204], [72.6840862, 49.6685312], [72.6643017, 49.6619756], [72.6666845, 49.6572656], [72.6565035, 49.6677776], [72.5533654, 49.6688714], [72.5318329, 49.6927849], [72.4806238, 49.7108711], [72.47690249894735, 49.76273728690673], [72.3667892, 49.7628416], [72.3670843, 49.799499], [72.3477935, 49.7995462], [72.347944, 49.8377537], [72.3384504, 49.8400874], [72.1820325, 49.8237472], [72.1751189, 49.8133279], [72.1529705, 49.80743], [72.1496661, 49.7944708], [72.1268496, 49.7873467], [72.1327099, 49.7795584], [72.092665, 49.767998], [72.0909356, 49.7591233], [72.065459, 49.7578139], [72.04872, 49.7451485], [72.0315071, 49.7476669], [72.0229168, 49.735622], [71.9921724, 49.7391564], [71.9659912, 49.7685149], [72.0046683, 49.8720305], [71.9887614, 49.9124408], [72.2071955, 49.9397759], [72.2255627, 49.9466436], [72.2606564, 49.9843851], [72.2791974, 49.968166], [72.3184053, 49.9885156], [72.3249615, 49.981798], [72.3657872, 50.0049662], [72.3679873, 50.012423], [72.2934501, 50.0828754], [72.4408814, 50.1397218], [72.4507196, 50.2015484], [72.4712021, 50.200542], [72.4710559, 50.2325382], [72.4815047, 50.2323916], [72.4814452, 50.2458626], [72.4957962, 50.2469537], [72.494835, 50.2667683], [72.5256418, 50.268666], [72.5246738, 50.2749701], [72.5492152, 50.276973], [72.5572653, 50.2517548], [72.7273419, 50.2647164], [72.7200835, 50.2847375], [72.8007616, 50.303564], [72.8248153, 50.2673525], [72.9139708, 50.2653064], [72.9627184, 50.2875233], [73.1145654, 50.2880525], [73.1487906, 50.2957219], [73.1461138, 50.2695465], [73.1713954, 50.2665648], [73.1662964, 50.2507347], [73.2192173, 50.2545507], [73.2966672, 50.2469082], [73.3143839, 50.2588944], [73.323766, 50.2483298], [73.3603473, 50.234775], [73.3285208, 50.2506339], [73.3248332, 50.2672644], [73.3529239, 50.2673241], [73.3547484, 50.2763594], [73.3678895, 50.2747197], [73.4030083, 50.2973184], [73.3947682, 50.2868991], [73.4119948, 50.2831327], [73.4383366, 50.260683], [73.4604875, 50.2767184], [73.4727074, 50.2725988], [73.4670081, 50.2618388], [73.4541895, 50.2710752], [73.4386655, 50.2603542], [73.4815693, 50.2437213], [73.4701396, 50.2208902], [73.4505811, 50.2097288], [73.4427068, 50.2179203], [73.4258013, 50.2171495], [73.4232721, 50.2064662], [73.4094783, 50.203835], [73.4115612, 50.1955958], [73.3980914, 50.1893805], [73.3818209, 50.195263], [73.3759866, 50.213978], [73.3786069, 50.1845172], [73.3887099, 50.1777629], [73.3731979, 50.1607799], [73.3688845, 50.1404589], [73.3751621, 50.1349532], [73.3616262, 50.1131126], [73.3766862, 50.0885614], [73.4041338, 50.0851605], [73.4384943, 50.1015912], [73.4558008, 50.0964765], [73.4877461, 50.1197328], [73.49, 50.1664809], [73.5263058, 50.1713417], [73.5360047, 50.231954], [73.5500283, 50.2320512], [73.5367295, 50.2998359], [73.6101687, 50.3412122], [73.6259111, 50.3696819], [73.6263552, 50.4453463], [73.6354884, 50.4757647], [73.6753118, 50.534854], [73.7048239, 50.5357617], [73.7069417, 50.5443808], [73.7228155, 50.5405787], [73.7227748, 50.5511363], [73.8651803, 50.557414], [73.8668559, 50.543143], [73.9057503, 50.5575194], [74.0367414, 50.5662669], [74.0221973, 50.6102158], [74.2866671, 50.6168528], [74.3681572, 50.6371165], [74.4000258, 50.662294], [74.4502306, 50.6633262], [74.481152, 50.6451258], [74.5809942, 50.6286638], [74.62783, 50.6074937], [74.6275725, 50.5889585], [74.5968152, 50.5546143], [74.6007761, 50.5158444], [74.632116, 50.4887776], [74.6450922, 50.4664459], [74.6777623, 50.478906], [74.7089632, 50.4803852], [74.7252724, 50.5286015], [74.7584698, 50.5457505], [74.8265211, 50.4827366], [74.8712584, 50.45443], [74.9141423, 50.4678315], [74.939115, 50.4455042], [74.9661161, 50.4119696], [74.9732322, 50.3517319], [74.9597405, 50.3467399], [74.972303, 50.3298749], [75.01866, 50.3027235], [75.1398427, 50.2548244], [75.1304663, 50.2315267], [75.109204, 50.2251571], [75.1162553, 50.218065], [74.9363235, 50.1844162], [74.8410691, 50.1194763], [74.8033107, 50.1067637], [74.8450607, 50.0406923], [74.9125783, 50.0379944], [74.9449634, 50.0134361], [75.0099236, 50.0226406], [75.0124294, 50.0295995], [75.0392161, 49.9832663], [74.9705197, 49.9533363], [74.8140092, 49.9429816], [74.8230236, 49.9379382], [74.7883847, 49.9098866], [74.6885746, 49.882815], [74.6339818, 49.889007], [74.5605376, 49.8700349], [74.5813116, 49.8386643], [74.5726653, 49.8300493], [74.5911797, 49.7554564], [74.6136547, 49.7392248], [74.5253802, 49.7314073], [74.4366268, 49.7114243], [74.4066593, 49.7339918], [74.3996021, 49.7576863], [74.3475424, 49.7656171], [74.3189297, 49.8212626], [74.2693241, 49.8423458], [74.2913382, 49.8677009], [74.2797478, 49.880468], [74.2400746, 49.8693686], [74.2094376, 49.8799774], [74.1972918, 49.8673412], [74.1683718, 49.8590667], [74.1666283, 49.8415871], [74.1423479, 49.8187665], [74.0967545, 49.8140151], [74.0774848, 49.7270921], [74.0898348, 49.6847374], [74.081022, 49.6205994], [74.0818333, 49.5419614], [73.9290824, 49.4799781], [73.9094221, 49.4666473], [73.929984, 49.4287465], [73.8286456, 49.3928501], [73.7874684, 49.4363685], [73.7470457, 49.4318212], [73.7028585, 49.4595721], [73.6759571, 49.6120032], [73.4613531, 49.5753167], [73.4346758, 49.5588194], [73.4312146, 49.5256365], [73.3590065, 49.5028058], [73.3355286, 49.5425391], [73.2874552, 49.5653113], [73.2509453, 49.6015312], [73.23349, 49.6348685], [73.1998011, 49.633707], [73.1936005, 49.6245331], [73.2016814, 49.6068835], [73.1940645, 49.6047386], [73.2025044, 49.5671415], [73.2182113, 49.5555878], [73.208207, 49.5449546], [73.0389621, 49.5404099], [73.0389669, 49.5488194], [73.0161498, 49.5587498], [72.9175766, 49.5584885], [72.9350271, 49.5951693], [73.0095933, 49.6828225], [73.0131246, 49.6995801], [73.0022593, 49.7045223], [72.9988279, 49.719909], [72.9992107, 49.7756574], [72.9642007, 49.7653544], [72.9592251, 49.7545847], [72.9426252, 49.7658799], [72.9319113, 49.7537801], [72.9248843, 49.7628175], [72.8605091, 49.7449041], [72.8488537, 49.7581055], [72.8403998, 49.7536662], [72.8427848, 49.7416549], [72.8106258, 49.7373373], [72.7902504, 49.7420711], [72.7774707, 49.7621114], [72.7092465, 49.7618402]], [[72.5794694, 49.7894551], [72.5742852, 49.7913093], [72.57120697960097, 49.79091368081564], [72.5794694, 49.7894551]], [[72.56826541476174, 49.79053562488346], [72.566243, 49.7902757], [72.5638064, 49.7885026], [72.56826541476174, 49.79053562488346]], [[72.97956630180525, 49.82427511749889], [72.97959076357688, 49.82412997158941], [72.9832782, 49.8249983], [72.97956630180525, 49.82427511749889]], [[73.25005531344692, 49.9922565154517], [73.2483241, 49.981511], [73.250351, 49.9918596], [73.25005531344692, 49.9922565154517]], [[73.2353215, 49.9942742], [73.24963836249971, 49.99281621041189], [73.2494233, 49.9931049], [73.2353215, 49.9942742]], [[72.840685, 50.0802551], [72.836516, 50.0623839], [72.8515804, 50.0591823], [72.8600129, 50.0673992], [72.9193413, 50.0272854], [72.930629, 50.0347338], [72.9574612, 50.0302605], [72.9598145, 49.9973711], [72.9818134, 50.010245], [73.0556987, 50.0125173], [73.0860798, 50.0293833], [73.0885457, 50.0214934], [73.1115596, 50.0240915], [73.1192655, 50.0304778], [73.1089061, 50.0380386], [73.1116526, 50.0521891], [73.2156651, 50.052428], [73.2310455, 50.083997], [73.1806405, 50.0960629], [73.1800502, 50.11528], [73.1582578, 50.1070449], [73.1415262, 50.1146568], [73.1093726, 50.1531005], [73.0523144, 50.1499234], [73.0509903, 50.1258945], [72.9776314, 50.1212756], [72.9494066, 50.1908617], [72.844434, 50.1297152], [72.8573298, 50.1249882], [72.8695579, 50.105175], [72.88435, 50.1016162], [72.8464805, 50.0774504], [72.840685, 50.0802551]]]}}]}