{"type": "FeatureCollection", "features": [{"type": "Feature", "properties": {"slug": "karditsa", "members": 1, "country": "Greece", "input_hash": "2a5df0c866e9d416"}, "geometry": {"type": "Polygon", "coordinates": [[[21.9597986, 39.4632909], [21.9081307, 39.4442186], [21.8526219, 39.4164397], [21.8583602, 39.398815], [21.8463443, 39.3863493], [21.8509784, 39.3699747], [21.8091487, 39.3456887], [21.8371303, 39.3292474], [21.8175846, 39.3247921], [21.8059906, 39.3048253], [21.7848674, 39.3009204], [21.8129662, 39.2640172], [21.7856993, 39.2494829], [21.7757234, 39.2586176], [21.760781, 39.2548264], [21.7428782, 39.2276143], [21.6897529, 39.2207206], [21.6998299, 39.181553], [21.7441773, 39.1782084], [21.7337543, 39.1667036], [21.7336626, 39.1524801], [21.72301, 39.1493307], [21.7302567, 39.1140883], [21.7669358, 39.1134196], [21.7714396, 39.102033], [21.8107042, 39.1194089], [21.818229, 39.1271086], [21.8129468, 39.1375821], [21.8373284, 39.1547805], [21.8585408, 39.1516329], [21.8736646, 39.1232409], [21.895989, 39.1228383], [21.9007986, 39.1070919], [21.9070539, 39.1069121], [21.9115403, 39.1288878], [21.9241212, 39.141375], [21.9728026, 39.1537649], [21.9804163, 39.1731693], [21.9741612, 39.1842149], [22.0038131, 39.190277], [22.003051, 39.2309525], [22.01482, 39.2430016], [21.9935501, 39.2575933], [21.9963183, 39.3050774], [21.9744403, 39.3121677], [21.9753034, 39.3183634], [21.9894924, 39.325664], [21.9923013, 39.3370016], [22.0069252, 39.3410088], [22.0132586, 39.3553447], [22.0531265, 39.3537482], [22.0382711, 39.3702928], [22.0368801, 39.3986047], [22.0083902, 39.3954084], [22.0103415, 39.4534725], [22.0018641, 39.4640575], [21.9597986, 39.4632909]]]}}]}