{"type": "FeatureCollection", "features": [{"type": "Feature", "properties": {"slug": "karlstad", "members": 1, "country": "Sweden", "input_hash": "7dfdd0fc3330bf6f"}, "geometry": {"type": "MultiPolygon", "coordinates": [[[[13.418983, 59.4846916], [13.4412842, 59.5053158], [13.4996301, 59.4773215], [13.5472698, 59.496744], [13.5425272, 59.5240411], [13.5493272, 59.5291333], [13.5434866, 59.5350398], [13.5580663, 59.5351386], [13.5981871, 59.5562412], [13.6153326, 59.54648], [13.6354202, 59.5613924], [13.6367764, 59.5688305], [13.6174862, 59.5831227], [13.6251613, 59.6147192], [13.5863562, 59.6497162], [13.615272, 59.6598359], [13.5942858, 59.6798751], [13.6572377, 59.7505708], [13.6811529, 59.7569584], [13.6868006, 59.7725043], [13.7323377, 59.7672598], [13.7804157, 59.773801], [13.8306268, 59.7536002], [13.8256722, 59.7359992], [13.917999, 59.6450185], [13.9508003, 59.5877263], [14.0312429, 59.5534623], [14.0164528, 59.5297326], [14.0207187, 59.4958616], [14.0065875, 59.4935588], [14.0176943, 59.4879461], [14.0120601, 59.4809292], [14.01652, 59.4697757], [14.0010836, 59.4533426], [14.0063192, 59.4493687], [13.9837623, 59.4376728], [13.971203, 59.4393292], [13.960703, 59.4246538], [13.9312998, 59.4235973], [13.8900623, 59.3854873], [13.8693607, 59.377098], [13.8737097, 59.3501452], [13.8854245, 59.3407121], [13.8160786, 59.2963233], [13.7881087, 59.3024738], [13.7919443, 59.2837027], [13.7346381, 59.2546362], [13.7040334, 59.3102667], [13.6006427, 59.3569143], [13.5955278, 59.3699668], [13.5484402, 59.3556829], [13.5218857, 59.3626113], [13.5121042, 59.3531003], [13.4832578, 59.3563585], [13.3915521, 59.3319955], [13.4123705, 59.3188734], [13.4122703, 59.3093076], [13.3644546, 59.1663203], [13.1769242, 59.2549596], [13.1653697, 59.3251373], [13.1771161, 59.3400497], [13.1752857, 59.3498469], [13.1633772, 59.3517392], [13.1604421, 59.3817219], [13.1482414, 59.3974781], [13.1633434, 59.4701177], [13.153244, 59.475571], [13.171755, 59.4772299], [13.1863606, 59.4912645], [13.198153, 59.4823938], [13.2352233, 59.5029879], [13.2318397, 59.4967486], [13.2439462, 59.4999053], [13.2524528, 59.4859812], [13.2751696, 59.4952834], [13.3161759, 59.4854779], [13.3433755, 59.4933835], [13.418983, 59.4846916]], [[13.2036715, 59.4773751], [13.2036817, 59.4773132], [13.2040999, 59.4773844], [13.2036715, 59.4773751]], [[13.2102598, 59.4810724], [13.2100673, 59.479901], [13.2104022, 59.4810573], [13.2102598, 59.4810724]], [[13.1904459, 59.4859398], [13.1893463, 59.4857741], [13.1905341, 59.4856368], [13.1904459, 59.4859398]], [[14.0075663, 59.4952255], [14.0035654, 59.4937697], [14.0065751, 59.4936392], [14.0075663, 59.4952255]], [[14.0179968, 59.5022529], [14.015282, 59.5028263], [14.0083601, 59.4954469], [14.0170479, 59.4958116], [14.0179968, 59.5022529]]], [[[13.1499086, 59.4843048], [13.1462658, 59.4872933], [13.1501464, 59.4873453], [13.1499086, 59.4843048]]], [[[13.1431129, 59.4869686], [13.1103173, 59.4881372], [13.1292141, 59.4910051], [13.1431129, 59.4869686]]], [[[13.0913148, 59.4989978], [13.0897678, 59.4971808], [13.0890443, 59.4983744], [13.0913148, 59.4989978]]], [[[14.0151516, 59.5005883], [14.0158837, 59.5004367], [14.0153036, 59.4997194], [14.0151516, 59.5005883]]], [[[13.2291246, 59.5079066], [13.221798, 59.5041956], [13.2210568, 59.5070595], [13.2291246, 59.5079066]]]]}}]}