{"type": "FeatureCollection", "features": [{"type": "Feature", "properties": {"slug": "karlskrona", "members": 1, "country": "Sweden", "input_hash": "8fa5d35ed13251a2"}, "geometry": {"type": "MultiPolygon", "coordinates": [[[[15.5351211, 56.0936805], [15.5350353, 56.0901492], [15.5317308, 56.0899337], [15.5351211, 56.0936805]]], [[[15.4960062, 56.101144], [15.4882254, 56.1076706], [15.4938616, 56.1112846], [15.5089241, 56.0921211], [15.4988572, 56.0982427], [15.5018377, 56.0925223], [15.484575, 56.0894458], [15.4960062, 56.101144]]], [[[15.4206956, 56.1079545], [15.4197841, 56.1051246], [15.4165143, 56.1078893], [15.4206956, 56.1079545]]], [[[15.5867256, 56.10531], [15.5861325, 56.109084], [15.5901285, 56.109448], [15.5867256, 56.10531]]], [[[15.4629908, 56.0952731], [15.4401177, 56.099126], [15.4378188, 56.1133056], [15.4452821, 56.108071], [15.4463533, 56.1169041], [15.4588819, 56.1226764], [15.4675184, 56.1177619], [15.4899747, 56.124726], [15.4827225, 56.1048073], [15.4629908, 56.0952731]]], [[[15.4259698, 56.1122505], [15.4241812, 56.1142683], [15.4290337, 56.1169668], [15.4259698, 56.1122505]]], [[[15.518702, 56.1031008], [15.5142817, 56.1135776], [15.5309657, 56.129688], [15.5648659, 56.1241319], [15.5605074, 56.1022838], [15.518702, 56.1031008]]], [[[15.6361426, 56.1067841], [15.6153421, 56.0991013], [15.6114381, 56.1037454], [15.6131977, 56.0966306], [15.593226, 56.1039489], [15.6035651, 56.1210012], [15.6300912, 56.1353662], [15.638567, 56.1293872], [15.6288157, 56.1236817], [15.6361426, 56.1067841]]], [[[15.458839, 56.1227721], [15.4536331, 56.1229578], [15.4535929, 56.1254157], [15.458839, 56.1227721]]], [[[15.5888707, 56.1490606], [15.5810133, 56.1538783], [15.5963118, 56.151508], [15.5888707, 56.1490606]]], [[[15.6006275, 56.1574439], [15.5961455, 56.1602061], [15.600038, 56.1624242], [15.6006275, 56.1574439]]], [[[15.5938545, 56.1550816], [15.5692666, 56.15927], [15.5862569, 56.1700842], [15.5938545, 56.1550816]]], [[[15.567567, 56.160051], [15.5646736, 56.1607977], [15.5607964, 56.167441], [15.567567, 56.160051]]], [[[15.535264, 56.1673656], [15.5362788, 56.1625835], [15.5322385, 56.1647252], [15.535264, 56.1673656]]], [[[15.5383292, 56.1678547], [15.5424142, 56.1663061], [15.5391445, 56.1638557], [15.5383292, 56.1678547]]], [[[15.520774, 56.166917], [15.5090152, 56.1642288], [15.5081059, 56.1689811], [15.520774, 56.166917]]], [[[15.6144224, 56.1692425], [15.6194253, 56.1681168], [15.6194855, 56.1670257], [15.6144224, 56.1692425]]], [[[15.5346249, 56.1743948], [15.534185, 56.1720954], [15.5315028, 56.1740484], [15.5346249, 56.1743948]]], [[[15.5726477, 56.1774522], [15.570965, 56.1703221], [15.5607502, 56.1713889], [15.5726477, 56.1774522]]], [[[15.5849398, 56.1835284], [15.5833551, 56.170342], [15.5786232, 56.1721749], [15.5849398, 56.1835284]]], [[[15.577878, 56.1773099], [15.5754069, 56.1766716], [15.5756389, 56.180653], [15.577878, 56.1773099]]], [[[15.6105893, 56.1740585], [15.6164142, 56.1794691], [15.6017266, 56.1695569], [15.586453, 56.1701609], [15.5909343, 56.1952459], [15.6323672, 56.1831394], [15.6105893, 56.1740585]]], [[[15.5624706, 56.1822237], [15.5514649, 56.1811203], [15.552332, 56.1858178], [15.5624706, 56.1822237]]], [[[15.7592948, 56.05791], [15.7757743, 56.0643457], [15.7730339, 56.0495431], [15.7592948, 56.05791]]], [[[15.7280366, 56.0600037], [15.7228696, 56.0633532], [15.733959, 56.0669468], [15.7280366, 56.0600037]]], [[[15.7363622, 56.070473], [15.7432716, 56.0687962], [15.7383535, 56.0665875], [15.7363622, 56.070473]]], [[[15.7316405, 56.0709812], [15.7334371, 56.0756552], [15.7363325, 56.0750767], [15.7316405, 56.0709812]]], [[[15.7281619, 56.0849887], [15.7259732, 56.0763292], [15.716961, 56.0757209], [15.71462, 56.06638], [15.7104808, 56.0776848], [15.7281619, 56.0849887]]], [[[15.7774756, 56.0826708], [15.7656996, 56.086981], [15.7696736, 56.0768609], [15.760936, 56.0821296], [15.7394812, 56.0720959], [15.7502559, 56.0883127], [15.7824236, 56.0986248], [15.7863676, 56.0913481], [15.7774756, 56.0826708]]], [[[15.7303724, 56.0901899], [15.7330074, 56.087355], [15.7306041, 56.0860716], [15.7303724, 56.0901899]]], [[[15.7200899, 56.0963029], [15.7257918, 56.0915879], [15.720695, 56.0873311], [15.7200899, 56.0963029]]], [[[15.7428178, 56.0913917], [15.7316427, 56.0920956], [15.746294, 56.0932304], [15.7428178, 56.0913917]]], [[[15.6928915, 56.1212892], [15.7069422, 56.1113944], [15.7268174, 56.1135502], [15.725719, 56.1054088], [15.7119888, 56.1004926], [15.6894971, 56.1047177], [15.7067138, 56.0961667], [15.6979591, 56.0900979], [15.7064992, 56.083645], [15.7015425, 56.0734067], [15.6818625, 56.072389], [15.6353007, 56.0976297], [15.6545482, 56.1254228], [15.6732, 56.1235035], [15.6757951, 56.1148011], [15.6928915, 56.1212892]]], [[[15.7280418, 56.0998452], [15.7385373, 56.1040865], [15.7367491, 56.1004128], [15.7280418, 56.0998452]]], [[[15.7473503, 56.1022867], [15.7416254, 56.1016931], [15.7432304, 56.1044216], [15.7473503, 56.1022867]]], [[[15.769336, 56.102807], [15.7660744, 56.1070527], [15.7778761, 56.1056551], [15.769336, 56.102807]]], [[[15.7844302, 56.1086861], [15.7817214, 56.1040851], [15.7806399, 56.1049036], [15.7844302, 56.1086861]]], [[[15.742827, 56.1081406], [15.7359863, 56.1127302], [15.7457882, 56.1147688], [15.742827, 56.1081406]]], [[[15.7188675, 56.120909], [15.7254642, 56.1212249], [15.7320195, 56.1174016], [15.7274853, 56.1132339], [15.7188675, 56.120909]]], [[[15.7668964, 56.1278138], [15.7748872, 56.1327407], [15.7788783, 56.125862], [15.76748, 56.1228528], [15.7698494, 56.1128286], [15.7624393, 56.1059485], [15.7126717, 56.1362116], [15.7403919, 56.139293], [15.7668964, 56.1278138]]], [[[15.6681911, 56.1426882], [15.6664316, 56.143372], [15.6752292, 56.145715], [15.6681911, 56.1426882]]], [[[15.6934315, 56.1580902], [15.6907254, 56.1566338], [15.6901676, 56.1637104], [15.6934315, 56.1580902]]], [[[15.6721945, 56.175138], [15.6874139, 56.1676526], [15.6775761, 56.1550563], [15.6721945, 56.175138]]], [[[15.6304825, 56.1626429], [15.6275932, 56.1734597], [15.6550244, 56.1782971], [15.6576865, 56.1616323], [15.6304825, 56.1626429]]], [[[15.6902441, 56.164154], [15.6816825, 56.1792286], [15.6972655, 56.1765144], [15.6902441, 56.164154]]], [[[15.5238777, 56.5024872], [15.5856524, 56.4952927], [15.5859441, 56.4845424], [15.599234, 56.4720538], [15.6360056, 56.4570825], [15.6567724, 56.4619482], [15.6773706, 56.4249604], [15.7357921, 56.4145152], [15.8070076, 56.34183], [15.8418475, 56.3227524], [15.9095985, 56.314805], [15.9426837, 56.3196139], [15.9701978, 56.3140131], [15.9791465, 56.3008873], [16.0116254, 56.297413], [16.0183987, 56.31345], [16.05290569865249, 56.32128103822235], [16.0477825, 56.316539], [16.0538856, 56.3139397], [16.0437725, 56.3097931], [16.0609152, 56.3077469], [16.0505185, 56.2991985], [16.0575761, 56.294573], [16.035423, 56.2676997], [16.046406, 56.2480831], [16.0391888, 56.2583464], [16.0187647, 56.2447536], [16.0157612, 56.2223823], [16.0005568, 56.2196535], [16.0018625, 56.2073922], [15.9918273, 56.2049803], [15.9966032, 56.1992179], [15.9741885, 56.2051535], [15.9605642, 56.1961749], [15.9541934, 56.175499], [15.9062881, 56.1479318], [15.9072306, 56.1383664], [15.8952648, 56.1374517], [15.9009822, 56.1290767], [15.8800292, 56.1059144], [15.8472469, 56.0880392], [15.8486936, 56.0736852], [15.8380151, 56.0728319], [15.8380312, 56.0833966], [15.815286, 56.104263], [15.7853854, 56.0988919], [15.7872303, 56.1233222], [15.8123357, 56.1472839], [15.8170836, 56.140552], [15.8218629, 56.1492442], [15.8161182, 56.1577857], [15.82829, 56.169753], [15.7867714, 56.1610527], [15.7945276, 56.1525984], [15.7792216, 56.1506322], [15.7851041, 56.1429405], [15.7626647, 56.1453562], [15.7525534, 56.1383695], [15.7384601, 56.1502351], [15.7575264, 56.1542268], [15.7603509, 56.1613717], [15.7283271, 56.1513556], [15.7246842, 56.1725875], [15.7102481, 56.1718363], [15.7154918, 56.1696813], [15.7079412, 56.1592769], [15.6952182, 56.1661953], [15.7016337, 56.1846823], [15.6837012, 56.1829776], [15.6741536, 56.1761471], [15.6771928, 56.1835172], [15.6699586, 56.1862575], [15.6647323, 56.1822393], [15.6706909, 56.1585437], [15.6602784, 56.1679758], [15.6611949, 56.1873734], [15.6552329, 56.178602], [15.647782, 56.1930213], [15.6367337, 56.1942128], [15.6373593, 56.186605], [15.6117472, 56.1895233], [15.5918285, 56.2119752], [15.5849057, 56.1996245], [15.566742, 56.1984539], [15.5645047, 56.1933245], [15.5728341, 56.1932739], [15.566859, 56.1876037], [15.5461134, 56.1923247], [15.5287647, 56.1799996], [15.529, 56.16656], [15.5147428, 56.1763274], [15.493128681756884, 56.17300164800723], [15.4901679, 56.188602], [15.4731522, 56.2070591], [15.4912486, 56.2384081], [15.4654818, 56.2418238], [15.4697942, 56.2563939], [15.4884823, 56.2607796], [15.4841349, 56.2775634], [15.4436775, 56.2701343], [15.4343848, 56.2874059], [15.3928872, 56.2794566], [15.3834854, 56.3015828], [15.3728222, 56.3056248], [15.376965, 56.3116184], [15.3707626, 56.3190743], [15.3816222, 56.319269], [15.3793819, 56.3408298], [15.3045754, 56.3606607], [15.297041, 56.3831939], [15.3484008, 56.3813784], [15.3357135, 56.407553], [15.3429157, 56.4121312], [15.3882649, 56.4151795], [15.3979322, 56.4058646], [15.4180017, 56.4048028], [15.4204319, 56.4155697], [15.437102, 56.4245648], [15.4320204, 56.4303008], [15.4376169, 56.4483648], [15.4815871, 56.4484359], [15.5057931, 56.4349823], [15.5003341, 56.4409104], [15.5068255, 56.4529947], [15.4689097, 56.4689758], [15.4806033, 56.4799754], [15.5053381, 56.4740466], [15.5238777, 56.5024872]], [[15.3993163, 56.3869979], [15.3731878, 56.395816], [15.3689859, 56.3780994], [15.3877559, 56.3634325], [15.4078468, 56.3611908], [15.3993163, 56.3869979]]], [[[15.8076578, 56.032957], [15.7899767, 56.0132065], [15.7728294, 56.0185843], [15.7962638, 56.0347403], [15.8076578, 56.032957]]], [[[15.7748222, 56.028942], [15.7907787, 56.032921], [15.7824317, 56.0298892], [15.7748222, 56.028942]]], [[[15.804112, 56.047952], [15.7951778, 56.046078], [15.8051964, 56.0541642], [15.8161148, 56.0514032], [15.8037834, 56.0399076], [15.804112, 56.047952]]], [[[15.8150651, 56.0584764], [15.7999932, 56.056545], [15.8057095, 56.0616967], [15.8150651, 56.0584764]]], [[[15.8152968, 56.0648976], [15.8217661, 56.0603242], [15.8245923, 56.0545848], [15.8152968, 56.0648976]]], [[[15.780545, 56.059216], [15.7881239, 56.0617846], [15.7877033, 56.0586793], [15.780545, 56.059216]]], [[[15.7823217, 56.063639], [15.7848967, 56.0661689], [15.7868708, 56.0660252], [15.7823217, 56.063639]]], [[[15.7922135, 56.0746745], [15.7839738, 56.0680633], [15.7741032, 56.0703486], [15.7761031, 56.0771653], [15.7922135, 56.0746745]]], [[[15.7869778, 56.0807673], [15.7801114, 56.0824915], [15.780841, 56.0830805], [15.7869778, 56.0807673]]], [[[15.7913808, 56.1389669], [15.7906684, 56.133443], [15.7803567, 56.1381414], [15.7913808, 56.1389669]]], [[[15.9123123, 56.140956], [15.9163517, 56.1463773], [15.917682, 56.1438998], [15.9123123, 56.140956]]], [[[15.7962439, 56.1521992], [15.8022091, 56.1522852], [15.7961404, 56.1494582], [15.7962439, 56.1521992]]], [[[16.0449607, 56.23284], [16.0431773, 56.2341485], [16.0411941, 56.2380847], [16.0449607, 56.23284]]], [[[16.0429035, 56.2478777], [16.0413526, 56.2412342], [16.0369811, 56.2482472], [16.0429035, 56.2478777]]], [[[16.0393844, 56.2522945], [16.0283071, 56.2444142], [16.0300042, 56.2470026], [16.0393844, 56.2522945]]], [[[16.0461573, 56.2646654], [16.0537895, 56.2666502], [16.0527472, 56.2612063], [16.0461573, 56.2646654]]], [[[16.0618873, 56.2592823], [16.0540932, 56.2680673], [16.0456382, 56.2712544], [16.0614851, 56.275379], [16.0618873, 56.2592823]]], [[[16.0556062, 56.2794157], [16.0461321, 56.2775227], [16.0482292, 56.280215], [16.0556062, 56.2794157]]], [[[16.0619008, 56.2792048], [16.0593109, 56.2840159], [16.0670944, 56.2843448], [16.0619008, 56.2792048]]], [[[16.055252, 56.2857759], [16.0547715, 56.2836942], [16.0507964, 56.2857524], [16.055252, 56.2857759]]], [[[16.0672903, 56.2883398], [16.0606344, 56.292472], [16.0653943, 56.2949008], [16.0672903, 56.2883398]]]]}}]}