{"type": "FeatureCollection", "features": [{"type": "Feature", "properties": {"slug": "karpathos", "members": 1, "country": "Greece", "input_hash": "90928ce5cd38e03f"}, "geometry": {"type": "MultiPolygon", "coordinates": [[[[27.105727, 35.4227916], [27.1055138, 35.4222473], [27.1053253, 35.423007], [27.105727, 35.4227916]]], [[[27.1626883, 35.4426168], [27.1620311, 35.4433371], [27.1627765, 35.4433904], [27.1626883, 35.4426168]]], [[[27.0848526, 35.4538991], [27.0878575, 35.453028], [27.0835127, 35.4538572], [27.0848526, 35.4538991]]], [[[27.0593656, 35.5972202], [27.0563398, 35.5947838], [27.0545482, 35.5983116], [27.0593656, 35.5972202]]], [[[27.1201077, 35.486505], [27.1049323, 35.5123974], [27.1092981, 35.5302614], [27.1033308, 35.5359952], [27.1134891, 35.5460968], [27.1040088, 35.559777], [27.0775554, 35.5686266], [27.078813, 35.5819581], [27.0657132, 35.5861239], [27.0613618, 35.5970979], [27.0873241, 35.6135654], [27.0889593, 35.6268158], [27.1210187, 35.6436629], [27.1176811, 35.6519822], [27.1259444, 35.6628116], [27.1172511, 35.6670017], [27.1255775, 35.6864181], [27.1373665, 35.6944192], [27.1396978, 35.7089611], [27.1631556, 35.7252116], [27.1628412, 35.8026673], [27.1692755, 35.799182], [27.1745402, 35.8078277], [27.188304, 35.8022016], [27.202664, 35.8207783], [27.2223905, 35.8211381], [27.2056427, 35.8243394], [27.2100458, 35.8305408], [27.2303588, 35.8299772], [27.2316568, 35.7987544], [27.2094038, 35.770861], [27.2178196, 35.72638], [27.1906637, 35.6985904], [27.1924857, 35.6833087], [27.1625522, 35.6566406], [27.1562285, 35.6300355], [27.1634731, 35.6236241], [27.1504306, 35.6164495], [27.1598428, 35.6019706], [27.1777561, 35.5991803], [27.1886065, 35.5776128], [27.2046228, 35.5728465], [27.2033062, 35.5576323], [27.2194678, 35.5469127], [27.2009185, 35.532449], [27.2016452, 35.5140075], [27.2088398, 35.5083563], [27.2303072, 35.5087223], [27.2424654, 35.4943053], [27.2299758, 35.473578], [27.2179529, 35.48249], [27.201786, 35.4813801], [27.1931565, 35.4625601], [27.1739386, 35.4625487], [27.156823, 35.4423015], [27.158207, 35.4291708], [27.1511817, 35.4251825], [27.1730232, 35.4278715], [27.1702285, 35.4218451], [27.134479, 35.3965494], [27.1449222, 35.4082304], [27.1326924, 35.4265084], [27.1117942, 35.4239984], [27.1008425, 35.437824], [27.080028, 35.444053], [27.1096183, 35.4673857], [27.1119753, 35.4737084], [27.1043801, 35.475961], [27.1159088, 35.4763704], [27.1201077, 35.486505]]], [[[27.1090566, 35.6407583], [27.1095274, 35.6406781], [27.1086858, 35.6405108], [27.1090566, 35.6407583]]], [[[26.4571643, 35.8240933], [26.4533406, 35.8260191], [26.457782, 35.8252541], [26.4571643, 35.8240933]]], [[[26.4666095, 35.8213744], [26.4637791, 35.8283686], [26.4712891, 35.8257096], [26.4666095, 35.8213744]]], [[[26.2385003, 35.8641498], [26.2240181, 35.8573449], [26.2230156, 35.853781], [26.2217197, 35.8568248], [26.2281504, 35.8651702], [26.2385003, 35.8641498]]], [[[26.822375, 35.8755557], [26.8276537, 35.8754699], [26.8233301, 35.8730045], [26.822375, 35.8755557]]], [[[26.815781, 35.8926658], [26.8260823, 35.8921386], [26.8227681, 35.8799239], [26.8162167, 35.882212], [26.815781, 35.8926658]]], [[[26.8160643, 35.8936778], [26.8146996, 35.8938031], [26.8172994, 35.8956753], [26.8160643, 35.8936778]]], [[[26.8174892, 35.8958345], [26.8175205, 35.8957621], [26.8173441, 35.8956897], [26.8174892, 35.8958345]]], [[[26.8365605, 35.9100903], [26.834524, 35.9092329], [26.8349543, 35.9102921], [26.8365605, 35.9100903]]], [[[26.8367588, 35.9103543], [26.8368466, 35.9103668], [26.8368072, 35.9102561], [26.8367588, 35.9103543]]], [[[27.1791562, 35.4543921], [27.1793852, 35.4560141], [27.1818989, 35.4546618], [27.1791562, 35.4543921]]], [[[27.2080244, 35.5116666], [27.2080172, 35.5117326], [27.2080757, 35.5116939], [27.2080244, 35.5116666]]], [[[27.207799, 35.5117794], [27.2078241, 35.5118188], [27.2078511, 35.5117514], [27.207799, 35.5117794]]], [[[27.2078348, 35.5118894], [27.2078143, 35.5120603], [27.2078973, 35.5119818], [27.2078348, 35.5118894]]], [[[27.2074943, 35.5120091], [27.2073884, 35.5120079], [27.207391, 35.512043], [27.2074943, 35.5120091]]], [[[27.2081821, 35.5120622], [27.2083313, 35.5125018], [27.2085759, 35.5122597], [27.2081821, 35.5120622]]], [[[27.2118813, 35.5133312], [27.2125444, 35.5137185], [27.2125094, 35.5133064], [27.2118813, 35.5133312]]], [[[27.2047547, 35.8208325], [27.2041163, 35.8222138], [27.2051347, 35.8213716], [27.2047547, 35.8208325]]], [[[27.2064357, 35.8220063], [27.2057472, 35.8228754], [27.207753, 35.8228723], [27.2064357, 35.8220063]]], [[[27.2349164, 35.825204], [27.2353976, 35.8233646], [27.2345053, 35.8235573], [27.2349164, 35.825204]]], [[[27.2070614, 35.8348975], [27.2065861, 35.8353186], [27.2072446, 35.8354838], [27.2070614, 35.8348975]]], [[[27.2146186, 35.8757026], [27.2171906, 35.9012884], [27.2413974, 35.9022418], [27.2306888, 35.8746816], [27.2412344, 35.8520757], [27.2396193, 35.8299804], [27.2322144, 35.8304755], [27.2308693, 35.8404343], [27.2027206, 35.8405145], [27.1999551, 35.8513294], [27.1859255, 35.8586214], [27.2146186, 35.8757026]]], [[[27.2407174, 35.8959172], [27.2402046, 35.8957613], [27.2402393, 35.8962771], [27.2407174, 35.8959172]]], [[[27.2407766, 35.8971267], [27.24037, 35.8966858], [27.2402544, 35.8969298], [27.2407766, 35.8971267]]]]}}]}