{"type":"FeatureCollection","features":[{"type":"Feature","properties":{"slug":"kashgar","member_count":1,"matched_count":1,"unmatched":["[recovered via metro-name fallback: Kashgar]"],"source":"Overture Maps division_area (CC-BY 4.0)"},"geometry":{"type":"Polygon","coordinates":[[[85.5505848,48.1285605],[85.5468189,48.114706],[85.5545768,48.1065337],[85.5432368,48.0979104],[85.5500913,48.0955002],[85.5482873,48.0793228],[85.5345201,48.0708216],[85.541902,48.0534611],[85.5294264,48.0438514],[85.532682,48.0305558],[85.5264543,48.0246631],[85.5399114,48.0200521],[85.5373191,47.9920183],[85.5474043,47.9822237],[85.6143361,47.5400928],[85.6078337,47.5089193],[85.6395224,47.4638094],[85.6831837,47.4302465],[85.6850878,47.3971762],[85.7029578,47.3800725],[85.6980767,47.3670035],[85.6879188,47.3651907],[85.6856394,47.330021],[85.6729343,47.32086],[85.698654,47.2887132],[85.6800457,47.2508753],[85.6889388,47.2404339],[85.6856976,47.2287249],[85.6499343,47.205569],[85.6405611,47.184607],[85.5795851,47.1416344],[85.5743389,47.1258302],[85.5481337,47.1061208],[85.5443571,47.0795915],[85.5331992,47.0698296],[85.5346574,47.049095],[85.481099,47.0531249],[85.4603513,47.0639884],[85.4125171,47.0599526],[85.3824177,47.0460355],[85.3457082,47.0548428],[85.3235233,47.0429154],[85.3069613,47.0508575],[85.2993583,47.0649837],[85.2763604,47.0687742],[85.2748211,47.0563955],[85.2614626,47.0498754],[85.2168977,47.0523679],[85.194095,47.0126442],[85.175607,47.0034542],[85.1759709,46.9921661],[85.1454993,46.9892856],[85.1191217,46.969935],[85.0788428,46.9578936],[85.0826021,46.9404773],[85.0663279,46.9256637],[85.0061471,46.9264562],[84.9884783,46.9185869],[84.9733385,46.8873595],[84.9795496,46.8735525],[84.944232,46.8628509],[84.9155341,46.8800309],[84.9056568,46.8984707],[84.8584897,46.9278512],[84.858121,46.9469439],[84.7823139,46.9736877],[84.7756841,46.9918357],[84.7591835,47.0046508],[84.7097397,47.0094941],[84.6305394,46.9946996],[84.579438,46.9996389],[84.5101941,46.9749892],[84.4843054,46.9925774],[84.4602513,46.9932653],[84.4580197,47.0086601],[84.4009423,47.0056166],[84.3791628,46.9959875],[84.330883,47.0028656],[84.2991042,46.9954314],[84.2863583,47.002251],[84.2249982,46.9971921],[84.2011446,47.0022784],[84.1657155,46.9942883],[84.1583457,46.980858],[84.1246188,46.9670148],[84.050778,46.969089],[83.9856483,46.9956887],[83.9607247,46.9824428],[83.9515141,46.991203],[83.9262247,46.9847255],[83.9164281,46.9728003],[83.9020729,46.9750697],[83.9047918,46.9808269],[83.8919522,46.9883669],[83.8708287,46.9869775],[83.8697271,46.995355],[83.8349937,46.9947106],[83.8372803,47.0033519],[83.8291175,47.0103767],[83.7835121,47.024266],[83.7579634,47.024186],[83.7402355,47.0330737],[83.6986971,47.0175993],[83.6956365,47.0357719],[83.6073911,47.0462812],[83.6038533,47.0546344],[83.5850222,47.0598134],[83.5651079,47.0563578],[83.5596967,47.0611355],[83.5660068,47.0781228],[83.5249815,47.0852174],[83.5059297,47.1095069],[83.4832018,47.1091283],[83.4811574,47.1175318],[83.464903,47.1190278],[83.4707806,47.1280202],[83.4492361,47.131404],[83.4298919,47.1232471],[83.428751,47.1145463],[83.4134662,47.1159925],[83.3862801,47.1502218],[83.3645325,47.1638665],[83.3648907,47.1777807],[83.3355094,47.1699743],[83.2930715,47.1819985],[83.2800875,47.1751998],[83.2405909,47.1788367],[83.2364816,47.1890704],[83.209051,47.195967],[83.2004594,47.2163289],[83.1736792,47.2204296],[83.1508936,47.2346519],[83.0941481,47.2237893],[83.0632232,47.2277391],[83.0421513,47.2150037],[83.031327,47.2232667],[83.0233734,47.21461],[83.0280638,47.1619905],[83.01229,47.1471588],[83.0195744,47.1328519],[83.0031396,47.1208494],[83.0104064,47.1144271],[82.9931017,47.0643503],[82.968867,47.0489779],[82.9667654,47.0356154],[82.9515987,47.0200513],[82.9380671,47.0160963],[82.9222408,46.9403306],[82.8691862,46.8300163],[82.8684997,46.7991194],[82.8295326,46.777434],[82.8218078,46.7623843],[82.7880763,46.6870137],[82.7682493,46.6038135],[82.7216306,46.4850467],[82.5118959,46.1546288],[82.4561069,45.9771683],[82.3756967,45.9641161],[82.3356564,45.9391583],[82.3407047,45.9080862],[82.3299547,45.8869463],[82.3454056,45.8389546],[82.3450812,45.7956763],[82.2881234,45.7087896],[82.2826764,45.6494019],[82.2588014,45.6164839],[82.2707748,45.5505268],[82.2799588,45.5351376],[82.4377389,45.4596986],[82.5428316,45.4209581],[82.5877263,45.3447204],[82.5823778,45.2198886],[82.5601012,45.2034839],[82.4722453,45.1773357],[82.4554268,45.1874452],[82.3364153,45.207713],[82.3060512,45.2345857],[82.2807312,45.2430621],[82.2429513,45.2305222],[82.2201776,45.2347367],[82.1512237,45.2217961],[82.1039176,45.2014898],[82.081751,45.2228723],[82.0810466,45.2351906],[82.0904596,45.2454798],[82.0443053,45.2541653],[82.009207,45.2335646],[81.9418104,45.2362243],[81.9220346,45.228887],[81.8849145,45.278627],[81.8316084,45.3157759],[81.8297238,45.3298655],[81.8035554,45.3638758],[81.7717552,45.3860334],[81.7651146,45.3747688],[81.7316375,45.3747061],[81.7336972,45.3657485],[81.7137293,45.3589223],[81.6949117,45.3691477],[81.6676968,45.3515144],[81.632353,45.3565891],[81.6193875,45.3515813],[81.6126932,45.3418685],[81.5920959,45.3405491],[81.5687807,45.3253341],[81.5734202,45.3073509],[81.534668,45.3058528],[81.5215259,45.2824792],[81.476794,45.2755788],[81.4598242,45.2639422],[81.4454151,45.2636504],[81.4373169,45.2679833],[81.4383098,45.2774625],[81.4209574,45.2836382],[81.3884018,45.2709874],[81.3766618,45.2529342],[81.3516618,45.2609743],[81.3071065,45.2540854],[81.306512,45.2467908],[81.2691761,45.2367339],[81.2265929,45.2478874],[81.2183603,45.2362444],[81.1665431,45.2243024],[81.1697595,45.212807],[81.1616941,45.2056172],[81.1066064,45.221885],[81.1006768,45.2152077],[81.1090897,45.2010812],[81.0832424,45.1943792],[81.0700287,45.1723827],[81.0553995,45.1777984],[80.9965574,45.1582843],[80.9569092,45.1676335],[80.9516803,45.1604004],[80.9289557,45.1575886],[80.8966106,45.1246983],[80.8770825,45.130992],[80.8543404,45.1261104],[80.8334681,45.1404854],[80.7948603,45.1503406],[80.7732823,45.143608],[80.7280111,45.1712369],[80.7110595,45.170178],[80.726444,45.1539845],[80.6979493,45.1335134],[80.634541,45.1147688],[80.6244834,45.1179988],[80.6009103,45.1045593],[80.5615404,45.1128099],[80.5116859,45.1059729],[80.4888901,45.1264943],[80.4795977,45.1151888],[80.4378151,45.0976156],[80.4435006,45.0869631],[80.437905,45.075017],[80.3817876,45.0398697],[80.3449231,45.0410649],[80.3191195,45.0700223],[80.260726,45.0539562],[80.2402992,45.0276773],[80.2312107,45.0329995],[80.2135273,45.0232524],[80.191643,45.0283696],[80.1823241,45.0417302],[80.1678661,45.0387819],[80.1395327,45.0573519],[80.1283352,45.0392909],[80.1121966,45.048366],[80.0900778,45.0469461],[80.0870339,45.0332801],[80.0617933,45.0360189],[80.0470451,45.0021156],[80.0191227,44.9908645],[80.0135329,44.9802979],[79.9887719,44.9785951],[79.9808288,44.9647659],[79.9557171,44.961365],[79.9452069,44.9522361],[79.9437594,44.9378222],[79.9047089,44.9286865],[79.8819854,44.9106776],[79.8859161,44.8935608],[79.9142505,44.9011488],[79.9321546,44.8874805],[79.9637534,44.8819861],[79.9460661,44.8662514],[79.944715,44.8500435],[79.9558481,44.8502971],[79.9951761,44.8235933],[79.9996253,44.816031],[79.9930507,44.7968654],[79.9993673,44.7904463],[80.0781024,44.812733],[80.1142004,44.8097841],[80.1639574,44.8415649],[80.1671109,44.8274892],[80.183222,44.823546],[80.1734207,44.7939105],[80.1976239,44.7607118],[80.1935805,44.7499657],[80.2354255,44.7215566],[80.3102493,44.7042986],[80.3370082,44.6892219],[80.349207,44.6666601],[80.4103789,44.609184],[80.3908585,44.5906705],[80.3931423,44.5672405],[80.3705067,44.5324269],[80.3679134,44.5046687],[80.3466462,44.4813401],[80.3501293,44.4597263],[80.3776011,44.41003],[80.3913893,44.3140818],[80.4034839,44.2906663],[80.4064894,44.2493261],[80.3955996,44.1942784],[80.4026699,44.140542],[80.396238,44.1101139],[80.4453854,44.070761],[80.4553057,44.0452854],[80.4484725,44.0340838],[80.4580733,44.0304939],[80.4512308,44.0285262],[80.4549023,44.019904],[80.4466268,44.0099103],[80.4540076,44.000541],[80.4502061,43.9909288],[80.4614708,43.9776357],[80.4559472,43.9751885],[80.4835823,43.9558142],[80.4717774,43.9369053],[80.513131,43.8994878],[80.512538,43.8822052],[80.5043998,43.874772],[80.5210741,43.8573652],[80.5213496,43.8245158],[80.6905311,43.5741343],[80.749024,43.4725353],[80.7553716,43.4462128],[80.7347491,43.4332505],[80.7348568,43.392945],[80.7047681,43.3645544],[80.704873,43.3530875],[80.6820097,43.3281563],[80.6983553,43.3163105],[80.7520898,43.3190142],[80.7785207,43.3119758],[80.7741171,43.2791717],[80.765071,43.2670398],[80.7897822,43.2384584],[80.7826475,43.225948],[80.7860803,43.2019235],[80.8072807,43.1772719],[80.7953502,43.1715097],[80.7813115,43.1378241],[80.7434801,43.1469523],[80.7180576,43.133985],[80.7041827,43.1458328],[80.6750774,43.1432812],[80.6575262,43.1499439],[80.6084425,43.142093],[80.6025,43.135172],[80.5910145,43.1385779],[80.5489411,43.0977091],[80.5368106,43.0992996],[80.4833857,43.0698372],[80.4583596,43.0757131],[80.3934859,43.0535239],[80.3764057,43.0314118],[80.393986,42.9960601],[80.4853731,42.9447399],[80.5388551,42.9362115],[80.5893613,42.9148102],[80.6009171,42.8922307],[80.574128,42.8959365],[80.575746,42.8873975],[80.5538162,42.8868683],[80.5502581,42.8787421],[80.5428257,42.8863967],[80.5100272,42.8729382],[80.5014388,42.8804748],[80.4995585,42.8708674],[80.47429,42.8691219],[80.4716151,42.8622004],[80.4610094,42.8636117],[80.4605306,42.8554178],[80.4458984,42.8612554],[80.4390421,42.8525608],[80.4242587,42.8555658],[80.4273722,42.8500092],[80.4187942,42.8432705],[80.4243586,42.8414418],[80.4059652,42.8296341],[80.3913995,42.8393215],[80.3769064,42.828103],[80.364495,42.828245],[80.362383,42.835878],[80.3541108,42.8271044],[80.3360232,42.8308457],[80.3310429,42.8246412],[80.3256934,42.8288886],[80.3344558,42.8359224],[80.3282048,42.8381101],[80.3166345,42.8325853],[80.3060203,42.8380213],[80.2929009,42.8295986],[80.2765682,42.8377817],[80.2599508,42.827599],[80.2647734,42.8254381],[80.2548147,42.7839593],[80.2229941,42.7130058],[80.2282745,42.6952118],[80.1746004,42.6683681],[80.1619896,42.6303331],[80.1824125,42.5809576],[80.220581,42.5329391],[80.2488782,42.5239302],[80.2513504,42.513614],[80.2719068,42.510071],[80.2280319,42.4879902],[80.2067399,42.4679659],[80.2127228,42.4528213],[80.2045022,42.4285447],[80.215198,42.4238109],[80.2144957,42.4130551],[80.2334373,42.4038541],[80.2274949,42.3978062],[80.2379013,42.3807275],[80.2265665,42.3584775],[80.2375844,42.3405261],[80.2832901,42.3205415],[80.2601686,42.304471],[80.2594847,42.2928525],[80.2782261,42.281],[80.2876675,42.2642093],[80.2800856,42.2483526],[80.2841689,42.23507],[80.266757,42.2251648],[80.2285302,42.2166553],[80.2051198,42.2290655],[80.1775789,42.2176167],[80.1649618,42.1921852],[80.1638029,42.1556414],[80.1396632,42.1520939],[80.153203,42.1331446],[80.1493299,42.1177472],[80.1679461,42.0983063],[80.2279394,42.064197],[80.2094437,42.0433513],[80.1391596,42.0299576],[80.0441347,42.0491934],[79.8811971,42.0345376],[79.8455067,42.013422],[79.8533766,41.9858991],[79.8168847,41.9651363],[79.8183562,41.9507232],[79.8023353,41.9370264],[79.8025667,41.9203046],[79.772259,41.8930161],[79.7400104,41.9024644],[79.6318674,41.8925103],[79.615345,41.8604523],[79.5674085,41.8420714],[79.4843586,41.8375514],[79.4874906,41.8438233],[79.4653344,41.8529567],[79.4094256,41.8408038],[79.352228,41.7934316],[79.3231181,41.8110312],[79.2721583,41.7751815],[79.2739443,41.7663201],[79.248267,41.7572963],[79.2498314,41.7458564],[79.2284275,41.7416246],[79.2174876,41.7261744],[79.1246155,41.7228299],[79.1157245,41.706113],[79.0828369,41.6889601],[79.0284776,41.6796913],[79.0296514,41.6704067],[79.0204563,41.6679708],[79.0175479,41.6569013],[78.9901704,41.6639995],[78.9281735,41.6416665],[78.9293757,41.6330773],[78.9184708,41.6289437],[78.9219764,41.6232225],[78.8907084,41.6102181],[78.8846658,41.5956996],[78.856137,41.5949193],[78.8518321,41.579568],[78.823936,41.5715572],[78.815072,41.5586411],[78.7913314,41.5638775],[78.7380054,41.551112],[78.7129723,41.552982],[78.6900853,41.530952],[78.7034748,41.521141],[78.6627655,41.4992049],[78.6450769,41.4685484],[78.6199853,41.4767988],[78.5847439,41.4689963],[78.5797039,41.4806015],[78.5674352,41.480363],[78.5389708,41.459884],[78.5275532,41.4394925],[78.5113477,41.4403136],[78.5066423,41.4324725],[78.4498228,41.4132132],[78.3942169,41.4124187],[78.3818674,41.3915945],[78.3360947,41.3949612],[78.3208816,41.3808855],[78.3085535,41.3897707],[78.2780217,41.3884405],[78.2273744,41.4008346],[78.1563984,41.3818774],[78.145762,41.3666814],[78.1574711,41.3402657],[78.1371885,41.3123435],[78.1336456,41.245688],[78.1228781,41.2283943],[78.0549645,41.2139975],[78.0216622,41.19322],[77.9964924,41.1925014],[77.9804528,41.1830548],[77.9594779,41.1902327],[77.9012673,41.1834911],[77.874012,41.1645532],[77.8315392,41.1502823],[77.8101641,41.1300648],[77.8018927,41.1104479],[77.8049654,41.0800879],[77.8244496,41.0584743],[77.8124835,41.0431293],[77.7958006,41.0486626],[77.7788869,41.0217814],[77.7651781,41.0147841],[77.7312127,41.0300571],[77.729044,41.0214314],[77.6869413,41.0032863],[77.6608455,41.0023582],[77.6469347,41.0144628],[77.6249084,41.0024205],[77.6107573,41.0093615],[77.5865258,41.0040853],[77.5832538,40.9933867],[77.5510061,41.0045796],[77.4776797,40.9957743],[77.4654663,41.0015264],[77.469752,41.0214305],[77.4276799,41.0208596],[77.413345,41.0266823],[77.408583,41.0386556],[77.3804792,41.0282478],[77.3745322,41.0397886],[77.3551682,41.0406907],[77.3107485,41.0180587],[77.309014,41.0091111],[77.2765608,41.0012922],[77.2617595,41.0045552],[77.2632569,41.0138981],[77.2419882,41.0143869],[77.2450235,41.0245471],[77.2288796,41.0305977],[77.1857705,41.0233162],[77.1835472,41.0101975],[77.1669761,41.0106923],[77.0999286,41.0378465],[77.1067588,41.0484252],[77.0853185,41.063045],[77.0168827,41.0576866],[76.995851,41.0718791],[76.963557,41.0584246],[76.9530183,41.040206],[76.9269405,41.0248492],[76.9029992,41.017296],[76.8833397,41.0271726],[76.8688413,41.0245386],[76.8475984,40.996403],[76.8530125,40.9766964],[76.8161796,40.9768282],[76.7915273,40.9599937],[76.7533879,40.9532527],[76.7536389,40.9328669],[76.7300579,40.9010339],[76.7395685,40.8840061],[76.7242846,40.8539611],[76.7318877,40.8442777],[76.7187295,40.8422958],[76.7206144,40.8202767],[76.728384,40.8179895],[76.7105962,40.8135182],[76.6957105,40.7827573],[76.6854362,40.7767462],[76.6680501,40.7826597],[76.6682499,40.7741538],[76.6400132,40.7618267],[76.6492501,40.7179067],[76.672852,40.6946498],[76.6545135,40.6800381],[76.6582446,40.6634869],[76.6475858,40.6484319],[76.6542303,40.6218004],[76.611545,40.6107041],[76.5962495,40.5784613],[76.5567799,40.5523572],[76.551213,40.5323898],[76.5319834,40.5088141],[76.5400867,40.5042065],[76.5378048,40.4650466],[76.5060456,40.4450563],[76.5049275,40.4267922],[76.4809244,40.4269924],[76.4717116,40.4147842],[76.456503,40.4133091],[76.4398081,40.3890614],[76.3839207,40.3756578],[76.3801528,40.3887681],[76.3655823,40.3867011],[76.3427264,40.3563144],[76.3399975,40.3392595],[76.3159972,40.3650321],[76.326978,40.387703],[76.3151278,40.3940611],[76.3122512,40.4060914],[76.2789479,40.412465],[76.28608,40.4292387],[76.2726098,40.4389239],[76.2631189,40.4252954],[76.2319612,40.4142237],[76.2278043,40.4034643],[76.1840981,40.3794465],[76.1313914,40.3971566],[76.0950851,40.3889199],[76.0688209,40.3951956],[76.0375784,40.3809439],[76.0462604,40.3553208],[76.0209509,40.3528132],[75.9915011,40.3812259],[75.9546966,40.375176],[75.9587517,40.360524],[75.9241772,40.3313094],[75.9297864,40.3020747],[75.9115255,40.2911229],[75.9088562,40.3019855],[75.8788375,40.3119817],[75.8325252,40.3150057],[75.8258461,40.3277016],[75.7778688,40.3005852],[75.7541683,40.3027607],[75.7419928,40.2948387],[75.7341652,40.3061624],[75.7182173,40.2868025],[75.699612,40.2800837],[75.6903782,40.2925153],[75.7003175,40.303983],[75.6958131,40.3141949],[75.685495,40.3217268],[75.680946,40.34517],[75.6634264,40.35486],[75.6611593,40.3641862],[75.6800929,40.4212887],[75.7100563,40.4436293],[75.7064291,40.4526119],[75.7236068,40.4728394],[75.6923949,40.4849041],[75.6873392,40.4993306],[75.6674119,40.4963584],[75.6464025,40.5056447],[75.6407649,40.5280043],[75.6229034,40.5467208],[75.6210226,40.5971292],[75.631851,40.6193546],[75.6114378,40.6341433],[75.6121471,40.6448413],[75.5955639,40.6454953],[75.6030022,40.6630119],[75.5892527,40.6630529],[75.5390018,40.6474518],[75.4871612,40.6187417],[75.4147401,40.555371],[75.3278983,40.5320294],[75.3296464,40.5206429],[75.3025653,40.5052624],[75.3024673,40.4915152],[75.2799189,40.4786569],[75.2564931,40.4804243],[75.2602025,40.4714873],[75.2386193,40.4608898],[75.2385901,40.4483788],[75.2228344,40.4446744],[75.1409455,40.4613994],[75.0900968,40.4348988],[75.0846285,40.4426884],[75.0521111,40.4443783],[75.017956,40.4666121],[74.9871204,40.4518458],[74.9280133,40.4784335],[74.9124562,40.4974469],[74.8377619,40.5219397],[74.8163705,40.5052849],[74.8194372,40.4894556],[74.808337,40.4555942],[74.7876023,40.4522324],[74.7976313,40.4332536],[74.8553123,40.393763],[74.874733,40.366599],[74.905347,40.3536979],[74.9105793,40.3452616],[74.9014454,40.3377327],[74.8689083,40.3335515],[74.8617605,40.3237651],[74.7897874,40.3537452],[74.7644315,40.3472143],[74.748087,40.352583],[74.7352923,40.3445079],[74.6916965,40.3498523],[74.7007503,40.3251452],[74.6796732,40.2998172],[74.684728,40.2894059],[74.6605188,40.2728815],[74.6414378,40.2721776],[74.6303719,40.2838122],[74.5904952,40.2822165],[74.525516,40.2089619],[74.4982746,40.2044498],[74.4536126,40.156957],[74.4053543,40.1354302],[74.3689664,40.1032427],[74.3388709,40.0938591],[74.303788,40.1147688],[74.2786139,40.1043326],[74.2572009,40.1335889],[74.2289633,40.1211349],[74.2161838,40.127043],[74.1586797,40.1156882],[74.1459837,40.1050546],[74.1231119,40.1112414],[74.1064267,40.0864097],[74.0920397,40.0889383],[74.0686358,40.0775449],[74.0415845,40.0994957],[74.0117777,40.0796611],[74.0181596,40.0708531],[74.0025142,40.0632751],[73.9971706,40.0449628],[73.9830195,40.0486243],[73.936321,40.0317643],[73.9336561,40.0234012],[73.9696971,40.0148795],[73.9769919,40.0048118],[73.9072352,39.9206445],[73.905952,39.912057],[73.9214732,39.9053747],[73.9129141,39.8738387],[73.9030984,39.8616749],[73.8828021,39.8624921],[73.8788027,39.8518467],[73.8490575,39.8359531],[73.832208,39.7816191],[73.8378805,39.7551801],[73.8635604,39.7574875],[73.8687141,39.746783],[73.8999182,39.7460165],[73.919835,39.7263642],[73.910627,39.7219829],[73.9242221,39.7075137],[73.9245757,39.6855067],[73.9490409,39.6218845],[73.9475895,39.5976808],[73.9120195,39.5920725],[73.9140513,39.5633702],[73.878107,39.5429625],[73.8920375,39.5336783],[73.872997,39.5130622],[73.8743953,39.4832414],[73.8257065,39.4698821],[73.725644,39.4609028],[73.6750467,39.4630888],[73.6646557,39.471629],[73.6371837,39.4739447],[73.5968359,39.4559745],[73.5921814,39.4113561],[73.5707187,39.3971705],[73.4997347,39.3817402],[73.5642548,39.3500459],[73.5270309,39.3112242],[73.5561226,39.2966791],[73.5379428,39.2777956],[73.5630092,39.2713444],[73.5592849,39.2493876],[73.5690704,39.243868],[73.5880652,39.23946],[73.6135482,39.2476424],[73.6352205,39.2274496],[73.6409388,39.2036145],[73.6607132,39.1926457],[73.6618235,39.16497],[73.6890577,39.1600407],[73.6781422,39.1466088],[73.7065352,39.1366546],[73.70656,39.1216388],[73.7207398,39.111942],[73.7104683,39.0759157],[73.7322125,39.0673193],[73.7367559,39.036535],[73.7548285,39.0253608],[73.7652653,39.0318523],[73.7849486,39.0295199],[73.7904738,39.0418881],[73.8124236,39.0428208],[73.8208512,39.0225548],[73.8414078,39.0026299],[73.8540169,38.952357],[73.8354072,38.9215223],[73.8241244,38.9174228],[73.8094541,38.9331379],[73.7948779,38.9288679],[73.7804453,38.9420605],[73.7554649,38.941908],[73.7339752,38.9105644],[73.7170114,38.9074315],[73.7119512,38.8884862],[73.6999327,38.8798202],[73.7041861,38.8610286],[73.6945568,38.8528902],[73.7298122,38.8438058],[73.7297406,38.8299111],[73.7678162,38.7782113],[73.7676184,38.770719],[73.7558193,38.7693708],[73.7438518,38.7318084],[73.7697787,38.7172479],[73.7649031,38.7051885],[73.7743002,38.7016127],[73.7706008,38.6945546],[73.7799634,38.690561],[73.7800051,38.6801697],[73.805162,38.6639178],[73.8006681,38.648831],[73.8090139,38.6345467],[73.8014705,38.6138425],[73.8605337,38.578533],[73.8935963,38.5839899],[73.9236094,38.5425815],[73.9506946,38.5344676],[73.9765736,38.5366431],[73.9982408,38.5218773],[74.0085127,38.5249267],[74.0094757,38.5348776],[74.0393283,38.5441865],[74.0785746,38.5319385],[74.0881196,38.5488409],[74.0773663,38.5525324],[74.062119,38.5783725],[74.0756714,38.5875321],[74.0764221,38.6104887],[74.1154279,38.6104411],[74.121067,38.6411313],[74.276793,38.5991171],[74.5063549,38.4714714],[74.6226532,38.4463275],[74.6444587,38.4522228],[74.6558765,38.4391752],[74.6932427,38.4272935],[74.6896474,38.4080975],[74.6774603,38.4032351],[74.6650089,38.3817341],[74.6759582,38.3703081],[74.6750472,38.3513263],[74.6891833,38.3399175],[74.6901487,38.3144081],[74.7049727,38.2901594],[74.695971,38.265043],[74.6987237,38.2284351],[74.7062783,38.2132429],[74.7582126,38.2148995],[74.7713374,38.1972546],[74.7996464,38.2033701],[74.8048778,38.1721842],[74.7960667,38.1560199],[74.8181684,38.1292142],[74.8186213,38.0844125],[74.8538495,38.0693442],[74.8526834,38.0484685],[74.8681095,38.0356036],[74.8676269,38.0253145],[74.8860566,38.0240635],[74.8924518,38.0355293],[74.916863,38.0248731],[74.9178122,37.9808333],[74.9077634,37.9703029],[74.9214217,37.9368881],[74.9126634,37.907286],[74.938077,37.8944817],[74.9372929,37.8806067],[74.9127569,37.8569592],[74.9244163,37.8290206],[74.9445138,37.8244549],[74.9521452,37.8089348],[74.9863607,37.80825],[75.0104304,37.7758698],[74.9847141,37.7529577],[74.9666606,37.7527738],[74.9591735,37.7281029],[74.9340453,37.7178654],[74.9229401,37.7041805],[74.9332851,37.6916848],[74.8996914,37.6737014],[74.9026207,37.6471898],[74.939428,37.6032182],[74.9307832,37.5869288],[74.9323315,37.5679648],[74.9439876,37.5540897],[74.9551998,37.5545335],[74.9637801,37.5382926],[75.0115931,37.5249676],[75.0312832,37.5009707],[75.0618593,37.5254791],[75.0889018,37.484374],[75.1252838,37.4660283],[75.1254028,37.4480872],[75.1416069,37.4354522],[75.1539563,37.4095637],[75.1295192,37.3993558],[75.1116971,37.3770127],[75.093559,37.3717857],[75.121693,37.3408378],[75.1251392,37.3157118],[75.0773935,37.3157744],[74.9838131,37.2860743],[74.9519512,37.2920895],[74.926784,37.2840781],[74.9105146,37.2749773],[74.918915,37.2602926],[74.9153585,37.2373443],[74.889862,37.23409],[74.884891,37.22141],[74.858583,37.224567],[74.809106,37.214743],[74.798075,37.245223],[74.780091,37.25158],[74.741052,37.286128],[74.7153768,37.2820939],[74.703479,37.268452],[74.687867,37.26617],[74.658309,37.234413],[74.645375,37.239734],[74.646626,37.251312],[74.630446,37.264557],[74.614746,37.254429],[74.593917,37.259159],[74.582065,37.235597],[74.543494,37.249326],[74.500896,37.239261],[74.495553,37.211154],[74.468474,37.196612],[74.489881,37.177622],[74.486696,37.166276],[74.455974,37.14288],[74.460949,37.129042],[74.491387,37.116852],[74.48477,37.095534],[74.495941,37.089718],[74.494924,37.065266],[74.506956,37.062598],[74.513956,37.07842],[74.526552,37.08025],[74.543926,37.0481],[74.5653719,37.030077],[74.5801222,37.030568],[74.624373,37.047285],[74.622406,37.059823],[74.6356741,37.066324],[74.6732746,37.0705743],[74.6798271,37.0868304],[74.6948392,37.091675],[74.7031921,37.0862716],[74.7061199,37.065855],[74.7234718,37.0560096],[74.71723,37.0400507],[74.7402126,37.0192002],[74.7888851,37.027976],[74.7949035,37.0312053],[74.7899266,37.0429942],[74.798986,37.050805],[74.8285965,37.0493658],[74.8398045,37.0578138],[74.8464985,37.0295407],[74.8390148,37.0158332],[74.8541818,37.0061662],[74.8812664,36.9602828],[74.8831105,36.9360494],[74.9082769,36.929445],[74.920451,36.93375],[74.916193,36.946041],[74.9324329,36.946348],[74.9169698,36.978512],[74.973645,36.996906],[74.992298,36.990983],[75.0292459,37.01624],[75.060446,37.002078],[75.098052,37.010657],[75.1145659,37.006778],[75.140645,37.026747],[75.168135,37.009677],[75.1594129,36.990136],[75.1857851,36.976025],[75.2162911,36.971826],[75.233421,36.959055],[75.2899619,36.974483],[75.3753049,36.946841],[75.3995239,36.955057],[75.4096252,36.945542],[75.387019,36.927546],[75.385606,36.903406],[75.4225859,36.886364],[75.4319143,36.8327487],[75.4199409,36.8000071],[75.4268461,36.79039],[75.4195976,36.7733706],[75.4369783,36.7596535],[75.4347467,36.7523643],[75.4546241,36.722443],[75.4694223,36.7159075],[75.4992641,36.739151],[75.514991,36.723974],[75.5324539,36.721379],[75.536654,36.743136],[75.5273581,36.756509],[75.5339051,36.771441],[75.6403229,36.770324],[75.6758041,36.764054],[75.6981101,36.74689],[75.7241039,36.751179],[75.864847,36.669735],[75.888166,36.639054],[75.9081251,36.6318824],[75.9363077,36.601391],[75.9453106,36.6029322],[75.9259688,36.564659],[75.9635066,36.5309503],[76.0120571,36.464363],[76.0354081,36.409106],[76.0271332,36.391923],[76.0032,36.380812],[75.9852151,36.341644],[75.9954841,36.324304],[75.9949189,36.307337],[76.017195,36.30036],[76.0245271,36.273143],[76.0576939,36.245755],[76.061984,36.227331],[76.0063388,36.233893],[76.0113382,36.195027],[76.004158,36.186177],[76.0137605,36.1724909],[75.969333,36.163552],[75.9678502,36.149349],[75.932635,36.135626],[75.9320122,36.127145],[75.9493361,36.113431],[75.9372721,36.104933],[75.954425,36.080294],[75.941964,36.070845],[75.953461,36.065344],[75.9488828,36.059493],[75.956949,36.045904],[75.9989311,36.018989],[76.0475761,36.024302],[76.1009378,36.016186],[76.0975859,36.000464],[76.1070488,35.976986],[76.1357009,35.954601],[76.1594209,35.91714],[76.1477191,35.89243],[76.1549681,35.866424],[76.141044,35.84969],[76.1447779,35.837561],[76.164885,35.822729],[76.2169331,35.827782],[76.2245809,35.842344],[76.2957299,35.843189],[76.308646,35.832388],[76.3214209,35.836863],[76.3602835,35.8283575],[76.3514201,35.85435],[76.3664332,35.863568],[76.427028,35.852521],[76.4685832,35.890844],[76.5133308,35.8816822],[76.545779,35.902777],[76.5438599,35.924884],[76.5558349,35.927243],[76.5831251,35.919569],[76.5989741,35.900167],[76.572319,35.870876],[76.582976,35.863387],[76.587701,35.843383],[76.5610589,35.82252],[76.59121,35.782565],[76.5864961,35.77555],[76.6154948,35.761464],[76.642294,35.769826],[76.6518779,35.757938],[76.6869559,35.751637],[76.6969769,35.740232],[76.696223,35.724631],[76.726976,35.709904],[76.7536623,35.685081],[76.7609316,35.6631534],[76.7759922,35.6580591],[76.844488,35.6745457],[76.899752,35.6191083],[76.9673287,35.5948378],[76.9949301,35.6100706],[77.0620313,35.6003105],[77.0955037,35.5653243],[77.1119967,35.5645727],[77.1453722,35.5410708],[77.1940114,35.5218414],[77.3026011,35.5455954],[77.3382867,35.5244057],[77.3399289,35.5037431],[77.3563706,35.4941866],[77.3715991,35.4982317],[77.3813549,35.4734853],[77.3920625,35.470392],[77.4243981,35.4713344],[77.442315,35.4618311],[77.5009687,35.4893724],[77.5345922,35.4887138],[77.5719627,35.4842575],[77.5826637,35.4796756],[77.5786001,35.4698088],[77.5921752,35.465871],[77.6050242,35.4730094],[77.6295327,35.4623018],[77.6419059,35.4680125],[77.6388126,35.4832411],[77.6521244,35.4867759],[77.6905917,35.4517909],[77.6994888,35.4639674],[77.7189159,35.461439],[77.7348804,35.4694782],[77.7282803,35.4763406],[77.7426051,35.4970152],[77.7573208,35.5026119],[77.7799146,35.4982317],[77.8120637,35.5232328],[77.8279398,35.5039801],[77.840062,35.5040705],[77.8536394,35.4906669],[77.8601048,35.5001496],[77.8669243,35.4982086],[77.9109904,35.4620991],[77.9240974,35.4972106],[77.9476781,35.478626],[77.9665401,35.4812149],[77.9689933,35.4957707],[78.0006402,35.4942616],[78.0249689,35.4682598],[78.0333928,35.4697536],[78.0354764,35.482916],[78.0463743,35.4905779],[78.0660129,35.4867404],[78.0981158,35.4995308],[78.1371688,35.4924729],[78.1104294,35.4700669],[78.1009592,35.43033],[78.0580813,35.4034896],[78.0229214,35.3589806],[78.0032132,35.2394089],[78.0157461,35.215878],[78.0551339,35.1781835],[78.0881579,35.1755906],[78.0879195,35.1668792],[78.1043828,35.1662284],[78.1022595,35.1202253],[78.1105639,35.1179837],[78.1124265,35.1063557],[78.1317505,35.0996975],[78.1463516,35.0705094],[78.1336172,35.0610375],[78.1377266,35.0512056],[78.1209683,35.0451409],[78.1145094,35.0318238],[78.1427367,35.0109748],[78.1579907,34.9887481],[78.1764697,34.9879059],[78.2014758,34.9730838],[78.202275,34.9547865],[78.1736883,34.9373327],[78.207457,34.9030758],[78.2031527,34.8913167],[78.2253343,34.8891327],[78.2372173,34.8697883],[78.2282138,34.8555362],[78.2346171,34.8392538],[78.2255444,34.8111977],[78.2322691,34.7983166],[78.2270877,34.7744611],[78.2121356,34.7690507],[78.2022153,34.7354448],[78.2107316,34.7190978],[78.24108,34.714587],[78.2758669,34.6960388],[78.2783929,34.676011],[78.2620411,34.660943],[78.272983,34.6297702],[78.2901044,34.6151285],[78.3278896,34.6119403],[78.3370998,34.6035174],[78.3832292,34.6071385],[78.4219262,34.5947733],[78.430244,34.5878498],[78.4263976,34.5606846],[78.4354847,34.5419334],[78.4460143,34.5434239],[78.4592362,34.5689063],[78.4749584,34.5681851],[78.4834685,34.5801089],[78.4982291,34.5841476],[78.5134704,34.5736181],[78.5519156,34.5715444],[78.5607637,34.5560104],[78.5594658,34.5117907],[78.5799089,34.5043863],[78.5931837,34.5162451],[78.5915317,34.5281629],[78.6129483,34.5397562],[78.637412,34.5426268],[78.7097062,34.5258831],[78.7179042,34.500692],[78.7619817,34.4812218],[78.7569557,34.4658572],[78.7384661,34.4565343],[78.764039,34.4397896],[78.7829973,34.4426541],[78.8051327,34.4360916],[78.8245858,34.4179146],[78.8511482,34.4152844],[78.8778298,34.3953938],[78.8682653,34.3780475],[78.8883437,34.3588707],[78.9036784,34.3539985],[78.9064677,34.3654502],[78.9263713,34.3653048],[78.9431572,34.387183],[78.9619253,34.3876202],[78.9718723,34.3618243],[79.0391958,34.3340633],[79.0486049,34.3500266],[79.0243175,34.3725205],[79.0214221,34.3884454],[79.0079704,34.4026209],[79.0334987,34.4122914],[79.0350436,34.422629],[79.0515231,34.4294256],[79.0656852,34.4273017],[79.0740108,34.4130467],[79.1533183,34.4440789],[79.1796683,34.4238326],[79.2278291,34.4159063],[79.2561582,34.4236399],[79.2720956,34.4383856],[79.3277231,34.4445025],[79.3629539,34.4292095],[79.42229,34.4490898],[79.5019484,34.4564161],[79.5091611,34.4511975],[79.5381633,34.4788814],[79.5611169,34.4584093],[79.600515,34.4662623],[79.6233578,34.449844],[79.6454868,34.4562686],[79.6561944,34.4515097],[79.6735645,34.454603],[79.6849859,34.4767319],[79.70188,34.4860118],[79.7216296,34.4717351],[79.7526815,34.4776837],[79.7655306,34.4705453],[79.8102664,34.4871745],[79.8476093,34.5154792],[79.8614215,34.5373185],[79.8436545,34.5595164],[79.8715495,34.6174578],[79.8859213,34.6272394],[79.8851108,34.6445067],[79.8648209,34.6681661],[79.9079287,34.6946378],[79.8982428,34.7327254],[79.9269961,34.7741909],[79.9471664,34.8214136],[79.9273395,34.8554394],[79.9580474,34.8650142],[79.996004,34.857482],[80.0027846,34.896069],[80.0357435,34.9043755],[80.0336836,34.9256306],[80.0417517,34.9451918],[80.0271605,34.9519456],[80.0244139,34.9724851],[80.0299071,34.9809245],[80.0441549,34.982331],[80.0276755,34.99991],[80.0451849,35.0254983],[80.030937,35.0411004],[80.0765989,35.0780557],[80.1172827,35.0668163],[80.2079147,35.1239358],[80.2374457,35.1543721],[80.224333,35.1629589],[80.2223395,35.1780178],[80.2468013,35.1856643],[80.2563285,35.2041814],[80.2838801,35.203971],[80.2852472,35.211262],[80.3590678,35.2026385],[80.3638743,35.2100022],[80.3293692,35.2266453],[80.3245834,35.2421251],[80.2662115,35.2964467],[80.2735879,35.3004918],[80.2858752,35.3542535],[80.2987555,35.3684548],[80.3467536,35.3910228],[80.3769176,35.3923438],[80.432968,35.4508821],[80.4422377,35.4485048],[80.4389761,35.4278055],[80.4458426,35.4180135],[80.5018042,35.4080804],[80.5021475,35.3975863],[80.5103872,35.3936682],[80.5374374,35.4083519],[80.549469,35.3982391],[80.5775681,35.3961868],[80.5979767,35.4107285],[80.6364975,35.3950806],[80.6546478,35.3983498],[80.6628342,35.3721275],[80.6884537,35.3677177],[80.6843948,35.3490944],[80.697258,35.338295],[80.7578583,35.335556],[80.8422699,35.3464241],[80.8923187,35.3251343],[80.934288,35.3282356],[80.9508286,35.3135643],[81.0273056,35.3145752],[81.0481873,35.3366127],[81.0265884,35.3823891],[81.0333939,35.3930168],[81.0956116,35.4107552],[81.101326,35.3892899],[81.1162186,35.387867],[81.139595,35.3659248],[81.1781504,35.3716068],[81.1918002,35.3655712],[81.2047501,35.3261337],[81.2168961,35.3200836],[81.2377548,35.3297157],[81.2529602,35.3253021],[81.2652817,35.3433113],[81.3171344,35.3370908],[81.3325114,35.348803],[81.3847504,35.3383827],[81.4250793,35.3598595],[81.4459,35.354332],[81.4618301,35.3377571],[81.467186,35.3148918],[81.4981232,35.3055573],[81.4966354,35.2911072],[81.5653458,35.2392502],[81.6723251,35.234623],[81.7311172,35.2602692],[81.8009491,35.2767982],[81.8607407,35.2611465],[81.89077,35.2858467],[81.9385376,35.3012466],[81.9232788,35.3171959],[81.9372177,35.3257523],[82.0134125,35.3286781],[82.0453949,35.36343],[82.0420074,35.4493256],[82.0680923,35.4512825],[82.078392,35.4653015],[82.1293793,35.4813271],[82.1567764,35.5013657],[82.1834869,35.4945946],[82.1923447,35.5189095],[82.2316589,35.5211067],[82.2607498,35.548687],[82.2964401,35.5455818],[82.3169174,35.5541115],[82.3314819,35.5662918],[82.3277664,35.5862122],[82.3473587,35.6116829],[82.333168,35.6519661],[82.3899765,35.6566734],[82.405899,35.6999969],[82.4221954,35.7133102],[82.4658203,35.7179604],[82.5111618,35.6985435],[82.5435181,35.7093391],[82.6259918,35.6931114],[82.6496201,35.6738739],[82.7286377,35.6385651],[82.777626,35.6669235],[82.789917,35.6874161],[82.8778534,35.6892242],[82.8921585,35.6747627],[82.9647217,35.6681824],[82.9536209,35.6370583],[82.978775,35.6005745],[82.9785843,35.5570488],[82.9690018,35.549057],[82.9962387,35.4852982],[83.0646133,35.4633217],[83.0860138,35.4261322],[83.1237259,35.399189],[83.1898651,35.3925018],[83.2509384,35.4215393],[83.2942429,35.4007034],[83.344429,35.3988266],[83.3939133,35.3822746],[83.4474716,35.3828545],[83.484375,35.3995667],[83.5339355,35.3664589],[83.5390015,35.3425941],[83.5965652,35.3522491],[83.619411,35.3368861],[83.6760559,35.3653641],[83.7812195,35.3681145],[83.8023529,35.355545],[83.8801422,35.3653374],[83.8952332,35.3986397],[83.9116592,35.408783],[83.9906921,35.4221573],[84.0264206,35.4104919],[84.0566788,35.4114952],[84.0938034,35.3645401],[84.1302414,35.3757019],[84.1786041,35.3589058],[84.2052307,35.3815498],[84.2761459,35.4058266],[84.3339844,35.4149818],[84.4498367,35.4787598],[84.4743195,35.5150452],[84.4553299,35.5230103],[84.4511261,35.5483513],[84.6986847,35.6187782],[84.7406693,35.6138077],[84.8363571,35.6401215],[84.8516541,35.6666145],[84.9181519,35.6941261],[84.9686432,35.7045059],[84.9943328,35.7400335],[85.0523543,35.7543836],[85.1507339,35.7449493],[85.2154326,35.7662239],[85.225389,35.773188],[85.2217841,35.7816833],[85.2811789,35.7889245],[85.2792906,35.7782017],[85.3378525,35.7547379],[85.3658938,35.7297919],[85.370872,35.7019167],[85.5057978,35.6854658],[85.5186724,35.6800279],[85.5253672,35.6635028],[85.5662226,35.6418127],[85.5976372,35.6472963],[85.6127429,35.653321],[85.6277632,35.6802371],[85.6280207,35.6982922],[85.6507659,35.7318821],[85.6711077,35.7370378],[85.6820512,35.7486369],[85.8073654,35.7816582],[85.8327713,35.7707672],[85.9580231,35.7892303],[85.9922714,35.8247757],[86.0555576,35.8472282],[86.0783078,35.8642377],[86.0934114,35.8890391],[86.0866856,35.8937614],[86.0982629,35.919544],[86.1244863,35.9331733],[86.1306497,35.9803647],[86.1431864,36.0008526],[86.1711281,36.008422],[86.1785383,36.0298383],[86.1973706,36.0326629],[86.1977954,36.0484632],[86.185099,36.0564003],[86.1773112,36.076087],[86.1844382,36.0861955],[86.1797183,36.0967604],[86.1878365,36.0987816],[86.1851713,36.1310577],[86.2458462,36.1413002],[86.2761937,36.1601138],[86.2779292,36.1712147],[86.3557434,36.1690826],[86.3903275,36.2072945],[86.4242783,36.2089157],[86.4526901,36.2215385],[86.5053635,36.2031212],[86.5299759,36.2278709],[86.597229,36.2230263],[86.6504197,36.2321063],[86.6578012,36.2471285],[86.6973262,36.2452596],[86.7050939,36.2645701],[86.7222672,36.2638321],[86.7327652,36.2847748],[86.7561264,36.2950859],[86.8221985,36.2908917],[86.8593209,36.3010584],[86.8705433,36.2758583],[86.8880957,36.2628832],[86.9285004,36.2659455],[86.950419,36.2896807],[86.9707107,36.2907567],[86.9936218,36.3091354],[87.0488892,36.2970696],[87.0834198,36.3110657],[87.1465836,36.297718],[87.1580276,36.308748],[87.1584854,36.3259201],[87.1901768,36.3513133],[87.3037872,36.3642464],[87.3438995,36.392848],[87.3419254,36.4018984],[87.3535126,36.4042472],[87.3581474,36.4212738],[87.3843449,36.4128317],[87.4244205,36.4264558],[87.4312171,36.4152138],[87.4568932,36.4136945],[87.4540558,36.388874],[87.4684042,36.3546706],[87.5454326,36.3428099],[87.7334725,36.3847704],[87.7909607,36.3774746],[87.8032323,36.3913817],[87.8434582,36.3861801],[87.9195426,36.3957546],[87.9293599,36.4038085],[87.9444636,36.4001616],[87.9646646,36.4300919],[87.9807122,36.4385979],[88.00299,36.4317628],[88.0894582,36.4363196],[88.1298604,36.4272057],[88.1581796,36.4360158],[88.1849885,36.4553034],[88.2202932,36.4486216],[88.2421935,36.4703353],[88.3641551,36.4580367],[88.3609456,36.4739789],[88.3540937,36.4751175],[88.3601351,36.4813416],[88.386944,36.4826319],[88.4106378,36.4738271],[88.4689755,36.4827837],[88.4757721,36.4654768],[88.4970116,36.4466474],[88.5713969,36.4613772],[88.5837097,36.4571648],[88.6156693,36.4290286],[88.6218052,36.3902836],[88.6849213,36.3708611],[88.7282856,36.3305329],[88.7228105,36.3198094],[88.7485811,36.3099973],[88.7650063,36.2924236],[88.7871897,36.2979015],[88.7997446,36.3378332],[88.8369372,36.3544083],[88.8703539,36.3494665],[88.9234054,36.3647469],[88.9465328,36.3290119],[88.962014,36.3197334],[89.0307354,36.3112904],[89.0523524,36.2927279],[89.0978521,36.2835211],[89.1065366,36.2638104],[89.1257937,36.2541434],[89.1605625,36.2643726],[89.1974081,36.2611434],[89.2314682,36.2975197],[89.2753917,36.2617249],[89.269539,36.2563205],[89.2969884,36.2285562],[89.3341438,36.2371258],[89.3735026,36.2282564],[89.5113005,36.1432273],[89.5921701,36.1271206],[89.6130652,36.1099431],[89.6339192,36.1095451],[89.6485746,36.098036],[89.6625731,36.103144],[89.6796915,36.0911695],[89.7063748,36.0975716],[89.7614394,36.0731905],[89.7686622,36.0798447],[89.7916588,36.071413],[89.8165297,36.0812706],[89.8465813,36.0765266],[89.857752,36.0823504],[89.9113155,36.0800551],[89.9447131,36.0700474],[89.9468222,36.1003351],[89.9354091,36.1307205],[89.9430902,36.14136],[89.9911334,36.1640638],[90.0178701,36.2140762],[90.0260029,36.2586983],[90.0051699,36.2684683],[90.0030862,36.2801105],[90.0413513,36.2768978],[90.0600249,36.2543561],[90.142473,36.240376],[90.1262391,36.2170922],[90.1280538,36.2080715],[90.1539665,36.1949992],[90.1963174,36.1878743],[90.2398819,36.1598049],[90.3190787,36.1603741],[90.3435314,36.1436315],[90.3699909,36.1480918],[90.4309777,36.1332683],[90.4780206,36.1326503],[90.5255534,36.149051],[90.5525303,36.1447656],[90.5741263,36.1310038],[90.6142795,36.1270945],[90.6616207,36.1345126],[90.7730424,36.0882612],[90.7943892,36.0544476],[90.8454566,36.0174708],[90.9247834,36.0309609],[90.9762125,36.1069195],[91.0795843,36.0886863],[91.1167317,36.1008008],[91.1233647,36.1140153],[91.1143363,36.1413736],[91.0887222,36.1686783],[91.096756,36.1767998],[91.0877228,36.1915779],[91.0932083,36.2150154],[91.0572739,36.2321968],[91.0406189,36.2599335],[91.0720749,36.300209],[91.050209,36.3047371],[91.0219574,36.3309441],[91.0323563,36.3489532],[91.0254898,36.3669662],[91.032959,36.404644],[91.0511551,36.430542],[91.0235672,36.4496574],[91.0345306,36.4827957],[91.0277863,36.537014],[90.8980789,36.5634193],[90.8285675,36.5614891],[90.8090744,36.5696754],[90.819664,36.5783119],[90.8109436,36.5871201],[90.7633133,36.5836449],[90.7301865,36.5913773],[90.7177811,36.6113472],[90.7337341,36.6452866],[90.7117233,36.6623535],[90.7046127,36.6858444],[90.7148819,36.7082367],[90.7538839,36.7182703],[90.7364219,36.7396874],[90.7185416,36.7951434],[90.7290183,36.8262982],[90.757455,36.8262982],[90.7885108,36.8448652],[90.79113,36.8607334],[90.8573574,36.9190881],[90.9862173,36.9136909],[91.0363544,36.9297662],[91.0457469,36.9651833],[91.1126845,36.9703623],[91.1271039,36.9798739],[91.131734,37.0068169],[91.1805482,37.0250905],[91.2136201,37.0090354],[91.3092642,37.0142114],[91.3076768,37.0321664],[91.2879209,37.0442432],[91.3012946,37.0618529],[91.3009551,37.0806226],[91.2848739,37.1044353],[91.2785134,37.1627014],[91.2608721,37.1746552],[91.2321899,37.179245],[91.2171375,37.1998486],[91.1882854,37.2063373],[91.1913403,37.2768654],[91.1658825,37.2849679],[91.1689375,37.3000901],[91.1563783,37.3141295],[91.1346543,37.3203383],[91.1339754,37.3454386],[91.1220951,37.3629768],[91.1265078,37.373228],[91.1074993,37.3864446],[91.1074993,37.4231152],[91.096817,37.4485779],[91.0691429,37.4767405],[90.9982005,37.494248],[90.9842836,37.482936],[90.9372635,37.4804039],[90.9408356,37.4955946],[90.9099469,37.5179439],[90.8589554,37.5372849],[90.8783792,37.5771508],[90.8489646,37.6047731],[90.8146667,37.6120338],[90.8111033,37.6265063],[90.7854309,37.6432228],[90.6769028,37.6866913],[90.6614761,37.7040901],[90.611351,37.7023544],[90.5811691,37.709877],[90.5663605,37.7249794],[90.5165452,37.7288246],[90.5130889,38.2068877],[90.5290174,38.3195553],[90.4003142,38.3111542],[90.3594803,38.3001084],[90.349524,38.235277],[90.2792071,38.2380285],[90.1350868,38.3407895],[90.1504773,38.3492251],[90.1401186,38.3519301],[90.1397967,38.3606714],[90.15751,38.3599647],[90.1770687,38.3968033],[90.1272708,38.4003096],[90.1123738,38.4138537],[90.1111185,38.4821747],[90.1324582,38.4942424],[90.2558827,38.4916644],[90.3052461,38.5021688],[90.314666,38.5004896],[90.3107822,38.4903964],[90.3281522,38.4927477],[90.3547919,38.4806965],[90.4236864,38.4917912],[90.438834,38.5103139],[90.4641282,38.5212799],[90.4551851,38.5467565],[90.4619925,38.5561513],[90.5237263,38.5603263],[90.5342712,38.5681018],[90.5321355,38.5806764],[90.5595653,38.5927793],[90.6095531,38.5951787],[90.605482,38.6107212],[90.644124,38.6342372],[90.6180957,38.6637906],[90.622367,38.6676989],[90.6598077,38.6737954],[90.7284157,38.6569115],[90.8011615,38.6667088],[90.8022092,38.6544804],[90.8316569,38.6682622],[90.9671917,38.6969965],[91.1123271,38.7069476],[91.1264758,38.7175192],[91.2263177,38.741885],[91.243403,38.7522431],[91.2989968,38.7466218],[91.3150142,38.7598937],[91.3546574,38.7687402],[91.445356,38.8129045],[91.5006162,38.8148806],[91.6114034,38.8382774],[91.642282,38.8548805],[91.6782422,38.8514259],[91.6778647,38.8583349],[91.7053303,38.8681092],[91.7845181,38.8615687],[91.8098129,38.8736205],[91.8593643,38.8775883],[91.8779302,38.8823753],[91.8785976,38.8987903],[91.9202429,38.908866],[91.9652252,38.9310898],[92.0395728,38.9497773],[92.0916479,38.9540519],[92.1080706,38.9631526],[92.1731009,38.9608042],[92.1915057,38.9812771],[92.2565742,39.0016097],[92.3812337,38.9994001],[92.4003077,39.0113935],[92.4172175,39.0100806],[92.4047184,39.0327778],[92.4097288,39.0379655],[92.3899555,39.0575546],[92.3695385,39.0568506],[92.3526245,39.0683342],[92.3499745,39.0834762],[92.3641688,39.0979613],[92.3427734,39.1439989],[92.3461819,39.2010655],[92.3386502,39.2373639],[92.3833491,39.262018],[92.5192772,39.3644671],[92.6394079,39.5149706],[92.7441788,39.8660724],[92.7953285,40.1524732],[92.9057014,40.3103516],[92.9193056,40.3906278],[92.9272878,40.5720119],[93.5050464,40.6475152],[93.7594163,40.6648355],[93.8194653,40.7927591],[93.8083075,40.8786077],[93.9064978,40.9830084],[94.0081213,41.1128569],[94.1818426,41.2670981],[94.5335766,41.5047209],[94.7490118,41.5371092],[94.8083209,41.6176241],[94.8605918,41.6673339],[94.9671077,41.7171336],[95.0102805,41.7248212],[95.1355827,41.7713557],[95.1706016,41.7307945],[95.1979922,41.7179665],[95.1928317,41.6917899],[95.2202868,41.6596073],[95.248847,41.6063618],[95.2981353,41.5628266],[95.3325748,41.6402709],[95.3596114,41.6681033],[95.5700683,41.7937844],[95.6714773,41.8273149],[95.7625437,41.8346696],[95.806725,41.8476342],[95.8506918,41.8468989],[95.8829212,41.8657258],[95.9998441,41.9048163],[96.0543036,41.9339709],[96.1159301,41.9840262],[96.1367224,42.0181824],[96.1375807,42.0531168],[96.0757826,42.1486419],[96.1777495,42.2166951],[96.040077,42.325428],[96.0404204,42.3522013],[96.0646246,42.4129383],[95.977764,42.4354936],[96.0162161,42.4805799],[96.0225676,42.5410661],[96.0716627,42.567621],[96.1017035,42.6031363],[96.1647032,42.6213285],[96.1669348,42.6300437],[96.2153433,42.6433036],[96.3874094,42.7245257],[96.3630485,42.8986922],[95.9077732,43.2362711],[95.8778237,43.2773564],[95.8575958,43.4135815],[95.7357929,43.5943086],[95.6475074,43.7763101],[95.6229095,43.8514132],[95.5228078,44.0050557],[95.4417635,44.0050818],[95.3737948,44.0243972],[95.3507604,44.0193232],[95.3201588,44.0295045],[95.3476452,44.0892158],[95.3525008,44.1665897],[95.3689068,44.2211932],[95.4063512,44.2416046],[95.4224787,44.2641989],[95.4256323,44.2806104],[95.4097827,44.2938207],[94.9986632,44.2508804],[94.9335611,44.2940524],[94.8238254,44.3179667],[94.78357,44.337365],[94.718557,44.3407573],[94.6717124,44.3938408],[94.6029359,44.4468096],[94.5115953,44.4776058],[94.4622893,44.5104609],[94.3905572,44.5225374],[94.3477624,44.5165583],[94.3417882,44.5592753],[94.3263521,44.5823575],[94.2761956,44.6049235],[94.2218335,44.6465491],[94.2113654,44.6677255],[94.1499938,44.683614],[94.0620611,44.7324348],[93.728192,44.8612302],[93.7115264,44.876097],[93.7095255,44.8967382],[93.6937614,44.8949994],[93.6707914,44.9099427],[93.5075353,44.9670287],[93.4978638,44.9555664],[93.4818121,44.9656909],[93.4279883,44.9562662],[93.3673321,44.9877534],[93.3385436,44.9869061],[93.3238627,44.9943601],[93.31519,44.9803186],[93.2854979,44.9823536],[93.1682385,45.0133427],[93.0934862,45.0070472],[93.0519458,45.0161518],[92.998369,45.010645],[92.98477,44.99941],[92.971238,45.014004],[92.929351,45.015697],[92.924661,45.034862],[92.881584,45.046537],[92.847933,45.037368],[92.775911,45.049824],[92.71868,45.032261],[92.644945,45.02047],[92.549368,45.017735],[92.49047,45.000053],[92.418386,45.016866],[92.343491,45.012374],[92.313272,45.02681],[92.248416,45.021055],[92.234924,45.013481],[92.099612,45.075545],[92.05758,45.08275],[91.800752,45.081648],[91.690864,45.062033],[91.613521,45.066242],[91.568639,45.082591],[91.558608,45.068318],[91.533195,45.088441],[91.498327,45.098895],[91.480543,45.128246],[91.449743,45.152538],[91.4280422,45.1561511],[91.3879746,45.1252099],[91.385443,45.111713],[91.3728799,45.109179],[91.329226,45.1292],[91.241732,45.13187],[91.223288,45.150267],[91.191318,45.156022],[91.178228,45.166879],[91.163784,45.199548],[91.122238,45.214054],[91.077842,45.214265],[91.048921,45.205728],[90.995151,45.213834],[90.946394,45.195302],[90.8797177,45.189479],[90.864547,45.204098],[90.894961,45.250311],[90.86941,45.28219],[90.8344536,45.2990577],[90.8029451,45.2893292],[90.811567,45.324992],[90.774254,45.395109],[90.7698523,45.4283909],[90.6703269,45.4869744],[90.6677627,45.5435692],[90.7150125,45.7276183],[90.84791,45.887327],[91.021993,46.022309],[91.0196256,46.0570025],[91.0083818,46.0783512],[91.0158491,46.0860609],[91.010549,46.124266],[90.9748649,46.1623258],[90.9451675,46.2147042],[90.9492445,46.2292234],[90.8915663,46.3127012],[90.9056425,46.3144204],[90.9693288,46.3606715],[90.9945201,46.4225646],[91.0084891,46.4364743],[91.0095298,46.4607503],[91.0264062,46.4757585],[91.037105,46.501498],[91.052403,46.511115],[91.0509,46.535435],[91.074933,46.557606],[91.064899,46.5785743],[91.014437,46.580558],[91.014556,46.609629],[91.048399,46.719828],[91.0309553,46.7440956],[91.0164928,46.7501239],[91.0161924,46.7638542],[90.9895849,46.771203],[90.9852504,46.7966516],[90.9657668,46.7995895],[90.9576559,46.8173894],[90.9372282,46.8258761],[90.9536647,46.8532066],[90.9555959,46.877531],[90.9433651,46.8908182],[90.9355974,46.8867414],[90.9171867,46.9114025],[90.9206199,46.9391582],[90.9089469,46.9427035],[90.9020805,46.9574099],[90.8536291,46.9800767],[90.8527708,46.9899429],[90.8295965,46.9894452],[90.8214426,46.9989877],[90.7603311,46.994685],[90.759859,47.0101672],[90.7272863,47.0300035],[90.6911086,47.0808773],[90.6505965,47.1090417],[90.6511115,47.1329288],[90.6301688,47.1340382],[90.6180238,47.1595774],[90.5944633,47.1679808],[90.5837345,47.1972655],[90.5597877,47.2051672],[90.5583286,47.2258054],[90.5375576,47.2403172],[90.5234813,47.2837125],[90.5121088,47.2995764],[90.4779911,47.3203815],[90.5058002,47.3381829],[90.4985475,47.3571994],[90.5203056,47.3767612],[90.5020666,47.4018931],[90.4706525,47.3980878],[90.4557609,47.411565],[90.4542589,47.4407441],[90.4677772,47.4480291],[90.4716396,47.4909059],[90.4528427,47.5006194],[90.4493665,47.5172877],[90.3961944,47.5421208],[90.3924608,47.5665078],[90.3782558,47.585905],[90.3815603,47.5928804],[90.3442668,47.6267893],[90.352772,47.647354],[90.3728056,47.6447475],[90.3675699,47.6601559],[90.3216505,47.685788],[90.2585649,47.6935012],[90.2430725,47.7081444],[90.2168083,47.7040725],[90.178442,47.725988],[90.1395607,47.722466],[90.1235532,47.7306356],[90.1188325,47.7461918],[90.0805091,47.7657531],[90.0656604,47.7925155],[90.0742435,47.7997516],[90.0660038,47.8051997],[90.0693512,47.8446163],[90.0871181,47.8603687],[90.0576353,47.8846649],[90.037587,47.871488],[90.027834,47.878385],[89.977128,47.878752],[89.956973,47.88602],[89.949887,47.831169],[89.891289,47.838284],[89.848921,47.826135],[89.794322,47.83399],[89.758819,47.826089],[89.760438,47.83575],[89.751795,47.838794],[89.749901,47.854616],[89.738307,47.864594],[89.750238,47.876627],[89.723538,47.900811],[89.6543597,47.9053537],[89.641066,47.922727],[89.640187,47.946276],[89.620008,47.949625],[89.592715,47.967985],[89.5860386,47.9987959],[89.602003,48.0089319],[89.5803308,48.031092],[89.5344114,48.0363149],[89.4927192,48.0251223],[89.4015025,48.0304033],[89.3832206,48.0447794],[89.3650031,48.0211613],[89.2949438,48.0137551],[89.2792368,47.9868771],[89.2561912,47.9913578],[89.2342185,47.976191],[89.1948222,47.9800406],[89.1558551,47.9952062],[89.1296767,47.9859005],[89.0626001,47.9882989],[89.004836,48.0544187],[88.9364505,48.0961824],[88.9345193,48.1088497],[88.8440322,48.1111277],[88.8240337,48.0999801],[88.7790584,48.1319264],[88.7576007,48.1323274],[88.7298345,48.1584711],[88.7096214,48.1553505],[88.7147712,48.1737846],[88.6943435,48.178621],[88.6685085,48.1676883],[88.6376095,48.1784779],[88.6193275,48.2122914],[88.5863685,48.2176532],[88.5973334,48.2462541],[88.5659408,48.2758958],[88.6019897,48.318935],[88.6028695,48.3390788],[88.567206,48.351653],[88.5714769,48.3651741],[88.5488391,48.3713609],[88.5312652,48.3662291],[88.5110521,48.3822785],[88.520708,48.3895747],[88.5162019,48.4003744],[88.4844875,48.4071267],[88.4743166,48.395673],[88.4371733,48.386853],[88.42191,48.403471],[88.3519649,48.4330162],[88.3462572,48.4477352],[88.3586168,48.4585511],[88.3307647,48.4729071],[88.2674646,48.4879416],[88.2530236,48.4995594],[88.1846809,48.4963317],[88.1614208,48.5077059],[88.1434392,48.5280593],[88.1158232,48.5223037],[88.097687,48.544517],[88.0859971,48.540776],[88.0730581,48.548305],[88.048768,48.5411453],[88.018453,48.549106],[88.0136418,48.5628912],[87.997334,48.5697496],[87.9704904,48.5731714],[87.954998,48.5937823],[87.9700613,48.6076318],[88.02598,48.628796],[88.0287265,48.6348939],[88.0099725,48.6487037],[88.0716419,48.6832259],[88.0910396,48.7125993],[88.054819,48.7118065],[88.0258083,48.7495962],[87.9711771,48.7701634],[87.9350423,48.7556229],[87.8737695,48.794462],[87.8547692,48.8015778],[87.8298568,48.7984684],[87.8115106,48.8176592],[87.7922201,48.8231692],[87.8248357,48.8276615],[87.8131413,48.8426471],[87.7936577,48.8443699],[87.781281,48.869462],[87.7404641,48.8696551],[87.7354527,48.8839078],[87.7622379,48.9202283],[87.7535748,48.9296754],[87.7861187,48.9304774],[87.8093239,48.9441867],[87.8098797,48.9513665],[87.8677511,48.94821],[87.866984,48.9686277],[87.9011855,48.9829805],[87.8689098,48.996959],[87.8743889,49.0003538],[87.8664896,49.0057886],[87.8835654,49.0181002],[87.8262235,49.0492013],[87.8510217,49.0644463],[87.8503108,49.0778462],[87.8365016,49.0817684],[87.8388475,49.0971242],[87.8529192,49.0979657],[87.8676365,49.1121283],[87.8308887,49.139812],[87.8308752,49.1489515],[87.8164529,49.1446002],[87.8125243,49.1540859],[87.8199965,49.1661659],[87.8145344,49.1705074],[87.7852248,49.1780565],[87.7519225,49.1675912],[87.7235555,49.1774673],[87.6970829,49.1739424],[87.6593971,49.1510469],[87.6094435,49.1550467],[87.566142,49.1331775],[87.5252979,49.1426223],[87.4913943,49.1383649],[87.491641,49.1262133],[87.5061034,49.1146696],[87.5034749,49.0909769],[87.4859869,49.0856229],[87.4689388,49.0914125],[87.4248862,49.070443],[87.3770785,49.0935834],[87.3199796,49.1019431],[87.278856,49.1178647],[87.230303,49.1144],[87.213546,49.122777],[87.214986,49.130341],[87.200004,49.142945],[87.168671,49.138877],[87.14183,49.152374],[87.104137,49.151124],[87.100954,49.140353],[87.081006,49.130878],[87.049824,49.130054],[86.999315,49.142674],[86.943692,49.130021],[86.885214,49.131791],[86.843535,49.100629],[86.847502,49.0653],[86.834461,49.052468],[86.766269,49.02561],[86.726388,48.987993],[86.726706,48.951153],[86.751112,48.896413],[86.775156,48.889472],[86.818793,48.847533],[86.816999,48.830547],[86.761101,48.8043],[86.751076,48.782086],[86.773463,48.75012],[86.773135,48.720619],[86.700475,48.668937],[86.68895,48.640015],[86.635018,48.62646],[86.629142,48.604953],[86.611918,48.597136],[86.593918,48.574974],[86.597429,48.558267],[86.5854302,48.5380353],[86.4069772,48.478654],[86.3749945,48.5013722],[86.3594672,48.4907307],[86.3006973,48.4905441],[86.2968671,48.4770182],[86.2826729,48.4722953],[86.2677169,48.4516064],[86.2510228,48.4525742],[86.2322688,48.432219],[85.9117341,48.4362052],[85.7874298,48.4174528],[85.7559085,48.4029529],[85.7526898,48.3896388],[85.7136798,48.3608401],[85.7142162,48.349376],[85.6909668,48.3289794],[85.6944537,48.3007245],[85.6823301,48.2919309],[85.6755495,48.2641126],[85.6594133,48.2418242],[85.6507015,48.2464827],[85.632677,48.2334779],[85.6235361,48.2027389],[85.5885815,48.1965603],[85.5812859,48.1675166],[85.5536022,48.1393966],[85.5639555,48.1325623],[85.5505848,48.1285605]]]}}]}