{"type": "FeatureCollection", "features": [{"type": "Feature", "properties": {"slug": "kavala", "members": 2, "country": "Greece", "input_hash": "7a65163f9e618d6f"}, "geometry": {"type": "MultiPolygon", "coordinates": [[[[24.1944488, 40.9902944], [24.1995075, 40.9966095], [24.228187, 40.9909262], [24.2294319, 40.9840504], [24.2439457, 40.981048], [24.2402486, 40.970408], [24.252683517580575, 40.967715257875774], [24.2697905, 41.0046729], [24.2406571, 41.0122481], [24.2409897, 41.0237591], [24.2680392, 41.0308996], [24.2692211, 41.0441568], [24.2843396, 41.0468319], [24.3014193, 41.0635075], [24.335832, 41.0545034], [24.375177, 41.0897746], [24.4308744, 41.1106044], [24.4627766, 41.1310548], [24.4638739, 41.1395899], [24.4759917, 41.127605], [24.4735075, 41.1076806], [24.4981442, 41.0881916], [24.5002547, 41.059546], [24.5121068, 41.0503688], [24.5084562, 41.0439262], [24.5262487, 41.0328565], [24.5329545, 41.0184938], [24.5461649, 41.0165583], [24.5347501, 41.0051175], [24.5461143, 40.9916962], [24.5487772, 40.9545721], [24.5111846, 40.9588372], [24.4754635, 40.9527097], [24.4747471, 40.9427425], [24.4293844, 40.9445825], [24.4141005, 40.9297502], [24.4107466, 40.9360619], [24.3944354, 40.9338296], [24.3797883, 40.9100596], [24.3608402, 40.8988478], [24.3420847, 40.8994147], [24.3304816, 40.8804609], [24.316918, 40.8782743], [24.3171536, 40.8659779], [24.3370882, 40.858895], [24.3318814, 40.8432826], [24.3096125, 40.8476107], [24.3067226, 40.8281281], [24.3407345, 40.8257319], [24.2800371, 40.8083848], [24.1451888, 40.7398762], [24.0892406, 40.7222017], [24.0455313, 40.718655], [23.9706177, 40.7365432], [23.8687902, 40.7793193], [23.8729708, 40.7852323], [23.8613015, 40.7987316], [23.8937822, 40.8159813], [23.9149767, 40.8147197], [23.9611752, 40.8318245], [23.9893542, 40.8507843], [23.9935561, 40.8633603], [24.0273533, 40.8822207], [24.0267741, 40.8908959], [24.067121, 40.8961584], [24.056743, 40.9175407], [24.0762489, 40.9230155], [24.097781, 40.9149368], [24.0915825, 40.9366609], [24.114338, 40.9574767], [24.1021058, 40.9750001], [24.1179347, 41.0060903], [24.1319156, 41.0000937], [24.1669209, 41.0049038], [24.1944488, 40.9902944]], [[24.357303491099987, 40.951609172673166], [24.356677, 40.9534235], [24.355026356796206, 40.9546183865101], [24.357303491099987, 40.951609172673166]], [[24.3544268, 40.9245319], [24.3577233, 40.9503934], [24.35769368255793, 40.9504791725425], [24.3544268, 40.9245319]]], [[[24.3244417, 40.8656993], [24.3245176, 40.8654238], [24.3243767, 40.8654549], [24.3244417, 40.8656993]]], [[[24.3485605, 40.865676], [24.3469941, 40.8703533], [24.3511612, 40.8684521], [24.3485605, 40.865676]]]]}}]}