{"type": "FeatureCollection", "features": [{"type": "Feature", "properties": {"slug": "kawartha-lakes", "members": 1, "country": "Canada", "input_hash": "9888fb3fb203b50a"}, "geometry": {"type": "Polygon", "coordinates": [[[-79.2085137, 44.7999863], [-78.9233848, 44.1583486], [-78.9052746, 44.2010056], [-78.8740322, 44.2217998], [-78.8481113, 44.2062972], [-78.8503429, 44.1605038], [-78.7676021, 44.2223533], [-78.692641, 44.0583614], [-78.5162698, 44.0987774], [-78.5847418, 44.2530192], [-78.4255208, 44.2904408], [-78.48626, 44.4217963], [-78.51769, 44.5471748], [-78.5259297, 44.546135], [-78.5285905, 44.5537807], [-78.5438541, 44.5505251], [-78.6550362, 44.7938528], [-78.8199039, 44.75378], [-78.8096958, 44.7733853], [-78.8211358, 44.7705265], [-78.9358653, 44.9855012], [-79.0929345, 44.9429793], [-79.0996949, 44.9552533], [-79.1198934, 44.9500967], [-79.0623038, 44.8400414], [-79.2085137, 44.7999863]]]}}]}