{"type": "FeatureCollection", "features": [{"type": "Feature", "properties": {"slug": "kempten", "members": 29, "country": "Germany", "input_hash": "e82e3e2fa9bc3a03"}, "geometry": {"type": "MultiPolygon", "coordinates": [[[[10.3956092, 47.8111512], [10.4133616, 47.7979692], [10.4354729, 47.7987369], [10.4429754, 47.7819861], [10.4384907, 47.7769588], [10.4469752, 47.7721239], [10.4383078, 47.7719875], [10.4404154, 47.7661179], [10.4447331, 47.7593081], [10.4555198, 47.7618998], [10.4521114, 47.7561701], [10.4698897, 47.7407994], [10.446346, 47.7319658], [10.463571, 47.7181147], [10.4595533, 47.6913431], [10.497871, 47.6869841], [10.4918621, 47.682395], [10.5017935, 47.6836963], [10.4849447, 47.6751791], [10.5112261, 47.6664412], [10.5016517, 47.6363654], [10.4751225, 47.6308794], [10.4625798, 47.6237349], [10.4649518, 47.6155565], [10.4507647, 47.6139473], [10.4562362, 47.6020274], [10.4725777, 47.6050971], [10.4723901, 47.5869399], [10.428999, 47.5776114], [10.45444, 47.5557964], [10.4313005, 47.5037634], [10.4425962, 47.4846349], [10.4679703, 47.4771102], [10.465885, 47.4529567], [10.4759458, 47.4322233], [10.4374211, 47.412688], [10.4292146, 47.3912178], [10.4367645, 47.3803634], [10.4197079, 47.3846405], [10.39473, 47.3756053], [10.3864718, 47.356586], [10.3569007, 47.3370375], [10.3487496, 47.3173721], [10.3303332, 47.3048155], [10.2956547, 47.2999039], [10.2816336, 47.2877139], [10.2658093, 47.2881085], [10.2323656, 47.2705777], [10.2012358, 47.276902], [10.1740416, 47.2702482], [10.1796106, 47.2960256], [10.1991314, 47.2975423], [10.2159718, 47.311064], [10.1995092, 47.3264601], [10.2371623, 47.3735651], [10.2361856, 47.3819213], [10.227051, 47.388895], [10.2125912, 47.3803897], [10.181849, 47.3924258], [10.1693975, 47.3858299], [10.1658749, 47.3688749], [10.1416871, 47.36718], [10.1193354, 47.375613], [10.0998516, 47.3547618], [10.0862396, 47.3995221], [10.0691405, 47.410176], [10.0937374, 47.4168811], [10.1055856, 47.4287167], [10.0938486, 47.4404644], [10.091638, 47.4589276], [10.0699906, 47.4559503], [10.0534684, 47.4668571], [10.0447745, 47.4876222], [9.995062, 47.486256], [9.9873585, 47.4984652], [9.9956949, 47.5027787], [9.965262, 47.5208928], [9.9712923, 47.5443472], [9.9585842, 47.5642037], [10.0012063, 47.5649988], [10.0224681, 47.5829809], [10.0361582, 47.5733209], [10.0615969, 47.5801511], [10.0599992, 47.5983657], [10.0689797, 47.6035675], [10.0601943, 47.6079203], [10.0757258, 47.6181545], [10.0760178, 47.6419389], [10.0945702, 47.6652394], [10.0900335, 47.6734443], [10.1133985, 47.6661885], [10.1301574, 47.6768474], [10.1282524, 47.6907122], [10.1397796, 47.7028637], [10.115637, 47.7187681], [10.1190203, 47.7594847], [10.0650548, 47.7849157], [10.0906686, 47.8040387], [10.1167429, 47.8008369], [10.1107113, 47.8066435], [10.1197418, 47.8126918], [10.1379499, 47.8096731], [10.1319121, 47.8201458], [10.1534193, 47.8215894], [10.1497018, 47.8254939], [10.1915271, 47.8390957], [10.1862994, 47.8528574], [10.2360698, 47.8396511], [10.2540747, 47.8458324], [10.2498294, 47.8556753], [10.259031, 47.8604038], [10.2930176, 47.8527711], [10.3060227, 47.8637638], [10.3269599, 47.8581514], [10.3279874, 47.8512198], [10.345854, 47.8518585], [10.3369798, 47.8435108], [10.3526309, 47.839085], [10.3532532, 47.8298151], [10.3633217, 47.825762], [10.3561047, 47.8209351], [10.3662945, 47.8220144], [10.3617377, 47.8119881], [10.386404, 47.8044648], [10.3949895, 47.808259], [10.3956092, 47.8111512]], [[10.3107551, 47.7691812], [10.3080255, 47.7687661], [10.3081495, 47.7684368], [10.3107551, 47.7691812]], [[10.2932939, 47.7682707], [10.294250582697108, 47.76816644979588], [10.292394750652042, 47.77050562855762], [10.2932939, 47.7682707]], [[10.2912865, 47.7732603], [10.29155752563646, 47.77258663779233], [10.2949801, 47.7772484], [10.2912865, 47.7732603]], [[10.2885529, 47.7776685], [10.284847, 47.7754614], [10.28883198426464, 47.77765025826183], [10.2885529, 47.7776685]], [[10.2784306, 47.7771514], [10.283923821016817, 47.77570455386846], [10.2810786, 47.7774608], [10.2784306, 47.7771514]]], [[[10.3863351, 47.8056091], [10.3863233, 47.805187], [10.3859304, 47.8056434], [10.3863351, 47.8056091]]], [[[10.3774061, 47.8090754], [10.374863, 47.8116859], [10.3777293, 47.8114879], [10.3774061, 47.8090754]]], [[[10.3916611, 47.8086824], [10.3924682, 47.8083149], [10.3917343, 47.8078253], [10.3916611, 47.8086824]]]]}}]}