{"type":"FeatureCollection","features":[{"type":"Feature","properties":{"slug":"kenai-ak","member_count":1,"matched_count":1,"unmatched":[],"source":"Overture Maps division_area (CC-BY 4.0)"},"geometry":{"type":"Polygon","coordinates":[[[-153.252947,58.855794],[-153.184086,58.905729],[-153.02118,59.002452],[-152.9672337,59.0059087],[-152.9840247,59.0231463],[-153.0036024,59.072794],[-153.0304674,59.1084508],[-153.0743251,59.1435391],[-153.1351951,59.1746654],[-153.0378021,59.226969],[-152.9882711,59.2723032],[-152.9581725,59.3138712],[-152.9463454,59.355137],[-152.949851,59.4008599],[-152.9626344,59.435607],[-152.9882543,59.4696836],[-152.7996166,59.5384149],[-152.7369847,59.5704962],[-152.6817424,59.6184419],[-152.6348227,59.6965675],[-152.4990165,59.7358907],[-152.3782359,59.7927096],[-152.3393739,59.8255573],[-152.3119379,59.8624705],[-152.2362898,59.9186725],[-152.2054273,59.9633143],[-152.183627,60.0128684],[-152.1322999,60.0079718],[-152.1306451,60.0009709],[-152.1775402,59.9458189],[-152.1981176,59.9023552],[-152.2330421,59.8641742],[-152.2642356,59.8008892],[-152.268105,59.761767],[-152.256245,59.7147197],[-152.2773791,59.4715931],[-152.3252881,59.4407745],[-152.3596343,59.4067278],[-152.3801816,59.371899],[-152.3941177,59.3253855],[-152.3878028,59.2698241],[-152.354996,59.2002256],[-152.330171,59.1676267],[-152.4471554,59.1557017],[-152.5756829,59.1203698],[-152.6611225,59.076055],[-152.7143514,59.022204],[-151.444173,59.099687],[-150.992194,59.180837],[-150.801062,59.231825],[-150.456456,59.308688],[-149.6213,59.527516],[-149.467504,59.733767],[-149.269625,59.84542],[-148.980202,59.893721],[-148.643702,59.924156],[-148.58618,59.938585],[-148.586487,60.062154],[-148.571915,60.06194],[-148.572027,60.126316],[-148.563026,60.126314],[-148.563715,60.415172],[-148.66447,60.415183],[-148.664474,60.472959],[-148.657076,60.472958],[-148.657119,60.732976],[-149.042881,60.734797],[-149.038568,60.849342],[-149.067189,60.878383],[-149.1824032,60.9065046],[-149.373299,60.907624],[-149.626943,60.960856],[-150.053667,61.074985],[-150.243018,61.075035],[-150.420615,61.167197],[-150.775546,61.07796],[-150.970839,61.165586],[-150.972661,61.253489],[-151.332978,61.254634],[-151.334175,61.424601],[-153.469729,61.428123],[-153.478499,61.361217],[-153.475316,61.136887],[-153.430404,61.13574],[-153.435938,60.823969],[-153.395016,60.823291],[-153.394293,60.472296],[-153.528484,60.470611],[-153.531136,60.122545],[-153.656579,60.121433],[-153.654893,59.784914],[-153.782943,59.785049],[-153.783649,59.696598],[-153.955889,59.696099],[-153.954485,59.520073],[-154.124374,59.519551],[-154.121269,59.431295],[-154.414557,59.428681],[-154.409316,59.25464],[-154.747693,59.253095],[-154.745361,59.076992],[-154.692093,59.075956],[-154.692714,58.734598],[-154.63942,58.734693],[-154.63727,58.64681],[-153.815055,58.647216],[-153.816565,58.734254],[-153.452198,58.734773],[-153.455102,58.855665],[-153.252947,58.855794]]]}}]}