{"type":"FeatureCollection","features":[{"type":"Feature","properties":{"slug":"kenora-on","member_count":57,"matched_count":57,"unmatched":[],"source":"Overture Maps division_area (CC-BY 4.0)"},"geometry":{"type":"Polygon","coordinates":[[[-90.9657403,49.001883],[-94.2163473,49.0010044],[-94.2157869,49.1027147],[-94.1889736,49.0957974],[-94.1931713,49.085184],[-94.174232,49.0864307],[-94.1796435,49.0899649],[-94.1593743,49.0959636],[-94.1602788,49.1030343],[-94.1445567,49.0961565],[-94.1490648,49.1009605],[-94.1348779,49.1006421],[-94.1207689,49.1189966],[-94.1039199,49.112574],[-94.1112946,49.1089949],[-94.0910343,49.1143327],[-94.0910343,49.201897],[-94.2036441,49.201897],[-94.2036441,49.277213],[-94.2874149,49.277213],[-94.2874149,49.2864513],[-94.5675663,49.2864513],[-94.5675663,49.3667251],[-94.705582,49.3667251],[-94.7031787,49.3199753],[-94.7186283,49.2870673],[-94.7766498,49.2801247],[-94.8255278,49.2943611],[-94.8162778,49.3213889],[-94.8540556,49.3243333],[-94.9573889,49.3701944],[-95.0583056,49.35325],[-95.1498056,49.3806389],[-95.1560176,49.3929418],[-95.1536713,52.8415679],[-94.4297409,53.28199],[-93.6570511,53.7374915],[-92.5277099,54.552452],[-91.379715,55.3383677],[-90.1935881,56.107868],[-88.9865273,56.849167],[-88.9000933,56.8365276],[-88.9079333,56.8449],[-88.889544,56.8598479],[-88.9094947,56.8553748],[-88.8873339,56.8613377],[-88.8648463,56.8518115],[-88.857894,56.8345598],[-88.8266087,56.8397714],[-88.8458348,56.8466251],[-88.8266945,56.8417901],[-88.816824,56.8375648],[-88.80767,56.8153301],[-88.8201714,56.8176994],[-88.8303619,56.8093121],[-88.82644,56.79329],[-88.7010801,56.7456301],[-88.67815,56.7226399],[-88.6779499,56.7052595],[-88.62465,56.6822225],[-88.62868,56.67721],[-88.6138988,56.6806567],[-88.5568643,56.6606374],[-88.5058699,56.6541599],[-88.436637,56.6052401],[-88.2595253,56.5310216],[-88.1687165,56.5076193],[-88.1286837,56.5095966],[-87.9791099,56.4730713],[-87.9498799,56.4427278],[-87.941234,56.4164582],[-87.9286256,56.4084523],[-87.9152376,56.396737],[-87.941457,56.4136073],[-87.923677,56.3916511],[-87.8449552,56.3475433],[-87.8265786,56.3437275],[-87.8119877,56.3341865],[-87.8108555,56.3274336],[-87.8230356,56.3411111],[-87.8414039,56.3457772],[-87.8321373,56.3416003],[-87.8219014,56.3315027],[-87.8177282,56.3248911],[-87.835317,56.3352205],[-87.8286944,56.3234746],[-87.8046321,56.31134],[-87.7702431,56.2596396],[-87.7280935,56.2316051],[-87.7496861,56.2489982],[-87.7386005,56.2459254],[-87.7143301,56.2168717],[-87.7130798,56.1930523],[-87.6355167,56.1076164],[-87.6567593,56.106685],[-87.5675157,56.0670074],[-87.4728418,56.0489574],[-87.4452481,56.0062854],[-87.3716343,55.9890761],[-87.3779051,55.98437],[-87.3564833,55.9747516],[-87.3613169,55.9545645],[-87.3435949,55.9673344],[-87.2169907,55.934453],[-87.0278275,55.9233963],[-87.0357529,55.9228655],[-87.0207229,55.9207111],[-87.0330418,55.9199737],[-87.0230204,55.915686],[-86.9495347,55.9176168],[-86.9567803,55.9091819],[-86.9446229,55.9165443],[-86.9012455,55.9140723],[-86.7881674,55.8764653],[-86.780931,55.8711079],[-86.785226,55.8579988],[-86.7783458,55.868412],[-86.7642068,55.869931],[-86.686249,55.8363372],[-86.5894262,55.8234406],[-86.5529487,55.8080621],[-86.3817557,55.7666578],[-86.2686306,55.7080122],[-86.1343849,55.6900782],[-86.0473073,55.6682685],[-86.0039836,55.6712463],[-86.0128714,55.6696641],[-85.8955063,55.6557555],[-85.8891096,55.6411339],[-85.8609797,55.6245682],[-85.8210786,55.618311],[-85.7655403,55.5906848],[-85.7288823,55.5934256],[-85.6989342,55.5839908],[-85.671684,55.5611869],[-85.641901,55.557707],[-85.6247191,55.5330372],[-85.5886074,55.5261254],[-85.5755768,55.5053555],[-85.5792802,55.5054931],[-85.5812422,55.5042412],[-85.5829696,55.5020797],[-85.555488,55.4968766],[-85.5066694,55.4645698],[-85.4989976,55.4516515],[-85.4596883,55.4380487],[-85.4564604,55.4346754],[-85.4658366,55.4393925],[-85.4785288,55.4372745],[-85.4456321,55.4279507],[-85.3955938,55.3983804],[-85.3669854,55.3943882],[-85.352313,55.383944],[-85.36014,55.3778946],[-85.3067956,55.381837],[-85.2826512,55.3698299],[-85.22896,55.373287],[-85.2221627,55.3524259],[-85.2085757,55.3436309],[-85.1777443,55.347846],[-85.1389064,55.3321981],[-85.1220517,55.3355736],[-85.1248289,55.3186451],[-85.1214942,55.3112432],[-85.1110893,55.3127157],[-85.1112618,55.2906676],[-85.0513578,55.2725395],[-85.0124155,55.2728294],[-85.0059247,55.2656565],[-84.9936351,55.276798],[-84.9711678,55.2796316],[-84.9354196,55.265415],[-84.9040553,55.2697247],[-84.8977815,55.2587222],[-84.8141957,55.2511419],[-84.7856141,55.2341379],[-84.568162,55.2376616],[-84.5423199,55.22602],[-84.5287,55.2361099],[-84.5111999,55.2316301],[-84.4437504,55.2542728],[-84.37706,55.2649801],[-84.36818,55.26351],[-84.37351,55.2576],[-84.3522901,55.25958],[-84.3077301,55.2749999],[-84.2617199,55.26539],[-84.17135,55.2743499],[-84.1211129,55.2535879],[-84.0895901,55.2509],[-83.944366,55.2921905],[-83.8898206,55.2947317],[-83.81696,55.2758999],[-83.7611819,55.2478395],[-83.7469769,55.2515333],[-83.70043,55.22191],[-83.6744929,55.2261595],[-83.6282101,55.21081],[-83.695736,55.2564496],[-83.6960399,55.2663299],[-83.6462975,55.2644219],[-83.6476708,55.2583817],[-83.6340666,55.2523894],[-83.5443736,55.2383957],[-83.4762669,55.2118873],[-83.3948779,55.2072593],[-83.42035,55.2149799],[-83.4154344,55.2209457],[-83.3823037,55.2141153],[-83.3546019,55.1967281],[-83.3309985,55.1949645],[-83.2992625,55.19712],[-83.2944989,55.2040635],[-83.2204056,55.2060471],[-83.18624,55.19456],[-83.1362601,55.19365],[-83.00482,55.2156101],[-82.9885125,55.2254619],[-82.9523993,55.2254496],[-82.9120589,55.2051533],[-82.8666116,55.1556789],[-82.8046418,55.1374321],[-82.7475182,55.1450989],[-82.7203809,55.1619374],[-82.716837,55.1820043],[-82.7523501,55.20003],[-82.70851,55.21166],[-82.7013,55.20024],[-82.70754,55.1993801],[-82.6892299,55.1901601],[-82.6216299,55.1682799],[-82.595942,55.1493687],[-82.56229,55.1439399],[-82.54818,55.1315799],[-82.5110793,55.127913],[-82.5182499,55.1442501],[-82.5223401,55.13409],[-82.54521,55.13598],[-82.5546901,55.16121],[-82.5380001,55.1578399],[-82.52216,55.1647001],[-82.4845774,55.1345951],[-82.4640443,55.1390519],[-82.43848,55.11449],[-82.40881,55.1094501],[-82.37832,55.09328],[-82.4012804,55.0952168],[-82.3894801,55.08048],[-82.3349559,55.0620371],[-82.3277074,55.0640339],[-82.34098,55.0784599],[-82.3323079,55.0907142],[-82.3351908,55.1024849],[-82.3112441,55.1063394],[-82.3126144,55.1174009],[-82.3311997,55.1330654],[-82.3433301,55.1288901],[-82.3590517,55.1487637],[-82.35528,55.1561792],[-82.3380915,55.1508336],[-82.3435471,55.1432605],[-82.3362217,55.1375645],[-82.33609,55.1530499],[-82.318883,55.14934],[-82.3007512,55.1333966],[-82.2970596,55.1178408],[-82.2872543,55.1268088],[-82.2521818,55.1098499],[-82.2456694,55.0609331],[-82.2707995,55.0507617],[-82.2773194,55.0356529],[-82.2550893,54.978137],[-82.2505188,54.9405115],[-82.2266404,54.912512],[-82.2590761,54.8965062],[-82.2462566,54.8802747],[-82.2136975,54.877261],[-82.1976042,54.8442239],[-82.1966297,54.7920449],[-82.2095508,54.7521891],[-82.2120667,54.7490188],[-82.214368,54.7487897],[-82.2091914,54.7575818],[-82.2334815,54.7424359],[-82.2537805,54.7200597],[-82.2734356,54.6685202],[-82.2862673,54.6562086],[-82.2837782,54.6302325],[-82.3236895,54.5004523],[-82.3466921,54.4791395],[-82.3589659,54.4426451],[-82.3868609,54.4182058],[-82.4074559,54.3573326],[-82.4408895,54.3552102],[-82.415185,54.3384962],[-82.4199915,54.2518878],[-82.4003396,54.1943022],[-82.3169197,54.112503],[-82.2789658,54.0932791],[-82.2245297,54.039954],[-82.183707,53.9767785],[-82.1767199,53.9464301],[-82.1543455,53.911185],[-82.1126616,53.805551],[-82.1118164,53.7572366],[-82.1302367,53.7299388],[-82.1671,53.7023901],[-82.2062087,53.5953448],[-82.1969499,53.5750099],[-82.19185,53.5238401],[-82.1547318,53.4754809],[-82.1461201,53.4225601],[-82.1114499,53.3347699],[-82.0995428,53.2705004],[-82.1946099,53.2086799],[-82.2394278,53.1946998],[-82.2327948,53.1845003],[-82.2451899,53.1723001],[-82.26015,53.1298599],[-82.26825,53.13003],[-82.26302,53.12626],[-82.2790454,53.090223],[-82.2774171,53.0218731],[-82.2915611,53.0192789],[-82.2758025,53.017093],[-82.2756966,53.0027841],[-82.2925952,53.0005463],[-82.2645194,52.9952443],[-82.257608,52.9746737],[-82.2617717,52.9616512],[-82.2502118,52.9566645],[-82.2358813,52.9259619],[-82.1594328,52.9024881],[-82.1685006,52.8914514],[-82.1636369,52.8873915],[-82.1347649,52.8984748],[-82.1096706,52.8911109],[-81.936868,52.7743485],[-81.9135846,52.70855],[-81.8712351,52.6613168],[-81.7575518,52.6069129],[-81.6770359,52.5270409],[-81.613741,52.4802189],[-81.5512991,52.4644816],[-81.5242034,52.4371761],[-81.5307652,52.3967604],[-81.5452653,52.3875515],[-81.5439205,52.363407],[-81.5059467,52.3248212],[-81.542817,52.3097891],[-81.5529513,52.3025635],[-81.5517635,52.2931064],[-81.6265617,52.2931572],[-81.6560097,52.2644557],[-81.6740154,52.2585486],[-81.7456602,52.253806],[-81.8224079,52.2352899],[-81.8730013,52.2148663],[-81.9283532,52.1805635],[-81.9971894,52.1564001],[-82.0080041,52.1447085],[-82.0467137,52.139125],[-82.0951222,52.1135687],[-82.2198342,52.0975952],[-82.2785424,52.103922],[-82.3285817,52.0892107],[-82.4180173,51.9997843],[-82.5294255,51.9610866],[-82.5954293,51.9269605],[-82.6669478,51.9291967],[-82.7218795,51.920913],[-82.7922177,51.9262063],[-82.9473138,51.8708076],[-82.9798436,51.8432948],[-83.0611252,51.8014898],[-83.0885911,51.7771741],[-83.1328797,51.7590085],[-83.1551957,51.7360519],[-83.1836915,51.6822284],[-83.2365632,51.6613625],[-83.2798218,51.5640393],[-83.2818818,51.5411973],[-83.2945847,51.5300924],[-83.3653092,51.5126821],[-83.4205842,51.479659],[-83.4653878,51.4843628],[-83.5089898,51.4767724],[-83.5407471,51.4584861],[-83.5637498,51.4341999],[-83.6071801,51.4148259],[-83.6530137,51.4172883],[-83.7173867,51.404761],[-83.7818455,51.3708025],[-83.8280654,51.3306854],[-83.894155,51.3098726],[-84.0359688,51.2823468],[-84.1203404,51.2550664],[-84.2002272,51.2544688],[-84.2998553,51.2397812],[-84.3629838,51.2177982],[-84.411049,51.1785359],[-84.4210912,51.1578695],[-84.4579125,51.1380554],[-84.4864726,51.0998031],[-84.5379066,51.1150808],[-84.590435,51.1183136],[-84.5957137,51.1350933],[-84.6881104,51.1645709],[-84.7153188,51.1816566],[-84.7929526,51.1915822],[-84.8999279,51.2744061],[-84.9934491,51.2871891],[-85.0376261,51.3150942],[-85.0376004,51.3578097],[-85.0610447,51.3805401],[-85.049243,51.3913065],[-85.0523329,51.3970637],[-85.1525402,51.4306549],[-85.18919,51.4787369],[-85.2236081,51.5067926],[-85.3133011,51.5264213],[-85.3375913,51.5628255],[-85.4110623,51.5947752],[-85.4249669,51.6198285],[-85.4562093,51.6492885],[-85.4934598,51.6607902],[-85.6799699,51.6472647],[-85.720482,51.6339482],[-85.8031369,51.6380501],[-85.9067346,51.6231324],[-85.9919215,51.6492618],[-85.9972859,51.6830932],[-86.0357381,51.713097],[-86.0953046,51.7236256],[-86.1461163,51.7538416],[-86.2270976,51.7484217],[-86.2581253,51.7746383],[-86.3006974,51.7671228],[-86.3189149,51.7507199],[-86.3529253,51.7463758],[-86.3835669,51.7284902],[-86.4025784,51.7017149],[-86.3858415,51.6674982],[-86.3858843,51.6221998],[-86.4039946,51.6111413],[-86.4270401,51.5794432],[-86.4636469,51.5613581],[-86.48592,51.5375271],[-86.5161753,51.5332559],[-86.5886164,51.5034268],[-86.632433,51.5004883],[-86.7298079,51.4694614],[-86.7400754,51.4513861],[-86.7240787,51.4445391],[-86.726718,51.4269891],[-86.7890311,51.4134207],[-86.8214322,51.3972779],[-86.86512,51.3931275],[-86.8910408,51.4125374],[-86.9588471,51.4265342],[-87.0178557,51.3995537],[-87.0229626,51.3847987],[-87.0476819,51.3789597],[-87.0469737,51.3662478],[-87.0559001,51.3567618],[-87.0904684,51.3528624],[-87.1321607,51.3253289],[-87.1842385,51.319147],[-87.2486974,51.2862389],[-87.30011,51.2857558],[-87.5187207,51.2478409],[-87.5273037,51.2511449],[-87.5272608,51.263365],[-87.5613785,51.2633919],[-87.5721717,51.2726689],[-87.6381112,51.2828837],[-87.6581741,51.3115827],[-87.6733875,51.3165855],[-87.6897732,51.3352139],[-87.7354432,51.3486007],[-87.7523947,51.3652163],[-87.7898907,51.3645642],[-87.798872,51.3736959],[-87.7868128,51.3935827],[-87.8183127,51.406809],[-87.8123475,51.4167128],[-87.8194714,51.4260259],[-87.8431607,51.4396708],[-87.9151727,51.4577507],[-87.9782582,51.4913775],[-88.0275679,51.4976831],[-88.0826926,51.4810488],[-88.1119824,51.4863805],[-88.1861615,51.4682317],[-88.3233834,51.4864072],[-88.3662129,51.4809553],[-88.4937573,51.5076741],[-88.5416723,51.5273157],[-88.5511351,51.5418912],[-88.5351062,51.550605],[-88.5659409,51.5575428],[-88.5855961,51.5576762],[-88.608513,51.5464952],[-88.6655046,51.5461216],[-88.7357354,51.5590236],[-88.8317585,51.5571159],[-88.8493967,51.5417712],[-88.8572503,51.5133631],[-88.9298201,51.487102],[-88.9705896,51.480815],[-88.9907599,51.4540604],[-89.0060806,51.4553173],[-89.0146638,51.4663068],[-89.0135694,51.484002],[-88.9882279,51.4979769],[-88.9947081,51.5095304],[-89.0331388,51.5085956],[-89.0448547,51.5149522],[-89.0405631,51.5230169],[-89.0661621,51.5306664],[-89.10882,51.5276628],[-89.1582799,51.4896673],[-89.1867543,51.450557],[-89.1885996,51.4286749],[-89.2540884,51.4319659],[-89.2822409,51.4192018],[-89.2910814,51.4245942],[-89.2873264,51.4336247],[-89.3209612,51.4260526],[-89.3200493,51.4166727],[-89.3336106,51.4070767],[-89.4810678,51.3345801],[-89.5145417,51.302716],[-89.5804598,51.2736221],[-89.575739,51.2500436],[-89.5934201,51.2467126],[-89.612217,51.2574568],[-89.67968,51.2259154],[-89.7062875,51.2289254],[-89.7455121,51.2144112],[-89.7940065,51.2163467],[-89.8573924,51.1822753],[-89.9114228,51.1676657],[-89.9407769,51.1691726],[-89.9704099,51.1492287],[-90.0096881,51.1460183],[-90.0462628,51.1262598],[-90.0920964,51.1444636],[-90.1108075,51.1370321],[-90.1449599,51.1415002],[-90.1918231,51.1184634],[-90.2261613,51.1206037],[-90.2347767,51.1319256],[-90.2489992,51.1337344],[-90.3258106,51.0855903],[-90.4032679,51.0648081],[-90.4089702,51.0829971],[-90.4211757,51.0922869],[-90.4406368,51.0877026],[-90.4505874,51.1009674],[-90.4765169,51.1018745],[-90.4897136,51.1166388],[-90.5897473,51.0898536],[-90.6037617,51.1038284],[-90.5937391,51.1212234],[-90.6218428,51.1303238],[-90.6471686,51.1232191],[-90.6967322,51.0825491],[-90.7154065,51.0771743],[-90.7387397,51.0842422],[-90.8453295,51.0463143],[-90.910238,51.0359558],[-90.9311845,51.0218172],[-90.9420138,50.9739969],[-90.9645002,50.9582659],[-90.9657403,49.001883]]]}}]}