{"type": "FeatureCollection", "features": [{"type": "Feature", "properties": {"slug": "kerbala", "members": 1, "country": "Iraq", "input_hash": "b4b0d0b40ad249f6"}, "geometry": {"type": "Polygon", "coordinates": [[[43.7371844, 32.1587306], [44.2541665, 32.3479187], [44.1704235, 32.4628852], [44.1295681, 32.4913413], [44.0971456, 32.5286898], [44.0861592, 32.5659143], [44.1007075, 32.5880824], [44.1163502, 32.5522418], [44.1225944, 32.5516087], [44.1311131, 32.5785721], [44.1173158, 32.5913548], [44.1323043, 32.6181861], [44.1671301, 32.6225236], [44.2056466, 32.6512723], [44.2151952, 32.6494656], [44.2207614, 32.6516523], [44.2128076, 32.6607286], [44.253069, 32.7077439], [44.2640013, 32.7084571], [44.2670911, 32.7272937], [44.2287725, 32.7425294], [44.2149259, 32.7736163], [44.2186232, 32.8042775], [44.2105514, 32.8048151], [44.2101341, 32.7977434], [44.1872309, 32.7994408], [43.989736, 32.8469669], [43.7854387, 32.7831779], [43.7371844, 32.1587306]]]}}]}