{"type":"FeatureCollection","features":[{"type":"Feature","properties":{"slug":"kerkrade","member_count":7,"matched_count":7,"unmatched":[],"source":"Overture Maps division_area (CC-BY 4.0)"},"geometry":{"type":"Polygon","coordinates":[[[6.0237677,50.8182641],[6.0035631,50.8014638],[5.9693181,50.8166456],[5.9547809,50.8459499],[5.933181,50.8396597],[5.9250025,50.8488412],[5.8912445,50.8427468],[5.8690326,50.8566793],[5.8734314,50.8644785],[5.8616184,50.8824175],[5.8346232,50.8806428],[5.8331653,50.8922276],[5.8192073,50.8838432],[5.7997338,50.885733],[5.7965634,50.8976968],[5.8034801,50.8981113],[5.796557,50.9074787],[5.8500926,50.9272911],[5.8569297,50.9440014],[5.8395605,50.9540204],[5.8521852,50.968027],[5.8735032,50.9628043],[5.8910365,50.974094],[5.9551851,50.988417],[5.9675758,50.9793959],[6.0265118,50.983272],[6.0051985,50.9567766],[6.0168529,50.9526426],[6.0182017,50.9347014],[6.0508709,50.9299054],[6.0540229,50.9222473],[6.094184,50.9204383],[6.0751817,50.8929527],[6.0881023,50.8724269],[6.0741694,50.8465363],[6.0554369,50.8572449],[6.0189456,50.8462556],[6.0237677,50.8182641]]]}}]}