{"type":"FeatureCollection","features":[{"type":"Feature","properties":{"slug":"ketchikan-ak","member_count":1,"matched_count":1,"unmatched":[],"source":"Overture Maps division_area (CC-BY 4.0)"},"geometry":{"type":"Polygon","coordinates":[[[-130.651104,54.685501],[-130.6257206,54.7380735],[-130.6590382,54.7630584],[-130.6288741,54.7827202],[-130.5682041,54.7921536],[-130.345938,54.9177286],[-130.2733277,54.9739646],[-130.1875628,55.0628418],[-130.1808826,55.0912511],[-130.1028417,55.1926024],[-129.9741673,55.2819188],[-129.976649,55.3003717],[-130.0211082,55.3379165],[-130.041216,55.4517254],[-130.0898536,55.4979784],[-130.1279045,55.5810345],[-130.1116579,55.6829019],[-130.1477589,55.7149031],[-130.1524057,55.7662874],[-130.191236,55.787539],[-130.201219,55.805336],[-130.234649,55.81431],[-130.290942,55.85576],[-130.297901,55.866363],[-130.289278,55.88705],[-130.308201,55.908319],[-130.332006,55.903804],[-130.370345,55.937259],[-130.388449,55.942331],[-130.384291,55.956771],[-130.367155,55.964097],[-130.323258,55.966601],[-130.323961,55.982095],[-130.296296,55.996374],[-130.261821,55.985307],[-130.246032,55.988869],[-130.248504,55.996581],[-130.217636,55.999867],[-130.249034,56.0156],[-130.252419,56.029123],[-130.283667,56.041398],[-130.291117,56.054246],[-130.281507,56.080275],[-130.246219,56.0964114],[-130.35009,56.1285419],[-130.426006,56.1415614],[-130.46787,56.2430533],[-130.540531,56.2474506],[-130.6233081,56.2668783],[-130.78198,56.3668442],[-131.087348,56.4060047],[-131.080545,56.391966],[-131.087779,56.381403],[-131.103847,56.377237],[-131.112281,56.35286],[-131.09392,56.333945],[-131.055342,56.329857],[-131.013177,56.314211],[-131.041453,56.292604],[-131.018424,56.273375],[-130.99864,56.277851],[-131.007739,56.259207],[-131.02176,56.246612],[-131.061142,56.236736],[-131.062572,56.226474],[-131.108467,56.193505],[-131.14364,56.19836],[-131.149842,56.187852],[-131.191033,56.188575],[-131.238566,56.170968],[-131.253358,56.20685],[-131.288588,56.204017],[-131.291385,56.193752],[-131.31505,56.193499],[-131.326633,56.178697],[-131.339052,56.18283],[-131.358187,56.157175],[-131.392885,56.13976],[-131.435008,56.141813],[-131.439957,56.131083],[-131.421379,56.113354],[-131.425991,56.104964],[-131.369226,56.06991],[-131.385904,56.054001],[-131.37582,56.046076],[-131.381583,56.039922],[-131.366373,56.015522],[-131.379987,56.013419],[-131.413191,56.026351],[-131.497426,56.018391],[-131.499079,56.030129],[-131.52806,56.035403],[-131.527013,56.053161],[-131.584992,56.066511],[-131.602394,56.088774],[-131.63876,56.091559],[-131.651202,56.103895],[-131.689565,56.091854],[-131.676574,56.087289],[-131.680244,56.077319],[-131.66637,56.076765],[-131.664222,56.067502],[-131.690189,56.050942],[-131.73364,56.064627],[-131.80321,56.051408],[-131.829608,56.056307],[-131.824385,56.036912],[-131.859938,56.036517],[-131.875685,56.022554],[-131.87921,55.992862],[-131.905601,55.979065],[-131.871626,55.951092],[-131.881883,55.932259],[-131.909193,55.916089],[-131.957313,55.908124],[-131.964268,55.896665],[-131.957998,55.884414],[-132.007693,55.869737],[-132.01072,55.853473],[-131.935635,55.798431],[-131.93531,55.780705],[-131.97917,55.751959],[-131.974149,55.736614],[-131.984358,55.72567],[-131.962744,55.700757],[-131.985788,55.688466],[-132.008893,55.687053],[-132.066407,55.710083],[-132.088727,55.697355],[-132.092786,55.659587],[-132.154627,55.648631],[-132.175284,55.63683],[-132.268057,55.633834],[-132.252999,55.594989],[-132.228517,55.563639],[-132.054476,55.453227],[-131.958924,55.348806],[-131.898008,55.181574],[-131.878276,55.150954],[-131.831479,55.117995],[-131.758848,55.095045],[-131.629681,55.099004],[-131.61504,55.131002],[-131.637515,55.124473],[-131.667179,55.141241],[-131.626665,55.150912],[-131.624055,55.18976],[-131.602997,55.195295],[-131.61784,55.211446],[-131.629926,55.24496],[-131.621149,55.257293],[-131.626116,55.272598],[-131.60314,55.27983],[-131.582199,55.30019],[-131.496524,55.280441],[-131.42987,55.227146],[-131.295141,55.185161],[-131.298451,55.173444],[-131.338965,55.138156],[-131.332799,55.132541],[-131.34212,55.028623],[-131.375685,54.993297],[-131.399181,54.992655],[-131.403657,55.001647],[-131.455497,55.000148],[-131.539044,55.011397],[-131.54028,55.00251],[-131.555532,54.995046],[-131.771197,54.961051],[-131.7513812,54.6825462],[-131.6734246,54.6391997],[-131.6326219,54.6275216],[-131.5587352,54.583651],[-131.4527444,54.5523264],[-131.324449,54.614395],[-131.233329,54.680781],[-131.218328,54.702724],[-131.080267,54.770779],[-130.997205,54.736335],[-130.954151,54.709114],[-130.895819,54.690226],[-130.746931,54.678001],[-130.656659,54.653559],[-130.651104,54.685501]]]}}]}