{"type":"FeatureCollection","features":[{"type":"Feature","properties":{"slug":"khanty-mansiysk","member_count":1,"matched_count":1,"unmatched":[],"source":"Overture Maps division_area (CC-BY 4.0)"},"geometry":{"type":"Polygon","coordinates":[[[69.1344255,60.9214388],[69.18684,60.9259107],[69.2021509,60.9568033],[69.2700826,60.954493],[69.2893436,60.9608946],[69.2779071,60.9652495],[69.2761514,60.9721993],[69.2902032,60.9763981],[69.2777261,60.9945162],[69.299914,61.0099861],[69.3438133,61.0175303],[69.3968029,61.0013114],[69.4131875,61.0045921],[69.4183456,61.020666],[69.3518856,61.0360251],[69.3329465,61.0335571],[69.3263805,61.0482686],[69.3189852,61.0468438],[69.2983059,61.0692287],[69.290961,61.0870318],[69.2532852,61.1130694],[69.1981579,61.0792845],[69.1620005,61.08065],[69.108738,61.1083892],[69.0846376,61.1082354],[68.9905357,61.0870432],[68.9711255,61.0655087],[68.9318721,61.0630708],[68.9339387,61.0492595],[68.9713575,61.0242022],[68.9842983,61.0018614],[68.9872501,60.9898826],[68.9608311,60.9874976],[68.9777308,60.9493194],[69.0126585,60.9398764],[69.0191817,60.9523707],[69.0506254,60.9553726],[69.0767097,60.9676613],[69.0823531,60.9682341],[69.0736198,60.9630687],[69.083898,60.9612772],[69.0916872,60.9672969],[69.0803793,60.9708799],[69.0885758,60.9843185],[69.1075766,60.9877114],[69.123179,60.9833519],[69.152863,60.957142],[69.1910818,60.944608],[69.158442,60.946046],[69.1349781,60.9377971],[69.1344255,60.9214388]]]}}]}