{"type": "FeatureCollection", "features": [{"type": "Feature", "properties": {"slug": "khmelnytskyi", "members": 1, "country": "Ukraine", "input_hash": "a6ac1b6cf3138d4f"}, "geometry": {"type": "Polygon", "coordinates": [[[27.4137715, 49.8784382], [27.3735171, 49.8690144], [27.3658851, 49.8768814], [27.3633437, 49.9023194], [27.3278193, 49.9186009], [27.2943271, 49.8932214], [27.2833427, 49.8956229], [27.2833604, 49.8894522], [27.2537675, 49.8827815], [27.2490106, 49.8946259], [27.2114792, 49.8955881], [27.1909445, 49.9060059], [27.207775, 49.9187354], [27.2118853, 49.9330394], [27.1528904, 49.9388422], [27.1498022, 49.9244573], [27.1592207, 49.9209187], [27.1065236, 49.9191722], [27.1340353, 49.9464247], [27.1096502, 49.9473153], [27.1089034, 49.941661], [27.0954697, 49.9493755], [27.0875768, 49.9412541], [27.0661602, 49.9432481], [27.0676589, 49.9380365], [27.0400892, 49.9240766], [27.0203692, 49.9317067], [27.0143731, 49.9257485], [26.9750752, 49.9266421], [26.9679531, 49.9174505], [26.98271, 49.9088464], [26.9459902, 49.9019046], [26.934385, 49.9065833], [26.9289508, 49.8937267], [26.9156487, 49.8911096], [26.9141118, 49.8708532], [26.8940038, 49.8832713], [26.8485791, 49.8876194], [26.8512622, 49.8962111], [26.7956079, 49.9070198], [26.8057239, 49.9165837], [26.7700774, 49.9177661], [26.7492923, 49.9019368], [26.7113373, 49.9091281], [26.71115, 49.9004023], [26.6914816, 49.8939373], [26.6365413, 49.8920964], [26.66049, 49.9286672], [26.6455754, 49.9310162], [26.6647032, 49.9371881], [26.6594199, 49.9447011], [26.6136028, 49.956319], [26.6018012, 49.9383803], [26.5403159, 49.944461], [26.5381231, 49.9387754], [26.5004559, 49.9389816], [26.484717, 49.9143636], [26.5122446, 49.9118254], [26.5210371, 49.9033906], [26.5100341, 49.8847453], [26.4619443, 49.8973017], [26.4395074, 49.885767], [26.4265036, 49.8906795], [26.4224737, 49.9049259], [26.3885067, 49.9147337], [26.3867826, 49.9274522], [26.3562183, 49.9299625], [26.3526718, 49.9152155], [26.3315036, 49.9188062], [26.3258444, 49.9024242], [26.3107827, 49.9003121], [26.3187064, 49.8823605], [26.2303328, 49.8769377], [26.2125206, 49.8713684], [26.2133936, 49.8653955], [26.2010069, 49.8663108], [26.1782462, 49.8473273], [26.1854441, 49.846086], [26.1951751, 49.8202123], [26.2180875, 49.8092014], [26.2296013, 49.7871963], [26.2255011, 49.7800794], [26.2407615, 49.7755967], [26.2435558, 49.7453027], [26.2140711, 49.7353076], [26.1908981, 49.7141704], [26.2411414, 49.6937894], [26.2724552, 49.656975], [26.2598739, 49.653651], [26.2625142, 49.6375401], [26.231412, 49.6366522], [26.2254693, 49.623496], [26.1992682, 49.6086606], [26.2144639, 49.5900147], [26.2073698, 49.5768594], [26.2191081, 49.5512563], [26.203496, 49.5462606], [26.2020466, 49.5545381], [26.1907592, 49.5567697], [26.1756533, 49.5493269], [26.1423169, 49.5094531], [26.1881763, 49.4811322], [26.189208, 49.4541385], [26.2001689, 49.4390437], [26.1933396, 49.4300975], [26.2103881, 49.4173064], [26.215847, 49.4208074], [26.2293619, 49.4077861], [26.2246468, 49.4033552], [26.2355581, 49.4002151], [26.2296787, 49.3831079], [26.21943, 49.3784194], [26.2446293, 49.3696208], [26.2320402, 49.3579371], [26.2438048, 49.3478012], [26.22738, 49.3496148], [26.2260855, 49.3279309], [26.2497691, 49.3120949], [26.2461019, 49.3004194], [26.2595585, 49.2896878], [26.2489405, 49.2864125], [26.2572673, 49.2767079], [26.2414752, 49.2770305], [26.2584668, 49.2638121], [26.2418728, 49.2546776], [26.2434116, 49.2429647], [26.2014777, 49.2432802], [26.2073518, 49.2328201], [26.1989272, 49.2274843], [26.2020144, 49.2202828], [26.1908168, 49.2204033], [26.1961649, 49.2125058], [26.1832148, 49.1959295], [26.1960628, 49.1822755], [26.1889833, 49.17297], [26.2246189, 49.1679385], [26.252832, 49.1402782], [26.2603484, 49.1151488], [26.2710867, 49.1198385], [26.2596582, 49.1299362], [26.2738578, 49.1390942], [26.2601715, 49.1488068], [26.264847, 49.1540528], [26.2869986, 49.1442768], [26.2812395, 49.150705], [26.2972691, 49.1751059], [26.3185675, 49.1656105], [26.3262361, 49.1758473], [26.3516583, 49.1593618], [26.3483808, 49.1555678], [26.3785932, 49.1421515], [26.4129194, 49.1489081], [26.4341994, 49.1397148], [26.4427441, 49.1270827], [26.4202657, 49.1112065], [26.4432432, 49.0673876], [26.5103512, 49.0440514], [26.5428349, 49.0427224], [26.5563502, 49.0329616], [26.5532014, 49.024329], [26.5608244, 49.0238875], [26.5558948, 49.0113805], [26.5472363, 49.0121697], [26.5440726, 48.9962343], [26.5651809, 48.9975015], [26.6191102, 48.9787424], [26.6306614, 48.9836878], [26.5851351, 49.0035835], [26.5917752, 49.0048867], [26.5876181, 49.0107876], [26.6072363, 49.0147647], [26.6334612, 48.9938568], [26.677993, 49.0282534], [26.6550277, 49.0490713], [26.680497, 49.0637435], [26.6680215, 49.0688729], [26.678494, 49.0748121], [26.7348131, 49.0688602], [26.7376532, 49.0763137], [26.7572132, 49.0755892], [26.8024162, 49.0595868], [26.8245317, 49.0756273], [26.8475599, 49.0756187], [26.8524168, 49.0648974], [26.9009907, 49.0469031], [26.8925104, 49.0300029], [26.9142951, 49.0211471], [26.931436, 49.018073], [26.9336793, 49.0363845], [26.9405998, 49.0357888], [26.9882345, 49.010259], [27.0034762, 49.0162753], [27.0186652, 48.9939374], [27.039998, 48.9947251], [27.0369757, 48.9865321], [27.043267, 48.984408], [27.0564866, 48.9911835], [27.0984568, 48.9909281], [27.1121845, 48.9676586], [27.1049452, 48.9584363], [27.1144094, 48.9494898], [27.1823387, 48.9493266], [27.1872327, 48.9302743], [27.2027848, 48.9219092], [27.2307365, 48.9266152], [27.291122, 48.9085996], [27.2881626, 48.92205], [27.3131033, 48.9267335], [27.3184139, 48.9352904], [27.3361803, 48.936498], [27.3628803, 48.9251977], [27.3944039, 48.9279153], [27.3923038, 48.9381673], [27.4029635, 48.9528013], [27.4173685, 48.954283], [27.4111705, 48.9608183], [27.4180149, 48.9716197], [27.4015589, 48.9803536], [27.3979833, 48.9979732], [27.3816, 49.0074775], [27.4060133, 49.0293878], [27.4166945, 49.0546581], [27.427184, 49.0529112], [27.4282916, 49.0648204], [27.4386792, 49.0652917], [27.4354038, 49.0701942], [27.5029669, 49.0698946], [27.4799822, 49.0881357], [27.5054215, 49.110234], [27.492612, 49.1212689], [27.5076159, 49.1315366], [27.532787, 49.1253958], [27.5360148, 49.1384116], [27.5775559, 49.1215883], [27.5977552, 49.1348624], [27.5921656, 49.1408579], [27.6005892, 49.1607102], [27.6398235, 49.1680078], [27.6868114, 49.14172], [27.7197303, 49.1461043], [27.7409497, 49.1386698], [27.7581418, 49.1537605], [27.7521448, 49.1605582], [27.7825463, 49.1730157], [27.7760375, 49.1898863], [27.7979247, 49.1814977], [27.7910546, 49.1744987], [27.8148604, 49.1894587], [27.8223661, 49.1791805], [27.8467052, 49.1784114], [27.8548763, 49.1706542], [27.8979501, 49.1860417], [27.8935454, 49.2100458], [27.8665303, 49.2132184], [27.8560102, 49.2356407], [27.8724942, 49.246001], [27.849279, 49.2638086], [27.8624465, 49.2795257], [27.8517388, 49.3120233], [27.8578311, 49.3285334], [27.8417828, 49.3476018], [27.8157491, 49.3555412], [27.8115038, 49.3661421], [27.8290885, 49.3677482], [27.8286844, 49.3746262], [27.8113668, 49.3790176], [27.8119676, 49.3883301], [27.8336695, 49.3911628], [27.8349996, 49.4086766], [27.8514797, 49.4271553], [27.8462607, 49.4312171], [27.8274233, 49.4214486], [27.804995, 49.4393051], [27.7504916, 49.439866], [27.7453782, 49.4507329], [27.7637836, 49.4785293], [27.7770394, 49.4749098], [27.7913667, 49.4888503], [27.7349861, 49.4965424], [27.7429086, 49.5316255], [27.7633625, 49.5303705], [27.7751696, 49.5203064], [27.79414, 49.5307482], [27.7852917, 49.5449879], [27.7904102, 49.5569821], [27.7583295, 49.5763039], [27.7733728, 49.5967784], [27.7922773, 49.6038165], [27.8003112, 49.6216039], [27.8122938, 49.6183208], [27.8115797, 49.6445014], [27.7660225, 49.6664265], [27.7625993, 49.6972532], [27.8117178, 49.7019583], [27.8071027, 49.7094851], [27.8371073, 49.7297983], [27.7811896, 49.7283826], [27.7520475, 49.7556912], [27.7036566, 49.7689962], [27.727053, 49.7995454], [27.716497, 49.8061699], [27.6680612, 49.8078243], [27.6630422, 49.7946346], [27.6580225, 49.7967282], [27.6226414, 49.8384553], [27.6276194, 49.8504453], [27.6099979, 49.875646], [27.6253697, 49.8923954], [27.5957866, 49.8901687], [27.5697891, 49.9097487], [27.5498388, 49.9005286], [27.5494387, 49.9083031], [27.5225549, 49.909928], [27.5196802, 49.8849646], [27.4793469, 49.876236], [27.4468208, 49.9095267], [27.4180117, 49.8897421], [27.4137715, 49.8784382]]]}}]}