{"type": "FeatureCollection", "features": [{"type": "Feature", "properties": {"slug": "khost", "members": 1, "country": "Afghanistan", "input_hash": "e31107d5de7e7a29"}, "geometry": {"type": "Polygon", "coordinates": [[[69.78709, 33.3672347], [69.7919802, 33.3511063], [69.8144249, 33.3618938], [69.8574333, 33.3515252], [69.8753639, 33.3359177], [69.8598157, 33.3202026], [69.8565313, 33.2928646], [69.8751805, 33.2882301], [69.8872321, 33.2990685], [69.9480045, 33.3108015], [69.9900181, 33.3002202], [69.9984586, 33.2800016], [70.0179851, 33.2890584], [70.0435586, 33.2629386], [70.0520621, 33.2403934], [70.0925921, 33.2338224], [70.07918, 33.21873], [70.09659, 33.20446], [70.16262, 33.21785], [70.16509, 33.23258], [70.178645, 33.2355654], [70.1785546, 33.2642338], [70.1539784, 33.2977775], [70.1527245, 33.3389556], [70.1208757, 33.3499541], [70.1192456, 33.3692243], [70.1265182, 33.3790673], [70.0960486, 33.3831507], [70.0875222, 33.4120434], [70.0689646, 33.419579], [70.0206898, 33.4221954], [69.9981198, 33.4377875], [69.9494688, 33.4231373], [69.9087174, 33.4301488], [69.885395, 33.4543183], [69.8728561, 33.4482504], [69.8299731, 33.3879668], [69.78709, 33.3672347]]]}}]}