{"type":"FeatureCollection","features":[{"type":"Feature","properties":{"slug":"kiel","member_count":252,"matched_count":248,"unmatched":["Rendsburg-Eckernf\u00f6rde (DE-SH, type='Rural District')","Sch\u00fclp b. Rendsburg (DE-SH, type='Commune')","Sch\u00fclp b. Nortorf (DE-SH, type='Commune')","Rade b. Rendsburg (DE-SH, type='Commune')"],"source":"Overture Maps division_area (CC-BY 4.0)"},"geometry":{"type":"MultiPolygon","coordinates":[[[[9.2751425,53.9206471],[9.3375013,53.9437865],[9.3479261,53.9368679],[9.3508904,53.9469792],[9.3696281,53.9317841],[9.3510947,53.9188207],[9.3577772,53.9136423],[9.3108164,53.8928811],[9.2751425,53.9206471]]],[[[9.607846,54.0675192],[9.5811011,54.0810749],[9.5840262,54.0875552],[9.5353367,54.0912643],[9.5238422,54.0949148],[9.5304073,54.0983011],[9.5262542,54.0997073],[9.493147,54.0850138],[9.4535904,54.0876115],[9.4508367,54.0799437],[9.4373289,54.077851],[9.4389669,54.0700234],[9.4201118,54.0712815],[9.4268978,54.063996],[9.4195102,54.0622769],[9.4165728,54.070052],[9.405572,54.070505],[9.3112392,54.0633826],[9.3139029,54.1187051],[9.3042966,54.1256465],[9.3842186,54.1591391],[9.4090527,54.1596621],[9.4421952,54.1736237],[9.4399495,54.1829886],[9.4268835,54.1885579],[9.4404553,54.1941963],[9.428689,54.2093716],[9.4429096,54.2228181],[9.433117,54.2371085],[9.4436241,54.2448455],[9.4211895,54.2647453],[9.4034383,54.266645],[9.4035902,54.2813014],[9.3932417,54.2906473],[9.4067045,54.2971728],[9.3931426,54.3025489],[9.4053594,54.2992873],[9.402234,54.3222048],[9.3898169,54.3242705],[9.4154516,54.3462674],[9.4758833,54.3363397],[9.5561706,54.3568346],[9.5658762,54.3724038],[9.5470589,54.3997816],[9.5593929,54.4036502],[9.5523087,54.4284304],[9.6416832,54.4536379],[9.6395197,54.4627077],[9.6280602,54.4665394],[9.6435225,54.4812988],[9.6749273,54.4929826],[9.6709588,54.5249625],[9.6764668,54.5381473],[9.6859075,54.5395826],[9.6872612,54.5517214],[9.7110894,54.5585347],[9.7185086,54.5427682],[9.7371259,54.5303367],[9.7430838,54.5447941],[9.7607418,54.5571348],[9.9328803,54.6264328],[9.9370055,54.6371516],[9.9641403,54.625795],[9.9934617,54.6291051],[10.0195967,54.6164999],[10.0277089,54.6067822],[10.0278303,54.5500801],[9.9702712,54.5051477],[9.8624654,54.4696763],[9.8552617,54.4562253],[9.8673111,54.4525948],[9.8635606,54.4481618],[10.0241915,54.4755854],[10.1352678,54.4845347],[10.1992916,54.4557391],[10.1690532,54.4354062],[10.1885806,54.4124851],[10.1915325,54.3900662],[10.1517627,54.3632936],[10.1742321,54.3457037],[10.1782495,54.3612164],[10.1960304,54.366081],[10.1941519,54.3795412],[10.2262179,54.4139775],[10.277262,54.419424],[10.3027597,54.4334164],[10.3070247,54.4269632],[10.3201308,54.4286804],[10.3350455,54.4055598],[10.3679334,54.4016036],[10.3612195,54.3825033],[10.3862172,54.3838229],[10.4242924,54.4146911],[10.4842693,54.3912161],[10.6403988,54.3522207],[10.6872903,54.3127352],[10.7136618,54.3067458],[10.7177548,54.2977917],[10.7075963,54.2817189],[10.7293634,54.2698679],[10.7153548,54.2584092],[10.7213001,54.2472355],[10.6989159,54.2314731],[10.6990551,54.2185186],[10.7156905,54.2137542],[10.6765571,54.1912515],[10.6644187,54.2122131],[10.623291,54.2262743],[10.6067676,54.2239924],[10.609799,54.2345713],[10.5354237,54.2286864],[10.5306427,54.231481],[10.5413717,54.2559888],[10.5212181,54.2569869],[10.5135111,54.2683492],[10.4988552,54.2632142],[10.4987647,54.2563735],[10.4814529,54.2583287],[10.4918501,54.2501089],[10.4924871,54.2326687],[10.5069648,54.2230786],[10.5021352,54.2093191],[10.5295344,54.2113678],[10.5388857,54.2052092],[10.5252612,54.1856203],[10.4899548,54.1825955],[10.4833823,54.1772817],[10.4856435,54.1649385],[10.4951182,54.1676842],[10.4891253,54.1588571],[10.5039171,54.1599161],[10.5155194,54.1398824],[10.5411113,54.1337601],[10.5384171,54.1232774],[10.4935607,54.1226192],[10.4817071,54.1186576],[10.4786718,54.1044384],[10.4577069,54.1177226],[10.4328919,54.1183404],[10.4384509,54.1262865],[10.4303112,54.1235708],[10.4223756,54.1156516],[10.421005,54.1028191],[10.4280899,54.0968378],[10.4167662,54.0824062],[10.4191523,54.0721702],[10.372286,54.071945],[10.3753299,54.0799482],[10.3572719,54.0828206],[10.3545934,54.1076062],[10.2856663,54.1000601],[10.255563,54.0873886],[10.2404299,54.0911878],[10.2387515,54.0855123],[10.2488159,54.0834864],[10.1589417,54.0553071],[10.0291315,54.0579162],[10.0226269,54.0623371],[10.0351076,54.0685356],[10.0347015,54.0757842],[10.0163184,54.0800457],[10.0266436,54.0913564],[10.0193674,54.118632],[10.0362316,54.1274654],[10.0163107,54.1334396],[10.0231207,54.1402641],[9.9928166,54.1496806],[9.9804215,54.1476791],[9.9786406,54.135252],[9.9611608,54.1336031],[9.9436406,54.1045276],[9.928843,54.102907],[9.9352605,54.0703587],[9.9267532,54.0526952],[9.9570006,54.0490606],[9.9399201,54.0176675],[9.8776816,54.0086792],[9.8561794,54.0195603],[9.8138214,54.0228437],[9.8181188,54.0455064],[9.8332864,54.0490926],[9.8571812,54.0851045],[9.8599933,54.0991379],[9.8432185,54.1069354],[9.787927,54.1123476],[9.7818591,54.1016605],[9.7452562,54.0972074],[9.7077892,54.079798],[9.7083978,54.0672414],[9.7506269,54.0509376],[9.724683,54.0431765],[9.6824593,54.0505806],[9.6807666,54.0633842],[9.6576361,54.0469822],[9.6050742,54.0488179],[9.6016145,54.062771],[9.607846,54.0675192]],[[9.9220083,54.1665979],[9.8717597,54.167227],[9.8558055,54.1808898],[9.8126962,54.1905296],[9.8115539,54.178953],[9.8019607,54.1786609],[9.8094782,54.1753753],[9.8103402,54.1556808],[9.8253066,54.1477146],[9.8632381,54.1510271],[9.8589255,54.1416209],[9.9197084,54.1482379],[9.9281155,54.1577078],[9.9220083,54.1665979]],[[9.7205454,54.33638],[9.7690864,54.3049117],[9.787559,54.3065788],[9.8094996,54.3167209],[9.8038151,54.3248047],[9.7694544,54.3283952],[9.7740471,54.3327509],[9.7620522,54.3470291],[9.7205454,54.33638]],[[9.6244376,54.271996],[9.6158186,54.2522684],[9.5842302,54.2344238],[9.6145896,54.2257686],[9.6231494,54.236739],[9.6586834,54.2480015],[9.6355491,54.2668203],[9.6373972,54.2729237],[9.6244376,54.271996]],[[9.4186541,54.0711844],[9.4285399,54.0825637],[9.414253,54.0742349],[9.4186541,54.0711844]],[[9.5306518,54.0983045],[9.5358189,54.0988081],[9.5364165,54.0993932],[9.5306518,54.0983045]],[[9.6725252,54.1157316],[9.7233169,54.1141556],[9.7243925,54.1225544],[9.7319134,54.1212292],[9.7235884,54.1262346],[9.7337064,54.1351789],[9.7200411,54.1465574],[9.6575932,54.1445086],[9.6660049,54.1410505],[9.6725252,54.1157316]],[[9.7543395,54.4675634],[9.739785,54.4635353],[9.7388587,54.4511955],[9.7208015,54.4485353],[9.7654361,54.4292683],[9.7819939,54.4332094],[9.7796545,54.4584701],[9.7543395,54.4675634]]],[[[9.0968732,54.0883146],[9.1054014,54.0897078],[9.0978709,54.1015667],[9.1120662,54.1093307],[9.108282,54.1013459],[9.1234026,54.0975796],[9.1186791,54.0952218],[9.16359,54.0805248],[9.1465296,54.0666431],[9.1291596,54.0648461],[9.1258692,54.0831394],[9.0968732,54.0883146]]],[[[9.1227323,54.2436954],[9.1630321,54.2421222],[9.1720517,54.2270726],[9.1689855,54.2185481],[9.1275984,54.2322332],[9.1227323,54.2436954]]],[[[9.170751,54.4229888],[9.167432,54.4084005],[9.1446677,54.4044548],[9.1496436,54.4177586],[9.139826,54.4205849],[9.170751,54.4229888]]],[[[9.1920071,54.4637226],[9.2267136,54.4762382],[9.2761237,54.466237],[9.3033288,54.4693482],[9.3258456,54.4578156],[9.3271445,54.4478743],[9.2902646,54.4208681],[9.2427289,54.448031],[9.194714,54.4476722],[9.1920071,54.4637226]]],[[[9.2460906,54.8170739],[9.2426016,54.7874029],[9.2098367,54.7818059],[9.1689276,54.7865385],[9.2059738,54.8104306],[9.2460906,54.8170739]]],[[[9.8313788,53.7417793],[9.8176307,53.7257398],[9.7899663,53.7198409],[9.7828522,53.7066049],[9.7599829,53.7217798],[9.7420503,53.7238401],[9.7448207,53.7320462],[9.7656897,53.7391405],[9.7258385,53.7579719],[9.7284491,53.7689884],[9.6804194,53.7743886],[9.7012308,53.7821769],[9.707203,53.7968449],[9.7249218,53.8080801],[9.7085524,53.8091795],[9.6902436,53.8242354],[9.7354605,53.835176],[9.7496952,53.8278434],[9.7482512,53.8459974],[9.7940373,53.8599319],[9.829752,53.838205],[9.8145719,53.807229],[9.8268575,53.8057196],[9.8314149,53.8254255],[9.8448859,53.8170635],[9.8420802,53.8254865],[9.8511344,53.8303871],[9.8806085,53.8122877],[9.8838861,53.8020161],[9.8669162,53.7817389],[9.8988139,53.7739036],[9.9008408,53.760987],[9.886449,53.7474277],[9.8676056,53.7636298],[9.8677365,53.7518291],[9.8313788,53.7417793]],[[9.8835171,53.7543309],[9.8880162,53.7505394],[9.8903706,53.7517131],[9.8835171,53.7543309]],[[9.7527179,53.8043077],[9.732383,53.773242],[9.7565943,53.7780331],[9.7619047,53.7696368],[9.7711386,53.7706269],[9.766381,53.7740211],[9.7899086,53.7824531],[9.7945395,53.7879311],[9.7881045,53.7910673],[9.7978642,53.8009973],[9.8150726,53.8036257],[9.7801046,53.8104952],[9.7638262,53.8236879],[9.745131,53.8196477],[9.7492279,53.8153623],[9.7407277,53.8116393],[9.7527179,53.8043077]]],[[[10.4990468,53.6302387],[10.4710133,53.6243371],[10.4647957,53.6353533],[10.4990468,53.6302387]]],[[[10.4052837,53.6683898],[10.4142091,53.6929212],[10.4100087,53.7022641],[10.4311823,53.7024122],[10.4451062,53.6990734],[10.4456994,53.6889189],[10.4648705,53.677445],[10.4483097,53.6704741],[10.4679373,53.6682022],[10.4597604,53.658233],[10.4458288,53.6591431],[10.4556905,53.647534],[10.4346366,53.6461646],[10.4334287,53.6572733],[10.4052837,53.6683898]]]]}}]}