{"type": "FeatureCollection", "features": [{"type": "Feature", "properties": {"slug": "kikwit", "members": 2, "country": "Congo DR", "input_hash": "bb09531c91e8edd0"}, "geometry": {"type": "Polygon", "coordinates": [[[18.78159996000005, -5.101511524999978], [18.751197240000067, -5.030634858999974], [18.813329640000063, -5.007686509999928], [18.86147316000006, -5.063494730999935], [18.85012056000005, -5.080828705999977], [18.79911252000005, -5.106998598999951], [18.78159996000005, -5.101511524999978]]]}}]}