{"type": "FeatureCollection", "features": [{"type": "Feature", "properties": {"slug": "kilmarnock", "members": 1, "country": "United Kingdom", "input_hash": "00c0fd8c486e6221"}, "geometry": {"type": "Polygon", "coordinates": [[[-4.017118891093443, 55.44711133893626], [-3.986235801227007, 55.4640502180468], [-4.016833340933604, 55.47295954667579], [-4.011625431489428, 55.48285053095861], [-4.025697263608097, 55.492450656093084], [-3.95871445232829, 55.540786991037656], [-3.957056865594202, 55.555750207164344], [-3.972419756476594, 55.55645736574187], [-3.976403714939318, 55.56465609579379], [-3.997011245930427, 55.56353550801614], [-4.039588283343366, 55.59237103993406], [-4.081578339111178, 55.56757873879006], [-4.126321405493727, 55.56567353293935], [-4.147729290832117, 55.572732793770975], [-4.224676161845895, 55.55048580008961], [-4.228191153237194, 55.56006582011666], [-4.242652740754243, 55.56213422127357], [-4.202486979779726, 55.583044776463325], [-4.194687986647483, 55.600718738446005], [-4.175004720283682, 55.60483809091638], [-4.205293755990096, 55.61486013698478], [-4.201919522641391, 55.62693004735571], [-4.221615497491083, 55.63509685957854], [-4.216974984781474, 55.64719828806953], [-4.246907606383769, 55.67905236483998], [-4.324951798188174, 55.688277710596566], [-4.333415187004976, 55.70027755541804], [-4.35320921464628, 55.697419054767124], [-4.384508950377877, 55.72298327585372], [-4.400639852028404, 55.713601829141815], [-4.439035088424533, 55.735048153376745], [-4.468580264868333, 55.73252167774233], [-4.458397172051, 55.75086477950093], [-4.485799930029787, 55.749684010247535], [-4.493455081604781, 55.76258415471998], [-4.507095240725469, 55.76309022539509], [-4.579241031937526, 55.71228967527052], [-4.610731995885817, 55.67654530926286], [-4.638353031278093, 55.672509038788625], [-4.59677617099095, 55.65507933034632], [-4.603804442191577, 55.647343983187945], [-4.593659214487442, 55.644155903270196], [-4.571937758590446, 55.648402054221485], [-4.546504260505484, 55.667009446100494], [-4.530827227422426, 55.659473577122206], [-4.492638021080789, 55.66507060150556], [-4.49621030383144, 55.65649325812253], [-4.557255035248898, 55.64671640441366], [-4.5695754394105, 55.63263007898412], [-4.55876293906479, 55.625220532422425], [-4.588463958901773, 55.61822046711139], [-4.57935744090669, 55.60365682889958], [-4.592230425358871, 55.59795074938657], [-4.568274340732815, 55.60187080018785], [-4.568541630659464, 55.59287123933447], [-4.536090036668668, 55.5916928244729], [-4.538727541962052, 55.57510037509471], [-4.516965094774739, 55.5713850914089], [-4.518242984134948, 55.56537693653199], [-4.454551690669112, 55.56204528522035], [-4.43716436639187, 55.56787974019923], [-4.436245193537978, 55.56092765671237], [-4.409507912707189, 55.55328534355198], [-4.399154296680347, 55.510804533948985], [-4.418677809872149, 55.50662639156861], [-4.416103503968661, 55.500799776481635], [-4.43959486413463, 55.504383044085415], [-4.440471154232946, 55.493824107429106], [-4.45898245008412, 55.48358964868706], [-4.471955343272215, 55.4859142113496], [-4.493512339854439, 55.470143444645124], [-4.493472703144028, 55.45733830877464], [-4.481144165942789, 55.4578910205627], [-4.47487098022811, 55.44830245854836], [-4.49334132056509, 55.43844173277386], [-4.471320153609777, 55.42897439826163], [-4.454382265793302, 55.430840016562406], [-4.450451166541741, 55.411940588915634], [-4.501913775601474, 55.39911865357606], [-4.527789811610931, 55.40912897328137], [-4.535126609742646, 55.42384614022287], [-4.565101849402701, 55.4263049622981], [-4.571197406006827, 55.40438992310677], [-4.603482327420267, 55.394956734886506], [-4.587492738608528, 55.39683521306679], [-4.563407804109342, 55.38641339117347], [-4.544950091724169, 55.39595418477728], [-4.528187906650118, 55.39181666844326], [-4.519828711291789, 55.38357060435629], [-4.564623073797498, 55.357481653796924], [-4.528810840805656, 55.34971058431185], [-4.495623723774236, 55.3240681539552], [-4.474145313767393, 55.32517220265138], [-4.465955785772665, 55.31528320888757], [-4.437975428255699, 55.30779136875959], [-4.45864263817239, 55.28523965184193], [-4.429120726027477, 55.25401934823538], [-4.450215194209377, 55.23739097635716], [-4.451843149880776, 55.21127298432555], [-4.476610879205074, 55.199140914071684], [-4.461860523571819, 55.17021452627889], [-4.442702866804019, 55.168431966777455], [-4.439186220749535, 55.13787688243073], [-4.409579207166184, 55.15154564243826], [-4.409280214597644, 55.179223158933915], [-4.392203297617799, 55.20246250077193], [-4.377396596660184, 55.20145151456918], [-4.360165333612261, 55.25798399196923], [-4.312933325016752, 55.291511649713364], [-4.301279194828012, 55.31044551857604], [-4.257681344409025, 55.305282384175044], [-4.239526715947949, 55.321431304727675], [-4.202869731621787, 55.31823057398472], [-4.171645664648393, 55.29434527664879], [-4.139341602387734, 55.28458855581855], [-4.113599199164868, 55.302307225037346], [-4.119146144964026, 55.32226747671182], [-4.085739562343456, 55.351257448809136], [-4.107496778618827, 55.36903926936305], [-4.090854895503993, 55.412063531897964], [-4.002491271712261, 55.436625157910846], [-4.017118891093443, 55.44711133893626]]]}}]}