{"type":"FeatureCollection","features":[{"type":"Feature","properties":{"slug":"kirovo-chepetsk","member_count":1,"matched_count":1,"unmatched":[],"source":"Overture Maps division_area (CC-BY 4.0)"},"geometry":{"type":"MultiPolygon","coordinates":[[[[49.9231146,58.5384749],[49.9484693,58.5744282],[49.9676749,58.5810459],[49.9800954,58.5684315],[50.0655033,58.5605497],[50.0734016,58.5442328],[50.1007277,58.5313138],[50.0863488,58.5213809],[50.0563315,58.5333582],[50.0373656,58.5275412],[50.0758163,58.5135928],[50.068593,58.501046],[50.0288619,58.49499],[50.0100553,58.5119207],[49.9985458,58.508602],[49.9944386,58.5242348],[49.9731348,58.5162553],[49.9263006,58.5319346],[49.9231146,58.5384749]]],[[[50.2871645,58.5571834],[50.2765265,58.5531807],[50.2752646,58.5552781],[50.2871645,58.5571834]]],[[[50.163971,58.5499575],[50.1917393,58.5659983],[50.2192123,58.5552073],[50.2039124,58.545823],[50.163971,58.5499575]]],[[[50.181845,58.6043316],[50.1774227,58.6001971],[50.173506,58.6014332],[50.181845,58.6043316]]],[[[50.2246022,58.6121243],[50.2476278,58.6218173],[50.257284,58.6196797],[50.2326772,58.6098697],[50.2246022,58.6121243]]]]}}]}