{"type":"FeatureCollection","features":[{"type":"Feature","properties":{"slug":"kiselyovsk","member_count":1,"matched_count":1,"unmatched":["[recovered via metro-name fallback: Kiselyovsk]"],"source":"Overture Maps division_area (CC-BY 4.0)"},"geometry":{"type":"Polygon","coordinates":[[[86.6400946,54.0890666],[86.5879303,54.0853561],[86.5553892,54.072448],[86.5187029,54.0778636],[86.4833579,54.0651372],[86.4746975,54.0545882],[86.483013,54.0439009],[86.5226133,54.0463841],[86.5452849,54.0303963],[86.5361538,54.0207978],[86.530627,54.0264443],[86.5299061,54.0104912],[86.5178915,54.0011706],[86.5027427,54.0237302],[86.491294,54.0158235],[86.5075589,53.9929781],[86.491937,53.9768364],[86.5199905,53.9749328],[86.5490461,53.9859987],[86.5937887,53.9729109],[86.5972909,53.9603731],[86.5799154,53.9583536],[86.569328,53.9453718],[86.6064714,53.9388523],[86.6180161,53.9553919],[86.6471437,53.9372922],[86.6664011,53.9438117],[86.6938632,53.9404534],[86.7045679,53.9474284],[86.7030352,53.9564459],[86.7195278,53.9564814],[86.7175055,53.9630494],[86.757235,53.968617],[86.7425433,53.9899853],[86.7327376,53.989555],[86.7281596,54.0097993],[86.7740554,54.028011],[86.8014544,54.049236],[86.7960686,54.0530155],[86.7519485,54.0342209],[86.743499,54.0424328],[86.7275286,54.0352493],[86.7117762,54.046644],[86.6951226,54.0388358],[86.6813648,54.0559749],[86.6572795,54.0471658],[86.6374228,54.0668517],[86.6450978,54.0703051],[86.6391706,54.0759652],[86.6515062,54.0810478],[86.6400946,54.0890666]],[[86.5638211,54.0360529],[86.5767756,54.0364779],[86.5653651,54.0324968],[86.5638211,54.0360529]]]}}]}