{"type": "FeatureCollection", "features": [{"type": "Feature", "properties": {"slug": "kisii", "members": 1, "country": "Kenya", "input_hash": "6508a8a1e9e8d5ab"}, "geometry": {"type": "Polygon", "coordinates": [[[34.9181095, -0.7603053], [34.8530002, -0.7247527], [34.8213359, -0.6944714], [34.7959908, -0.6903163], [34.7737541, -0.665141], [34.7658463, -0.6657677], [34.746417, -0.6987722], [34.7564288, -0.7290378], [34.8557929, -0.8148888], [34.8738142, -0.8050546], [34.8942775, -0.7752516], [34.9167613, -0.7678389], [34.9181095, -0.7603053]]]}}]}