{"type": "FeatureCollection", "features": [{"type": "Feature", "properties": {"slug": "kisvarda", "members": 2, "country": "Hungary", "input_hash": "49894f9e6a3fd68c"}, "geometry": {"type": "MultiPolygon", "coordinates": [[[[22.0832655, 48.2483983], [22.1279628, 48.2327525], [22.1153084, 48.2212744], [22.1211364, 48.2039782], [22.0987054, 48.2003811], [22.0796839, 48.1867776], [22.0431061, 48.2044858], [22.0218609, 48.2316935], [22.0344887, 48.2530828], [22.0535397, 48.2571638], [22.0715443, 48.2429858], [22.0832655, 48.2483983]]], [[[22.1552806, 48.4082409], [22.1886791, 48.4166607], [22.1892647, 48.3892068], [22.1763579, 48.3838358], [22.165124, 48.3967078], [22.1589306, 48.3888749], [22.1552806, 48.4082409]]]]}}]}