{"type": "FeatureCollection", "features": [{"type": "Feature", "properties": {"slug": "knoxville", "members": 13, "country": "United States"}, "geometry": {"type": "Polygon", "coordinates": [[[-83.6401347, 35.5661694], [-83.7716992, 35.5615018], [-83.8204695, 35.5256596], [-83.8798206, 35.5190762], [-83.9116595, 35.4762491], [-83.9529597, 35.4605486], [-83.965935, 35.466682], [-83.963501, 35.472996], [-83.938248, 35.487991], [-83.975182, 35.501339], [-83.986282, 35.487457], [-84.011047, 35.512844], [-83.992485, 35.530689], [-84.000328, 35.554878], [-84.014694, 35.546494], [-84.084358, 35.541286], [-84.094795, 35.553711], [-84.087242, 35.561756], [-84.105789, 35.566139], [-84.110962, 35.585739], [-84.129784, 35.579231], [-84.149475, 35.583626], [-84.148712, 35.591785], [-84.181915, 35.599106], [-84.19263, 35.618241], [-84.252785, 35.617587], [-84.25079, 35.636989], [-84.256407, 35.631922], [-84.297522, 35.643152], [-84.290765, 35.654925], [-84.31759, 35.65996], [-84.317628, 35.672107], [-84.326443, 35.672204], [-84.326477, 35.665005], [-84.357608, 35.665162], [-84.353275, 35.654396], [-84.385011, 35.639841], [-84.398074, 35.640208], [-84.406472, 35.665622], [-84.424785, 35.661078], [-84.424474, 35.672182], [-84.487344, 35.655508], [-84.504274, 35.665866], [-84.504595, 35.651034], [-84.522162, 35.651394], [-84.522545, 35.643984], [-84.509243, 35.642154], [-84.508579, 35.629399], [-84.500061, 35.62939], [-84.504746, 35.619542], [-84.52585, 35.624186], [-84.547603, 35.641327], [-84.566934, 35.629773], [-84.584296, 35.633086], [-84.584999, 35.644539], [-84.619865, 35.644651], [-84.628061, 35.690117], [-84.619201, 35.694837], [-84.619031, 35.70788], [-84.636309, 35.72429], [-84.654349, 35.717293], [-84.663528, 35.702837], [-84.672223, 35.702943], [-84.67654, 35.717501], [-84.69873, 35.717869], [-84.698416, 35.741814], [-84.754059, 35.75943], [-84.737862, 35.779224], [-84.737671, 35.790569], [-84.788895, 35.815151], [-84.680633, 35.908454], [-84.720062, 35.99456], [-84.789581, 36.056984], [-84.80555, 36.090717], [-84.811302, 36.087147], [-84.81971, 36.095394], [-84.832413, 36.084179], [-84.872025, 36.138092], [-84.907864, 36.156373], [-84.899747, 36.172665], [-84.914155, 36.20829], [-84.891798, 36.23868], [-84.88385, 36.239121], [-84.878288, 36.281347], [-84.864279, 36.293434], [-84.84294, 36.286997], [-84.822415, 36.299486], [-84.814613, 36.293321], [-84.79568, 36.297689], [-84.795216, 36.30909], [-84.781911, 36.319199], [-84.786457, 36.325234], [-84.774063, 36.334639], [-84.760438, 36.327809], [-84.74001, 36.336551], [-84.745473, 36.35147], [-84.727126, 36.352449], [-84.732491, 36.366261], [-84.722725, 36.376605], [-84.700785, 36.370824], [-84.611042, 36.270377], [-84.593941, 36.276677], [-84.587341, 36.266677], [-84.573041, 36.266577], [-84.573741, 36.229977], [-84.56394, 36.226177], [-84.55244, 36.233777], [-84.471037, 36.203778], [-84.444135, 36.164778], [-84.4164434, 36.1671854], [-84.4031614, 36.1756275], [-84.3928844, 36.2031657], [-84.372731, 36.216778], [-84.373733, 36.264179], [-84.329927, 36.284686], [-84.333132, 36.364379], [-84.325832, 36.366379], [-84.333333, 36.369979], [-84.334433, 36.388079], [-84.312086, 36.384573], [-84.344701, 36.415677], [-84.343466, 36.442961], [-84.355414, 36.459636], [-84.340564, 36.466174], [-84.334632, 36.493189], [-84.339604, 36.49941], [-84.330434, 36.50948], [-84.286533, 36.50388], [-84.259593, 36.513985], [-84.249231, 36.564684], [-84.263933, 36.56688], [-84.261337, 36.591784], [-83.9876194, 36.5894755], [-83.9818955, 36.5843131], [-83.9842988, 36.5597046], [-83.93679, 36.460403], [-83.929977, 36.460281], [-83.9333582, 36.4532533], [-83.92112, 36.428375], [-83.905678, 36.428562], [-83.899529, 36.423462], [-83.905638, 36.419979], [-83.898417, 36.419179], [-83.890517, 36.431279], [-83.884737, 36.421325], [-83.861217, 36.434679], [-83.839341, 36.429287], [-83.833282, 36.419654], [-83.805515, 36.435879], [-83.798614, 36.429579], [-83.805514, 36.416679], [-83.793532, 36.4237], [-83.795634, 36.413584], [-83.764512, 36.398779], [-83.742547, 36.36836], [-83.745578, 36.354005], [-83.73301, 36.34498], [-83.712409, 36.344981], [-83.696909, 36.365681], [-83.657107, 36.332082], [-83.651007, 36.339482], [-83.637907, 36.336483], [-83.613606, 36.346183], [-83.591406, 36.368983], [-83.571504, 36.363584], [-83.564805, 36.372584], [-83.534704, 36.352485], [-83.532304, 36.365485], [-83.518803, 36.356585], [-83.524304, 36.364885], [-83.509303, 36.372885], [-83.495303, 36.362686], [-83.496603, 36.379085], [-83.480003, 36.379586], [-83.466002, 36.369186], [-83.449201, 36.374286], [-83.460002, 36.389186], [-83.449287, 36.388768], [-83.458802, 36.401787], [-83.448302, 36.396886], [-83.440466, 36.412372], [-83.429177, 36.407846], [-83.426902, 36.418186], [-83.415585, 36.411752], [-83.414101, 36.420686], [-83.3868, 36.413186], [-83.388687, 36.408432], [-83.3517, 36.419418], [-83.341202, 36.408749], [-83.3082105, 36.3995929], [-83.303627, 36.387947], [-83.28051, 36.394688], [-83.2736207, 36.3846], [-83.289078, 36.379002], [-83.273384, 36.370476], [-83.264931, 36.351227], [-83.265785, 36.327652], [-83.273537, 36.318756], [-83.255292, 36.289092], [-83.240792, 36.282992], [-83.231391, 36.284792], [-83.238292, 36.294792], [-83.215591, 36.293492], [-83.210391, 36.305092], [-83.197791, 36.308893], [-83.200991, 36.322192], [-83.17549, 36.312893], [-83.178722, 36.341184], [-83.15429, 36.342293], [-83.159889, 36.332893], [-83.14549, 36.323793], [-83.151789, 36.320292], [-83.14579, 36.307894], [-83.121459, 36.284371], [-83.103533, 36.278285], [-83.102586, 36.261795], [-83.08179, 36.243216], [-83.150093, 36.183834], [-83.166176, 36.180584], [-83.173309, 36.157612], [-83.132942, 36.124882], [-83.115967, 36.12175], [-83.118065, 36.111362], [-83.098946, 36.119526], [-83.072639, 36.09256], [-83.055054, 36.090763], [-83.053757, 36.080296], [-82.8981852, 35.9452374], [-82.9018214, 35.9269635], [-82.9204998, 35.9273399], [-82.9010471, 35.8927975], [-82.9068296, 35.8839155], [-82.89611, 35.8801006], [-82.9208348, 35.8681849], [-82.9163467, 35.8416699], [-82.934073, 35.8366704], [-82.9617575, 35.7909644], [-82.9923537, 35.7738201], [-83.0360464, 35.7875111], [-83.0785052, 35.7896819], [-83.1206122, 35.7664386], [-83.159587, 35.7646596], [-83.1702871, 35.7460366], [-83.1975418, 35.7253125], [-83.2410248, 35.7268137], [-83.2553001, 35.7156773], [-83.2543256, 35.6954516], [-83.2903069, 35.6735034], [-83.2982463, 35.6572613], [-83.3120793, 35.6546185], [-83.3346579, 35.6656644], [-83.3508173, 35.6605508], [-83.3678005, 35.6378467], [-83.3887295, 35.6336295], [-83.3962461, 35.6228274], [-83.4220427, 35.6110552], [-83.4456859, 35.6117581], [-83.4984096, 35.5629387], [-83.5843756, 35.5627067], [-83.6083396, 35.5800209], [-83.6401347, 35.5661694]]]}}]}