{"type": "FeatureCollection", "features": [{"type": "Feature", "properties": {"slug": "koani", "members": 1, "country": "North Macedonia", "input_hash": "7c411b0920a65f1f"}, "geometry": {"type": "Polygon", "coordinates": [[[22.377934, 41.8612463], [22.4529111, 41.8803895], [22.4661988, 41.8946626], [22.4613333, 41.9123697], [22.4742079, 41.9566179], [22.4990559, 41.9664786], [22.5211143, 41.9393501], [22.5497246, 41.9587245], [22.5404692, 41.967723], [22.5348902, 42.0043434], [22.5229423, 42.0100924], [22.5228739, 42.0209879], [22.5078964, 42.0250368], [22.512145, 42.0500575], [22.4919319, 42.0535946], [22.4688864, 42.0710226], [22.4736071, 42.0882229], [22.486766, 42.0966362], [22.4721479, 42.118917], [22.4518858, 42.1258308], [22.4137402, 42.1143011], [22.3706532, 42.1181849], [22.3644304, 42.1084114], [22.3876905, 42.0868216], [22.3624563, 42.0630579], [22.3539591, 42.0245586], [22.3233175, 42.0066395], [22.3245487, 42.0001477], [22.2932339, 41.973562], [22.2665459, 41.9706386], [22.2670984, 41.9598092], [22.2538322, 41.9522535], [22.2552431, 41.9395097], [22.2827357, 41.9342462], [22.2802305, 41.9399566], [22.2895432, 41.9461812], [22.3042202, 41.9336676], [22.3113012, 41.933061], [22.314023, 41.9438929], [22.3217002, 41.9349306], [22.3497537, 41.9358676], [22.3452902, 41.8875185], [22.3510408, 41.8724969], [22.377934, 41.8612463]]]}}]}