{"type":"FeatureCollection","features":[{"type":"Feature","properties":{"slug":"kogalym","member_count":1,"matched_count":1,"unmatched":[],"source":"Overture Maps division_area (CC-BY 4.0)"},"geometry":{"type":"Polygon","coordinates":[[[74.4378555,62.1841916],[74.4894848,62.1653353],[74.5406555,62.1629069],[74.5572459,62.1975607],[74.5797443,62.2098736],[74.5761234,62.2564052],[74.600687,62.2604329],[74.5625864,62.2817448],[74.5420564,62.3163881],[74.5282046,62.3165876],[74.5281189,62.333],[74.5672394,62.3450223],[74.5524877,62.3529151],[74.5254135,62.3456706],[74.4360423,62.3442863],[74.4352432,62.3525398],[74.4106955,62.3515568],[74.3928225,62.3646671],[74.3819958,62.3523675],[74.3712522,62.3543725],[74.3429402,62.3354666],[74.4152721,62.3060337],[74.3977937,62.2984417],[74.4295504,62.278219],[74.4195328,62.2699187],[74.4272435,62.2230533],[74.4403668,62.2099227],[74.4378555,62.1841916]]]}}]}