{"type": "FeatureCollection", "features": [{"type": "Feature", "properties": {"slug": "kohtla-jarve", "members": 1, "country": "Estonia", "input_hash": "7203811e7679430a"}, "geometry": {"type": "MultiPolygon", "coordinates": [[[[27.4214041, 59.3356307], [27.448328, 59.3160382], [27.4786783, 59.3187761], [27.4870481, 59.2971831], [27.4450815, 59.3118352], [27.4168225, 59.3094122], [27.4132496, 59.3199725], [27.397204, 59.3215014], [27.4026542, 59.3346174], [27.3828402, 59.337202], [27.3873945, 59.3438149], [27.4026378, 59.3382976], [27.4063564, 59.3473213], [27.4369407, 59.3464394], [27.4214041, 59.3356307]]], [[[27.2626686, 59.3474967], [27.2965677, 59.3450342], [27.3042281, 59.3388619], [27.2787213, 59.3306467], [27.2800754, 59.3194678], [27.2714984, 59.3189383], [27.2522741, 59.3263435], [27.2652722, 59.3373298], [27.2626686, 59.3474967]]], [[[27.5577211, 59.3654604], [27.5542973, 59.372551], [27.5831335, 59.3757029], [27.5780374, 59.3696007], [27.5577211, 59.3654604]]], [[[27.2996748, 59.3927669], [27.261234, 59.3894503], [27.2611579, 59.3801233], [27.2798328, 59.3859024], [27.2910142, 59.3785382], [27.2605883, 59.3744243], [27.2436728, 59.3597691], [27.2281456, 59.3602167], [27.2344982, 59.363189], [27.2276603, 59.3730954], [27.2080591, 59.3790287], [27.1974454, 59.3930867], [27.2464453, 59.4159584], [27.2795786, 59.4199122], [27.3029466, 59.4127841], [27.2996748, 59.3927669]]], [[[27.3323449, 59.4005311], [27.3349756, 59.405666], [27.3646462, 59.3972478], [27.347471, 59.3917558], [27.3323449, 59.4005311]]]]}}]}