{"type": "FeatureCollection", "features": [{"type": "Feature", "properties": {"slug": "kollam", "members": 1, "country": "India", "input_hash": "78a919ea7db1e920"}, "geometry": {"type": "MultiPolygon", "coordinates": [[[[76.538976, 8.9353736], [76.5391061, 8.935624], [76.5393059, 8.9354067], [76.538976, 8.9353736]]], [[[76.5184635, 9.0188596], [76.4665741, 9.127475], [76.5069758, 9.1252009], [76.5033802, 9.1346277], [76.5093154, 9.1369918], [76.5436843, 9.1349157], [76.5516404, 9.1101406], [76.5625179, 9.1108566], [76.5832901, 9.1166735], [76.5907144, 9.1322241], [76.6155059, 9.1319048], [76.634597, 9.1423413], [76.6344452, 9.1222243], [76.6759121, 9.1165463], [76.6753864, 9.078705], [76.6901063, 9.0904435], [76.7451667, 9.0806968], [76.7551552, 9.088473], [76.7590284, 9.0732383], [76.7709159, 9.0748063], [76.767118, 9.0990352], [76.7851209, 9.1151692], [76.8094647, 9.1111119], [76.8264752, 9.0938601], [76.8507814, 9.0995225], [76.854912, 9.1161862], [76.8684839, 9.117754], [76.8755006, 9.1322453], [76.8866801, 9.1228811], [76.8979025, 9.1308046], [76.9506025, 9.1209743], [76.961503, 9.1299996], [76.9277715, 9.1415669], [76.9309473, 9.1740422], [76.9627476, 9.1526465], [77.0252216, 9.1282835], [77.0453489, 9.1227645], [77.0536852, 9.127775], [77.0581698, 9.1172984], [77.1098828, 9.0936111], [77.2076808, 9.0721821], [77.1974496, 9.0469338], [77.1674921, 9.0453678], [77.1612083, 9.0295313], [77.1465424, 9.0217642], [77.1493804, 9.009603], [77.1734078, 8.9914473], [77.1776681, 8.9694096], [77.1906607, 8.9653091], [77.1967007, 8.9535562], [77.1932152, 8.9256998], [77.2181917, 8.9186168], [77.2214807, 8.9037034], [77.2388611, 8.8976607], [77.2374809, 8.8856573], [77.2563706, 8.8788093], [77.2628861, 8.8422216], [77.2469894, 8.8147428], [77.231944, 8.8076392], [77.2298001, 8.784528], [77.2139542, 8.7795615], [77.2190857, 8.7698227], [77.2097262, 8.7653286], [77.1139812, 8.8238405], [77.0516681, 8.8470791], [77.0331978, 8.8423031], [77.0198679, 8.828484], [77.0204258, 8.8152528], [77.0088172, 8.8126659], [77.0258724, 8.7738028], [77.0033758, 8.7699022], [76.9968547, 8.7833996], [76.9825744, 8.7885346], [76.9734697, 8.7739484], [76.9340665, 8.7609173], [76.9162254, 8.7753461], [76.922179, 8.7849838], [76.9010057, 8.8099954], [76.8797623, 8.8044124], [76.8544721, 8.8137898], [76.8468332, 8.8327459], [76.8244314, 8.8430929], [76.8165564, 8.8593125], [76.8022012, 8.8484784], [76.7826747, 8.8620052], [76.7756332, 8.8435998], [76.7933635, 8.8271819], [76.7830991, 8.8195213], [76.7917943, 8.8130052], [76.7706919, 8.8108304], [76.7600155, 8.7915246], [76.7213058, 8.8033995], [76.7089462, 8.790846], [76.69178, 8.7911429], [76.6891193, 8.7784617], [76.6823387, 8.7783345], [76.6134703, 8.8566199], [76.5824452, 8.8801903], [76.567575, 8.8797901], [76.5832284, 8.8705758], [76.5656187, 8.8799711], [76.5468872, 8.9028688], [76.5354636, 8.9333413], [76.5407637, 8.9320827], [76.5410614, 8.9377], [76.5355515, 8.9357145], [76.5184635, 9.0188596]]]]}}]}