{"type": "FeatureCollection", "features": [{"type": "Feature", "properties": {"slug": "komarno", "members": 1, "country": "Slovakia", "input_hash": "72ea2e9e88183acc"}, "geometry": {"type": "Polygon", "coordinates": [[[18.005668, 47.971108], [17.970447, 47.962941], [17.879838, 47.986124], [17.8731, 47.963311], [17.883816, 47.956298], [17.885993, 47.942689], [17.871419, 47.927904], [17.887765, 47.919287], [17.887472, 47.910992], [17.846298, 47.891861], [17.832736, 47.875061], [17.807691, 47.870602], [17.795492, 47.852975], [17.80038, 47.83364], [17.79464, 47.821944], [17.770692, 47.814186], [17.762601, 47.802068], [17.729818, 47.804863], [17.726412, 47.79382], [17.734848, 47.791323], [17.724546, 47.784287], [17.730052, 47.775771], [17.705419, 47.758985], [17.782625, 47.73919], [17.866096, 47.74575], [17.8999793, 47.7394759], [17.9444171, 47.7445751], [17.9706706, 47.7568677], [18.0022686, 47.7471625], [18.0354373, 47.7564803], [18.0846265, 47.7565393], [18.2901028, 47.7311798], [18.4517481, 47.765011], [18.4904663, 47.7527684], [18.5123163, 47.7551703], [18.505709, 47.792524], [18.534632, 47.783754], [18.528475, 47.815291], [18.502348, 47.817176], [18.477212, 47.837966], [18.415431, 47.867204], [18.367398, 47.872832], [18.345218, 47.899449], [18.358861, 47.919695], [18.329153, 47.938062], [18.283363, 47.952898], [18.323885, 47.934337], [18.309544, 47.922974], [18.219272, 47.960767], [18.211643, 47.950744], [18.204316, 47.955822], [18.167069, 47.94393], [18.146082, 47.967135], [18.114249, 47.9749], [18.093729, 47.963581], [18.095302, 47.955942], [18.084791, 47.948476], [18.056266, 47.952665], [18.011501, 47.942483], [18.011775, 47.953684], [18.024908, 47.96066], [18.012203, 47.980565], [18.005668, 47.971108]]]}}]}