{"type": "FeatureCollection", "features": [{"type": "Feature", "properties": {"slug": "konotop", "members": 1, "country": "Ukraine", "input_hash": "5804d122d2cee19f"}, "geometry": {"type": "Polygon", "coordinates": [[[33.2153555, 50.975413], [33.2799764, 50.9839312], [33.4185198, 50.963049], [33.4154635, 50.9683113], [33.4432531, 50.9670652], [33.4520521, 50.986902], [33.4748702, 50.9928254], [33.5082991, 50.9849041], [33.5054576, 51.0034532], [33.5130482, 51.0043901], [33.5070944, 51.0324564], [33.5550302, 51.0404562], [33.583188, 51.0230416], [33.6086368, 51.020828], [33.639965, 51.0324346], [33.645544, 51.0041149], [33.6760139, 50.9927443], [33.660278, 50.9705597], [33.6936039, 50.9639544], [33.7041667, 50.9634492], [33.7162557, 50.9794754], [33.7330346, 50.9838197], [33.8458674, 50.9835292], [33.8524726, 50.9938301], [33.9036683, 50.9830307], [33.8929153, 50.9900678], [33.9095491, 51.0059914], [33.9217591, 51.003623], [33.969468, 51.0359691], [33.9604029, 51.0492632], [33.9686835, 51.0497553], [33.9672489, 51.0708232], [34.0174487, 51.0660748], [34.0170686, 51.0795904], [34.0690957, 51.0907157], [34.0786198, 51.1197413], [34.1080389, 51.1442872], [34.1296146, 51.1416333], [34.1267258, 51.1534197], [34.1187668, 51.1545806], [34.119341, 51.1786904], [34.1475511, 51.1971691], [34.1388983, 51.2146617], [34.1451546, 51.2345308], [34.1577328, 51.2349067], [34.1502833, 51.2394824], [34.1581128, 51.2367959], [34.1561671, 51.2428881], [34.1833424, 51.2513297], [34.2006837, 51.2462631], [34.2108733, 51.2526496], [34.2089192, 51.2592957], [34.2302251, 51.262511], [34.2323148, 51.2736455], [34.2517662, 51.2751322], [34.2549227, 51.28219], [34.2376399, 51.2925275], [34.2586112, 51.3021861], [34.2666251, 51.2987287], [34.2729603, 51.3149], [34.2822844, 51.3108132], [34.2897017, 51.3226409], [34.281638, 51.3347174], [34.3057567, 51.3362875], [34.3151253, 51.3293345], [34.3160641, 51.3429112], [34.3384445, 51.3556061], [34.3308538, 51.3614984], [34.3369746, 51.3653803], [34.3055177, 51.37904], [34.2852026, 51.3746804], [34.2924719, 51.3881073], [34.2718709, 51.3831105], [34.246179, 51.4023175], [34.2277041, 51.3995236], [34.2209449, 51.4170156], [34.2279696, 51.4204262], [34.22271, 51.4284307], [34.2471323, 51.4312181], [34.2547635, 51.4398189], [34.2452216, 51.4566644], [34.2666149, 51.4750751], [34.2813612, 51.4736137], [34.2909326, 51.4867826], [34.2437859, 51.5020189], [34.1987497, 51.4899779], [34.1858643, 51.5079311], [34.1919215, 51.5166978], [34.1753063, 51.5265998], [34.1315954, 51.5003428], [34.1122967, 51.5117439], [34.0792916, 51.5169176], [34.0522598, 51.5500266], [34.0395164, 51.5370389], [34.0497476, 51.5207739], [34.0262943, 51.5186409], [34.0233233, 51.5281777], [34.0009904, 51.5223493], [33.9923805, 51.5322048], [33.9899824, 51.5102667], [33.9739644, 51.519659], [34.0012266, 51.4863667], [33.9870961, 51.4692446], [33.9545034, 51.4622674], [33.953821, 51.4812553], [33.9288594, 51.4643252], [33.9083774, 51.462564], [33.9056514, 51.4478485], [33.8730738, 51.4432359], [33.8676524, 51.4520613], [33.8799999, 51.4541401], [33.8727882, 51.4633675], [33.8866133, 51.4652055], [33.8774167, 51.4763105], [33.894388, 51.482111], [33.8966926, 51.4968154], [33.8632706, 51.4845425], [33.8597647, 51.4935579], [33.8712839, 51.4995073], [33.8492558, 51.4964099], [33.8345266, 51.5125539], [33.8076451, 51.5073714], [33.7835051, 51.5126599], [33.772812, 51.5282692], [33.7492201, 51.5341746], [33.7582901, 51.5422439], [33.7237225, 51.5789558], [33.7428307, 51.5845713], [33.7363802, 51.6109271], [33.6627044, 51.6348701], [33.6804838, 51.640878], [33.6771577, 51.648424], [33.6417096, 51.6444012], [33.6048823, 51.6707611], [33.579269, 51.6617493], [33.5557937, 51.6720062], [33.5472873, 51.6843967], [33.5059814, 51.7020178], [33.5142282, 51.7112717], [33.4903577, 51.7080293], [33.4875223, 51.6997429], [33.4650986, 51.7166467], [33.3989921, 51.7174524], [33.3414993, 51.6812882], [33.3041994, 51.6751747], [33.2862524, 51.6832732], [33.2805199, 51.6812032], [33.2888642, 51.6751223], [33.2540814, 51.6631019], [33.2364258, 51.6663556], [33.2258398, 51.6537413], [33.1992745, 51.6827381], [33.1848694, 51.6820308], [33.1920395, 51.6733243], [33.1863484, 51.6722693], [33.142025, 51.678781], [33.1470825, 51.669351], [33.1248437, 51.6484796], [33.1286056, 51.641943], [33.1543778, 51.6419458], [33.1545638, 51.607318], [33.1919963, 51.5835373], [33.2220368, 51.5801704], [33.2073499, 51.5701864], [33.1585447, 51.5693732], [33.1572309, 51.5558874], [33.1703209, 51.553545], [33.1669059, 51.5437831], [33.1858297, 51.5371817], [33.1932041, 51.5137088], [33.1918497, 51.5063814], [33.1778474, 51.5072894], [33.1600991, 51.4949815], [33.1363104, 51.4942028], [33.1308303, 51.4787595], [33.1359269, 51.4668886], [33.124464, 51.460589], [33.1129916, 51.4283593], [33.1346645, 51.4166821], [33.1186199, 51.4040226], [33.1353731, 51.3996059], [33.1329556, 51.3822418], [33.0924016, 51.3900097], [33.1103863, 51.3804816], [33.1077792, 51.3659937], [33.0621567, 51.3705287], [33.0590391, 51.3837291], [33.0386172, 51.3909909], [33.0565465, 51.4043013], [33.0457636, 51.4104297], [33.0450442, 51.4038901], [33.0169524, 51.3960496], [33.0404979, 51.368368], [33.035361, 51.3580841], [33.0419772, 51.3432877], [33.0625323, 51.3473024], [33.0809647, 51.3391678], [33.0685999, 51.3318478], [33.0789893, 51.3222096], [33.0768359, 51.3127112], [33.0477608, 51.3017248], [33.0622346, 51.2968977], [33.0415193, 51.2917597], [33.0762417, 51.2900298], [33.0654268, 51.2836676], [33.0738311, 51.2834413], [33.0728776, 51.2754614], [33.0582476, 51.2665186], [33.0688213, 51.2550329], [33.029696, 51.2273253], [33.0418314, 51.205688], [32.9885295, 51.1968653], [32.9770689, 51.1882644], [32.9863371, 51.183946], [32.9604635, 51.1626837], [32.9928151, 51.1434354], [32.9426042, 51.0896908], [33.0408851, 51.0818332], [33.037859, 51.0717793], [33.0693178, 51.0691977], [33.0601376, 51.0492012], [33.0850758, 51.0374699], [33.0589137, 51.0225246], [33.0403278, 50.9921875], [33.0793189, 50.9808205], [33.0780923, 50.9917859], [33.1179099, 51.0067092], [33.1262427, 51.0009986], [33.1215351, 50.9977277], [33.1369976, 50.9614883], [33.2003096, 50.9616213], [33.2153555, 50.975413]]]}}]}