{"type": "FeatureCollection", "features": [{"type": "Feature", "properties": {"slug": "konstanz", "members": 67, "country": "Germany", "input_hash": "0f9915fcf99e5ef4"}, "geometry": {"type": "MultiPolygon", "coordinates": [[[[9.0405436, 47.708188], [9.0918197, 47.6862729], [9.044069, 47.6930477], [9.0405436, 47.708188]]], [[[8.7029702, 47.7146329], [8.7178729, 47.6906896], [8.690163, 47.6954183], [8.6706643, 47.6848703], [8.6585911, 47.6913488], [8.6762987, 47.6975639], [8.6646209, 47.713382], [8.6863164, 47.7085792], [8.7029702, 47.7146329]]], [[[8.8194344, 47.9274904], [8.816292, 47.8883237], [8.8266408, 47.8812395], [8.848002, 47.8789312], [8.8782326, 47.9114482], [8.9532071, 47.9340893], [8.9731856, 47.9222448], [8.9809173, 47.9245072], [8.9784856, 47.937757], [8.9953582, 47.9327389], [9.0766145, 47.9419916], [9.0821644, 47.9388108], [9.0691839, 47.9305183], [9.0647546, 47.9159902], [9.0972886, 47.9143342], [9.1044842, 47.9055324], [9.1512984, 47.8951455], [9.1457515, 47.8728888], [9.1305345, 47.8651363], [9.1387934, 47.8593212], [9.1177638, 47.858951], [9.1280841, 47.8540915], [9.1220642, 47.8448956], [9.1698069, 47.8409206], [9.1842646, 47.8477479], [9.1920822, 47.8405305], [9.2194514, 47.8581374], [9.2390399, 47.85281], [9.2510689, 47.8687073], [9.236995, 47.8761778], [9.2673726, 47.8820827], [9.2708835, 47.870048], [9.28745, 47.8591672], [9.3059328, 47.8578125], [9.321607, 47.8674455], [9.338531, 47.8625893], [9.3820134, 47.8238683], [9.4046448, 47.817339], [9.4015149, 47.822246], [9.4232131, 47.8182792], [9.4483824, 47.8260532], [9.4357665, 47.8106952], [9.4569613, 47.8128442], [9.463776, 47.8062384], [9.457111, 47.7915275], [9.4335732, 47.7735683], [9.4529812, 47.7563928], [9.4731694, 47.7647979], [9.4872832, 47.7599614], [9.483661, 47.7540859], [9.4905685, 47.750508], [9.4994491, 47.75432], [9.4931828, 47.7387562], [9.4986278, 47.7329312], [9.5700259, 47.7366114], [9.6111196, 47.7185321], [9.6242538, 47.7015529], [9.6561773, 47.704681], [9.6513575, 47.6939083], [9.6624496, 47.6836182], [9.7258026, 47.6841173], [9.7447006, 47.6542554], [9.7240205, 47.6334694], [9.6879035, 47.6355997], [9.6818412, 47.6280119], [9.6931583, 47.6194293], [9.6924752, 47.6111295], [9.685300231623009, 47.60565762557144], [9.6920731, 47.6103246], [9.706384, 47.6017385], [9.7458153, 47.6172068], [9.7400924, 47.6044531], [9.7492041, 47.6029327], [9.7778128, 47.6304434], [9.7953102, 47.6358078], [9.8001718, 47.6447497], [9.7934235, 47.6475593], [9.8272726, 47.6569283], [9.8305504, 47.6716898], [9.8381845, 47.6692574], [9.840425, 47.677494], [9.8743592, 47.6760734], [9.894947, 47.6624594], [9.9594095, 47.6520943], [9.9752825, 47.6565158], [9.9767208, 47.6658083], [10.0018275, 47.6834314], [10.0280209, 47.6878075], [10.0304278, 47.6745344], [10.0483919, 47.681134], [10.0644151, 47.6746457], [10.0751892, 47.658305], [10.0757258, 47.6181545], [10.0601943, 47.6079203], [10.0689797, 47.6035675], [10.0599992, 47.5983657], [10.0615969, 47.5801511], [10.0361582, 47.5733209], [10.0224681, 47.5829809], [10.0012063, 47.5649988], [9.9585842, 47.5642037], [9.9696237, 47.5495994], [9.9588294, 47.5431278], [9.9635034, 47.5346595], [9.9410791, 47.5382227], [9.9177314, 47.5301282], [9.9066603, 47.5421716], [9.8813164, 47.5481489], [9.8745052, 47.5285372], [9.815755, 47.5476954], [9.8256191, 47.5592156], [9.8207568, 47.5708563], [9.8272819, 47.579972], [9.802334, 47.5959391], [9.7656021, 47.5890994], [9.7351711, 47.5466141], [9.7368288, 47.5356577], [9.7333603, 47.5336829], [9.7277218, 47.5340254], [9.7129869, 47.5506593], [9.691996, 47.5498399], [9.6807697, 47.5422181], [9.6789154, 47.5571296], [9.6535814, 47.5565786], [9.6275044, 47.5709927], [9.6098495, 47.5713145], [9.5959201, 47.5883645], [9.5508496, 47.5876056], [9.5297642, 47.6030147], [9.5174483, 47.6324874], [9.4936667, 47.6502619], [9.462735, 47.6484214], [9.4073456, 47.6681691], [9.3498029, 47.6609073], [9.2896554, 47.6823844], [9.2384873, 47.7112365], [9.2174316, 47.744756], [9.1387296, 47.7699771], [9.0615783, 47.8150306], [9.0392308, 47.8176144], [9.0304044, 47.8056528], [9.0804937, 47.771904], [9.1734398, 47.7345104], [9.1795596, 47.7066508], [9.2076308, 47.687263], [9.2180439, 47.6659606], [9.1792573, 47.6666774], [9.1778917, 47.6649338], [9.1778618, 47.6634937], [9.1818175, 47.6559569], [9.1759711, 47.6539842], [9.1531575, 47.6670079], [9.1579407, 47.6700599], [9.1284973, 47.667319], [9.1262206, 47.6738217], [9.11341, 47.6846878], [9.0919699, 47.6863293], [9.1089655, 47.6909412], [9.0936665, 47.7057164], [8.9896164, 47.7436531], [8.984121, 47.7377271], [9.0155945, 47.7205716], [8.9616935, 47.7372413], [8.9403289, 47.7284295], [8.9986277, 47.704143], [9.0074531, 47.6956405], [8.9984556, 47.686625], [8.9387728, 47.6578908], [8.8945219, 47.6520007], [8.8754283, 47.6562384], [8.8678732, 47.675897], [8.8505313, 47.681177], [8.8577084, 47.6926565], [8.8515279, 47.6976362], [8.8733863, 47.6939721], [8.8727502, 47.7040707], [8.8190362, 47.7127845], [8.8262375, 47.7178733], [8.8047966, 47.7245307], [8.8121626, 47.7304315], [8.8066762, 47.7382929], [8.7964646, 47.7345564], [8.7991824, 47.7271267], [8.7697526, 47.7184628], [8.7693763, 47.7068542], [8.7939733, 47.7042622], [8.810095, 47.6933617], [8.7997952, 47.6915905], [8.7913315, 47.6749702], [8.7280231, 47.6927644], [8.7362915, 47.7163367], [8.7111438, 47.7301477], [8.723627, 47.745649], [8.7411365, 47.7519845], [8.7140709, 47.7653995], [8.6887084, 47.7583598], [8.6810325, 47.7866027], [8.6573927, 47.7917502], [8.6568627, 47.8004405], [8.6457491, 47.7907107], [8.6529527, 47.7734033], [8.6475527, 47.7669694], [8.6316528, 47.7581961], [8.6194299, 47.7676677], [8.6233547, 47.7772857], [8.6151059, 47.7849494], [8.6221373, 47.7948664], [8.614596, 47.8110428], [8.6260553, 47.8139511], [8.6283564, 47.8396831], [8.6452813, 47.8561268], [8.6560985, 47.846398], [8.6917201, 47.852432], [8.6852104, 47.8587545], [8.6962194, 47.8601534], [8.6981248, 47.867801], [8.6905906, 47.8882066], [8.7083598, 47.8799595], [8.7242149, 47.9021627], [8.7329588, 47.8854853], [8.7833093, 47.8955502], [8.8096116, 47.8864315], [8.7965897, 47.8962204], [8.8039741, 47.9070297], [8.7993497, 47.9135984], [8.8194344, 47.9274904]], [[9.069532, 47.8584114], [9.069330068398385, 47.85824714283042], [9.0733175, 47.8592311], [9.069532, 47.8584114]], [[9.0722123, 47.8416488], [9.0766264, 47.8416352], [9.076279465546495, 47.841889425684904], [9.0722123, 47.8416488]], [[9.681658618231655, 47.60467992314926], [9.678113, 47.6048723], [9.6812369, 47.6045667], [9.681658618231655, 47.60467992314926]]], [[[9.125724, 47.6683427], [9.1212103, 47.6711957], [9.1210651, 47.6756488], [9.123502, 47.6742368], [9.125724, 47.6683427]]], [[[9.0861621, 47.7982962], [9.0852273, 47.7990232], [9.085333, 47.799048], [9.0861621, 47.7982962]]], [[[9.1782271, 47.6653454], [9.1791513, 47.6650764], [9.1779686, 47.6635621], [9.1782271, 47.6653454]]], [[[9.1251201, 47.6704481], [9.1242399, 47.6731841], [9.1262279, 47.6713982], [9.1251201, 47.6704481]]], [[[9.1876096, 47.7055469], [9.2005044, 47.702512], [9.187896, 47.7033677], [9.1876096, 47.7055469]]], [[[9.3874419, 47.6643538], [9.3868076, 47.663303], [9.3869055, 47.6644207], [9.3874419, 47.6643538]]], [[[9.2121377, 47.68059], [9.2127678, 47.6802497], [9.2120714, 47.6804724], [9.2121377, 47.68059]]], [[[9.5118393, 47.6357296], [9.511296, 47.635215], [9.5107886, 47.6362071], [9.5118393, 47.6357296]]], [[[9.3875928, 47.6627163], [9.3868731, 47.6624798], [9.3876004, 47.6630508], [9.3875928, 47.6627163]]], [[[9.6967214, 47.5492573], [9.6966392, 47.5491801], [9.696614, 47.5492362], [9.6967214, 47.5492573]]]]}}]}