{"type": "FeatureCollection", "features": [{"type": "Feature", "properties": {"slug": "koror-city", "members": 1, "country": "Palau", "input_hash": "2e18a99b9f072796"}, "geometry": {"type": "MultiPolygon", "coordinates": [[[[134.2426121, 7.1091895], [134.2482315, 7.1090671], [134.2444902, 7.1089318], [134.2412266, 7.1027696], [134.2426121, 7.1091895]]], [[[134.2547107, 7.1079398], [134.2442373, 7.1057095], [134.2573647, 7.1164532], [134.2547107, 7.1079398]]], [[[134.3617537, 7.110383], [134.3602738, 7.1210039], [134.3688806, 7.1138482], [134.3617537, 7.110383]]], [[[134.2419554, 7.1159679], [134.2373755, 7.119361], [134.2365022, 7.1246644], [134.2419554, 7.1159679]]], [[[134.2349136, 7.1258016], [134.2325745, 7.1355935], [134.2361791, 7.1253421], [134.2349136, 7.1258016]]], [[[134.3199447, 7.1422872], [134.3175092, 7.1475514], [134.3201175, 7.1482797], [134.3199447, 7.1422872]]], [[[134.3669665, 7.1617283], [134.3720064, 7.1709017], [134.3777248, 7.1637402], [134.3782371, 7.1899983], [134.3818796, 7.166619], [134.377002, 7.1548966], [134.3849762, 7.1355638], [134.3713948, 7.1497604], [134.346897, 7.1432453], [134.3432397, 7.174976], [134.3520811, 7.1774965], [134.3496078, 7.1704251], [134.3588179, 7.1795163], [134.3478101, 7.1653556], [134.3569323, 7.1573478], [134.3494785, 7.1617949], [134.3499184, 7.1564989], [134.3636218, 7.1573878], [134.3669665, 7.1617283]]], [[[134.2583269, 7.1704369], [134.2645012, 7.1830784], [134.2686132, 7.176206], [134.2583269, 7.1704369]]], [[[134.3741038, 7.1805725], [134.3708369, 7.1723228], [134.3703317, 7.1844023], [134.3741038, 7.1805725]]], [[[134.3688344, 7.1916649], [134.3601676, 7.1858948], [134.3717233, 7.2005745], [134.3688344, 7.1916649]]], [[[134.36827, 7.2455776], [134.3712741, 7.2528734], [134.3721324, 7.2461683], [134.36827, 7.2455776]]], [[[134.3717247, 7.2510375], [134.3764883, 7.256822], [134.3765554, 7.2475093], [134.3717247, 7.2510375]]], [[[134.3828896, 7.2475718], [134.3760967, 7.2648839], [134.3902695, 7.2544752], [134.3847576, 7.2546348], [134.3828896, 7.2475718]]], [[[134.3694717, 7.2701094], [134.3660864, 7.2640473], [134.3660438, 7.2673157], [134.3694717, 7.2701094]]], [[[134.3396608, 7.258359], [134.3305675, 7.2783999], [134.3349641, 7.2728971], [134.3396608, 7.258359]]], [[[134.3012468, 7.2774104], [134.3106732, 7.2763161], [134.2930876, 7.2794165], [134.3012468, 7.2774104]]], [[[134.2876698, 7.2841364], [134.2867747, 7.277093], [134.2812172, 7.2905821], [134.2876698, 7.2841364]]], [[[134.3891859, 7.2509204], [134.3870401, 7.2471954], [134.3859836, 7.250541], [134.3891859, 7.2509204]]], [[[134.4157974, 7.2639384], [134.4181073, 7.263473], [134.4119364, 7.2566118], [134.4157974, 7.2639384]]], [[[134.3916079, 7.2673876], [134.3810347, 7.263511], [134.3766917, 7.2731709], [134.3871231, 7.2661821], [134.3891805, 7.2769685], [134.3916079, 7.2673876]]], [[[134.3948132, 7.2716154], [134.3908075, 7.2748023], [134.3925977, 7.2765907], [134.3948132, 7.2716154]]], [[[134.379898, 7.2274079], [134.409058, 7.2710541], [134.427773, 7.2761172], [134.4256964, 7.2848797], [134.4350551, 7.2801484], [134.4329646, 7.301767], [134.4367866, 7.2941741], [134.4408996, 7.3086158], [134.4260617, 7.3186757], [134.4240763, 7.3361201], [134.4255169, 7.3240641], [134.4489005, 7.3112036], [134.4533625, 7.3002761], [134.4383903, 7.2954204], [134.44034, 7.2684692], [134.4514025, 7.270475], [134.4494695, 7.2506646], [134.418286, 7.2690918], [134.4119376, 7.2636991], [134.4087421, 7.2443621], [134.4007532, 7.2347181], [134.3950653, 7.2411554], [134.3796124, 7.214582], [134.3831762, 7.2259242], [134.3692777, 7.2211411], [134.3632801, 7.2401982], [134.339403, 7.2562746], [134.3624973, 7.2461263], [134.379898, 7.2274079]]], [[[134.4215923, 7.2785702], [134.4172499, 7.2805231], [134.4185185, 7.2834284], [134.4215923, 7.2785702]]], [[[134.4428488, 7.2784311], [134.439744, 7.2816229], [134.4400989, 7.2855742], [134.4428488, 7.2784311]]], [[[134.4159034, 7.2871718], [134.4125506, 7.2895903], [134.4157129, 7.2923918], [134.4159034, 7.2871718]]], [[[134.4415423, 7.2891886], [134.4422095, 7.2934075], [134.4455293, 7.2936395], [134.4415423, 7.2891886]]], [[[134.4113877, 7.2898863], [134.410472, 7.2968962], [134.4136813, 7.2920824], [134.4113877, 7.2898863]]], [[[134.4880429, 7.313117], [134.4840823, 7.3216805], [134.498475, 7.3065908], [134.4773878, 7.2989659], [134.485182, 7.305218], [134.4733913, 7.3127363], [134.474035, 7.300956], [134.4656022, 7.336248], [134.4880429, 7.313117]]], [[[134.4838411, 7.324644], [134.4946448, 7.3228402], [134.4952324, 7.3293255], [134.4963027, 7.3196875], [134.4838411, 7.324644]]], [[[134.494489, 7.3313753], [134.4930337, 7.3274965], [134.4894198, 7.326719], [134.494489, 7.3313753]]], [[[134.4504544, 7.3272121], [134.4551334, 7.3401324], [134.4621341, 7.3408796], [134.4646084, 7.3323193], [134.459181, 7.3395335], [134.4504544, 7.3272121]]], [[[134.5030162, 7.3110895], [134.4971634, 7.329048], [134.5043992, 7.3236422], [134.506134, 7.3359041], [134.4853912, 7.3405084], [134.4780789, 7.3290385], [134.4625111, 7.3412705], [134.4644515, 7.3512622], [134.4476941, 7.3470355], [134.4377603, 7.3626954], [134.4649941, 7.3546571], [134.4709173, 7.3445698], [134.4803044, 7.3456877], [134.4799206, 7.3525682], [134.4824168, 7.3468625], [134.4966089, 7.3563012], [134.50643, 7.3539766], [134.5133074, 7.3231363], [134.5030162, 7.3110895]]], [[[134.450056, 7.3410342], [134.427563, 7.3411007], [134.435725, 7.3450697], [134.4571509, 7.3405856], [134.450056, 7.3410342]]]]}}]}