{"type": "FeatureCollection", "features": [{"type": "Feature", "properties": {"slug": "kostroma", "members": 1, "country": "Russia", "input_hash": "e3173a4e827f3202"}, "geometry": {"type": "Polygon", "coordinates": [[[40.897868, 57.8653508], [40.8748435, 57.8543052], [40.8908008, 57.8482464], [40.8911396, 57.8354927], [40.8701244, 57.8261709], [40.9068335, 57.7948072], [40.8842638, 57.7851339], [40.8647036, 57.7904616], [40.8501916, 57.7676273], [40.792173, 57.7840705], [40.7467931, 57.7689447], [40.7493265, 57.7552655], [40.8130732, 57.7593224], [40.8159688, 57.7523103], [40.851545, 57.7432933], [40.8317763, 57.7361759], [40.842991, 57.725419], [40.8629282, 57.7179725], [40.8708288, 57.7243359], [40.8613848, 57.7280735], [40.8664254, 57.7300312], [40.895556, 57.7259244], [40.8730542, 57.7162148], [40.9194171, 57.7211914], [40.9321934, 57.7309902], [40.9532509, 57.7243671], [40.9620869, 57.7304466], [40.9875925, 57.706723], [41.0013422, 57.7123251], [40.9992534, 57.724551], [41.0383543, 57.7244825], [41.0306219, 57.729351], [41.037552, 57.7322613], [41.0089414, 57.7443894], [41.0392603, 57.7543279], [41.0580387, 57.7852687], [41.0416534, 57.7783407], [41.0229159, 57.7871486], [41.0317258, 57.7885501], [41.0259403, 57.8091238], [41.0457514, 57.8215926], [41.0008319, 57.8219134], [40.9961604, 57.8115148], [40.9661544, 57.8240075], [40.9463961, 57.8176317], [40.9544836, 57.8358733], [40.9391078, 57.839253], [40.9557001, 57.8427959], [40.937006, 57.8732152], [40.9183225, 57.8746398], [40.9221355, 57.8837911], [40.906691, 57.8857209], [40.897868, 57.8653508]], [[40.7887924, 57.7650191], [40.7850265, 57.7658089], [40.7889104, 57.7661579], [40.7887924, 57.7650191]]]}}]}