{"type": "FeatureCollection", "features": [{"type": "Feature", "properties": {"slug": "kotor", "members": 1, "country": "Montenegro", "input_hash": "7c99671c230e4233"}, "geometry": {"type": "Polygon", "coordinates": [[[18.6868032, 42.4785012], [18.6492471, 42.4896246], [18.6881289, 42.5171362], [18.6944282, 42.5168351], [18.6908624, 42.4956209], [18.6997197, 42.4852659], [18.7652527, 42.4881486], [18.7616579, 42.4418058], [18.7708896, 42.4220728], [18.7605106, 42.4239968], [18.7543381, 42.4488663], [18.7342443, 42.4657404], [18.6927178, 42.4749377], [18.7069936, 42.4608388], [18.7246011, 42.4607429], [18.7470794, 42.4282236], [18.7286795, 42.4158396], [18.7371285, 42.3825169], [18.6927174, 42.3687788], [18.7046185, 42.3531006], [18.6871774, 42.3549168], [18.7087877, 42.3398703], [18.714532, 42.328017], [18.7070423, 42.3224084], [18.7745148, 42.269051], [18.7871764, 42.2700858], [18.7851025, 42.2819918], [18.8048513, 42.2727583], [18.7937726, 42.3023672], [18.8221849, 42.3148902], [18.8071461, 42.3244359], [18.798069, 42.3476205], [18.8096039, 42.3567238], [18.8164752, 42.3521234], [18.8044806, 42.3746232], [18.8109232, 42.3806733], [18.779803, 42.3964687], [18.7863547, 42.3988225], [18.7847686, 42.4322154], [18.8095493, 42.4500661], [18.7981125, 42.4704129], [18.8048977, 42.4800657], [18.7803278, 42.5011402], [18.7857641, 42.5172365], [18.741033, 42.5568467], [18.7537732, 42.5730646], [18.7271757, 42.5787179], [18.7025676, 42.6292521], [18.6932906, 42.6179669], [18.6689805, 42.629158], [18.6448749, 42.614124], [18.5990401, 42.6034565], [18.5986637, 42.5908472], [18.5436033, 42.5733423], [18.5626543, 42.5464179], [18.6054975, 42.5382614], [18.6083963, 42.5221488], [18.6580863, 42.5251936], [18.6665469, 42.5119836], [18.6342413, 42.4970412], [18.5810971, 42.4925887], [18.5842577, 42.4811501], [18.6214428, 42.4730271], [18.6868032, 42.4785012]]]}}]}