{"type": "FeatureCollection", "features": [{"type": "Feature", "properties": {"slug": "kouvola", "members": 1, "country": "Finland", "input_hash": "ef78ef9ae73ad10e"}, "geometry": {"type": "Polygon", "coordinates": [[[26.4363938, 60.8201597], [26.3788712, 60.8061091], [26.3968919, 60.7794094], [26.3683854, 60.7687754], [26.3744257, 60.761099], [26.3001243, 60.7494523], [26.2980662, 60.7309339], [26.3314782, 60.7119124], [26.3250817, 60.6966297], [26.338438, 60.6758299], [26.3620886, 60.6682274], [26.3470895, 60.6613555], [26.4584291, 60.6390857], [26.481848, 60.6142189], [26.4834471, 60.5968459], [26.5387514, 60.5951735], [26.5417866, 60.5750065], [26.5648697, 60.6070356], [26.5941857, 60.6275869], [26.5982343, 60.6427074], [26.6490997, 60.6523676], [26.6827807, 60.6492924], [26.7608499, 60.5754203], [26.7843772, 60.5918501], [26.7864264, 60.609462], [26.7815447, 60.6184697], [26.7512036, 60.6284746], [26.7595184, 60.6403808], [26.7411301, 60.656271], [26.7557526, 60.6663874], [26.7527861, 60.6739754], [26.7815662, 60.6735085], [26.8266595, 60.6486172], [26.8409358, 60.6523869], [26.8265415, 60.6441732], [26.8305112, 60.6395286], [26.8820847, 60.6363354], [27.0417501, 60.6793036], [27.0506118, 60.6708577], [27.0746227, 60.6724471], [27.1030825, 60.6854913], [27.1190761, 60.7124645], [27.1329474, 60.7158331], [27.1106137, 60.7397996], [27.1296529, 60.7486067], [27.1168783, 60.7626432], [27.1292507, 60.7672291], [27.1246207, 60.7768768], [27.2257426, 60.7604012], [27.2320243, 60.7754692], [27.2675335, 60.7781112], [27.2727739, 60.7869972], [27.2600206, 60.798717], [27.2926585, 60.8220246], [27.344307, 60.816777], [27.3544561, 60.8310369], [27.3778943, 60.8384806], [27.4283735, 60.842625], [27.3603885, 60.8830404], [27.2132829, 60.9040894], [27.1211303, 60.9640085], [27.1800616, 60.9504593], [27.2481425, 60.9677794], [27.2192425, 60.969789], [27.2125806, 60.9786249], [27.2180883, 60.988302], [27.1966842, 61.0068874], [27.1719908, 60.9980019], [27.1411518, 61.0105467], [27.159516, 61.027726], [27.1468998, 61.0479044], [27.1529165, 61.0708621], [27.1850733, 61.0860555], [27.2285289, 61.0902057], [27.2132619, 61.1033649], [27.176683, 61.1070198], [27.218276, 61.1427824], [27.2094423, 61.1610085], [27.1209053, 61.1643824], [27.096366, 61.1553686], [27.0312398, 61.1520595], [26.9121768, 61.1831706], [26.9301178, 61.2100819], [26.9190521, 61.2275281], [26.8908481, 61.2424448], [26.8967172, 61.2441064], [26.8780143, 61.2781748], [26.8811768, 61.2852132], [26.7793712, 61.2700585], [26.760537, 61.239618], [26.7454281, 61.2296451], [26.6613125, 61.206878], [26.6298701, 61.2210325], [26.6711146, 61.2435838], [26.6291503, 61.2925945], [26.5617936, 61.2705529], [26.5422478, 61.2774853], [26.4439304, 61.2628364], [26.4434369, 61.2563878], [26.424876, 61.2514963], [26.431304, 61.2372934], [26.3964021, 61.2136933], [26.3854802, 61.1881371], [26.3476878, 61.1737002], [26.2705765, 61.1630048], [26.2690036, 61.1495383], [26.2353773, 61.1305324], [26.2565049, 61.1053453], [26.3109406, 61.1066318], [26.2673067, 61.0698221], [26.2490882, 61.0399334], [26.265816, 61.0116588], [26.3462887, 61.0004896], [26.3551031, 61.022566], [26.3753594, 61.028055], [26.423063, 61.0120592], [26.4526749, 61.0173624], [26.5043698, 61.009791], [26.4954582, 60.9906483], [26.5158259, 60.9732435], [26.5159509, 60.954027], [26.5411272, 60.939386], [26.5354717, 60.9312298], [26.5449765, 60.8837827], [26.5319883, 60.8711648], [26.4637231, 60.8771504], [26.4600124, 60.8735322], [26.5114115, 60.8406143], [26.4658139, 60.8285312], [26.4727877, 60.8238295], [26.4527516, 60.8166109], [26.4363938, 60.8201597]]]}}]}