{"type": "FeatureCollection", "features": [{"type": "Feature", "properties": {"slug": "kozhikode", "members": 1, "country": "India", "input_hash": "011a188ab0d77120"}, "geometry": {"type": "MultiPolygon", "coordinates": [[[[75.9587633, 11.5595111], [76.0535507, 11.5033688], [76.0760984, 11.524959], [76.0896399, 11.5122716], [76.0922046, 11.481961], [76.122205, 11.4749293], [76.1433419, 11.451361], [76.1440515, 11.4225272], [76.131268, 11.4272668], [76.1174076, 11.4082604], [76.1060817, 11.4094587], [76.1013494, 11.3688723], [76.0920709, 11.3527147], [76.1133586, 11.3378519], [76.1186538, 11.320058], [76.0838413, 11.3088019], [76.0696792, 11.29422], [76.0727262, 11.2876127], [76.0497555, 11.2687575], [76.0143399, 11.2677268], [75.9969511, 11.2527168], [75.9749865, 11.2687579], [75.9578633, 11.2524063], [75.9255051, 11.2457559], [75.9170723, 11.2365167], [75.8998847, 11.2418835], [75.897181, 11.2302869], [75.8773112, 11.2225837], [75.8696508, 11.2071556], [75.857141, 11.2065662], [75.8620548, 11.1899584], [75.8852076, 11.1841065], [75.8880079, 11.1725919], [75.8665985, 11.1728866], [75.8516425, 11.1531348], [75.8592009, 11.1410452], [75.8465194, 11.1432453], [75.82532, 11.125414], [75.8135927, 11.1495954], [75.79624, 11.1558493], [75.8035941, 11.1606436], [75.7960833, 11.1588007], [75.8002728, 11.170442], [75.768272, 11.258522], [75.7583928, 11.2659234], [75.7664382, 11.2639034], [75.7461324, 11.3200244], [75.7372624, 11.3247137], [75.7350481, 11.350614], [75.6961307, 11.4273226], [75.6643492, 11.4620658], [75.646314, 11.4674441], [75.6341743, 11.4617556], [75.6171745, 11.477312], [75.5709922, 11.6169492], [75.5359304, 11.6923862], [75.5446822, 11.70447], [75.5536174, 11.7026225], [75.5696179, 11.6755944], [75.5893098, 11.6884509], [75.6008657, 11.6874163], [75.5870665, 11.7120252], [75.6478536, 11.7456344], [75.6689143, 11.7710954], [75.6831407, 11.7761789], [75.6912303, 11.7997677], [75.7181168, 11.796911], [75.7307768, 11.7818925], [75.7549529, 11.7867631], [75.74652, 11.7990929], [75.7512192, 11.8056462], [75.773149, 11.8039869], [75.7944631, 11.7889923], [75.7839489, 11.7614112], [75.8001709, 11.7519579], [75.7940661, 11.7429978], [75.8109855, 11.742231], [75.8539223, 11.70269], [75.8773541, 11.7042868], [75.913918, 11.6913645], [75.9018802, 11.6774959], [75.9054851, 11.6606215], [75.8976531, 11.642401], [75.908575, 11.6024463], [75.9526825, 11.5803089], [75.9587633, 11.5595111]]], [[[75.5419171, 11.6629672], [75.5413538, 11.6634558], [75.541952, 11.6633823], [75.5419171, 11.6629672]]]]}}]}