{"type": "FeatureCollection", "features": [{"type": "Feature", "properties": {"slug": "krabi", "members": 1, "country": "Thailand", "input_hash": "df3bb16e92c2a2f2"}, "geometry": {"type": "MultiPolygon", "coordinates": [[[[98.8660781, 7.6156255], [98.8656812, 7.6111697], [98.8632538, 7.6148572], [98.8660781, 7.6156255]]], [[[98.7647812, 7.6993284], [98.7714382, 7.6804309], [98.761519, 7.6760456], [98.7647812, 7.6993284]]], [[[98.7677617, 7.7377513], [98.7688205, 7.7173557], [98.7565415, 7.7418107], [98.7738217, 7.7433459], [98.7599147, 7.7604825], [98.7658614, 7.7653225], [98.756238, 7.787487], [98.7922215, 7.7309602], [98.7677617, 7.7377513]]], [[[98.7702858, 7.8110502], [98.7725174, 7.8147705], [98.7756503, 7.8195111], [98.7702858, 7.8110502]]], [[[98.7981805, 7.8190791], [98.7962059, 7.8130367], [98.7933905, 7.8190172], [98.7981805, 7.8190791]]], [[[98.8091523, 7.9512072], [98.8050408, 7.9568868], [98.8097291, 7.9578426], [98.8091523, 7.9512072]]], [[[98.8118181, 7.9750777], [98.8126802, 7.9720837], [98.804595, 7.9714744], [98.8118181, 7.9750777]]], [[[98.9194177, 8.0478422], [98.918759, 8.0433381], [98.9163493, 8.0435291], [98.9194177, 8.0478422]]], [[[98.6751518, 8.082732], [98.6832156, 8.0799366], [98.6774705, 8.0732263], [98.6751518, 8.082732]]], [[[98.6955526, 8.1020017], [98.6900005, 8.0983358], [98.6902821, 8.1031289], [98.6955526, 8.1020017]]], [[[98.7100766, 8.1052364], [98.7055244, 8.1046883], [98.7079464, 8.1085113], [98.7100766, 8.1052364]]], [[[98.7265716, 8.21441], [98.7246047, 8.2148747], [98.7279963, 8.2166067], [98.7265716, 8.21441]]], [[[98.7283142, 8.2166171], [98.7334301, 8.2184943], [98.7321637, 8.2158446], [98.7283142, 8.2166171]]], [[[98.6437779, 8.2439024], [98.6436308, 8.2311307], [98.6366001, 8.2480206], [98.6437779, 8.2439024]]], [[[98.6285048, 8.2688069], [98.6347388, 8.269383], [98.6407319, 8.2504849], [98.6237678, 8.2615146], [98.619692, 8.289186], [98.6285048, 8.2688069]]], [[[98.6983326, 8.2884117], [98.7008042, 8.2978643], [98.7021402, 8.2905931], [98.6983326, 8.2884117]]], [[[98.6937567, 8.292477], [98.6920867, 8.2953194], [98.6980988, 8.2983601], [98.6937567, 8.292477]]], [[[98.7016058, 8.3040778], [98.6999024, 8.3006736], [98.7005955, 8.304231], [98.7016058, 8.3040778]]], [[[98.6392722, 8.3500979], [98.6415511, 8.3432], [98.6330526, 8.344352], [98.6392722, 8.3500979]]], [[[99.0542502, 7.1979609], [99.0570796, 7.2141185], [99.0627032, 7.197299], [99.0542502, 7.1979609]]], [[[99.081762, 7.2219494], [99.0610509, 7.22013], [99.0753363, 7.2285392], [99.081762, 7.2219494]]], [[[99.0670073, 7.6085905], [99.0801804, 7.5980737], [99.0754308, 7.5722862], [99.1100157, 7.49819], [99.0984684, 7.4671015], [99.0672548, 7.4989907], [99.0349896, 7.5644905], [99.0272866, 7.6217473], [99.032139, 7.6291559], [99.0200939, 7.6491124], [99.0245601, 7.6446376], [99.0365438, 7.6515369], [99.0475628, 7.6441251], [99.0594841, 7.6133554], [99.067944, 7.6152404], [99.0670073, 7.6085905]]], [[[98.9934146, 7.8008475], [98.9967456, 7.8037625], [98.998366, 7.7965133], [98.9934146, 7.8008475]]], [[[98.9881092, 7.8086602], [98.9917678, 7.8086496], [98.9889622, 7.8059444], [98.9881092, 7.8086602]]], [[[98.972944, 7.8525928], [98.9925054, 7.7955726], [98.987125, 7.7820463], [98.9565053, 7.825568], [98.9358759, 7.8371884], [98.9392308, 7.8533925], [98.972944, 7.8525928]]], [[[99.0214071, 7.8253982], [99.0180126, 7.8255527], [99.0213218, 7.8280726], [99.0214071, 7.8253982]]], [[[98.9941174, 7.8193426], [98.9882594, 7.8147827], [98.9822084, 7.8293125], [98.9913815, 7.8432148], [98.9941174, 7.8193426]]], [[[99.0219404, 7.835221], [99.0221559, 7.8310959], [99.0156662, 7.8343346], [99.0219404, 7.835221]]], [[[98.980363, 7.8470198], [98.9844001, 7.8483925], [98.9863108, 7.8462614], [98.980363, 7.8470198]]], [[[99.0367265, 7.8518492], [99.0313819, 7.8551643], [99.0305254, 7.8398955], [99.0134607, 7.83913], [99.0057531, 7.8830986], [99.0209796, 7.884549], [99.0395128, 7.8593863], [99.0367265, 7.8518492]]], [[[99.0493548, 7.8685789], [99.04382, 7.8661789], [99.0466376, 7.8703326], [99.0493548, 7.8685789]]], [[[99.0485215, 7.876849], [99.0395408, 7.8779968], [99.0467833, 7.8797186], [99.0485215, 7.876849]]], [[[99.0532774, 7.8813687], [99.0448761, 7.8823969], [99.0573331, 7.8944252], [99.0532774, 7.8813687]]], [[[98.9693177, 7.9250087], [98.9902818, 7.9256835], [99.0008953, 7.8975865], [98.992618, 7.8876819], [98.9904588, 7.8502561], [98.9693177, 7.9250087]]], [[[99.0090421, 7.9027013], [98.9968435, 7.9243795], [99.0081602, 7.9182067], [99.0090421, 7.9027013]]], [[[98.998146, 7.9332653], [98.9938396, 7.9401285], [98.9992288, 7.9400116], [98.998146, 7.9332653]]], [[[98.9250845, 8.0380815], [98.9234182, 8.0611176], [98.9535956, 8.0498111], [98.94975, 8.032], [98.9567274, 8.0200559], [98.9519021, 8.0049272], [98.9183499, 8.0358124], [98.9250845, 8.0380815]]], [[[98.7227593, 8.6303598], [98.747643, 8.6751097], [98.7707458, 8.6732387], [98.786655, 8.6509303], [98.7979514, 8.6509498], [98.8014934, 8.6590811], [98.8410968, 8.6779609], [98.8879765, 8.681337], [98.9024351, 8.6313819], [98.9197326, 8.6147903], [98.9189278, 8.59597], [98.9292209, 8.5931933], [98.9377813, 8.5780387], [98.9324393, 8.5451603], [98.950794, 8.4920508], [98.9394921, 8.4376019], [98.9479795, 8.4226821], [98.9732393, 8.4180133], [99.0281587, 8.3665539], [99.0618051, 8.3595698], [99.1242207, 8.368074], [99.1507492, 8.3594983], [99.1803111, 8.3721088], [99.1863874, 8.3626582], [99.2050262, 8.3660492], [99.2096472, 8.3359854], [99.2449253, 8.309836], [99.2639413, 8.3008006], [99.2996043, 8.3151434], [99.2989372, 8.3062541], [99.3310651, 8.290415], [99.3337239, 8.2568776], [99.3112836, 8.2336619], [99.3206141, 8.2179968], [99.3195399, 8.1966798], [99.3075669, 8.1918911], [99.3083896, 8.1758187], [99.2898352, 8.1650373], [99.2884095, 8.150801], [99.3023706, 8.131224], [99.3634707, 8.1331094], [99.387747, 8.141041], [99.3937799, 8.0866155], [99.3828339, 8.0724669], [99.414988, 7.9998458], [99.3956105, 7.9816003], [99.398047, 7.9545503], [99.3843906, 7.9410231], [99.3684882, 7.946306], [99.3553089, 7.9322096], [99.3337746, 7.9287921], [99.3385366, 7.911202], [99.3311462, 7.8811626], [99.2787398, 7.8485933], [99.2942019, 7.8250977], [99.2871473, 7.8100549], [99.3033091, 7.8078686], [99.288904, 7.7625831], [99.305869, 7.7556764], [99.312817, 7.7275881], [99.3006216, 7.689284], [99.2866162, 7.6882253], [99.2865624, 7.679882], [99.2748447, 7.6786943], [99.25792408623002, 7.656380675067498], [99.2381342, 7.6797236], [99.2274338, 7.6715764], [99.2133934, 7.6790879], [99.1967159, 7.6710004], [99.2040096, 7.6960579], [99.1936478, 7.6922397], [99.1768304, 7.7048083], [99.1704027, 7.7275678], [99.1426377, 7.7434246], [99.1352519, 7.7716131], [99.1190443, 7.7686995], [99.1007851, 7.7526403], [99.1089786, 7.7196924], [99.0992492, 7.693062], [99.0812009, 7.690866], [99.040464, 7.703007], [99.0200698, 7.7638146], [99.031618, 7.7968034], [99.0171757, 7.8219032], [99.0433924, 7.8343143], [99.0472842, 7.8522261], [99.0658575, 7.8691238], [99.0661687, 7.8766461], [99.0582722, 7.8778676], [99.0635929, 7.9032958], [99.0268313, 7.8898275], [99.0188494, 7.9193541], [98.9983737, 7.9414377], [98.9781867, 7.9398915], [98.9728385, 7.9325368], [98.942575, 7.9908146], [98.9576623, 7.9996948], [98.9617914, 8.0227331], [98.9527577, 8.0305469], [98.9545655, 8.0506675], [98.9440232, 8.0574949], [98.922601, 8.0635462], [98.9198627, 8.0510554], [98.9060877, 8.0478922], [98.8850309, 8.0220807], [98.8597863, 8.0282216], [98.8498762, 8.011133], [98.8415346, 8.010799], [98.8431651, 8.0016677], [98.8041994, 8.0452024], [98.7734978, 8.0419475], [98.7736759, 8.0241837], [98.7651153, 8.0234877], [98.7614217, 8.0451313], [98.7396279, 8.0766279], [98.7483199, 8.1215398], [98.7583391, 8.1297091], [98.7456127, 8.1423774], [98.7352736, 8.136021], [98.7527119, 8.1841531], [98.7395007, 8.2361066], [98.7249988, 8.2475382], [98.7163646, 8.2205466], [98.7081161, 8.2235282], [98.7199585, 8.2588199], [98.7021644, 8.3119116], [98.6479429, 8.2722925], [98.6363379, 8.2859607], [98.6354267, 8.2758419], [98.6284419, 8.2820697], [98.6262498, 8.3133293], [98.6419237, 8.3431897], [98.63427908781681, 8.374240424292068], [98.6624047, 8.3847865], [98.6440956, 8.4112966], [98.6646506, 8.4268744], [98.6649394, 8.4545938], [98.6713008, 8.4590339], [98.6492006, 8.4828004], [98.6626157, 8.4913007], [98.6910639, 8.5760066], [98.7077086, 8.5970921], [98.7043742, 8.6317007], [98.7227593, 8.6303598]]], [[[99.2003831, 7.434118], [99.2166289, 7.40104], [99.1970227, 7.4004114], [99.2003831, 7.434118]]], [[[99.1181972, 7.4986182], [99.1205079, 7.4992255], [99.1170191, 7.4937549], [99.1181972, 7.4986182]]], [[[99.1348422, 7.5260605], [99.1169009, 7.5432385], [99.1342119, 7.5365316], [99.1348422, 7.5260605]]], [[[99.1426749, 7.5627208], [99.1457121, 7.5608966], [99.1422739, 7.5597249], [99.1426749, 7.5627208]]], [[[99.1467121, 7.5819502], [99.1418743, 7.587967], [99.1422514, 7.5940692], [99.1492237, 7.5881504], [99.1467121, 7.5819502]]], [[[99.0929883, 7.6023155], [99.1005357, 7.6002855], [99.095075, 7.5941568], [99.0929883, 7.6023155]]], [[[99.0951641, 7.6142697], [99.0854617, 7.6139365], [99.0835222, 7.6123262], [99.0881369, 7.5950541], [99.067184, 7.6094624], [99.0745485, 7.6350572], [99.0801532, 7.6246069], [99.0947102, 7.62529], [99.0951641, 7.6142697]]], [[[99.1489997, 7.6178889], [99.1520152, 7.6138994], [99.1468287, 7.6123007], [99.1489997, 7.6178889]]], [[[99.1393822, 7.6404089], [99.148927, 7.6324114], [99.1447415, 7.6167966], [99.1393822, 7.6404089]]], [[[99.0951651, 7.6253054], [99.0800555, 7.6254731], [99.0775297, 7.6361534], [99.0732496, 7.6355868], [99.0594763, 7.6211609], [99.0567706, 7.6330573], [99.0718599, 7.6548103], [99.0559951, 7.6349732], [99.0509065, 7.6481473], [99.0383203, 7.6542942], [99.0398893, 7.6852349], [99.0687076, 7.6879127], [99.0909306, 7.6799184], [99.1098367, 7.6859511], [99.1292477, 7.6541102], [99.1301788, 7.6406911], [99.1173385, 7.6246668], [99.1249781, 7.6101756], [99.1191777, 7.5869569], [99.116371, 7.5993764], [99.0866552, 7.6072389], [99.084692, 7.6129244], [99.0957287, 7.6141207], [99.0951651, 7.6253054]]], [[[99.1893763, 7.6819122], [99.1894407, 7.6850701], [99.1934425, 7.6892061], [99.1893763, 7.6819122]]], [[[99.1185332, 7.6964258], [99.11385, 7.7150375], [99.1175902, 7.7105133], [99.1185332, 7.6964258]]], [[[99.1241542, 7.7424606], [99.1312438, 7.731881], [99.1232674, 7.7349444], [99.1241542, 7.7424606]]], [[[99.1019978, 7.7525944], [99.1158886, 7.752657], [99.110396, 7.7256487], [99.1019978, 7.7525944]]], [[[99.1368739, 7.7435451], [99.1358118, 7.746947], [99.1380212, 7.7469702], [99.1368739, 7.7435451]]], [[[99.1257763, 7.7498598], [99.1298211, 7.7427424], [99.1252667, 7.7448048], [99.1257763, 7.7498598]]], [[[99.1297329, 7.7579664], [99.1349238, 7.7500672], [99.131719, 7.7437028], [99.1297329, 7.7579664]]], [[[99.1371807, 7.7588241], [99.1354204, 7.7511054], [99.13366, 7.7699281], [99.1371807, 7.7588241]]]]}}]}