{"type": "FeatureCollection", "features": [{"type": "Feature", "properties": {"slug": "kristianstad", "members": 1, "country": "Sweden", "input_hash": "40440f58511a3cc4"}, "geometry": {"type": "MultiPolygon", "coordinates": [[[[14.4461889, 55.9647451], [14.4438124, 55.9683296], [14.4508543, 55.965263], [14.4461889, 55.9647451]]], [[[14.444752, 55.9746644], [14.4496623, 55.9766401], [14.450573, 55.9746551], [14.444752, 55.9746644]]], [[[14.4539095, 55.9830128], [14.4568412, 55.9836343], [14.4566776, 55.9806179], [14.4539095, 55.9830128]]], [[[14.408723, 56.3041987], [14.4054645, 56.2942244], [14.430773, 56.2895609], [14.4262813, 56.2598513], [14.4354791, 56.2533665], [14.4270743, 56.247576], [14.4408729, 56.2290493], [14.4343168, 56.2077408], [14.4117424, 56.1973753], [14.428543, 56.1754529], [14.4209268, 56.1690739], [14.4205729, 56.1399514], [14.4376136, 56.1236621], [14.4636407, 56.149022], [14.4755249, 56.1461684], [14.4619671, 56.11021], [14.4458964, 56.1045365], [14.4506887, 56.0934751], [14.4445814, 56.0749289], [14.4033287, 56.0695312], [14.3856474, 56.0532622], [14.3806268, 56.0369896], [14.4241785, 56.0250243], [14.462457977196614, 56.02535922877792], [14.4685902, 56.0137844], [14.4509968, 56.0112767], [14.4442107, 56.0039675], [14.4515024, 55.9975704], [14.4354715, 56.000561], [14.4341291, 55.9920159], [14.4102485, 55.9866083], [14.4119571, 55.9707485], [14.3859411, 55.9741069], [14.3780495, 55.9600997], [14.336879, 55.9572756], [14.3205325, 55.9362547], [14.331091, 55.9212224], [14.2672648, 55.8926151], [14.2253365, 55.838697], [14.199341929076896, 55.765525971056164], [14.1339587, 55.7587805], [14.111585, 55.7661115], [14.104818, 55.7563269], [14.0888606, 55.7567132], [14.0868735, 55.7699144], [14.0945389, 55.7776688], [14.0749719, 55.7837274], [14.0542269, 55.785163], [14.0546221, 55.7688717], [14.0275804, 55.761076], [13.9614439, 55.776703], [13.9507793, 55.7896073], [13.9581371, 55.7973721], [13.9192068, 55.8023586], [13.9141972, 55.8190382], [13.8915738, 55.8232274], [13.8831108, 55.8373218], [13.9100047, 55.8513237], [13.9045614, 55.8573034], [13.9187449, 55.8652833], [13.9138548, 55.8783381], [13.886928, 55.8808488], [13.9075073, 55.8998941], [13.9078273, 55.9104079], [13.8946653, 55.9083227], [13.8767268, 55.9218836], [13.8591798, 55.9052681], [13.8243526, 55.9020992], [13.814843, 55.886223], [13.8074112, 55.8869437], [13.7690851, 55.8975072], [13.7817465, 55.908643], [13.7475862, 55.9316184], [13.7495178, 55.9414353], [13.7798033, 55.9646833], [13.7584039, 55.9742516], [13.7741805, 55.9944616], [13.8029796, 56.0115052], [13.8106715, 56.0267252], [13.8228891, 56.0300071], [13.8406065, 56.0155417], [13.8556301, 56.0152647], [13.8588703, 56.0267677], [13.8869858, 56.0208096], [13.9691624, 56.0767246], [13.970163, 56.0896434], [13.9780506, 56.0857255], [13.9933367, 56.0935118], [14.014227, 56.156385], [14.0668792, 56.1332874], [14.1419681, 56.1252152], [14.158703, 56.1396957], [14.1479941, 56.1464713], [14.1502695, 56.1547584], [14.2039883, 56.1494603], [14.2171832, 56.1719044], [14.2459186, 56.1739511], [14.257946, 56.1969303], [14.2764216, 56.2004522], [14.2647031, 56.2165293], [14.284374, 56.24731], [14.3324887, 56.2732744], [14.3476725, 56.2940755], [14.408723, 56.3041987]]], [[[14.2050801, 56.162921], [14.2091903, 56.1622887], [14.208066, 56.1609607], [14.207006, 56.1601097], [14.2048752, 56.1591303], [14.2050801, 56.162921]], [[14.2070057, 56.1601755], [14.2079994, 56.1609625], [14.20638, 56.1609635], [14.2070057, 56.1601755]]]]}}]}