{"type": "FeatureCollection", "features": [{"type": "Feature", "properties": {"slug": "kristiansand", "members": 1, "country": "Norway", "input_hash": "5567de31cf982ea1"}, "geometry": {"type": "Polygon", "coordinates": [[[7.7941746, 58.2515469], [7.8606399, 58.2393949], [7.8947616, 58.2505113], [7.9324505, 58.2323648], [7.9341174, 58.2221567], [7.9739051, 58.2166357], [7.986659, 58.229244], [7.9903211, 58.2511021], [8.026175, 58.2641846], [8.0136936, 58.2722002], [8.0430683, 58.2716539], [8.0256401, 58.276366], [8.0794819, 58.3062713], [8.052025, 58.3127494], [8.0588738, 58.3408088], [8.0409076, 58.3515414], [8.0488103, 58.3725346], [8.0213763, 58.3714042], [7.9983811, 58.3506986], [7.9733142, 58.3420477], [7.9681313, 58.3270999], [7.9746842, 58.3110024], [7.9661765, 58.3085987], [7.9013365, 58.3441749], [7.9138066, 58.354348], [7.8983406, 58.3597616], [7.912653, 58.380305], [7.8805161, 58.3943962], [7.8603574, 58.3892848], [7.8432395, 58.4070598], [7.7885655, 58.4132385], [7.8156091, 58.4441564], [7.8051282, 58.4598665], [7.766404, 58.4551041], [7.7004814, 58.4629895], [7.6907093, 58.4418275], [7.6429124, 58.3907801], [7.6238969, 58.3502237], [7.6356236, 58.3450198], [7.6271422, 58.3358537], [7.6392878, 58.334691], [7.6466536, 58.3240287], [7.6405653, 58.3197806], [7.6780466, 58.3164535], [7.6901059, 58.3329185], [7.725406, 58.3378041], [7.7181844, 58.3105743], [7.731149, 58.302911], [7.726593, 58.2907438], [7.6912806, 58.2612691], [7.7276792, 58.2514872], [7.7285969, 58.235436], [7.753635, 58.2193105], [7.7742649, 58.2193393], [7.7879579, 58.2322694], [7.7906438, 58.2274066], [7.7941746, 58.2515469]]]}}]}