{"type": "FeatureCollection", "features": [{"type": "Feature", "properties": {"slug": "kropyvnytskyi", "members": 1, "country": "Ukraine", "input_hash": "23d144422f085d35"}, "geometry": {"type": "Polygon", "coordinates": [[[32.8081328, 48.6894212], [32.8049557, 48.7044328], [32.7809103, 48.70546], [32.7776455, 48.7198339], [32.8004979, 48.725298], [32.7838401, 48.8007044], [32.8858672, 48.8154975], [32.8707589, 48.8835955], [32.8585796, 48.8811571], [32.829857, 48.8980158], [32.8145924, 48.8862594], [32.8084042, 48.8937517], [32.7781241, 48.8909249], [32.7737149, 48.9236645], [32.7638104, 48.9324137], [32.7416653, 48.9310482], [32.7533244, 48.9361481], [32.7388327, 48.9436882], [32.7310854, 48.9745054], [32.6980543, 48.9743141], [32.6959547, 48.9829742], [32.6714588, 48.9829937], [32.6798419, 48.9573442], [32.653406, 48.953315], [32.6116197, 48.9536051], [32.60781, 48.9646045], [32.5821135, 48.9508087], [32.5781205, 48.9589937], [32.5390454, 48.9670191], [32.5472086, 48.9585514], [32.5405952, 48.9521479], [32.5517534, 48.9418492], [32.5215471, 48.9388939], [32.5216469, 48.9494515], [32.509527, 48.9602144], [32.5156692, 48.9752185], [32.5019865, 48.9878172], [32.497842, 49.0123932], [32.4711945, 49.0096828], [32.4654874, 49.0317183], [32.4757196, 49.0335256], [32.4524301, 49.0386296], [32.4428274, 49.0525972], [32.4172909, 49.0279222], [32.3970497, 49.0262164], [32.3717265, 49.0375404], [32.3694203, 49.0467497], [32.3757518, 49.0500926], [32.3654377, 49.0719301], [32.3534533, 49.0695324], [32.3485796, 49.0792993], [32.3148796, 49.0812031], [32.3130183, 49.07469], [32.2982625, 49.073395], [32.2826144, 49.0845548], [32.2831572, 49.0790065], [32.2599789, 49.078198], [32.2621929, 49.0589202], [32.233714, 49.0594719], [32.2181005, 48.9868267], [32.1875691, 48.9957845], [32.1789658, 48.9898907], [32.1777507, 48.972709], [32.1346735, 48.966203], [32.131103, 48.9513113], [32.1535862, 48.9446819], [32.1460206, 48.9122758], [32.0863366, 48.904873], [32.093307, 48.9189018], [32.0489901, 48.9163586], [32.0265394, 48.9308372], [32.0066529, 48.913153], [31.9543801, 48.9103912], [31.9212745, 48.8801156], [31.9123301, 48.8867044], [31.9060348, 48.8762709], [31.9301479, 48.8421955], [31.8995752, 48.8139203], [32.0162797, 48.7989386], [32.0450802, 48.7445319], [32.0577898, 48.741484], [32.0481743, 48.7379622], [32.0551101, 48.7245302], [32.0739738, 48.7126673], [32.0150202, 48.6988521], [32.0182717, 48.6920484], [31.974309, 48.6853141], [31.9431284, 48.6947202], [31.9576204, 48.666569], [31.9408443, 48.6539737], [31.9544701, 48.6458217], [31.9713603, 48.6064916], [31.9817608, 48.6086154], [31.9862176, 48.5997143], [31.9759987, 48.5977996], [31.9789181, 48.5909785], [31.9503982, 48.5948424], [31.9154133, 48.5793791], [31.9429693, 48.5621472], [31.9436278, 48.542881], [31.9541555, 48.5336707], [31.9047904, 48.5423005], [31.8715049, 48.5293632], [31.8708415, 48.4956679], [31.8491507, 48.4960922], [31.8467741, 48.476486], [31.8771775, 48.4730136], [31.8858783, 48.4387856], [31.9191135, 48.4409762], [31.9257975, 48.368011], [31.9322187, 48.367423], [31.9443813, 48.3359571], [31.9345925, 48.3340861], [31.9392759, 48.3158639], [31.9304031, 48.3143755], [31.9333969, 48.2788896], [31.911997, 48.2741251], [31.92317, 48.242957], [31.9447076, 48.2199225], [31.9574267, 48.1907737], [31.9444128, 48.1881949], [31.9517402, 48.1632371], [31.9704879, 48.1643173], [31.9723251, 48.1536428], [32.0075745, 48.1496899], [32.0111732, 48.1335075], [32.0305978, 48.1339234], [31.9797878, 48.1249147], [31.9746714, 48.1386876], [31.9149816, 48.1378022], [31.9159843, 48.12985], [31.882788, 48.1256147], [31.8864263, 48.1116311], [31.854742, 48.1080723], [31.8181828, 48.1152661], [31.7659894, 48.107444], [31.7830732, 48.0423319], [31.7290654, 48.0355775], [31.7527849, 47.9437813], [31.7661755, 47.9447632], [31.7809227, 47.9601064], [31.7847204, 47.9548539], [31.8439389, 47.9636924], [31.8550209, 47.9161497], [31.8766678, 47.9194892], [31.8906963, 47.8669388], [31.8572534, 47.8646693], [31.8594078, 47.8496472], [31.8532711, 47.848407], [31.8691185, 47.8234751], [31.8274308, 47.8165727], [31.8376686, 47.7830536], [31.9630773, 47.7989162], [31.9598764, 47.8096817], [32.0548786, 47.8173152], [32.0596547, 47.8044878], [32.0765689, 47.806549], [32.0896569, 47.7822509], [32.1092838, 47.7844614], [32.116945, 47.7559326], [32.1358652, 47.7579133], [32.1402589, 47.7488944], [32.154689, 47.7611116], [32.1606087, 47.7511189], [32.2316815, 47.760423], [32.2225186, 47.7915994], [32.2398978, 47.7938631], [32.2365308, 47.8148154], [32.248037, 47.816465], [32.3037571, 47.8239474], [32.3629765, 47.7888589], [32.396465, 47.8005423], [32.4045744, 47.7997517], [32.3964799, 47.7981772], [32.4018658, 47.7946847], [32.4229345, 47.8013939], [32.4296391, 47.7895592], [32.6575792, 47.8195987], [32.6639793, 47.8395953], [32.6794286, 47.8517554], [32.675123, 47.8577789], [32.6692405, 47.8529901], [32.664442, 47.8709697], [32.6855937, 47.873001], [32.6766327, 47.9072212], [32.6558598, 47.9047994], [32.6517763, 47.9214869], [32.7455728, 47.932722], [32.7371024, 47.9517741], [32.6971688, 47.9466922], [32.6890579, 47.9825853], [32.7956157, 47.9939455], [32.8017303, 47.9747103], [32.8941148, 47.9857122], [32.8876008, 48.0177548], [32.8702838, 48.0319424], [32.9150383, 48.0315917], [32.913485, 48.037587], [32.9450932, 48.0423894], [32.9524982, 48.0352897], [32.9892162, 48.0484699], [33.004483, 47.9890748], [33.0193469, 47.9849098], [33.0264822, 48.003236], [33.02194, 48.0133114], [33.0356715, 48.0172127], [33.036952, 48.0337805], [33.109175, 48.0424559], [33.1030032, 48.0555085], [33.1090739, 48.065609], [33.1431898, 48.0639347], [33.1481554, 48.0416781], [33.1537542, 48.0421922], [33.1416496, 48.0765247], [33.2250584, 48.0922047], [33.2220676, 48.1058851], [33.2369113, 48.1073661], [33.2355386, 48.1134027], [33.1870989, 48.1042245], [33.181681, 48.1180973], [33.2321509, 48.1271566], [33.2271568, 48.1493483], [33.2171509, 48.1483913], [33.2144634, 48.161368], [33.1854053, 48.1584443], [33.18793, 48.1453741], [33.1655775, 48.1429777], [33.1628991, 48.1535489], [33.1455529, 48.1517359], [33.1389501, 48.1825849], [33.1562673, 48.1861074], [33.1465666, 48.2307962], [33.1541915, 48.2315445], [33.1499058, 48.252257], [33.1423557, 48.2515058], [33.1369818, 48.278264], [33.120608, 48.275538], [33.1056414, 48.3229164], [33.0531038, 48.3180269], [33.0418754, 48.370774], [33.0714201, 48.3705628], [33.0695241, 48.3804252], [33.0782645, 48.3812109], [33.0738501, 48.4032963], [33.0828106, 48.4038886], [33.0781201, 48.4331679], [33.1058258, 48.4356638], [33.0911978, 48.4642148], [33.0513716, 48.4621429], [33.0464299, 48.5075826], [33.0127001, 48.5045432], [33.0171363, 48.4820601], [32.9116801, 48.4738744], [32.9183107, 48.4643011], [32.849525, 48.4405597], [32.8436292, 48.4319676], [32.7841091, 48.4533693], [32.7920432, 48.45935], [32.7751676, 48.4938306], [32.7835497, 48.5009775], [32.7701911, 48.5135643], [32.7828761, 48.5137984], [32.7763066, 48.544165], [32.759156, 48.5441762], [32.7555471, 48.5579011], [32.7650685, 48.5595721], [32.7635643, 48.5773981], [32.7741319, 48.5780871], [32.7772855, 48.6058606], [32.8009934, 48.6000242], [32.8032325, 48.6136067], [32.856772, 48.6161439], [32.8558603, 48.6385228], [32.83971, 48.6247282], [32.8008582, 48.6213688], [32.7925313, 48.6437697], [32.7770982, 48.644236], [32.754556, 48.6604201], [32.7679968, 48.6636067], [32.7640449, 48.6866522], [32.8081328, 48.6894212]]]}}]}