{"type":"FeatureCollection","features":[{"type":"Feature","properties":{"slug":"krymsk","member_count":1,"matched_count":1,"unmatched":["[recovered via metro-name fallback: Krymsk]"],"source":"Overture Maps division_area (CC-BY 4.0)"},"geometry":{"type":"MultiPolygon","coordinates":[[[[37.9362712,44.8853097],[37.9633699,44.901603],[37.9619943,44.91146],[37.9524815,44.9127864],[37.9696778,44.9236878],[37.9614424,44.9344516],[37.9742554,44.9538655],[37.9704574,44.9590115],[37.9902155,44.9482537],[38.0183334,44.9534681],[38.0160454,44.9451522],[38.0394333,44.9548751],[38.0351338,44.9350974],[38.0443031,44.9310808],[38.0219492,44.9126822],[38.0365008,44.9075736],[38.0340115,44.9027673],[38.0136941,44.9119416],[38.0039985,44.9091515],[38.0016061,44.8991544],[38.0010686,44.9073662],[37.9686177,44.8965117],[37.9848782,44.9056144],[37.9819773,44.9072392],[37.9688647,44.8997516],[37.9563731,44.8863801],[37.9362712,44.8853097]]],[[[37.9353847,44.9438066],[37.9398031,44.9450875],[37.9399264,44.9414394],[37.9353847,44.9438066]]]]}}]}