{"type": "FeatureCollection", "features": [{"type": "Feature", "properties": {"slug": "kuala-terengganu", "members": 3, "country": "Malaysia", "input_hash": "0103c7ab3822343c"}, "geometry": {"type": "MultiPolygon", "coordinates": [[[[103.0012661, 5.49938], [103.1043324, 5.398011], [103.1168812, 5.3958879], [103.1151711, 5.3859955], [103.13687301547313, 5.3474249736854755], [103.1534001, 5.3429447], [103.1535236, 5.3271689], [103.1864907, 5.2681973], [103.1787961, 5.2622051], [103.1864215, 5.267238], [103.1882608, 5.2434331], [103.2151888, 5.2094967], [103.2930118, 5.047657], [103.3870433, 4.8789922], [103.369504, 4.8591323], [103.339962, 4.85197], [103.3381015, 4.8614074], [103.3085595, 4.8789057], [103.2904059, 4.8674603], [103.2694897, 4.8974989], [103.2329005, 4.9081294], [103.2292923, 4.956505], [103.2151414, 4.9645088], [103.211646, 4.9875085], [103.1581998, 5.0526559], [103.1526184, 5.0474893], [103.1327734, 5.0696718], [103.120624, 5.1062362], [103.113013, 5.1085455], [103.100187, 5.0976095], [103.0785661, 5.1102372], [103.0507436, 5.1503718], [103.0570297, 5.1700521], [103.0379292, 5.2304237], [103.0133292, 5.2371273], [102.9880712, 5.2232738], [102.9614757, 5.2461554], [102.9500454, 5.2458568], [102.9510667, 5.2570152], [102.9324503, 5.2696288], [102.9289463, 5.2956202], [102.9072662, 5.3057141], [102.9290259, 5.3212373], [102.9206031, 5.3280285], [102.9215588, 5.3507153], [102.9139886, 5.3609389], [102.9215588, 5.3757145], [102.910166, 5.4467886], [102.9150379, 5.4520116], [102.9398847, 5.4396256], [103.0012661, 5.49938]], [[103.1321292, 5.3469473], [103.1386988, 5.3439284], [103.1382180598621, 5.344849069055401], [103.1321292, 5.3469473]], [[103.0663766, 5.3496434], [103.0661690897462, 5.348841566196043], [103.06677221733075, 5.349515798472366], [103.0663766, 5.3496434]], [[102.98097400806991, 5.253333264137537], [102.981373, 5.2535915], [102.9790846, 5.2543511], [102.98097400806991, 5.253333264137537]], [[102.9859116, 5.2359309], [102.9863692, 5.2379059], [102.98614204415361, 5.237931248501732], [102.9859116, 5.2359309]], [[103.0518644, 5.2223432], [103.0471161, 5.2234257], [103.0484319, 5.2222103], [103.0518644, 5.2223432]], [[103.04877201084913, 5.223830183299134], [103.0521696, 5.2246601], [103.0479933, 5.2246221], [103.04877201084913, 5.223830183299134]], [[103.08445388437337, 5.267487475331256], [103.0888961, 5.2668118], [103.0845709, 5.2676997], [103.08445388437337, 5.267487475331256]], [[103.1233695, 5.2162757], [103.1195249, 5.2109049], [103.1198725269355, 5.2105889901823375], [103.1233695, 5.2162757]], [[103.1212336, 5.2093521], [103.12201315142384, 5.211252184557208], [103.1217249, 5.2112027], [103.1212336, 5.2093521]], [[103.1222507998118, 5.211292982014833], [103.1263811, 5.2105433], [103.1235831, 5.2115217], [103.1222507998118, 5.211292982014833]]], [[[103.0195892, 5.7339166], [103.0204506, 5.7340155], [103.0200479, 5.7333315], [103.0195892, 5.7339166]]], [[[103.0309948, 5.7380042], [103.0290841, 5.7372185], [103.0307433, 5.7403657], [103.0309948, 5.7380042]]], [[[103.0071297, 5.7377907], [102.9977851, 5.7317534], [103.0014477, 5.7477493], [103.0071297, 5.7377907]]], [[[103.0056977, 5.7429796], [103.0056377, 5.7434435], [103.0059974, 5.7432315], [103.0056977, 5.7429796]]], [[[103.0291308, 5.7525917], [103.0283938, 5.7532903], [103.029524, 5.7537777], [103.0291308, 5.7525917]]], [[[103.0276175, 5.7552028], [103.02856, 5.7559434], [103.0280083, 5.7535837], [103.0276175, 5.7552028]]], [[[103.0305124, 5.7588866], [103.0299037, 5.7575133], [103.0295375, 5.7574775], [103.0305124, 5.7588866]]], [[[103.0357191, 5.7681551], [103.0342738, 5.7690033], [103.034347, 5.7691292], [103.0357191, 5.7681551]]], [[[103.039682, 5.7721378], [103.039056, 5.7728203], [103.0403414, 5.7727872], [103.039682, 5.7721378]]], [[[103.043958, 5.7893867], [103.0188149, 5.751767], [103.006513, 5.7512567], [103.0046148, 5.7598849], [102.9987003, 5.7490566], [102.9884765, 5.7839], [102.9963425, 5.8155408], [103.0103428, 5.817575], [103.0187682, 5.80749], [103.0144123, 5.7857024], [103.0259615, 5.7938662], [103.043958, 5.7893867]]], [[[102.892224, 5.7912024], [102.8899964, 5.803237], [102.9046501, 5.7912691], [102.892224, 5.7912024]]], [[[103.0102362, 5.8180124], [103.0103228, 5.8181714], [103.0103628, 5.8178997], [103.0102362, 5.8180124]]], [[[103.2684079, 5.209492], [103.2604625, 5.2222579], [103.2675845, 5.2324914], [103.2706395, 5.2190412], [103.2684079, 5.209492]]], [[[103.2612943, 5.2322136], [103.2609858, 5.2323861], [103.2611806, 5.2326178], [103.2612943, 5.2322136]]], [[[103.2614973, 5.232513], [103.2653365, 5.2349978], [103.2626983, 5.2319714], [103.2614973, 5.232513]]], [[[103.065474, 5.5957132], [103.0620102, 5.5968192], [103.0669944, 5.5992879], [103.065474, 5.5957132]]], [[[103.0713707, 5.6201608], [103.0647489, 5.6108418], [103.0556938, 5.6174967], [103.0634528, 5.6292486], [103.0713707, 5.6201608]]], [[[103.1604322, 5.6229934], [103.1595621, 5.6253131], [103.1622232, 5.6223348], [103.1604322, 5.6229934]]], [[[103.1517398, 5.6409302], [103.1548626, 5.6404371], [103.1538089, 5.6392821], [103.1517398, 5.6409302]]], [[[103.1528176, 5.643118], [103.1528375, 5.6431443], [103.152863, 5.643111], [103.1528176, 5.643118]]], [[[103.0683809, 5.653993], [103.0682802, 5.6601283], [103.0696872, 5.6538844], [103.0683809, 5.653993]]], [[[103.0587125, 5.7744775], [103.0612667, 5.7750848], [103.0618173, 5.7712811], [103.0587125, 5.7744775]]], [[[103.0425552, 5.7767976], [103.0405933, 5.7775248], [103.0436797, 5.7792439], [103.0425552, 5.7767976]]]]}}]}