{"type": "FeatureCollection", "features": [{"type": "Feature", "properties": {"slug": "kumanovo", "members": 1, "country": "North Macedonia", "input_hash": "60f38b7db673457f"}, "geometry": {"type": "Polygon", "coordinates": [[[21.9707251, 42.0404966], [21.9650325, 42.0662733], [21.9398689, 42.0638545], [21.9288397, 42.0740808], [21.9603395, 42.0959297], [21.9483232, 42.1052912], [21.9569063, 42.1298665], [21.9466076, 42.1409274], [21.9329166, 42.1434552], [21.9278526, 42.1305349], [21.8870831, 42.1259516], [21.8606472, 42.1449189], [21.8300056, 42.1367726], [21.8214359, 42.1236555], [21.7878199, 42.1259835], [21.7692276, 42.1543068], [21.7679063, 42.1884508], [21.7775202, 42.1993388], [21.7681071, 42.234152], [21.7967614, 42.2426481], [21.7725225, 42.2682553], [21.756925, 42.2569303], [21.727261, 42.2646535], [21.6991536, 42.2324719], [21.6759227, 42.2407292], [21.6967861, 42.2248379], [21.6923714, 42.1951272], [21.7010125, 42.1906434], [21.6722367, 42.1770666], [21.6768784, 42.1724202], [21.669605, 42.1521082], [21.6450834, 42.1535415], [21.6461992, 42.1352769], [21.6278315, 42.0940827], [21.6101503, 42.0884777], [21.6110781, 42.0814039], [21.6445037, 42.0721369], [21.6380901, 42.0583114], [21.6514661, 42.0444581], [21.6602325, 42.0484959], [21.668247, 42.0350821], [21.7007974, 42.0312646], [21.6943883, 42.0010452], [21.7192841, 41.9957644], [21.742115, 41.9738173], [21.7961745, 41.9858745], [21.8005657, 41.9719029], [21.8213511, 41.9605911], [21.8569136, 41.9821301], [21.8489709, 41.9913329], [21.8535233, 41.9985073], [21.8658829, 41.9977418], [21.8736345, 42.0108128], [21.9030476, 42.018533], [21.9249773, 42.0172257], [21.9370218, 41.9846582], [21.9683647, 42.0027808], [21.9902086, 42.0043434], [21.9768999, 42.0144112], [21.9842932, 42.0257019], [21.9707251, 42.0404966]]]}}]}