{"type": "FeatureCollection", "features": [{"type": "Feature", "properties": {"slug": "kunduz", "members": 1, "country": "Afghanistan", "input_hash": "7d4b596db61f9992"}, "geometry": {"type": "Polygon", "coordinates": [[[69.025509, 36.8345678], [69.0453306, 36.844823], [69.0514069, 36.8572959], [68.9586254, 36.8990308], [68.8911637, 36.9066949], [68.8542225, 36.8904729], [68.7967172, 36.8944915], [68.6114556, 36.8582296], [68.6303462, 36.85527], [68.616402, 36.8442508], [68.6318, 36.8352455], [68.6292021, 36.8291408], [68.6409301, 36.829274], [68.6390376, 36.8151833], [68.6578915, 36.8086103], [68.6459117, 36.8020049], [68.6592707, 36.8007496], [68.6528925, 36.7846564], [68.6609789, 36.7931952], [68.6645886, 36.784269], [68.6751993, 36.7827703], [68.6684277, 36.7899615], [68.6783382, 36.7992003], [68.6872726, 36.7867194], [68.6967038, 36.7886568], [68.6974439, 36.7745097], [68.7065051, 36.7724884], [68.7112925, 36.7797741], [68.7457615, 36.7653554], [68.7447082, 36.7745591], [68.7672088, 36.7582217], [68.779273, 36.7681933], [68.7833901, 36.7534656], [68.8095291, 36.754693], [68.8131675, 36.7402696], [68.8282955, 36.7442593], [68.8250401, 36.7381979], [68.8363383, 36.7403463], [68.8404554, 36.7302176], [68.8318301, 36.7284876], [68.8378702, 36.71318], [68.8271465, 36.709726], [68.8229337, 36.6890753], [68.835285, 36.691609], [68.8305934, 36.6868487], [68.8414129, 36.6865416], [68.8340403, 36.6812435], [68.8480194, 36.6783255], [68.8461045, 36.6724125], [68.8620942, 36.6598939], [68.8993004, 36.6554545], [68.9341279, 36.6359167], [68.9597531, 36.6317131], [68.9917492, 36.6377344], [68.9995358, 36.665108], [68.9747601, 36.6884985], [68.9824052, 36.7032558], [68.9460203, 36.7037098], [68.9348358, 36.725046], [68.9396494, 36.7331023], [69.0301161, 36.7349177], [69.0134102, 36.7504602], [68.9969875, 36.7512542], [68.987868, 36.7825495], [68.9476242, 36.8049161], [68.9836634, 36.8115687], [68.9936743, 36.8316833], [69.025509, 36.8345678]]]}}]}