{"type": "FeatureCollection", "features": [{"type": "Feature", "properties": {"slug": "kuwait-city", "members": 167, "country": "Kuwait", "input_hash": "5f70c05c5bdbf991"}, "geometry": {"type": "MultiPolygon", "coordinates": [[[[47.8380132, 29.3849563], [47.8329626, 29.3952485], [47.8483343, 29.3810567], [47.8167567, 29.3622626], [47.8257045, 29.3495299], [47.818146, 29.3307954], [47.8304976, 29.3213889], [47.8882751, 29.3261092], [47.9153788, 29.3452782], [47.9005514, 29.3543428], [47.9093453, 29.3609995], [47.9322839, 29.3585148], [47.918036, 29.3522084], [47.9244905, 29.3448915], [47.9556355, 29.3617812], [47.9700931, 29.3850934], [48.0039395, 29.3933155], [48.007401, 29.3736465], [48.0275587, 29.3669792], [48.0290486, 29.3551265], [48.0533617, 29.3407564], [48.1013843, 29.3525941], [48.0886306, 29.3048632], [48.0909086, 29.2635233], [48.102383, 29.2480298], [48.0973088, 29.2447503], [48.1034035, 29.2471776], [48.1031603, 29.22257], [48.12190953398987, 29.186292046866054], [48.1286654, 29.1732201], [48.1240799, 29.1613663], [48.1322782, 29.150655], [48.1406514, 29.0825332], [48.1578505, 29.0595905], [48.1522433, 29.050689], [48.1654733, 29.0452384], [48.1549242, 29.0493349], [48.1550503, 29.0414209], [48.1669727, 29.0428232], [48.1646935, 29.03749], [48.1722754, 29.0442266], [48.1763336, 29.037439], [48.1562573, 29.0346859], [48.1752607, 28.9737322], [48.2027829, 28.9417162], [48.2123993, 28.9170066], [48.2351679, 28.8977103], [48.2898704, 28.8799597], [48.2815057, 28.861109], [48.2794914, 28.8096895], [48.2991573, 28.7754553], [48.3499879, 28.7452642], [48.3965137, 28.7442936], [48.3853028, 28.7213158], [48.402906, 28.7163016], [48.3831545, 28.7178798], [48.3785908, 28.6942639], [48.3895435, 28.6877588], [48.3797818, 28.6909114], [48.3880554, 28.6873386], [48.3814877, 28.6843546], [48.3939506, 28.6629927], [48.3966221, 28.6231844], [48.3878361, 28.6357625], [48.3854306, 28.6187337], [48.4011644, 28.5744077], [48.4303629, 28.5343022], [47.7044606, 28.5243622], [47.7090384, 28.5430864], [47.6053743, 28.6548893], [47.5900287, 28.716123], [47.5978048, 28.7615396], [47.5846975, 28.8356125], [47.5094701, 28.9344091], [47.4960415, 28.966682], [47.4651668, 28.9999169], [46.5526837, 29.1002727], [46.5942461, 29.1469138], [46.671066, 29.2072924], [46.7667601, 29.321957], [46.784232, 29.3554155], [46.8664685, 29.4372995], [46.9027287, 29.5063854], [46.904472, 29.5250415], [46.9980932, 29.6634713], [47.00682, 29.7221745], [47.0314234, 29.7523711], [47.0816079, 29.8515178], [47.1043497, 29.9214764], [47.1393573, 29.9867959], [47.1895528, 30.0283504], [47.2874774, 30.0587297], [47.3711929, 30.1035683], [47.6829528, 30.1032433], [47.853396, 30.0394638], [47.9496011, 29.991954], [47.96022120101296, 29.99700145713985], [47.9629934, 29.9872998], [47.9740473, 29.9945065], [48.0130327, 29.986479], [48.0048573, 29.9607907], [48.0177855, 29.9131697], [48.0079123, 29.8897529], [48.0180082, 29.839697], [48.0545962, 29.7642284], [48.1014736, 29.7311791], [48.0901133, 29.712825], [48.1020253, 29.7140328], [48.1087306, 29.6893546], [48.1634148, 29.5770049], [48.1712892, 29.5754221], [48.15238210974096, 29.61336902213314], [48.187902, 29.5467642], [48.1675279, 29.5145138], [48.1432646, 29.538779], [48.0909901, 29.5645323], [48.0279713, 29.5779154], [47.977826, 29.5693], [47.8513867, 29.5045419], [47.8020272, 29.4644665], [47.7491409, 29.3970993], [47.7360584, 29.4047206], [47.7180527, 29.3978704], [47.7128962, 29.3804619], [47.7008128, 29.3786178], [47.7043185, 29.3600442], [47.7289599, 29.3564347], [47.7543229, 29.376346], [47.7517037, 29.3712832], [47.7594942, 29.3690147], [47.7578071, 29.3747052], [47.7873107, 29.3710588], [47.7928991, 29.3872517], [47.8011795, 29.3848024], [47.8038528, 29.3705087], [47.8380132, 29.3849563]], [[48.088816, 29.2735892], [48.08615296960486, 29.270461119194408], [48.090358787748585, 29.273500992490014], [48.088816, 29.2735892]], [[48.09977826473957, 29.180757975461276], [48.1003788, 29.180775], [48.12190953398987, 29.186292046866054], [48.09977826473957, 29.180757975461276]], [[47.9790803, 29.3040045], [48.022032, 29.3073004], [47.9635384, 29.3029173], [47.9790803, 29.3040045]], [[47.98583620259014, 29.2815995873881], [47.985768, 29.2821411], [47.9790803, 29.3040045], [47.98583620259014, 29.2815995873881]], [[47.99220291526151, 29.235503290580965], [47.98782, 29.2658487], [47.98616473607588, 29.278991108361296], [47.9887936, 29.2523131], [47.99220291526151, 29.235503290580965]], [[47.9925245, 29.2339177], [48.0072713, 29.2039679], [47.992402328518935, 29.234520072956354], [47.9925245, 29.2339177]], [[48.0077916, 29.1994492], [48.007570977517304, 29.201365261527116], [48.007508643918946, 29.19869364573984], [48.0077916, 29.1994492]], [[47.99130717647721, 29.179625751624105], [48.0061957, 29.1951878], [48.00703543555281, 29.19743007651153], [47.99130717647721, 29.179625751624105]], [[47.99876098045767, 29.179300381039813], [47.992085986702186, 29.17955385229971], [47.9973498, 29.1790679], [47.99876098045767, 29.179300381039813]], [[48.049283087061575, 29.172888237936256], [48.0391064, 29.1742388], [48.0469181, 29.1727125], [48.049283087061575, 29.172888237936256]], [[48.0276665, 29.1806899], [48.02709642610766, 29.180850292810433], [48.0391064, 29.1742388], [48.0276665, 29.1806899]], [[48.0806512, 29.1800842], [48.0613768, 29.1737869], [48.08109311066351, 29.180094274419307], [48.0806512, 29.1800842]], [[47.9152355, 29.1820639], [47.91645190072709, 29.18209792037458], [47.804173153025744, 29.20686417460414], [47.9152355, 29.1820639]], [[47.7891782, 29.1804445], [47.7848623, 29.0066392], [47.7853133529441, 29.00010202891271], [47.7891782, 29.1804445]], [[47.8250715, 29.2423318], [47.8142452, 29.2209281], [47.82626998803029, 29.243191451804947], [47.8250715, 29.2423318]], [[47.8314927, 29.2469376], [47.8300411463625, 29.245896429230736], [47.83227099574157, 29.247097825684513], [47.8314927, 29.2469376]], [[47.86356095476054, 29.260213366727328], [47.86089342329565, 29.256088090664722], [47.86244, 29.2572226], [47.86356095476054, 29.260213366727328]], [[47.8655932, 29.3106178], [47.86406828300084, 29.261566945367907], [47.8642433, 29.2620339], [47.8655932, 29.3106178]], [[47.8859683, 29.3103982], [47.83476480474956, 29.311147911516848], [47.8655932, 29.3106178], [47.8859683, 29.3103982]], [[47.7769017, 29.3121429], [47.777314161550365, 29.31213580749271], [47.7560591, 29.3212403], [47.7769017, 29.3121429]], [[47.7315759, 29.3466429], [47.7304029, 29.3454092], [47.752117, 29.3623507], [47.7315759, 29.3466429]], [[47.8350287, 29.1707589], [47.8609071, 29.1632027], [47.8730533, 29.1743127], [47.8565176, 29.1945456], [47.8350287, 29.1707589]], [[48.06284015005229, 29.26470108654167], [48.0830008, 29.2681828], [48.083653915288146, 29.26865485743462], [48.06284015005229, 29.26470108654167]], [[48.0213819, 29.1824581], [48.02068183362731, 29.182346459656586], [48.02437316464634, 29.18161649446462], [48.0213819, 29.1824581]]], [[[47.8664875, 29.3871485], [47.8714932, 29.381407], [47.8549406, 29.3770705], [47.8664875, 29.3871485]]], [[[47.9374909, 29.3976508], [47.928822, 29.3966459], [47.9317, 29.4015906], [47.9374909, 29.3976508]]], [[[48.020736, 29.502553], [48.0139875, 29.5033187], [48.0162835, 29.5088651], [48.020736, 29.502553]]], [[[48.0172061, 29.9901031], [48.01272089699371, 29.991167066377503], [48.01506825068141, 29.996511815406503], [48.0172061, 29.9901031]]], [[[48.0336428, 29.9608929], [48.03891121656399, 29.961280261554517], [48.02830408487201, 29.956931850809365], [48.0336428, 29.9608929]]], [[[48.028667739796944, 29.982488922079042], [48.0379343, 29.9921103], [48.0341148, 29.9872039], [48.028667739796944, 29.982488922079042]]], [[[48.0766439, 29.8250453], [48.0725669, 29.8084761], [48.0549287, 29.7970436], [48.0357027, 29.8350972], [48.0766439, 29.8250453]]], [[[48.04986305577444, 29.922104805617252], [48.045922368243986, 29.92984457950937], [48.0493926, 29.92325], [48.04986305577444, 29.922104805617252]]], [[[48.0441785, 30.0022568], [48.0379343, 29.9921103], [48.04292598954602, 30.008691894344906], [48.0441785, 30.0022568]]], [[[48.0793261, 29.8435847], [48.0729747, 29.8327146], [48.0459595, 29.8327705], [48.031969, 29.8432125], [48.0357885, 29.8520715], [48.0452943, 29.8508524], [48.0265617, 29.8645769], [48.022871, 29.8897321], [48.0483198, 29.866996], [48.0731248, 29.8698243], [48.0965995, 29.8588082], [48.0938315, 29.8469906], [48.0793261, 29.8435847]]], [[[48.0668162, 29.9123886], [48.08892629417507, 29.901179232334226], [48.0548858, 29.9122398], [48.0668162, 29.9123886]]], [[[48.0584907, 29.9414736], [48.05144115273112, 29.940741599495663], [48.06644843559249, 29.94970704060189], [48.0584907, 29.9414736]]], [[[48.1048474, 29.7322991], [48.10484773301803, 29.732294535844087], [48.104843174684184, 29.732301784739395], [48.1048474, 29.7322991]]], [[[48.09978859742644, 29.96429087564886], [48.1050109, 29.9579092], [48.100891, 29.9610324], [48.09978859742644, 29.96429087564886]]], [[[48.096857, 29.9678733], [48.0935096, 29.9654939], [48.087539888488145, 29.9623072015056], [48.096857, 29.9678733]]], [[[48.1070252, 29.6986085], [48.10724884409961, 29.69938627217808], [48.107346637611265, 29.69804596989417], [48.1070252, 29.6986085]]], [[[48.1039863, 29.7176548], [48.105504635860555, 29.723291398875276], [48.107194005175195, 29.70013786330496], [48.1039863, 29.7176548]]], [[[48.136491896854345, 30.00128361882545], [48.07568402479506, 29.976355333598963], [48.1155789, 29.9951766], [48.136491896854345, 30.00128361882545]]], [[[48.11068283088856, 29.691561072581216], [48.1106396, 29.6915781], [48.11059423677067, 29.691727199092888], [48.11068283088856, 29.691561072581216]]], [[[48.1079886, 29.6962886], [48.107765721114895, 29.697031066328403], [48.108555431857035, 29.69555024690207], [48.1079886, 29.6962886]]], [[[48.0996361120151, 29.897699357327166], [48.105955, 29.8973592], [48.1148814, 29.8927458], [48.0996361120151, 29.897699357327166]]], [[[48.1050109, 29.9579092], [48.110173699140795, 29.95656413304335], [48.1089591, 29.9567194], [48.1050109, 29.9579092]]], [[[48.126760980219025, 29.66141226669877], [48.1238059, 29.6646519], [48.11767795876108, 29.678444217648668], [48.126760980219025, 29.66141226669877]]], [[[48.1257819, 29.9010052], [48.128038138909744, 29.90187029716039], [48.12266147713002, 29.898141460137932], [48.1257819, 29.9010052]]], [[[48.1150531, 29.9518112], [48.1172847, 29.9547115], [48.1156539, 29.9457873], [48.1150531, 29.9518112]]], [[[48.13238193594103, 29.650872179064706], [48.14894212612072, 29.619819478356295], [48.1443473, 29.6246457], [48.13238193594103, 29.650872179064706]]], [[[48.145008, 29.9282339], [48.1329059, 29.9052462], [48.1385707, 29.9178194], [48.145008, 29.9282339]]], [[[48.13655668020796, 29.93328768794913], [48.1274985, 29.9366391], [48.1156539, 29.9457873], [48.13655668020796, 29.93328768794913]]], [[[48.3547339, 29.4513007], [48.4029922, 29.4082701], [48.4030824, 29.3950466], [48.3879041, 29.3924557], [48.3617208, 29.4025278], [48.3384489, 29.4270844], [48.267443, 29.4290268], [48.2786272, 29.4588352], [48.3120762, 29.4750469], [48.3221542, 29.4607849], [48.3547339, 29.4513007]]], [[[48.2498524, 29.4846477], [48.2536964, 29.4881656], [48.2550215, 29.4816466], [48.2498524, 29.4846477]]], [[[48.08115, 29.8140243], [48.1075429, 29.8111199], [48.0919647, 29.8168914], [48.0780601, 29.8140243], [48.0804205, 29.8224391], [48.0980587, 29.8268324], [48.1308031, 29.8185669], [48.1390428, 29.8242635], [48.0968141, 29.8283961], [48.1053543, 29.8382987], [48.0817937, 29.8252315], [48.0715799, 29.8311138], [48.0764722, 29.8334592], [48.0800342, 29.8427285], [48.1084442, 29.8493915], [48.1291294, 29.8365863], [48.153677, 29.8337291], [48.136897, 29.8394527], [48.1477627, 29.8486284], [48.1067276, 29.8555702], [48.1311893, 29.8708291], [48.1553936, 29.8588827], [48.1580114, 29.8455948], [48.176465, 29.827093], [48.1807136, 29.8477165], [48.1653928, 29.8463765], [48.1701564, 29.8622323], [48.1776237, 29.8593293], [48.1736755, 29.8645769], [48.1296015, 29.8792949], [48.153677, 29.8795554], [48.157196, 29.8728944], [48.1569385, 29.8837787], [48.166852, 29.889732], [48.1699419, 29.8701406], [48.1874942, 29.8655446], [48.174448, 29.8732108], [48.1765508, 29.8840392], [48.1907987, 29.8810252], [48.1774091, 29.8901413], [48.195734, 29.8966523], [48.2117843, 29.9223573], [48.2000255, 29.9169639], [48.2072353, 29.9236963], [48.199253, 29.9212414], [48.2002401, 29.926709], [48.196206, 29.9191585], [48.1997251, 29.9309489], [48.1934809, 29.9222828], [48.1911635, 29.9345006], [48.1832886, 29.9354304], [48.185091, 29.9206463], [48.1787824, 29.9316927], [48.1732034, 29.9146948], [48.1816577, 29.9065854], [48.1826877, 29.899703], [48.1812286, 29.9050974], [48.1533765, 29.8923737], [48.1483125, 29.9004471], [48.1571531, 29.9061762], [48.1451797, 29.9037209], [48.1423473, 29.9134301], [48.1479263, 29.9327713], [48.1312322, 29.9377175], [48.1179285, 29.9601028], [48.1060409, 29.9615157], [48.1083798, 29.9747881], [48.1668091, 29.9805315], [48.2270193, 29.9508258], [48.2882595, 29.8961687], [48.3087584, 29.8619975], [48.3208507, 29.8742871], [48.3369718, 29.8627544], [48.3173346, 29.8527786], [48.3410453, 29.8143222], [48.3712577, 29.7951442], [48.3771371, 29.7633343], [48.3722019, 29.7329676], [48.3469677, 29.6859277], [48.2653427, 29.6055884], [48.2224273, 29.5816682], [48.1861639, 29.5919684], [48.1572818, 29.6458779], [48.1500721, 29.6835416], [48.1158787, 29.7178552], [48.1200742, 29.7417246], [48.1079721, 29.7475001], [48.1006765, 29.7639304], [48.0684471, 29.7717161], [48.066945, 29.7945111], [48.060379, 29.795107], [48.08115, 29.8140243]]], [[[48.653056, 28.6829075], [48.6534495, 28.6789888], [48.6505244, 28.6817331], [48.653056, 28.6829075]]], [[[48.491528, 29.073896], [48.4945026, 29.0735303], [48.4944141, 29.0712493], [48.491528, 29.073896]]], [[[48.4426904, 29.3785185], [48.4383787, 29.3765061], [48.4417677, 29.3794546], [48.4426904, 29.3785185]]]]}}]}