{"type": "FeatureCollection", "features": [{"type": "Feature", "properties": {"slug": "la-digue", "members": 1, "country": "Seychelles", "input_hash": "a99dfdc64ade3481"}, "geometry": {"type": "MultiPolygon", "coordinates": [[[[55.7668461, -4.5906186], [55.7670777, -4.5903101], [55.7670306, -4.5906452], [55.7668461, -4.5906186]]], [[[55.7677916, -4.5891298], [55.7679038, -4.5904051], [55.7663451, -4.5895722], [55.7677916, -4.5891298]]], [[[55.7637563, -4.5857917], [55.763733, -4.5788861], [55.7653563, -4.5796503], [55.7637563, -4.5857917]]], [[[55.2071514, -4.4876145], [55.2084039, -4.4706414], [55.229627, -4.463811], [55.2559766, -4.4895468], [55.2374388, -4.5139158], [55.2253117, -4.5122553], [55.2246462, -4.5025883], [55.2071514, -4.4876145]]], [[[55.2531717, -4.3938399], [55.2421386, -4.4007359], [55.2396695, -4.3825737], [55.2531717, -4.3938399]]], [[[55.8431306, -4.3800264], [55.8423059, -4.3798373], [55.8423221, -4.3797256], [55.8431306, -4.3800264]]], [[[55.8564809, -4.364283], [55.8429268, -4.374589], [55.8411905, -4.3833441], [55.831069, -4.3791774], [55.8243561, -4.3629167], [55.8321098, -4.3368663], [55.8437536, -4.3450025], [55.8564809, -4.364283]]], [[[55.8278187, -4.3481138], [55.8276831, -4.3480491], [55.8281955, -4.3472292], [55.8278187, -4.3481138]]], [[[55.8273223, -4.3464175], [55.828076, -4.3464737], [55.8280733, -4.3465245], [55.8273223, -4.3464175]]], [[[55.8163843, -4.3177892], [55.8164015, -4.3172756], [55.8169679, -4.3172157], [55.8163843, -4.3177892]]], [[[55.8628642, -4.3103325], [55.8629957, -4.3102803], [55.8629541, -4.3103699], [55.8628642, -4.3103325]]], [[[55.8517349, -4.2836545], [55.8584383, -4.2918455], [55.8511427, -4.2841166], [55.8517349, -4.2836545]]], [[[55.6672525, -3.7984572], [55.6715307, -3.8051975], [55.6651685, -3.8151332], [55.6599314, -3.8020006], [55.6672525, -3.7984572]]], [[[55.2103505, -3.7203447], [55.2025967, -3.7274716], [55.2056167, -3.7104246], [55.2103505, -3.7203447]]], [[[55.8722506, -4.3337993], [55.8722547, -4.3337505], [55.872366, -4.3337772], [55.8722506, -4.3337993]]], [[[55.8724384, -4.3336334], [55.8724484, -4.3337578], [55.8723438, -4.3337464], [55.8724384, -4.3336334]]], [[[55.871452, -4.3329387], [55.8712575, -4.3328431], [55.8714661, -4.3328063], [55.871452, -4.3329387]]], [[[55.8717794, -4.3164882], [55.8848514, -4.3354541], [55.8812113, -4.3380117], [55.8802781, -4.3394456], [55.865016, -4.3228131], [55.8717794, -4.3164882]]], [[[55.8682556, -4.3164125], [55.8681956, -4.3168918], [55.8678093, -4.3164981], [55.8682556, -4.3164125]]], [[[55.8641343, -4.3131087], [55.8646144, -4.3133468], [55.864035, -4.3138683], [55.8641343, -4.3131087]]], [[[55.865002, -4.3132171], [55.8650355, -4.3132813], [55.8649805, -4.3133027], [55.865002, -4.3132171]]], [[[55.8665293, -4.3113246], [55.864847, -4.3123945], [55.8644865, -4.3120179], [55.8665293, -4.3113246]]], [[[55.8634047, -4.3104863], [55.8630587, -4.3105411], [55.8630922, -4.3102496], [55.8634047, -4.3104863]]], [[[55.8643515, -4.3093028], [55.8642925, -4.3093536], [55.8643341, -4.3092051], [55.8643515, -4.3093028]]], [[[55.8644736, -4.3092239], [55.8644266, -4.3093094], [55.8643891, -4.3092787], [55.8644736, -4.3092239]]], [[[55.8644186, -4.3091302], [55.8645514, -4.3090794], [55.8645017, -4.3091757], [55.8644186, -4.3091302]]], [[[55.8634391, -4.3089231], [55.8643041, -4.3090227], [55.863581, -4.3092968], [55.8634391, -4.3089231]]], [[[55.8719893, -4.2975192], [55.8660797, -4.2902906], [55.8654316, -4.2832554], [55.8720562, -4.288769], [55.8719893, -4.2975192]]], [[[55.9088376, -4.6011256], [55.9066236, -4.6026006], [55.905801, -4.601165], [55.9088376, -4.6011256]]], [[[55.9529773, -4.5894383], [55.9531261, -4.5899249], [55.9529501, -4.5898869], [55.9529773, -4.5894383]]], [[[55.9518516, -4.5891846], [55.9518195, -4.5893521], [55.95174, -4.5892664], [55.9518516, -4.5891846]]], [[[55.9513531, -4.5892899], [55.9508976, -4.5892936], [55.9512623, -4.5890891], [55.9513531, -4.5892899]]], [[[55.9516296, -4.5891986], [55.9515038, -4.5892012], [55.9515013, -4.5891117], [55.9516296, -4.5891986]]], [[[55.9517271, -4.5892063], [55.9517156, -4.5890618], [55.9518015, -4.5890771], [55.9517271, -4.5892063]]], [[[55.9493802, -4.5848074], [55.9482241, -4.5929173], [55.9318743, -4.5848395], [55.9389578, -4.5788412], [55.9493802, -4.5848074]]], [[[55.9204517, -4.3338544], [55.9216909, -4.3470077], [55.9215125, -4.3513444], [55.9204517, -4.3338544]]], [[[55.8786356, -4.339718], [55.878649, -4.3395495], [55.8787778, -4.3395281], [55.8786356, -4.339718]]], [[[55.8805896, -4.3391804], [55.8805802, -4.339254], [55.8805065, -4.3392272], [55.8805896, -4.3391804]]], [[[55.8888294, -4.3385038], [55.8891512, -4.338461], [55.889052, -4.3386134], [55.8888294, -4.3385038]]], [[[55.8767896, -4.3213398], [55.8766743, -4.321174], [55.8769264, -4.3210563], [55.8767896, -4.3213398]]], [[[55.8749723, -4.3028883], [55.8748865, -4.3027171], [55.8754015, -4.3023919], [55.8749723, -4.3028883]]]]}}]}