{"type": "FeatureCollection", "features": [{"type": "Feature", "properties": {"slug": "la-guaira", "members": 1, "country": "Venezuela", "input_hash": "e4ae9f67d6f2662f"}, "geometry": {"type": "Polygon", "coordinates": [[[-67.3984368, 10.5427355], [-67.4090597, 10.5063602], [-67.3894823, 10.4943658], [-67.3930416, 10.4858945], [-67.3824871, 10.4825634], [-67.3770449, 10.4523962], [-67.3629579, 10.4439409], [-67.3612332, 10.4136235], [-67.3457998, 10.3986761], [-67.3479939, 10.3880442], [-67.3315197, 10.4056302], [-67.2910345, 10.4244182], [-67.2454155, 10.4268925], [-67.2221728, 10.409643], [-67.209733, 10.42173], [-67.1707159, 10.4314983], [-67.1212314, 10.457989], [-67.0595482, 10.4648364], [-67.054415, 10.5027092], [-67.0623201, 10.5146239], [-67.0182297, 10.541676], [-67.0263031, 10.5511636], [-67.0174599, 10.5677411], [-66.9513542, 10.5443209], [-66.9159061, 10.5533601], [-66.8805546, 10.5405079], [-66.859746, 10.5497529], [-66.847719, 10.5378182], [-66.8216586, 10.5489618], [-66.7990208, 10.5412884], [-66.7296052, 10.5477542], [-66.7095101, 10.5392791], [-66.6768462, 10.5455312], [-66.6050448, 10.5383759], [-66.5827972, 10.5556489], [-66.551131, 10.5459822], [-66.531449, 10.552896], [-66.4711422, 10.5318902], [-66.4567977, 10.5408402], [-66.4409995, 10.5322331], [-66.419574, 10.5428126], [-66.3936693, 10.534079], [-66.3587952, 10.5397959], [-66.3464087, 10.5258408], [-66.3201914, 10.5192696], [-66.3129571, 10.5338088], [-66.3213623, 10.5574261], [-66.3081738, 10.584199], [-66.3064626, 10.6126727], [-66.3220358, 10.6237145], [-66.354275, 10.616296], [-66.41451, 10.639136], [-66.666538, 10.629904], [-66.740788, 10.634545], [-66.756131, 10.623998], [-66.797098, 10.619], [-66.846683, 10.631637], [-66.908886, 10.61227], [-66.949198, 10.616192], [-66.958972, 10.610796], [-66.985824, 10.622584], [-67.017443, 10.624226], [-67.035515, 10.620485], [-67.053431, 10.603392], [-67.163178, 10.568714], [-67.3984368, 10.5427355]]]}}]}