{"type": "FeatureCollection", "features": [{"type": "Feature", "properties": {"slug": "la-rioja", "members": 1, "country": "Argentina", "input_hash": "a6091862a8304af1"}, "geometry": {"type": "Polygon", "coordinates": [[[-67.0506524, -29.4335512], [-67.071249, -29.4290838], [-67.09009, -29.404883], [-67.1011928, -29.443159], [-67.0826095, -29.4778752], [-67.0519638, -29.4966595], [-67.0280858, -29.5477709], [-67.0614129, -29.6412599], [-67.0449409, -29.6982878], [-67.0331934, -29.7130387], [-67.0307673, -29.7529553], [-67.015189, -29.7772301], [-66.9993554, -29.7863178], [-66.9758604, -29.8190045], [-66.609187, -29.8490674], [-66.6339267, -30.1249899], [-66.5256126, -30.1593227], [-66.4852992, -30.1969065], [-66.4292895, -30.0243476], [-65.7010557, -29.8271334], [-65.5452758, -29.8277609], [-65.7191772, -29.4118577], [-65.7173476, -29.3284881], [-65.7483859, -29.2698732], [-65.8145658, -29.2695518], [-65.814712, -29.180995], [-65.9284706, -29.0813703], [-65.9457371, -29.0794147], [-66.0993784, -28.9440161], [-66.2881927, -28.8881176], [-66.3122683, -28.8871318], [-66.3279873, -28.8763412], [-66.3951376, -28.8666388], [-66.403738, -28.8551668], [-66.4015191, -28.8277315], [-66.4114268, -28.8150853], [-66.3887805, -28.8016401], [-66.3797595, -28.7683854], [-66.35258, -28.7327853], [-66.7344302, -28.8516438], [-66.7751253, -29.0496153], [-66.8009539, -29.0704556], [-66.8245749, -29.1398931], [-66.8437808, -29.1643779], [-66.8780708, -29.1880525], [-66.9004223, -29.2582305], [-66.9294258, -29.2860956], [-66.9477619, -29.3608009], [-67.0057501, -29.4129993], [-67.0506524, -29.4335512]]]}}]}