{"type": "FeatureCollection", "features": [{"type": "Feature", "properties": {"slug": "la-spezia", "members": 32, "country": "Italy", "input_hash": "8561e2d1be13c6b3"}, "geometry": {"type": "MultiPolygon", "coordinates": [[[[9.5999182, 44.171273], [9.5996656, 44.1712966], [9.5998956, 44.1713953], [9.5999182, 44.171273]]], [[[9.5533557, 44.2011116], [9.5532924, 44.2012283], [9.5535102, 44.2011709], [9.5533557, 44.2011116]]], [[[9.6586896, 44.1429632], [9.6585562, 44.1431501], [9.6587083, 44.143181], [9.6586896, 44.1429632]]], [[[9.6152131, 44.1518452], [9.6149735, 44.1517411], [9.6146242, 44.151895], [9.6152131, 44.1518452]]], [[[9.7669301, 44.0810616], [9.7673628, 44.0811981], [9.7672735, 44.080958], [9.7669301, 44.0810616]]], [[[9.6587423, 44.1429003], [9.6587461, 44.1429264], [9.6588169, 44.142888], [9.6587423, 44.1429003]]], [[[9.7739322, 44.0774199], [9.773614, 44.0774116], [9.7737757, 44.0776247], [9.7739322, 44.0774199]]], [[[9.6357176, 44.1334015], [9.621965, 44.1425859], [9.6157698, 44.1519654], [9.6058244, 44.158395], [9.6064404, 44.1713995], [9.5689012, 44.1821915], [9.5688853, 44.1911322], [9.5485753, 44.2069975], [9.5120509, 44.2162525], [9.5119704, 44.2249005], [9.5262582, 44.2267745], [9.5204049, 44.2347778], [9.5305933, 44.2511754], [9.5715427, 44.2535524], [9.574846, 44.2642525], [9.5537664, 44.2903843], [9.4992813, 44.3268542], [9.5177585, 44.3546677], [9.4961317, 44.3668228], [9.4893289, 44.3831427], [9.4721826, 44.3863479], [9.4657374, 44.4015846], [9.484767, 44.4194781], [9.5187657, 44.4282842], [9.5454161, 44.4259856], [9.5554961, 44.441566], [9.5846094, 44.4281933], [9.6077012, 44.432313], [9.6370689, 44.4148591], [9.6560575, 44.412834], [9.6751216, 44.3640154], [9.7110544, 44.3634003], [9.7285877, 44.3283945], [9.7527361, 44.3231521], [9.7655919, 44.3044141], [9.8059453, 44.2823871], [9.8149046, 44.2865227], [9.8542712, 44.2688972], [9.8620501, 44.2508194], [9.8561519, 44.235102], [9.8727094, 44.2256985], [9.8566651, 44.1940299], [9.8646559, 44.180884], [9.8906612, 44.2088215], [9.9090828, 44.2100551], [9.9143694, 44.1995925], [9.9343214, 44.1966925], [9.9218317, 44.1950518], [9.8920979, 44.1673234], [9.9741142, 44.1669157], [9.9809973, 44.1438374], [9.974527, 44.1376036], [9.9952156, 44.11881], [9.9937517, 44.1053597], [9.9835687, 44.0990255], [9.9933634, 44.092714], [10.005161, 44.11051], [10.0279443, 44.1190251], [10.0563311, 44.1096365], [10.0715114, 44.0934113], [10.0326756, 44.0654322], [10.0187585, 44.0444455], [9.9952355, 44.0507212], [9.9770458, 44.0353855], [9.9558518, 44.0415961], [9.9151267, 44.0706954], [9.9067469, 44.06724], [9.9067472, 44.0813494], [9.8812616, 44.0810264], [9.8584096, 44.0950289], [9.8519367, 44.110039], [9.8458524, 44.1046275], [9.8400655, 44.1096107], [9.8402899, 44.1034874], [9.8358469, 44.1100904], [9.8246791, 44.1022223], [9.8313601, 44.0953722], [9.8107166, 44.101872], [9.8299249, 44.0760931], [9.8419736, 44.07455], [9.8363916, 44.0652978], [9.8512455, 44.0667246], [9.8464104, 44.0627668], [9.8517509, 44.0600613], [9.8324425, 44.0479967], [9.7573119, 44.0908727], [9.7397022, 44.091507], [9.7263004, 44.1116603], [9.6761398, 44.1392526], [9.6505607, 44.145444], [9.6357176, 44.1334015]]], [[[9.8470014, 44.0333589], [9.8332516, 44.0469753], [9.8553727, 44.0513798], [9.8548786, 44.0432417], [9.8470014, 44.0333589]]], [[[9.7809506, 44.0713559], [9.7814134, 44.0711189], [9.7812024, 44.0708585], [9.7809506, 44.0713559]]], [[[9.8514405, 44.0232806], [9.8505155, 44.0236277], [9.8513193, 44.024476], [9.8514405, 44.0232806]]], [[[9.8492337, 44.0256875], [9.8517862, 44.0281379], [9.853784, 44.0260101], [9.8492337, 44.0256875]]], [[[9.8583304, 44.0518729], [9.8581472, 44.0514369], [9.8580609, 44.0515803], [9.8583304, 44.0518729]]]]}}]}