{"type":"FeatureCollection","features":[{"type":"Feature","properties":{"slug":"labinsk","member_count":1,"matched_count":1,"unmatched":["[recovered via metro-name fallback: Labinsk]"],"source":"Overture Maps division_area (CC-BY 4.0)"},"geometry":{"type":"Polygon","coordinates":[[[40.7409097,44.5839424],[40.7608052,44.5860235],[40.7661276,44.572898],[40.7732379,44.5749128],[40.7560533,44.6085206],[40.7788779,44.6175189],[40.7785664,44.6388517],[40.7660516,44.6665595],[40.7362438,44.6567946],[40.7332989,44.6794171],[40.7236967,44.6769637],[40.7122832,44.6987333],[40.7085149,44.6847749],[40.695811,44.6811679],[40.687463,44.7029875],[40.6701401,44.6984322],[40.7057,44.6360703],[40.7356155,44.6150368],[40.7339961,44.5907405],[40.740393,44.5835046],[40.732579,44.5765578],[40.7377347,44.5729958],[40.7409097,44.5839424]]]}}]}