{"type":"FeatureCollection","features":[{"type":"Feature","properties":{"slug":"lages","member_count":1,"matched_count":1,"unmatched":[],"source":"Overture Maps division_area (CC-BY 4.0)"},"geometry":{"type":"Polygon","coordinates":[[[-50.1996528,-27.9931967],[-50.1809841,-27.9396646],[-50.1925209,-27.9148893],[-50.2057756,-27.9101628],[-50.2129691,-27.8973812],[-50.2140494,-27.8750507],[-50.1997742,-27.8631323],[-50.169011,-27.8690541],[-50.1412311,-27.853167],[-50.1075558,-27.8573491],[-50.0959492,-27.8548108],[-50.095259,-27.8460187],[-50.0722608,-27.8409854],[-50.0665646,-27.8112147],[-50.075,-27.782],[-50.043,-27.772],[-50.0294962,-27.7527152],[-50.0271422,-27.6924299],[-50.0126683,-27.6723967],[-50.0023303,-27.6745766],[-50.0051308,-27.664373],[-49.9982107,-27.6572936],[-50.0056616,-27.6333504],[-50.0237097,-27.6318304],[-50.0124464,-27.6240321],[-50.0215107,-27.6139458],[-50.014577,-27.6034994],[-50.0296066,-27.5933158],[-50.0129657,-27.5801902],[-50.01985,-27.5694313],[-50.0342307,-27.584224],[-50.049647,-27.5793409],[-50.0547328,-27.6179898],[-50.0682573,-27.627149],[-50.0785495,-27.6245648],[-50.1046197,-27.6758678],[-50.1338628,-27.6944388],[-50.1366864,-27.7076232],[-50.1505403,-27.6530236],[-50.1621096,-27.6670187],[-50.1844327,-27.6521571],[-50.1836078,-27.6424172],[-50.194044,-27.6326697],[-50.2730644,-27.6758741],[-50.3102275,-27.6780095],[-50.2959568,-27.7077529],[-50.309006,-27.7485685],[-50.3267324,-27.7496492],[-50.3428451,-27.7405163],[-50.3529691,-27.7468484],[-50.3572537,-27.7378823],[-50.3683392,-27.7468101],[-50.3783118,-27.7294006],[-50.3899615,-27.7299877],[-50.394496,-27.749532],[-50.4059815,-27.7476915],[-50.4337308,-27.7743771],[-50.4954094,-27.7685896],[-50.495431,-27.776975],[-50.5180179,-27.7871929],[-50.5296305,-27.7761694],[-50.5217312,-27.7679339],[-50.5445159,-27.7640378],[-50.5422338,-27.7516715],[-50.556411,-27.7525883],[-50.5432507,-27.7339273],[-50.5509121,-27.7349748],[-50.5570363,-27.7240353],[-50.567771,-27.7332084],[-50.574342,-27.7242343],[-50.581754,-27.7307781],[-50.5743998,-27.7156746],[-50.5812426,-27.7081026],[-50.5860979,-27.7143654],[-50.5947435,-27.7090208],[-50.604596,-27.7290374],[-50.6237543,-27.7189768],[-50.6285059,-27.7076145],[-50.6395257,-27.7143522],[-50.6446166,-27.7260262],[-50.6281247,-27.7314229],[-50.6401346,-27.7595352],[-50.6146898,-27.7554884],[-50.6273204,-27.7648649],[-50.6147436,-27.7736876],[-50.6270107,-27.7743106],[-50.6305791,-27.7857536],[-50.6102073,-27.7907533],[-50.6109245,-27.8031823],[-50.6199447,-27.8084848],[-50.6057817,-27.81746],[-50.6110484,-27.8231523],[-50.6052572,-27.8328152],[-50.5763359,-27.840445],[-50.5593337,-27.8598718],[-50.551599,-27.8560721],[-50.5309183,-27.8752342],[-50.4673949,-27.8558266],[-50.4585874,-27.8558783],[-50.4640448,-27.8637814],[-50.4554662,-27.8668241],[-50.4423437,-27.8620881],[-50.4369749,-27.8738713],[-50.4283179,-27.8597015],[-50.4250033,-27.8688815],[-50.4127461,-27.8610201],[-50.4159681,-27.8693783],[-50.378,-27.884],[-50.38,-27.892],[-50.358,-27.925],[-50.373,-27.94],[-50.371,-27.964],[-50.402,-27.977],[-50.4126001,-28.0059242],[-50.389,-28.023],[-50.392,-28.037],[-50.428,-28.059],[-50.448,-28.082],[-50.472,-28.083],[-50.49,-28.098],[-50.493,-28.113],[-50.52,-28.127],[-50.523,-28.157],[-50.5046789,-28.1932617],[-50.5180767,-28.2072372],[-50.5124072,-28.2112517],[-50.5187189,-28.2195239],[-50.5400506,-28.2235334],[-50.5358351,-28.2339097],[-50.5469761,-28.2371311],[-50.5443278,-28.2506039],[-50.5609189,-28.251495],[-50.5651233,-28.2605017],[-50.5741539,-28.2542356],[-50.5810578,-28.2749278],[-50.5887572,-28.2659411],[-50.5985339,-28.2736511],[-50.6006322,-28.2686017],[-50.6026344,-28.2771878],[-50.6296611,-28.2865684],[-50.6307972,-28.2965739],[-50.6728923,-28.2840722],[-50.6635683,-28.2708811],[-50.6661556,-28.2547345],[-50.6874239,-28.2701517],[-50.6964052,-28.2676634],[-50.6955938,-28.2874394],[-50.6592604,-28.3220645],[-50.665202,-28.3380425],[-50.6284137,-28.364256],[-50.6331273,-28.3783793],[-50.6253584,-28.3917317],[-50.6107724,-28.3929144],[-50.592398,-28.3816303],[-50.5629261,-28.414999],[-50.5379247,-28.4294367],[-50.5285791,-28.4255491],[-50.5314685,-28.4062838],[-50.5224199,-28.4032448],[-50.5000536,-28.412936],[-50.4568212,-28.4107106],[-50.4445175,-28.4256744],[-50.4249412,-28.4331466],[-50.4175529,-28.4234172],[-50.405859,-28.4232941],[-50.4056611,-28.3937452],[-50.3875229,-28.3879228],[-50.375,-28.3710993],[-50.3664431,-28.3807635],[-50.3364365,-28.3817794],[-50.3357888,-28.367605],[-50.2725015,-28.3440401],[-50.2654194,-28.3296711],[-50.2765627,-28.3269307],[-50.2786343,-28.312048],[-50.2506222,-28.3151725],[-50.2552693,-28.3030899],[-50.2309803,-28.3017466],[-50.2442311,-28.2905033],[-50.2482759,-28.2644598],[-50.2451753,-28.2569186],[-50.230175,-28.2591392],[-50.216509,-28.250394],[-50.2288531,-28.2428832],[-50.226384,-28.2339002],[-50.2181524,-28.2363796],[-50.2175317,-28.2222778],[-50.2320586,-28.2193896],[-50.2182465,-28.2072379],[-50.2032194,-28.206016],[-50.1915677,-28.2180106],[-50.1926279,-28.2011079],[-50.1801581,-28.2082709],[-50.1658819,-28.2012608],[-50.1833204,-28.1918127],[-50.1710636,-28.1852733],[-50.1878277,-28.163149],[-50.1727355,-28.1602119],[-50.2013631,-28.1091497],[-50.191869,-28.0889655],[-50.1996528,-27.9931967]]]}}]}