{"type": "FeatureCollection", "features": [{"type": "Feature", "properties": {"slug": "lagos", "members": 40, "country": "Nigeria", "input_hash": "a8b0f15e60d39f58"}, "geometry": {"type": "Polygon", "coordinates": [[[3.403959, 6.3900778], [3.3105443, 6.4000247], [3.0734098570541013, 6.3999500544054735], [2.850497, 6.3917608], [2.7069844, 6.3725793], [2.7066737, 6.4513595], [2.7165806, 6.4569928], [2.7060616, 6.4518671], [2.705342, 6.464596], [2.724148, 6.487045], [2.719786, 6.500415], [2.706114, 6.507176], [2.705995, 6.519816], [2.729991, 6.538198], [2.750827, 6.570234], [2.7294082, 6.6369493], [2.752496, 6.6779113], [2.7833497, 6.695169], [2.780971, 6.726421], [2.7920562, 6.7483304], [2.7849821, 6.7637602], [2.7616564, 6.7657995], [2.7351914, 6.7836225], [2.741998, 6.92648], [2.7125406, 6.9514195], [2.7289276, 7.0167995], [2.7614226, 7.0433635], [2.7594226, 7.0684715], [2.7404616, 7.1049525], [2.7728036, 7.1330055], [2.75775, 7.24904], [2.744995, 7.281294], [2.74484, 7.424327], [2.793901, 7.429746], [2.79567, 7.479609], [2.782252, 7.518575], [2.765071, 7.522447], [2.736768, 7.545633], [2.729958, 7.604107], [2.71701, 7.612144], [2.73356, 7.766559], [2.725311, 7.803654], [2.6905199, 7.8553261], [2.7653816, 7.9081125], [2.7846665, 7.949316], [2.8131073, 7.9494348], [2.8385868, 7.9310069], [2.9198217, 7.9238167], [2.8913052, 7.8999505], [2.8794508, 7.8228674], [2.8840537, 7.8101444], [2.9112873, 7.7957778], [2.9146256, 7.7506146], [2.9501128, 7.7762475], [2.9728768, 7.8163071], [2.9828768, 7.8580513], [3.0065837, 7.8297691], [3.0259585, 7.791801], [3.0192106, 7.785224], [3.0260906, 7.7586093], [3.0068038, 7.7168269], [3.0119755, 7.7006307], [2.9968791, 7.6988306], [3.0026484, 7.6878495], [2.9898512, 7.6791081], [3.0020218, 7.673367], [2.9932766, 7.6611671], [2.9973025, 7.6496005], [2.972573, 7.6103821], [2.9804592, 7.5871906], [3.0068262, 7.5558386], [3.0334523, 7.5499725], [3.0604584, 7.5244112], [3.0822113, 7.4386244], [3.155273, 7.37818], [3.2491443, 7.3674922], [3.2869959, 7.3245234], [3.319376, 7.3140073], [3.3500419, 7.3631554], [3.3858168, 7.4012847], [3.3814762, 7.4308376], [3.3990147, 7.4441109], [3.3930829, 7.455832], [3.4459295, 7.4937935], [3.4534826, 7.4949307], [3.4522343, 7.4862456], [3.466584, 7.4711456], [3.4594049, 7.4497347], [3.4828596, 7.417232], [3.4744496, 7.3888736], [3.4977129, 7.3946009], [3.5158432, 7.4090309], [3.5369861, 7.4344578], [3.5361609, 7.4465492], [3.5492332, 7.4407949], [3.707093, 7.4473052], [3.7053738, 7.392283], [3.7175324, 7.3899322], [3.7203503, 7.3818154], [3.7143466, 7.3047943], [3.7622945, 7.3009162], [3.7636023, 7.2304831], [3.7803538, 7.2026906], [3.777308, 7.1806092], [3.79444, 7.139492], [3.7814958, 7.1212182], [3.7274344, 7.0968523], [3.7312131, 7.0806475], [3.938921, 7.0839081], [3.9602408, 7.0922837], [3.9655709, 7.1097965], [3.997551, 7.1261673], [4.0192513, 7.1246443], [4.0459018, 7.13835], [4.085127, 7.1318816], [4.1688719, 7.1741371], [4.1978927, 7.0491624], [4.2187738, 7.0471158], [4.268486, 7.0883527], [4.2975149, 7.0905886], [4.3685503, 7.0591121], [4.3711801, 7.0324602], [4.3786569, 7.0260677], [4.3710327, 7.0179801], [4.3743196, 6.9988561], [4.3903799, 6.980855], [4.4005365, 6.9807348], [4.4245214, 7.0024352], [4.488862, 6.9917755], [4.5162735, 7.022613], [4.5592942, 7.021471], [4.6095858, 7.0310779], [4.5726423, 7.0050192], [4.5616088, 6.9883375], [4.5575223, 6.8895154], [4.5475955, 6.8405223], [4.4182315, 6.7603965], [4.3897352, 6.7159171], [4.389039, 6.6743622], [4.3761201, 6.6632104], [4.3770552, 6.6451173], [4.3902235, 6.6282005], [4.4543171, 6.6073184], [4.4966106, 6.5050597], [4.5121007, 6.5540833], [4.5377998, 6.6013174], [4.5783701, 6.64217], [4.5969853, 6.6293459], [4.6008072, 6.6090531], [4.5882487, 6.5323586], [4.6052208, 6.4921551], [4.5643311, 6.4989715], [4.5599623, 6.4509325], [4.5351648, 6.4083204], [4.5035992, 6.4155321], [4.4798226, 6.40905], [4.4731255, 6.3932028], [4.4824333, 6.3867908], [4.5148282, 6.3971272], [4.575758, 6.3809786], [4.5984497, 6.3661962], [4.5958376, 6.335711], [4.5566768, 6.2763436], [4.5043718, 6.3101873], [4.5195116, 6.3410257], [4.4974222, 6.3591728], [4.4322967, 6.3421579], [4.3225031, 6.3721552], [3.9911108, 6.4213886], [3.7474999, 6.4266663], [3.4447222, 6.4094439], [3.403959, 6.3900778]], [[2.7288192439534598, 6.456755762479553], [2.7246072, 6.4576404], [2.7165806, 6.4569928], [2.7288192439534598, 6.456755762479553]], [[3.3641589, 6.6256915], [3.3642710723884077, 6.624732539448175], [3.3654534, 6.6318541], [3.3641589, 6.6256915]], [[3.3648713, 6.6196012], [3.365615855480725, 6.618241609409162], [3.3645373953535, 6.622455747260779], [3.3648713, 6.6196012]], [[3.3698576, 6.610496], [3.3831906, 6.5931903], [3.366760610676435, 6.61615123678658], [3.3698576, 6.610496]], [[3.3693873, 6.4817886], [3.368520141829447, 6.480844068951515], [3.374701783351187, 6.48147929301751], [3.3693873, 6.4817886]], [[3.3644997, 6.4764649], [3.363882268835072, 6.475022828963444], [3.3656670841207554, 6.477736444898041], [3.3644997, 6.4764649]], [[3.3576426, 6.4789042], [3.353388019822928, 6.478777077703748], [3.3644997, 6.4764649], [3.3576426, 6.4789042]], [[3.3560546, 6.4535079], [3.3563948, 6.459401], [3.356038, 6.4635214], [3.3560546, 6.4535079]], [[3.3474087, 6.4100747], [3.3663168, 6.4145513], [3.3466584675598443, 6.410336346035895], [3.3474087, 6.4100747]], [[3.3722384942856576, 6.421587427762966], [3.3702454, 6.4220956], [3.3685899, 6.4215029], [3.3722384942856576, 6.421587427762966]], [[3.3777948, 6.4191535], [3.37967273008687, 6.419691946819128], [3.374045514413065, 6.421126698199334], [3.3777948, 6.4191535]], [[3.3809229, 6.4200504], [3.3826219, 6.4238729], [3.380173464787409, 6.419835519260198], [3.3809229, 6.4200504]], [[3.1919311, 7.3271988], [3.1816519, 7.3340514], [3.173695550128888, 7.337650715348823], [3.1919311, 7.3271988]], [[3.4059334, 7.1523686], [3.4054618609221867, 7.153838599168292], [3.4051405949275018, 7.154205932993308], [3.4059334, 7.1523686]], [[3.391013650293611, 7.136412301997717], [3.3916144, 7.136162], [3.4030475, 7.1411045], [3.391013650293611, 7.136412301997717]], [[3.3829652156379195, 7.133274083561027], [3.3879894, 7.1350003], [3.3882920777720567, 7.135351115639213], [3.3829652156379195, 7.133274083561027]], [[3.2876948917416566, 7.088516860846693], [3.2928815, 7.0937538], [3.3006544, 7.1052279], [3.2876948917416566, 7.088516860846693]], [[3.4382185920734667, 6.682934016091423], [3.4383193606399423, 6.69021294593431], [3.4380022, 6.6866869], [3.4382185920734667, 6.682934016091423]], [[3.4435554, 6.6672746], [3.445412225760607, 6.670060667628226], [3.4421713, 6.6672449], [3.4435554, 6.6672746]], [[2.7666368615022185, 6.447890380556698], [2.75315441056096, 6.447806576473475], [2.7574839, 6.447363], [2.7666368615022185, 6.447890380556698]], [[2.783618, 6.4507908], [2.774211652940567, 6.448326829210465], [2.7758443, 6.4484209], [2.783618, 6.4507908]], [[2.8973, 6.4877069], [2.891453421020109, 6.478352373632174], [2.8936641, 6.4800718], [2.8973, 6.4877069]], [[2.8973, 6.4917061], [2.8958924646050104, 6.494978779096502], [2.8973, 6.4877069], [2.8973, 6.4917061]], [[2.8814349, 6.5199494], [2.884212625348526, 6.5156922240474575], [2.8791854, 6.5269065], [2.8814349, 6.5199494]], [[2.879297, 6.5379114], [2.8792720337788644, 6.535449475564707], [2.8810964, 6.5436988], [2.879297, 6.5379114]], [[2.9261894, 6.6210737], [2.9330752, 6.6141071], [2.9170852, 6.6327624], [2.9261894, 6.6210737]], [[3.0918748, 6.7447702], [3.0821247, 6.7435498], [3.1245865617584734, 6.745604010400376], [3.0918748, 6.7447702]], [[3.2595443, 6.6904704], [3.2622390923372766, 6.69542796420745], [3.2601057, 6.6943738], [3.2595443, 6.6904704]], [[3.3147569, 6.6474609], [3.3059672752113998, 6.648732051448192], [3.3064898, 6.6483984], [3.3147569, 6.6474609]], [[3.2982302, 6.623485], [3.2985450170641233, 6.623086916726252], [3.3064898, 6.6483984], [3.2982302, 6.623485]], [[3.314905719682094, 6.605610603497059], [3.31277534264486, 6.60613060756772], [3.3140475, 6.6052999], [3.314905719682094, 6.605610603497059]], [[3.3208379, 6.6078546], [3.3203579177869265, 6.6075844769156875], [3.321143362384384, 6.6078688334601345], [3.3208379, 6.6078546]], [[3.3248796, 6.6234821], [3.3346794, 6.6255382], [3.3354862097393583, 6.62645293662413], [3.3248796, 6.6234821]], [[3.3411661, 6.6494353], [3.3400441, 6.6471089], [3.3412290302014624, 6.649482253913909], [3.3411661, 6.6494353]], [[2.7340589, 6.4556553], [2.7329180629815664, 6.455894905104404], [2.734583284700532, 6.455220075978437], [2.7340589, 6.4556553]], [[3.130163, 6.5006618], [3.1113939, 6.5012021], [3.0958667, 6.4977775], [3.114332, 6.5010819], [3.130163, 6.5006618]], [[3.2242577531250896, 6.496704992415972], [3.2248982, 6.4949731], [3.2260433420533463, 6.494840298957976], [3.2242577531250896, 6.496704992415972]], [[3.2411465, 6.4930888], [3.2506807917148173, 6.4805271421256], [3.250791, 6.4817742], [3.2411465, 6.4930888]], [[3.3141783994377696, 6.489480488650573], [3.3149288, 6.4896871], [3.31535857773158, 6.490443524782545], [3.3141783994377696, 6.489480488650573]], [[3.3236013, 6.5050511], [3.3254273, 6.5093437], [3.3216464, 6.4951132], [3.3236013, 6.5050511]], [[3.1068869, 6.4687004], [3.1022108, 6.4654474], [3.111101452622893, 6.469754054350841], [3.1068869, 6.4687004]], [[3.0863526, 6.4097404], [3.085772412736032, 6.409301525964755], [3.0869552356610623, 6.409632779683617], [3.0863526, 6.4097404]], [[3.3166255, 6.462818], [3.3157120609929036, 6.459973424792368], [3.3250168, 6.472369], [3.3166255, 6.462818]], [[3.3153481, 6.45884], [3.318431390694656, 6.460927782771831], [3.3156948741768932, 6.459919902673932], [3.3153481, 6.45884]], [[3.3161323, 6.4542508], [3.320604, 6.4445194], [3.3153481, 6.45884], [3.3161323, 6.4542508]], [[3.3091077, 6.5559107], [3.3032325, 6.5605413], [3.3028745332521896, 6.560268953966442], [3.3091077, 6.5559107]], [[3.3091933, 6.5510017], [3.310111183103897, 6.551017511149914], [3.3091077, 6.5559107], [3.3091933, 6.5510017]], [[3.3376664680819426, 6.589837329861768], [3.3376235, 6.5899383], [3.3339926, 6.5885299], [3.3376664680819426, 6.589837329861768]], [[3.3410823, 6.5509207], [3.3579113, 6.5580044], [3.3521842, 6.5557223], [3.3410823, 6.5509207]], [[3.2331903, 6.6058965], [3.2073784, 6.5884204], [3.228817, 6.6020281], [3.2331903, 6.6058965]], [[3.1968055, 6.5762348], [3.1966514067042624, 6.5745868865809225], [3.1981015542993347, 6.577728543369367], [3.1968055, 6.5762348]], [[3.1962848, 6.5706663], [3.2047265, 6.5424643], [3.1964248911732795, 6.572164471112746], [3.1962848, 6.5706663]], [[2.832186, 6.8505306], [2.8192418, 6.8356829], [2.8420846, 6.8581448], [2.832186, 6.8505306]], [[3.0667236952661794, 6.92674921810584], [3.0682285, 6.9236274], [3.079434229747873, 6.912141613468419], [3.0667236952661794, 6.92674921810584]], [[3.0850581235739405, 6.905678343363426], [3.0933557, 6.8935514], [3.0903101, 6.8996425], [3.0850581235739405, 6.905678343363426]], [[3.0895486, 6.8882213], [3.0701323, 6.8729925], [3.067427090728715, 6.869723730135985], [3.0895486, 6.8882213]], [[3.053, 6.8295913], [3.0503964, 6.846014], [3.0507157, 6.8383474], [3.053, 6.8295913]], [[3.0069082, 7.3967843], [3.0076153725090813, 7.3965968298694635], [2.995322, 7.402185], [3.0069082, 7.3967843]], [[3.3305122193416525, 7.16490708527721], [3.3173762, 7.1467403], [3.3299399, 7.1638725], [3.3305122193416525, 7.16490708527721]], [[4.006351739976926, 6.679828945153225], [3.9168367, 6.6807041], [3.8724452319969154, 6.681199015063396], [3.9727811, 6.6796787], [4.006351739976926, 6.679828945153225]], [[4.1094794, 6.5468969], [4.0947371, 6.5459814], [4.1030378, 6.545908], [4.1094794, 6.5468969]], [[4.2231083, 6.5619607], [4.2200365, 6.5675168], [4.2153335, 6.5777149], [4.2180133, 6.5696754], [4.2231083, 6.5619607]], [[3.3872516, 6.4668708], [3.3811626, 6.4632173], [3.3766797, 6.4597549], [3.3872516, 6.4668708]], [[3.3628218, 6.472546], [3.3635475, 6.4682792], [3.3632162052262737, 6.473467172084895], [3.3628218, 6.472546]], [[3.3777075, 6.469536], [3.3759261, 6.470096], [3.3635475, 6.4682792], [3.3777075, 6.469536]], [[3.4086885, 6.453794], [3.4085912742410884, 6.454024791441259], [3.408589159212349, 6.453180174469984], [3.4086885, 6.453794]], [[3.40774871673845, 6.456024827877632], [3.4070645, 6.457649], [3.403716, 6.4598007], [3.40774871673845, 6.456024827877632]], [[3.8485672, 6.5630188], [3.858365984612009, 6.5613858475971085], [3.8567503, 6.562027], [3.8485672, 6.5630188]], [[3.407136577957602, 6.4465230369425335], [3.407651, 6.4473833], [3.4080032731661714, 6.449559991649517], [3.407136577957602, 6.4465230369425335]], [[3.4155879, 6.5307922], [3.4066354, 6.5241997], [3.4064336295221835, 6.523839901573226], [3.4155879, 6.5307922]], [[3.4166639, 6.53964], [3.4159369, 6.544735], [3.4162762673392364, 6.536452549948043], [3.4166639, 6.53964]], [[3.4132404074414113, 6.5598197148551], [3.411474, 6.5596619], [3.4095731, 6.5576291], [3.4132404074414113, 6.5598197148551]], [[3.4683161, 6.5870619], [3.4709311, 6.5892072], [3.4673955384290975, 6.5867677753316425], [3.4683161, 6.5870619]], [[3.48439, 6.5357552], [3.488709323671164, 6.5338360710081105], [3.4815758421244762, 6.538282781993591], [3.48439, 6.5357552]], [[3.4949911, 6.531045], [3.4980604072506765, 6.531218262645905], [3.49289320733368, 6.531977119689174], [3.4949911, 6.531045]], [[3.4387840593972148, 6.695379252712031], [3.4401758, 6.7002877], [3.4396425, 6.704923], [3.4387840593972148, 6.695379252712031]], [[3.4438742, 6.7217091], [3.4441026868225126, 6.724074966853142], [3.4396425, 6.704923], [3.4438742, 6.7217091]], [[3.5897959, 6.9278367], [3.6043682, 6.9403375], [3.6415834, 6.9735012], [3.5897959, 6.9278367]], [[3.7548459, 6.9205818], [3.7578917, 6.9304805], [3.7605565, 6.9392366], [3.7548459, 6.9205818]], [[3.9949181, 6.8219238], [3.9956474, 6.8543377], [3.9949181, 6.8329645], [3.9949181, 6.8219238]], [[3.6723188, 6.9713332], [3.6782381612400306, 6.965413963143736], [3.668401463747243, 6.977675591264798], [3.6723188, 6.9713332]]]}}]}