{"type":"FeatureCollection","features":[{"type":"Feature","properties":{"slug":"lamesa-tx","member_count":6,"matched_count":1,"unmatched":["Lamesa city (US-TX, type='City')","Balance of Dawson County (US-TX, type='Balance')","Ackerly city (US-TX, type='City')","O'Donnell city (US-TX, type='City')","Los Ybanez city (US-TX, type='City')"],"source":"Overture Maps division_area (CC-BY 4.0)"},"geometry":{"type":"Polygon","coordinates":[[[-101.6912862,32.9619871],[-102.2084353,32.9588539],[-102.2026237,32.5231401],[-101.688577,32.5251645],[-101.6912862,32.9619871]]]}}]}