{"type": "FeatureCollection", "features": [{"type": "Feature", "properties": {"slug": "lancaster", "members": 18, "country": "United Kingdom", "input_hash": "f1cec298ec3ef1f3"}, "geometry": {"type": "Polygon", "coordinates": [[[-2.9836205, 53.9874247], [-2.9405022, 54.0115091], [-2.9279621, 54.0318278], [-2.9121056, 54.0339194], [-2.9260385, 54.0338263], [-2.9070059, 54.0555235], [-2.9167955, 54.0549963], [-2.9114442, 54.0609187], [-2.9173245, 54.0613971], [-2.8532269, 54.0815514], [-2.8849204, 54.0755271], [-2.8986783, 54.0819538], [-2.875265, 54.1176014], [-2.8802437, 54.1402081], [-2.9048137, 54.1696325], [-2.8777897, 54.1641381], [-2.8785943, 54.1773544], [-2.8372254, 54.1741583], [-2.7989737, 54.1977314], [-2.7682328, 54.1859539], [-2.7343876, 54.1841006], [-2.7364899, 54.1690138], [-2.679842, 54.1611749], [-2.6399641, 54.2020348], [-2.6057519, 54.1943432], [-2.5563613, 54.1989324], [-2.4595507, 54.2395117], [-2.4601145, 54.2279896], [-2.4799554, 54.2023015], [-2.5287191, 54.1695006], [-2.5341349, 54.1575763], [-2.5612903, 54.1511587], [-2.5633275, 54.1226946], [-2.5447622, 54.1171188], [-2.5367642, 54.1040876], [-2.5241067, 54.1021177], [-2.5240075, 54.0946107], [-2.5095239, 54.0954135], [-2.4643659, 54.0752685], [-2.4639881, 54.0610718], [-2.4695479, 54.0462], [-2.4922554, 54.0400622], [-2.4977538, 54.0220174], [-2.5273083, 54.0262333], [-2.5471045, 54.0140653], [-2.5747744, 54.0129268], [-2.5806526, 54.0001063], [-2.5738247, 53.9851618], [-2.5575256, 53.9748998], [-2.6169022, 53.9522002], [-2.6381158, 53.9584374], [-2.6482186, 53.9489092], [-2.7020504, 53.9435432], [-2.7156575, 53.9802339], [-2.735251, 53.9745009], [-2.7414786, 53.9568447], [-2.7553791, 53.952318], [-2.7507818, 53.9566056], [-2.7578721, 53.9630947], [-2.7985015, 53.9751314], [-2.8073837, 53.9620171], [-2.8029355, 53.9511993], [-2.8136499, 53.9458359], [-2.802613, 53.9424959], [-2.8036927, 53.9357411], [-2.8643726, 53.9180664], [-2.8852492, 53.9368259], [-2.8766165, 53.939856], [-2.8796534, 53.945446], [-2.9127695, 53.9633614], [-2.9144085, 53.9760596], [-2.9763613, 53.9744665], [-2.9740608, 53.9846039], [-2.9836205, 53.9874247]]]}}]}