{"type": "FeatureCollection", "features": [{"type": "Feature", "properties": {"slug": "lanzhou", "members": 9, "country": "China", "input_hash": "7a1fc29fa6cf123d"}, "geometry": {"type": "Polygon", "coordinates": [[[103.0188075, 36.2338451], [103.0220602, 36.257157], [102.9914183, 36.2637008], [102.968699, 36.284194], [102.921682, 36.2982091], [102.8949995, 36.332163], [102.8425948, 36.3327307], [102.8280241, 36.3596732], [102.8282008, 36.3669959], [102.8315655, 36.3701965], [102.8126601, 36.3890989], [102.8266314, 36.4088012], [102.8078183, 36.4104742], [102.8091899, 36.421344], [102.7907426, 36.4319482], [102.7903694, 36.4493633], [102.7714275, 36.4546922], [102.7657356, 36.4652737], [102.7913025, 36.4893582], [102.7767461, 36.5025602], [102.7754398, 36.5165099], [102.7507127, 36.5285077], [102.7427814, 36.5423777], [102.7475402, 36.5494992], [102.7338237, 36.5620914], [102.7374628, 36.5710846], [102.76163, 36.5685366], [102.7654557, 36.5745317], [102.7136688, 36.5990317], [102.7229064, 36.6139377], [102.6867023, 36.6182067], [102.6301566, 36.6512274], [102.6064559, 36.6821387], [102.6051146, 36.7040994], [102.5956742, 36.7124012], [102.6117504, 36.7377307], [102.6367974, 36.7318303], [102.692432, 36.7757486], [102.7244635, 36.768345], [102.7265849, 36.7511247], [102.751277, 36.7651861], [102.76726, 36.7674125], [102.7784015, 36.7591496], [102.8002023, 36.7743566], [102.8223418, 36.7582408], [102.837783, 36.7621039], [102.8414966, 36.7810683], [102.8204342, 36.7948027], [102.8382798, 36.8119578], [102.8101576, 36.8353759], [102.8096858, 36.8436286], [102.8664274, 36.8408258], [102.8766404, 36.8571641], [102.8973691, 36.8648148], [102.8948985, 36.8764037], [102.9020127, 36.8779105], [102.8795275, 36.901179], [102.8820461, 36.9072208], [102.918146, 36.9352897], [102.9525862, 36.9276191], [102.9736184, 36.9465315], [103.0669055, 36.9585131], [103.0805764, 36.9445416], [103.1565552, 36.9514751], [103.1782744, 36.946808], [103.1732496, 36.9330894], [103.1817939, 36.9278355], [103.1978309, 36.9292015], [103.2041406, 36.9408645], [103.2292001, 36.9374572], [103.2304203, 36.9468434], [103.257111, 36.9589098], [103.2769384, 36.951597], [103.2461297, 36.9179496], [103.2583311, 36.910511], [103.2781585, 36.9159985], [103.3118651, 36.9070964], [103.3446565, 36.9168522], [103.3449615, 36.8958757], [103.3782105, 36.8783095], [103.3737875, 36.8552478], [103.3949875, 36.8282727], [103.448979, 36.8320571], [103.4683488, 36.8618375], [103.4683488, 36.8748934], [103.5133417, 36.8519527], [103.527831, 36.8602512], [103.5375921, 36.8841653], [103.5160871, 36.9029498], [103.4971748, 36.8958757], [103.4959546, 36.9147791], [103.4880237, 36.9156328], [103.4893964, 36.9245339], [103.4762798, 36.9401391], [103.4532495, 36.93636], [103.4352524, 36.9508657], [103.4257962, 36.9359943], [103.4042911, 36.933678], [103.3991055, 36.9295328], [103.4044437, 36.9229488], [103.3803458, 36.920998], [103.3658565, 36.9075842], [103.3478594, 36.9250217], [103.3477069, 36.9570816], [103.3290996, 36.9579347], [103.3248291, 36.9434304], [103.307137, 36.9496468], [103.3155255, 36.9859606], [103.4152725, 36.9986297], [103.4367775, 36.9959499], [103.4459286, 36.9820619], [103.4976323, 36.9608596], [103.5257256, 36.9750076], [103.5613059, 36.9752054], [103.5443028, 36.9509741], [103.5470451, 36.9423636], [103.5711642, 36.9259769], [103.5905306, 36.8830484], [103.620867, 36.869038], [103.6014591, 36.8489052], [103.6239415, 36.8243305], [103.663653, 36.8162313], [103.6725847, 36.7897278], [103.7094673, 36.7853041], [103.7279297, 36.8053204], [103.7973508, 36.7925616], [103.7894876, 36.8088424], [103.7596137, 36.8287042], [103.7552125, 36.8437629], [103.7669813, 36.8537965], [103.7884888, 36.8299077], [103.8098985, 36.8225928], [103.8130316, 36.8031529], [103.8219089, 36.7977173], [103.8370523, 36.8148593], [103.8558511, 36.8050344], [103.8984095, 36.8052435], [103.9010204, 36.7924902], [103.8853548, 36.7883084], [103.8882268, 36.7740884], [103.9206025, 36.7655133], [103.9179916, 36.7523351], [103.9406653, 36.7423458], [103.9283164, 36.7200006], [103.9151982, 36.7240101], [103.8904182, 36.7111649], [103.913332, 36.6932844], [103.8965516, 36.6720238], [103.9592634, 36.6253198], [103.9488455, 36.6115021], [103.9711955, 36.5846977], [104.0398556, 36.5723615], [104.0260342, 36.5551142], [104.0233337, 36.5413816], [104.0318103, 36.5357173], [104.0191893, 36.5213961], [104.013502, 36.4955945], [104.0395957, 36.481144], [104.0492372, 36.4639899], [104.038117, 36.4426272], [104.0461539, 36.4392855], [104.0464491, 36.4145257], [104.060912, 36.4120568], [104.0662747, 36.3948942], [104.0827061, 36.3811971], [104.0916931, 36.3823882], [104.1054551, 36.3523317], [104.1266926, 36.3382943], [104.1064561, 36.3246776], [104.1109685, 36.306706], [104.127594, 36.3027552], [104.1120284, 36.2588428], [104.1266012, 36.2507317], [104.1326529, 36.2554823], [104.138588, 36.2939944], [104.1601411, 36.3032762], [104.1623067, 36.3232905], [104.1833023, 36.343214], [104.2159083, 36.3368224], [104.2159815, 36.3513666], [104.2246522, 36.3571421], [104.2575712, 36.3626825], [104.2922276, 36.354307], [104.3118289, 36.3646303], [104.3174491, 36.3791587], [104.3443218, 36.3752182], [104.4018394, 36.3900338], [104.4282704, 36.3873484], [104.4399004, 36.3978634], [104.4375784, 36.4091768], [104.4855729, 36.4435486], [104.5039418, 36.4293594], [104.5072268, 36.4095251], [104.4993392, 36.3140556], [104.515368, 36.2879083], [104.5196167, 36.26196], [104.5403803, 36.2497815], [104.5375941, 36.2287168], [104.510439, 36.2142608], [104.5092546, 36.2024737], [104.5277699, 36.1694649], [104.5756464, 36.1677031], [104.5690909, 36.1632914], [104.5695132, 36.143051], [104.558731, 36.1325416], [104.5631926, 36.0977007], [104.536423, 36.0880867], [104.5323332, 36.0742645], [104.5167175, 36.0619426], [104.5233876, 36.0443367], [104.5051968, 36.0383461], [104.4978363, 36.0201754], [104.4827661, 36.0225634], [104.4786585, 35.9930031], [104.4561069, 35.9887291], [104.4382538, 35.9744887], [104.4226226, 35.9167707], [104.4365714, 35.9037429], [104.4364734, 35.8839042], [104.4456721, 35.8750084], [104.4367022, 35.8645529], [104.4190615, 35.8649329], [104.4099765, 35.8529312], [104.3955243, 35.8081375], [104.3984916, 35.7932161], [104.3851386, 35.7710696], [104.3708955, 35.7708289], [104.3548719, 35.7534924], [104.3593229, 35.7412101], [104.3278693, 35.7306122], [104.3139228, 35.6732623], [104.3302431, 35.6607266], [104.3050209, 35.6455364], [104.310362, 35.6045328], [104.2895908, 35.5936754], [104.2815421, 35.5731629], [104.2231673, 35.5819252], [104.225773, 35.5920243], [104.1968193, 35.5954742], [104.2077994, 35.6126103], [104.1754114, 35.6491924], [104.1601541, 35.6441521], [104.1545142, 35.6518722], [104.1575095, 35.6430213], [104.1295274, 35.62052], [104.1132143, 35.6375991], [104.0996493, 35.6369172], [104.0900865, 35.6555424], [104.0660378, 35.6635998], [104.0570685, 35.6822862], [104.0245628, 35.6997909], [104.0175226, 35.7153742], [104.0003202, 35.7150591], [103.9829802, 35.7351565], [103.9179371, 35.755517], [103.8719581, 35.7957319], [103.8639463, 35.797176], [103.8461962, 35.7784178], [103.8462066, 35.8079296], [103.8326303, 35.8205922], [103.8390207, 35.8320665], [103.8336795, 35.8424105], [103.8167747, 35.8470378], [103.7963809, 35.8405588], [103.7938948, 35.8539129], [103.7810786, 35.8487885], [103.7744394, 35.8976222], [103.7642579, 35.8892708], [103.7456951, 35.8951229], [103.7135266, 35.9109526], [103.7147964, 35.9222693], [103.7017337, 35.9287437], [103.691862, 35.92165], [103.6656794, 35.9219337], [103.6616421, 35.9134747], [103.6442441, 35.9316883], [103.6215199, 35.938101], [103.6148874, 35.9606272], [103.6321742, 35.9824721], [103.6176973, 35.997049], [103.6307425, 36.0176024], [103.5953279, 36.0694995], [103.5729055, 36.0633366], [103.5681947, 36.0928378], [103.5366424, 36.1053293], [103.4940652, 36.1086021], [103.493782, 36.1000661], [103.4810585, 36.0985711], [103.4687583, 36.1109605], [103.4430229, 36.0737505], [103.4175026, 36.0714311], [103.4040663, 36.0868667], [103.4121974, 36.1156669], [103.405951, 36.1263956], [103.3441473, 36.1227689], [103.3298802, 36.1393295], [103.3192409, 36.1381483], [103.3121231, 36.1518648], [103.2591101, 36.1458494], [103.2545472, 36.1601679], [103.2034783, 36.1674684], [103.1897818, 36.1802952], [103.1657615, 36.1753357], [103.1555469, 36.1890405], [103.1217795, 36.1950076], [103.1062305, 36.2218654], [103.0961296, 36.2093972], [103.0713165, 36.206948], [103.0454323, 36.2269293], [103.0188075, 36.2338451]], [[102.8428674, 36.3432067], [102.8409432, 36.3663259], [102.8297028, 36.3662787], [102.8428674, 36.3432067]]]}}]}