{"type": "FeatureCollection", "features": [{"type": "Feature", "properties": {"slug": "laquila", "members": 108, "country": "Italy", "input_hash": "face1522470f808d"}, "geometry": {"type": "Polygon", "coordinates": [[[13.1381448, 42.463024], [13.1539049, 42.4626649], [13.1775079, 42.4791514], [13.1711901, 42.4830206], [13.1783257, 42.5131076], [13.1668764, 42.5138144], [13.1567311, 42.5410177], [13.1769988, 42.5536204], [13.1751894, 42.5684881], [13.1931855, 42.57894], [13.1911332, 42.5869966], [13.2268973, 42.5831514], [13.2454116, 42.5727074], [13.2533359, 42.5826934], [13.2793176, 42.5834158], [13.2930391, 42.5695579], [13.324193, 42.5795989], [13.3433096, 42.5747681], [13.3817112, 42.5802449], [13.3945565, 42.5912825], [13.3939916, 42.5826959], [13.4054202, 42.57468], [13.4102145, 42.5398597], [13.4269699, 42.5199815], [13.4765378, 42.4840387], [13.5266213, 42.4733704], [13.5261236, 42.4509768], [13.5529607, 42.4489528], [13.5666678, 42.4594802], [13.6761026, 42.43884], [13.7238863, 42.4436415], [13.7611549, 42.4287807], [13.7885385, 42.392328], [13.8094908, 42.3797136], [13.8137284, 42.3692457], [13.8000197, 42.3668007], [13.8087944, 42.3336346], [13.8253891, 42.3171371], [13.8292426, 42.2952851], [13.8452382, 42.2822073], [13.8433193, 42.2574158], [13.8158465, 42.2527393], [13.8001455, 42.238193], [13.8088826, 42.2285756], [13.8013339, 42.2112242], [13.8116557, 42.1976921], [13.7970197, 42.1838335], [13.8003132, 42.1691466], [13.7901252, 42.1549075], [13.8464278, 42.143692], [13.860044, 42.1603688], [13.8997887, 42.1665448], [13.9112647, 42.1444664], [13.962905, 42.1257097], [14.006947, 42.0741065], [14.0314349, 42.083881], [14.0919867, 42.0850035], [14.1010814, 42.0756398], [14.1049357, 42.0489552], [14.0913845, 42.0417624], [14.0805053, 42.0086336], [14.0908172, 41.9985202], [14.0987869, 41.9461661], [14.0823689, 41.939644], [14.1071464, 41.8943343], [14.1358025, 41.8905636], [14.1841279, 41.9044919], [14.2297358, 41.8770726], [14.21668, 41.8534171], [14.2011129, 41.8513452], [14.195052, 41.8414835], [14.1860986, 41.8484762], [14.1670323, 41.8434251], [14.1480438, 41.8282789], [14.1655438, 41.8104397], [14.1713458, 41.7785927], [14.2019682, 41.7669662], [14.1942081, 41.748123], [14.1787653, 41.7492354], [14.172727, 41.7667455], [14.1595697, 41.7479965], [14.1228237, 41.747453], [14.1161583, 41.7379063], [14.1241704, 41.7270421], [14.1080863, 41.7083311], [14.0952806, 41.7389345], [14.0704681, 41.7382131], [14.0539634, 41.7200129], [14.0533372, 41.7017251], [14.0265751, 41.7030317], [14.0179635, 41.6820382], [13.9925179, 41.6941886], [13.938389, 41.6889796], [13.9195032, 41.7180319], [13.9049644, 41.7183549], [13.8924131, 41.7353928], [13.8814142, 41.7282256], [13.8567719, 41.7313467], [13.8244439, 41.7403736], [13.8122511, 41.7529476], [13.7901978, 41.7429171], [13.7619203, 41.7487462], [13.7284362, 41.7981245], [13.7049134, 41.7875957], [13.6626352, 41.811369], [13.6478285, 41.8112605], [13.6373009, 41.8025401], [13.6428306, 41.7922251], [13.6373146, 41.7870605], [13.5723192, 41.7547609], [13.5208896, 41.7729481], [13.5057577, 41.8013067], [13.4705401, 41.806823], [13.4538499, 41.8222146], [13.4159189, 41.8347831], [13.3977665, 41.834654], [13.3912754, 41.8193313], [13.3788884, 41.8175347], [13.3672909, 41.8318586], [13.3671715, 41.86346], [13.3580079, 41.8696462], [13.3843005, 41.9042389], [13.3646053, 41.9248714], [13.3385244, 41.925805], [13.3054411, 41.9552615], [13.2881273, 41.9508706], [13.2314719, 41.9817053], [13.1994528, 41.9865194], [13.1039201, 42.0261153], [13.0964111, 42.0240854], [13.0981521, 42.0082615], [13.0551188, 42.0161787], [13.0464042, 42.0349884], [13.0269346, 42.0498827], [13.0291238, 42.061827], [13.0194772, 42.0795153], [13.0337466, 42.1081681], [13.0317011, 42.1230864], [13.0607322, 42.1239395], [13.0857497, 42.1431826], [13.0947135, 42.1610188], [13.0879799, 42.1788605], [13.1243399, 42.1779686], [13.1706212, 42.151689], [13.193631, 42.1592319], [13.249698, 42.1284028], [13.2766495, 42.1405803], [13.306208, 42.1392302], [13.3281869, 42.1648317], [13.3548762, 42.1676913], [13.3487065, 42.1768888], [13.3797045, 42.1803709], [13.3408138, 42.2008992], [13.3328089, 42.209153], [13.3419872, 42.2183666], [13.3365299, 42.2233806], [13.2920621, 42.2337583], [13.257565, 42.2657847], [13.239951, 42.2703034], [13.2298538, 42.2881466], [13.2273743, 42.3203084], [13.1542666, 42.3579687], [13.1950762, 42.3901671], [13.1901198, 42.4011934], [13.1560867, 42.4151889], [13.1196491, 42.4442438], [13.1381448, 42.463024]]]}}]}