{"type": "FeatureCollection", "features": [{"type": "Feature", "properties": {"slug": "las-cruces", "members": 1, "country": "United States", "input_hash": "ef220664c3e8fc54"}, "geometry": {"type": "Polygon", "coordinates": [[[-107.2994909, 32.7801713], [-107.29694, 31.7836325], [-106.5281875, 31.7838826], [-106.546801, 31.8073573], [-106.5767551, 31.8103092], [-106.5909252, 31.8238908], [-106.602623, 31.8244395], [-106.6017204, 31.8443399], [-106.6146764, 31.84646], [-106.6357514, 31.8663014], [-106.6294184, 31.8834938], [-106.6457631, 31.8984288], [-106.6129088, 31.9203781], [-106.6298362, 31.9266273], [-106.6143983, 31.9520588], [-106.6252372, 31.9545566], [-106.61947, 31.9721145], [-106.639738, 31.9813236], [-106.6186385, 32.000753], [-106.3769826, 32.0012772], [-106.3765246, 32.9579195], [-106.3408842, 32.9581975], [-106.340506, 33.0528084], [-106.8877992, 32.8228192], [-106.8877159, 32.7792934], [-107.2994909, 32.7801713]]]}}]}