{"type":"FeatureCollection","features":[{"type":"Feature","properties":{"slug":"le-puy-en-velay","member_count":103,"matched_count":103,"unmatched":[],"source":"Overture Maps division_area (CC-BY 4.0)"},"geometry":{"type":"MultiPolygon","coordinates":[[[[-0.1292693,43.1571568],[-0.169922,43.136601],[-0.1916482,43.1469327],[-0.1730074,43.162437],[-0.192488,43.1729117],[-0.1827293,43.1842161],[-0.1652255,43.1827556],[-0.1522956,43.1702466],[-0.1367211,43.179447],[-0.1245672,43.1673127],[-0.1292693,43.1571568]]],[[[1.5853629,43.1909184],[1.615768,43.1983718],[1.6245078,43.1811532],[1.5787122,43.1799835],[1.5853629,43.1909184]]],[[[1.5082164,43.260456],[1.4894749,43.2587785],[1.5161624,43.2845005],[1.5181604,43.2697599],[1.5406711,43.2781714],[1.5082164,43.260456]]],[[[2.2172444,44.0641642],[2.2230572,44.0584007],[2.2087624,44.0494472],[2.2059862,44.0319642],[2.2144624,44.0254726],[2.2032268,44.0170235],[2.1763213,44.0284434],[2.1823814,44.0346768],[2.1773848,44.0455111],[2.1943071,44.0574703],[2.1852906,44.0650069],[2.2067036,44.0575256],[2.2172444,44.0641642]]],[[[3.7589639,44.8162864],[3.7352699,44.8400741],[3.7408859,44.8436173],[3.7339192,44.8475299],[3.7373362,44.8584119],[3.7177987,44.8619439],[3.7175436,44.869093],[3.7013246,44.8770208],[3.6909463,44.8735341],[3.6960814,44.8823087],[3.6882979,44.8838541],[3.6931565,44.8922244],[3.6862276,44.8985575],[3.6592507,44.881316],[3.6453139,44.8848778],[3.6516375,44.8977891],[3.6425151,44.9067753],[3.6553808,44.9079105],[3.6514144,44.9212288],[3.675826,44.9495066],[3.6970683,44.9575752],[3.686683,44.9592545],[3.6798026,44.9747406],[3.6468388,44.9711549],[3.6270877,44.9888252],[3.6258467,45.0038364],[3.6430357,45.0049641],[3.6549849,45.0295142],[3.6823425,45.0401188],[3.6762301,45.0470347],[3.650143,45.048878],[3.6707432,45.0763226],[3.666041,45.086717],[3.6789162,45.1094401],[3.6440241,45.1331173],[3.6587627,45.1438285],[3.648089,45.150055],[3.6499684,45.1607402],[3.6353782,45.1620146],[3.616686,45.191835],[3.6297975,45.1915302],[3.6239875,45.2001492],[3.6401846,45.209363],[3.6251835,45.2100394],[3.6324776,45.2167008],[3.6187111,45.2264974],[3.6319529,45.2400507],[3.6411681,45.230907],[3.660068,45.22975],[3.68033,45.247172],[3.663519,45.251771],[3.6664112,45.2569251],[3.690846,45.246046],[3.741782,45.257824],[3.746233,45.245628],[3.762637,45.245612],[3.750778,45.236081],[3.756876,45.227982],[3.7831538,45.2409584],[3.7765168,45.2508307],[3.7815578,45.2582828],[3.7703507,45.269043],[3.7804957,45.2713923],[3.7750336,45.2876003],[3.744058,45.2916898],[3.7457294,45.3087858],[3.7639786,45.3206813],[3.7628092,45.330531],[3.7521394,45.330439],[3.7489371,45.3396132],[3.757208,45.3573439],[3.7752193,45.3487017],[3.7899919,45.35388],[3.7854029,45.37018],[3.802117,45.391749],[3.82219,45.379859],[3.83624,45.383187],[3.837703,45.365553],[3.846592,45.370533],[3.855011,45.35954],[3.8977074,45.356831],[3.9057545,45.3333339],[3.9195227,45.3419838],[3.9358505,45.3372782],[3.9346571,45.3223198],[3.9431508,45.315889],[3.938276,45.3060022],[3.9576924,45.299392],[3.9372121,45.2966744],[3.9472433,45.2861214],[3.9341704,45.2821541],[3.9315894,45.289406],[3.9189162,45.2720132],[3.9269396,45.2492841],[3.9530226,45.2632484],[3.9724331,45.2616168],[3.9757256,45.2484619],[3.9876002,45.24187],[3.9715079,45.2322884],[3.982156,45.2064303],[4.0159791,45.2086495],[4.0003274,45.1880004],[4.0371807,45.1689452],[4.0201587,45.1410848],[4.0131077,45.1624441],[3.9805864,45.1695677],[3.9339542,45.1683827],[3.9193405,45.1787245],[3.8998737,45.1684155],[3.8649766,45.1714829],[3.8574683,45.1645184],[3.8692729,45.1599039],[3.8680055,45.1388413],[3.8758188,45.1273755],[3.9099732,45.1327326],[3.9373762,45.1226957],[3.9406896,45.1078733],[3.9717861,45.1203186],[3.984851,45.1130544],[3.9935772,45.0947274],[3.9974535,45.1037636],[4.0184779,45.1073877],[4.0296133,45.1010369],[4.0432527,45.1178845],[4.0545356,45.1090594],[4.0748002,45.1206918],[4.0838884,45.115222],[4.0843201,45.1035405],[4.1226172,45.0806351],[4.152457,45.0409282],[4.21103,45.026093],[4.200389,45.016598],[4.207047,44.9996],[4.240579,44.998362],[4.2533,45.019162],[4.283351,45.026723],[4.291485,45.017993],[4.2996563,45.0200754],[4.2904932,44.9962921],[4.3134529,44.9794935],[4.3121328,44.9715831],[4.2530312,44.958842],[4.236155,44.9701813],[4.2271261,44.9658521],[4.2165085,44.9334732],[4.1818464,44.9084487],[4.1812044,44.8898315],[4.1568274,44.8732057],[4.1159402,44.8792148],[4.071109,44.866613],[4.039211,44.873373],[4.023649,44.858961],[4.0203025,44.8457919],[4.028346,44.832778],[4.013626,44.826968],[4.014085,44.836528],[4.005153,44.838097],[4.000401,44.819633],[3.990873,44.834021],[3.980479,44.830928],[3.988914,44.811607],[3.970263,44.81772],[3.962694,44.829595],[3.944641,44.824638],[3.937126,44.795545],[3.926482,44.791007],[3.921894,44.777536],[3.910454,44.778945],[3.9249858,44.7699202],[3.9001385,44.7641972],[3.8927282,44.7509853],[3.8755775,44.7571365],[3.8624809,44.7438482],[3.8352219,44.7482889],[3.8297822,44.7550748],[3.8417031,44.7721788],[3.8313943,44.7767761],[3.8089117,44.7653753],[3.7987121,44.7861031],[3.7719577,44.7969266],[3.7704082,44.8039179],[3.7613943,44.8013878],[3.7589639,44.8162864]],[[3.897855,45.1062495],[3.8494171,45.1158783],[3.8475853,45.1260602],[3.8373171,45.1284203],[3.822056,45.1168243],[3.830996,45.103609],[3.8112572,45.0924516],[3.8244518,45.080084],[3.8061654,45.0616927],[3.8627096,45.058548],[3.8749485,45.0496152],[3.8777102,45.0588694],[3.8913435,45.0558376],[3.8972887,45.0700583],[3.9199058,45.0556018],[3.9246382,45.0622925],[3.9119178,45.0701331],[3.9113315,45.0921606],[3.8990588,45.0939801],[3.897855,45.1062495]],[[3.7865047,45.1408725],[3.7588649,45.1577189],[3.7451813,45.1347856],[3.732726,45.1351146],[3.7238462,45.1249015],[3.7315148,45.1196223],[3.7502737,45.1251694],[3.7621098,45.1134059],[3.7784291,45.1194163],[3.7775843,45.1385279],[3.7865047,45.1408725]],[[3.7882068,45.1092082],[3.7736654,45.0903644],[3.7758826,45.0791688],[3.8035114,45.0847714],[3.8107011,45.0931129],[3.8051928,45.1072024],[3.7882068,45.1092082]],[[4.115366,44.944616],[4.138072,44.935667],[4.150756,44.939122],[4.160625,44.920986],[4.178441,44.91636],[4.17885,44.933941],[4.166202,44.946522],[4.178978,44.964299],[4.194043,44.970627],[4.183407,44.981718],[4.188619,45.000469],[4.141707,45.00829],[4.116265,44.997997],[4.099658,45.00794],[4.059611,44.992846],[4.063157,44.985189],[4.075441,44.988207],[4.103972,44.971632],[4.115366,44.944616]]],[[[-0.3280044,45.2838454],[-0.2981094,45.2894192],[-0.2877116,45.2711613],[-0.3031149,45.2685942],[-0.3280044,45.2838454]]],[[[2.5158269,45.3295489],[2.5316602,45.2921926],[2.5533974,45.2809189],[2.5456238,45.2700918],[2.5206997,45.2800259],[2.5152485,45.2708822],[2.5124926,45.2783012],[2.4637822,45.2962829],[2.4726992,45.3194115],[2.4917077,45.3179507],[2.5158269,45.3295489]]],[[[0.2975833,45.8719715],[0.259278,45.8780415],[0.265611,45.8873571],[0.2582815,45.8995907],[0.2723032,45.9224909],[0.2789767,45.9151091],[0.3063186,45.9141098],[0.3085143,45.9045258],[0.2986636,45.9019823],[0.2933962,45.8878063],[0.2975833,45.8719715]]],[[[1.1471296,46.136218],[1.1352666,46.1213354],[1.1443371,46.1162114],[1.1426153,46.1005781],[1.1210516,46.1095252],[1.0945711,46.1043825],[1.0899225,46.1142615],[1.0678668,46.1162268],[1.0736683,46.1235228],[1.0654514,46.1248115],[1.0852123,46.1545221],[1.1471296,46.136218]]],[[[4.0499387,43.7420791],[4.0272995,43.7249612],[4.0259646,43.7113348],[4.0128618,43.7102145],[4.0020278,43.7204823],[4.0024543,43.7342074],[4.0218714,43.7436904],[4.037527,43.7484004],[4.0499387,43.7420791]]],[[[4.0408958,44.6511094],[4.093884,44.638997],[4.089269,44.625343],[4.0983976,44.6231507],[4.0797876,44.6176236],[4.0736286,44.607075],[4.044332,44.608723],[4.023977,44.582483],[4.0233471,44.5733697],[4.0321566,44.57005],[4.0221706,44.5726347],[3.9907283,44.5943338],[4.0037642,44.6098627],[4.0007779,44.6285075],[4.0371034,44.6295388],[4.0535179,44.6412861],[4.0408958,44.6511094]]]]}}]}