{"type":"FeatureCollection","features":[{"type":"Feature","properties":{"slug":"leeds-bradford","member_count":301,"matched_count":19,"unmatched":["Shearbridge & University (GB-ENG, type='MSOA')","Scholemoor (GB-ENG, type='MSOA')","Ilkley & Ben Rhydding (GB-ENG, type='MSOA')","Idle (GB-ENG, type='MSOA')","Buttershaw (GB-ENG, type='MSOA')","Keighley Central & East (GB-ENG, type='MSOA')","Queensbury (GB-ENG, type='MSOA')","Cottingley, Harden & Wilsden (GB-ENG, type='MSOA')","Bierley & Tong (GB-ENG, type='MSOA')","Barkerend East (GB-ENG, type='MSOA')","Toller Lane & Infirmary (GB-ENG, type='MSOA')","Undercliffe (GB-ENG, type='MSOA')","Allerton (GB-ENG, type='MSOA')","Manningham & Lister Park (GB-ENG, type='MSOA')","Barkerend West & Little Germany (GB-ENG, type='MSOA')","Haworth & Oxenhope (GB-ENG, type='MSOA')","Canterbury (GB-ENG, type='MSOA')","Keighley Oakworth Road & West Lane (GB-ENG, type='MSOA')","Wyke (GB-ENG, type='MSOA')","Chellow Heights (GB-ENG, type='MSOA')","Fairweather Green (GB-ENG, type='MSOA')","Crossflatts & Eldwick (GB-ENG, type='MSOA')","Saltaire & Baildon West (GB-ENG, type='MSOA')","Wrose & Bolton Woods (GB-ENG, type='MSOA')","Horton Bank (GB-ENG, type='MSOA')","Bingley Town (GB-ENG, type='MSOA')","Steeton & Silsden Rural (GB-ENG, type='MSOA')","Holme Top (GB-ENG, type='MSOA')","Baildon South (GB-ENG, type='MSOA')","Girlington (GB-ENG, type='MSOA')","Low Moor (GB-ENG, type='MSOA')","Brown Royd (GB-ENG, type='MSOA')","Riddlesden & East Morton (GB-ENG, type='MSOA')","Windhill (GB-ENG, type='MSOA')","Heaton Highgate (GB-ENG, type='MSOA')","Bolton Road & Kings Road (GB-ENG, type='MSOA')","Cullingworth & Denholme (GB-ENG, type='MSOA')","Laisterdyke & Bowling (GB-ENG, type='MSOA')","Holme Wood (GB-ENG, type='MSOA')","Frizinghall & Heaton Grove (GB-ENG, type='MSOA')","Shipley Town (GB-ENG, type='MSOA')","Keighley Exley Head (GB-ENG, type='MSOA')","Great Horton & Brackenhill (GB-ENG, type='MSOA')","Thackley & Esholt (GB-ENG, type='MSOA')","Keighley Utley (GB-ENG, type='MSOA')","Bowling Park (GB-ENG, type='MSOA')","Ravenscliffe (GB-ENG, type='MSOA')","Haigh Fold (GB-ENG, type='MSOA')","Wibsey St Enoch's (GB-ENG, type='MSOA')","Keighley South (GB-ENG, type='MSOA')","Bankfoot (GB-ENG, type='MSOA')","Central Bradford (GB-ENG, type='MSOA')","Oakworth & Laycock (GB-ENG, type='MSOA')","Baildon North (GB-ENG, type='MSOA')","Broomfields & East Bowling (GB-ENG, type='MSOA')","Menston & Burley Moor (GB-ENG, type='MSOA')","Burley-in-Wharfedale (GB-ENG, type='MSOA')","Addingham & Ilkley Moor (GB-ENG, type='MSOA')","Elland (GB-ENG, type='MSOA')","Northowram & Shelf (GB-ENG, type='MSOA')","Todmorden West & Cornholme (GB-ENG, type='MSOA')","Greetland & Stainland (GB-ENG, type='MSOA')","Sowerby Bridge (GB-ENG, type='MSOA')","Hebden Bridge (GB-ENG, type='MSOA')","Clifton & Bailiff Bridge (GB-ENG, type='MSOA')","Pellon West & Highroad Well (GB-ENG, type='MSOA')","Ripponden, Rishworth & Barkisland (GB-ENG, type='MSOA')","Mytholmroyd & Cragg Vale (GB-ENG, type='MSOA')","Rastrick West (GB-ENG, type='MSOA')","Central Halifax & Boothtown (GB-ENG, type='MSOA')","Southowram & Siddal (GB-ENG, type='MSOA')","Wheatley & Ovenden West (GB-ENG, type='MSOA')","Pellon East (GB-ENG, type='MSOA')","Brighouse (GB-ENG, type='MSOA')","Savile Park (GB-ENG, type='MSOA')","Skircoat Green (GB-ENG, type='MSOA')","Norton Tower & Mount Tabor (GB-ENG, type='MSOA')","King Cross (GB-ENG, type='MSOA')","Sowerby & Luddendenfoot (GB-ENG, type='MSOA')","Hipperholme (GB-ENG, type='MSOA')","Illingworth & Ogden (GB-ENG, type='MSOA')","Rastrick East (GB-ENG, type='MSOA')","Ovenden East (GB-ENG, type='MSOA')","Todmorden East & Walsden (GB-ENG, type='MSOA')","Mixenden (GB-ENG, type='MSOA')","Holmfirth, New Mill & Hepworth (GB-ENG, type='MSOA')","Heckmondwike North (GB-ENG, type='MSOA')","Dewsbury Savile Town & Thornhill Lees (GB-ENG, type='MSOA')","Earlsheaton & Chickenley (GB-ENG, type='MSOA')","Denby Dale, Cumberworth & Clayton West (GB-ENG, type='MSOA')","North Lindley & Birchencliffe (GB-ENG, type='MSOA')","Cleckheaton (GB-ENG, type='MSOA')","Honley & Brockholes (GB-ENG, type='MSOA')","Aspley, Longley & University (GB-ENG, type='MSOA')","Heckmondwike Town, Norristhorpe & Roberttown (GB-ENG, type='MSOA')","Wilton Park, Carlinghow & Brookroyd (GB-ENG, type='MSOA')","Birkenshaw (GB-ENG, type='MSOA')","Crosland Moor (GB-ENG, type='MSOA')","Staincliffe & Healey (GB-ENG, type='MSOA')","Deighton & Brackenhall (GB-ENG, type='MSOA')","Dewsbury Central & Westborough (GB-ENG, type='MSOA')","Huddersfield Leeds Road & Fartown (GB-ENG, type='MSOA')","Batley Carr & Mount Pleasant (GB-ENG, type='MSOA')","Dewsbury Moor Lower & Westtown (GB-ENG, type='MSOA')","Upperthong & Holmbridge (GB-ENG, type='MSOA')","Cowcliffe & South Fixby (GB-ENG, type='MSOA')","Slaithwaite & Linthwaite (GB-ENG, type='MSOA')","Mirfield Central & Hopton (GB-ENG, type='MSOA')","Upper Batley & Soothill (GB-ENG, type='MSOA')","Batley Central (GB-ENG, type='MSOA')","Gomersal (GB-ENG, type='MSOA')","Paddock & Greenhead (GB-ENG, type='MSOA')","Kirkburton & Farnley Tyas (GB-ENG, type='MSOA')","Longwood & Quarmby (GB-ENG, type='MSOA')","Hightown & Hartshead Moor (GB-ENG, type='MSOA')","Cowlersley & Milnsbridge (GB-ENG, type='MSOA')","Lepton, Grange Moor & Flockton (GB-ENG, type='MSOA')","Oakes & South Lindley (GB-ENG, type='MSOA')","Scholes & Hunsworth (GB-ENG, type='MSOA')","Emley & Skelmanthorpe (GB-ENG, type='MSOA')","Golcar (GB-ENG, type='MSOA')","Edgerton & Marsh (GB-ENG, type='MSOA')","Marsden & Pole Moor (GB-ENG, type='MSOA')","Dewsbury Moor Upper (GB-ENG, type='MSOA')","Northorpe & Crossley (GB-ENG, type='MSOA')","Liversedge, Littletown & Millbridge (GB-ENG, type='MSOA')","Shaw Cross & Hanging Heaton (GB-ENG, type='MSOA')","Scapegoat Hill, Outlane & West Golcar (GB-ENG, type='MSOA')","Rawthorpe (GB-ENG, type='MSOA')","Kirkheaton (GB-ENG, type='MSOA')","Primrose Hill, Newsome & Berry Brow (GB-ENG, type='MSOA')","Shelley & Shepley (GB-ENG, type='MSOA')","Netherton & South Crosland (GB-ENG, type='MSOA')","Dalton Long Lane (GB-ENG, type='MSOA')","Almondbury & Waterloo (GB-ENG, type='MSOA')","Moldgreen & Ravensknowle Park (GB-ENG, type='MSOA')","Bradley & North Fixby (GB-ENG, type='MSOA')","Hyde Park Corner & Woodhouse Cliff (GB-ENG, type='MSOA')","Woodhouse & Little London (GB-ENG, type='MSOA')","Far Headingley & Weetwood (GB-ENG, type='MSOA')","East End Park & Richmond Hill (GB-ENG, type='MSOA')","Chapel Allerton South & Chapeltown (GB-ENG, type='MSOA')","Robin Hood, Lofthouse & Middleton Lane (GB-ENG, type='MSOA')","University & Little Woodhouse (GB-ENG, type='MSOA')","Armley & New Wortley (GB-ENG, type='MSOA')","Leeds City Centre (GB-ENG, type='MSOA')","Horsforth South & Rawdon (GB-ENG, type='MSOA')","Pudsey South West (GB-ENG, type='MSOA')","Cross Gates East & Manston (GB-ENG, type='MSOA')","Holbeck (GB-ENG, type='MSOA')","Bramley South & Upper Armley (GB-ENG, type='MSOA')","Lincoln Green & St James (GB-ENG, type='MSOA')","Morley East (GB-ENG, type='MSOA')","Drighlington & Gildersome West (GB-ENG, type='MSOA')","Calverley & Farsley North (GB-ENG, type='MSOA')","Whinmoor (GB-ENG, type='MSOA')","Rothwell Outer (GB-ENG, type='MSOA')","Headingley (GB-ENG, type='MSOA')","Lady Wood & Oakwood (GB-ENG, type='MSOA')","Beeston East (GB-ENG, type='MSOA')","Horsforth East (GB-ENG, type='MSOA')","Morley Bruntcliffe & Woodkirk (GB-ENG, type='MSOA')","Carr Manor (GB-ENG, type='MSOA')","Middleton Park Avenue (GB-ENG, type='MSOA')","Beeston West & Cottingley (GB-ENG, type='MSOA')","Bramley East (GB-ENG, type='MSOA')","Hyde Park (GB-ENG, type='MSOA')","Hawksworth & West Park (GB-ENG, type='MSOA')","Middleton Town Street (GB-ENG, type='MSOA')","Hollin Park & Fearnville (GB-ENG, type='MSOA')","Farsley South, Stanningley & Pudsey North West (GB-ENG, type='MSOA')","Leeds Dock, Hunslet & Stourton (GB-ENG, type='MSOA')","Cross Flats Park & Garnets (GB-ENG, type='MSOA')","Otley South (GB-ENG, type='MSOA')","Gipton North (GB-ENG, type='MSOA')","Moortown (GB-ENG, type='MSOA')","Primley Park & Wigton Moor (GB-ENG, type='MSOA')","Woodlesford & Oulton (GB-ENG, type='MSOA')","Guiseley North & West (GB-ENG, type='MSOA')","Gipton South & Killingbeck Park (GB-ENG, type='MSOA')","Pudsey North East (GB-ENG, type='MSOA')","Methley (GB-ENG, type='MSOA')","Burmantofts (GB-ENG, type='MSOA')","Morley North & Gildersome East (GB-ENG, type='MSOA')","Boston Spa & Bramham (GB-ENG, type='MSOA')","Pudsey South East (GB-ENG, type='MSOA')","Collingham, Rigton & Harewood (GB-ENG, type='MSOA')","Harehills North (GB-ENG, type='MSOA')","Temple Newsam & Graveleythorpe (GB-ENG, type='MSOA')","New Pudsey (GB-ENG, type='MSOA')","Wetherby East & Thorp Arch (GB-ENG, type='MSOA')","Kippax East, Micklefield & Allerton Bywater (GB-ENG, type='MSOA')","Guiseley East & South (GB-ENG, type='MSOA')","Swarcliffe (GB-ENG, type='MSOA')","Garforth East (GB-ENG, type='MSOA')","New Farnley & Lower Wortley (GB-ENG, type='MSOA')","Harehills South (GB-ENG, type='MSOA')","Kippax West (GB-ENG, type='MSOA')","Cross Gates West & Killingbeck (GB-ENG, type='MSOA')","Chapel Allerton North (GB-ENG, type='MSOA')","Bramhope & Pool-in-Wharfedale (GB-ENG, type='MSOA')","Wetherby West (GB-ENG, type='MSOA')","Garforth South, Swillington & Little Preston (GB-ENG, type='MSOA')","Tingley East & East Ardsley (GB-ENG, type='MSOA')","Kirkstall (GB-ENG, type='MSOA')","Meanwood (GB-ENG, type='MSOA')","Morley Central (GB-ENG, type='MSOA')","Beeston Hill & Hunslet Moor (GB-ENG, type='MSOA')","Rothwell Inner (GB-ENG, type='MSOA')","Horsforth West (GB-ENG, type='MSOA')","Halton Moor (GB-ENG, type='MSOA')","Bramley Fall (GB-ENG, type='MSOA')","Moor Allerton (GB-ENG, type='MSOA')","Otley North (GB-ENG, type='MSOA')","Lawnswood & Ireland Wood (GB-ENG, type='MSOA')","Aberford, Barwick & Thorner (GB-ENG, type='MSOA')","Farnley East (GB-ENG, type='MSOA')","Osmondthorpe & Neville Hill (GB-ENG, type='MSOA')","Churwell (GB-ENG, type='MSOA')","Meanwood South & Sugarwell (GB-ENG, type='MSOA')","Belle Isle North (GB-ENG, type='MSOA')","Garforth West (GB-ENG, type='MSOA')","Rodley & Stanningley Park (GB-ENG, type='MSOA')","Adel (GB-ENG, type='MSOA')","Tingley West & West Ardsley (GB-ENG, type='MSOA')","Tinshill (GB-ENG, type='MSOA')","Farnley West & Gamble Hill (GB-ENG, type='MSOA')","Cookridge & Holt Park (GB-ENG, type='MSOA')","Gledhow (GB-ENG, type='MSOA')","Bramley Park South (GB-ENG, type='MSOA')","Roundhay West (GB-ENG, type='MSOA')","Seacroft South (GB-ENG, type='MSOA')","Seacroft North & Monkswood (GB-ENG, type='MSOA')","Yeadon South (GB-ENG, type='MSOA')","Roundhay Park & Slaid Hill (GB-ENG, type='MSOA')","Yeadon East (GB-ENG, type='MSOA')","Belle Isle South (GB-ENG, type='MSOA')","Colton, Austhorpe & Whitkirk (GB-ENG, type='MSOA')","Yeadon West (GB-ENG, type='MSOA')","Scarcroft, Shadwell & Scholes (GB-ENG, type='MSOA')","Bramley Park North (GB-ENG, type='MSOA')","Streethouse & Sharlston Common (GB-ENG, type='MSOA')","Ackworth & Darrington (GB-ENG, type='MSOA')","Lupset (GB-ENG, type='MSOA')","Alverthorpe & Flanshaw (GB-ENG, type='MSOA')","Pontefract North East (GB-ENG, type='MSOA')","Castleford West (GB-ENG, type='MSOA')","Normanton West (GB-ENG, type='MSOA')","Pontefract North West (GB-ENG, type='MSOA')","Wakefield Central (GB-ENG, type='MSOA')","Ossett North (GB-ENG, type='MSOA')","Ossett South East & Horbury Bridge (GB-ENG, type='MSOA')","Agbrigg & Belle Isle (GB-ENG, type='MSOA')","Ferry Fryston (GB-ENG, type='MSOA')","Castleford Town (GB-ENG, type='MSOA')","Outwood West (GB-ENG, type='MSOA')","Hemsworth Town (GB-ENG, type='MSOA')","Ferrybridge & West Knottingley (GB-ENG, type='MSOA')","Wakefield St John's (GB-ENG, type='MSOA')","Wrenthorpe & Kirkhamgate (GB-ENG, type='MSOA')","Eastmoor (GB-ENG, type='MSOA')","Normanton East (GB-ENG, type='MSOA')","Airedale (GB-ENG, type='MSOA')","Pontefract South West (GB-ENG, type='MSOA')","Ossett West (GB-ENG, type='MSOA')","Glasshoughton (GB-ENG, type='MSOA')","South Kirkby (GB-ENG, type='MSOA')","Kettlethorpe & Chapelthorpe (GB-ENG, type='MSOA')","Stanley, Moorhouse & Bottomboat (GB-ENG, type='MSOA')","Durkar & Crigglestone (GB-ENG, type='MSOA')","Kinsley & Fitzwilliam (GB-ENG, type='MSOA')","Pontefract South East (GB-ENG, type='MSOA')","Ryhill & South Hiendley (GB-ENG, type='MSOA')","Walton, Woolley & Bretton (GB-ENG, type='MSOA')","Knottingley (GB-ENG, type='MSOA')","Horbury (GB-ENG, type='MSOA')","Outwood East (GB-ENG, type='MSOA')","Thornes (GB-ENG, type='MSOA')","Sandal (GB-ENG, type='MSOA')","Altofts (GB-ENG, type='MSOA')","Netherton & Middlestown (GB-ENG, type='MSOA')","Moorthorpe (GB-ENG, type='MSOA')"],"source":"Overture Maps division_area (CC-BY 4.0)"},"geometry":{"type":"MultiPolygon","coordinates":[[[[-4.2582904,50.8540609],[-4.2620596,50.8400793],[-4.2842788,50.835498],[-4.3293605,50.8389736],[-4.331673,50.8487601],[-4.2743778,50.8672218],[-4.2582904,50.8540609]]],[[[-3.4155388,51.0277223],[-3.4211258,51.0330105],[-3.4141959,51.0445489],[-3.4666276,51.0468391],[-3.4619987,51.0523695],[-3.4691462,51.0567993],[-3.4384498,51.0709988],[-3.4287566,51.0876008],[-3.4154777,51.0819276],[-3.4046786,51.088259],[-3.4171926,51.0782183],[-3.4002377,51.0653163],[-3.4023536,51.0545764],[-3.3915292,51.0502307],[-3.3945732,51.0390156],[-3.4155388,51.0277223]]],[[[-3.206145,51.5368586],[-3.206596,51.5427006],[-3.1896635,51.5460241],[-3.1827872,51.535531],[-3.206145,51.5368586]]],[[[-5.0415673,51.7324514],[-5.0360346,51.7293249],[-5.0426402,51.7314148],[-5.0415673,51.7324514]]],[[[-2.0827869,52.6488718],[-2.0915236,52.6332035],[-2.1114057,52.6350446],[-2.1182512,52.6376926],[-2.1184648,52.6527322],[-2.1008917,52.6584156],[-2.0827869,52.6488718]]],[[[-1.8835159,53.5669585],[-1.9043087,53.5837158],[-1.9050586,53.5949023],[-1.8896005,53.5972952],[-1.8768522,53.6098547],[-1.8512899,53.6075975],[-1.8477972,53.6147343],[-1.8189445,53.6078577],[-1.8298913,53.6003047],[-1.8132535,53.5822927],[-1.8387195,53.5707734],[-1.8835159,53.5669585]]],[[[-1.7002705,53.6754387],[-1.7246972,53.6842839],[-1.7272936,53.6873063],[-1.7002891,53.6963337],[-1.6924366,53.6885237],[-1.7002705,53.6754387]]],[[[-2.4685613,53.7153629],[-2.4454695,53.7142232],[-2.4326269,53.7041865],[-2.4426077,53.6966611],[-2.4698178,53.7086061],[-2.4685613,53.7153629]]],[[[-1.8522626,53.7745945],[-1.8350633,53.7874824],[-1.7988677,53.7936299],[-1.7990876,53.7831934],[-1.812862,53.7745827],[-1.8522626,53.7745945]]],[[[-1.9762057,53.9268692],[-1.9630724,53.9334166],[-1.9704627,53.9426441],[-1.9620658,53.9433988],[-1.9661823,53.9515409],[-1.9441094,53.9561184],[-1.8611184,53.9064557],[-1.9197598,53.8862506],[-1.9338633,53.8995054],[-1.952414,53.9035135],[-1.953226,53.9116974],[-1.9762057,53.9268692]]],[[[-1.7362486,50.8045524],[-1.7408317,50.8497993],[-1.7071904,50.8662457],[-1.6350393,50.8572722],[-1.6517209,50.8241493],[-1.6887685,50.7844853],[-1.7362486,50.8045524]]],[[[-1.0476397,52.3267584],[-1.0334949,52.3395358],[-1.0471631,52.3496112],[-1.0306589,52.3509362],[-1.0208952,52.3426384],[-1.0081192,52.3472441],[-1.0077982,52.3294102],[-0.9890054,52.3314922],[-0.9995485,52.3268574],[-0.9932126,52.3205248],[-1.021785,52.3171572],[-1.0476397,52.3267584]]],[[[-1.1433785,52.6879935],[-1.122192,52.6925405],[-1.1261641,52.6844897],[-1.1005978,52.6817859],[-1.1282588,52.6650923],[-1.1433785,52.6879935]]],[[[-1.5131706,53.4514052],[-1.5329259,53.4382977],[-1.5512116,53.4461285],[-1.5513831,53.4554377],[-1.5390464,53.4616981],[-1.561132,53.4839918],[-1.5530223,53.4876444],[-1.5643055,53.4915025],[-1.5444223,53.5073974],[-1.5085038,53.5114312],[-1.5135036,53.5005451],[-1.4947334,53.4811069],[-1.514814,53.4636489],[-1.5131706,53.4514052]]],[[[-1.247207,53.6006874],[-1.3078169,53.5753489],[-1.3141203,53.5824636],[-1.2853411,53.5997553],[-1.252197,53.6070951],[-1.247207,53.6006874]]],[[[-1.475757,53.6664496],[-1.4206479,53.6683782],[-1.4056098,53.6485491],[-1.4461148,53.6530163],[-1.475757,53.6664496]]],[[[-1.5852953,53.8851646],[-1.5662596,53.8908128],[-1.5314349,53.8797222],[-1.525939,53.8744768],[-1.5363119,53.8706363],[-1.5288897,53.8639141],[-1.5332183,53.8511061],[-1.5750667,53.8553501],[-1.5883787,53.8687804],[-1.5815321,53.8703278],[-1.5852953,53.8851646]]],[[[-1.4889984,54.4251031],[-1.4663999,54.4126527],[-1.4433749,54.4164393],[-1.4421229,54.406731],[-1.4652322,54.4004286],[-1.488275,54.4052116],[-1.4983891,54.4201977],[-1.4889984,54.4251031]]],[[[-1.0033161,54.5029925],[-1.0029417,54.5333268],[-1.0204841,54.5343409],[-0.9426517,54.5540205],[-0.9475331,54.5602059],[-0.9406498,54.5623558],[-0.9184863,54.5552378],[-0.9054649,54.5617758],[-0.9199279,54.5300556],[-0.8942017,54.4963557],[-0.952935,54.4880223],[-1.0033161,54.5029925]]]]}}]}