{"type": "FeatureCollection", "features": [{"type": "Feature", "properties": {"slug": "leiden", "members": 8, "country": "Netherlands", "input_hash": "a6ca0bd070931300"}, "geometry": {"type": "Polygon", "coordinates": [[[4.550062176112961, 52.13805869858198], [4.5419053, 52.1186602], [4.5353228, 52.1204325], [4.5371347, 52.083946], [4.5305552, 52.0805107], [4.5044497, 52.0932903], [4.4918145, 52.0900316], [4.4708259, 52.1177081], [4.5132128, 52.1399741], [4.4729755, 52.1189516], [4.467615944753003, 52.13093225605284], [4.4279027, 52.1014702], [4.4011591, 52.11187], [4.4439394, 52.1460413], [4.4388652, 52.1532645], [4.4480362811682115, 52.161782727303255], [4.4404782, 52.155653], [4.4115952, 52.1634792], [4.3600018, 52.1926774], [4.4776495, 52.3325109], [4.5637074, 52.309298], [4.513325021487089, 52.25501449626094], [4.5265942, 52.2472528], [4.5249227, 52.2355612], [4.5584331, 52.2187985], [4.5542922, 52.2122469], [4.5617027, 52.2036536], [4.5467677, 52.1989756], [4.537674575724262, 52.18010099803609], [4.5505415, 52.1635974], [4.5623999, 52.1661189], [4.5704674, 52.1428582], [4.5601214, 52.1319033], [4.550062176112961, 52.13805869858198]], [[4.4490006, 52.1626784], [4.4541706, 52.1711405], [4.4484296459867245, 52.16214808999886], [4.4490006, 52.1626784]], [[4.478599053258935, 52.1795853594745], [4.478597, 52.179586], [4.4685092, 52.173482], [4.478599053258935, 52.1795853594745]], [[4.492720616070218, 52.17570670064401], [4.4965816, 52.1796218], [4.496651805915409, 52.179934018005824], [4.492720616070218, 52.17570670064401]], [[4.4975622, 52.1839827], [4.5035464, 52.1846213], [4.495256, 52.1839389], [4.4975622, 52.1839827]], [[4.518488, 52.174216], [4.5183687, 52.1821163], [4.531798437112529, 52.17994618777383], [4.518359016242184, 52.18217012654941], [4.518488, 52.174216]], [[4.5150808, 52.1710159], [4.515132719738553, 52.1707735457279], [4.518488, 52.174216], [4.5150808, 52.1710159]], [[4.5208208, 52.156551], [4.5240721, 52.1474052], [4.525787908287627, 52.145829902770075], [4.5208208, 52.156551]], [[4.531213449105181, 52.14206915281183], [4.528587853868715, 52.1432592504719], [4.529721, 52.1422189], [4.531213449105181, 52.14206915281183]], [[4.5467493, 52.1400859], [4.546081719691321, 52.14014826631759], [4.547574893521975, 52.139580706234405], [4.5467493, 52.1400859]], [[4.4692987, 52.1339305], [4.46926788959058, 52.13397413395875], [4.4691147001485785, 52.13360265883487], [4.4692987, 52.1339305]], [[4.5161945, 52.1658173], [4.5146993, 52.1610171], [4.514733907260717, 52.16099185137024], [4.5161945, 52.1658173]], [[4.49036546751619, 52.20344511139364], [4.4867285, 52.204185], [4.4880325, 52.202923], [4.49036546751619, 52.20344511139364]], [[4.4916185, 52.2031902], [4.491557909184768, 52.203202526327814], [4.493439, 52.1949673], [4.4916185, 52.2031902]], [[4.4877641, 52.1905212], [4.487811803210587, 52.19045770906697], [4.493439, 52.1949673], [4.4877641, 52.1905212]], [[4.489719454758258, 52.181697051640235], [4.4912011, 52.1859467], [4.4895252, 52.1816982], [4.489719454758258, 52.181697051640235]], [[4.464119868990581, 52.215917245211514], [4.46580660403832, 52.21700859464738], [4.4640821, 52.2159643], [4.464119868990581, 52.215917245211514]], [[4.4665196, 52.2129609], [4.4662538068578135, 52.213258662245856], [4.466500967834581, 52.21295073483489], [4.4665196, 52.2129609]], [[4.463683987989999, 52.20023852016188], [4.4634715, 52.2002016], [4.463452272542779, 52.200166816609475], [4.463683987989999, 52.20023852016188]], [[4.448250179728303, 52.17617798747833], [4.4480932, 52.1771805], [4.447058161820453, 52.17746991986323], [4.448250179728303, 52.17617798747833]], [[4.4453842, 52.1677951], [4.4486563, 52.1735844], [4.448462250896378, 52.1748236469926], [4.4453842, 52.1677951]], [[4.470100086112541, 52.21970912569082], [4.4703581, 52.2198127], [4.4691074, 52.2205461], [4.470100086112541, 52.21970912569082]]]}}]}