{"type":"FeatureCollection","features":[{"type":"Feature","properties":{"slug":"lens","member_count":221,"matched_count":220,"unmatched":["Lambres (FR-HDF, type='Commune')"],"source":"Overture Maps division_area (CC-BY 4.0)"},"geometry":{"type":"MultiPolygon","coordinates":[[[[-1.2575033,46.5247119],[-1.2479781,46.5068189],[-1.2597852,46.5025534],[-1.2789875,46.5159726],[-1.2762793,46.5303909],[-1.2841277,46.5371289],[-1.2818479,46.5400812],[-1.2519324,46.5445617],[-1.2575033,46.5247119]]],[[[1.6143481,49.0275102],[1.6074776,49.0316016],[1.6208661,49.039672],[1.6180542,49.0442817],[1.6282465,49.0479185],[1.6429028,49.038984],[1.6143481,49.0275102]]],[[[1.7892666,49.0557636],[1.7728172,49.0419342],[1.7494448,49.0534579],[1.7597427,49.0634207],[1.7892666,49.0557636]]],[[[1.5475687,50.1015117],[1.5356994,50.1179636],[1.540764,50.1262264],[1.5576322,50.1259349],[1.5614549,50.1165417],[1.5475687,50.1015117]]],[[[2.530671,50.4150663],[2.4712627,50.4110807],[2.4395442,50.4224419],[2.4184803,50.4205205],[2.4400022,50.4595903],[2.426326,50.4664189],[2.4241891,50.4807185],[2.448742,50.4940164],[2.43352,50.5122897],[2.4200027,50.5098133],[2.4130915,50.5184153],[2.3905352,50.51068],[2.3587179,50.5496563],[2.357195,50.5409198],[2.3342757,50.5363822],[2.3164721,50.5501741],[2.324329,50.5799398],[2.3042577,50.5881341],[2.3076105,50.5977843],[2.2992297,50.6106583],[2.3337715,50.6268545],[2.3646626,50.627549],[2.3901372,50.6228191],[2.3826652,50.6116331],[2.3903378,50.6057954],[2.4262941,50.6160943],[2.4307569,50.6188764],[2.4214084,50.6279811],[2.4317839,50.631335],[2.4731856,50.6386247],[2.4969036,50.6306947],[2.5327064,50.64351],[2.5454659,50.6251677],[2.5643286,50.624697],[2.5664777,50.6333454],[2.59128,50.6383919],[2.5950198,50.6314705],[2.6147049,50.634781],[2.6141379,50.6273599],[2.6307247,50.6176018],[2.6749619,50.6256485],[2.6744763,50.6377611],[2.7237274,50.6268405],[2.7189258,50.5961377],[2.7440424,50.603712],[2.7172797,50.5824851],[2.69264,50.6028054],[2.6553601,50.5912604],[2.68389,50.5784854],[2.7106978,50.5518367],[2.7264257,50.5503444],[2.7835649,50.5642948],[2.7482963,50.6130759],[2.7573727,50.6187258],[2.7524728,50.6277303],[2.760671,50.6252683],[2.759437,50.6353948],[2.7857956,50.628266],[2.7921929,50.6337462],[2.7587988,50.6507857],[2.763252,50.6595657],[2.8098646,50.6690307],[2.8392019,50.6575563],[2.869635,50.6311789],[2.8428706,50.6297079],[2.8062853,50.606781],[2.789132,50.583226],[2.8078376,50.5792837],[2.8165014,50.564489],[2.8106696,50.5578034],[2.8151868,50.5502813],[2.794358,50.5493385],[2.7996669,50.5280505],[2.8264502,50.5254882],[2.8871231,50.53788],[2.8905085,50.5293794],[2.880024,50.5155883],[2.8914784,50.5012601],[2.9672757,50.5116356],[3.0308113,50.4803746],[3.0202619,50.481082],[3.0187356,50.4667401],[3.0068782,50.4574853],[3.0195431,50.4525285],[3.0163962,50.4420825],[3.0376743,50.4416259],[3.0675283,50.4585871],[3.0656297,50.4474656],[3.0815403,50.4439712],[3.1230998,50.466811],[3.1668202,50.4594044],[3.175088,50.4710964],[3.1670386,50.4726413],[3.1677939,50.4796637],[3.2026855,50.5021955],[3.2007692,50.5140582],[3.2514799,50.5242908],[3.2527198,50.5153546],[3.2756496,50.5062449],[3.3344711,50.5079789],[3.3331511,50.4889234],[3.3620458,50.466405],[3.3260768,50.4516744],[3.31031,50.4565125],[3.3228414,50.4430178],[3.3242376,50.4269103],[3.3523904,50.4191678],[3.3440877,50.4149812],[3.3562479,50.391696],[3.3541638,50.3749709],[3.3459836,50.3712929],[3.3502454,50.3611083],[3.3421411,50.3459054],[3.2996776,50.3442532],[3.2720664,50.3344255],[3.2744259,50.3257287],[3.2643208,50.3262299],[3.2640931,50.3178231],[3.2397767,50.3173706],[3.229955,50.3025233],[3.2470091,50.3009837],[3.2549458,50.2922688],[3.2521955,50.279714],[3.230224,50.2765361],[3.2272919,50.268485],[3.2358344,50.2653546],[3.2055398,50.2582915],[3.16528,50.2572649],[3.0485436,50.2780286],[3.0337298,50.26606],[3.0180249,50.2646908],[3.0107054,50.2690065],[3.0157409,50.2840445],[3.0547906,50.2822862],[3.0587054,50.2930979],[3.0891991,50.2873994],[3.0958899,50.3009802],[3.0648211,50.3230611],[3.0495099,50.3442445],[3.0082361,50.358161],[2.9947364,50.3828474],[2.9494382,50.3786319],[2.9399807,50.3893741],[2.9475812,50.394211],[2.9381209,50.4008004],[2.9122946,50.4121658],[2.89095,50.4106744],[2.8885786,50.4189405],[2.8498501,50.4072392],[2.8537079,50.392819],[2.8443322,50.3843278],[2.8534897,50.3782112],[2.8060252,50.3620932],[2.7614929,50.3801972],[2.7236524,50.3662737],[2.6692796,50.3716235],[2.666899,50.3620043],[2.6365947,50.3897587],[2.5551276,50.3866991],[2.530671,50.4150663]],[[2.8797445,50.4711838],[2.8581399,50.4610545],[2.8649243,50.4499537],[2.9115616,50.4686853],[2.8797445,50.4711838]],[[2.6265959,50.5122671],[2.6028271,50.4898362],[2.6158586,50.4883503],[2.6341475,50.5038454],[2.6265959,50.5122671]],[[2.747889,50.4393],[2.76,50.4427833],[2.7534986,50.4571328],[2.7292619,50.4580388],[2.747889,50.4393]]],[[[2.9589131,47.5575187],[2.9692785,47.5445783],[2.9739998,47.511682],[2.9451996,47.4934428],[2.9132299,47.520287],[2.9101434,47.5387286],[2.9198048,47.5529242],[2.9096969,47.5619455],[2.9589131,47.5575187]]],[[[2.882285,50.3934386],[2.9171377,50.3876325],[2.9339566,50.3756963],[2.9120433,50.364317],[2.9020713,50.3765021],[2.8627976,50.3824042],[2.882285,50.3934386]]],[[[5.0974713,45.6704332],[5.074069,45.6417222],[5.0728997,45.6504211],[5.0538619,45.6605295],[5.0821119,45.6778044],[5.0974713,45.6704332]]],[[[5.1057836,48.0129892],[5.0868348,48.0033618],[5.0843326,47.9895348],[5.0603205,47.9868973],[5.0457199,47.9938972],[5.038284,47.9868324],[5.0070749,47.9848648],[5.0103202,47.9973775],[5.0353128,47.998737],[5.0456595,48.0076574],[5.0368337,48.0120147],[5.0466218,48.0155843],[5.0492924,48.0270612],[5.0356755,48.0367669],[5.0415696,48.0414649],[5.0538942,48.0395874],[5.0648829,48.025822],[5.0767712,48.03836],[5.0921592,48.0398049],[5.0885065,48.0166111],[5.1057836,48.0129892]]],[[[3.3491685,49.8491754],[3.3182895,49.8477191],[3.3105618,49.8639932],[3.3520454,49.8670039],[3.3491685,49.8491754]]],[[[3.2866869,49.983192],[3.3055365,49.9731445],[3.2776774,49.9525968],[3.2548066,49.9795121],[3.262988,49.9741509],[3.2653001,49.9829331],[3.2866869,49.983192]]]]}}]}