{"type":"FeatureCollection","features":[{"type":"Feature","properties":{"slug":"leon","member_count":210,"matched_count":210,"unmatched":[],"source":"Overture Maps division_area (CC-BY 4.0)"},"geometry":{"type":"MultiPolygon","coordinates":[[[[-6.5255875,42.2033962],[-6.6128563,42.2032408],[-6.6386521,42.2172844],[-6.7037962,42.2093614],[-6.721144,42.2139497],[-6.7429915,42.2401728],[-6.7590913,42.238664],[-6.7843185,42.253618],[-6.7669968,42.2574577],[-6.7650346,42.2727399],[-6.7411458,42.2986635],[-6.7339533,42.3591114],[-6.7665424,42.3650491],[-6.7786457,42.3809931],[-6.8208043,42.3856442],[-6.8435127,42.4058458],[-6.8312848,42.4083538],[-6.820961,42.4214131],[-6.8248067,42.4258948],[-6.81438,42.4271163],[-6.8217811,42.4332983],[-6.8227684,42.4529126],[-6.8083154,42.4686118],[-6.8254727,42.4857056],[-6.8227819,42.4908559],[-6.8332855,42.4923143],[-6.8372305,42.5060754],[-6.8305602,42.5130161],[-6.8135222,42.5054366],[-6.8031031,42.526448],[-6.8502122,42.5293603],[-6.8758689,42.5419083],[-6.8835537,42.5559481],[-6.9298283,42.5382913],[-6.9349586,42.5191884],[-6.9605098,42.5174964],[-6.9735527,42.493999],[-7.0009565,42.5056986],[-7.028685,42.4978647],[-7.0421813,42.5070143],[-7.0715811,42.505923],[-7.077073,42.5080058],[-7.0594356,42.5305813],[-7.0708221,42.5377164],[-7.0639166,42.5485641],[-7.0695185,42.5540143],[-7.0571432,42.5576145],[-7.0562135,42.5665249],[-7.0335349,42.5840859],[-7.050166,42.597941],[-7.0470048,42.6327004],[-7.0178263,42.6452181],[-7.0043512,42.6428769],[-7.0214799,42.6519417],[-7.0126354,42.6577988],[-7.0155132,42.6645948],[-7.0451918,42.6947654],[-7.0105927,42.7236351],[-6.9901944,42.7266087],[-6.9837397,42.7186942],[-6.9728844,42.7250054],[-6.9728182,42.7379194],[-6.9594828,42.7550302],[-6.9362189,42.7407518],[-6.9014851,42.7612828],[-6.8907821,42.7772874],[-6.8674305,42.7871737],[-6.8692584,42.8007978],[-6.8403212,42.8233648],[-6.8439675,42.8287076],[-6.8327563,42.8442066],[-6.7979792,42.8351964],[-6.7797913,42.808202],[-6.7425999,42.8004482],[-6.7451064,42.7734239],[-6.7302042,42.775489],[-6.689184,42.7608555],[-6.6864986,42.7796345],[-6.6655799,42.7907335],[-6.6469355,42.7805339],[-6.6458416,42.810183],[-6.699256,42.8367577],[-6.699826,42.8594026],[-6.7206956,42.8882203],[-6.7566694,42.8830575],[-6.7231924,42.9173776],[-6.6118628,42.9250103],[-6.6058031,42.917366],[-6.5465669,42.9121534],[-6.5105764,42.9287333],[-6.4897696,42.920249],[-6.4785868,42.9335648],[-6.4331016,42.9397568],[-6.441611,42.9473076],[-6.4336383,42.96416],[-6.4730114,42.9677518],[-6.4781355,42.9912046],[-6.4464392,42.9821701],[-6.4371976,42.9930311],[-6.4241643,42.9876779],[-6.4075767,42.9994886],[-6.4111068,43.0169323],[-6.3943519,43.0166118],[-6.3970473,43.0383217],[-6.3735461,43.0411068],[-6.3590877,43.0595769],[-6.3331562,43.0464878],[-6.3264927,43.0313299],[-6.2951665,43.0269069],[-6.2851906,43.0363693],[-6.2637014,43.0160771],[-6.2268082,43.0089126],[-6.229842,43.0230311],[-6.2155598,43.0472004],[-6.1784013,43.0477984],[-6.1366674,43.0209929],[-6.0969011,43.0306401],[-6.0898158,43.0381523],[-6.0918501,43.0669239],[-6.0812883,43.0758955],[-6.0209282,43.0537855],[-5.9963264,43.0579183],[-5.9889451,43.067222],[-5.9738401,43.0653075],[-5.962159,43.0529438],[-5.9696569,43.040835],[-5.9567714,43.0183292],[-5.9182092,43.0018235],[-5.9134143,42.9924413],[-5.8871864,42.994087],[-5.8891502,42.9790271],[-5.8639107,42.9813818],[-5.8431315,42.9642785],[-5.7663861,42.9687201],[-5.7603831,42.9721489],[-5.7665113,42.9860846],[-5.7282629,43.0424911],[-5.6933491,43.0564809],[-5.6367043,43.0350051],[-5.574772,43.0321003],[-5.5697814,43.0220762],[-5.5401868,43.0183531],[-5.5062924,43.0285739],[-5.4938019,43.0212425],[-5.4785232,43.054909],[-5.3904507,43.0493368],[-5.3831036,43.0872369],[-5.3697809,43.0948099],[-5.3438858,43.0940523],[-5.3411985,43.0842956],[-5.3263812,43.0788595],[-5.3114985,43.0841588],[-5.2821211,43.0774279],[-5.268217,43.0875838],[-5.2140814,43.085443],[-5.1478028,43.1151191],[-5.1406787,43.1029163],[-5.1017354,43.1018464],[-5.0939932,43.142599],[-5.0784543,43.1604684],[-5.0766263,43.1789492],[-5.0594707,43.174333],[-5.040895,43.1846826],[-5.0214603,43.1835133],[-4.9976207,43.1702612],[-4.9964135,43.1853247],[-4.9803465,43.2002869],[-4.9074139,43.2381879],[-4.8710096,43.2280161],[-4.8608237,43.2053162],[-4.8395525,43.1896611],[-4.8517354,43.1728722],[-4.8345665,43.1574627],[-4.8513916,43.1259163],[-4.8358066,43.1162913],[-4.8328062,43.1026612],[-4.7664974,43.0745466],[-4.7661589,43.0556238],[-4.741765,43.0553821],[-4.7323649,43.0470303],[-4.7422979,43.0321809],[-4.738945,43.0180319],[-4.7575383,43.0149037],[-4.7949914,42.9868595],[-4.7958494,42.973888],[-4.8072412,42.9677783],[-4.8026481,42.9495089],[-4.8092362,42.930325],[-4.8377966,42.9067333],[-4.837808,42.8957334],[-4.855501,42.8917074],[-4.8652675,42.8610275],[-4.8982175,42.8631417],[-4.9002054,42.8516858],[-4.8885569,42.8411343],[-4.9028605,42.8099737],[-4.8958777,42.7851721],[-4.9090887,42.7794325],[-4.920622,42.7574652],[-4.9355604,42.7564573],[-4.9363601,42.7444669],[-4.9184631,42.7342319],[-4.9158921,42.72056],[-4.8905585,42.7232592],[-4.8716687,42.7079904],[-4.8905747,42.6928303],[-4.9002953,42.6701204],[-4.8946559,42.6238638],[-4.9048039,42.6031365],[-4.9025145,42.5779597],[-4.9159517,42.5547542],[-4.9104544,42.541437],[-4.8879867,42.5370277],[-4.8999994,42.4506824],[-4.9239853,42.4361432],[-4.9099242,42.4339111],[-4.9049849,42.4245555],[-4.9148274,42.4144492],[-4.9143152,42.4011924],[-4.903396,42.3856505],[-4.9333021,42.3847986],[-4.9448282,42.3764714],[-4.9644972,42.3797381],[-4.9834872,42.3424519],[-4.9424971,42.3465492],[-4.953448,42.297156],[-4.9735025,42.2886893],[-5.0383501,42.2971273],[-5.0416039,42.2675577],[-5.0548093,42.2575236],[-5.0681919,42.2611914],[-5.0621896,42.277888],[-5.0751498,42.2788879],[-5.0937539,42.309295],[-5.1120022,42.311842],[-5.1443163,42.2815504],[-5.1827199,42.2642099],[-5.1979054,42.2605425],[-5.2203141,42.2779238],[-5.2284519,42.2624651],[-5.2302992,42.2756495],[-5.2364993,42.2733493],[-5.253927,42.2419058],[-5.2259937,42.2267242],[-5.2414834,42.2145167],[-5.265644,42.2108986],[-5.2869252,42.2299282],[-5.3018744,42.2221541],[-5.3074619,42.1992662],[-5.3612345,42.2251519],[-5.38375,42.2242626],[-5.3892466,42.2090635],[-5.3802258,42.197886],[-5.3888746,42.172544],[-5.3795944,42.1633351],[-5.3715239,42.1300641],[-5.38048,42.1098136],[-5.3763941,42.0995148],[-5.3901171,42.0898096],[-5.3731367,42.0640638],[-5.3762938,42.0414661],[-5.4143388,42.0299997],[-5.4386758,42.0315019],[-5.4809234,42.0524251],[-5.4770927,42.0564614],[-5.4984627,42.083672],[-5.5270038,42.1042996],[-5.5433633,42.0993814],[-5.5494541,42.0703297],[-5.5606975,42.0559678],[-5.5777216,42.0654476],[-5.5866065,42.0509109],[-5.5885022,42.0773262],[-5.6350426,42.0819939],[-5.6201374,42.106659],[-5.6433927,42.1310437],[-5.6675565,42.1420652],[-5.6871775,42.1379238],[-5.6767685,42.1203364],[-5.7433502,42.1131131],[-5.7562602,42.1367594],[-5.7767066,42.135809],[-5.8056261,42.1244306],[-5.8064925,42.1305542],[-5.8448507,42.1107156],[-5.8692664,42.1221743],[-5.8848238,42.1384528],[-5.8809973,42.1453211],[-5.8974262,42.1561006],[-5.9116012,42.1405855],[-5.9481205,42.1419214],[-5.9534678,42.123683],[-5.9956702,42.146191],[-6.049305,42.1598608],[-6.1247092,42.158866],[-6.1372712,42.1647184],[-6.1434066,42.1588231],[-6.160213,42.1657722],[-6.2123951,42.1480766],[-6.2258186,42.1619547],[-6.2538425,42.1670233],[-6.2531268,42.1727227],[-6.2937319,42.1780333],[-6.312585,42.2065851],[-6.4098396,42.1956819],[-6.4278951,42.2019418],[-6.4422138,42.1935342],[-6.4598607,42.1971449],[-6.477835,42.182263],[-6.4971471,42.1820623],[-6.5255875,42.2033962]],[[-6.009438,42.3153541],[-6.0204881,42.3231409],[-6.0207833,42.3163793],[-6.009438,42.3153541]],[[-6.6819356,42.5065282],[-6.684389,42.5138552],[-6.6584715,42.5316867],[-6.6470715,42.5190665],[-6.6596227,42.5045112],[-6.6651811,42.4788603],[-6.6521284,42.4740462],[-6.6432311,42.4800204],[-6.6354476,42.4594772],[-6.6237249,42.4632705],[-6.6141825,42.4460227],[-6.5876348,42.4307844],[-6.5725564,42.4114277],[-6.5555211,42.4030615],[-6.5215954,42.4027864],[-6.4967033,42.3862245],[-6.4762799,42.3876748],[-6.4682486,42.4046039],[-6.487331,42.4115161],[-6.4923632,42.4257611],[-6.4402337,42.4413054],[-6.4271016,42.4383675],[-6.4078995,42.4642346],[-6.4159822,42.4782209],[-6.4475305,42.4825337],[-6.5179309,42.5295828],[-6.5434589,42.536656],[-6.5513427,42.5524303],[-6.5415514,42.5644845],[-6.5507174,42.5744563],[-6.5359356,42.5845127],[-6.5515973,42.5862967],[-6.5497141,42.6035534],[-6.5633641,42.6069469],[-6.5803374,42.6032204],[-6.6013366,42.6127002],[-6.6264533,42.590945],[-6.6436785,42.5958543],[-6.6607711,42.5762019],[-6.6529983,42.5726595],[-6.649668,42.5531727],[-6.6999165,42.5531526],[-6.705595,42.5400478],[-6.7141113,42.5393125],[-6.7052102,42.5193507],[-6.7119971,42.5106086],[-6.6819356,42.5065282]],[[-5.8756053,42.3475626],[-5.8696208,42.3505042],[-5.8689228,42.3613099],[-5.873563,42.356556],[-5.8756053,42.3475626]],[[-6.0987125,42.6094888],[-6.0862314,42.603404],[-6.0900063,42.6168813],[-6.0987125,42.6094888]],[[-5.3017577,42.2692381],[-5.3285072,42.2741488],[-5.3453427,42.267769],[-5.3413086,42.2327395],[-5.3033252,42.2519972],[-5.3017577,42.2692381]]],[[[-7.9427864,43.0677726],[-7.9265674,43.0321241],[-7.9396461,43.0195671],[-7.9593514,43.0229171],[-7.9873624,43.0097409],[-8.0241059,42.9855956],[-8.0402387,43.0048435],[-8.0856983,43.0155208],[-8.1026767,43.027916],[-8.1009497,43.0427588],[-8.0668631,43.0452393],[-8.0519738,43.0328544],[-8.0349175,43.0476974],[-8.040624,43.0612826],[-8.0290311,43.0685911],[-8.0304989,43.0753151],[-8.0416766,43.0817848],[-8.0491433,43.077525],[-8.0700604,43.1171996],[-8.0576724,43.1140673],[-8.0474939,43.094487],[-8.0236012,43.0968157],[-8.0142291,43.0900026],[-7.961022,43.1328582],[-7.9567605,43.1250129],[-7.942329,43.1296905],[-7.9165999,43.0883353],[-7.9427864,43.0677726]]]]}}]}