{"type": "FeatureCollection", "features": [{"type": "Feature", "properties": {"slug": "lezhe", "members": 1, "country": "Albania", "input_hash": "189c0daeadac2be7"}, "geometry": {"type": "Polygon", "coordinates": [[[19.5342973, 41.8523886], [19.5199646, 41.8402167], [19.5748902, 41.8101165], [19.591478, 41.8128274], [19.6008194, 41.7991284], [19.5996871, 41.7694907], [19.5774126, 41.767727], [19.5767108, 41.7511633], [19.569343, 41.7491681], [19.5824515, 41.7088888], [19.5705372, 41.6610292], [19.5782387, 41.6706446], [19.644206, 41.6778444], [19.6724416, 41.689096], [19.6964129, 41.6850017], [19.7108029, 41.6982249], [19.7471513, 41.7105974], [19.7213419, 41.7704401], [19.7253944, 41.8017705], [19.7164272, 41.8389923], [19.7674825, 41.8402718], [19.8064876, 41.8273414], [19.8530451, 41.8484821], [19.8493809, 41.8630707], [19.8358429, 41.8618989], [19.8356953, 41.888447], [19.8592808, 41.9151882], [19.8637318, 41.939756], [19.8516876, 41.9489945], [19.7986717, 41.9448892], [19.8002132, 41.9530162], [19.7883826, 41.9545351], [19.7768861, 41.9422802], [19.7531387, 41.9472308], [19.7376502, 41.9392575], [19.7487233, 41.9339165], [19.7565926, 41.9128819], [19.724806, 41.8897313], [19.6998473, 41.9313084], [19.6843059, 41.9369107], [19.6691097, 41.9203493], [19.6413472, 41.9101502], [19.6131785, 41.9178724], [19.6114658, 41.9231436], [19.6240095, 41.9268267], [19.6220435, 41.9395498], [19.5954821, 41.9483631], [19.5794082, 41.9405899], [19.5619037, 41.9441813], [19.5715694, 41.9215487], [19.5640205, 41.9155528], [19.5696454, 41.8905269], [19.5582217, 41.8838895], [19.5140831, 41.9015159], [19.4859827, 41.9240749], [19.4747767, 41.9226691], [19.4610996, 41.9037247], [19.4642765, 41.8871332], [19.5342973, 41.8523886]]]}}]}