{"type":"FeatureCollection","features":[{"type":"Feature","properties":{"slug":"lhasa","member_count":8,"matched_count":2,"unmatched":["Du\u012bl\u00f3ngd\u00e9q\u00ecng Q\u016b [Doilungd\u00eaq\u00ean; incl. L\u0101s\u00e0 Economic and Technological Development Zone] (CN-XZ, type='District')","L\u00ednzh\u014du Xi\u00e0n [Lh\u00fcnzhub] (CN-XZ, type='County')","M\u00f2zh\u00fag\u014dngk\u0103 Xi\u00e0n [Maizhokunggar] (CN-XZ, type='County')","D\u0101ngxi\u00f3ng Xi\u00e0n [Damxung] (CN-XZ, type='County')","D\u00e1z\u012b Q\u016b [Dagz\u00ea; incl. D\u00e1z\u012b Industrial Park] (CN-XZ, type='District')","N\u00edm\u00f9 Xi\u00e0n [Ny\u00eamo] (CN-XZ, type='County')"],"source":"Overture Maps division_area (CC-BY 4.0)"},"geometry":{"type":"MultiPolygon","coordinates":[[[[102.1698341,22.5143357],[102.1600979,22.5163286],[102.1686067,22.5182967],[102.1698341,22.5143357]]],[[[91.2670326,29.6545306],[91.2792103,29.5964246],[91.3009358,29.5714394],[91.2832413,29.5479774],[91.2831258,29.5323918],[91.2743282,29.5224216],[91.2558746,29.5200316],[91.2463045,29.5274255],[91.2275504,29.5213387],[91.2169932,29.5289566],[91.1887979,29.5197702],[91.1856222,29.5121517],[91.1741638,29.5135335],[91.1609029,29.5328026],[91.1564826,29.5606914],[91.1118293,29.6072114],[91.1060893,29.6474071],[91.0164994,29.6182487],[91.0228926,29.6477568],[91.0440338,29.6597866],[91.026578,29.6764736],[91.041258,29.708397],[91.0133667,29.7263811],[91.0273395,29.7642431],[91.013875,29.7805815],[91.0974311,29.7712319],[91.1115073,29.7881425],[91.1221503,29.7844924],[91.1521052,29.8032628],[91.1703872,29.791569],[91.1924886,29.7904144],[91.2109422,29.7384455],[91.2319278,29.7283839],[91.2457465,29.6934213],[91.2784266,29.6814536],[91.2670326,29.6545306]]]]}}]}