{"type": "FeatureCollection", "features": [{"type": "Feature", "properties": {"slug": "lindi", "members": 1, "country": "Tanzania", "input_hash": "c46426dbfdb152b0"}, "geometry": {"type": "Polygon", "coordinates": [[[39.7535992, -9.8930458], [39.7595516, -9.8899848], [39.7707873, -9.892475], [39.7837531, -9.8866249], [39.7983174, -9.8669491], [39.7980814, -9.8341801], [39.7865372, -9.811631], [39.7597017, -9.7806737], [39.677347, -9.7766387], [39.6077805, -9.7966055], [39.6384584, -9.8433819], [39.6699806, -9.863168], [39.6686594, -9.8693018], [39.6288365, -9.8656215], [39.5202348, -9.8785866], [39.4794625, -9.8938003], [39.3900423, -9.9097237], [39.4166833, -9.9536628], [39.4665783, -9.9835112], [39.4783301, -10.0784316], [39.5432756, -10.0830349], [39.5450536, -10.0966702], [39.6376522, -10.1489259], [39.6711642, -10.1070141], [39.6679922, -10.1341369], [39.6738625, -10.1372768], [39.6920103, -10.101598], [39.7250374, -10.0902015], [39.7620827, -10.0925879], [39.782496, -10.11568], [39.7874583, -10.1060594], [39.7996207, -10.0643375], [39.8075686, -9.98274], [39.7643629, -9.9746914], [39.7415775, -9.9794252], [39.7280216, -9.9965293], [39.7188297, -9.9962308], [39.7054066, -9.9722188], [39.7141948, -9.9536247], [39.744485, -9.9427811], [39.7498132, -9.9320891], [39.7659051, -9.9354286], [39.786762, -9.925373], [39.7857994, -9.9109685], [39.7719274, -9.8958447], [39.7535992, -9.8930458]]]}}]}