{"type": "FeatureCollection", "features": [{"type": "Feature", "properties": {"slug": "linhares", "members": 1, "country": "Brazil", "input_hash": "a769b7959efcba52"}, "geometry": {"type": "Polygon", "coordinates": [[[-40.0842841, -19.2348354], [-40.0855491, -19.2240433], [-40.1112148, -19.2107141], [-40.1201442, -19.2122772], [-40.1173541, -19.2296784], [-40.1484443, -19.2166851], [-40.156542, -19.1933753], [-40.1917933, -19.1923852], [-40.1933895, -19.220926], [-40.1814611, -19.2433063], [-40.2035073, -19.3419115], [-40.2727532, -19.3687495], [-40.2738537, -19.3619924], [-40.2973909, -19.3558266], [-40.3025796, -19.31508], [-40.3252478, -19.3755627], [-40.3377723, -19.3683721], [-40.3357057, -19.3567766], [-40.3500386, -19.351915], [-40.3553638, -19.35711], [-40.365974, -19.3517042], [-40.3808204, -19.3703825], [-40.3859671, -19.3657655], [-40.3943649, -19.3716906], [-40.3975714, -19.3486667], [-40.4049343, -19.3477791], [-40.4153451, -19.3239741], [-40.4348363, -19.3183245], [-40.417046, -19.3018176], [-40.4216244, -19.2950382], [-40.4107893, -19.2681264], [-40.4226679, -19.2668016], [-40.4285954, -19.2572353], [-40.440591, -19.2694167], [-40.4374628, -19.2884502], [-40.4461888, -19.2907535], [-40.4547808, -19.2790832], [-40.4720719, -19.293789], [-40.4894442, -19.2881994], [-40.4904505, -19.2981357], [-40.5074557, -19.3072775], [-40.5088982, -19.3194267], [-40.5288791, -19.3371681], [-40.5293232, -19.3454075], [-40.5153323, -19.3431613], [-40.4926582, -19.3711821], [-40.4800659, -19.3645532], [-40.472567, -19.3745721], [-40.4776317, -19.383966], [-40.454311, -19.4026227], [-40.4564207, -19.4180842], [-40.4335169, -19.4346679], [-40.4450174, -19.4500321], [-40.4348102, -19.4633567], [-40.431361, -19.4931124], [-40.4165788, -19.5087954], [-40.3923689, -19.5101519], [-40.3756585, -19.5312164], [-40.3682069, -19.5504323], [-40.3888569, -19.5630688], [-40.3892602, -19.5751398], [-40.3721844, -19.5954033], [-40.3743503, -19.6421361], [-40.3586376, -19.6702136], [-40.3409433, -19.6661124], [-40.3445828, -19.6519974], [-40.3341131, -19.6417243], [-40.3192083, -19.6551863], [-40.3102753, -19.6534445], [-40.296042, -19.6419857], [-40.2974924, -19.6313936], [-40.2813629, -19.6188557], [-40.2729441, -19.6230683], [-40.2561214, -19.5984216], [-40.224127, -19.5831377], [-40.2033403, -19.5829587], [-40.1999923, -19.5718476], [-40.167183, -19.5532545], [-40.1527508, -19.5580135], [-40.1379528, -19.5510837], [-40.1092287, -19.5538026], [-40.066297, -19.5852807], [-40.0487763, -19.5849235], [-40.0313081, -19.6069237], [-39.9115652, -19.6871169], [-39.8436785, -19.6593601], [-39.8114481, -19.6539665], [-39.7294486, -19.4656009], [-39.6959531, -19.3587451], [-39.6888721, -19.2923499], [-39.7190224, -19.0969727], [-39.7224942, -19.1397145], [-39.7514862, -19.158614], [-39.8348018, -19.1402404], [-39.8404886, -19.1257306], [-39.8716807, -19.1149249], [-39.8769418, -19.0985116], [-39.8849007, -19.0966483], [-39.883057, -19.0842978], [-39.8731168, -19.0815408], [-39.8776066, -19.0494641], [-39.9282067, -19.0607878], [-39.9744298, -19.0221656], [-39.9788095, -19.0079319], [-40.0025586, -18.9950484], [-40.0234807, -19.0385909], [-39.9904921, -19.0462729], [-40.0347284, -19.0613999], [-40.0882799, -19.1695589], [-40.0526646, -19.1744586], [-40.0374768, -19.1849024], [-40.0842841, -19.2348354]]]}}]}