{"type": "FeatureCollection", "features": [{"type": "Feature", "properties": {"slug": "lira", "members": 1, "country": "Uganda", "input_hash": "d925e0e0dc1070bf"}, "geometry": {"type": "Polygon", "coordinates": [[[33.0134925, 2.3097634], [32.9973212, 2.3316976], [32.9980671, 2.3469023], [32.9801262, 2.3594392], [32.982475, 2.3960081], [33.0259797, 2.4443834], [33.0122691, 2.4956179], [33.0014439, 2.4991916], [33.0128798, 2.5075783], [33.0061277, 2.5321239], [32.9877442, 2.5302203], [32.9982919, 2.553599], [32.9847912, 2.5597737], [32.9775893, 2.5516218], [32.9544024, 2.5501911], [32.9557654, 2.5623305], [32.9392535, 2.5640441], [32.9599248, 2.5934968], [32.9517047, 2.5966058], [32.9536796, 2.6050578], [32.9319033, 2.5916448], [32.9380489, 2.6114731], [32.9197074, 2.6062776], [32.9147149, 2.5944693], [32.8853186, 2.6015246], [32.8915128, 2.6188606], [32.8868388, 2.6141099], [32.8852433, 2.6209206], [32.8729868, 2.6194758], [32.8756363, 2.6252258], [32.8508655, 2.6245198], [32.8578069, 2.6494442], [32.8203738, 2.6490568], [32.8106459, 2.6398632], [32.8157033, 2.6217759], [32.7968373, 2.6008223], [32.7975382, 2.5906433], [32.7863156, 2.5873571], [32.7972213, 2.5625177], [32.7911686, 2.5339373], [32.7985207, 2.502569], [32.8253972, 2.5194546], [32.8358239, 2.4948563], [32.8657915, 2.5072457], [32.8827963, 2.4474183], [32.901799, 2.4348352], [32.9210747, 2.3867235], [32.910397, 2.335273], [32.859603, 2.3245069], [32.850289, 2.301062], [32.8391053, 2.3048484], [32.8319332, 2.3192778], [32.8104207, 2.3255513], [32.8189271, 2.3019418], [32.8104885, 2.2481643], [32.8224097, 2.2307409], [32.8210787, 2.2189432], [32.8652081, 2.2052686], [32.8670246, 2.1939507], [32.9148538, 2.1725213], [32.9247495, 2.1325141], [32.8969496, 2.1100059], [32.8989708, 2.1013912], [32.8730063, 2.0845794], [32.8942326, 2.07127], [32.9263703, 2.0783882], [32.937939, 2.0597758], [32.9770544, 2.0672227], [32.9966361, 2.0416644], [33.0434186, 2.010885], [33.0536728, 2.015725], [33.0598558, 2.0378091], [33.0852235, 2.0649497], [33.1159497, 2.068069], [33.1348583, 2.084253], [33.1352651, 2.1310904], [33.1032997, 2.1656932], [33.1397028, 2.1759108], [33.1516984, 2.190385], [33.1245291, 2.2293626], [33.1036631, 2.2367259], [33.1162841, 2.2660312], [33.0967067, 2.2886145], [33.0933557, 2.3084293], [33.0615074, 2.3034107], [33.0560872, 2.3289715], [33.0258811, 2.3226857], [33.0134925, 2.3097634]]]}}]}