{"type":"FeatureCollection","features":[{"type":"Feature","properties":{"slug":"liuzhou","member_count":10,"matched_count":8,"unmatched":["R\u00f3ngshu\u012d Mi\u00e1oz\u00fa Z\u00eczh\u00ecxi\u00e0n (CN-GX, type='Autonomous County')","S\u0101nji\u0101ng D\u00f2ngz\u00fa Z\u00eczh\u00ecxi\u00e0n (CN-GX, type='Autonomous County')"],"source":"Overture Maps division_area (CC-BY 4.0)"},"geometry":{"type":"Polygon","coordinates":[[[109.5417713,24.065919],[109.4985398,24.0529185],[109.4805998,24.0037287],[109.489637,24.0050008],[109.4999191,23.9912371],[109.4861313,23.9651303],[109.459086,23.9675626],[109.4663243,23.9554747],[109.4397965,23.9447235],[109.4388089,23.9199533],[109.4247233,23.9207324],[109.4192147,23.9089871],[109.3801906,23.9170967],[109.3590884,23.9096216],[109.3547029,23.9147596],[109.3616158,23.92069],[109.3534476,23.9240083],[109.3506562,23.9401546],[109.3399784,23.9401167],[109.3437044,23.955528],[109.3244953,23.9636042],[109.3203847,23.9904254],[109.2912116,24.0028311],[109.2974476,24.0346945],[109.2869848,24.0451048],[109.2213351,24.0592583],[109.2121636,24.0519264],[109.2152972,24.0218467],[109.1819431,24.017394],[109.1690012,24.0279374],[109.1425768,24.0253361],[109.1302156,24.0620172],[109.0927047,24.0667212],[109.1028687,24.0829424],[109.0953087,24.093125],[109.0540936,24.0931074],[109.0505218,24.1086448],[109.0260733,24.1282526],[108.9953482,24.1351235],[108.9716575,24.1223076],[108.9588618,24.1458921],[108.9597477,24.1682209],[108.9533373,24.1745742],[108.9362533,24.1725926],[108.9283373,24.1872002],[108.9336516,24.1960467],[108.9289505,24.2279633],[108.9374461,24.2413825],[108.9120237,24.2709199],[108.9212597,24.3190142],[108.9293945,24.3240722],[108.9215301,24.3332605],[108.9285967,24.3466835],[108.9196331,24.3661676],[108.9288533,24.3701202],[108.9286666,24.3821915],[108.9649367,24.3801333],[108.9740491,24.3917864],[108.9957217,24.3770251],[108.9975841,24.3944389],[109.0097342,24.4030858],[108.999035,24.4245745],[109.0157362,24.434531],[109.0167822,24.4429813],[109.0350553,24.4423928],[109.0446109,24.4600001],[109.0286294,24.4677831],[109.026623,24.4827288],[108.9935262,24.4847565],[108.9884543,24.4920427],[108.9577346,24.4880275],[108.955704,24.4751627],[108.9343704,24.4750954],[108.9143907,24.5035313],[108.8858494,24.5071733],[108.8928311,24.5193971],[108.8729291,24.5265593],[108.8589477,24.5156995],[108.8525849,24.5317899],[108.8325264,24.5349673],[108.8455971,24.5527099],[108.8397291,24.5625106],[108.8470754,24.5741166],[108.8865979,24.5803632],[108.9112015,24.5953131],[108.9060171,24.6088878],[108.8959522,24.6103478],[108.8973334,24.6243324],[108.936611,24.648078],[108.9592154,24.6470829],[108.9589813,24.6628601],[108.9740529,24.6754527],[108.9504785,24.6893357],[108.9517419,24.7060371],[108.9301955,24.7208447],[108.9292028,24.7330755],[108.9364965,24.7422749],[108.9524108,24.734872],[108.9691329,24.7411152],[108.949674,24.7475026],[108.9525615,24.7531437],[108.9640575,24.7492002],[108.960979,24.7593667],[108.9895518,24.758819],[109.0326993,24.827512],[109.0513848,24.8208431],[109.0613441,24.8304162],[109.0931549,24.8340205],[109.0892199,24.8206798],[109.0969772,24.8009703],[109.1084856,24.8102658],[109.1118876,24.8003734],[109.1287497,24.7951048],[109.1545247,24.8208596],[109.2186174,24.8262405],[109.2295953,24.8676997],[109.2403957,24.877518],[109.2331337,24.8880042],[109.244364,24.8996251],[109.2327183,24.9102129],[109.2419077,24.9615877],[109.2719337,24.9651591],[109.2737823,24.9825095],[109.3053515,25.0089975],[109.3114661,25.0214236],[109.3016099,25.0302404],[109.3163214,25.0534105],[109.3233028,25.0864436],[109.2996528,25.1036388],[109.335653,25.1174735],[109.3319916,25.1385815],[109.3142561,25.1526712],[109.3145374,25.1636763],[109.3416236,25.1848011],[109.3196626,25.1988359],[109.3045618,25.1961645],[109.297193,25.2111594],[109.2839099,25.2141172],[109.2865977,25.2227846],[109.3236474,25.2308987],[109.3252655,25.2459035],[109.343874,25.253347],[109.3819278,25.2955345],[109.3770728,25.3134375],[109.3626489,25.3100851],[109.3451951,25.3298503],[109.363839,25.3405769],[109.3553629,25.3710926],[109.3656309,25.3796269],[109.4078634,25.3772314],[109.4178877,25.3874134],[109.4311326,25.3847547],[109.4392712,25.3636203],[109.4478564,25.372312],[109.4727074,25.3713653],[109.4902426,25.4186319],[109.5065814,25.4254568],[109.5008175,25.4370588],[109.535248,25.4859942],[109.5623,25.4857288],[109.5819458,25.5125872],[109.5937544,25.5062089],[109.6135023,25.5202349],[109.6468036,25.5656998],[109.6537814,25.5519799],[109.6808349,25.5689413],[109.6888494,25.5605348],[109.724397,25.5637761],[109.7400196,25.5783106],[109.7371421,25.553973],[109.772332,25.5403203],[109.7797495,25.5098062],[109.7706058,25.5042652],[109.7749792,25.4927755],[109.7616176,25.473638],[109.7618355,25.4312092],[109.743667,25.4306903],[109.7610184,25.4202217],[109.7472576,25.3935231],[109.7584604,25.3875546],[109.758604,25.3782119],[109.7507764,25.3847648],[109.7427649,25.3804409],[109.7445722,25.2998881],[109.7127599,25.2479053],[109.7118541,25.2236932],[109.6742244,25.1817834],[109.6484626,25.1773691],[109.640838,25.1676711],[109.6466619,25.1444151],[109.6349478,25.1280023],[109.6575197,25.1006594],[109.6567885,25.0860104],[109.6463623,25.0736047],[109.6434887,25.0404903],[109.6309756,25.0235184],[109.6414909,25.0249493],[109.6454233,25.0051888],[109.6388905,24.9955106],[109.646554,24.989134],[109.6297998,24.9937974],[109.6229352,24.9829848],[109.6162766,24.9852623],[109.6116428,24.9645262],[109.6278348,24.940729],[109.6134437,24.9388789],[109.6269775,24.8924064],[109.618101,24.8910839],[109.6258247,24.8833018],[109.6177269,24.8717388],[109.6262799,24.8675886],[109.6152949,24.8396333],[109.6524742,24.8349873],[109.6602078,24.8474457],[109.652654,24.8575095],[109.661227,24.8591414],[109.7123049,24.8449976],[109.7139235,24.8373811],[109.7282517,24.8412983],[109.7302301,24.8291656],[109.7526516,24.8302538],[109.7613445,24.8214937],[109.8034898,24.8155626],[109.8108637,24.8298185],[109.833525,24.833083],[109.849352,24.8089238],[109.8701548,24.8184466],[109.8829843,24.812733],[109.8902982,24.7930328],[109.882085,24.7861751],[109.8851071,24.7714266],[109.9013604,24.760667],[109.908268,24.7675369],[109.925648,24.766428],[109.9351432,24.7826848],[109.9443754,24.7532448],[109.9338281,24.7212247],[109.9468361,24.7209397],[109.9557598,24.7011276],[109.968759,24.7003307],[109.9688636,24.7110847],[109.9800117,24.7128943],[109.9845613,24.6810253],[110.0094376,24.6790584],[110.0230962,24.6625481],[110.0408367,24.6686213],[110.0426295,24.6770425],[110.0537453,24.6731219],[110.054531,24.684818],[110.0623813,24.687793],[110.0867348,24.6510307],[110.1059381,24.660556],[110.1478139,24.6438461],[110.1655212,24.6516787],[110.1718487,24.6328082],[110.1478174,24.6219828],[110.1677119,24.5509741],[110.1272647,24.5265736],[110.1333544,24.5175185],[110.1229561,24.4711913],[110.0862692,24.4599052],[110.0766363,24.4704368],[110.0650162,24.4641994],[110.070673,24.4440956],[110.0459699,24.4096296],[110.045674,24.3730019],[110.0134802,24.3356566],[110.0187624,24.3033687],[110.0266329,24.3084166],[110.0383336,24.2877611],[110.0157722,24.2640337],[109.9961779,24.2548897],[109.9825222,24.2649693],[109.9592168,24.263556],[109.9473151,24.2409638],[109.9082758,24.240925],[109.9021106,24.2463156],[109.9015426,24.2754152],[109.930419,24.2744703],[109.9210056,24.2978706],[109.8970013,24.3037374],[109.8830776,24.2917059],[109.8792438,24.2766445],[109.8449262,24.2766812],[109.8450681,24.2619942],[109.8231709,24.2600206],[109.8139187,24.2514851],[109.7974791,24.2613024],[109.7956548,24.2390342],[109.7766127,24.2322113],[109.7735567,24.2188339],[109.7588671,24.2150762],[109.7430098,24.2217793],[109.7086188,24.1877555],[109.7086018,24.1530436],[109.6900415,24.1586861],[109.6725524,24.1568788],[109.6651749,24.1482174],[109.6176979,24.149351],[109.6076827,24.1391559],[109.6100598,24.1155718],[109.5984366,24.1093825],[109.5857337,24.0744615],[109.5687057,24.062372],[109.5417713,24.065919]]]}}]}