{"type": "FeatureCollection", "features": [{"type": "Feature", "properties": {"slug": "ljubljana", "members": 26, "country": "Slovenia", "input_hash": "7f784bc632f9a3f5"}, "geometry": {"type": "Polygon", "coordinates": [[[14.3985717, 45.8573137], [14.3699288, 45.8800983], [14.3659708, 45.8705543], [14.3547915, 45.8714724], [14.3506921, 45.8844633], [14.3415254, 45.8792466], [14.3249323, 45.8928954], [14.3006327, 45.8867709], [14.2940432, 45.8970913], [14.3020609, 45.8823905], [14.2786199, 45.846998], [14.2611517, 45.8564696], [14.2507547, 45.8491361], [14.2396769, 45.8561041], [14.2437887, 45.8600994], [14.2223715, 45.8582824], [14.2198958, 45.8672725], [14.1908088, 45.879101], [14.129576, 45.8694989], [14.1209161, 45.8961864], [14.1011634, 45.9102801], [14.0979413, 45.9305033], [14.111169, 45.9359858], [14.1119633, 45.9477212], [14.1204434, 45.9521074], [14.1190323, 45.9674224], [14.1096471, 45.9653828], [14.1071527, 45.9724779], [14.1449555, 45.9935347], [14.1401117, 46.0046627], [14.1496185, 46.0079576], [14.1500575, 46.0164098], [14.1736439, 46.0204694], [14.1992392, 46.0430243], [14.2110318, 46.0624152], [14.2103464, 46.083339], [14.2265879, 46.0971712], [14.2478768, 46.0971419], [14.2628009, 46.1079281], [14.331475, 46.0974441], [14.3361601, 46.1123084], [14.3270125, 46.1177346], [14.3282637, 46.1297897], [14.3635178, 46.1452614], [14.3639398, 46.152559], [14.3784605, 46.1449457], [14.3816144, 46.1581082], [14.4224828, 46.1675257], [14.4056493, 46.1903113], [14.4581192, 46.1888797], [14.4692995, 46.1965436], [14.4604218, 46.2038443], [14.4698885, 46.2058138], [14.501119872876615, 46.200887444807904], [14.5509805, 46.2415465], [14.5686738, 46.2457891], [14.5641338, 46.2508555], [14.5738187, 46.2563353], [14.5611071, 46.267786], [14.5652279, 46.2716885], [14.5487329, 46.2754127], [14.5536412, 46.2829896], [14.537086, 46.2995781], [14.5548948, 46.3190286], [14.5383742, 46.3286714], [14.5497383, 46.3461891], [14.5355704, 46.3577481], [14.5398959, 46.362633], [14.565211, 46.3676972], [14.5877823, 46.3551455], [14.6378739, 46.3642289], [14.6374437, 46.3309819], [14.6743018, 46.3103968], [14.6736914, 46.2838234], [14.7046353, 46.2848346], [14.695603, 46.2669127], [14.7046256, 46.257785], [14.8541228, 46.2503855], [14.907094, 46.230688], [14.9118307, 46.21949], [14.9282181, 46.2169099], [14.9060587, 46.206307], [14.8925125, 46.20838], [14.9028116, 46.1880278], [14.8883704, 46.1798902], [14.8908416, 46.174638], [14.8118117, 46.1706316], [14.8430396, 46.1461781], [14.8293455, 46.141408], [14.8388509, 46.1397841], [14.8351622, 46.126566], [14.8927956, 46.1280148], [14.8879317, 46.1076442], [14.9019643, 46.0906425], [14.9495707, 46.0934664], [14.9925367, 46.1167892], [15.004056, 46.0978313], [14.9861327, 46.0854862], [15.0014283, 46.0605543], [14.9878711, 46.0548044], [15.0160169, 46.0497018], [15.0663889, 46.0659821], [15.0717078, 46.0463909], [15.0884967, 46.0407508], [15.0994068, 46.0189591], [15.0825508, 46.0220671], [15.0821229, 46.0124309], [15.0621101, 46.0154131], [15.0548023, 46.0044037], [15.0259704, 46.0046843], [15.0218102, 45.9987558], [15.0340929, 45.9862817], [15.014405, 45.9730774], [15.0131702, 45.9640594], [14.948539505909233, 45.97859160787538], [14.9385518, 45.9637163], [14.921189515567136, 45.96349327797143], [14.9086761, 45.9457659], [14.8835166, 45.9460738], [14.886252, 45.9363835], [14.8770514, 45.9265924], [14.882063, 45.9044107], [14.8604365, 45.8859475], [14.8821827, 45.8660306], [14.8800544, 45.8549838], [14.8432441, 45.8556009], [14.8532975, 45.84465], [14.8505518, 45.8361614], [14.858311, 45.8348529], [14.8589623, 45.8029042], [14.8518033, 45.7957933], [14.8048255, 45.7983992], [14.7990211, 45.7876198], [14.809041, 45.7608044], [14.8421092, 45.7424005], [14.8238437, 45.7265794], [14.766581, 45.7598035], [14.6939771, 45.817917], [14.6769788, 45.8208687], [14.6485426, 45.8013903], [14.5963107, 45.8016456], [14.5947577, 45.7940098], [14.5648063, 45.7914616], [14.5511423, 45.8000111], [14.5466171, 45.8139583], [14.5299995, 45.8146023], [14.5053417, 45.8397291], [14.4956027, 45.8576107], [14.5019489, 45.8607967], [14.5010448, 45.8755314], [14.490769482152825, 45.88227623828055], [14.4361799, 45.8593494], [14.4155099, 45.876657], [14.4189625, 45.871565], [14.4090709, 45.8727998], [14.3985717, 45.8573137]], [[14.582214632117076, 46.195685948967935], [14.5783761, 46.1898849], [14.5826001, 46.1959076], [14.582214632117076, 46.195685948967935]], [[14.589410132977166, 46.18774328727355], [14.5895678, 46.1874398], [14.59101338962428, 46.187444471273835], [14.589410132977166, 46.18774328727355]], [[14.5845847, 46.1803286], [14.5830343, 46.1746456], [14.586008994074554, 46.18251714871643], [14.5845847, 46.1803286]], [[14.5891497, 46.1586071], [14.591381071962303, 46.158193923763875], [14.5924287, 46.1581779], [14.5891497, 46.1586071]], [[14.582857158421925, 46.14544967870022], [14.5775627, 46.1431434], [14.5829114, 46.1444945], [14.582857158421925, 46.14544967870022]], [[14.5687861, 46.1098828], [14.565162, 46.1134231], [14.570706434858886, 46.11060982924409], [14.5687861, 46.1098828]], [[14.5542429, 46.1166564], [14.554205412108294, 46.116636703870874], [14.565162, 46.1134231], [14.5542429, 46.1166564]], [[14.531792437897609, 46.12087817181393], [14.5319425, 46.1206975], [14.532093131427965, 46.120712372921574], [14.531792437897609, 46.12087817181393]], [[14.520234, 46.1309316], [14.5203754, 46.1341371], [14.522976999065245, 46.1266612638028], [14.520234, 46.1309316]], [[14.514697874988416, 46.14434930939899], [14.513623240368153, 46.14417263473661], [14.5137519, 46.1441414], [14.514697874988416, 46.14434930939899]], [[14.5057616, 46.1459968], [14.505454862525434, 46.14485210144659], [14.506849180477188, 46.14560319787212], [14.5057616, 46.1459968]], [[14.4749678, 46.1389499], [14.473490390101423, 46.13956974642677], [14.4758913, 46.135733], [14.4749678, 46.1389499]], [[14.4647466, 46.1385338], [14.4676878, 46.1395642], [14.467819086191843, 46.14040995538553], [14.4647466, 46.1385338]], [[14.4114839, 46.0887052], [14.411500737637464, 46.08859332728747], [14.4174685, 46.0926587], [14.4114839, 46.0887052]], [[14.402585553568498, 46.08003363597438], [14.41180317632312, 46.08173916732302], [14.408617, 46.0814374], [14.402585553568498, 46.08003363597438]], [[14.4186422, 46.0793752], [14.4149552, 46.0820377], [14.414311308939615, 46.081976716155445], [14.4186422, 46.0793752]], [[14.4365862582601, 46.059212930365234], [14.4363953, 46.0601458], [14.4332146, 46.0602561], [14.4365862582601, 46.059212930365234]], [[14.430659259900072, 46.02794303683247], [14.4308069, 46.0277985], [14.431310896733002, 46.028059648150794], [14.430659259900072, 46.02794303683247]], [[14.463684281962138, 46.00740098547065], [14.4628457, 46.008644], [14.4584895, 46.01045], [14.463684281962138, 46.00740098547065]], [[14.4617472, 46.0007298], [14.4651512, 46.0052266], [14.464511307234492, 46.00617510120878], [14.4617472, 46.0007298]], [[14.449713913308514, 45.96911520675513], [14.446486281361423, 45.97459632458202], [14.4446142, 45.9761382], [14.449713913308514, 45.96911520675513]], [[14.524708877211387, 45.992438589004045], [14.5296071, 45.9900329], [14.53343651113538, 45.99056719357722], [14.524708877211387, 45.992438589004045]], [[14.5521285, 45.9165298], [14.5558059, 45.9143424], [14.551936151628913, 45.91751855180584], [14.5521285, 45.9165298]], [[14.5860312, 45.8958629], [14.585865172328504, 45.89644515066361], [14.585597593674867, 45.895725980854024], [14.5860312, 45.8958629]], [[14.567419753529519, 45.864588999975666], [14.568816, 45.8639108], [14.569499307336933, 45.8644417054304], [14.567419753529519, 45.864588999975666]], [[14.555451817674248, 45.86840803968663], [14.5558141, 45.8680093], [14.556031701968934, 45.86800970681316], [14.555451817674248, 45.86840803968663]], [[14.5494794, 45.8725106], [14.5408547, 45.8733852], [14.550381915883104, 45.87189064572919], [14.5494794, 45.8725106]], [[14.5032089, 45.8885968], [14.50286536742949, 45.88815312037343], [14.503649149062882, 45.88853392691555], [14.5032089, 45.8885968]], [[14.189273, 46.0241779], [14.1883362, 46.0260678], [14.189301893558476, 46.023737299509214], [14.189273, 46.0241779]], [[14.2036873, 46.0253419], [14.202952869412615, 46.02528259242324], [14.2150933, 46.0211439], [14.2036873, 46.0253419]], [[14.2344042, 46.0226228], [14.234246093551414, 46.02255037478554], [14.2388204, 46.0211795], [14.2344042, 46.0226228]], [[14.27460504948112, 45.991812394842384], [14.2723568, 45.9927827], [14.2742801, 45.9918052], [14.27460504948112, 45.991812394842384]], [[14.2827912, 45.9934874], [14.274990678068153, 45.99182093320623], [14.2801379, 45.9919349], [14.2827912, 45.9934874]], [[14.3140878, 46.0098839], [14.3129493, 46.0069259], [14.314281823882796, 46.009937191830076], [14.3140878, 46.0098839]], [[14.3173696, 46.0107853], [14.31516347141172, 46.01017935073146], [14.3256692, 46.0121571], [14.3173696, 46.0107853]], [[14.4102638, 46.0367644], [14.390977433585439, 46.03159132260188], [14.3992974, 46.0329824], [14.4102638, 46.0367644]], [[14.336888, 46.0113318], [14.3440402, 46.0038238], [14.34489888613168, 46.00369909645106], [14.336888, 46.0113318]], [[14.354491138630468, 45.90206818103317], [14.354103977600507, 45.90222605663684], [14.3540344, 45.9020845], [14.354491138630468, 45.90206818103317]], [[14.3546863, 45.9034108], [14.3534336, 45.904717], [14.350302, 45.9051338], [14.3546863, 45.9034108]], [[14.3392315, 45.9259291], [14.3353068, 45.9339325], [14.3359727, 45.9321548], [14.3392315, 45.9259291]], [[14.3547644, 45.9652932], [14.3677978, 45.9653596], [14.3715365, 45.9654224], [14.3547644, 45.9652932]], [[14.3636869, 45.9579199], [14.3689135, 45.9497967], [14.368924353957478, 45.949803036000795], [14.3636869, 45.9579199]], [[14.413071698161096, 45.89774116471586], [14.4108412, 45.8979492], [14.406275949323225, 45.89514723475597], [14.413071698161096, 45.89774116471586]], [[14.404662412207369, 45.89415691128007], [14.4046316, 45.894138], [14.404657411395895, 45.8941208875241], [14.404662412207369, 45.89415691128007]], [[14.40635325194334, 45.89299657675028], [14.4106918, 45.8901202], [14.4083977, 45.8926008], [14.40635325194334, 45.89299657675028]], [[14.4593256, 45.9375898], [14.4647786, 45.9431941], [14.464872980897209, 45.94371269973756], [14.4593256, 45.9375898]], [[14.464929548083015, 45.944023522463134], [14.4650359, 45.9446079], [14.4625529, 45.9452981], [14.464929548083015, 45.944023522463134]], [[14.1887896, 46.0073571], [14.1897011, 46.0058694], [14.1898839784734, 46.00595568507221], [14.1887896, 46.0073571]], [[14.219370455848805, 45.99235596971514], [14.2189306, 45.992449], [14.2186844, 45.9851591], [14.219370455848805, 45.99235596971514]], [[14.213499691091469, 45.98373777382212], [14.2131299, 45.9836364], [14.214561, 45.9791743], [14.213499691091469, 45.98373777382212]], [[14.213035, 45.9748269], [14.213519, 45.9734536], [14.214561, 45.9791743], [14.213035, 45.9748269]], [[14.2231454, 45.9660871], [14.2118995, 45.9620512], [14.208301916964642, 45.959432279883536], [14.2231454, 45.9660871]], [[14.20642053574335, 45.958062697283566], [14.2058723, 45.9576636], [14.2162744, 45.954631], [14.20642053574335, 45.958062697283566]], [[14.399745069493777, 46.02407172867463], [14.400608426325114, 46.02177983244204], [14.4007266, 46.0238302], [14.399745069493777, 46.02407172867463]], [[14.408144470056637, 46.00806709596168], [14.408114850353048, 46.00795849719098], [14.4082185, 46.0079972], [14.408144470056637, 46.00806709596168]], [[14.406008959194208, 46.00717215680552], [14.3860605, 46.0079886], [14.4055305, 46.0069935], [14.406008959194208, 46.00717215680552]], [[14.356399840781847, 46.077731255002156], [14.3568358, 46.0774812], [14.361193052957528, 46.07772431924151], [14.356399840781847, 46.077731255002156]], [[14.3842109, 46.0864205], [14.390285852486514, 46.085425891093585], [14.3897001, 46.085829], [14.3842109, 46.0864205]], [[14.391895380596663, 46.08431823021078], [14.3981639, 46.0792155], [14.399067222830345, 46.07938264129511], [14.391895380596663, 46.08431823021078]], [[14.3368738, 46.0341949], [14.337293052450883, 46.033906278351154], [14.33696235305485, 46.034882773899], [14.3368738, 46.0341949]], [[14.336266221920377, 46.03693832332449], [14.3359782, 46.0377888], [14.330632, 46.0397282], [14.336266221920377, 46.03693832332449]], [[14.253216978168075, 46.043374496175424], [14.2531271, 46.0433883], [14.2500374, 46.0415865], [14.253216978168075, 46.043374496175424]], [[14.4671585, 46.167688], [14.46773879303579, 46.167640334071486], [14.4676552, 46.1699036], [14.4671585, 46.167688]], [[14.467758304247488, 46.16512948129865], [14.4678303, 46.1651628], [14.467822493517943, 46.1653741590527], [14.467758304247488, 46.16512948129865]], [[14.538545775661396, 46.17286952223251], [14.5377698, 46.1722958], [14.5385727, 46.1682763], [14.538545775661396, 46.17286952223251]], [[14.5488339, 46.1772335], [14.5425894, 46.1758592], [14.540291309465738, 46.17416009305963], [14.5488339, 46.1772335]], [[14.531483177424292, 46.17252840860987], [14.530388238743605, 46.1728858985567], [14.5305591, 46.1725626], [14.531483177424292, 46.17252840860987]], [[14.6692087, 45.9884324], [14.664623874014952, 45.98767397396489], [14.6659099, 45.9874691], [14.6692087, 45.9884324]], [[14.740848649639634, 45.99725932921922], [14.74136175500189, 45.99788421561127], [14.7316706, 45.9979078], [14.740848649639634, 45.99725932921922]], [[14.74771571772765, 46.002877373352625], [14.747960126585063, 46.00193917165056], [14.7482438, 46.0021135], [14.74771571772765, 46.002877373352625]], [[14.7473603, 46.0042417], [14.747466837783346, 46.00383273802241], [14.750881691115538, 46.006753793825915], [14.7473603, 46.0042417]], [[14.7472635, 46.0085154], [14.751692895530798, 46.00744769576973], [14.7517745, 46.0075175], [14.7472635, 46.0085154]], [[14.7518845, 46.0670914], [14.748449575899555, 46.06736203805831], [14.75400731290557, 46.0659341047585], [14.7518845, 46.0670914]], [[14.7580002, 46.0637573], [14.756613997875425, 46.0645130166806], [14.760198, 46.0606307], [14.7580002, 46.0637573]], [[14.586390333940587, 45.89785662490279], [14.5888642, 45.8996432], [14.5867945, 45.8989429], [14.586390333940587, 45.89785662490279]], [[14.60215237626929, 45.90863538230302], [14.6032881056194, 45.90882296972333], [14.602484008081323, 45.909355859860305], [14.60215237626929, 45.90863538230302]], [[14.7512277, 45.8844839], [14.752769635576366, 45.8835957520859], [14.7460751, 45.8890813], [14.7512277, 45.8844839]], [[14.72680622513073, 45.985510921312006], [14.7361484, 45.9923437], [14.7271992, 45.9861007], [14.72680622513073, 45.985510921312006]], [[14.7400813, 45.9935577], [14.7415895, 45.9962278], [14.741053683921114, 45.99697384801599], [14.7400813, 45.9935577]], [[14.801564368779921, 45.80241334289441], [14.8013141, 45.8027214], [14.7808222, 45.807178], [14.801564368779921, 45.80241334289441]], [[14.61460994647364, 45.99569232265435], [14.6138093, 45.9955747], [14.6142579, 45.9904433], [14.61460994647364, 45.99569232265435]], [[14.830652693238038, 46.135556048439895], [14.832101042425542, 46.13591328587523], [14.8313033, 46.1360304], [14.830652693238038, 46.135556048439895]], [[14.592178922286063, 46.10323113523875], [14.592839420543303, 46.10178815288557], [14.5929499, 46.1030069], [14.592178922286063, 46.10323113523875]], [[14.5933131, 46.0958011], [14.5925262, 46.0972919], [14.5922349, 46.089391], [14.5933131, 46.0958011]], [[14.657218591846428, 46.11701309389074], [14.6631001, 46.1171712], [14.6572138, 46.1170908], [14.657218591846428, 46.11701309389074]], [[14.6867923, 46.1167253], [14.68778439995593, 46.11458571804441], [14.6884989, 46.1215617], [14.6867923, 46.1167253]], [[14.723629467957828, 46.11046585982094], [14.7214986, 46.1076551], [14.7242795, 46.110325], [14.723629467957828, 46.11046585982094]], [[14.722732869258135, 46.105749822285865], [14.7228654, 46.1059488], [14.7214986, 46.1076551], [14.722732869258135, 46.105749822285865]], [[14.722380082020099, 46.105220158019215], [14.7144243, 46.0972545], [14.7214788, 46.103867], [14.722380082020099, 46.105220158019215]], [[14.7454455, 46.098596], [14.751776300016983, 46.09775069906954], [14.751761389285761, 46.09778524905718], [14.7454455, 46.098596]], [[14.711687540213173, 46.078349013219025], [14.711140111309945, 46.07798900895992], [14.711674903008895, 46.07795703300662], [14.711687540213173, 46.078349013219025]], [[14.7402206, 46.0680104], [14.7238283, 46.0656688], [14.743711817885318, 46.06773532654802], [14.7402206, 46.0680104]], [[14.663835488739448, 46.07886916048221], [14.648855, 46.0790359], [14.6632887, 46.0785205], [14.663835488739448, 46.07886916048221]], [[14.694513110174857, 46.14306326842606], [14.692283498681984, 46.14249577486181], [14.6937019, 46.1424409], [14.694513110174857, 46.14306326842606]], [[14.698611716203189, 46.14620775928919], [14.698574, 46.1462597], [14.698369879182039, 46.1460222195476], [14.698611716203189, 46.14620775928919]], [[14.7162444, 46.1562919], [14.7182795, 46.1583843], [14.7160878614393, 46.156320049663506], [14.7162444, 46.1562919]], [[14.805996060079295, 46.16437281842363], [14.8059793, 46.1645037], [14.805883078763946, 46.16434730092676], [14.805996060079295, 46.16437281842363]], [[14.8067675, 46.1612659], [14.807117564533748, 46.161125502739196], [14.806753751343628, 46.16139249990482], [14.8067675, 46.1612659]], [[14.8153248, 46.1578339], [14.8205308, 46.1575002], [14.810414481280167, 46.15980323774046], [14.8153248, 46.1578339]], [[14.6121179, 46.1846987], [14.6146116, 46.1856248], [14.6039871, 46.1822956], [14.6121179, 46.1846987]], [[14.6782585, 46.198498], [14.6798579010217, 46.198049716562174], [14.6762342, 46.2012186], [14.6782585, 46.198498]], [[14.681000284408555, 46.19772952697555], [14.683238914573383, 46.1971020790668], [14.688509692001551, 46.19884320128827], [14.681000284408555, 46.19772952697555]], [[14.6641045, 46.1500781], [14.6682112, 46.1495952], [14.664075904506774, 46.15011178148507], [14.6641045, 46.1500781]], [[14.6758365, 46.1473316], [14.6796415, 46.1474862], [14.67597372347747, 46.147500873690134], [14.6758365, 46.1473316]], [[14.6847239, 46.1438203], [14.681803, 46.1430294], [14.686039929710747, 46.143174959006835], [14.6847239, 46.1438203]], [[14.6834868, 46.1428361], [14.687008828709528, 46.142699840370035], [14.686085427569084, 46.143152648239194], [14.6834868, 46.1428361]], [[14.6787775, 46.1379554], [14.6822912, 46.1368675], [14.679426920016779, 46.13796492128145], [14.6787775, 46.1379554]], [[14.8091611, 46.203387], [14.808320565548545, 46.20329840164544], [14.8142493, 46.200831], [14.8091611, 46.203387]], [[14.8076261, 46.2032252], [14.8073868, 46.1993712], [14.808161191502133, 46.20328160247885], [14.8076261, 46.2032252]], [[14.7571637, 46.1905309], [14.7571719, 46.1886594], [14.7578181, 46.1890207], [14.7571637, 46.1905309]], [[14.6970718, 46.1962188], [14.6912763, 46.1992535], [14.690527988088371, 46.19914252243704], [14.6970718, 46.1962188]]]}}]}