{"type": "FeatureCollection", "features": [{"type": "Feature", "properties": {"slug": "louny", "members": 1, "country": "Czech Republic", "input_hash": "e6fb66555429cadf"}, "geometry": {"type": "Polygon", "coordinates": [[[13.2120553, 50.2196339], [13.2490413, 50.2064153], [13.2501652, 50.1954394], [13.2743802, 50.1856491], [13.2796007, 50.1763606], [13.2738824, 50.1685569], [13.287123, 50.1681231], [13.2841106, 50.1564334], [13.2648839, 50.1573818], [13.2842089, 50.1445507], [13.284161, 50.1369865], [13.2507936, 50.1464337], [13.23569, 50.1389644], [13.2402296, 50.1343288], [13.2280918, 50.1340039], [13.2492822, 50.1239708], [13.2738771, 50.1281155], [13.28976, 50.1181198], [13.2820159, 50.114272], [13.2965067, 50.1125254], [13.2969698, 50.099417], [13.3246582, 50.1033703], [13.3239955, 50.0874311], [13.3336693, 50.0866072], [13.3558287, 50.104423], [13.3552954, 50.0943157], [13.3708187, 50.0908734], [13.3712185, 50.0773031], [13.3952819, 50.0804249], [13.4089474, 50.092381], [13.4044312, 50.0979663], [13.42538, 50.109162], [13.4629012, 50.1055063], [13.459915, 50.1133552], [13.4710359, 50.1138995], [13.4707117, 50.1324198], [13.492783, 50.1280005], [13.4884873, 50.1408738], [13.4791697, 50.1434364], [13.4943759, 50.1473483], [13.4882148, 50.1661422], [13.5128728, 50.1686184], [13.5143499, 50.1767455], [13.5355805, 50.1890173], [13.5581692, 50.1924663], [13.5697939, 50.1847523], [13.6077233, 50.1917819], [13.622708, 50.2024317], [13.6159586, 50.2108712], [13.6321386, 50.2084808], [13.6694812, 50.2382986], [13.6716261, 50.2224532], [13.7514184, 50.2236793], [13.7600322, 50.2405733], [13.7687196, 50.2321788], [13.8123292, 50.2635304], [13.8267067, 50.2607104], [13.8398108, 50.240094], [13.8629658, 50.2436474], [13.8649221, 50.2594015], [13.8778474, 50.270182], [13.9403259, 50.2800951], [13.9570352, 50.2921167], [13.9523363, 50.3071731], [13.9913233, 50.3037001], [13.9815393, 50.3337965], [13.9972274, 50.3419556], [14.0197649, 50.3484362], [14.0301093, 50.3404241], [14.0361771, 50.3459828], [14.0526633, 50.3412394], [14.0389781, 50.3463083], [14.041131, 50.3551941], [14.0268254, 50.370119], [14.0016922, 50.367647], [13.9976949, 50.3762849], [13.9519767, 50.3845061], [13.9747592, 50.4065458], [13.9729436, 50.423727], [13.9583743, 50.4354097], [13.922817, 50.4359406], [13.9093755, 50.4218908], [13.8970645, 50.4257673], [13.8766065, 50.4493895], [13.8872956, 50.4600991], [13.8678294, 50.4827683], [13.8757861, 50.4838555], [13.8768258, 50.495223], [13.868979, 50.4946613], [13.8386841, 50.4818042], [13.8312925, 50.4682603], [13.7971035, 50.4732295], [13.7722939, 50.4638095], [13.7699202, 50.4484961], [13.7940056, 50.4398083], [13.7832475, 50.4262317], [13.7029659, 50.4139613], [13.699739, 50.4207466], [13.6318723, 50.4307115], [13.6309417, 50.4222452], [13.6099683, 50.4200596], [13.6071862, 50.4105997], [13.559923, 50.4283736], [13.5361808, 50.3991158], [13.5495743, 50.3934059], [13.558915, 50.377135], [13.5446111, 50.3826969], [13.5303669, 50.3739391], [13.5092259, 50.3872391], [13.4919355, 50.3807771], [13.4970971, 50.3705036], [13.478324, 50.3650881], [13.431151, 50.3677554], [13.4373846, 50.3520262], [13.4508191, 50.3478583], [13.4514059, 50.3397378], [13.4389047, 50.3423452], [13.4382455, 50.3360384], [13.4518455, 50.3307169], [13.4260069, 50.3222557], [13.429383, 50.3141179], [13.4219784, 50.315208], [13.4340935, 50.3004179], [13.3982897, 50.2960913], [13.3976737, 50.2717227], [13.3799615, 50.2604829], [13.3670455, 50.2592791], [13.3529097, 50.2778117], [13.3101177, 50.2671364], [13.3196366, 50.2656188], [13.2935035, 50.2508795], [13.2977753, 50.2400892], [13.2638397, 50.2362925], [13.2761117, 50.2197346], [13.2120553, 50.2196339]]]}}]}