{"type": "FeatureCollection", "features": [{"type": "Feature", "properties": {"slug": "lourdes", "members": 2, "country": "France", "input_hash": "6512be7799122f9f"}, "geometry": {"type": "MultiPolygon", "coordinates": [[[[-0.1006707, 43.0171783], [-0.0804779, 43.0029323], [-0.113157, 42.9980648], [-0.1006707, 43.0171783]]], [[[-0.027506, 43.1281495], [-0.0142839, 43.0954848], [-0.035302, 43.0660306], [-0.0429152, 43.0809247], [-0.0644745, 43.0838462], [-0.0773638, 43.0942419], [-0.1093261, 43.0844871], [-0.1282709, 43.0976776], [-0.0947254, 43.0993136], [-0.1024955, 43.1119541], [-0.044615, 43.1126105], [-0.0388899, 43.1273651], [-0.027506, 43.1281495]]], [[[-0.1152645, 43.1452313], [-0.0981801, 43.1291844], [-0.1003202, 43.1150189], [-0.1019405, 43.1217848], [-0.1179028, 43.1158782], [-0.1455335, 43.1220782], [-0.1385829, 43.1491332], [-0.1152645, 43.1452313]]]]}}]}