{"type": "FeatureCollection", "features": [{"type": "Feature", "properties": {"slug": "lovech", "members": 8, "country": "Bulgaria", "input_hash": "5d4aeb910e32559a"}, "geometry": {"type": "Polygon", "coordinates": [[[24.8887, 42.932534], [24.883579, 42.896541], [24.902077, 42.885949], [24.906261, 42.874851], [24.941034, 42.884681], [24.967664, 42.877352], [24.962508, 42.858382], [24.98131, 42.852254], [24.981312, 42.834048], [25.007669, 42.808917], [25.007773, 42.786399], [25.02055, 42.777123], [24.9978773, 42.7540296], [25.0155493, 42.754716], [25.0144451, 42.7467731], [24.9903725, 42.7532855], [24.9806415, 42.7485751], [25.0033757, 42.7457973], [25.0081796, 42.7379163], [24.9464495, 42.7238746], [24.9271413, 42.7302853], [24.9150284, 42.7163353], [24.8813506, 42.7247465], [24.847407, 42.719403], [24.835272, 42.72815], [24.790697, 42.724759], [24.75001, 42.708783], [24.674893, 42.725347], [24.647149, 42.752161], [24.640724, 42.769469], [24.572985, 42.790964], [24.530511, 42.786995], [24.494019, 42.793475], [24.48161, 42.781979], [24.485096, 42.765897], [24.47421, 42.756181], [24.444306, 42.749205], [24.424923, 42.754457], [24.333933, 42.750361], [24.289704, 42.772256], [24.250142, 42.775906], [24.233858, 42.766902], [24.190745, 42.762618], [24.127976, 42.774955], [24.1279078, 42.7827691], [24.148487, 42.787089], [24.154713, 42.799143], [24.202397, 42.813879], [24.203311, 42.820362], [24.191468, 42.821529], [24.167467, 42.816381], [24.167882, 42.827891], [24.192381, 42.834082], [24.168713, 42.841729], [24.174622, 42.845576], [24.165908, 42.855219], [24.17663, 42.901024], [24.15969, 42.914343], [24.169654, 42.917998], [24.165286, 42.92971], [24.131064, 42.929516], [24.102519, 42.942632], [24.089299, 42.941013], [24.08655, 42.956386], [24.062146, 42.964804], [24.0654803, 42.9813764], [24.077095509770057, 42.98442489068982], [24.041476, 43.031], [24.046359, 43.028971], [24.04397, 43.059976], [24.016803, 43.064692], [24.0018, 43.051112], [23.974794, 43.058512], [23.97134, 43.081252], [23.959356, 43.095211], [23.961457, 43.112184], [24.000881, 43.103704], [24.039753, 43.106179], [24.028503, 43.10846], [24.015943, 43.137454], [24.029192, 43.166962], [24.018537, 43.178407], [24.033106, 43.194319], [24.030299, 43.203871], [24.048322, 43.212546], [24.075681, 43.20171], [24.072639, 43.212773], [24.050924, 43.217259], [24.084999, 43.236037], [24.09244, 43.229845], [24.136082, 43.247831], [24.160896, 43.235308], [24.192485, 43.239537], [24.254825, 43.223865], [24.280955, 43.237555], [24.304818, 43.236047], [24.331261, 43.261217], [24.384097, 43.278346], [24.396209, 43.271107], [24.391562, 43.255525], [24.428313, 43.248285], [24.428153, 43.23084], [24.437746, 43.220564], [24.461044, 43.216422], [24.481538, 43.230942], [24.528648, 43.211296], [24.574559, 43.208991], [24.577114, 43.200759], [24.638418, 43.222828], [24.62975, 43.231444], [24.656258, 43.251534], [24.653172, 43.279268], [24.668288, 43.26399], [24.669388, 43.251227], [24.682642, 43.250583], [24.685915, 43.274891], [24.729406, 43.288485], [24.741861, 43.303864], [24.754485, 43.305195], [24.754802, 43.313114], [24.81161, 43.317224], [24.832555, 43.303631], [24.904366, 43.297574], [24.903993, 43.287891], [24.934893, 43.293778], [24.93127, 43.305729], [24.945424, 43.305643], [24.94535, 43.29614], [24.977169, 43.296738], [24.97935, 43.317841], [24.98855, 43.318324], [24.988517, 43.325106], [25.02485, 43.320055], [25.033227, 43.325915], [25.033098, 43.332963], [25.021647, 43.332182], [25.02192, 43.347826], [25.033313, 43.349481], [25.032902, 43.360454], [25.019317, 43.361539], [25.01953, 43.378205], [25.052742, 43.377717], [25.049673, 43.35885], [25.059297, 43.358032], [25.084638, 43.303146], [25.098138, 43.298456], [25.099465, 43.286103], [25.118369, 43.285687], [25.114595, 43.269184], [25.138712, 43.27696], [25.138218, 43.252248], [25.150061, 43.254608], [25.112074, 43.219217], [25.119228, 43.210608], [25.109145, 43.208518], [25.115264, 43.198363], [25.105119, 43.183567], [25.025505, 43.178085], [24.994958, 43.193663], [24.959919, 43.19369], [24.955954, 43.184477], [24.96436, 43.182466], [24.963063, 43.16436], [24.9729, 43.154662], [24.967579, 43.122271], [24.927858, 43.114087], [24.918219, 43.104666], [24.928196, 43.101873], [24.916981, 43.091385], [24.925918, 43.076362], [24.918207, 43.067167], [24.941666, 43.052559], [24.930062, 43.041508], [24.951545, 43.03119], [24.921429, 43.019818], [24.87558128305081, 43.01692082829805], [24.879364, 43.007303], [24.870146, 42.999805], [24.875412, 42.994846], [24.870039, 42.994284], [24.869802, 42.943246], [24.8887, 42.932534]], [[24.236032690912136, 43.11241377912301], [24.235452, 43.113036], [24.231065, 43.111368], [24.236032690912136, 43.11241377912301]], [[24.25365407866282, 43.05951940555531], [24.25625389193094, 43.059118836397104], [24.25565342880717, 43.06025856836262], [24.25365407866282, 43.05951940555531]], [[24.258136456820704, 43.06503723134514], [24.25758, 43.065391], [24.260822, 43.058415], [24.258136456820704, 43.06503723134514]], [[24.266191, 43.065554], [24.264774, 43.066237], [24.263006, 43.066014], [24.266191, 43.065554]], [[24.270117, 43.057804], [24.295569, 43.052887], [24.26854592703229, 43.05855003094337], [24.270117, 43.057804]], [[24.352823, 43.014221], [24.354819210653964, 43.01326717291303], [24.352998, 43.015431], [24.352823, 43.014221]], [[24.353592, 43.01215], [24.355895, 43.011989], [24.35543402313384, 43.012536698437465], [24.353592, 43.01215]], [[24.315447, 42.945858], [24.315651518702072, 42.94573390002168], [24.317685, 42.950288], [24.315447, 42.945858]], [[24.31798, 42.944321], [24.322959, 42.94456], [24.315906881776602, 42.94557894816793], [24.31798, 42.944321]], [[24.419242301619335, 42.904667462265145], [24.418614, 42.90478], [24.41842044082078, 42.90472375203339], [24.419242301619335, 42.904667462265145]], [[24.449598, 42.898242], [24.440131, 42.900926], [24.43153019726873, 42.90246652580408], [24.449598, 42.898242]], [[24.449336, 42.894863], [24.449933992325132, 42.894282365129996], [24.45088, 42.89699], [24.449336, 42.894863]], [[24.45254, 42.891752], [24.45363487366744, 42.89144037991792], [24.450922297312278, 42.89332274689809], [24.45254, 42.891752]], [[24.471175, 42.879915], [24.472137856779213, 42.88007979464789], [24.464204, 42.883968], [24.471175, 42.879915]], [[24.4778718977213, 43.017019403267675], [24.472321, 43.019639], [24.470483512549563, 43.0192415169462], [24.4778718977213, 43.017019403267675]], [[24.588306940929293, 43.02107418159019], [24.587605, 43.021085], [24.585239, 43.019413], [24.588306940929293, 43.02107418159019]], [[24.592614, 43.020602], [24.593909545806028, 43.02098783347595], [24.591019831472636, 43.021032370149314], [24.592614, 43.020602]], [[24.641241, 43.020524], [24.641538080532264, 43.020587280487895], [24.637215, 43.02672], [24.641241, 43.020524]], [[24.66208734632839, 43.021656233160016], [24.661883, 43.021754], [24.656597, 43.020292], [24.66208734632839, 43.021656233160016]], [[24.666315817861733, 43.01941406715139], [24.66608, 43.019746], [24.66418801013376, 43.02065119791551], [24.666315817861733, 43.01941406715139]], [[24.780809808147396, 43.00977981418266], [24.779508, 43.009875], [24.778594126724236, 43.00812578943311], [24.780809808147396, 43.00977981418266]], [[24.86962884008527, 43.019002367779485], [24.867725, 43.019254], [24.866880469518748, 43.01882254794761], [24.86962884008527, 43.019002367779485]], [[24.873872289776052, 43.01818985170546], [24.87346, 43.018496], [24.871553180780342, 43.01874802597533], [24.873872289776052, 43.01818985170546]], [[24.500601, 42.840337], [24.50807841257463, 42.835172511749015], [24.508259, 42.835455], [24.500601, 42.840337]], [[24.49216091116249, 42.86650819256995], [24.496008, 42.860402], [24.492211, 42.866471], [24.49216091116249, 42.86650819256995]], [[24.861543, 42.745096], [24.860961361323472, 42.74982292142701], [24.860949, 42.749796], [24.861543, 42.745096]], [[24.239689, 43.058103], [24.246879364438534, 43.0604532673896], [24.246727, 43.060496], [24.239689, 43.058103]], [[24.167503988012008, 43.04847415778257], [24.168644853336822, 43.04817160056267], [24.168286, 43.048627], [24.167503988012008, 43.04847415778257]], [[24.163141300291905, 43.04758805352025], [24.163407331656582, 43.04767347690934], [24.16319, 43.047631], [24.163141300291905, 43.04758805352025]], [[24.14906077626333, 43.03890840411522], [24.15019959834655, 43.0412771249038], [24.150143, 43.041261], [24.14906077626333, 43.03890840411522]], [[24.142897, 43.035076], [24.14865, 43.038054], [24.14865920325833, 43.038073142541805], [24.142897, 43.035076]], [[24.135634128059888, 43.01944098465931], [24.144343, 43.019592], [24.136706, 43.020326], [24.135634128059888, 43.01944098465931]], [[24.135308, 43.017008], [24.135291169980416, 43.01915781355446], [24.134922, 43.018853], [24.135308, 43.017008]], [[24.141801, 42.991853], [24.142773191115776, 42.99096773211136], [24.139895649488185, 42.99824255455519], [24.141801, 42.991853]], [[24.454204023142502, 43.195549860115435], [24.454186458560095, 43.1952521592525], [24.454375, 43.195242], [24.454204023142502, 43.195549860115435]], [[24.443225, 43.216508], [24.444848, 43.21296], [24.443775440510947, 43.21772304249106], [24.443225, 43.216508]], [[25.016026, 43.268227], [25.01587715013553, 43.26959915146272], [25.015231680623756, 43.267231968210304], [25.016026, 43.268227]], [[25.014443, 43.266244], [25.014648849645948, 43.26650186471757], [25.01203, 43.266393], [25.014443, 43.266244]], [[24.970939, 43.221814], [24.9708630764148, 43.22182896508557], [24.970845974832674, 43.221737359947376], [24.970939, 43.221814]], [[24.647149665413203, 43.03251822843486], [24.647222, 43.031725], [24.650654, 43.028336], [24.647149665413203, 43.03251822843486]], [[24.64707183437699, 43.034379380125195], [24.646986, 43.034313], [24.647026886340726, 43.03386463622966], [24.64707183437699, 43.034379380125195]], [[24.610211224128534, 43.057614192804984], [24.612556, 43.0578], [24.613025, 43.059212], [24.610211224128534, 43.057614192804984]], [[24.60699774627901, 43.06087207636309], [24.609174, 43.057532], [24.60963544618017, 43.0575685664034], [24.60699774627901, 43.06087207636309]], [[24.604584, 43.061572], [24.60684006702453, 43.06106955712554], [24.606795, 43.061126], [24.604584, 43.061572]], [[24.51756869967935, 43.10855487610151], [24.517381, 43.108106], [24.52367, 43.101703], [24.51756869967935, 43.10855487610151]], [[24.527335676672944, 43.11876242303247], [24.527643185541347, 43.118378145072455], [24.528031, 43.118563], [24.527335676672944, 43.11876242303247]], [[24.526539, 43.129835], [24.521143, 43.125195], [24.520503, 43.123104], [24.526539, 43.129835]], [[24.5426669404513, 43.158908583548275], [24.543183, 43.158361], [24.54625, 43.158591], [24.5426669404513, 43.158908583548275]], [[24.546068, 43.15897], [24.542299, 43.159299], [24.54261473373613, 43.15896397936143], [24.546068, 43.15897]]]}}]}