{"type": "FeatureCollection", "features": [{"type": "Feature", "properties": {"slug": "luanda", "members": 3, "country": "Angola", "input_hash": "b4f2246d14052901"}, "geometry": {"type": "Polygon", "coordinates": [[[13.479694379335285, -8.992350981585275], [13.475137862925465, -9.154332997740369], [13.484250895358116, -9.18282224022289], [13.257943914052703, -9.194817025634507], [13.226048299183276, -9.217306152952006], [13.212378749839615, -9.23829471321568], [13.209341072346945, -9.326732729765922], [13.203265716777935, -9.332727718696674], [13.137955648591628, -9.338722604209636], [13.1090977113289, -9.328231486617824], [13.049862997999867, -9.241292976586408], [12.99974131749076, -9.122842232210019], [12.996703639884231, -9.041853236839529], [13.01948622193379, -8.993851149560726], [13.090871645689049, -8.900829018967784], [13.121248421755183, -8.872317489990905], [13.13491797098493, -8.873818152058902], [13.12732377696841, -8.881321370331477], [13.150106359018082, -8.892575890844842], [13.177046914175662, -8.874255143699486], [13.209396965614928, -8.802331819388826], [13.256677810026304, -8.757449491690693], [13.268498021129176, -8.759908937834439], [13.268498021129176, -8.767287178640913], [13.241124900680461, -8.788806210275652], [13.245479715297279, -8.799257860705211], [13.268498021129176, -8.788191398126003], [13.300225956194708, -8.754990029283704], [13.35417632664514, -8.76603796779246], [13.371147222811658, -8.756219762519834], [13.392921295895974, -8.731624326127758], [13.407229972494008, -8.690423339309348], [13.401179019677556, -8.627988948821894], [13.407549491460543, -8.62572152592611], [13.478015249694806, -8.674749272863494], [13.523371931781242, -8.647541833681544], [13.636193171101581, -8.843987856358694], [13.635551898264055, -8.854590752962679], [13.621930031019588, -8.854890736866992], [13.60804831458097, -8.866750474209994], [13.557276665077893, -8.877059561215901], [13.539779641994869, -8.898188044503229], [13.524226733048181, -8.96156616375498], [13.479694379335285, -8.992350981585275]], [[13.408308955274151, -8.91733467895483], [13.414384310793253, -8.91883515611022], [13.408308955274151, -8.916834515233486], [13.408308955274151, -8.91733467895483]], [[13.4052712778863, -8.91433370471566], [13.402233600366799, -8.912833208976451], [13.400438633673627, -8.912287575938961], [13.4052712778863, -8.91433370471566]], [[13.260981591637005, -8.912833209237647], [13.235161331595123, -8.912833209237647], [13.234062596985549, -8.91337594176082], [13.260981591637005, -8.912833209237647]], [[13.331852621392533, -8.810515423786201], [13.33755293862464, -8.778969093530293], [13.331953891260241, -8.809094438588204], [13.331852621392533, -8.810515423786201]], [[13.34475171152849, -8.77185458145741], [13.343151985989266, -8.772820763092284], [13.33755293862464, -8.778969093530293], [13.34475171152849, -8.77185458145741]]]}}]}