{"type": "FeatureCollection", "features": [{"type": "Feature", "properties": {"slug": "lubango", "members": 2, "country": "Angola", "input_hash": "2f7ae4b95aa15357"}, "geometry": {"type": "Polygon", "coordinates": [[[13.515292163787763, -15.11668895461355], [13.472574822365573, -15.139598372821354], [13.46308207951813, -15.178538694664496], [13.441723409234498, -15.185409771010086], [13.410871996060507, -15.217471837377104], [13.382393768459679, -15.231211229506357], [13.384766953946894, -15.315917632921867], [13.399006067768823, -15.338805378038728], [13.399006067768823, -15.368555696814497], [13.292212714552193, -15.363979000609731], [13.275600415141128, -15.34567121237285], [13.275600415141128, -15.325073031608781], [13.285093157661663, -15.315917633008723], [13.277973600731912, -15.293027384456138], [13.206778031622378, -15.281581321765373], [13.183046175564641, -15.265555784452829], [13.187792546824937, -15.224341645615539], [13.258988115730006, -15.183119436963523], [13.258988115730006, -15.171667393968335], [13.199658474975934, -15.12127103631758], [13.204404846135162, -15.09377706207664], [13.254241744062597, -15.04794586507586], [13.254241744062597, -15.027318609257065], [13.216270774387056, -14.983765635031489], [13.221017145444307, -14.960839455353664], [13.242375816318713, -14.940203798152936], [13.28983952892213, -14.91956615725178], [13.339676426994004, -14.878284935697764], [13.394259696649385, -14.87140396289385], [13.370337985497372, -14.871403962686202], [13.4052712778863, -14.818367245252716], [13.431091537629527, -14.816898916195441], [13.467543668908888, -14.802215074816104], [13.500958122338318, -14.777250262578036], [13.525259543237041, -14.736125494970167], [13.593607289402485, -14.658260939972592], [13.617908710301208, -14.593597626908945], [13.622465226831878, -14.540677140282753], [13.664992712955609, -14.473038069234974], [13.716633232650906, -14.512741767933107], [13.788018656406337, -14.518623192169343], [13.801688205286382, -14.539206945213323], [13.835102659246559, -14.54655782096421], [13.882186661901187, -14.530385571974989], [14.049258930574808, -14.523034157751397], [14.084192223009552, -14.511271387067495], [14.106974804765287, -14.481861728022182], [14.129757387149994, -14.415675747912132], [14.146464613986325, -14.4039072909938], [14.173803712445874, -14.40243619021635], [14.231994224097434, -14.366207275457782], [14.26521882272175, -14.407585000403458], [14.3150557211531, -14.41907745175456], [14.278603589873967, -14.473038069474967], [14.231519586646698, -14.571548968101979], [14.173803712445874, -14.622992402680723], [14.17076603439989, -14.668546527356398], [14.147983452644155, -14.718498215688896], [14.11406498170237, -14.738646404657914], [14.094349457547821, -14.713081213666555], [14.0777371581367, -14.715376569972364], [14.03501981679375, -14.754393929394382], [14.016034331752394, -14.823231015649299], [13.959077876628442, -14.850759728909452], [13.861777265632725, -14.878284935697764], [13.821433109654265, -14.903513288779038], [13.762103468879388, -14.910393236486414], [13.733625241762809, -14.924152470944477], [13.733625241762809, -14.93791082483773], [13.757357097904901, -14.965424888041696], [13.852284523271123, -15.020442414051615], [13.852284523271123, -15.038778442387411], [13.81431355318847, -15.098359638171303], [13.762103468879388, -15.123562040267359], [13.681415157820936, -15.123562040267359], [13.629205074035553, -15.141889178258623], [13.612592774198845, -15.141889178249642], [13.569875433281538, -15.11668895461355], [13.515292163787763, -15.11668895461355]]]}}]}