{"type": "FeatureCollection", "features": [{"type": "Feature", "properties": {"slug": "lucena", "members": 1, "country": "Spain", "input_hash": "ffb4a77c6b395686"}, "geometry": {"type": "Polygon", "coordinates": [[[-4.6375316, 37.4073455], [-4.6284359, 37.4064706], [-4.6424293, 37.3572745], [-4.6688325, 37.3192497], [-4.6814843, 37.3233788], [-4.6840703, 37.3153568], [-4.6586725, 37.3046927], [-4.6657737, 37.2992666], [-4.6609178, 37.2939181], [-4.6752497, 37.3017827], [-4.6810923, 37.2900465], [-4.6621155, 37.2837439], [-4.6453303, 37.246855], [-4.5564189, 37.2896934], [-4.5228355, 37.2813334], [-4.5149976, 37.3061572], [-4.4869574, 37.2918035], [-4.4758217, 37.3113844], [-4.4606408, 37.2942856], [-4.4206701, 37.297909], [-4.4171493, 37.3267304], [-4.4283379, 37.3740139], [-4.418852, 37.4070349], [-4.4548056, 37.4380715], [-4.5482825, 37.4638236], [-4.5561963, 37.4441077], [-4.6141209, 37.4288564], [-4.6375316, 37.4073455]]]}}]}