{"type":"FeatureCollection","features":[{"type":"Feature","properties":{"slug":"lucknow","member_count":1,"matched_count":1,"unmatched":[],"source":"Overture Maps division_area (CC-BY 4.0)"},"geometry":{"type":"Polygon","coordinates":[[[80.6270022,26.8785678],[80.6945418,26.850153],[80.6925768,26.8365258],[80.7146722,26.8201553],[80.725078,26.7966646],[80.7402327,26.7903444],[80.7398368,26.7614367],[80.7335881,26.7561617],[80.6984717,26.764993],[80.6911932,26.7575958],[80.7049545,26.740216],[80.7005282,26.7273212],[80.7064482,26.7202827],[80.6975681,26.7193623],[80.7187598,26.7015338],[80.6952566,26.6864568],[80.7136042,26.6812705],[80.7153603,26.6657412],[80.7285161,26.6557816],[80.7460557,26.6667698],[80.7444363,26.6793798],[80.7560496,26.6884312],[80.7656811,26.6770443],[80.7696145,26.6822955],[80.7666661,26.6659844],[80.7846779,26.6660331],[80.7933571,26.6451985],[80.8249715,26.664609],[80.8415564,26.6654759],[80.8484962,26.6509869],[80.8653058,26.6469276],[80.8800245,26.6307316],[80.8701781,26.6238496],[80.8745012,26.6164263],[80.8814402,26.6245446],[80.892019,26.6217233],[80.8885736,26.5991463],[80.9020743,26.5936253],[80.9081902,26.6006594],[80.9100239,26.58847],[80.9243165,26.5941202],[80.9305066,26.5747898],[80.941215,26.5718022],[80.9341421,26.5687456],[80.9514465,26.5692068],[80.9521493,26.5620491],[80.9727857,26.5575417],[80.9675255,26.5497065],[80.9781814,26.5533636],[80.9896347,26.5356827],[81.0234932,26.5264671],[81.0420558,26.5045558],[81.0726491,26.5219583],[81.0777402,26.5357423],[81.0921476,26.5420326],[81.0992526,26.5627435],[81.1205405,26.5570776],[81.1410334,26.5881294],[81.1629285,26.5894475],[81.1635715,26.6061175],[81.1823085,26.6194691],[81.1695043,26.6293655],[81.166537,26.6439607],[81.2094033,26.7053014],[81.2167295,26.7058067],[81.2153961,26.7226355],[81.2034352,26.7290642],[81.2041433,26.7428229],[81.1891055,26.76176],[81.2131472,26.7847482],[81.1947996,26.7923983],[81.1872601,26.7795137],[81.1740815,26.7893338],[81.1595155,26.7752856],[81.1564498,26.7982829],[81.1687133,26.8079682],[81.1409737,26.8125724],[81.1298197,26.8336473],[81.1002206,26.8404592],[81.0898139,26.8360256],[81.090969,26.8585257],[81.1004707,26.8699266],[81.0984044,26.8836941],[81.087653,26.8901356],[81.0992104,26.9021282],[81.0953718,26.9141579],[81.0724094,26.9107307],[81.0638982,26.9283488],[81.041114,26.9400427],[81.0423664,26.9554899],[81.0636146,26.9682939],[81.0536344,26.9740607],[81.0348307,26.964921],[81.0217773,26.9760399],[81.0283269,26.9852366],[80.9964078,27.0002306],[81.0017798,27.0198841],[80.9931642,27.0249167],[81.0018156,27.0378348],[80.9778888,27.0380736],[80.9750368,27.0611435],[80.9938222,27.0758125],[81.0120778,27.065708],[81.0309249,27.0709338],[81.0491102,27.0882276],[81.0157288,27.1053844],[81.0227715,27.1235388],[81.0129156,27.1402904],[80.9979333,27.1476425],[80.990231,27.138006],[80.9642363,27.1451229],[80.9532675,27.1408065],[80.947831,27.1498884],[80.9225879,27.1582337],[80.9150982,27.1483538],[80.9060089,27.1500437],[80.8947714,27.1270865],[80.8646229,27.1259954],[80.8296155,27.0996279],[80.8046651,27.1005504],[80.7922591,27.1109132],[80.7801125,27.0979954],[80.7707498,27.1031645],[80.7656349,27.0898715],[80.7573,27.100672],[80.7395775,27.1022101],[80.7007351,27.0623102],[80.6467295,27.0782906],[80.6426924,27.0696663],[80.6569044,27.0628458],[80.6438253,27.0668011],[80.6240212,27.0564136],[80.6160642,27.0396458],[80.5994459,27.0439787],[80.5779137,27.0341961],[80.5865282,27.0285828],[80.560386,27.0105206],[80.5851967,26.9872967],[80.5995573,26.9866142],[80.5930395,26.9690365],[80.5987366,26.9638618],[80.594358,26.9544252],[80.5874464,26.9626454],[80.5742295,26.957524],[80.5612742,26.9370543],[80.5804665,26.9249545],[80.5925277,26.9448808],[80.6066915,26.9451315],[80.620887,26.9095556],[80.6406478,26.9033455],[80.6263179,26.8889692],[80.6270022,26.8785678]]]}}]}