{"type": "FeatureCollection", "features": [{"type": "Feature", "properties": {"slug": "luhansk", "members": 1, "country": "Ukraine", "input_hash": "2efba5bf982574df"}, "geometry": {"type": "MultiPolygon", "coordinates": [[[[39.6170509, 48.2027516], [39.6019061, 48.2043159], [39.5965412, 48.206352], [39.6039552, 48.213999], [39.6170509, 48.2027516]]], [[[38.9883971, 48.4561391], [39.0135133, 48.4805031], [39.0247893, 48.4756632], [39.0372884, 48.4902525], [39.0461665, 48.488418], [39.0347886, 48.4758233], [39.0432858, 48.4722242], [39.0945053, 48.4725799], [39.0912866, 48.490025], [39.0646797, 48.5139779], [39.0875906, 48.5370021], [39.0642927, 48.5441439], [39.1297073, 48.5512915], [39.130758, 48.557658], [39.1185379, 48.56309], [39.0954924, 48.5632391], [39.1155042, 48.5901874], [39.0803325, 48.5861891], [39.0468207, 48.5943261], [39.0704512, 48.6174206], [39.0734465, 48.6513982], [39.139582, 48.6607037], [39.1469138, 48.675681], [39.1767955, 48.6834774], [39.195807, 48.7072967], [39.2060208, 48.6992779], [39.2431438, 48.7104299], [39.2573736, 48.7326943], [39.2546759, 48.7424185], [39.2683983, 48.7429037], [39.27222, 48.7544421], [39.2846525, 48.7495113], [39.3098545, 48.7744059], [39.3257469, 48.7766986], [39.3284796, 48.7683779], [39.3546948, 48.768255], [39.3447041, 48.7571011], [39.3612727, 48.7359794], [39.3551946, 48.7268974], [39.375201, 48.7188809], [39.3482896, 48.7120844], [39.3559291, 48.6994684], [39.4116002, 48.6719413], [39.4109818, 48.6584104], [39.4512406, 48.6562885], [39.4523963, 48.6421438], [39.467976, 48.638569], [39.468163, 48.6283288], [39.5148826, 48.6346954], [39.5130855, 48.6223214], [39.5282078, 48.6123101], [39.5246337, 48.6014942], [39.534983, 48.5952725], [39.5318985, 48.5851458], [39.5470744, 48.586001], [39.5590693, 48.5991395], [39.5705545, 48.581991], [39.593757, 48.5930405], [39.6055788, 48.5896346], [39.596073, 48.5776754], [39.6116791, 48.5741149], [39.6203363, 48.4926701], [39.6412468, 48.4939143], [39.6421265, 48.4865976], [39.6337259, 48.486235], [39.6398306, 48.4798844], [39.6342301, 48.4646127], [39.6127725, 48.4638017], [39.6118176, 48.4539333], [39.601119, 48.453263], [39.6070626, 48.4171529], [39.6190428, 48.3853681], [39.6312399, 48.3747812], [39.6949768, 48.3841668], [39.6651721, 48.3556359], [39.6640563, 48.3429797], [39.687531, 48.3390503], [39.6860933, 48.3186068], [39.7057056, 48.3022375], [39.7022402, 48.2951787], [39.6843338, 48.2951858], [39.6792483, 48.2849849], [39.6657729, 48.2843923], [39.6726394, 48.2694832], [39.6563315, 48.2655125], [39.6507954, 48.2519552], [39.6040141, 48.2381415], [39.5985081, 48.2152438], [39.5796237, 48.188495], [39.5694074, 48.1914015], [39.5687422, 48.199335], [39.5328829, 48.2039498], [39.5366439, 48.2164246], [39.5072135, 48.2215693], [39.4501912, 48.2024658], [39.439073, 48.214311], [39.4280232, 48.207633], [39.420948, 48.1747913], [39.4153747, 48.1754017], [39.3560392, 48.2015924], [39.3753247, 48.2338681], [39.3241895, 48.2342948], [39.3162123, 48.2193977], [39.2631361, 48.2110854], [39.2060278, 48.2297914], [39.1472359, 48.2924726], [39.0767928, 48.2860017], [39.0517769, 48.2909801], [39.0411216, 48.3533789], [39.0022318, 48.353342], [39.0020788, 48.3664407], [38.9745769, 48.378894], [38.9553721, 48.3622394], [38.9157258, 48.3593618], [38.9150675, 48.3858441], [38.9274026, 48.3862133], [38.9411174, 48.4142209], [38.9564411, 48.4154897], [38.9554522, 48.4327311], [38.9635589, 48.4334625], [38.9576608, 48.4627054], [38.9780116, 48.4653312], [38.9883971, 48.4561391]], [[39.5834216, 48.3007126], [39.5846742, 48.3173668], [39.5646536, 48.3206044], [39.5301926, 48.312799], [39.5273334, 48.3009172], [39.5628576, 48.2954082], [39.5629906, 48.2785235], [39.5735264, 48.2766956], [39.5780003, 48.2846065], [39.5675359, 48.298989], [39.5834216, 48.3007126]]]]}}]}