{"type": "FeatureCollection", "features": [{"type": "Feature", "properties": {"slug": "lviv", "members": 1, "country": "Ukraine", "input_hash": "f313ca00028ac43d"}, "geometry": {"type": "Polygon", "coordinates": [[[24.2436714, 50.1968177], [24.2413578, 50.1794214], [24.2154109, 50.1625376], [24.2034344, 50.1304848], [24.1485706, 50.1597624], [24.1317273, 50.1322221], [24.1345267, 50.1146604], [24.1047089, 50.1157869], [24.1081806, 50.1424965], [24.0714867, 50.1661886], [24.0909292, 50.1677663], [24.0887546, 50.177435], [24.0969248, 50.1860009], [24.0915126, 50.2033038], [23.9726388, 50.2026649], [23.964954, 50.2093029], [23.9734568, 50.2202723], [23.9130611, 50.2202868], [23.8848878, 50.2552421], [23.8440984, 50.256301], [23.8139572, 50.2685262], [23.7968723, 50.3001143], [23.6855557, 50.299994], [23.6745041, 50.3161522], [23.6770073, 50.3294555], [23.6388487, 50.3205064], [23.6310441, 50.3048038], [23.6115663, 50.2992543], [23.5810135, 50.265997], [23.4701277, 50.2178762], [23.4476824, 50.1992949], [23.4879588, 50.1885921], [23.4866963, 50.1767762], [23.4961361, 50.1756981], [23.4905085, 50.1686972], [23.5049656, 50.151591], [23.5154521, 50.1508914], [23.5275132, 50.1758182], [23.5803782, 50.1752671], [23.5980473, 50.1453044], [23.628153, 50.1419362], [23.6180577, 50.134085], [23.6410079, 50.1344298], [23.6516501, 50.116689], [23.6886173, 50.1065016], [23.7455628, 50.0743134], [23.7734969, 50.0693171], [23.7844176, 50.0358378], [23.8091878, 50.0256234], [23.8115819, 49.9954446], [23.8998324, 49.9720992], [23.9035433, 49.9609293], [23.9149169, 49.9565835], [23.9116859, 49.9459603], [23.9251084, 49.942038], [23.9163767, 49.9330064], [23.9218776, 49.9267593], [23.9392288, 49.9374905], [23.9280482, 49.9284289], [23.9327746, 49.9184505], [23.9208887, 49.9103633], [23.9274643, 49.9051556], [23.9175469, 49.8907439], [23.8938153, 49.8895369], [23.8872948, 49.8751989], [23.858172, 49.8780651], [23.8854656, 49.8503219], [23.8573457, 49.842015], [23.8021497, 49.848225], [23.7928333, 49.8400257], [23.7190327, 49.8430327], [23.7130541, 49.8567044], [23.6923088, 49.8612962], [23.6913355, 49.8507841], [23.6798896, 49.851296], [23.6764531, 49.8434821], [23.6522081, 49.8434607], [23.6398905, 49.8247227], [23.6114196, 49.8461502], [23.5820212, 49.8554854], [23.5847397, 49.8769207], [23.5488211, 49.8771085], [23.5339138, 49.8686555], [23.5333071, 49.8561695], [23.5034105, 49.8438983], [23.4852647, 49.8207697], [23.4666619, 49.8168288], [23.4436021, 49.8235916], [23.4601423, 49.8084761], [23.4518106, 49.7799341], [23.462521, 49.7657541], [23.4357241, 49.7555547], [23.4512145, 49.7441563], [23.4308191, 49.719021], [23.4369922, 49.7117365], [23.4322774, 49.7014978], [23.4187825, 49.6887346], [23.4381061, 49.6768849], [23.4650804, 49.7049614], [23.4857049, 49.7059787], [23.5000472, 49.6774509], [23.5366593, 49.6807955], [23.5449403, 49.6569469], [23.5646599, 49.6577942], [23.5622492, 49.6447195], [23.5692948, 49.6387186], [23.5803496, 49.6397201], [23.5880595, 49.6520223], [23.6159161, 49.6559326], [23.6052149, 49.6454751], [23.6302829, 49.6361304], [23.6237705, 49.6087425], [23.6031382, 49.6024172], [23.6057353, 49.5952183], [23.62737, 49.5901171], [23.6261523, 49.5786192], [23.6493909, 49.5731823], [23.6386886, 49.5299636], [23.6637637, 49.5167245], [23.7129849, 49.5168294], [23.7176361, 49.5007538], [23.7666183, 49.504984], [23.7570763, 49.5211132], [23.725453, 49.5301248], [23.7365895, 49.5345047], [23.7769242, 49.5333067], [23.7724446, 49.5218347], [23.7795251, 49.5184115], [23.7718381, 49.5160288], [23.780876, 49.5102334], [23.8051, 49.5306306], [23.8183259, 49.513183], [23.8133597, 49.5258362], [23.8186299, 49.53263], [23.7865369, 49.5524919], [23.7825023, 49.5725045], [23.7989162, 49.5981637], [23.8108332, 49.5970337], [23.8175634, 49.6055633], [23.8327621, 49.6019262], [23.8334173, 49.5916993], [23.850401, 49.5890843], [23.8466708, 49.5802608], [23.8961527, 49.579461], [23.9321019, 49.5701023], [23.9398252, 49.5840693], [23.9614177, 49.5931876], [23.914465, 49.614412], [23.910406, 49.6319], [23.9289743, 49.6279659], [23.936947, 49.6586665], [23.9656361, 49.6426448], [23.9616843, 49.6386581], [24.0148526, 49.624612], [24.0380269, 49.6395976], [24.0369111, 49.6478753], [24.0581381, 49.6395593], [24.0994012, 49.5928399], [24.1372277, 49.5768599], [24.2106999, 49.5812031], [24.2190057, 49.5754936], [24.2157555, 49.5658695], [24.2455012, 49.5631034], [24.2459058, 49.5560982], [24.2497176, 49.563093], [24.2605376, 49.5639907], [24.2765933, 49.5471129], [24.3064439, 49.53773], [24.3100619, 49.5235299], [24.3197071, 49.5190725], [24.3116444, 49.4993294], [24.3176043, 49.4968278], [24.4013917, 49.4950409], [24.4398154, 49.5116119], [24.4350543, 49.5372013], [24.4855735, 49.5477701], [24.4982609, 49.5401484], [24.4909367, 49.5351144], [24.4922352, 49.523459], [24.505327, 49.5128466], [24.5695913, 49.5341219], [24.6392583, 49.4973724], [24.6561351, 49.505438], [24.7007141, 49.4918596], [24.7208261, 49.4967597], [24.7201669, 49.5319549], [24.7292802, 49.5470938], [24.721255, 49.5698165], [24.7915633, 49.5728367], [24.7987658, 49.586097], [24.8291445, 49.5930694], [24.8316652, 49.5851271], [24.8392081, 49.5868812], [24.8336506, 49.5992203], [24.8456266, 49.6010317], [24.851006, 49.6214805], [24.8286842, 49.6222033], [24.8365039, 49.6279905], [24.8315624, 49.6388047], [24.8440886, 49.6439128], [24.8176137, 49.6584436], [24.8359102, 49.6582653], [24.8256257, 49.6663183], [24.8540299, 49.6605197], [24.8557638, 49.6774088], [24.8485994, 49.6776795], [24.8491607, 49.6845935], [24.8284239, 49.6885691], [24.821761, 49.6729601], [24.7881732, 49.6765064], [24.7822805, 49.7131264], [24.7639559, 49.7214882], [24.7161152, 49.7154617], [24.7046127, 49.7037497], [24.6970769, 49.7076371], [24.7057739, 49.7275895], [24.6938959, 49.7386033], [24.6695817, 49.7395682], [24.6082731, 49.7722261], [24.6131659, 49.7950566], [24.5897162, 49.804969], [24.6057464, 49.8099519], [24.6099245, 49.8286825], [24.5493784, 49.8425022], [24.5029534, 49.8655337], [24.4531084, 49.8461852], [24.4128603, 49.8631113], [24.3536572, 49.8689153], [24.3540929, 49.8840709], [24.3878317, 49.8875531], [24.3917059, 49.9001041], [24.4358812, 49.8945862], [24.4386663, 49.9406229], [24.4490073, 49.9432603], [24.4421842, 49.9507357], [24.4565844, 49.9638004], [24.4520501, 49.9753962], [24.4429432, 49.9773764], [24.4836418, 50.0008892], [24.4815357, 50.0153897], [24.5306346, 50.0144456], [24.5527174, 50.0213441], [24.5363919, 50.0355549], [24.4986643, 50.0379209], [24.4939215, 50.0450842], [24.500222, 50.0546689], [24.492617, 50.0599242], [24.4725641, 50.0522646], [24.4503577, 50.074547], [24.4603007, 50.0775245], [24.4625454, 50.0880428], [24.4356654, 50.0916094], [24.4364361, 50.1069736], [24.5353156, 50.0970354], [24.526473, 50.1334132], [24.4517349, 50.1405247], [24.436937, 50.1331826], [24.4271862, 50.1379781], [24.4564577, 50.1593722], [24.3886599, 50.1755405], [24.3674502, 50.1707618], [24.3720268, 50.1616029], [24.33793, 50.1594323], [24.3481775, 50.175379], [24.3292964, 50.17703], [24.335756, 50.1839467], [24.3171932, 50.1880803], [24.3132327, 50.1988189], [24.2436714, 50.1968177]]]}}]}