{"type":"FeatureCollection","features":[{"type":"Feature","properties":{"slug":"macae","member_count":1,"matched_count":1,"unmatched":[],"source":"Overture Maps division_area (CC-BY 4.0)"},"geometry":{"type":"MultiPolygon","coordinates":[[[[-41.7146259,-22.4212245],[-41.7123025,-22.4195457],[-41.7130831,-22.4217976],[-41.7146259,-22.4212245]]],[[[-41.7001548,-22.4190667],[-41.7105273,-22.4099232],[-41.702969,-22.4049274],[-41.7001548,-22.4190667]]],[[[-41.6920156,-22.40451],[-41.697107,-22.3995199],[-41.690634,-22.3994714],[-41.6920156,-22.40451]]],[[[-41.6946548,-22.3988297],[-41.6949621,-22.3984722],[-41.6944425,-22.3986031],[-41.6946548,-22.3988297]]],[[[-41.694016,-22.397941],[-41.6939637,-22.3977839],[-41.6938322,-22.3979105],[-41.694016,-22.397941]]],[[[-41.6942378,-22.3975406],[-41.6944094,-22.3973627],[-41.694325,-22.3972833],[-41.6942378,-22.3975406]]],[[[-41.6938701,-22.3968048],[-41.6939863,-22.3971509],[-41.694124,-22.3968565],[-41.6938701,-22.3968048]]],[[[-41.6936984,-22.3969008],[-41.6932108,-22.3967228],[-41.6935556,-22.3971321],[-41.6936984,-22.3969008]]],[[[-41.8806315,-22.4166677],[-41.9069097,-22.4000169],[-41.9378845,-22.3946379],[-41.9370148,-22.3767508],[-41.9467906,-22.389426],[-41.9973625,-22.4002958],[-42.0237888,-22.3879439],[-42.0631317,-22.4195174],[-42.0677118,-22.4354746],[-42.074154,-22.4304322],[-42.0862621,-22.4391418],[-42.1063022,-22.436349],[-42.0965317,-22.4081961],[-42.1170614,-22.4021601],[-42.1256161,-22.4126873],[-42.1372025,-22.4126511],[-42.1444674,-22.4280344],[-42.1516566,-22.4207161],[-42.1614577,-22.4285757],[-42.1706033,-22.4215387],[-42.1919267,-22.4331516],[-42.2030553,-22.4294542],[-42.2042052,-22.4140098],[-42.2192487,-22.406253],[-42.2070509,-22.387197],[-42.2158595,-22.3832891],[-42.2157555,-22.3736828],[-42.2041103,-22.3708386],[-42.2157327,-22.3414504],[-42.2641728,-22.3155495],[-42.158978,-22.2150683],[-42.1076825,-22.2097422],[-42.0924185,-22.2016229],[-42.0970028,-22.1844461],[-42.0877798,-22.1704657],[-42.0272001,-22.1579554],[-41.978291,-22.1262876],[-41.9705449,-22.1365873],[-41.9745956,-22.1653542],[-41.9670478,-22.1529171],[-41.9515018,-22.1523846],[-41.9118675,-22.1704181],[-41.9120846,-22.1861938],[-41.9011804,-22.1901684],[-41.9061412,-22.2057022],[-41.9175264,-22.2117536],[-41.9166581,-22.2291911],[-41.9014628,-22.2323216],[-41.9067996,-22.2423244],[-41.896721,-22.2452875],[-41.8826369,-22.2726243],[-41.8637942,-22.2745406],[-41.8399953,-22.198779],[-41.8194051,-22.1862364],[-41.8247172,-22.1460124],[-41.7711185,-22.180881],[-41.7043225,-22.2522093],[-41.7082057,-22.2675156],[-41.6891161,-22.300029],[-41.7670393,-22.3548926],[-41.7743647,-22.3735517],[-41.7669225,-22.3767776],[-41.7678083,-22.3884237],[-41.8177902,-22.417031],[-41.8280634,-22.4082691],[-41.8551527,-22.4108423],[-41.860271,-22.4186272],[-41.8806315,-22.4166677]]],[[[-41.6907726,-22.4034498],[-41.6906715,-22.4029027],[-41.6904935,-22.4033446],[-41.6907726,-22.4034498]]],[[[-41.6884577,-22.4017313],[-41.6890042,-22.4014309],[-41.6885954,-22.4013533],[-41.6884577,-22.4017313]]],[[[-41.6879778,-22.4013911],[-41.6881564,-22.4016776],[-41.6881478,-22.4014568],[-41.6879778,-22.4013911]]],[[[-41.6904215,-22.4000495],[-41.6901833,-22.4004229],[-41.690582,-22.4004963],[-41.6904215,-22.4000495]]],[[[-41.6867054,-22.3991809],[-41.6885141,-22.4004852],[-41.6890142,-22.3998652],[-41.6867054,-22.3991809]]],[[[-41.6939723,-22.3983137],[-41.69357,-22.3975684],[-41.6922632,-22.3972226],[-41.6932332,-22.3982448],[-41.6939723,-22.3983137]]],[[[-41.6920545,-22.3973328],[-41.6919219,-22.3973617],[-41.691986,-22.3974719],[-41.6920545,-22.3973328]]],[[[-41.6923542,-22.3970497],[-41.6927504,-22.3970497],[-41.6926258,-22.3968378],[-41.6923542,-22.3970497]]]]}}]}