{"type": "FeatureCollection", "features": [{"type": "Feature", "properties": {"slug": "macerata", "members": 55, "country": "Italy", "input_hash": "a9934e866f577532"}, "geometry": {"type": "Polygon", "coordinates": [[[12.9480524, 42.9414702], [12.8958221, 42.964592], [12.9082279, 42.9853133], [12.8879599, 43.009801], [12.8977033, 43.0248292], [12.9055538, 43.0202844], [12.906709, 43.0353934], [12.8899348, 43.0588841], [12.8973277, 43.0934846], [12.8850263, 43.0996433], [12.8813078, 43.1212114], [12.8430031, 43.1223442], [12.8296453, 43.1455085], [12.8624905, 43.165966], [12.8682441, 43.1952125], [12.8616044, 43.2131694], [12.8986702, 43.2294061], [12.8871533, 43.2426824], [12.8820338, 43.2670395], [12.9030492, 43.2808996], [12.9106171, 43.2696837], [12.9710199, 43.2818381], [12.9864486, 43.2917286], [12.9874291, 43.3038398], [13.0092383, 43.3049848], [13.023779, 43.3265312], [13.0405176, 43.3360597], [13.0352682, 43.3396216], [13.0468232, 43.3432866], [13.046946, 43.3559767], [13.063905, 43.3699571], [13.0621859, 43.3811619], [13.0860371, 43.3944727], [13.0717568, 43.4164823], [13.091823, 43.4358822], [13.1499317, 43.4136223], [13.2061947, 43.4160691], [13.229917, 43.4344454], [13.2261523, 43.4407384], [13.24437, 43.4593872], [13.2807713, 43.4611833], [13.2714083, 43.4557857], [13.2832187, 43.444103], [13.2855688, 43.4252211], [13.3146363, 43.3990438], [13.3361821, 43.3914482], [13.3998258, 43.4215986], [13.4122284, 43.435073], [13.4351615, 43.4330598], [13.4488488, 43.4470623], [13.4573104, 43.438418], [13.480223, 43.4363819], [13.5949389, 43.4472267], [13.5790036, 43.4318713], [13.5846749, 43.4191477], [13.6255735, 43.4184333], [13.6566947, 43.4312074], [13.6559553, 43.4464228], [13.6343007, 43.4450372], [13.6015069, 43.4590996], [13.6422828, 43.4739419], [13.668085, 43.4310351], [13.7094865, 43.3373135], [13.7268734, 43.3143872], [13.7355844, 43.3156481], [13.7432808, 43.2942629], [13.6840799, 43.2773822], [13.6021652, 43.2686958], [13.6081358, 43.2327316], [13.592948, 43.2092071], [13.5647064, 43.217182], [13.5270747, 43.2118518], [13.5211063, 43.2092074], [13.5266488, 43.1933136], [13.5163162, 43.1824107], [13.519326, 43.1744455], [13.4923571, 43.164076], [13.4616296, 43.1634622], [13.4351652, 43.1427303], [13.4411904, 43.1433585], [13.4329355, 43.1382775], [13.4409916, 43.1240863], [13.4301016, 43.1111622], [13.4337538, 43.0851547], [13.4497313, 43.0731332], [13.4838224, 43.0802784], [13.4627617, 43.0642316], [13.466878, 43.0443945], [13.4597189, 43.02042], [13.4297331, 43.0230071], [13.4164769, 43.0088138], [13.3962887, 43.0098221], [13.382499, 43.0186844], [13.3846881, 43.0325643], [13.3728609, 43.0430517], [13.3309545, 43.024623], [13.3194014, 43.0027393], [13.3089523, 43.006186], [13.2654879, 42.9711198], [13.2228781, 42.9577211], [13.2160876, 42.938322], [13.2303734, 42.9229655], [13.2417997, 42.8922007], [13.2313258, 42.8750999], [13.2337239, 42.8601401], [13.2207088, 42.8462611], [13.1875577, 42.834475], [13.1545555, 42.8346215], [13.1122455, 42.8893295], [13.0726424, 42.9036548], [13.0544191, 42.9201958], [13.0263804, 42.902238], [13.0092605, 42.9030386], [13.0014554, 42.9134724], [12.9920363, 42.9008123], [13.0024247, 42.8957134], [13.0010585, 42.8892052], [12.9890949, 42.8694966], [12.9761569, 42.8698022], [12.9683941, 42.9006808], [12.9767005, 42.9260927], [12.9496364, 42.9307722], [12.9480524, 42.9414702]]]}}]}