{"type": "FeatureCollection", "features": [{"type": "Feature", "properties": {"slug": "mackay", "members": 1, "country": "Australia", "input_hash": "6d2c59868ac67853"}, "geometry": {"type": "MultiPolygon", "coordinates": [[[[149.389983, -21.636802], [149.366258, -21.65503], [149.361645, -21.649434], [149.349868, -21.672983], [149.354873, -21.678191], [149.342033, -21.688616], [149.335632, -21.682578], [149.322867, -21.697073], [149.285943, -21.701614], [149.282667, -21.719606], [149.263213, -21.740338], [149.223633, -21.748317], [149.220436, -21.738196], [149.200187, -21.759464], [149.183457, -21.75593], [149.182526, -21.768144], [149.174232, -21.770806], [149.140145, -21.754621], [149.133703, -21.744009], [149.102313, -21.744433], [149.065842, -21.732876], [149.059453, -21.763557], [149.036112, -21.771335], [149.02678, -21.741976], [148.994072, -21.719154], [148.998449, -21.679863], [149.018924, -21.660555], [149.010893, -21.6364], [149.026216, -21.626922], [149.039153, -21.638578], [149.049313, -21.623593], [149.049976, -21.571648], [149.058135, -21.553902], [149.04801, -21.545957], [149.056912, -21.540633], [149.061196, -21.514991], [149.086401, -21.49041], [149.092747, -21.444917], [149.070335, -21.397021], [149.075508, -21.390073], [149.053864, -21.379429], [149.03196, -21.353774], [148.971935, -21.368103], [148.950743, -21.385379], [148.914, -21.379113], [148.90221, -21.405334], [148.792142, -21.39295], [148.78369, -21.386317], [148.760536, -21.394441], [148.740269, -21.380973], [148.718266, -21.350462], [148.70019, -21.343877], [148.686264, -21.376837], [148.672675, -21.36618], [148.641277, -21.37131], [148.635455, -21.365472], [148.616258, -21.378649], [148.608613, -21.36422], [148.586214, -21.372317], [148.556383, -21.37057], [148.547235, -21.367245], [148.517358, -21.309883], [148.470062, -21.27399], [148.428624, -21.298948], [148.407892, -21.279061], [148.387049, -21.279822], [148.370313, -21.257187], [148.347024, -21.256957], [148.308015, -21.221999], [148.312135, -21.167076], [148.29229, -21.151617], [148.329051, -21.114484], [148.306779, -21.090962], [148.297063, -21.055361], [148.284485, -21.044156], [148.273954, -21.046972], [148.2643, -21.02729], [148.238735, -21.005343], [148.240339, -20.987954], [148.225186, -20.979572], [148.237805, -20.952789], [148.22733, -20.927351], [148.191378, -20.881808], [148.179507, -20.88234], [148.151318, -20.848659], [148.165714, -20.809299], [148.165394, -20.771139], [148.303025, -20.787217], [148.301256, -20.800657], [148.361109, -20.807429], [148.457005, -20.737078], [148.447888, -20.735839], [148.44834, -20.701068], [148.457489, -20.694379], [148.480985, -20.698079], [148.491076, -20.621668], [148.526862, -20.653738], [148.570864, -20.624347], [148.555139, -20.600111], [148.556216, -20.580362], [148.589521, -20.600791], [148.599573, -20.593777], [148.607338, -20.567004], [148.636192, -20.54991], [148.661816, -20.562846], [148.67005120978166, -20.571325365064205], [148.6635891, -20.5865495], [148.6834165, -20.6044417], [148.6993599, -20.6394276], [148.7183511, -20.6425876], [148.7271097, -20.6330264], [148.7311923, -20.6441631], [148.7062711, -20.6703474], [148.7327444, -20.6881718], [148.7311905, -20.7168507], [148.758515, -20.7242833], [148.7671628, -20.734656], [148.7778559, -20.7321217], [148.7809129, -20.7631071], [148.8022846, -20.777225], [148.8291084, -20.7762744], [148.8414345, -20.7915085], [148.8256454, -20.7909483], [148.7956155, -20.812839], [148.838219, -20.8243454], [148.85005, -20.8475], [148.8422515, -20.8515745], [148.8437899, -20.8719894], [148.8672881, -20.8679452], [148.8761632, -20.8798743], [148.8637271, -20.8777394], [148.8554847, -20.8934383], [148.8623463, -20.8924347], [148.864771, -20.8779267], [148.8777092, -20.8831284], [148.8749126, -20.8634291], [148.8892713, -20.8547993], [148.8831269, -20.8655386], [148.8905482, -20.8652472], [148.890014, -20.8778935], [148.9145326, -20.887332], [148.9179087, -20.8955297], [148.9505803, -20.8758983], [148.9715069, -20.9014569], [148.9961169, -20.8930168], [149.0043693, -20.9148654], [149.0189368, -20.9127272], [149.0290548, -20.8980514], [149.0456787, -20.9032274], [149.0460469, -20.9209762], [149.0597095, -20.92946], [149.0253458, -20.9251668], [149.011549, -20.9362363], [149.0317485, -20.957871], [149.0203463, -20.9583694], [149.0222871, -20.9789991], [149.0147649, -20.9913182], [149.0217368, -21.000838], [149.0241968, -20.9918341], [149.0440306, -20.9904498], [149.0504053, -20.9809477], [149.0699898, -20.9936586], [149.0687553, -20.9857671], [149.0818135, -20.9879285], [149.0604019, -20.9760959], [149.0896656, -20.9772664], [149.1298209, -21.0164435], [149.1230935, -21.0325499], [149.1325979, -21.0208197], [149.1285867, -21.0001395], [149.1585918, -21.0006248], [149.1690709, -21.0393306], [149.1855935, -21.0339125], [149.210931, -21.0769219], [149.2252, -21.0636855], [149.2246166, -21.1003614], [149.2324528, -21.1044696], [149.2240587, -21.1024797], [149.229599, -21.1098408], [149.223533, -21.1150776], [149.2350177, -21.1065261], [149.2228239, -21.1173673], [149.2208013, -21.1479485], [149.215586, -21.1401387], [149.2044147, -21.1521998], [149.1919796, -21.1820782], [149.1950811, -21.2115733], [149.1875121, -21.2180217], [149.2018941, -21.2236036], [149.2131138, -21.2414175], [149.1928474, -21.2719724], [149.2078727, -21.283006], [149.2238456, -21.2637856], [149.25622, -21.2451499], [149.2713987, -21.2771902], [149.2980999, -21.2737363], [149.293786, -21.2916282], [149.3030389, -21.2931394], [149.2931097, -21.2959076], [149.2944871, -21.3179776], [149.2866659, -21.3188119], [149.3006238, -21.3352335], [149.2963808, -21.3425414], [149.3172028, -21.3590687], [149.3081483, -21.3605059], [149.3107284, -21.3747339], [149.3046652, -21.3691978], [149.2994603, -21.3758966], [149.3103959, -21.376985], [149.3182408, -21.3690591], [149.3161697, -21.3936769], [149.3072066, -21.3906609], [149.3003976, -21.4007194], [149.2893228, -21.3901751], [149.272225, -21.3886767], [149.2849054, -21.392551], [149.2789694, -21.4014278], [149.2894719, -21.4051709], [149.2804263, -21.4109004], [149.296256, -21.4172511], [149.3291066, -21.4106862], [149.3367453, -21.4288696], [149.3338538, -21.4333207], [149.3208837, -21.4191572], [149.3116369, -21.4289982], [149.2982059, -21.4267013], [149.2878342, -21.4612448], [149.2970603, -21.4700599], [149.2843334, -21.4766338], [149.2699945, -21.4666597], [149.2674744, -21.4743762], [149.2855289, -21.4883051], [149.2908992, -21.5080191], [149.309207, -21.4995399], [149.3267229, -21.5053861], [149.3245755, -21.4983865], [149.3100919, -21.4977113], [149.3367548, -21.4870357], [149.3383047, -21.4749407], [149.3574309, -21.4986313], [149.3508929, -21.5110481], [149.354812, -21.5037945], [149.3961429, -21.492046], [149.3817624, -21.5138705], [149.3824495, -21.5299083], [149.3744917, -21.5343591], [149.3836367, -21.5449787], [149.3856855, -21.5381926], [149.4030752, -21.5438981], [149.3899955, -21.551474], [149.3983422, -21.5608204], [149.4039264, -21.5490969], [149.4358611, -21.5561747], [149.4443024, -21.5784561], [149.4316224, -21.5768064], [149.4351828, -21.5833932], [149.4497867, -21.5794087], [149.4450172, -21.5881807], [149.4535263, -21.5826803], [149.4522952, -21.5638304], [149.4640008, -21.5625989], [149.45678, -21.5577772], [149.4658122, -21.5570917], [149.4592972, -21.5547718], [149.4695421, -21.534974], [149.4846528, -21.5332069], [149.4858152, -21.5723335], [149.4772311, -21.5729409], [149.4723339, -21.591487], [149.4500783, -21.6085093], [149.440367, -21.631282], [149.384767, -21.624784], [149.389983, -21.636802]]], [[[148.93036, -20.8641201], [148.9234701, -20.86085], [148.9314099, -20.8605], [148.93036, -20.8641201]]], [[[148.93742, -20.85966], [148.944, -20.8603699], [148.9451501, -20.86472], [148.93742, -20.85966]]], [[[148.8854271, -20.8556028], [148.8790756, -20.8526351], [148.8876844, -20.8521058], [148.8854271, -20.8556028]]], [[[148.9173701, -20.85527], [148.91755, -20.84753], [148.9293899, -20.8525501], [148.9173701, -20.85527]]], [[[148.93067, -20.8445501], [148.9381601, -20.8534799], [148.9316101, -20.85484], [148.93067, -20.8445501]]], [[[148.91641, -20.85475], [148.8979399, -20.85586], [148.9089281, -20.8490309], [148.8975027, -20.8424962], [148.8942699, -20.8476601], [148.89131, -20.82929], [148.90386, -20.8270901], [148.91641, -20.85475]]], [[[148.7662811, -20.6898363], [148.7667725, -20.692229], [148.7603678, -20.6889589], [148.7662811, -20.6898363]]], [[[149.0812458, -20.6512318], [149.0884527, -20.6621979], [149.0834845, -20.6616734], [149.0812458, -20.6512318]]], [[[149.0632497, -20.6520885], [149.057601, -20.6487797], [149.0539145, -20.6382628], [149.0601536, -20.6429215], [149.0632497, -20.6520885]]], [[[149.0561988, -20.6279411], [149.0567346, -20.6191876], [149.0760785, -20.6490941], [149.0561988, -20.6279411]]], [[[149.0643401, -20.5050301], [149.06942, -20.47743], [149.07686, -20.4806801], [149.07607, -20.4634501], [149.08287, -20.46105], [149.0748299, -20.45214], [149.08388, -20.43503], [149.09077, -20.44937], [149.08532, -20.4605], [149.10133, -20.4729199], [149.1044999, -20.4852401], [149.0963999, -20.4822499], [149.09885, -20.4914899], [149.08373, -20.4843301], [149.07785, -20.5041], [149.07007, -20.50496], [149.0679101, -20.5272501], [149.06421, -20.51623], [149.0476701, -20.52556], [149.0370001, -20.5040499], [149.04965, -20.51022], [149.0643401, -20.5050301]]], [[[149.0345406, -20.4674028], [149.0366884, -20.4718625], [149.0326005, -20.4745498], [149.0345406, -20.4674028]]], [[[149.0542089, -20.435727], [149.0654389, -20.4503668], [149.0352134, -20.4609303], [149.0247293, -20.4414971], [149.0345891, -20.4284571], [149.0419891, -20.4380971], [149.0542089, -20.435727]]], [[[149.0375924, -20.4253425], [149.0274083, -20.4212757], [149.0375037, -20.4232157], [149.0375924, -20.4253425]]], [[[149.0360963, -20.4026504], [149.0245544, -20.4011765], [149.0276719, -20.3929643], [149.0370114, -20.3965877], [149.0360963, -20.4026504]]], [[[149.2684417, -21.1741209], [149.2632976, -21.1746784], [149.2661895, -21.1702654], [149.2684417, -21.1741209]]], [[[149.2468419, -21.163464], [149.242191, -21.1630469], [149.2472972, -21.1578831], [149.2468419, -21.163464]]], [[[149.1489501, -20.9839], [149.1496499, -20.9755301], [149.1514199, -20.98412], [149.1489501, -20.9839]]], [[[149.1634004, -20.755616], [149.1605548, -20.7533942], [149.1636659, -20.750084], [149.1634004, -20.755616]]], [[[149.1468297, -20.7025114], [149.1396467, -20.7036344], [149.1440855, -20.7022793], [149.1468297, -20.7025114]]], [[[149.2051637, -20.7008945], [149.1985419, -20.6888721], [149.2103972, -20.6921547], [149.2051637, -20.7008945]]], [[[149.1565774, -20.6751332], [149.1576811, -20.6848862], [149.1385283, -20.6961989], [149.1354831, -20.6867504], [149.1445511, -20.6895429], [149.1502673, -20.6639456], [149.1627997, -20.6651959], [149.1669638, -20.6845566], [149.1565774, -20.6751332]]], [[[149.1872242, -20.6791278], [149.1890844, -20.6912397], [149.1733338, -20.6719767], [149.1820649, -20.667324], [149.1946462, -20.6730066], [149.1872242, -20.6791278]]], [[[149.1416724, -20.6746329], [149.1372003, -20.6768476], [149.1404133, -20.673236], [149.1416724, -20.6746329]]], [[[149.1129598, -20.5834354], [149.1136152, -20.5933342], [149.1102469, -20.5906345], [149.1129598, -20.5834354]]], [[[149.116415, -20.5535717], [149.0959388, -20.5487381], [149.1139096, -20.5376946], [149.1256859, -20.5452106], [149.1183049, -20.5431772], [149.116415, -20.5535717]]], [[[149.0919399, -20.5258101], [149.0815701, -20.5269599], [149.07978, -20.51566], [149.0919399, -20.5258101]]], [[[149.1116001, -20.48541], [149.1139, -20.4934899], [149.11087, -20.4913401], [149.1116001, -20.48541]]], [[[149.13424, -20.4825601], [149.12169, -20.46496], [149.1342899, -20.4666], [149.13424, -20.4825601]]], [[[149.10908, -20.46048], [149.10588, -20.46618], [149.10421, -20.4638801], [149.10908, -20.46048]]], [[[149.0816099, -20.4288899], [149.0934701, -20.41716], [149.09197, -20.4272199], [149.0816099, -20.4288899]]], [[[149.4988164, -21.5999256], [149.4921677, -21.6069628], [149.4852755, -21.5979452], [149.4988164, -21.5999256]]], [[[149.4804221, -21.5172456], [149.48051, -21.5245815], [149.4786464, -21.5187298], [149.47307, -21.5229799], [149.4751161, -21.5148216], [149.4804221, -21.5172456]]], [[[149.4556511, -21.457059], [149.4597885, -21.4527513], [149.4598637, -21.4579899], [149.4556511, -21.457059]]], [[[149.7187815, -21.4594863], [149.7093481, -21.4553034], [149.7105796, -21.4413927], [149.7175743, -21.4444927], [149.7187815, -21.4594863]]], [[[149.6750499, -21.3090372], [149.6945275, -21.3141635], [149.6938012, -21.3283936], [149.6862026, -21.3325096], [149.6646992, -21.3102641], [149.6706534, -21.3007338], [149.6750499, -21.3090372]]], [[[149.9001669, -21.0207797], [149.8964569, -21.0039697], [149.9057567, -21.0022897], [149.9126967, -21.0186097], [149.9001669, -21.0207797]]], [[[149.7769999, -20.9849801], [149.786219, -20.9830787], [149.7963417, -20.9888686], [149.781332, -20.9886683], [149.7769999, -20.9849801]]], [[[149.467519, -20.9375978], [149.4646683, -20.9260501], [149.4706393, -20.9284766], [149.467519, -20.9375978]]], [[[149.4282301, -20.9267499], [149.43218, -20.9171699], [149.4256, -20.9082601], [149.4515701, -20.9050499], [149.46185, -20.91443], [149.44354, -20.9417101], [149.4332, -20.9377399], [149.42921, -20.945], [149.42364, -20.9391701], [149.43664, -20.93023], [149.4282301, -20.9267499]]], [[[149.3962199, -20.91202], [149.38639, -20.90546], [149.415166, -20.8974273], [149.4244929, -20.9216008], [149.4194983, -20.9275723], [149.41097, -20.9177399], [149.4072299, -20.9246001], [149.4007999, -20.91568], [149.39429, -20.9195099], [149.3962199, -20.91202]]], [[[149.62772, -20.8692499], [149.61828, -20.88534], [149.5955599, -20.8856901], [149.5791199, -20.86921], [149.58584, -20.86165], [149.60617, -20.8662301], [149.6044699, -20.84695], [149.62464, -20.8574401], [149.62772, -20.8692499]]], [[[149.2661, -20.81007], [149.2499299, -20.8089999], [149.2764935, -20.7999729], [149.29163, -20.81437], [149.29012, -20.8239099], [149.28233, -20.81539], [149.2682301, -20.8244599], [149.2661, -20.81007]]], [[[149.3017325, -20.8048252], [149.297558, -20.7979312], [149.2857041, -20.8029124], [149.2784062, -20.7977261], [149.275411, -20.7818751], [149.2884617, -20.7761921], [149.3025901, -20.7925024], [149.3017325, -20.8048252]]], [[[149.3908606, -20.7704073], [149.4126701, -20.7748973], [149.3979891, -20.7798043], [149.3908606, -20.7704073]]], [[[149.6266313, -20.7749353], [149.6137629, -20.7804273], [149.6236, -20.7620637], [149.6266313, -20.7749353]]], [[[149.4845068, -20.743751], [149.473072, -20.7483075], [149.4669105, -20.7281651], [149.4845068, -20.743751]]]]}}]}