{"type":"FeatureCollection","features":[{"type":"Feature","properties":{"slug":"madison-in","member_count":15,"matched_count":2,"unmatched":["Balance of Madison township (US-IN, type='Balance')","Hanover town (US-IN, type='Town')","Balance of Hanover township (US-IN, type='Balance')","Republican township (US-IN, type='Township')","Graham township (US-IN, type='Township')","Saluda township (US-IN, type='Township')","Balance of Lancaster township (US-IN, type='Balance')","Shelby township (US-IN, type='Township')","Smyrna township (US-IN, type='Township')","Balance of Milton township (US-IN, type='Balance')","Monroe township (US-IN, type='Township')","Dupont town (US-IN, type='Town')","Brooksburg town (US-IN, type='Town')"],"source":"Overture Maps division_area (CC-BY 4.0)"},"geometry":{"type":"MultiPolygon","coordinates":[[[[-85.5380828,38.9121241],[-85.2031942,38.9139032],[-85.2014726,38.6910096],[-85.2212994,38.7010384],[-85.2469199,38.7319448],[-85.2676909,38.7398785],[-85.3024953,38.7417865],[-85.3636032,38.7303718],[-85.422272,38.7347568],[-85.4518407,38.7101978],[-85.4569047,38.6885113],[-85.4385369,38.6589601],[-85.4382365,38.6046842],[-85.428366,38.5867732],[-85.4780866,38.5861383],[-85.4781928,38.5924597],[-85.496452,38.59222],[-85.4966606,38.6067318],[-85.5701239,38.6061598],[-85.570396,38.678398],[-85.608124,38.678677],[-85.608948,38.707687],[-85.646095,38.707951],[-85.646423,38.73016],[-85.684669,38.738579],[-85.684311,38.824692],[-85.638222,38.825287],[-85.638313,38.817581],[-85.629456,38.81752],[-85.629364,38.825226],[-85.610458,38.825542],[-85.611298,38.853653],[-85.573479,38.853828],[-85.5739558,38.8826002],[-85.537497,38.8826754],[-85.5380828,38.9121241]]],[[[-85.5763003,39.9458211],[-85.8625428,39.943638],[-85.8621998,40.378297],[-85.5784752,40.3794287],[-85.5763003,39.9458211]]]]}}]}