{"type": "FeatureCollection", "features": [{"type": "Feature", "properties": {"slug": "makurdi", "members": 1, "country": "Nigeria", "input_hash": "45e9c2e13e18e01d"}, "geometry": {"type": "Polygon", "coordinates": [[[8.6199322, 7.6336045], [8.6562166, 7.6875663], [8.6655207, 7.7643223], [8.647378, 7.8099103], [8.6069069, 7.8531728], [8.5580626, 7.8792233], [8.4947968, 7.885736], [8.4487438, 7.868989], [8.3966427, 7.8294482], [8.3938513, 7.8099103], [8.411994, 7.7685089], [8.372159, 7.7700024], [8.3729181, 7.7164078], [8.3891993, 7.6689587], [8.4371138, 7.6126714], [8.5003796, 7.5898771], [8.5375938, 7.5875511], [8.5734138, 7.597785], [8.6199322, 7.6336045]]]}}]}