{"type":"FeatureCollection","features":[{"type":"Feature","properties":{"slug":"malatya","member_count":13,"matched_count":13,"unmatched":[],"source":"Overture Maps division_area (CC-BY 4.0)"},"geometry":{"type":"Polygon","coordinates":[[[38.0915785,38.0882188],[38.0878346,38.0719463],[38.1133906,38.0334929],[38.1500279,38.0189689],[38.1589153,37.9963132],[38.1693711,37.9945623],[38.1576204,37.9775427],[38.1547989,37.9502563],[38.1056664,37.948746],[38.0901313,37.9582898],[38.0760326,37.9487041],[38.0788288,37.9420657],[38.0349065,37.9337765],[38.0371296,37.9139677],[38.0170295,37.8949881],[37.9746973,37.8879823],[37.9102491,37.8988884],[37.8871627,37.890883],[37.8767377,37.8974886],[37.8539713,37.886509],[37.8447354,37.8942868],[37.7665257,37.8896413],[37.7687978,37.9031177],[37.7486869,37.9103792],[37.7686539,37.9242361],[37.7622734,37.9327622],[37.6877403,37.9077729],[37.6844787,37.9209772],[37.6988128,37.9372675],[37.6923941,37.957595],[37.6723677,37.9484443],[37.6620464,37.9538701],[37.6005295,37.9447594],[37.5990343,37.9716902],[37.5838959,37.9829127],[37.5808275,38.0057076],[37.5985515,38.0042367],[37.6013303,38.0131128],[37.5875115,38.0146512],[37.5768793,38.0260192],[37.5825763,38.0349941],[37.5786495,38.0540473],[37.6744794,38.0844123],[37.7100561,38.1126798],[37.7268791,38.1329701],[37.7273941,38.1487326],[37.7181244,38.1577768],[37.7486372,38.1647616],[37.7512979,38.1741749],[37.746039,38.2422567],[37.7364278,38.2550488],[37.6685786,38.2585872],[37.6758528,38.3066081],[37.6555753,38.3169458],[37.598691,38.3244036],[37.58322,38.3384416],[37.5741005,38.3365734],[37.5274086,38.3621352],[37.5079465,38.3624717],[37.4875617,38.382642],[37.4575424,38.3754089],[37.4564695,38.3912367],[37.4018168,38.4128281],[37.3663687,38.4063379],[37.3662615,38.4166782],[37.3489237,38.4222261],[37.3608327,38.4269498],[37.354846,38.4367494],[37.3383021,38.4347156],[37.3306632,38.4443629],[37.3105788,38.4399932],[37.28513,38.4558068],[37.2779631,38.4777653],[37.2606253,38.4958882],[37.2774052,38.519782],[37.3160934,38.5469739],[37.3062229,38.5675625],[37.3209568,38.5691001],[37.3168659,38.5780475],[37.3308778,38.5930928],[37.3904872,38.6165016],[37.395122,38.6514162],[37.4157965,38.659895],[37.4244332,38.6893788],[37.4378657,38.690166],[37.4692797,38.7310877],[37.5057042,38.7447872],[37.5343233,38.7664483],[37.5293827,38.7929949],[37.5181174,38.8033633],[37.5246834,38.8191472],[37.5492525,38.8269807],[37.5433124,38.829881],[37.5487069,38.8510395],[37.5341375,38.8623089],[37.5406888,38.8720285],[37.5277491,38.8835482],[37.5259891,38.8991247],[37.5432312,38.923041],[37.5312692,38.9252725],[37.5312178,38.9347887],[37.5168943,38.9444238],[37.5040948,38.9728475],[37.5102103,38.972931],[37.5083521,38.9795406],[37.4991166,38.9861753],[37.5045347,38.9898947],[37.4870038,39.000326],[37.4898148,39.0411947],[37.4994712,39.0425487],[37.5097688,39.0291359],[37.5233298,39.0318832],[37.5285043,39.0210287],[37.5396963,39.0248466],[37.5351351,39.0061045],[37.5765891,39.0175087],[37.5847122,39.0108744],[37.6225047,39.0168274],[37.6550048,39.0092247],[37.659274,38.9961751],[37.674451,38.9998397],[37.6769093,38.9898199],[37.7146045,38.9672544],[37.7618602,38.971074],[37.7615762,38.9918543],[37.7729058,38.9996257],[37.7669191,39.050302],[37.7551389,39.0627155],[37.7628207,39.0969788],[37.7704811,39.1024074],[37.8545737,39.0900675],[37.8769326,39.0748103],[37.910428,39.0662809],[37.9409408,39.0674471],[37.960639,39.0823727],[38.0053567,39.0758098],[38.0393457,39.0819064],[38.0840635,39.0748437],[38.0887842,39.0622324],[38.1116581,39.0827059],[38.160882,39.0977615],[38.1960725,39.0994267],[38.2509183,39.136718],[38.2913017,39.1429424],[38.3687424,39.1106328],[38.4281587,39.1188573],[38.4572285,39.0894929],[38.4574056,39.1077607],[38.4768033,39.0975783],[38.5001063,39.0980113],[38.5299539,39.1112821],[38.5691678,39.0900342],[38.5723221,39.0771424],[38.6101949,39.1047386],[38.6441516,39.0762763],[38.6504388,39.0579503],[38.6780242,39.0420367],[38.6011934,38.9797953],[38.597567,38.9590918],[38.6190354,38.9510156],[38.614127,38.9474486],[38.5789203,38.9456922],[38.5697793,38.9337756],[38.5559177,38.9417202],[38.5279797,38.9357785],[38.5869884,38.8923022],[38.6086177,38.8887113],[38.5953579,38.8698264],[38.6233157,38.8540392],[38.6265032,38.8433801],[38.6340165,38.8446636],[38.6308936,38.83117],[38.6486583,38.8250798],[38.6473134,38.8134875],[38.6567187,38.8038221],[38.6458811,38.7799472],[38.6272001,38.7768708],[38.6454501,38.7564414],[38.6248406,38.7442356],[38.603855,38.7544102],[38.5684927,38.753607],[38.5332163,38.7651188],[38.5090507,38.7479844],[38.4712138,38.7502164],[38.4670081,38.7460661],[38.4761046,38.7289955],[38.4672085,38.6970594],[38.4124954,38.6842961],[38.3658035,38.6324196],[38.3574905,38.6065052],[38.3618553,38.5418475],[38.4685975,38.474829],[38.5058286,38.4642699],[38.5324935,38.4687179],[38.5661085,38.4609359],[38.5919416,38.4437239],[38.6147156,38.4456619],[38.7083205,38.4156708],[38.813149,38.4435089],[38.8337801,38.4319105],[38.8344346,38.4097645],[38.8767066,38.3864261],[38.8902424,38.3581649],[38.9176505,38.3556887],[38.9677752,38.3188946],[38.9890407,38.3193777],[39.0061845,38.3324172],[39.0997085,38.3414976],[39.1062794,38.3478962],[39.1514252,38.2992522],[39.1388564,38.2310565],[39.1076485,38.2006914],[39.125989,38.1868672],[39.1663591,38.1835598],[39.1361756,38.178616],[39.0734684,38.1517558],[39.0572183,38.1351328],[39.0531802,38.0839666],[38.978412,38.0751372],[38.9734359,38.0867539],[38.9292186,38.0904321],[38.9046029,38.0778479],[38.8867797,38.0801118],[38.885512,38.0601669],[38.8621641,38.0606138],[38.8455896,38.044821],[38.8198267,38.0395838],[38.8230137,38.0136945],[38.7994734,38.0091861],[38.7684002,37.9749077],[38.7471052,37.9835858],[38.7418358,37.9946176],[38.7527006,38.0294859],[38.7321662,38.0530597],[38.7138194,38.0450241],[38.6825234,38.0509214],[38.6830247,38.0628331],[38.6538993,38.0706117],[38.5668182,38.1390798],[38.496437,38.1582492],[38.4919597,38.1902752],[38.4417411,38.1751234],[38.4291503,38.1258615],[38.4163141,38.1159549],[38.4151265,38.1025569],[38.3781194,38.1187235],[38.3506206,38.1191935],[38.3035969,38.1051496],[38.2987046,38.1103836],[38.3242929,38.1199389],[38.3038974,38.1317211],[38.3212995,38.1646604],[38.2908725,38.1601389],[38.3113861,38.1572706],[38.301773,38.1326325],[38.2754659,38.1401936],[38.2685136,38.1471802],[38.2910871,38.1495426],[38.2675695,38.1617923],[38.2791566,38.1664149],[38.2555532,38.1840256],[38.2749939,38.2084777],[38.263235,38.2100626],[38.2229375,38.1675959],[38.2154396,38.1482475],[38.1937593,38.1408404],[38.1876462,38.1036802],[38.1592659,38.1193167],[38.1486511,38.1076822],[38.1317705,38.1052243],[38.1320601,38.0869337],[38.0915785,38.0882188]]]}}]}