{"type": "FeatureCollection", "features": [{"type": "Feature", "properties": {"slug": "malang", "members": 2, "country": "Indonesia", "input_hash": "99b15755aa895e3b"}, "geometry": {"type": "MultiPolygon", "coordinates": [[[[112.6207735, -8.440719], [112.621243, -8.4407071], [112.6208365, -8.4411875], [112.6207735, -8.440719]]], [[[112.5210039, -8.4056166], [112.5210493, -8.4052254], [112.5216358, -8.4053377], [112.5210039, -8.4056166]]], [[[112.5298593, -8.4051831], [112.5295405, -8.4052564], [112.5296496, -8.4049206], [112.5298593, -8.4051831]]], [[[112.5209754, -8.4039703], [112.5208226, -8.4036372], [112.5217232, -8.4036579], [112.5209754, -8.4039703]]], [[[112.5295566, -8.4037944], [112.5301748, -8.4032578], [112.5302715, -8.4039433], [112.5295566, -8.4037944]]], [[[112.5333699, -8.4037327], [112.5332971, -8.4035115], [112.5335662, -8.4034362], [112.5333699, -8.4037327]]], [[[112.4447503, -8.4005789], [112.445109, -8.4001342], [112.4451144, -8.4006547], [112.4447503, -8.4005789]]], [[[112.4553546, -8.3984372], [112.4558201, -8.3984211], [112.4556298, -8.3989492], [112.4553546, -8.3984372]]], [[[112.4466804, -8.3981757], [112.4457067, -8.398327], [112.4457161, -8.398124], [112.4466804, -8.3981757]]], [[[112.4490434, -8.3964775], [112.4495453, -8.3961704], [112.4492338, -8.3965439], [112.4490434, -8.3964775]]], [[[112.4247569, -8.389932], [112.4243512, -8.3900482], [112.4245035, -8.3897182], [112.4247569, -8.389932]]], [[[112.424577, -8.3882975], [112.4249786, -8.387453], [112.4258128, -8.3877449], [112.424577, -8.3882975]]], [[[112.4234614, -8.3871624], [112.4237781, -8.3872469], [112.4234039, -8.3872125], [112.4234614, -8.3871624]]], [[[112.4240127, -8.3870802], [112.4244556, -8.3870859], [112.4242929, -8.3871729], [112.4240127, -8.3870802]]], [[[112.3961475, -8.380246], [112.3959464, -8.3802194], [112.3959893, -8.3798718], [112.3961475, -8.380246]]], [[[112.3738959, -8.3787964], [112.3736951, -8.3787491], [112.3738099, -8.3787018], [112.3738959, -8.3787964]]], [[[112.3744841, -8.3776089], [112.3741685, -8.3776893], [112.3744411, -8.3771074], [112.3744841, -8.3776089]]], [[[112.6553819, -8.4522362], [112.6550308, -8.4525586], [112.6549585, -8.4521714], [112.6553819, -8.4522362]]], [[[112.6519441, -8.4512082], [112.6528137, -8.4503088], [112.6523204, -8.4520001], [112.6519441, -8.4512082]]], [[[112.641507, -8.4512747], [112.6417255, -8.4510337], [112.6417835, -8.451191], [112.641507, -8.4512747]]], [[[112.6497407, -8.4492561], [112.64963, -8.4497636], [112.6492641, -8.4496635], [112.6497407, -8.4492561]]], [[[112.6536706, -8.449053], [112.6542247, -8.448083], [112.6544828, -8.4482458], [112.6536706, -8.449053]]], [[[112.6595679, -8.447015], [112.6591756, -8.4473334], [112.6591253, -8.4468955], [112.6595679, -8.447015]]], [[[112.6888463, -8.4509164], [112.6800835, -8.4559741], [112.6780864, -8.4452304], [112.6905631, -8.4322638], [112.7123397, -8.4345302], [112.7065205, -8.4637955], [112.688157, -8.4578791], [112.6888463, -8.4509164]]], [[[112.6703042, -8.4455913], [112.6706046, -8.4453644], [112.6708017, -8.4461086], [112.6703042, -8.4455913]]], [[[112.6691173, -8.4446282], [112.6686775, -8.4456006], [112.6680672, -8.4460489], [112.6691173, -8.4446282]]], [[[112.6644994, -8.4455103], [112.6643786, -8.4442565], [112.6645094, -8.4444157], [112.6644994, -8.4455103]]], [[[112.6423375, -8.4423406], [112.6416003, -8.4439335], [112.6412379, -8.4433117], [112.6423375, -8.4423406]]], [[[112.6225871, -8.4417349], [112.6228304, -8.4419339], [112.6226595, -8.4420141], [112.6225871, -8.4417349]]], [[[112.6280858, -8.4293324], [112.6278938, -8.4295712], [112.6276821, -8.4292889], [112.6280858, -8.4293324]]], [[[112.75392, -8.4231558], [112.7547348, -8.4223625], [112.7547757, -8.4243803], [112.75392, -8.4231558]]], [[[112.7665361, -8.3963208], [112.7665575, -8.3966286], [112.7664288, -8.3964269], [112.7665361, -8.3963208]]], [[[112.3077087, -7.8390068], [112.3066787, -7.7995452], [112.2882919, -7.7795495], [112.2920761, -7.7688006], [112.3287798, -7.7774898], [112.349327, -7.7611183], [112.3818588, -7.7848991], [112.396759, -7.7854294], [112.422203, -7.7669414], [112.4549941, -7.7792209], [112.4633483, -7.7687543], [112.4784288, -7.7676579], [112.4964675, -7.8365258], [112.4883346, -7.8804201], [112.4756011, -7.9030656], [112.4743804, -7.9410699], [112.5147094, -7.9202279], [112.5672149, -7.9129442], [112.5800399, -7.9175504], [112.5949935, -7.9021533], [112.5833053, -7.888624], [112.5730514, -7.8908466], [112.564537, -7.8697842], [112.5706405, -7.8132971], [112.5854949, -7.7880386], [112.5834274, -7.7708295], [112.5912551, -7.7654994], [112.6187438, -7.789378], [112.6545028, -7.7969449], [112.6614303, -7.80593], [112.7150039, -7.8208187], [112.7327957, -7.8180063], [112.7586364, -7.8647864], [112.7766494, -7.8679669], [112.784378, -7.9007104], [112.8054122, -7.9254578], [112.8216476, -7.9280975], [112.8358383, -7.9410303], [112.9353179, -7.9561956], [112.9278182, -7.9672568], [112.9421996, -7.9833562], [112.9362868, -8.0002849], [112.9258498, -8.0017793], [112.9347304, -8.0187566], [112.908615, -8.0421465], [112.9007644, -8.0699194], [112.9058227, -8.0815599], [112.9231567, -8.0869587], [112.9254989, -8.11075], [112.9031371, -8.157747], [112.9228286, -8.2394664], [112.91053, -8.2652824], [112.9188079, -8.2846143], [112.9148788, -8.301584], [112.9416961, -8.3121784], [112.9340667, -8.3302887], [112.956461, -8.3509103], [112.9487049, -8.3563066], [112.9377407, -8.3814321], [112.9307025, -8.3822017], [112.9321134, -8.3882411], [112.9113906, -8.3992053], [112.9073405, -8.3831251], [112.8988757, -8.3808125], [112.8926956, -8.3884534], [112.8982156, -8.4016995], [112.8717664, -8.4084737], [112.8630036, -8.3951402], [112.8475138, -8.4054939], [112.8480369, -8.3773881], [112.8393948, -8.3857521], [112.8385472, -8.3721074], [112.8310397, -8.3690318], [112.8201687, -8.3732644], [112.8126585, -8.401344], [112.804451, -8.3967057], [112.7921933, -8.4030952], [112.7882451, -8.3978998], [112.7830523, -8.3972497], [112.7832228, -8.3872413], [112.7710843, -8.3868241], [112.7662885, -8.3923514], [112.7663341, -8.4117134], [112.7537813, -8.4127323], [112.7573165, -8.4214538], [112.7501309, -8.4148112], [112.7425643, -8.4248897], [112.739563, -8.4159747], [112.7093732, -8.4174844], [112.6715538, -8.4451758], [112.6676729, -8.4408408], [112.6516981, -8.4485211], [112.6315536, -8.4292084], [112.6229632, -8.4291058], [112.6159224, -8.4337276], [112.6105714, -8.421406], [112.586284, -8.4182247], [112.5570184, -8.4024186], [112.5290202, -8.4020285], [112.5220377, -8.4051788], [112.5208767, -8.3975147], [112.5102058, -8.3955913], [112.5027117, -8.4045599], [112.4708417, -8.3929378], [112.4643534, -8.3963992], [112.4511342, -8.3950062], [112.4433016, -8.3982772], [112.4088223, -8.376531], [112.3715986, -8.3746031], [112.358669, -8.348569], [112.3850631, -8.285056], [112.3812637, -8.2462367], [112.3717346, -8.2374238], [112.3883514, -8.236122], [112.3934326, -8.227907], [112.3829498, -8.2078465], [112.3853072, -8.1922387], [112.3671951, -8.1834735], [112.366127, -8.1754483], [112.3917617, -8.1618374], [112.4116287, -8.1602887], [112.4155807, -8.1663083], [112.4525527, -8.1442612], [112.4591598, -8.1149405], [112.4534225, -8.0569466], [112.4645004, -8.0298518], [112.4684295, -7.9870552], [112.4789581, -7.9711646], [112.4451599, -7.910776], [112.370491, -7.9572672], [112.3065795, -7.9292973], [112.3259811, -7.8728718], [112.3178839, -7.8609706], [112.3190157, -7.8397502], [112.3077087, -7.8390068]], [[112.5965522, -7.9834405], [112.5966796, -7.9838479], [112.5982815, -7.9810121], [112.5965522, -7.9834405]], [[112.59700935330378, -7.980135558847848], [112.5968569, -7.9804457], [112.5982815, -7.9810121], [112.59700935330378, -7.980135558847848]], [[112.591853, -7.972831], [112.591051, -7.9740253], [112.5908973, -7.9759242], [112.591853, -7.972831]], [[112.6008536, -7.9684353], [112.60289796905852, -7.971146029009509], [112.603344, -7.9708718], [112.6008536, -7.9684353]], [[112.598035, -7.9632372], [112.60255248909952, -7.967273217359556], [112.6026126, -7.9672321], [112.598035, -7.9632372]]], [[[112.7978674, -8.4122839], [112.7985486, -8.4137697], [112.7960569, -8.4133837], [112.7978674, -8.4122839]]], [[[112.79901, -8.4090826], [112.7980927, -8.4106016], [112.7953474, -8.4074959], [112.79901, -8.4090826]]], [[[112.7984906, -8.408153], [112.7988802, -8.4081364], [112.798905, -8.4083603], [112.7984906, -8.408153]]], [[[112.8479281, -8.4060458], [112.8480662, -8.4078315], [112.8474829, -8.406859], [112.8479281, -8.4060458]]], [[[112.7679872, -8.4051083], [112.7678991, -8.4059162], [112.7675026, -8.4051457], [112.7679872, -8.4051083]]], [[[112.7941649, -8.4046959], [112.7940327, -8.4050383], [112.7932586, -8.4033262], [112.7941649, -8.4046959]]], [[[112.7682862, -8.4027129], [112.7686504, -8.4024359], [112.7684498, -8.4029215], [112.7682862, -8.4027129]]], [[[112.7906361, -8.4014529], [112.7904806, -8.4013945], [112.7905141, -8.4012207], [112.7906361, -8.4014529]]], [[[112.7902901, -8.4010734], [112.7901346, -8.4011676], [112.7900769, -8.4010814], [112.7902901, -8.4010734]]], [[[112.7874993, -8.3987556], [112.7874812, -8.3982395], [112.7876448, -8.3982847], [112.7874993, -8.3987556]]], [[[112.9315942, -8.3830296], [112.9325344, -8.382053], [112.9329293, -8.3835404], [112.9315942, -8.3830296]]], [[[112.9459718, -8.3665702], [112.9463023, -8.3657441], [112.9468754, -8.3663006], [112.9459718, -8.3665702]]], [[[112.9476236, -8.3659351], [112.9472824, -8.3657218], [112.947459, -8.3655556], [112.9476236, -8.3659351]]], [[[112.9480596, -8.36276], [112.9481304, -8.3628221], [112.9480187, -8.3630453], [112.9480596, -8.36276]]], [[[112.9481251, -8.3627312], [112.9480056, -8.3627147], [112.9480738, -8.3626573], [112.9481251, -8.3627312]]], [[[112.9503154, -8.3562597], [112.9503776, -8.356726], [112.9496824, -8.3567037], [112.9503154, -8.3562597]]]]}}]}