{"type": "FeatureCollection", "features": [{"type": "Feature", "properties": {"slug": "malaga", "members": 94, "country": "Spain", "input_hash": "bb3c16c2f38329be"}, "geometry": {"type": "MultiPolygon", "coordinates": [[[[-5.374608872375791, 36.45382885858658], [-5.3955481, 36.46958], [-5.4134908, 36.520662], [-5.4293242, 36.5331562], [-5.4616251, 36.5371257], [-5.4652852, 36.5278755], [-5.4737231, 36.5365059], [-5.4921149694707125, 36.53646915999447], [-5.5242497, 36.4977123], [-5.5600147, 36.5034841], [-5.5720261, 36.5125806], [-5.6082903, 36.5122887], [-5.6117767, 36.5416015], [-5.5960636, 36.550993], [-5.5416415, 36.5376644], [-5.5370653, 36.5271543], [-5.523325, 36.5311228], [-5.5020575, 36.5476129], [-5.489554, 36.57046], [-5.4608165, 36.5887845], [-5.4559136, 36.6195827], [-5.4385027, 36.6141724], [-5.381612448663732, 36.631611441435545], [-5.3240292, 36.673341], [-5.3303969, 36.6793183], [-5.3187143, 36.690479], [-5.3276213, 36.6948927], [-5.3246259, 36.7240085], [-5.2909349, 36.77517], [-5.3198188, 36.7867323], [-5.3407139, 36.8194176], [-5.333027, 36.8386046], [-5.3062911, 36.8575921], [-5.3016159, 36.8697378], [-5.269202, 36.8841246], [-5.2663049, 36.8753321], [-5.2253751, 36.8565751], [-5.2220131, 36.8427223], [-5.1722644, 36.8235068], [-5.1340729, 36.8385649], [-5.1050795, 36.8979362], [-5.0867694, 36.9050907], [-5.1089389, 36.9586347], [-5.097459, 36.971352], [-5.1123079, 36.9758605], [-5.1111457, 36.985162], [-5.142437, 37.0046003], [-5.1228403, 37.0276912], [-5.1122274, 37.0191112], [-5.0833075, 37.0314651], [-5.0530894, 37.0306039], [-5.0335795, 37.0489294], [-5.027963, 37.0440685], [-5.0267149, 37.0516786], [-4.990633916213475, 37.06349508118935], [-4.908368, 37.1146499], [-4.90311413681189, 37.13778692528114], [-4.9426649, 37.1575879], [-4.9396031, 37.1756993], [-4.92516, 37.1706626], [-4.9051126, 37.1818649], [-4.897618, 37.1560288], [-4.8804453, 37.1632694], [-4.8755, 37.1581925], [-4.8566991, 37.173567], [-4.8538639, 37.1985854], [-4.8259062, 37.2007051], [-4.8192157, 37.1975004], [-4.8274225, 37.1869464], [-4.822555684390904, 37.18021964216127], [-4.7992172, 37.1723089], [-4.8011204, 37.1599595], [-4.79230905675637, 37.1543274221275], [-4.7600139, 37.1772599], [-4.7086062, 37.1976963], [-4.7112695, 37.206869], [-4.7272087, 37.211108], [-4.7323079, 37.2261479], [-4.7179452, 37.2398941], [-4.7357454, 37.2448348], [-4.7196914, 37.2596965], [-4.7140335, 37.2528388], [-4.6910336, 37.2518536], [-4.6587591, 37.2577354], [-4.6446054, 37.2467028], [-4.6141921, 37.2554208], [-4.6140886025061985, 37.24292779075779], [-4.596276, 37.2250547], [-4.6022987, 37.2092374], [-4.5762076, 37.2091617], [-4.5611694, 37.2193108], [-4.5394685, 37.2113028], [-4.4993435, 37.2303485], [-4.4980774, 37.2233343], [-4.4911644, 37.2385818], [-4.478077529182121, 37.2450538995452], [-4.4857232, 37.2519807], [-4.4770447, 37.2573621], [-4.464564782192227, 37.252050725139085], [-4.4682415, 37.2575438], [-4.4569713, 37.2584402], [-4.4440378, 37.2779501], [-4.3834131, 37.2774128], [-4.3760637, 37.2572187], [-4.3774552, 37.2417732], [-4.38490864177128, 37.23806802142348], [-4.372833188365626, 37.21652589194284], [-4.3226294, 37.2045229], [-4.3322091, 37.1911568], [-4.2870668, 37.1195203], [-4.2725096, 37.0149023], [-4.2519258, 37.0229811], [-4.2313348, 37.0169409], [-4.215422, 36.991767], [-4.1666404, 36.9570749], [-4.0998927, 36.9527091], [-4.0919999, 36.9332485], [-4.0537727, 36.9149705], [-4.047040141208298, 36.90356203846539], [-3.9992112, 36.8898324], [-3.9707789, 36.8920512], [-3.9295246, 36.8828799], [-3.9185972, 36.868082], [-3.8904593, 36.8675404], [-3.8676103, 36.8506794], [-3.8271693, 36.8555289], [-3.7681436, 36.8019546], [-3.766633, 36.7853775], [-3.7822793, 36.7644516], [-3.7780901, 36.73756], [-3.7925559, 36.7464429], [-3.8354899, 36.7539803], [-3.8841942, 36.7406543], [-3.9208592748937523, 36.74063475612898], [-3.9574603, 36.7260295], [-4.0229348, 36.7440107], [-4.0711005, 36.7465109], [-4.0662705, 36.7470358], [-4.0659533, 36.7486644], [-4.0806397, 36.7462805], [-4.1122389, 36.7248207], [-4.1778781, 36.7150105], [-4.3271337, 36.7114515], [-4.395448292133998, 36.72212880216014], [-4.4137841, 36.7124707], [-4.4112786, 36.7090608], [-4.4145179, 36.6987111], [-4.415626, 36.713824], [-4.413235, 36.7177594], [-4.418488, 36.7171526], [-4.4182198, 36.7010919], [-4.4276175, 36.701351], [-4.425979286092666, 36.70472090682407], [-4.425945095941802, 36.70826496862537], [-4.4328153, 36.7025754], [-4.4410743, 36.6819446], [-4.4867433, 36.6326653], [-4.5080051, 36.6021141], [-4.5076437, 36.5974731], [-4.5120683, 36.5927096], [-4.5088765, 36.5965995], [-4.5140119, 36.5976917], [-4.5388341, 36.5785235], [-4.5585966, 36.5803664], [-4.603574, 36.5629143], [-4.6384564, 36.5070231], [-4.6760401, 36.5035543], [-4.6947409, 36.4901573], [-4.7404291, 36.4826197], [-4.8608674, 36.507319], [-4.9351592, 36.4997396], [-4.9525722, 36.4832256], [-4.9501211, 36.4886952], [-5.0062646, 36.4594243], [-5.0334407, 36.4612709], [-5.0597264, 36.4500225], [-5.0812055, 36.4505576], [-5.1102646, 36.4328728], [-5.1402298, 36.4261157], [-5.1563603, 36.4118912], [-5.1768692, 36.414394], [-5.2193708, 36.3764027], [-5.2470197, 36.3109672], [-5.27783, 36.3371234], [-5.3200847, 36.3250709], [-5.3151563, 36.343337], [-5.3351209, 36.3705194], [-5.3349691, 36.3948753], [-5.374608872375791, 36.45382885858658]], [[-4.315455022437492, 36.71284713822411], [-4.315504200686507, 36.71284126127068], [-4.3153857, 36.71245], [-4.315455022437492, 36.71284713822411]]], [[[-3.7877401, 36.7425093], [-3.7878893, 36.7428411], [-3.7876037, 36.7427573], [-3.7877401, 36.7425093]]]]}}]}