{"type": "FeatureCollection", "features": [{"type": "Feature", "properties": {"slug": "malanje", "members": 1, "country": "Angola", "input_hash": "4985ac15870e94d8"}, "geometry": {"type": "Polygon", "coordinates": [[[16.210054324702526, -9.783583459349074], [16.243269045662316, -9.748246230710095], [16.295330805424044, -9.748246230710095], [16.320694226619537, -9.735089547814198], [16.338048146766994, -9.692984681605537], [16.366081402023326, -9.669298370269985], [16.430157414037865, -9.654822580605867], [16.456855752260537, -9.635081864487404], [16.50891751213885, -9.65350656886028], [16.532946016644246, -9.65350656886028], [16.56631893956842, -9.631133583069982], [16.58425688564023, -9.62850136969223], [16.591682360728157, -9.573220155263357], [16.618380699330316, -9.542943293343455], [16.623720366602925, -9.434977865972542], [16.617045782413243, -9.357274482320236], [16.59969186249276, -9.359908780509784], [16.576998274515063, -9.377031231546198], [16.539620600844955, -9.375714150514568], [16.50891751213885, -9.369128666923757], [16.420812995619087, -9.328295886182161], [16.408798742999466, -9.304584334425613], [16.408798742999466, -9.27428390172571], [16.435497081705705, -9.217628252452073], [16.428822497007957, -9.179413491151706], [16.348727481872118, -9.171506474267517], [16.285674246091276, -9.179141324273871], [16.279311802327413, -9.240028087136693], [16.252613464081094, -9.283506049761229], [16.243269045662316, -9.319074918502508], [16.2150689257914, -9.350606325842136], [16.212983117679414, -9.459668078523237], [16.198382464294923, -9.480241901738054], [16.160837925865792, -9.500814491373887], [16.156666310484866, -9.517271672287393], [16.10452111860502, -9.570752033596136], [16.094092079769496, -9.636562458646665], [16.06697658024217, -9.64478786126466], [16.062804964861016, -9.6838557800599], [16.02943204181304, -9.73781637756349], [16.144492931947468, -9.74320106636975], [16.210054324702526, -9.783583459349074]]]}}]}