{"type": "FeatureCollection", "features": [{"type": "Feature", "properties": {"slug": "male", "members": 2, "country": "Maldives", "input_hash": "3df0295fc6c02111"}, "geometry": {"type": "MultiPolygon", "coordinates": [[[[73.4821026, 4.1728257], [73.4886035, 4.1740644], [73.4878093, 4.1701317], [73.4821026, 4.1728257]]], [[[73.5008204, 4.1686249], [73.5051169, 4.1805014], [73.5185861, 4.1774788], [73.5181315, 4.1704799], [73.5008204, 4.1686249]]], [[[73.4608169, 4.1859099], [73.4585023, 4.1780136], [73.4653294, 4.1769151], [73.4696868, 4.1872105], [73.4783839, 4.1725785], [73.4552979, 4.1761981], [73.4608169, 4.1859099]]], [[[73.5281548, 4.1754819], [73.5251369, 4.1923681], [73.5304078, 4.2160078], [73.5325213, 4.218819], [73.5367132, 4.1888401], [73.5410057, 4.1994839], [73.534626, 4.2079109], [73.5435399, 4.2314835], [73.5405226, 4.2356499], [73.5320836, 4.2201719], [73.5403466, 4.2386944], [73.5498135, 4.2409824], [73.5391642, 4.1907185], [73.5281548, 4.1754819]]]]}}]}