{"type":"FeatureCollection","features":[{"type":"Feature","properties":{"slug":"malone-ny","member_count":27,"matched_count":27,"unmatched":[],"source":"Overture Maps division_area (CC-BY 4.0)"},"geometry":{"type":"MultiPolygon","coordinates":[[[[-75.196368,42.359019],[-75.129756,42.387932],[-75.122434,42.39406],[-75.127024,42.398851],[-75.093025,42.420674],[-75.059224,42.430518],[-75.015373,42.38565],[-75.051484,42.366555],[-75.001764,42.31477],[-75.107247,42.259085],[-75.197325,42.252569],[-75.205185,42.323424],[-75.196368,42.359019]]],[[[-74.720339,44.952949],[-74.7218056,44.9984444],[-74.670529,45.006285],[-74.663059,44.998923],[-74.3365281,44.9920131],[-74.027405,44.9956964],[-74.007942,44.895563],[-74.006514,44.836851],[-73.986427,44.707701],[-73.966196,44.709047],[-73.945973,44.574875],[-73.933055,44.576102],[-73.909678,44.430056],[-74.141009,44.407368],[-74.093521,44.137497],[-74.534687,44.099115],[-74.54426,44.169629],[-74.525188,44.170795],[-74.641955,44.952577],[-74.720339,44.952949]]]]}}]}