{"type":"FeatureCollection","features":[{"type":"Feature","properties":{"slug":"manchester","member_count":382,"matched_count":14,"unmatched":["Mobberley, Plumley & High Legh (GB-ENG, type='MSOA')","Handforth & Dean Row (GB-ENG, type='MSOA')","Central Macclesfield (GB-ENG, type='MSOA')","Gawsworth & Macclesfield Forest (GB-ENG, type='MSOA')","Alderley Edge & Chelford (GB-ENG, type='MSOA')","Macclesfield East & Hurdsfield (GB-ENG, type='MSOA')","Middlewich East (GB-ENG, type='MSOA')","Congleton West Heath (GB-ENG, type='MSOA')","Macclesfield Upton Priory & Greenside (GB-ENG, type='MSOA')","Cranage & Goostrey (GB-ENG, type='MSOA')","Buglawton (GB-ENG, type='MSOA')","Congleton Town (GB-ENG, type='MSOA')","Macclesfield Bollinbrook (GB-ENG, type='MSOA')","Fulshaw Park & Lindow (GB-ENG, type='MSOA')","Macclesfield Weston (GB-ENG, type='MSOA')","Wilmslow Town (GB-ENG, type='MSOA')","South Knutsford & Bexton (GB-ENG, type='MSOA')","Lacey Green & Wilmslow Park (GB-ENG, type='MSOA')","Poynton West (GB-ENG, type='MSOA')","Poynton East (GB-ENG, type='MSOA')","Knutsford North (GB-ENG, type='MSOA')","Macclesfield Tytherington (GB-ENG, type='MSOA')","Macclesfield South & Lyme Green (GB-ENG, type='MSOA')","Disley & Lyme Park (GB-ENG, type='MSOA')","Middlewich West (GB-ENG, type='MSOA')","Hightown, Mossley & Timbersbrook (GB-ENG, type='MSOA')","Prestbury & Adlington (GB-ENG, type='MSOA')","Kearsley & Stoneclough (GB-ENG, type='MSOA')","Gilnow & Victory (GB-ENG, type='MSOA')","Little Lever (GB-ENG, type='MSOA')","Burnden & Great Lever (GB-ENG, type='MSOA')","Harper Green (GB-ENG, type='MSOA')","Westhoughton East (GB-ENG, type='MSOA')","Breightmet South & Darcy Lever (GB-ENG, type='MSOA')","Rumworth North (GB-ENG, type='MSOA')","Lever Edge (GB-ENG, type='MSOA')","Halliwell & Brownlow Fold (GB-ENG, type='MSOA')","Astley Bridge & Waters Meeting (GB-ENG, type='MSOA')","Heaton & Deane (GB-ENG, type='MSOA')","Highfield & New Bury (GB-ENG, type='MSOA')","Breightmet North (GB-ENG, type='MSOA')","Central Bolton (GB-ENG, type='MSOA')","Rumworth South (GB-ENG, type='MSOA')","Westhoughton West (GB-ENG, type='MSOA')","Hall I' th' Wood (GB-ENG, type='MSOA')","Eagley & Sharples (GB-ENG, type='MSOA')","Horwich South & Middlebrook (GB-ENG, type='MSOA')","Harwood (GB-ENG, type='MSOA')","Doffcocker & Moss Bank (GB-ENG, type='MSOA')","Farnworth South (GB-ENG, type='MSOA')","Smithills (GB-ENG, type='MSOA')","Dunscar & Egerton (GB-ENG, type='MSOA')","Westhoughton Daisy Hill (GB-ENG, type='MSOA')","Daubhill & Fernhill Gate (GB-ENG, type='MSOA')","Bromley Cross & Bradshaw (GB-ENG, type='MSOA')","Lostock & Ladybridge (GB-ENG, type='MSOA')","Horwich North (GB-ENG, type='MSOA')","Farnworth North (GB-ENG, type='MSOA')","Horwich East (GB-ENG, type='MSOA')","Blackrod & Butterwick Fields (GB-ENG, type='MSOA')","Over Hulton (GB-ENG, type='MSOA')","Fernhill & Pimhole (GB-ENG, type='MSOA')","Sedgley Park (GB-ENG, type='MSOA')","Ramsbottom (GB-ENG, type='MSOA')","Radcliffe (GB-ENG, type='MSOA')","Besses (GB-ENG, type='MSOA')","Fairfield & Jericho (GB-ENG, type='MSOA')","Walmersley & Limefield (GB-ENG, type='MSOA')","Walshaw & Woolfold (GB-ENG, type='MSOA')","Buckley Wells & Fishpool (GB-ENG, type='MSOA')","Prestwich East (GB-ENG, type='MSOA')","Black Lane (GB-ENG, type='MSOA')","Nuttall & Tottington (GB-ENG, type='MSOA')","Outwood Gate (GB-ENG, type='MSOA')","Elton Vale (GB-ENG, type='MSOA')","Whitehead Park (GB-ENG, type='MSOA')","Unsworth (GB-ENG, type='MSOA')","Whitefield West & Park Lane (GB-ENG, type='MSOA')","Redvales & Hollins (GB-ENG, type='MSOA')","Prestwich Central (GB-ENG, type='MSOA')","Kirkhams & Holyrood (GB-ENG, type='MSOA')","Bank Top & Radcliffe Ees (GB-ENG, type='MSOA')","Ainsworth & Bradley Fold (GB-ENG, type='MSOA')","Summerseat (GB-ENG, type='MSOA')","Higher Woodhill (GB-ENG, type='MSOA')","Prestwich Clough & Rainsough (GB-ENG, type='MSOA')","Whitefield East (GB-ENG, type='MSOA')","Crumpsall South (GB-ENG, type='MSOA')","Rusholme West & Moss Side East (GB-ENG, type='MSOA')","Rusholme East (GB-ENG, type='MSOA')","Harpurhey South & Monsall (GB-ENG, type='MSOA')","Moss Side West (GB-ENG, type='MSOA')","Beswick, Eastlands & Openshaw Park (GB-ENG, type='MSOA')","Fallowfield West & Whalley Range South (GB-ENG, type='MSOA')","Victoria Park & Longsight West (GB-ENG, type='MSOA')","Gorton South (GB-ENG, type='MSOA')","Fallowfield Central (GB-ENG, type='MSOA')","Blackley (GB-ENG, type='MSOA')","Hulme & University (GB-ENG, type='MSOA')","Openshaw & Gorton North (GB-ENG, type='MSOA')","Belle Vue & West Gorton (GB-ENG, type='MSOA')","Levenshulme South & Burnage North (GB-ENG, type='MSOA')","New Moston (GB-ENG, type='MSOA')","Charlestown (GB-ENG, type='MSOA')","Ardwick (GB-ENG, type='MSOA')","Piccadilly & Ancoats (GB-ENG, type='MSOA')","Benchill South & Wythenshawe Central (GB-ENG, type='MSOA')","Benchill North & Sharston (GB-ENG, type='MSOA')","Ladybarn (GB-ENG, type='MSOA')","Newton Heath (GB-ENG, type='MSOA')","Abbey Hey (GB-ENG, type='MSOA')","Withington North & Old Moat (GB-ENG, type='MSOA')","Crumpsall North & Heaton Park (GB-ENG, type='MSOA')","Chorlton North (GB-ENG, type='MSOA')","Strangeways (GB-ENG, type='MSOA')","Didsbury Village (GB-ENG, type='MSOA')","Longsight East (GB-ENG, type='MSOA')","Moston West (GB-ENG, type='MSOA')","Baguley East & Wythenshawe Park (GB-ENG, type='MSOA')","Levenshulme Central (GB-ENG, type='MSOA')","Northern Moor (GB-ENG, type='MSOA')","Newall Green (GB-ENG, type='MSOA')","Burnage South (GB-ENG, type='MSOA')","Whalley Range North (GB-ENG, type='MSOA')","Clayton Vale (GB-ENG, type='MSOA')","Withington East (GB-ENG, type='MSOA')","Woodhouse Park & Airport (GB-ENG, type='MSOA')","Boothroyden & Higher Blackley (GB-ENG, type='MSOA')","Harpurhey North (GB-ENG, type='MSOA')","Baguley West & Brooklands (GB-ENG, type='MSOA')","West Didsbury (GB-ENG, type='MSOA')","East Didsbury (GB-ENG, type='MSOA')","Wythenshawe East & Peel Hall (GB-ENG, type='MSOA')","City Centre North & Collyhurst (GB-ENG, type='MSOA')","University North & Whitworth Street (GB-ENG, type='MSOA')","Cheetham Hill (GB-ENG, type='MSOA')","Chorlton South (GB-ENG, type='MSOA')","Miles Platting & New Islington North (GB-ENG, type='MSOA')","Hulme Park & St George's (GB-ENG, type='MSOA')","Northenden (GB-ENG, type='MSOA')","Merseybank & Barlow Moor (GB-ENG, type='MSOA')","Withington West (GB-ENG, type='MSOA')","Castlefield & Deansgate (GB-ENG, type='MSOA')","Levenshulme North & East (GB-ENG, type='MSOA')","Beech Road & Chorlton Meadows (GB-ENG, type='MSOA')","New Islington South & Bradford (GB-ENG, type='MSOA')","Alexandra Park (GB-ENG, type='MSOA')","Busk (GB-ENG, type='MSOA')","Hathershaw (GB-ENG, type='MSOA')","Oldham Town North (GB-ENG, type='MSOA')","Chadderton Central (GB-ENG, type='MSOA')","Oldham Town South (GB-ENG, type='MSOA')","Coppice (GB-ENG, type='MSOA')","Chadderton South West (GB-ENG, type='MSOA')","Salem (GB-ENG, type='MSOA')","Lime Side & Garden Suburb (GB-ENG, type='MSOA')","Werneth (GB-ENG, type='MSOA')","Failsworth East (GB-ENG, type='MSOA')","Moorside & Sholver (GB-ENG, type='MSOA')","Alt (GB-ENG, type='MSOA')","Chadderton North (GB-ENG, type='MSOA')","Chadderton South East (GB-ENG, type='MSOA')","Failsworth West (GB-ENG, type='MSOA')","New Delph, Dobcross & Austerlands (GB-ENG, type='MSOA')","Springhead & Grasscroft (GB-ENG, type='MSOA')","Clough & Shaw Side (GB-ENG, type='MSOA')","Royton East & Cowlishaw (GB-ENG, type='MSOA')","Royton South East (GB-ENG, type='MSOA')","Greenfield & Uppermill (GB-ENG, type='MSOA')","Middleton Junction (GB-ENG, type='MSOA')","Lees & Hey (GB-ENG, type='MSOA')","Royton South West (GB-ENG, type='MSOA')","Derker (GB-ENG, type='MSOA')","Shaw & Crompton (GB-ENG, type='MSOA')","Holt Lane End & Bardsley (GB-ENG, type='MSOA')","Wood End (GB-ENG, type='MSOA')","Royton North (GB-ENG, type='MSOA')","Diggle, Delph & Denshaw (GB-ENG, type='MSOA')","Failsworth South (GB-ENG, type='MSOA')","Langley & Wood Side (GB-ENG, type='MSOA')","Central Rochdale & Mandale Park (GB-ENG, type='MSOA')","Kingsway (GB-ENG, type='MSOA')","Castleton & Trub (GB-ENG, type='MSOA')","Balderstone & Kirkholt (GB-ENG, type='MSOA')","Wardleworth & Newbold Brow (GB-ENG, type='MSOA')","Heywood Town (GB-ENG, type='MSOA')","Deeplish (GB-ENG, type='MSOA')","Middleton East (GB-ENG, type='MSOA')","Heywood Hopwood & Siddal Moor (GB-ENG, type='MSOA')","Alkrington (GB-ENG, type='MSOA')","North Middleton & Stakehill (GB-ENG, type='MSOA')","Healey, Syke & Shawclough (GB-ENG, type='MSOA')","Heywood Heap Bridge & Darnhill (GB-ENG, type='MSOA')","Norden East & Bagslate Moor (GB-ENG, type='MSOA')","Hurstead & Smallbridge (GB-ENG, type='MSOA')","Spotland Bridge (GB-ENG, type='MSOA')","Middleton Town & Rhodes (GB-ENG, type='MSOA')","Milnrow East & Newhey (GB-ENG, type='MSOA')","Littleborough North & Calderbook (GB-ENG, type='MSOA')","Littleborough West & Wardle (GB-ENG, type='MSOA')","Milnrow West (GB-ENG, type='MSOA')","Littleborough South & Smithy Bridge (GB-ENG, type='MSOA')","Hooley Bridge & Norden West (GB-ENG, type='MSOA')","Springfield Park (GB-ENG, type='MSOA')","Weaste & Seedley (GB-ENG, type='MSOA')","Eccles (GB-ENG, type='MSOA')","Ellenbrook & Boothstown (GB-ENG, type='MSOA')","Lower Irlam & Cadishead (GB-ENG, type='MSOA')","Walkden South (GB-ENG, type='MSOA')","Swinton Worsley Road (GB-ENG, type='MSOA')","Worsley (GB-ENG, type='MSOA')","Higher Irlam (GB-ENG, type='MSOA')","Cromwell Road & Broad Street (GB-ENG, type='MSOA')","University, Crescent & Adelphi Street (GB-ENG, type='MSOA')","Little Hulton North (GB-ENG, type='MSOA')","Broughton Park (GB-ENG, type='MSOA')","Greengate & Blackfriars (GB-ENG, type='MSOA')","Clifton Green & Pendlebury East (GB-ENG, type='MSOA')","Winton & Westwood (GB-ENG, type='MSOA')","Walkden North East (GB-ENG, type='MSOA')","Barton upon Irwell (GB-ENG, type='MSOA')","Patricroft (GB-ENG, type='MSOA')","Little Hulton South (GB-ENG, type='MSOA')","Langworthy Buile Hill (GB-ENG, type='MSOA')","Kersal Dale (GB-ENG, type='MSOA')","Ordsall West (GB-ENG, type='MSOA')","Swinton West (GB-ENG, type='MSOA')","Swinton South East & Pendlebury West (GB-ENG, type='MSOA')","Walkden North West (GB-ENG, type='MSOA')","Salford Quays (GB-ENG, type='MSOA')","Peel Green (GB-ENG, type='MSOA')","Swinton Newtown (GB-ENG, type='MSOA')","Lightoaks (GB-ENG, type='MSOA')","Ordsall East (GB-ENG, type='MSOA')","Woodsmoor & Mile End (GB-ENG, type='MSOA')","Cheadle Heath (GB-ENG, type='MSOA')","North Reddish (GB-ENG, type='MSOA')","Heaviley (GB-ENG, type='MSOA')","Central Reddish (GB-ENG, type='MSOA')","Gatley South & Cheadle West (GB-ENG, type='MSOA')","Brinnington (GB-ENG, type='MSOA')","Heaton Mersey (GB-ENG, type='MSOA')","Central Stockport, Portwood & Shaw Heath (GB-ENG, type='MSOA')","Cheadle Hulme Orrishmere (GB-ENG, type='MSOA')","Romiley & Compstall (GB-ENG, type='MSOA')","Davenport (GB-ENG, type='MSOA')","Cheadle East (GB-ENG, type='MSOA')","Bredbury (GB-ENG, type='MSOA')","Bredbury Green (GB-ENG, type='MSOA')","Offerton West (GB-ENG, type='MSOA')","Cheadle Hulme South East (GB-ENG, type='MSOA')","Marple & Rose Hill (GB-ENG, type='MSOA')","Heald Green East (GB-ENG, type='MSOA')","Reddish Vale View (GB-ENG, type='MSOA')","Adswood (GB-ENG, type='MSOA')","Offerton East & Bosden Farm (GB-ENG, type='MSOA')","Hazel Grove North (GB-ENG, type='MSOA')","Bramhall North East (GB-ENG, type='MSOA')","Gatley North (GB-ENG, type='MSOA')","Heaton Chapel & Shaw Road (GB-ENG, type='MSOA')","Heald Green West (GB-ENG, type='MSOA')","Edgeley (GB-ENG, type='MSOA')","South Reddish & Heaton Norris (GB-ENG, type='MSOA')","Heaton Moor (GB-ENG, type='MSOA')","Norris Bank (GB-ENG, type='MSOA')","Bramhall South & Woodford (GB-ENG, type='MSOA')","Bramhall North West (GB-ENG, type='MSOA')","Marple & Hawk Green (GB-ENG, type='MSOA')","Hazel Grove East & South (GB-ENG, type='MSOA')","Marple Bridge & Mellor (GB-ENG, type='MSOA')","Woodbank Park (GB-ENG, type='MSOA')","High Lane (GB-ENG, type='MSOA')","Bramhall West (GB-ENG, type='MSOA')","Cheadle Hulme West (GB-ENG, type='MSOA')","Hazel Grove West (GB-ENG, type='MSOA')","Hyde North (GB-ENG, type='MSOA')","Ashton Central (GB-ENG, type='MSOA')","Hyde South (GB-ENG, type='MSOA')","Droylsden Central (GB-ENG, type='MSOA')","Denton South (GB-ENG, type='MSOA')","Hurst Cross (GB-ENG, type='MSOA')","Stalybridge South (GB-ENG, type='MSOA')","Dukinfield West (GB-ENG, type='MSOA')","Droylsden East (GB-ENG, type='MSOA')","Ashton Waterloo (GB-ENG, type='MSOA')","Smallshaw (GB-ENG, type='MSOA')","Hattersley (GB-ENG, type='MSOA')","Dane Bank (GB-ENG, type='MSOA')","Newtonmoor (GB-ENG, type='MSOA')","Cheetham Fold & Gee Cross (GB-ENG, type='MSOA')","Guide Bridge (GB-ENG, type='MSOA')","Stalybridge East & Swineshaw (GB-ENG, type='MSOA')","Ashton East (GB-ENG, type='MSOA')","Carrbrook & Micklehurst (GB-ENG, type='MSOA')","Audenshaw (GB-ENG, type='MSOA')","Godley (GB-ENG, type='MSOA')","Droylsden West (GB-ENG, type='MSOA')","Denton North (GB-ENG, type='MSOA')","Stalybridge North (GB-ENG, type='MSOA')","Mottram, Hollingworth & Broadbottom (GB-ENG, type='MSOA')","Ashton North (GB-ENG, type='MSOA')","Denton East (GB-ENG, type='MSOA')","Dukinfield East & Hough Hill (GB-ENG, type='MSOA')","Denton West (GB-ENG, type='MSOA')","Old Trafford (GB-ENG, type='MSOA')","Altrincham East (GB-ENG, type='MSOA')","Sale Central (GB-ENG, type='MSOA')","Altrincham West, Dunham & Warburton (GB-ENG, type='MSOA')","Broadheath & Firsway (GB-ENG, type='MSOA')","Gorse Hill (GB-ENG, type='MSOA')","West Timperley (GB-ENG, type='MSOA')","Firswood (GB-ENG, type='MSOA')","Trafford Park East & Sevenways (GB-ENG, type='MSOA')","Sale North (GB-ENG, type='MSOA')","Timperley East (GB-ENG, type='MSOA')","Davyhulme (GB-ENG, type='MSOA')","Stretford East (GB-ENG, type='MSOA')","Timperley North (GB-ENG, type='MSOA')","Hale Barns (GB-ENG, type='MSOA')","Flixton & Moorside (GB-ENG, type='MSOA')","Sale Moor (GB-ENG, type='MSOA')","Ashton upon Mersey South (GB-ENG, type='MSOA')","Sale East (GB-ENG, type='MSOA')","Bowdon (GB-ENG, type='MSOA')","Timperley South (GB-ENG, type='MSOA')","Trafford Park West & Kingsway Park (GB-ENG, type='MSOA')","Urmston East (GB-ENG, type='MSOA')","Urmston West (GB-ENG, type='MSOA')","Lostock & Stretford Meadows (GB-ENG, type='MSOA')","Ashton upon Mersey North (GB-ENG, type='MSOA')","Orrell & Longshaw (GB-ENG, type='MSOA')","Winstanley (GB-ENG, type='MSOA')","Astley, Blackmoor & Mosley Common (GB-ENG, type='MSOA')","Platt Bridge & Spring View (GB-ENG, type='MSOA')","Laithwaite & Marsh Green (GB-ENG, type='MSOA')","Wigan South (GB-ENG, type='MSOA')","Atherton North (GB-ENG, type='MSOA')","Leigh East & Higher Folds (GB-ENG, type='MSOA')","Lowton (GB-ENG, type='MSOA')","Hindley West (GB-ENG, type='MSOA')","Abram & Bickershaw (GB-ENG, type='MSOA')","Hindley Green (GB-ENG, type='MSOA')","Atherton South West (GB-ENG, type='MSOA')","Standish South (GB-ENG, type='MSOA')","Leigh West (GB-ENG, type='MSOA')","Golborne (GB-ENG, type='MSOA')","Tyldesley North (GB-ENG, type='MSOA')","Leigh North (GB-ENG, type='MSOA')","Lowton Common (GB-ENG, type='MSOA')","Ince-in-Makerfield (GB-ENG, type='MSOA')","Wigan Marylebone & Bottling Wood (GB-ENG, type='MSOA')","Tyldesley South (GB-ENG, type='MSOA')","Ashton-in-Makerfield East (GB-ENG, type='MSOA')","Wigan Central (GB-ENG, type='MSOA')","Hindley East (GB-ENG, type='MSOA')","Pemberton South (GB-ENG, type='MSOA')","Ashton-in-Makerfield North (GB-ENG, type='MSOA')","Leigh South (GB-ENG, type='MSOA')","Leigh South East (GB-ENG, type='MSOA')","Leigh Central (GB-ENG, type='MSOA')","Wigan East (GB-ENG, type='MSOA')","Ashton-in-Makerfield West (GB-ENG, type='MSOA')","Worsley Mesnes & Hawkley (GB-ENG, type='MSOA')","Standish North (GB-ENG, type='MSOA')","Pemberton North (GB-ENG, type='MSOA')","New Springs (GB-ENG, type='MSOA')","Aspull & Red Rock (GB-ENG, type='MSOA')","Atherton South East & Tyldesley West (GB-ENG, type='MSOA')"],"source":"Overture Maps division_area (CC-BY 4.0)"},"geometry":{"type":"MultiPolygon","coordinates":[[[[-2.3346381,53.1893515],[-2.3898635,53.1960692],[-2.3947184,53.2057458],[-2.3309659,53.2038302],[-2.3346381,53.1893515]]],[[[-2.4540324,53.4128322],[-2.454211,53.4127919],[-2.4539828,53.4129744],[-2.4540324,53.4128322]]],[[[-2.4167991,53.4270563],[-2.4093697,53.4213213],[-2.420342,53.4104476],[-2.4536814,53.4132128],[-2.4167991,53.4270563]]],[[[-2.7176357,53.5725028],[-2.6925871,53.5961347],[-2.6857574,53.590346],[-2.6756609,53.5585715],[-2.7043848,53.5614014],[-2.7176357,53.5725028]]],[[[-2.364325,53.8616882],[-2.3449165,53.8517789],[-2.3286138,53.8555529],[-2.3644751,53.8371525],[-2.3962622,53.8479316],[-2.414436,53.8417044],[-2.4109916,53.8597866],[-2.364325,53.8616882]]],[[[-2.9297853,54.228745],[-2.9301839,54.2225297],[-2.9032886,54.2148577],[-2.9193174,54.201208],[-2.9334771,54.2018028],[-2.950476,54.2049765],[-2.9615885,54.2208999],[-2.9602972,54.2298943],[-2.9297853,54.228745]]],[[[-3.1527691,54.3505673],[-3.134351,54.3224207],[-3.1793318,54.291162],[-3.1751874,54.2739171],[-3.1821668,54.2579179],[-3.2226019,54.2469221],[-3.2152547,54.2541647],[-3.2303698,54.257991],[-3.224269,54.2755625],[-3.2372653,54.2928024],[-3.2247685,54.2923547],[-3.2126141,54.3024496],[-3.214895,54.3086713],[-3.1992367,54.3036295],[-3.1827187,54.3117675],[-3.1665523,54.340702],[-3.1527691,54.3505673]]],[[[-2.576349,54.9915177],[-2.6584702,54.969981],[-2.6735846,54.9792899],[-2.6430379,54.9868592],[-2.6450359,54.9996775],[-2.617653,55.0209555],[-2.572712,55.0155347],[-2.5741739,55.0036946],[-2.5677118,55.0026556],[-2.576349,54.9915177]]],[[[-1.7642699,50.9620592],[-1.7519088,50.964081],[-1.7542965,50.9778971],[-1.7453843,50.9779565],[-1.7196275,50.9767884],[-1.6976596,50.9604399],[-1.7279252,50.9513876],[-1.7642699,50.9620592]]],[[[0.7643148,51.3418017],[0.7803966,51.3646596],[0.8228482,51.3630053],[0.8100458,51.3522353],[0.8143536,51.3477859],[0.8012464,51.3494772],[0.7731171,51.3034966],[0.7590997,51.3023853],[0.7762503,51.336399],[0.7643148,51.3418017]]],[[[-1.0067208,51.3612017],[-1.0056987,51.3674128],[-1.0174589,51.37025],[-1.0095641,51.3921932],[-0.9817209,51.3756261],[-0.9918112,51.3666647],[-0.9868955,51.3620463],[-1.0067208,51.3612017]]],[[[-0.8860348,51.4417513],[-0.9242575,51.4433491],[-0.9216256,51.4598529],[-0.8833721,51.469101],[-0.8888137,51.4635507],[-0.8655551,51.4625088],[-0.8860348,51.4417513]]],[[[-0.3204791,52.0392495],[-0.2941634,52.0542507],[-0.2768463,52.0558788],[-0.3019124,52.0208185],[-0.3113593,52.0197414],[-0.3204791,52.0392495]]],[[[-2.0935259,53.3119824],[-2.0853116,53.3016246],[-2.0909826,53.2803809],[-2.1288296,53.2854599],[-2.1244651,53.2993404],[-2.1019537,53.3009788],[-2.0935259,53.3119824]]],[[[-2.0549381,53.5313606],[-1.985786,53.5164485],[-2.0004081,53.5081188],[-2.0283295,53.5117952],[-2.0423477,53.5013534],[-2.0624206,53.5134968],[-2.0549381,53.5313606]]]]}}]}