{"type": "FeatureCollection", "features": [{"type": "Feature", "properties": {"slug": "manila", "members": 8, "country": "Philippines", "input_hash": "c978732726f9a6d6"}, "geometry": {"type": "MultiPolygon", "coordinates": [[[[120.4161392, 14.2875514], [120.4759264, 14.3641886], [120.5224704, 14.4000043], [120.5403376, 14.3994808], [120.6360324, 14.4328278], [120.7147502, 14.4452661], [120.7083357, 14.4037883], [120.6766904, 14.3466665], [120.5880221, 14.3280912], [120.4502098, 14.2596201], [120.4161392, 14.2875514]]], [[[120.7934641, 14.58564], [120.8936218, 14.5578053], [120.937761, 14.5339666], [120.9469778, 14.5011152], [120.9424558, 14.4926563], [120.8856441, 14.4538633], [120.8220402, 14.4748807], [120.7538245, 14.5187443], [120.7934641, 14.58564]]], [[[120.9395653, 14.5426492], [120.945772, 14.552411], [120.9639949, 14.552546], [120.9395653, 14.5426492]]], [[[121.3129471, 14.9390443], [121.3054499, 14.9379138], [121.2995249, 14.9147804], [121.339717, 14.897314], [121.340023, 14.890424], [121.2828104, 14.8824855], [121.245626, 14.8431583], [121.1489216, 14.8241143], [121.1268425, 14.7874815], [121.1175605, 14.7871864], [121.1063464, 14.770087], [121.09550940410207, 14.769727052143459], [121.104773, 14.7618357], [121.1332033, 14.7764137], [121.1137369, 14.7372321], [121.1184868, 14.7307439], [121.1066178, 14.6757895], [121.1310755, 14.6678996], [121.1346392, 14.6548501], [121.1299934, 14.6344123], [121.1054168, 14.6326782], [121.1062029, 14.6202059], [121.0985339, 14.6171667], [121.1110273, 14.5910769], [121.0946307, 14.5690387], [121.0980692, 14.5547713], [121.1097446, 14.5465986], [121.1070156, 14.5085212], [121.1183452, 14.4894504], [121.1343954, 14.4114052], [121.1567114, 14.3773194], [121.1776541, 14.3167834], [121.212673, 14.2613886], [121.2518552, 14.2498599], [121.3184165, 14.2615549], [121.3963508, 14.3223553], [121.366016, 14.365524], [121.372725, 14.4897913], [121.4248747, 14.5752541], [121.4510707, 14.5815501], [121.5061279, 14.5207161], [121.5129811, 14.4618693], [121.5414246, 14.4006123], [121.549304, 14.4090116], [121.5528467, 14.3983288], [121.6140167, 14.3914654], [121.609174, 14.3091639], [121.6148843, 14.3083286], [121.6136766, 14.2556293], [121.6207409, 14.241854], [121.6150903, 14.218627], [121.595329, 14.1977839], [121.6151474, 14.1625295], [121.5706973, 14.1585861], [121.5392843, 14.178293], [121.5254591, 14.170381], [121.5353309, 14.1567655], [121.5210173, 14.1600353], [121.5223939, 14.1488855], [121.5132178, 14.1490756], [121.517853, 14.093269], [121.5049197, 14.0747218], [121.4811613, 14.0583117], [121.4309128, 14.0634042], [121.4203618, 14.0448585], [121.3508053, 14.0119036], [121.3292628, 13.9857595], [121.2568171, 13.9673424], [121.2599205, 13.9903341], [121.2444995, 13.9925211], [121.2346015, 13.9819451], [121.2217305, 13.9913871], [121.2264107, 14.0113567], [121.2109043, 14.0382321], [121.2090431, 14.0598267], [121.2174576, 14.0824056], [121.2096638, 14.0869071], [121.2094414, 14.1129277], [121.1920926, 14.1328796], [121.1165123, 14.144775], [121.0964941, 14.1562672], [121.0151983, 14.1556988], [121.0313877, 14.2030469], [121.0506354, 14.2171504], [121.0466175, 14.228372], [121.0544298, 14.2566722], [121.0363671, 14.249073], [121.0388882, 14.2709887], [121.0776824, 14.3278677], [121.0392666, 14.3235926], [121.040721, 14.3323969], [121.0322441, 14.334467], [121.0108972, 14.3215296], [121.0066135, 14.3263352], [121.0115722, 14.3801806], [120.9840825, 14.4335181], [120.9730451, 14.4408032], [120.9660038, 14.4651797], [120.9826742, 14.4916088], [120.9719828, 14.4810869], [120.9755438, 14.4927146], [120.9846834, 14.5033745], [120.9852356, 14.4918683], [120.9893238, 14.5027446], [120.9741996, 14.5081534], [120.9825651, 14.5436104], [120.9649443, 14.5466786], [120.9779048, 14.5355665], [120.9623909, 14.5350264], [120.9591025, 14.5476859], [120.9854415, 14.5624415], [120.972736, 14.5832801], [120.9527135, 14.5901948], [120.9601606, 14.5964738], [120.9425081, 14.5986963], [120.9542222, 14.6011467], [120.9482302, 14.6119363], [120.9604544, 14.6008417], [120.9536268, 14.6274441], [120.9592384, 14.6294898], [120.9414697, 14.6337674], [120.9567435, 14.6355931], [120.90614092069345, 14.700688136591154], [120.9017293, 14.7159925], [120.8834602, 14.7103669], [120.8429647, 14.7368876], [120.8359765, 14.7497695], [120.8401601, 14.7651897], [120.8258155, 14.7556766], [120.7759559, 14.7584467], [120.7689573, 14.7646616], [120.7501182, 14.7588799], [120.7386324, 14.7725947], [120.7294558, 14.7721697], [120.7255277, 14.7630129], [120.6890924, 14.771605], [120.6845508, 14.8030576], [120.7042519, 14.8217512], [120.7011496, 14.8274802], [120.7236961, 14.867143], [120.7184107, 14.8757225], [120.7318374, 14.8999153], [120.7320318, 14.9284526], [120.7720631, 14.9232143], [120.8160375, 14.9333147], [120.8232211, 14.9534503], [120.8499294, 14.9559642], [120.8505732, 14.9779859], [120.8802191, 14.9828547], [120.8860419, 14.9969942], [120.8770457, 14.9992172], [120.8760294, 15.0102324], [120.9108653, 15.022472], [120.9123272, 15.0347334], [120.9325953, 15.0380946], [120.8979862, 15.0723649], [120.9005879, 15.081305], [120.9249001, 15.0921873], [120.9306651, 15.1068441], [120.9446019, 15.1110705], [120.9524277, 15.1269114], [120.9234266, 15.1514349], [120.9346562, 15.2064693], [120.9069204, 15.2096972], [120.9018517, 15.1886412], [120.8784855, 15.1772518], [120.8756053, 15.1826282], [120.8845897, 15.1805818], [120.8985002, 15.1919781], [120.9032578, 15.2130635], [120.9388181, 15.2178615], [120.9537234, 15.228517], [120.9850827, 15.2272758], [121.004933, 15.2462064], [121.0772632, 15.2689503], [121.1801038, 15.2708781], [121.2031013, 15.2215004], [121.2354713, 15.2075329], [121.2388748, 15.2118006], [121.2383092, 15.2027113], [121.2465891, 15.2092975], [121.2509654, 15.2023708], [121.3122667, 15.1986575], [121.3483961, 14.9966843], [121.3266749, 14.9734859], [121.3129471, 14.9390443]], [[121.0920556, 14.7674429], [121.09473863711574, 14.770642256888433], [121.0944323, 14.771006], [121.0920556, 14.7674429]], [[121.086827, 14.7680724], [121.08691657977128, 14.768129230095244], [121.08688020865583, 14.768196740432602], [121.086827, 14.7680724]], [[121.0230859252053, 14.35660560657593], [121.02226972245377, 14.355807929877326], [121.0227359, 14.3560775], [121.0230859252053, 14.35660560657593]]]]}}]}