{"type":"FeatureCollection","features":[{"type":"Feature","properties":{"slug":"mansfield","member_count":23,"matched_count":1,"unmatched":["Clowne & Barlborough (GB-ENG, type='MSOA')","Langwith, Shirebrook South & Pleasley (GB-ENG, type='MSOA')","South Normanton Broadmeadows & Pinxton (GB-ENG, type='MSOA')","Tibshelf, Newton & Hardwick Park (GB-ENG, type='MSOA')","Bolsover South & Glapwell (GB-ENG, type='MSOA')","South Normanton West (GB-ENG, type='MSOA')","Shirebrook North (GB-ENG, type='MSOA')","Bolsover North & Shuttlewood (GB-ENG, type='MSOA')","Whitwell & Elmton (GB-ENG, type='MSOA')","Creswell & Hodthorpe (GB-ENG, type='MSOA')","King's Walk, Berry Hill & Oakham (GB-ENG, type='MSOA')","Forest Town & Newlands (GB-ENG, type='MSOA')","Grange Farm & Ladybrook (GB-ENG, type='MSOA')","Mansfield Town Centre & Broomhill (GB-ENG, type='MSOA')","Abbott Road & Pleasley Hill (GB-ENG, type='MSOA')","Newgate & Carr Bank (GB-ENG, type='MSOA')","Manor, Hornby & Peafields (GB-ENG, type='MSOA')","Eakring & Ling Forest (GB-ENG, type='MSOA')","Church Warsop & Meden Vale (GB-ENG, type='MSOA')","Oak Tree & Ransom Wood (GB-ENG, type='MSOA')","Market Warsop (GB-ENG, type='MSOA')","Yeoman Hill & Maun Valley (GB-ENG, type='MSOA')"],"source":"Overture Maps division_area (CC-BY 4.0)"},"geometry":{"type":"Polygon","coordinates":[[[-1.202727,52.7460268],[-1.2604319,52.7319209],[-1.2406548,52.7138982],[-1.2169521,52.7061234],[-1.1810461,52.7226496],[-1.1870304,52.737399],[-1.202727,52.7460268]]]}}]}