{"type": "FeatureCollection", "features": [{"type": "Feature", "properties": {"slug": "manzanillo", "members": 1, "country": "Mexico"}, "geometry": {"type": "MultiPolygon", "coordinates": [[[[-112.0722199, 18.9998908], [-112.0721223, 19.0000938], [-112.072067, 18.9999708], [-112.0722199, 18.9998908]]], [[[-104.3299565, 19.0507981], [-104.3296196, 19.0508078], [-104.3298565, 19.0507032], [-104.3299565, 19.0507981]]], [[[-104.4867094, 19.100515], [-104.4863493, 19.1007631], [-104.4862886, 19.1006489], [-104.4867094, 19.100515]]], [[[-104.4872751, 19.1011431], [-104.4863373, 19.10476], [-104.4846886, 19.1028542], [-104.4872751, 19.1011431]]], [[[-104.4381603, 19.2646178], [-104.4381027, 19.2788119], [-104.4009456, 19.2890698], [-104.4010075, 19.2666594], [-104.3742735, 19.281884], [-104.3600782, 19.2694694], [-104.342802, 19.2899881], [-104.3148039, 19.2793559], [-104.297591, 19.3026708], [-104.2836352, 19.2970053], [-104.247691, 19.3121789], [-104.2232689, 19.3016856], [-104.2273343, 19.2979579], [-104.1765996, 19.2854919], [-104.1726885, 19.2772361], [-104.1183963, 19.2668072], [-104.1161505, 19.2511908], [-104.0758671, 19.2511758], [-104.0661066, 19.2368464], [-104.0766006, 19.221995], [-104.1037512, 19.2113782], [-104.0483815, 19.1652719], [-104.0635191, 19.1546614], [-104.067874, 19.1019365], [-104.0295984, 19.0671325], [-104.0230763, 19.0388043], [-104.0368142, 19.0217724], [-104.0301408, 19.0125975], [-104.0604608, 19.013637], [-104.0779697, 18.9874086], [-104.0998665, 18.987097], [-104.1199655, 18.9441984], [-104.289947, 19.0112073], [-104.331839, 19.0174792], [-104.3362375, 19.0293942], [-104.3310023, 19.0362906], [-104.3295616, 19.0512219], [-104.3146723, 19.0611839], [-104.3176732, 19.05459], [-104.3051295, 19.0573702], [-104.3038856, 19.071785], [-104.3322248, 19.1015298], [-104.3449966, 19.1033144], [-104.3540923, 19.0909766], [-104.3496761, 19.103319], [-104.3580124, 19.1166548], [-104.394418, 19.1141458], [-104.3986827, 19.1061067], [-104.3897742, 19.0966792], [-104.3955077, 19.0850161], [-104.4111969, 19.106408], [-104.4278276, 19.0917999], [-104.4385732, 19.0983095], [-104.4378874, 19.0834581], [-104.4481709, 19.0910278], [-104.4514072, 19.1085962], [-104.489382, 19.1245531], [-104.6040092, 19.1508661], [-104.6905857, 19.1769759], [-104.6879989, 19.1848787], [-104.6810014, 19.183656], [-104.6836123, 19.1899579], [-104.6799793, 19.1931715], [-104.6751457, 19.1854957], [-104.6293416, 19.1729064], [-104.6188216, 19.1808514], [-104.6128339, 19.1554828], [-104.589083, 19.1503691], [-104.5864938, 19.1633886], [-104.5963678, 19.1644692], [-104.6001368, 19.1786785], [-104.5900288, 19.1865317], [-104.5832913, 19.177495], [-104.5768834, 19.1801134], [-104.5676357, 19.1990998], [-104.5691127, 19.2186952], [-104.5596459, 19.2201378], [-104.5601416, 19.2292136], [-104.5333736, 19.2580801], [-104.5232243, 19.2604824], [-104.5084162, 19.2441286], [-104.4945591, 19.2540394], [-104.4889469, 19.2299369], [-104.4776597, 19.2387635], [-104.4720292, 19.2286674], [-104.4632119, 19.2327704], [-104.4672343, 19.2454155], [-104.4557688, 19.2481015], [-104.4585412, 19.2583701], [-104.4381603, 19.2646178]]], [[[-110.8184581, 19.3015824], [-110.801701, 19.3349656], [-110.7949787, 19.3337463], [-110.7999448, 19.2990965], [-110.8184581, 19.3015824]]]]}}]}