{"type":"FeatureCollection","features":[{"type":"Feature","properties":{"slug":"maoming","member_count":5,"matched_count":2,"unmatched":["G\u0101ozh\u014du Sh\u00ec (CN-GD, type='County-level City')","Hu\u00e0zh\u014du Sh\u00ec (CN-GD, type='County-level City')","X\u00ecny\u00ed Sh\u00ec (CN-GD, type='County-level City')"],"source":"Overture Maps division_area (CC-BY 4.0)"},"geometry":{"type":"Polygon","coordinates":[[[111.0125917,21.7469142],[111.0323458,21.7737597],[111.0500951,21.7695882],[111.051149,21.7781059],[111.0724623,21.7916448],[111.0842364,21.7819855],[111.1001801,21.78738],[111.1069509,21.8027388],[111.0748381,21.8441228],[111.0983758,21.8754711],[111.1295838,21.8714254],[111.1422536,21.8486955],[111.1662457,21.8467583],[111.1815717,21.8314234],[111.1942462,21.8366358],[111.1875079,21.8449009],[111.1804421,21.840709],[111.1785934,21.8500219],[111.1681636,21.8478403],[111.1764873,21.8553879],[111.17176,21.876787],[111.1905219,21.8780219],[111.2007018,21.8883539],[111.1969394,21.9060436],[111.2048916,21.9155099],[111.2056046,21.9442706],[111.223425,21.9637472],[111.22035,21.9739245],[111.2305362,21.967698],[111.2744318,21.9916282],[111.2826129,21.9802931],[111.2784112,21.9549113],[111.2896279,21.9383862],[111.282222,21.9268268],[111.2850604,21.9106507],[111.3017625,21.8977344],[111.3150091,21.9004664],[111.334931,21.8769876],[111.3572916,21.8796134],[111.3626388,21.8650755],[111.3979862,21.8646958],[111.3975959,21.8573544],[111.4119358,21.8526239],[111.4182469,21.8162018],[111.3964929,21.8063394],[111.3860328,21.7866235],[111.3688977,21.7764929],[111.383333,21.7594967],[111.3767059,21.736904],[111.425594,21.7208135],[111.4307372,21.7130056],[111.4353046,21.694887],[111.4092867,21.6418127],[111.4130449,21.6225217],[111.421388,21.6178574],[111.4099427,21.5985587],[111.4175463,21.5909831],[111.4129543,21.5797297],[111.426022,21.5822638],[111.4237475,21.573085],[111.435399,21.5721272],[111.4542818,21.5311544],[111.4282321,21.4560244],[111.427968,21.0338525],[111.0146604,21.2622673],[110.9561804,21.4533532],[110.9539494,21.4395859],[110.9519618,21.4533415],[110.9350611,21.4449936],[110.9247829,21.4519137],[110.9225086,21.4438084],[110.9058943,21.4425364],[110.897474,21.4285002],[110.8897832,21.432381],[110.8757811,21.4466494],[110.8914145,21.4539904],[110.8934461,21.463893],[110.8659461,21.4737956],[110.8733505,21.4794967],[110.8729513,21.4993465],[110.8628731,21.5088406],[110.8544268,21.4950907],[110.8494876,21.5018448],[110.8432031,21.4961736],[110.8448354,21.4880598],[110.8358245,21.496471],[110.8517356,21.5064087],[110.8452344,21.5327887],[110.8149912,21.5471439],[110.8218927,21.5626129],[110.8100605,21.5850756],[110.7900691,21.5828991],[110.797491,21.6356267],[110.7880039,21.6330293],[110.7672747,21.6504078],[110.7569274,21.6505882],[110.7496006,21.6371197],[110.7361547,21.6477041],[110.7449741,21.6628842],[110.7492271,21.7217322],[110.7780038,21.7266755],[110.7643666,21.7463891],[110.7633771,21.7771117],[110.8099656,21.7758721],[110.8111551,21.809423],[110.8305125,21.8255034],[110.8536452,21.8096631],[110.8522997,21.8022407],[110.8663743,21.8056082],[110.8794106,21.7835137],[110.9071585,21.7923084],[110.9135891,21.7733563],[110.9373458,21.7688932],[110.9395225,21.755822],[110.9580197,21.7547297],[110.9881798,21.7788474],[110.9966726,21.7658547],[111.0110414,21.7637445],[111.0125917,21.7469142]]]}}]}