{"type": "FeatureCollection", "features": [{"type": "Feature", "properties": {"slug": "maracay", "members": 10, "country": "Venezuela", "input_hash": "bf6375f10cb87741"}, "geometry": {"type": "Polygon", "coordinates": [[[-67.3327777, 10.093946], [-67.3149329, 10.0602886], [-67.3318255, 10.0415741], [-67.3063874, 10.0402324], [-67.2890899, 10.0275653], [-67.276454, 10.0037775], [-67.3115614, 9.9652684], [-67.3011303, 9.9411643], [-67.330302, 9.9269002], [-67.358036, 9.945394], [-67.3634595, 9.9415474], [-67.364004, 9.9505298], [-67.3841366, 9.9669116], [-67.4276099, 9.9931482], [-67.4373275, 9.9930478], [-67.4491319, 9.9768655], [-67.4699083, 9.9780225], [-67.4791378, 9.9657862], [-67.4922444, 9.9688783], [-67.524205, 9.950494], [-67.5337314, 9.9549146], [-67.5451939, 9.9980108], [-67.6087139, 9.9951253], [-67.6289633, 10.0173938], [-67.6438281, 10.0133367], [-67.6713679, 10.0315425], [-67.6687286, 10.0247915], [-67.6966987, 10.0213578], [-67.6801747, 10.0438825], [-67.6906166, 10.0659296], [-67.6653754, 10.0844078], [-67.6739466, 10.2572127], [-67.6614207, 10.2794563], [-67.65100492547974, 10.279309321656351], [-67.6529127, 10.3047727], [-67.666356, 10.3258413], [-67.6923089, 10.3423208], [-67.6862311, 10.3555446], [-67.6674235, 10.3655075], [-67.63239826934453, 10.365780653205825], [-67.6320291, 10.4076404], [-67.6623166, 10.4668702], [-67.643147, 10.510954], [-67.622257, 10.510586], [-67.604955, 10.520603], [-67.590056, 10.516047], [-67.559204, 10.530058], [-67.517181, 10.531881], [-67.4718782, 10.5452275], [-67.4625886, 10.529095], [-67.4632645, 10.5077711], [-67.4538285, 10.5023753], [-67.4417424, 10.4655884], [-67.4212289, 10.4492296], [-67.4169052, 10.4180818], [-67.4007529, 10.3930647], [-67.4290717, 10.3764357], [-67.4012104, 10.3563015], [-67.3983496, 10.3073034], [-67.4160737, 10.2753497], [-67.4290341, 10.2731275], [-67.4300694, 10.2501906], [-67.4407232, 10.2342285], [-67.4548236, 10.2298019], [-67.4483889, 10.191803], [-67.4337441, 10.1854884], [-67.3884228, 10.2142967], [-67.3732187, 10.2087163], [-67.3734239, 10.2249213], [-67.3897773, 10.2573235], [-67.3826587, 10.2742149], [-67.3943424, 10.2856451], [-67.3980627, 10.3137582], [-67.3420715, 10.3351534], [-67.322529, 10.3530274], [-67.3103625, 10.3488321], [-67.2921824, 10.3220626], [-67.2793964, 10.3245378], [-67.275365, 10.3137714], [-67.2986761, 10.2547792], [-67.2925383, 10.2319591], [-67.2715992, 10.2104216], [-67.2769014, 10.1899816], [-67.2598427, 10.1758635], [-67.2076536, 10.1717396], [-67.1990462, 10.0817011], [-67.2158173, 10.0875581], [-67.2583705, 10.0826991], [-67.2924936, 10.0914109], [-67.298727, 10.1030219], [-67.3309994, 10.096584], [-67.3342019, 10.1110149], [-67.3327777, 10.093946]], [[-67.5529817, 10.2425772], [-67.5559536, 10.2288622], [-67.55236058422035, 10.24332909229678], [-67.5529817, 10.2425772]], [[-67.5487974, 10.2166843], [-67.524388752326, 10.21596388172345], [-67.54917007492091, 10.216780402811883], [-67.5487974, 10.2166843]], [[-67.48246061082374, 10.189784633659293], [-67.4825428, 10.1897835], [-67.48290354480197, 10.189504280084124], [-67.48246061082374, 10.189784633659293]], [[-67.45931627931597, 10.202440790452043], [-67.4595121, 10.2024099], [-67.461399, 10.1954368], [-67.45931627931597, 10.202440790452043]], [[-67.45483310210972, 10.20620301860084], [-67.4549161, 10.2061874], [-67.4568097, 10.2028362], [-67.45483310210972, 10.20620301860084]], [[-67.479685, 10.1515911], [-67.4889413, 10.184831], [-67.48909284323258, 10.184798554295035], [-67.479685, 10.1515911]], [[-67.3408082, 10.1232114], [-67.34241016631691, 10.123223435947057], [-67.3423746, 10.122921], [-67.3408082, 10.1232114]], [[-67.6039571, 10.201544], [-67.60613960548949, 10.201415448906133], [-67.59033204120537, 10.199568818872114], [-67.6039571, 10.201544]], [[-67.5698689, 10.2125545], [-67.58020060778914, 10.20536520114408], [-67.5801364, 10.2053718], [-67.5698689, 10.2125545]], [[-67.56364028381275, 10.217469904452038], [-67.5691836, 10.2153909], [-67.563673, 10.2174089], [-67.56364028381275, 10.217469904452038]], [[-67.3879695, 10.1407171], [-67.3929638, 10.1418498], [-67.38710720253442, 10.139804844121265], [-67.3879695, 10.1407171]], [[-67.3884684, 10.1376966], [-67.3777154, 10.1387528], [-67.38598051828593, 10.138612883840509], [-67.3884684, 10.1376966]], [[-67.5996065, 10.1377494], [-67.5949945, 10.1368768], [-67.59496985584141, 10.136896442711022], [-67.5996065, 10.1377494]], [[-67.5891097, 10.1415673], [-67.58490018441236, 10.142414296348104], [-67.5850716, 10.1424254], [-67.5891097, 10.1415673]], [[-67.5524654, 10.1342298], [-67.54585225034559, 10.137899157902936], [-67.5461541, 10.1379831], [-67.5524654, 10.1342298]], [[-67.54407892138, 10.137406008581815], [-67.5367601540591, 10.134441498415384], [-67.538685, 10.135906], [-67.54407892138, 10.137406008581815]], [[-67.53215609127578, 10.132576595443402], [-67.5297789, 10.1316137], [-67.52122027520808, 10.131631902480327], [-67.53215609127578, 10.132576595443402]], [[-67.5027849, 10.13605], [-67.5107297, 10.134327], [-67.4907733, 10.1361442], [-67.5027849, 10.13605]], [[-67.39300630152458, 10.132450762957712], [-67.3933446, 10.1322733], [-67.39334722889191, 10.132056649202129], [-67.39300630152458, 10.132450762957712]], [[-67.5244443, 10.1844456], [-67.52411934652413, 10.18576450826753], [-67.5291247, 10.1804408], [-67.5244443, 10.1844456]], [[-67.5232869, 10.1911668], [-67.53295728563778, 10.200460411704098], [-67.5319961, 10.198899], [-67.5232869, 10.1911668]], [[-67.5476325, 10.204957], [-67.5470535, 10.2032583], [-67.54745123397689, 10.204895575624883], [-67.5476325, 10.204957]], [[-67.54971531742054, 10.200728765579314], [-67.5496264, 10.2007226], [-67.5470535, 10.2032583], [-67.54971531742054, 10.200728765579314]], [[-67.5849831, 10.1987934], [-67.58568740780159, 10.198895501245865], [-67.578743, 10.1935058], [-67.5849831, 10.1987934]], [[-67.6059607, 10.3320332], [-67.5989574, 10.3357788], [-67.59879979815408, 10.336006398068056], [-67.6059607, 10.3320332]], [[-67.59813001694374, 10.336973651393047], [-67.5972435, 10.3382539], [-67.59758197389314, 10.338501308298074], [-67.59813001694374, 10.336973651393047]], [[-67.6041395, 10.3432594], [-67.60385829549601, 10.343089000517324], [-67.60417315827853, 10.343319150217878], [-67.6041395, 10.3432594]], [[-67.6283652, 10.364088], [-67.622577, 10.3582464], [-67.62233121143508, 10.358142116008707], [-67.6283652, 10.364088]]]}}]}