{"type":"FeatureCollection","features":[{"type":"Feature","properties":{"slug":"margate","member_count":17,"matched_count":2,"unmatched":["Cliftonville West (GB-ENG, type='MSOA')","Westgate (GB-ENG, type='MSOA')","Ramsgate Harbour (GB-ENG, type='MSOA')","Cliftonville East & Kingsgate (GB-ENG, type='MSOA')","Dumpton (GB-ENG, type='MSOA')","Ramsgate Ellington (GB-ENG, type='MSOA')","Minster & St-Nicholas-at-Wade (GB-ENG, type='MSOA')","Westbrook & Garlinge (GB-ENG, type='MSOA')","Margate Town (GB-ENG, type='MSOA')","Salmestone (GB-ENG, type='MSOA')","Nethercourt, Pegwell & Cliffsend (GB-ENG, type='MSOA')","Dane Valley & Northdown Hill (GB-ENG, type='MSOA')","Broadstairs North (GB-ENG, type='MSOA')","Westwood, Northwood & Bromstone (GB-ENG, type='MSOA')","Broadstairs South (GB-ENG, type='MSOA')"],"source":"Overture Maps division_area (CC-BY 4.0)"},"geometry":{"type":"MultiPolygon","coordinates":[[[[1.2896507,51.3848316],[1.3279611,51.3799466],[1.3234909,51.3703104],[1.3341208,51.367484],[1.319626,51.361149],[1.2597532,51.3725003],[1.2633275,51.3806004],[1.2896507,51.3848316]]],[[[-1.1186084,51.6423184],[-1.1218308,51.6657446],[-1.1305041,51.6761367],[-1.1049131,51.6746615],[-1.0753575,51.6481424],[-1.1186084,51.6423184]]]]}}]}