{"type": "FeatureCollection", "features": [{"type": "Feature", "properties": {"slug": "marigot", "members": 9, "country": "Saint Martin", "input_hash": "56e959d90891e135"}, "geometry": {"type": "MultiPolygon", "coordinates": [[[[-63.1017136, 18.0493888], [-63.1027452, 18.0514322], [-63.1013711, 18.0496102], [-63.1017136, 18.0493888]]], [[[-63.1533276, 18.062367], [-63.147168, 18.0726135], [-63.1262559, 18.0681849], [-63.1133286, 18.0771627], [-63.1141873, 18.0643791], [-63.0930849, 18.0595765], [-63.1093163, 18.0564339], [-63.120340869858104, 18.067229597707616], [-63.13994123630621, 18.051501498948188], [-63.1533276, 18.062367]]], [[[-63.0401, 18.055717], [-63.063591, 18.063562], [-63.077777, 18.049727], [-63.0956452, 18.0505136], [-63.0866324, 18.0648153], [-63.0963453, 18.0625496], [-63.0865544, 18.0677413], [-63.0808949, 18.0786995], [-63.0857143, 18.0861503], [-63.0751323, 18.0993097], [-63.0576959, 18.1014241], [-63.0516234, 18.1187226], [-63.0412339, 18.1139721], [-63.0383974, 18.1235737], [-63.0195174, 18.1224292], [-63.02359872430815, 18.09492396060337], [-63.0102298, 18.0831286], [-63.0200706, 18.0729214], [-63.0103053, 18.0540883], [-63.0401, 18.055717]]], [[[-63.0552781, 18.1184012], [-63.0554777, 18.1173911], [-63.0570256, 18.1180284], [-63.0552781, 18.1184012]]], [[[-63.0192845, 18.1032088], [-63.0192986, 18.1044654], [-63.0188036, 18.1046696], [-63.0192845, 18.1032088]]], [[[-63.0162317, 18.1082381], [-63.0119018, 18.1062109], [-63.0156647, 18.1034758], [-63.0162317, 18.1082381]]], [[[-63.0453065, 18.1204832], [-63.0447838, 18.1202088], [-63.0451821, 18.1189406], [-63.0453065, 18.1204832]]], [[[-63.0104722, 18.065889], [-63.0108208, 18.06609], [-63.0105108, 18.0662897], [-63.0104722, 18.065889]]], [[[-63.0069334, 18.068726], [-63.0127652, 18.067481], [-63.0106413, 18.069261], [-63.0069334, 18.068726]]], [[[-63.0105727, 18.0906849], [-63.0094266, 18.0913031], [-63.0107226, 18.086953], [-63.0105727, 18.0906849]]], [[[-62.9876754, 18.1194873], [-62.970843, 18.1205201], [-62.9899615, 18.1126837], [-62.9876754, 18.1194873]]]]}}]}