{"type": "FeatureCollection", "features": [{"type": "Feature", "properties": {"slug": "marijampol", "members": 5, "country": "Lithuania", "input_hash": "495d80e4a6128d68"}, "geometry": {"type": "Polygon", "coordinates": [[[23.3650392, 54.359067], [23.3685422, 54.3511649], [23.3474949, 54.3468789], [23.3463428, 54.3317677], [23.3367473, 54.3270889], [23.3432373, 54.308383], [23.3119536, 54.296447], [23.3315876, 54.277617], [23.3310691, 54.2698284], [23.3228508, 54.2698973], [23.3215085, 54.2533008], [23.2338841, 54.2609102], [23.2024213, 54.2886259], [23.1542006, 54.2970243], [23.1597575, 54.3096044], [23.1487963, 54.314355], [23.0921693, 54.2984537], [23.0421216, 54.3159743], [23.0631646, 54.3409585], [22.9939133, 54.3618985], [23.0102148, 54.3827959], [22.9838462, 54.3895741], [22.8874989, 54.3999432], [22.8879948, 54.4090878], [22.8546899, 54.4104029], [22.8363023, 54.406481], [22.8114262, 54.3709779], [22.7920021, 54.3633232], [22.7671078, 54.3848178], [22.736439, 54.4429167], [22.7011825, 54.4536136], [22.6993587, 54.5072524], [22.6845519, 54.5184143], [22.6805881, 54.5330304], [22.7133521, 54.5638676], [22.6839997, 54.5865275], [22.7200327, 54.6066158], [22.7266746, 54.6229442], [22.7487738, 54.6308947], [22.7503422, 54.6387348], [22.7416839, 54.6426511], [22.7572045, 54.6526151], [22.7307703, 54.6664372], [22.7404927, 54.6740434], [22.7233379, 54.686016], [22.7292509, 54.6979957], [22.748963, 54.7064386], [22.7387334, 54.7168932], [22.7434996, 54.7313974], [22.7668921, 54.7379598], [22.7740342, 54.7511817], [22.8071478, 54.7480062], [22.8157483, 54.7554627], [22.8050067, 54.7543649], [22.8127437, 54.7664169], [22.8435351, 54.7666203], [22.8595635, 54.777671], [22.8481392, 54.7853753], [22.8779086, 54.790805], [22.8733349, 54.8054362], [22.8867048, 54.8136266], [22.8709874, 54.8202099], [22.8800564, 54.8254428], [22.8764816, 54.833827], [22.8587544, 54.838788], [22.8690841, 54.8531529], [22.8396881, 54.8642311], [22.8548705, 54.8852533], [22.8462497, 54.8974232], [22.820994, 54.9118668], [22.7932571, 54.9037185], [22.7834712, 54.9247166], [22.7544855, 54.9186055], [22.7493738, 54.924978], [22.7662757, 54.9355388], [22.7427369, 54.9390508], [22.726138, 54.9631794], [22.7071681, 54.9735415], [22.690025, 54.9716031], [22.6784925, 54.9873467], [22.6593687, 54.9818774], [22.6683238, 54.9692085], [22.6640511, 54.9647159], [22.6416299, 54.9723675], [22.643102, 54.9840125], [22.5966816, 55.0249102], [22.5892361, 55.070243], [22.6599777, 55.0488574], [22.7410553, 55.0591662], [22.7764606, 55.0754989], [22.8114841, 55.0751816], [22.8522908, 55.0883076], [22.9390266, 55.0827338], [23.0553326, 55.1051333], [23.3248436, 55.0669235], [23.4180021, 55.073128], [23.4697011, 55.0512415], [23.5620647, 55.0416159], [23.5871797, 55.0304384], [23.5880428, 55.0085319], [23.5815713, 55.0014945], [23.5441599, 55.0024421], [23.5060403, 54.9727162], [23.4415171, 54.977045], [23.4157032, 54.9552024], [23.4021736, 54.9587644], [23.3912686, 54.9493278], [23.4753995, 54.9286681], [23.4825315, 54.887616], [23.510113, 54.8801502], [23.5062617, 54.8872418], [23.541571, 54.8957591], [23.5839584, 54.8742548], [23.5453589, 54.867285], [23.5802541, 54.8549868], [23.5804617, 54.8453235], [23.5976793, 54.8526788], [23.6252792, 54.840239], [23.6077017, 54.8236113], [23.6415525, 54.8043825], [23.6218777, 54.7961019], [23.6328021, 54.7871662], [23.6181052, 54.7732928], [23.5856448, 54.7613757], [23.6451268, 54.7686072], [23.6476837, 54.7592908], [23.6371241, 54.7463212], [23.6630934, 54.7201386], [23.6330972, 54.7102201], [23.6620268, 54.6821749], [23.67336, 54.657384], [23.6562467, 54.6531281], [23.654374769756767, 54.645668181636715], [23.6732572, 54.6389758], [23.6253261, 54.6288103], [23.6294675, 54.6213445], [23.6470858, 54.6244107], [23.6367965, 54.613427], [23.6751739, 54.6163166], [23.6992326, 54.5935512], [23.6582476, 54.5826206], [23.6808569, 54.5595801], [23.6960669, 54.5545267], [23.7027669, 54.5413611], [23.7497187, 54.5497262], [23.7594189, 54.5264754], [23.7937027, 54.5031209], [23.7584906, 54.4787797], [23.7514915, 54.465743], [23.7251581, 54.4728059], [23.7139351, 54.4838768], [23.6840211, 54.4742239], [23.6568382, 54.5120287], [23.6240281, 54.5082038], [23.613042, 54.486804], [23.510549, 54.4662342], [23.5119132, 54.4143272], [23.4880844, 54.4148199], [23.4541422, 54.3987114], [23.4323756, 54.4011928], [23.4442508, 54.3660827], [23.3992358, 54.3673127], [23.3650392, 54.359067]], [[23.1541350870686, 54.48808173860993], [23.153627423251653, 54.488151932936844], [23.1432554, 54.4856825], [23.1541350870686, 54.48808173860993]], [[23.343590408390455, 54.68735526688991], [23.34255836364313, 54.686803615617634], [23.347694, 54.6866049], [23.343590408390455, 54.68735526688991]], [[23.651764257954873, 54.64611070635201], [23.6507815, 54.6462773], [23.6338358, 54.6437406], [23.651764257954873, 54.64611070635201]], [[23.211868685712485, 54.47297864261198], [23.2059316, 54.4757023], [23.211843, 54.4729794], [23.211868685712485, 54.47297864261198]], [[23.200779029939255, 54.47543036932347], [23.20040578313514, 54.475551041309856], [23.2007738, 54.4754022], [23.200779029939255, 54.47543036932347]], [[23.1672612, 54.4862668], [23.162624962206802, 54.48690784941194], [23.173348008555532, 54.4842989136818], [23.1672612, 54.4862668]], [[23.3952063, 54.3961184], [23.3901232, 54.3983325], [23.394831910845994, 54.39607158096862], [23.3952063, 54.3961184]], [[23.2321306, 54.4687128], [23.23208582228504, 54.46871229068002], [23.2321693, 54.4667385], [23.2321306, 54.4687128]], [[23.2265957, 54.4711692], [23.226513603454592, 54.47117918136502], [23.226609983584314, 54.47114402774693], [23.2265957, 54.4711692]], [[23.341926596487603, 54.68682806088435], [23.340293196407703, 54.68813284491574], [23.3412433, 54.6868545], [23.341926596487603, 54.68682806088435]], [[23.3354656, 54.6919892], [23.335334872355517, 54.69197152696161], [23.335659078498978, 54.69183464652655], [23.3354656, 54.6919892]], [[23.3034526, 54.6967536], [23.294084824597764, 54.69663809239565], [23.294111, 54.6966111], [23.3034526, 54.6967536]], [[23.2797612, 54.7010072], [23.2844028, 54.7033253], [23.279515279868402, 54.70116865784318], [23.2797612, 54.7010072]], [[23.277612698868708, 54.702417789513326], [23.275401357097163, 54.70423820196755], [23.2752721, 54.7039545], [23.277612698868708, 54.702417789513326]], [[23.2852278, 54.7586985], [23.284137508534787, 54.75421087092121], [23.28532061132694, 54.753756741493916], [23.2852278, 54.7586985]], [[23.27955802987407, 54.753746987865554], [23.2741532, 54.7531995], [23.2766418, 54.7525632], [23.27955802987407, 54.753746987865554]], [[23.274322679498134, 54.7526636658763], [23.274562247889875, 54.751906235504656], [23.2748359, 54.7518063], [23.274322679498134, 54.7526636658763]], [[23.2708517, 54.7535923], [23.270746477740804, 54.75329972344573], [23.273728933968584, 54.75221055490941], [23.2708517, 54.7535923]], [[23.27056005164341, 54.75278135494064], [23.2699084, 54.7509694], [23.2710426, 54.751436], [23.27056005164341, 54.75278135494064]], [[23.2021081, 54.7311386], [23.200695431488374, 54.72884397528035], [23.2007835, 54.7288114], [23.2021081, 54.7311386]], [[23.1665584, 54.7291508], [23.15592710828965, 54.72464357116694], [23.1559781, 54.7245672], [23.1665584, 54.7291508]], [[23.155376593668418, 54.72546808644111], [23.154960482221853, 54.726325496287174], [23.154861, 54.7262403], [23.155376593668418, 54.72546808644111]], [[22.8938914, 54.7764018], [22.878491293702513, 54.76444444096234], [22.8786091, 54.7644385], [22.8938914, 54.7764018]]]}}]}