{"type": "FeatureCollection", "features": [{"type": "Feature", "properties": {"slug": "marlborough", "members": 1, "country": "New Zealand", "input_hash": "875c39f244e8decd"}, "geometry": {"type": "MultiPolygon", "coordinates": [[[[172.9456798, -41.7809333], [172.9390567, -41.7725811], [172.9443894, -41.7660856], [172.9330608, -41.7691754], [172.9260381, -41.7484082], [172.9578889, -41.7495203], [173.0037897, -41.7248033], [173.0573752, -41.6684607], [173.0589173, -41.6255397], [173.089263, -41.6241545], [173.1034318, -41.6102938], [173.121479, -41.6080185], [173.1320593, -41.5897087], [173.1514313, -41.5856742], [173.1745963, -41.542368], [173.1723566, -41.5241458], [173.1862677, -41.5288088], [173.2156005, -41.5182319], [173.2492711, -41.5244925], [173.2985245, -41.5157345], [173.3041493, -41.5060321], [173.2508314, -41.4665802], [173.2948509, -41.4256371], [173.2850121, -41.4026975], [173.2974833, -41.3930988], [173.337524, -41.3855448], [173.3607456, -41.3531954], [173.4067892, -41.3309584], [173.420767, -41.308434], [173.4155078, -41.2887828], [173.4710571, -41.2428859], [173.4761655, -41.2289435], [173.5157992, -41.2138957], [173.5223332, -41.1982855], [173.5744186, -41.1837185], [173.5798601, -41.1208041], [173.5965998, -41.0891217], [173.59432603453783, -41.05208456155291], [173.6159837, -41.0724694], [173.6322814, -41.0709052], [173.6365265, -41.078977], [173.6248903, -41.0920357], [173.6264713, -41.0842715], [173.6208741, -41.0877437], [173.6158257, -41.103718], [173.6288468, -41.0966323], [173.6257553, -41.0921165], [173.6383593, -41.0974536], [173.6465211, -41.0886944], [173.6594031, -41.1007863], [173.6516255, -41.1087091], [173.6670918, -41.1099991], [173.6750206, -41.0999162], [173.6604925, -41.0888792], [173.6635611, -41.0782151], [173.7228912, -41.067648], [173.7235213, -41.0586824], [173.7531874, -41.054511], [173.762844, -41.0455155], [173.7408207, -41.0481745], [173.7529951, -41.0353543], [173.7466036, -41.0327254], [173.7273546, -41.0478887], [173.719271, -41.0377004], [173.715082, -41.0467952], [173.6889682, -41.0564471], [173.6728858, -41.0341727], [173.7181211, -41.0043147], [173.7260003, -41.013212], [173.7340201, -41.0088346], [173.7338496, -40.9984356], [173.748019, -41.0050512], [173.7661505, -40.9735334], [173.7773267, -40.9899041], [173.7980461, -40.9841556], [173.7852083, -40.9681961], [173.7938194, -40.9623055], [173.8056414, -40.9712527], [173.8117472, -40.9606451], [173.8061243, -40.9534317], [173.8387729, -40.9361566], [173.8348936, -40.9240407], [173.8557391, -40.9297216], [173.8437733, -40.942844], [173.8445318, -40.9570475], [173.8341383, -40.9603069], [173.840917, -40.970651], [173.8321074, -40.9806562], [173.8519166, -40.9901375], [173.8703901, -40.9814512], [173.8835449, -40.9565366], [173.8978183, -40.9597776], [173.9168586, -40.9432065], [173.9073509, -40.9269348], [173.9316074, -40.9254442], [173.9789899, -40.8883092], [173.9773049, -40.9041719], [174.0234991, -40.9105339], [174.0137817, -40.9186509], [174.0139734, -40.9368292], [173.9971694, -40.9473864], [174.0001899, -40.9333095], [173.9878404, -40.9251999], [173.9895853, -40.9096058], [173.9694804, -40.9137731], [173.9573654, -40.9229304], [173.962092, -40.9289494], [173.974053, -40.9239818], [173.9753581, -40.9380151], [173.9698261, -40.9473445], [173.9660964, -40.9366027], [173.9507153, -40.9414067], [173.9557253, -40.9664115], [173.9463557, -40.9724907], [173.9456536, -40.9637767], [173.9375006, -40.9617513], [173.9061698, -40.9655606], [173.8999932, -40.9876885], [173.9187351, -40.9787855], [173.930179, -40.9832516], [173.9189098, -40.9960668], [173.8949662, -40.9990546], [173.8906865, -41.0078606], [173.8758362, -41.0023151], [173.8722373, -41.0164289], [173.8628887, -41.021142], [173.8133372, -41.0180848], [173.8358869, -40.9930001], [173.8278341, -40.9884768], [173.8149902, -40.9928017], [173.8034654, -41.0138237], [173.7842634, -41.0066025], [173.7866597, -41.0142694], [173.7729211, -41.0192402], [173.7709833, -41.0243506], [173.7985041, -41.0227511], [173.7926716, -41.0317955], [173.807446, -41.0267027], [173.8108488, -41.0322598], [173.7680408, -41.0529613], [173.787072, -41.0566353], [173.7749291, -41.0709189], [173.7819263, -41.0744299], [173.7798755, -41.0854939], [173.7666631, -41.0857623], [173.7525507, -41.0983671], [173.7730057, -41.0940731], [173.7551954, -41.1119549], [173.7615544, -41.1187044], [173.7720015, -41.1054173], [173.7859507, -41.1113031], [173.7907701, -41.1015997], [173.779424, -41.0990759], [173.7945691, -41.0834845], [173.7937469, -41.0934074], [173.8086704, -41.0922717], [173.8141304, -41.0704228], [173.8239209, -41.0716843], [173.8171391, -41.0636191], [173.8315664, -41.0526538], [173.8582129, -41.0635349], [173.8670857, -41.053362], [173.8839232, -41.0619537], [173.8928314, -41.0547144], [173.9507886, -41.0625002], [173.9052202, -41.070091], [173.9113397, -41.0783202], [173.9019783, -41.0840127], [173.9071702, -41.0907688], [173.8849441, -41.0745696], [173.8777951, -41.0786841], [173.8805591, -41.0861272], [173.8690805, -41.0790257], [173.8687906, -41.0909248], [173.8574756, -41.0981349], [173.8885911, -41.1003634], [173.8834333, -41.1212519], [173.8608993, -41.1101747], [173.8440881, -41.1139562], [173.856254, -41.1219135], [173.8528089, -41.133552], [173.8314948, -41.1353816], [173.8372564, -41.1446575], [173.8276209, -41.1476088], [173.8246636, -41.139676], [173.8184468, -41.1529174], [173.8036735, -41.1487615], [173.7938604, -41.1548568], [173.7848899, -41.1459826], [173.7778436, -41.1528106], [173.7851045, -41.1569087], [173.7776085, -41.1560128], [173.7741649, -41.1708504], [173.7851485, -41.1762392], [173.7970742, -41.1633632], [173.8482059, -41.1520578], [173.8491632, -41.1613583], [173.8299257, -41.1728724], [173.8581272, -41.1689092], [173.8653287, -41.190047], [173.8506208, -41.2159169], [173.841652, -41.2169264], [173.8493735, -41.2414741], [173.8216599, -41.250162], [173.7939467, -41.2352101], [173.8046249, -41.2546794], [173.7725839, -41.2533692], [173.751448, -41.26346], [173.7666267, -41.2633645], [173.756873, -41.2709902], [173.7701994, -41.2739663], [173.7703099, -41.2806692], [173.7744896, -41.2757578], [173.7721337, -41.2828333], [173.7724381, -41.2867684], [173.7746963, -41.2768476], [173.7822467, -41.2760169], [173.7724387, -41.2664757], [173.7790316, -41.2626926], [173.8068283, -41.2871223], [173.8464357, -41.2895519], [173.8493472, -41.2810825], [173.826734, -41.2856571], [173.8080597, -41.2675133], [173.8432898, -41.255081], [173.8522673, -41.261528], [173.8694693, -41.2560642], [173.8960958, -41.2353534], [173.9269132, -41.2245727], [173.8810228, -41.2295066], [173.8595614, -41.2268467], [173.8623894, -41.2192564], [173.8924684, -41.2182122], [173.8977854, -41.2107711], [173.9263011, -41.2103045], [173.9473463, -41.2004507], [173.9471798, -41.2111568], [173.9366084, -41.2190371], [173.96047, -41.2087483], [173.9700535, -41.2174581], [173.9714094, -41.2089395], [173.9983922, -41.208976], [174.0145936, -41.1981025], [174.0332376, -41.2011074], [174.0330175, -41.1910948], [174.0188832, -41.1868119], [174.0735795, -41.1951496], [174.0753059, -41.1883402], [174.0972668, -41.1861857], [174.1214355, -41.1715657], [174.1188959, -41.1668018], [174.052567, -41.1789583], [174.0399465, -41.174445], [174.0502532, -41.1644238], [174.0460401, -41.1580164], [174.0019383, -41.1704072], [174.010918, -41.1786784], [173.9858717, -41.1816913], [173.99808, -41.1857498], [173.9984601, -41.1953442], [173.9832052, -41.1862566], [173.9773099, -41.1938383], [173.9656788, -41.1892085], [173.9751496, -41.1834437], [173.9674172, -41.1721435], [173.9294631, -41.1972351], [173.8983708, -41.1964149], [173.8721406, -41.2094976], [173.8869757, -41.1917695], [173.8810137, -41.1783181], [173.8976444, -41.1685277], [173.8776772, -41.1670096], [173.8679025, -41.1533379], [173.9004844, -41.1500201], [173.8683815, -41.1406604], [173.9226261, -41.124424], [173.900705, -41.1228799], [173.9089204, -41.1092182], [173.9306975, -41.1132755], [173.9339417, -41.102198], [173.9267154, -41.0961331], [173.9330111, -41.0839395], [173.9436376, -41.0895124], [173.9555478, -41.0798381], [173.9644635, -41.0847244], [173.9763664, -41.0787675], [173.9505827, -41.114357], [173.9570182, -41.1460959], [173.9652162, -41.1503333], [173.9652439, -41.13553], [173.9729638, -41.1356695], [173.9735065, -41.1278018], [173.9937646, -41.1355868], [173.9854209, -41.1223069], [173.9947877, -41.1048258], [173.9796842, -41.1059422], [173.986571, -41.0996441], [174.0105147, -41.0947708], [174.038233, -41.11403], [174.0472022, -41.1050869], [174.0322602, -41.0959237], [174.0235831, -41.0709837], [174.0145933, -41.0753141], [174.0192611, -41.0665289], [174.0091682, -41.0589869], [174.0478201, -41.0542739], [174.0497294, -41.0211487], [174.0339716, -41.0266039], [174.037975, -41.0189018], [174.0084369, -41.0174655], [173.9963503, -41.0408535], [173.9739853, -41.0567551], [173.991161, -41.0379515], [173.9839006, -41.031477], [173.9587219, -41.0449734], [173.9550975, -41.0379058], [173.9338259, -41.0392844], [173.9536081, -41.0309681], [173.9356233, -41.0188727], [173.9500485, -41.0125961], [173.9507919, -41.0196436], [173.9680667, -41.0165123], [173.9714044, -41.022096], [173.9886004, -41.0153058], [173.9686578, -41.0035393], [173.9649633, -40.9917003], [173.9709349, -40.9834869], [173.9738616, -40.9918513], [173.9959068, -40.9946005], [174.0026503, -40.9854377], [173.9905137, -40.9823717], [173.995145, -40.9690945], [174.0140571, -40.9646974], [174.0231691, -40.9758512], [174.0125844, -40.9851589], [174.0086453, -41.0102316], [174.0169869, -41.0078428], [174.0234471, -41.0161234], [174.0327101, -41.0089142], [174.046725, -41.0177509], [174.0485985, -41.0022493], [174.0569529, -41.0060016], [174.066746, -40.9960656], [174.0715231, -41.0068352], [174.0651078, -41.0139988], [174.0791812, -41.0162492], [174.1045824, -41.0523626], [174.0969915, -40.9948715], [174.1090116, -40.9939896], [174.1307501, -41.0182708], [174.1415073, -41.0198029], [174.1477118, -41.0107232], [174.1420915, -40.9980538], [174.1531131, -40.999658], [174.1627356, -40.9831068], [174.147861, -40.9786194], [174.1547954, -40.9680577], [174.1710398, -40.9793563], [174.1729456, -41.0080385], [174.1826027, -41.0113921], [174.2143714, -41.0010045], [174.2309738, -40.9851753], [174.2172356, -41.0093612], [174.1956041, -41.0122263], [174.1995714, -41.0400773], [174.1897304, -41.0424506], [174.1839435, -41.0289167], [174.1670609, -41.0433251], [174.18237, -41.0591205], [174.2193904, -41.0714588], [174.2265236, -41.0678564], [174.2249023, -41.0543423], [174.2399677, -41.0489667], [174.2412397, -41.0402285], [174.2602635, -41.0437096], [174.2706595, -41.0289727], [174.2889679, -41.034152], [174.3150978, -40.9938291], [174.3125261, -41.0164759], [174.29852, -41.0351104], [174.2728611, -41.0445613], [174.2721572, -41.0685831], [174.2501731, -41.077119], [174.2492455, -41.0888752], [174.2349585, -41.0901555], [174.2363675, -41.1024792], [174.2492463, -41.1057964], [174.2471794, -41.1220788], [174.2409677, -41.1258491], [174.2250896, -41.1115804], [174.2079817, -41.1189746], [174.2215666, -41.1321675], [174.2201987, -41.1420781], [174.2106893, -41.13317], [174.1866114, -41.1388513], [174.1964943, -41.1237918], [174.1823744, -41.1234418], [174.1880262, -41.0950111], [174.1802071, -41.0874018], [174.1638094, -41.1164388], [174.1454878, -41.1081389], [174.1473769, -41.1277069], [174.1662594, -41.1358144], [174.1599453, -41.1498907], [174.1803467, -41.157462], [174.2006463, -41.1540711], [174.1856681, -41.1644072], [174.1842871, -41.1747145], [174.2005482, -41.1725898], [174.2028605, -41.1831192], [174.1922566, -41.1824455], [174.187075, -41.1940491], [174.1696404, -41.2019333], [174.1804001, -41.1798098], [174.163984, -41.1835809], [174.1604155, -41.1733138], [174.1526773, -41.1732984], [174.1553591, -41.1980735], [174.1485743, -41.2068932], [174.1564589, -41.2134746], [174.1435047, -41.2158198], [174.1452832, -41.2080741], [174.1261593, -41.2045514], [174.1254498, -41.1923227], [174.1125038, -41.2050078], [174.1199126, -41.2199655], [174.1045849, -41.2214727], [174.1051311, -41.2093013], [174.0934368, -41.2015962], [174.0933534, -41.2106606], [174.0851467, -41.2123699], [174.088797, -41.2250663], [174.0768839, -41.2293549], [174.0772202, -41.2224118], [174.0636476, -41.2227149], [174.0741185, -41.210514], [174.0700158, -41.2055791], [174.0612418, -41.2053763], [174.0551606, -41.2162122], [174.0450654, -41.2116713], [174.0474133, -41.222612], [174.0395382, -41.2306118], [174.0311726, -41.2095946], [174.0224931, -41.2164986], [174.0322362, -41.2390573], [174.024712, -41.2408577], [174.0164168, -41.2271179], [174.0087266, -41.2397555], [174.0090592, -41.2238183], [173.9993179, -41.2171021], [173.9923472, -41.2209339], [173.9979244, -41.2440154], [173.9880802, -41.2423853], [173.9828018, -41.2509453], [173.9834484, -41.2356598], [173.975276, -41.2341998], [173.9804775, -41.2281903], [173.9720365, -41.2231086], [173.9698621, -41.2312699], [173.9662457, -41.2226654], [173.9729121, -41.2524239], [173.9137205, -41.2641784], [173.9053231, -41.278959], [173.9454762, -41.2678153], [173.9668812, -41.273888], [173.9651755, -41.2651438], [173.9756378, -41.2689418], [174.0110347, -41.2583909], [173.9944802, -41.2787523], [174.0094829, -41.2718774], [174.0042611, -41.2836396], [174.0105284, -41.2902104], [174.0367072, -41.2542222], [174.0491147, -41.2505237], [174.0388638, -41.2684636], [174.065297, -41.2515618], [174.0758146, -41.2690186], [174.0882473, -41.2687132], [174.074413, -41.2541387], [174.079433, -41.2487983], [174.1071392, -41.2398908], [174.1126652, -41.2491435], [174.1136561, -41.2368778], [174.1317007, -41.2412899], [174.1462281, -41.2316391], [174.1344612, -41.2581973], [174.1507411, -41.2481714], [174.1585522, -41.2510916], [174.1574661, -41.2643286], [174.1770355, -41.2504251], [174.1796665, -41.2652149], [174.1992319, -41.2694952], [174.2026206, -41.2770107], [174.2108947, -41.2660326], [174.187623, -41.2608521], [174.1857304, -41.2499887], [174.2011515, -41.2435831], [174.2106626, -41.2564563], [174.2194308, -41.2528135], [174.2176172, -41.2444099], [174.2256215, -41.2516713], [174.2307503, -41.2455345], [174.2435215, -41.250853], [174.2463575, -41.2443885], [174.2551401, -41.2500611], [174.253518, -41.2603265], [174.2660135, -41.2522365], [174.2546035, -41.2436276], [174.2763459, -41.2441814], [174.2702995, -41.2350653], [174.3158004, -41.2129746], [174.2891074, -41.2321727], [174.2924145, -41.2488565], [174.2748173, -41.2556495], [174.2822557, -41.268528], [174.2671153, -41.2737264], [174.2561794, -41.268088], [174.2565343, -41.2861934], [174.2497357, -41.2812101], [174.2229854, -41.2923065], [174.2418815, -41.3081359], [174.2365426, -41.3198882], [174.2213146, -41.3164347], [174.2135173, -41.3252056], [174.2007417, -41.3104812], [174.190449, -41.3167795], [174.1977923, -41.330471], [174.1922649, -41.3366439], [174.1795974, -41.3327381], [174.153725, -41.338783], [174.1528184, -41.350395], [174.1224219, -41.3519263], [174.1312651, -41.3391009], [174.1473562, -41.3335338], [174.1376892, -41.3319981], [174.1388303, -41.3259269], [174.1594387, -41.3271731], [174.1586067, -41.3184577], [174.174411, -41.3152316], [174.1674125, -41.3075345], [174.1774394, -41.3038819], [174.1756311, -41.2956473], [174.1899502, -41.2934216], [174.1803016, -41.2860698], [174.1674466, -41.2922809], [174.1594375, -41.2877746], [174.1624035, -41.2995516], [174.1389686, -41.3147287], [174.1490469, -41.2839726], [174.1138116, -41.2986783], [174.1140172, -41.3058397], [174.1225751, -41.3061148], [174.1091817, -41.3187282], [174.1086277, -41.3331417], [174.0988494, -41.3319939], [174.1050907, -41.3389535], [174.0928971, -41.3437189], [174.0896943, -41.3592155], [174.0711925, -41.3577959], [174.0780176, -41.3638735], [174.0678724, -41.3874081], [174.0508077, -41.3891401], [174.0309166, -41.4397315], [174.0333974, -41.4764909], [174.0436517, -41.4912346], [174.0613592, -41.497971], [174.0483498, -41.505381], [174.0719418, -41.5243179], [174.0694181, -41.5300803], [174.0695481, -41.5328266], [174.0540792, -41.537486], [174.0655731, -41.5473668], [174.0576048, -41.5511976], [174.0758702, -41.5548985], [174.0734589, -41.5485821], [174.0795369, -41.5482456], [174.0910042, -41.5592059], [174.1258493, -41.5474641], [174.1136845, -41.5337724], [174.0644665, -41.5122224], [174.0623015, -41.5001745], [174.0680749, -41.5091968], [174.1132795, -41.5327045], [174.1501793, -41.5583699], [174.1521087, -41.5866767], [174.1673696, -41.6042528], [174.1586502, -41.6641714], [174.1799797, -41.7084463], [174.2129626, -41.7276714], [174.2241475, -41.7222178], [174.2641715, -41.7341563], [174.2761864, -41.7257603], [174.2753185, -41.7427925], [174.2178891, -41.7934405], [174.2158005, -41.8118379], [174.1629983, -41.8619893], [174.1636448, -41.8730847], [174.1087156, -41.9115623], [174.0833277, -41.9450696], [174.05031864103012, -41.96899337432282], [174.0633795, -41.9347419], [174.02924, -41.9313203], [174.019496, -41.9396039], [174.0034879, -41.9320826], [173.9771013, -41.9333854], [173.9793276, -41.9256352], [173.9652082, -41.9228938], [173.9589994, -41.9085107], [173.930478, -41.9208206], [173.9145083, -41.915241], [173.8511828, -41.9330852], [173.8172537, -41.932997], [173.7894086, -41.9581984], [173.7668317, -41.9218172], [173.7539389, -41.9144668], [173.7620764, -41.9119052], [173.7367425, -41.9113083], [173.7142361, -41.9405116], [173.7202102, -41.9607713], [173.6632186, -41.9821029], [173.6628322, -41.9959469], [173.6381498, -42.009372], [173.6097178, -42.004526], [173.5945042, -42.0292896], [173.5712899, -42.0329985], [173.5551086, -42.0459237], [173.5468017, -42.0697899], [173.5176373, -42.0693932], [173.4991075, -42.0787367], [173.4839895, -42.0994116], [173.4864817, -42.110449], [173.463045, -42.1178107], [173.4842518, -42.1813391], [173.4640258, -42.1797542], [173.4644634, -42.1956737], [173.4433756, -42.2021051], [173.4369621, -42.2141831], [173.4221836, -42.2090456], [173.3975434, -42.2211456], [173.3838555, -42.2171457], [173.3681811, -42.2246369], [173.3731923, -42.2368076], [173.3511388, -42.2427119], [173.3415485, -42.2279031], [173.3333226, -42.2466492], [173.2964544, -42.2480326], [173.3020075, -42.2563039], [173.2958716, -42.2657536], [173.2445247, -42.3031042], [173.2072179, -42.3170246], [173.2048812, -42.33403], [173.1831688, -42.3369019], [173.1806515, -42.3464041], [173.2259006, -42.3463285], [173.2433168, -42.3560848], [173.2237661, -42.356685], [173.2206724, -42.3801007], [173.2090707, -42.3830518], [173.190103, -42.4104143], [173.1643044, -42.4185067], [173.1523278, -42.4496027], [173.106251, -42.4476812], [173.0958053, -42.4607527], [173.0761038, -42.460919], [173.0691213, -42.4807991], [173.0556139, -42.4877452], [173.035789, -42.4834706], [173.0333449, -42.4582881], [173.0150303, -42.4465482], [172.9990645, -42.4523913], [172.9695194, -42.4486799], [173.0028875, -42.3932772], [172.974455, -42.3953463], [172.9413935, -42.3778251], [172.9437515, -42.3511853], [172.919557, -42.3458106], [172.9149748, -42.3092847], [172.8695235, -42.3176692], [172.8468821, -42.3079441], [172.8422529, -42.2895886], [172.8634638, -42.25624], [172.8265638, -42.2482292], [172.8226812, -42.208665], [172.832055, -42.1844575], [172.8069478, -42.1894747], [172.7957672, -42.1796023], [172.7937936, -42.1617077], [172.7495515, -42.1723666], [172.7200438, -42.1549166], [172.7187643, -42.1396107], [172.7260105, -42.1347076], [172.7187266, -42.11127], [172.7352988, -42.0578954], [172.7330013, -42.0345096], [172.757141, -42.0360032], [172.7833174, -42.0089225], [172.7790369, -41.9980594], [172.8029863, -41.9851784], [172.8080634, -41.9581346], [172.8472488, -41.9424559], [172.8647292, -41.9088158], [172.8600281, -41.8975507], [172.8447203, -41.8908901], [172.8464848, -41.8765743], [172.8674931, -41.8668], [172.8726918, -41.8436982], [172.8907966, -41.8184117], [172.9456798, -41.7809333]]], [[[174.0588005, -41.2355627], [174.0572596, -41.2390776], [174.0547027, -41.2347169], [174.0588005, -41.2355627]]], [[[173.7933914, -41.0708492], [173.8003018, -41.0600503], [173.7998188, -41.0690901], [173.7933914, -41.0708492]]], [[[173.7948299, -41.0507544], [173.7972773, -41.0489102], [173.8039059, -41.0507671], [173.7948299, -41.0507544]]], [[[173.6383788, -41.0402263], [173.6421506, -41.0398704], [173.639131, -41.0422457], [173.6383788, -41.0402263]]], [[[173.6563425, -41.0431838], [173.6576952, -41.0377186], [173.6604912, -41.0438814], [173.6563425, -41.0431838]]], [[[173.8696005, -41.0293041], [173.9075108, -41.0159338], [173.8946323, -41.0271788], [173.9122006, -41.0338775], [173.9080806, -41.0407622], [173.892892, -41.0295267], [173.8826254, -41.0366034], [173.8696005, -41.0293041]]], [[[173.9961648, -40.8411251], [173.9959467, -40.8357655], [173.9980201, -40.8343848], [173.9961648, -40.8411251]]], [[[173.7703814, -40.8956377], [173.7792714, -40.883579], [173.7713039, -40.8665574], [173.7774646, -40.8400046], [173.7868912, -40.8319688], [173.7926352, -40.8582012], [173.8201073, -40.8562582], [173.8268867, -40.8704456], [173.8262226, -40.8611542], [173.8333229, -40.8693958], [173.8355867, -40.8623554], [173.8442707, -40.8640625], [173.8444006, -40.8576005], [173.83484, -40.8586494], [173.8407167, -40.8505352], [173.8356095, -40.8457497], [173.8482441, -40.8373434], [173.8341458, -40.8431891], [173.828543, -40.8564201], [173.8086909, -40.8502817], [173.8152154, -40.8407413], [173.8132096, -40.8300868], [173.8050755, -40.8297803], [173.8094868, -40.8181908], [173.7939062, -40.8148442], [173.8345189, -40.7701464], [173.827955, -40.7571093], [173.8328602, -40.7537594], [173.8399712, -40.768811], [173.8398999, -40.7531983], [173.8707218, -40.7281827], [173.8711586, -40.7371893], [173.8828223, -40.7368812], [173.8605316, -40.7685513], [173.8744195, -40.7800904], [173.865487, -40.8062034], [173.876158, -40.8026072], [173.8934856, -40.7777945], [173.9028689, -40.7824709], [173.9049561, -40.8028268], [173.9104706, -40.7804564], [173.9260593, -40.7835811], [173.9223807, -40.7763787], [173.9318761, -40.7678269], [173.9206224, -40.7648574], [173.9062656, -40.7741349], [173.883861, -40.7677347], [173.9179805, -40.7472144], [173.9377489, -40.7466067], [173.9422993, -40.7342288], [173.9358834, -40.7270375], [173.9561034, -40.7216287], [173.950286, -40.6931147], [173.956334, -40.6922223], [173.9677099, -40.7077045], [173.9545682, -40.7446756], [173.9601212, -40.764158], [173.942511, -40.7740382], [173.9391801, -40.7876237], [173.956579, -40.7964017], [173.9456617, -40.7948368], [173.9349646, -40.8066508], [173.9387145, -40.8136532], [173.9298861, -40.8140412], [173.9290761, -40.8226362], [173.9388271, -40.8236098], [173.9080632, -40.8449896], [173.9049251, -40.8566208], [173.9152621, -40.8607763], [173.9086165, -40.8732153], [173.895585, -40.8776659], [173.9065657, -40.8723147], [173.9070433, -40.8614467], [173.8898607, -40.8578696], [173.8535986, -40.899023], [173.8382355, -40.9031924], [173.8339714, -40.9196515], [173.7706433, -40.9415631], [173.7877643, -40.9094027], [173.7948917, -40.9083098], [173.7887859, -40.8964134], [173.7979848, -40.8897682], [173.7841336, -40.8819185], [173.7703814, -40.8956377]]], [[[173.9730881, -40.7686447], [173.9699054, -40.7839006], [173.9616933, -40.7793675], [173.9730881, -40.7686447]]], [[[173.9820681, -40.7711575], [173.9897513, -40.7801547], [173.9765674, -40.7666373], [173.9859831, -40.7613258], [173.9820681, -40.7711575]]], [[[173.9966125, -40.7560192], [173.9886603, -40.7605453], [173.9975187, -40.7455538], [173.9966125, -40.7560192]]], [[[173.9103638, -40.7366359], [173.9152294, -40.7330567], [173.9119166, -40.7384852], [173.9103638, -40.7366359]]], [[[173.9863478, -40.6772338], [173.998865, -40.6636089], [174.0091324, -40.669729], [173.9863478, -40.6772338]]], [[[174.1016319, -41.5338862], [174.094373, -41.5385172], [174.0933254, -41.5331574], [174.1016319, -41.5338862]]], [[[174.0932257, -41.5300151], [174.1029653, -41.5332519], [174.0945688, -41.5331041], [174.0932257, -41.5300151]]], [[[174.0864771, -41.5358851], [174.0879542, -41.5296453], [174.0790188, -41.5321221], [174.0773451, -41.5273802], [174.0713026, -41.5264292], [174.0899297, -41.5274181], [174.0864771, -41.5358851]]], [[[174.0809022, -41.5318308], [174.0694148, -41.5348342], [174.077182, -41.5275215], [174.0776713, -41.5311326], [174.0790875, -41.532302], [174.0809022, -41.5318308]]], [[[174.0698322, -41.5191077], [174.0744481, -41.51933], [174.0729811, -41.5244737], [174.0698322, -41.5191077]]], [[[174.2292621, -41.1847365], [174.2292597, -41.1650264], [174.2449878, -41.1581566], [174.2528984, -41.17967], [174.2209168, -41.1903177], [174.2292621, -41.1847365]]], [[[174.1959154, -41.2187041], [174.1900957, -41.2131975], [174.1947027, -41.2091044], [174.2147884, -41.2062268], [174.2328575, -41.2167665], [174.2373598, -41.212236], [174.2264358, -41.2034777], [174.2544724, -41.2035104], [174.265482, -41.1961494], [174.2496883, -41.1927314], [174.2577706, -41.1816075], [174.2881857, -41.1826833], [174.2830528, -41.1752109], [174.290072, -41.1766377], [174.2907459, -41.1668071], [174.3026066, -41.162505], [174.3213135, -41.1610274], [174.3118171, -41.1770641], [174.3420215, -41.1762846], [174.3330204, -41.1679755], [174.364297, -41.155988], [174.3743731, -41.1251546], [174.3394364, -41.1466977], [174.3255512, -41.1436343], [174.3240273, -41.1310896], [174.2876276, -41.1408738], [174.3037918, -41.1266904], [174.3191984, -41.124771], [174.3157494, -41.1177313], [174.3309324, -41.1297819], [174.3569199, -41.1178379], [174.3804568, -41.0988057], [174.3806249, -41.088212], [174.3922708, -41.0936996], [174.3916375, -41.1183104], [174.3670349, -41.172776], [174.3740454, -41.1941704], [174.3627755, -41.2005721], [174.3428314, -41.1916911], [174.3229829, -41.2107393], [174.3095618, -41.2012044], [174.2952831, -41.2101098], [174.2802913, -41.208836], [174.2619241, -41.2263416], [174.2485008, -41.2237433], [174.2585791, -41.2288166], [174.2541982, -41.2365604], [174.2311124, -41.2360317], [174.2291148, -41.2217044], [174.2141486, -41.2265999], [174.2183774, -41.231761], [174.2096123, -41.2364244], [174.1607517, -41.2413675], [174.1833325, -41.216329], [174.1959154, -41.2187041]]], [[[174.2896538, -41.1650801], [174.2733466, -41.1629093], [174.2748326, -41.1553168], [174.2900831, -41.1549702], [174.2896538, -41.1650801]]], [[[174.3018884, -41.1058952], [174.2671976, -41.1327543], [174.2821164, -41.1123308], [174.3018884, -41.1058952]]], [[[174.2706387, -41.0964276], [174.2724402, -41.0888415], [174.2804667, -41.083645], [174.2706387, -41.0964276]]], [[[174.0805333, -40.9395807], [174.0776028, -40.9568136], [174.0890589, -40.9640746], [174.074543, -40.9715717], [174.0741969, -40.985523], [174.0618151, -40.9952149], [174.0490433, -40.979772], [174.0744988, -40.9574243], [174.0507217, -40.9521823], [174.0805333, -40.9395807]]], [[[174.1318907, -40.9510008], [174.138721, -40.9486413], [174.1461291, -40.9522425], [174.1318907, -40.9510008]]], [[[174.0639726, -40.8980586], [174.0897899, -40.8918322], [174.0569495, -40.9109376], [174.0639726, -40.8980586]]], [[[174.0959072, -40.8907698], [174.1021754, -40.8827411], [174.1112479, -40.895987], [174.1058732, -40.8993144], [174.0959072, -40.8907698]]]]}}]}