{"type": "FeatureCollection", "features": [{"type": "Feature", "properties": {"slug": "marrakesh", "members": 1, "country": "Morocco", "input_hash": "630897b0612e03e7"}, "geometry": {"type": "Polygon", "coordinates": [[[-8.31204, 32.02243], [-8.3757914, 31.9290902], [-8.3783964, 31.8952366], [-8.41068, 31.85446], [-8.42606, 31.80765], [-8.40124, 31.75771], [-8.40845, 31.7269977], [-8.3664316, 31.684503], [-8.4040254, 31.6528722], [-8.4260453, 31.6474618], [-8.4241957, 31.6316816], [-8.4026135, 31.6286816], [-8.402871, 31.6118713], [-8.3821975, 31.6031578], [-8.385897, 31.571809], [-8.4139637, 31.5624008], [-8.4121612, 31.5323014], [-8.3641517, 31.5288628], [-8.2925065, 31.481349], [-8.2828187, 31.4354425], [-8.2650246, 31.4098682], [-8.261821, 31.3632786], [-8.2507499, 31.375761], [-8.2270949, 31.3734966], [-8.2045784, 31.4097766], [-8.175795, 31.4174679], [-8.1555519, 31.439575], [-8.1339797, 31.4355008], [-8.1508018, 31.489417], [-8.182202, 31.5044244], [-8.1448224, 31.5345089], [-8.1338184, 31.5315964], [-8.0944994, 31.5517456], [-8.0620919, 31.5247199], [-8.0454242, 31.5489806], [-8.0362372, 31.5320174], [-7.9844987, 31.5215909], [-7.9790423, 31.502857], [-7.9135844, 31.4902111], [-7.9119624, 31.5166219], [-7.9236783, 31.5369755], [-7.920509, 31.5542492], [-7.9032506, 31.5723697], [-7.8987632, 31.5468831], [-7.8890579, 31.5441986], [-7.8847385, 31.5540164], [-7.9042376, 31.587533], [-7.8995183, 31.5909607], [-7.8658211, 31.5772221], [-7.8234457, 31.5767173], [-7.8193108, 31.5692366], [-7.7947986, 31.5710849], [-7.7939285, 31.5816466], [-7.7446573, 31.5687704], [-7.73605, 31.67034], [-7.7595986, 31.6863627], [-7.8045481, 31.6781311], [-7.816736, 31.691906], [-7.9043692, 31.6887984], [-7.8960436, 31.706106], [-7.911845, 31.7346126], [-7.9328821, 31.7275242], [-7.9497479, 31.767135], [-7.9833849, 31.7609248], [-7.985153, 31.7444523], [-8.0025595, 31.7463865], [-8.0112885, 31.7261298], [-8.0249456, 31.7362213], [-8.0090569, 31.7735345], [-8.0090998, 31.8280837], [-8.0329693, 31.8779215], [-8.0531996, 31.8783078], [-8.0378953, 31.9211377], [-8.050448, 31.9638076], [-8.0432769, 32.0210387], [-8.05151, 32.04356], [-8.09394, 32.05463], [-8.2077564, 32.0544032], [-8.2350034, 32.0799551], [-8.2454404, 32.0718968], [-8.2329692, 32.0522463], [-8.2372607, 32.0461354], [-8.31204, 32.02243]]]}}]}