{"type": "FeatureCollection", "features": [{"type": "Feature", "properties": {"slug": "marsa-alam", "members": 1, "country": "Egypt", "input_hash": "ef2719453759fa65"}, "geometry": {"type": "Polygon", "coordinates": [[[34.947987768000075, 24.10868604600006], [35.48142223900004, 24.14202947800004], [35.441603119000035, 24.179006851000054], [35.42926143900007, 24.199139586000058], [35.42885085900008, 24.221760268000025], [35.41599353300006, 24.224562365000054], [35.41077576500004, 24.26090553000006], [35.35722346700004, 24.325741820000076], [35.325525793000054, 24.34426475600003], [35.320906009000055, 24.36303276700005], [35.30793036500006, 24.367550384000026], [35.30344605100004, 24.360830259000068], [35.27579494300005, 24.37401246400003], [35.263264451000055, 24.39275793300004], [35.22319193300007, 24.415719224000043], [35.221547014000066, 24.43307592000008], [35.20554453300008, 24.44657369500004], [35.19138539200003, 24.476125594000052], [35.16916858400003, 24.485442242000033], [35.136961719000055, 24.518285839000043], [35.15225525200003, 24.535570525000026], [35.151150863000055, 24.55659333600005], [35.17093388100005, 24.56154323100003], [35.17040081000005, 24.56866678700004], [35.15005839500003, 24.578536729000064], [35.13564350000007, 24.609692770000038], [35.12202022900004, 24.61523666000005], [35.117165571000044, 24.60908733100007], [35.121080507000045, 24.620298579000064], [35.10242776100006, 24.64529845000004], [35.110139815000025, 24.66829414600005], [35.08958509100006, 24.68286328100004], [35.093948487000034, 24.709454151000045], [35.08386372700005, 24.746876305000058], [35.00053614800004, 24.825121178000074], [34.990536949000045, 24.89330841900005], [34.94144305300006, 24.95946860600003], [34.95181030700007, 24.983593038000038], [34.94870113800005, 24.997746492000033], [34.93022879700004, 25.013312170000063], [34.903033253000046, 25.070980941000073], [34.888204823000024, 25.086736726000026], [34.85887777800008, 25.15991988500008], [34.80785021400004, 25.214808230000074], [34.79660521100004, 25.261065071000075], [34.76301761600007, 25.298446902000023], [34.736089726000046, 25.37055573400005], [34.707304316000034, 25.39973296100004], [34.683613715000035, 25.484437451000076], [34.66912682000003, 25.504074452000054], [34.65562617100005, 25.50854527900003], [34.64736609700003, 25.531346450000058], [34.361487845000056, 25.500284217000058], [34.118462726000075, 25.461045419000072], [33.84497808800006, 25.38028129500003], [33.47127029100005, 25.306565827000043], [33.48608887300003, 23.882198325000047], [33.972454406000054, 24.059309507000023], [34.14846229300008, 24.082548255000063], [34.38308269000004, 24.100170778000063], [34.947987768000075, 24.10868604600006]]]}}]}