{"type": "FeatureCollection", "features": [{"type": "Feature", "properties": {"slug": "marshall-mo", "members": 1, "country": "United States", "input_hash": "6c98b0f9d062e53c"}, "geometry": {"type": "Polygon", "coordinates": [[[-93.4635841, 39.2917764], [-93.4772055, 39.2927987], [-93.4964083, 38.942829], [-93.053841, 38.932343], [-93.051796, 38.97496], [-92.9083212, 39.0824179], [-92.9095362, 39.096266], [-92.9434608, 39.1046944], [-92.9430895, 39.123916], [-92.91362, 39.135956], [-92.9025727, 39.1695418], [-92.8617319, 39.1993586], [-92.848825, 39.229378], [-92.8607714, 39.2364836], [-92.8914715, 39.2227824], [-92.9130744, 39.2246145], [-92.9200032, 39.2343976], [-92.9184537, 39.259724], [-92.9584785, 39.279659], [-92.9578474, 39.3107582], [-93.0484233, 39.3190253], [-93.075378, 39.337021], [-93.0783008, 39.3660911], [-93.0886935, 39.3796193], [-93.139389, 39.378407], [-93.1772, 39.411751], [-93.199158, 39.404377], [-93.189308, 39.369984], [-93.221054, 39.331272], [-93.229942, 39.328049], [-93.252655, 39.338791], [-93.277344, 39.311443], [-93.336754, 39.30698], [-93.344872, 39.289246], [-93.328506, 39.261703], [-93.351974, 39.236164], [-93.4076978, 39.2288351], [-93.4162087, 39.2382773], [-93.4039958, 39.2625628], [-93.4449387, 39.2688725], [-93.4635841, 39.2917764]]]}}]}