{"type":"FeatureCollection","features":[{"type":"Feature","properties":{"slug":"martigny","member_count":11,"matched_count":10,"unmatched":["District de Martigny (CH-VS, type='District')"],"source":"Overture Maps division_area (CC-BY 4.0)"},"geometry":{"type":"Polygon","coordinates":[[[7.0204656,45.9814197],[7.0054345,46.0014241],[6.9851712,46.004448],[6.9812934,46.0196204],[6.9629003,46.0304301],[6.9486794,46.0512962],[6.975367,46.0784065],[7.034771919588479,46.11158371012016],[7.054643154258201,46.139480590956566],[7.071226809476806,46.12315333394897],[7.0722226,46.1419767],[7.0883281,46.1584214],[7.075502,46.1993033],[7.110341072482584,46.21609497100616],[7.126152992266839,46.23872756952176],[7.180548191246089,46.20418930059577],[7.224652767311397,46.19608306887858],[7.229179859163196,46.17907333396727],[7.255735874211268,46.18532562227972],[7.254497050898237,46.17659378077843],[7.265717029617292,46.16648864753313],[7.295989990345845,46.15585327131146],[7.295485973399025,46.130542755243994],[7.280998585617354,46.11721893216187],[7.283943175836953,46.09751892126127],[7.2221884,46.123628],[7.1961954,46.1139403],[7.151503315384787,46.11540974531334],[7.097161769600064,46.091468811336654],[7.11163377777666,46.090850830501495],[7.110013007894054,46.061832427624495],[7.041388,46.0237371],[7.036915779239848,46.00897598305522],[7.046975136093693,46.00257492079601],[7.040676117209102,45.99514007525431],[7.047345161250234,45.987880707228896],[7.0204656,45.9814197]]]}}]}