{"type":"FeatureCollection","features":[{"type":"Feature","properties":{"slug":"massa","member_count":18,"matched_count":17,"unmatched":["Massa and Carrara (IT-52, type='Province')"],"source":"Overture Maps division_area (CC-BY 4.0)"},"geometry":{"type":"Polygon","coordinates":[[[9.8910072,44.2081091],[9.8646559,44.180884],[9.8566651,44.1940299],[9.8727094,44.2256985],[9.8561519,44.235102],[9.8620501,44.2508194],[9.8542712,44.2688972],[9.771053,44.3011939],[9.7536235,44.3225908],[9.7285877,44.3283945],[9.7110544,44.3634003],[9.6867692,44.3658662],[9.7171743,44.382927],[9.7425937,44.3801563],[9.7441144,44.3895042],[9.7603919,44.3900003],[9.7545333,44.3923122],[9.7567834,44.4071144],[9.8167722,44.4515339],[9.8196646,44.4663178],[9.9001715,44.4724497],[9.962849,44.4668788],[9.9712271,44.464194],[9.9762452,44.4478115],[9.9959362,44.4469516],[10.004962,44.4367012],[9.9906173,44.4085947],[9.9965481,44.3969016],[10.0972582,44.3464907],[10.143861,44.3534025],[10.1803045,44.3226109],[10.2033854,44.3194611],[10.2081567,44.3022533],[10.2263875,44.3001994],[10.2540765,44.2681854],[10.2548024,44.2547725],[10.2308189,44.2282481],[10.1855324,44.2056607],[10.2001246,44.1730932],[10.1826589,44.1396339],[10.1872914,44.1235389],[10.2333178,44.1079688],[10.24286,44.0859045],[10.2396512,44.0717076],[10.2021665,44.0358759],[10.2017469,44.0195391],[10.169706,43.9967348],[10.1738407,43.9879007],[10.1433617,43.9753156],[10.065588,44.0273956],[10.0421168,44.0291956],[10.0409618,44.0362531],[10.0355735,44.0328972],[10.0413389,44.0267339],[10.0187585,44.0444455],[10.0326756,44.0654322],[10.060877,44.0797721],[10.0701593,44.0977519],[10.0463261,44.1155166],[10.0178104,44.1190832],[9.9933634,44.092714],[9.9826073,44.1000581],[9.9933496,44.1046848],[9.9952156,44.11881],[9.974527,44.1376036],[9.9809973,44.1438374],[9.9741142,44.1669157],[9.921566,44.1699762],[9.8975153,44.1638995],[9.8920979,44.1673234],[9.9218317,44.1950518],[9.9252628,44.1959064],[9.9272828,44.1954541],[9.9325787,44.196075],[9.9343214,44.1966925],[9.9143694,44.1995925],[9.9089833,44.2100847],[9.8910072,44.2081091]]]}}]}