{"type":"FeatureCollection","features":[{"type":"Feature","properties":{"slug":"matamoros","member_count":1,"matched_count":1,"unmatched":[],"source":"Overture Maps division_area (CC-BY 4.0)"},"geometry":{"type":"MultiPolygon","coordinates":[[[[-97.5369698,25.0851811],[-97.5293201,25.0879941],[-97.5384718,25.0744046],[-97.5369698,25.0851811]]],[[[-97.5238645,25.1003385],[-97.5282419,25.0942174],[-97.5292209,25.0947688],[-97.5238645,25.1003385]]],[[[-97.6845764203357,25.237076746733667],[-97.663625,25.2576843],[-97.683910993714,25.236496306599637],[-97.6845764203357,25.237076746733667]]],[[[-97.6175675,25.2737613],[-97.6027295,25.2765833],[-97.6425388,25.261238],[-97.6547147,25.2602774],[-97.6087618,25.2750395],[-97.6175675,25.2737613]]],[[[-97.6000392,25.2843892],[-97.5956451,25.2852407],[-97.5961205,25.2822647],[-97.6000392,25.2843892]]],[[[-97.6018068,25.3041583],[-97.6030219,25.3022741],[-97.6197441,25.300915],[-97.6018068,25.3041583]]],[[[-97.5926149,25.3086587],[-97.5963593,25.3093619],[-97.5898844,25.3107246],[-97.5926149,25.3086587]]],[[[-97.6357716,25.3081665],[-97.627717,25.3214584],[-97.6182997,25.3162141],[-97.6230526,25.3070171],[-97.6357716,25.3081665]]],[[[-97.540859,25.3196327],[-97.5285772,25.3204134],[-97.5305754,25.3093061],[-97.5306907,25.3167596],[-97.540859,25.3196327]]],[[[-97.6455885,25.3142743],[-97.6479381,25.3148878],[-97.6540321,25.320685],[-97.6455885,25.3142743]]],[[[-97.6407203,25.3251339],[-97.6310818,25.3250733],[-97.6364395,25.3227021],[-97.6407203,25.3251339]]],[[[-97.5409153,25.3256176],[-97.5380695,25.3276456],[-97.5366426,25.3247775],[-97.5409153,25.3256176]]],[[[-97.5328821,25.3348676],[-97.5301355,25.325209],[-97.5379273,25.3293644],[-97.5328821,25.3348676]]],[[[-97.6412447,25.3374627],[-97.6424611,25.3432358],[-97.6394047,25.3373439],[-97.6412447,25.3374627]]],[[[-97.539762,25.3386857],[-97.5338209,25.3461156],[-97.5316322,25.341665],[-97.539762,25.3386857]]],[[[-97.5203106,25.3470706],[-97.5088736,25.3435606],[-97.5173843,25.343517],[-97.5203106,25.3470706]]],[[[-97.5385469,25.3541121],[-97.5365084,25.3507841],[-97.5462261,25.3433885],[-97.5385469,25.3541121]]],[[[-97.5249428,25.347216],[-97.5314149,25.3474269],[-97.5263,25.3541533],[-97.5249428,25.347216]]],[[[-97.5005078,25.3535934],[-97.5111723,25.3457932],[-97.5135836,25.3555907],[-97.5005078,25.3535934]]],[[[-97.530798,25.3547787],[-97.5292128,25.3519718],[-97.5337458,25.3533437],[-97.530798,25.3547787]]],[[[-97.537517,25.3601861],[-97.5371414,25.3558815],[-97.5438711,25.359253],[-97.537517,25.3601861]]],[[[-97.5296071,25.3626947],[-97.5279951,25.3606685],[-97.5337887,25.3602879],[-97.5296071,25.3626947]]],[[[-97.5405934,25.3664416],[-97.5353819,25.3646433],[-97.5406712,25.362542],[-97.5405934,25.3664416]]],[[[-97.5218394,25.368189],[-97.5306237,25.363097],[-97.5296474,25.3711579],[-97.5218394,25.368189]]],[[[-97.6853442,25.3676486],[-97.6851699,25.3739861],[-97.678408,25.375525],[-97.6713511,25.3691221],[-97.6853442,25.3676486]]],[[[-97.8689577,25.5041858],[-97.7365948,25.5039837],[-97.7357723,25.8126728],[-97.8045189,25.8921294],[-97.8055551,25.9023878],[-97.8232107,25.8932089],[-97.8609977,25.9173744],[-97.9163808,25.9339683],[-97.9167194,25.9637834],[-97.9065787,25.9638516],[-97.90218,26.0610319],[-97.8866,26.06666],[-97.86898,26.05689],[-97.86113,26.07008],[-97.86075,26.05292],[-97.83912,26.05321],[-97.83356,26.04575],[-97.81778,26.05649],[-97.81355,26.04398],[-97.8016,26.06035],[-97.78888,26.04992],[-97.79778,26.04258],[-97.79099,26.03366],[-97.77681,26.02929],[-97.76923,26.03583],[-97.77678,26.04424],[-97.76819,26.04753],[-97.76184,26.0258],[-97.7211,26.03141],[-97.71974,26.02341],[-97.70939,26.02641],[-97.70726,26.03785],[-97.69211,26.01895],[-97.69345,26.03236],[-97.67507,26.02605],[-97.6626,26.03815],[-97.66799,26.01927],[-97.65159,26.01587],[-97.64627,26.02745],[-97.63903,26.02319],[-97.6381,26.01341],[-97.64924,26.01053],[-97.63505,26.0],[-97.6268,26.00606],[-97.62744,25.99666],[-97.61865,26.00272],[-97.62003,25.99266],[-97.63112,25.99649],[-97.63455,25.99034],[-97.60781,25.97674],[-97.61056,25.96598],[-97.60194,25.95719],[-97.58215,25.96244],[-97.57803,25.94213],[-97.57454,25.95398],[-97.5679,25.95244],[-97.5663,25.94495],[-97.58297,25.93302],[-97.56716,25.93382],[-97.56159,25.9257],[-97.55212,25.93714],[-97.54374,25.92343],[-97.53718,25.93072],[-97.5430478,25.91996],[-97.5301,25.91993],[-97.53328,25.90821],[-97.52105,25.88614],[-97.49815,25.89911],[-97.49667,25.87968],[-97.46879,25.88885],[-97.47027,25.87535],[-97.45537,25.88397],[-97.4566,25.86833],[-97.44461,25.86745],[-97.45412,25.85427],[-97.44524,25.85638],[-97.444,25.8485],[-97.42578,25.84074],[-97.4125,25.84122],[-97.4086,25.86215],[-97.40861,25.84596],[-97.3986761,25.8504846],[-97.40561,25.83764],[-97.37311,25.83983],[-97.36399,25.84997],[-97.37657,25.85487],[-97.35686,25.86691],[-97.35857,25.87843],[-97.37431,25.87943],[-97.35641,25.88805],[-97.36656,25.89082],[-97.36594,25.90245],[-97.3752,25.90776],[-97.34832,25.9312],[-97.3260241,25.9175712],[-97.31801,25.93134],[-97.3049,25.92801],[-97.30302,25.9373],[-97.27666,25.93523],[-97.27823,25.94729],[-97.28966,25.95431],[-97.28352,25.9595],[-97.24721,25.94817],[-97.20882,25.96398],[-97.18784,25.95398],[-97.17537,25.96593],[-97.158205,25.9617067],[-97.15957,25.94946],[-97.14922446936363,25.95258857693786],[-97.1467003,25.8690997],[-97.1643573,25.7461076],[-97.1813706,25.6822855],[-97.202493,25.6288937],[-97.3814285,25.3236089],[-97.4208114,25.2364762],[-97.4434046,25.2416876],[-97.4458655,25.2499625],[-97.4012822,25.3144004],[-97.4054141,25.320902],[-97.3977122,25.3268479],[-97.3991002,25.3368797],[-97.3893625,25.3364433],[-97.3918408,25.3482196],[-97.3757395,25.3588676],[-97.3834348,25.3715941],[-97.3842931,25.3655716],[-97.401301,25.3686083],[-97.4218521,25.3370518],[-97.4168471,25.3469955],[-97.4202776,25.3582738],[-97.4088299,25.3742648],[-97.4244028,25.3651135],[-97.4213022,25.3780114],[-97.4499163,25.3560321],[-97.4296814,25.3797029],[-97.410112,25.3800373],[-97.3926374,25.4053973],[-97.4091679,25.4241146],[-97.4222007,25.4162825],[-97.4357982,25.4188165],[-97.4405658,25.4284531],[-97.4450693,25.4191266],[-97.4529281,25.4219343],[-97.445021,25.4496542],[-97.4618492,25.4378684],[-97.4513027,25.4346421],[-97.458998,25.4236567],[-97.4670205,25.4194222],[-97.4607119,25.4284822],[-97.4726558,25.4274599],[-97.5009772,25.3907431],[-97.5060037,25.3703557],[-97.4958998,25.376029],[-97.4977049,25.3612186],[-97.48247,25.3598783],[-97.4874991,25.3523572],[-97.5169739,25.3605133],[-97.5050542,25.3619651],[-97.5127065,25.3696698],[-97.5371468,25.3744635],[-97.5451183,25.368206],[-97.5530523,25.3395342],[-97.5444907,25.3386397],[-97.555536,25.3350955],[-97.5415429,25.3390784],[-97.5502762,25.3218924],[-97.5397995,25.3207044],[-97.550987,25.3120824],[-97.5298619,25.3086078],[-97.5289339,25.3002881],[-97.525734,25.3200655],[-97.5223947,25.3157534],[-97.5299531,25.2917521],[-97.5591731,25.2800722],[-97.5678581,25.2862227],[-97.5648272,25.3024657],[-97.5740824,25.2971518],[-97.5655353,25.3101766],[-97.5748962,25.3166893],[-97.5748801,25.3263291],[-97.5671554,25.3237592],[-97.5723267,25.3319924],[-97.5855044,25.3093886],[-97.5839567,25.3206947],[-97.6095128,25.3076985],[-97.6130533,25.310002],[-97.6152152,25.3189781],[-97.6065458,25.3101956],[-97.6007581,25.3176591],[-97.6081413,25.3192171],[-97.6049155,25.3264649],[-97.6126242,25.3201176],[-97.6202702,25.3231912],[-97.6181924,25.3302081],[-97.6369411,25.3328652],[-97.6239283,25.3433812],[-97.6163524,25.3712936],[-97.6397172,25.3583368],[-97.6475492,25.3622754],[-97.6366085,25.3632521],[-97.6445076,25.364527],[-97.6404816,25.3693935],[-97.6485845,25.379669],[-97.6565158,25.3654479],[-97.6759136,25.37837],[-97.6853845,25.3740297],[-97.6943323,25.3797829],[-97.6999971,25.3663665],[-97.7109942,25.363795],[-97.7053535,25.3606442],[-97.6922911,25.3725781],[-97.6893354,25.3643864],[-97.7093232,25.3488401],[-97.7224392,25.3596263],[-97.7136576,25.3503527],[-97.7260441,25.3318082],[-97.7086419,25.3105355],[-97.6911324,25.3384894],[-97.7200896,25.2840109],[-97.7216039873843,25.264360213649717],[-97.8077166,25.3414723],[-97.8032834,25.3467758],[-97.8488456,25.3672713],[-97.8472398,25.3745223],[-97.8779874,25.396303],[-97.8998035,25.3757916],[-97.899774,25.3808549],[-97.9411455,25.3808587],[-97.8898753,25.4350137],[-97.8898488,25.4530261],[-97.8699809,25.4530547],[-97.8699651,25.4620562],[-97.8600366,25.4621067],[-97.8600192,25.4801061],[-97.8501544,25.4801176],[-97.850039,25.495121],[-97.869125,25.4982383],[-97.8689577,25.5041858]]],[[[-97.5048745,25.13192],[-97.5087637,25.1234596],[-97.5060707,25.1330079],[-97.5048745,25.13192]]],[[[-97.5051481,25.1405353],[-97.5042951,25.1373641],[-97.5065053,25.1352467],[-97.5051481,25.1405353]]],[[[-97.4958301,25.1415163],[-97.4971363,25.1365628],[-97.499451,25.1420723],[-97.4958301,25.1415163]]],[[[-97.424739,25.2336136],[-97.4845997,25.1181965],[-97.516306,25.0424461],[-97.5132966,25.057514],[-97.5201416,25.0637098],[-97.5130016,25.0667856],[-97.5170732,25.07525],[-97.5110918,25.071222],[-97.5064731,25.0772616],[-97.5124169,25.092828],[-97.5023961,25.0989297],[-97.515705,25.0977889],[-97.5177384,25.1062455],[-97.4975583,25.1027528],[-97.512449,25.1170774],[-97.4981368,25.1081982],[-97.5008512,25.1316481],[-97.4895376,25.1369514],[-97.4899936,25.1533745],[-97.4796939,25.1530201],[-97.4836367,25.1691206],[-97.4501386,25.2385152],[-97.424739,25.2336136]]],[[[-97.4963263,25.1506771],[-97.4942905,25.1465666],[-97.4982065,25.1487955],[-97.4963263,25.1506771]]],[[[-97.4843261,25.1923064],[-97.4927884,25.1651928],[-97.4969512,25.1622262],[-97.4843261,25.1923064]]],[[[-97.4855438,25.1820588],[-97.4833792,25.1781896],[-97.4864879,25.1763982],[-97.4855438,25.1820588]]],[[[-97.4776125,25.2043708],[-97.4745628,25.2053634],[-97.4825692,25.1944471],[-97.4776125,25.2043708]]],[[[-97.4677581,25.2163273],[-97.4700433,25.209785],[-97.4721354,25.213561],[-97.4677581,25.2163273]]],[[[-97.4668341,25.2208062],[-97.4632251,25.2245581],[-97.4643517,25.2207534],[-97.4668341,25.2208062]]],[[[-97.4752951,25.3191211],[-97.4891728,25.3097256],[-97.5010027,25.2868351],[-97.5104635,25.2845905],[-97.5177518,25.288757],[-97.5027247,25.2868387],[-97.4978692,25.297688],[-97.5062169,25.2931077],[-97.492606,25.3042868],[-97.5001001,25.3068013],[-97.4783635,25.3247969],[-97.4752951,25.3191211]]],[[[-97.5011945,25.3431412],[-97.5029862,25.3381718],[-97.5093752,25.3375391],[-97.5011945,25.3431412]]],[[[-97.5007439,25.3384797],[-97.4938989,25.340116],[-97.4984801,25.3491649],[-97.4811691,25.3426928],[-97.4782938,25.3488134],[-97.4772906,25.3369427],[-97.5007439,25.3384797]]],[[[-97.4799728,25.3560051],[-97.4740827,25.3585647],[-97.4782911,25.3531232],[-97.4799728,25.3560051]]],[[[-97.4828884,25.3675177],[-97.4833471,25.3690446],[-97.4791789,25.3687343],[-97.4828884,25.3675177]]],[[[-97.4892855,25.3688458],[-97.4897468,25.3729755],[-97.485753,25.3709131],[-97.4892855,25.3688458]]],[[[-97.4930245,25.375525],[-97.4907687,25.3694663],[-97.4925658,25.3702369],[-97.4930245,25.375525]]],[[[-97.4716043,25.3810503],[-97.4694747,25.3770808],[-97.4769419,25.3736323],[-97.4716043,25.3810503]]],[[[-97.488169,25.383837],[-97.4841843,25.3864755],[-97.4848306,25.3828411],[-97.488169,25.383837]]],[[[-97.4736536,25.3836093],[-97.4758208,25.3876997],[-97.4701989,25.386459],[-97.4736536,25.3836093]]],[[[-97.4923003,25.3890978],[-97.4978659,25.3834251],[-97.4962941,25.3923036],[-97.4923003,25.3890978]]],[[[-97.47684,25.3912374],[-97.4791253,25.3862651],[-97.4785808,25.3919086],[-97.47684,25.3912374]]],[[[-97.4904083,25.3913413],[-97.4900885,25.3916428],[-97.4846045,25.3904664],[-97.4904083,25.3913413]]],[[[-97.4807775,25.3981334],[-97.4752575,25.4037061],[-97.4705046,25.4006824],[-97.4807775,25.3981334]]],[[[-97.4791145,25.4074034],[-97.4847365,25.4079654],[-97.4767649,25.4119872],[-97.4791145,25.4074034]]],[[[-97.4753621,25.4128545],[-97.4639493,25.415563],[-97.4601889,25.4196451],[-97.4676588,25.4107952],[-97.4753621,25.4128545]]],[[[-97.4540409,25.2400829],[-97.4607328,25.228244],[-97.4603009,25.2318762],[-97.4540409,25.2400829]]],[[[-97.4502132,25.2533375],[-97.4447016,25.2583016],[-97.4479482,25.2451441],[-97.4502132,25.2533375]]],[[[-97.440083,25.2682797],[-97.4367005,25.2711685],[-97.4355513,25.2665663],[-97.440083,25.2682797]]],[[[-97.433112,25.2781247],[-97.4359176,25.280128],[-97.4338281,25.2813479],[-97.433112,25.2781247]]],[[[-97.4315751,25.3080089],[-97.4312452,25.3128438],[-97.4269831,25.3168978],[-97.4315751,25.3080089]]],[[[-97.4117562,25.3168954],[-97.4084491,25.3194533],[-97.4074084,25.3174579],[-97.4117562,25.3168954]]],[[[-97.42333,25.3066704],[-97.4188212,25.3114884],[-97.42106,25.3371506],[-97.4111393,25.3223455],[-97.4190928,25.3249787],[-97.4163214,25.3095613],[-97.42333,25.3066704]]],[[[-97.443287,25.3137727],[-97.4330746,25.3234475],[-97.4274015,25.353271],[-97.4227532,25.3227361],[-97.4292791,25.330613],[-97.4341446,25.3169293],[-97.4424702,25.3120824],[-97.4457213,25.3004],[-97.443287,25.3137727]]],[[[-97.4063891,25.329476],[-97.4034226,25.327071],[-97.4077731,25.3267413],[-97.4063891,25.329476]]],[[[-97.4032389,25.3295317],[-97.4058044,25.3346543],[-97.3999585,25.334064],[-97.4032389,25.3295317]]],[[[-97.4116838,25.3364409],[-97.4083686,25.3380482],[-97.4090901,25.3326494],[-97.4116838,25.3364409]]],[[[-97.3978087,25.3441169],[-97.3972964,25.3458635],[-97.3936433,25.3414444],[-97.3978087,25.3441169]]],[[[-97.4030632,25.3450053],[-97.4009442,25.3480984],[-97.3987877,25.3464695],[-97.4030632,25.3450053]]],[[[-97.3929137,25.347027],[-97.3967077,25.3481784],[-97.3945954,25.3492788],[-97.3929137,25.347027]]],[[[-97.4219862,25.3553943],[-97.4199316,25.352539],[-97.4237645,25.3490631],[-97.4219862,25.3553943]]],[[[-97.3911461,25.3564244],[-97.3897366,25.3520215],[-97.394869,25.3529947],[-97.3911461,25.3564244]]],[[[-97.3786122,25.3601377],[-97.3857334,25.3613665],[-97.3873562,25.3631721],[-97.3786122,25.3601377]]],[[[-97.4424005,25.3593015],[-97.4424273,25.3605958],[-97.4304003,25.367508],[-97.4424005,25.3593015]]],[[[-97.4499401,25.3801149],[-97.4451873,25.3809533],[-97.4499026,25.3794775],[-97.4499401,25.3801149]]],[[[-97.4631339,25.3908061],[-97.4558115,25.395187],[-97.4606395,25.3802651],[-97.4631339,25.3908061]]],[[[-97.4372801,25.3942808],[-97.4419606,25.3918432],[-97.4373069,25.397329],[-97.4372801,25.3942808]]],[[[-97.4512464,25.4050241],[-97.4500287,25.4019713],[-97.4629874,25.4024314],[-97.4512464,25.4050241]]],[[[-97.4400508,25.4030398],[-97.4184671,25.4153837],[-97.428622,25.4050314],[-97.4400508,25.4030398]]],[[[-97.4433634,25.4136128],[-97.4578527,25.4125783],[-97.4435967,25.4154443],[-97.4433634,25.4136128]]],[[[-97.4579009,25.4179808],[-97.4532527,25.4208927],[-97.4530703,25.4178209],[-97.4579009,25.4179808]]]]}}]}