{"type":"FeatureCollection","features":[{"type":"Feature","properties":{"slug":"matera","member_count":31,"matched_count":31,"unmatched":[],"source":"Overture Maps division_area (CC-BY 4.0)"},"geometry":{"type":"MultiPolygon","coordinates":[[[[16.4212852,40.1431485],[16.4207396,40.1295222],[16.4097636,40.1219565],[16.4161609,40.0857605],[16.4016575,40.0585967],[16.3851105,40.0629386],[16.3838968,40.0823053],[16.3633049,40.0736813],[16.3701058,40.0858464],[16.3561014,40.0918653],[16.3718128,40.1066818],[16.3513357,40.1243019],[16.3751245,40.1474233],[16.3973089,40.1547635],[16.3981534,40.1680067],[16.3603939,40.1882131],[16.3494281,40.2063948],[16.3495999,40.2180303],[16.3719893,40.2519926],[16.3685281,40.263402],[16.3763222,40.2748686],[16.3648308,40.2889383],[16.3756268,40.2974326],[16.3764505,40.3114091],[16.3341698,40.3054495],[16.3197204,40.2806693],[16.3063158,40.2729693],[16.2583011,40.2751753],[16.2424816,40.2674714],[16.1963037,40.2663909],[16.1888332,40.2910882],[16.1705313,40.3106166],[16.1732558,40.3186617],[16.1860664,40.3163001],[16.1850013,40.3278128],[16.1756817,40.339394],[16.1642063,40.3394567],[16.1672472,40.3492368],[16.1523251,40.3787557],[16.107044,40.4096535],[16.1103048,40.4273174],[16.128725,40.4313374],[16.1423139,40.4535243],[16.1220582,40.4601209],[16.0978588,40.482704],[16.1170804,40.5016847],[16.0765145,40.5456386],[16.1027313,40.5581216],[16.1217876,40.5846346],[16.0818063,40.601875],[16.0716053,40.6216154],[16.048594,40.6357947],[16.0607538,40.6602602],[16.0781492,40.6616717],[16.1250835,40.6943394],[16.14833,40.7001848],[16.1490038,40.731952],[16.1151218,40.7667312],[16.122391,40.7751701],[16.1224147,40.7971481],[16.1686448,40.8057744],[16.2454982,40.838581],[16.2776322,40.8023944],[16.3183503,40.7815265],[16.349158,40.7493899],[16.385381,40.7328378],[16.3999498,40.707307],[16.4138235,40.7019049],[16.464069,40.7251336],[16.5018677,40.7632723],[16.5394278,40.7259607],[16.5448282,40.7265235],[16.5414624,40.7428358],[16.5321945,40.7456262],[16.5366141,40.752916],[16.5552854,40.7586382],[16.5732524,40.7379215],[16.5787963,40.7429806],[16.5676606,40.7549482],[16.5768299,40.764532],[16.6087492,40.7528155],[16.6336307,40.7545544],[16.6539783,40.7448903],[16.6536716,40.7372816],[16.6623288,40.7378148],[16.6641711,40.7498507],[16.7257347,40.7148244],[16.7095371,40.7064092],[16.7053067,40.7122352],[16.6973101,40.7036001],[16.7280249,40.6893679],[16.7097852,40.6334071],[16.7134419,40.6166241],[16.7290836,40.6024106],[16.7125731,40.5937997],[16.7174106,40.5832332],[16.7061825,40.556036],[16.7251972,40.5362848],[16.7166401,40.5252415],[16.7378643,40.50879],[16.721038,40.4808199],[16.7446281,40.4656839],[16.7545306,40.4716865],[16.7606406,40.4637487],[16.8036333,40.4584388],[16.8101981,40.4340685],[16.8670356,40.3976421],[16.8185745,40.3322818],[16.8128044,40.34126],[16.8086036,40.3378423],[16.8176808,40.3317936],[16.7880465,40.3040152],[16.7531596,40.2518624],[16.7360771,40.2050003],[16.7311581,40.206662],[16.7288102,40.2050724],[16.7355107,40.2041411],[16.6865587,40.1484672],[16.6455477,40.1178455],[16.621219,40.1320478],[16.5613249,40.1298569],[16.5301001,40.1182386],[16.5106272,40.1300661],[16.4928084,40.1254162],[16.4500807,40.1344126],[16.4348868,40.1286726],[16.4212852,40.1431485]]],[[[15.9820514,40.649813],[15.979631,40.6055931],[15.9554394,40.6122466],[15.9422533,40.6389245],[15.9543941,40.6493486],[15.9820514,40.649813]]],[[[16.6472447,40.7556945],[16.6345687,40.7551622],[16.6361239,40.7596021],[16.6472447,40.7556945]]]]}}]}