{"type": "FeatureCollection", "features": [{"type": "Feature", "properties": {"slug": "maun", "members": 1, "country": "Botswana", "input_hash": "9ebf7c5b518bb089"}, "geometry": {"type": "Polygon", "coordinates": [[[23.098367, -18.000819], [21.4530449, -18.3176475], [20.9989495, -18.3175693], [20.9988554, -20.9953749], [23.8844004, -21.0001921], [23.8842321, -20.329571], [23.8895237, -20.3024113], [23.9059806, -20.3179812], [23.940078, -20.3269613], [23.955946, -20.3234401], [23.9701617, -20.3064965], [23.9969611, -20.3112198], [23.9972091, -20.2887259], [24.0225828, -20.271527], [24.0195894, -20.2635559], [24.0306723, -20.251689], [24.0539047, -20.2541734], [24.057816, -20.2433421], [24.0973749, -20.2148507], [24.1230037, -20.2173772], [24.1378064, -20.200486], [24.1545581, -20.1975906], [24.1582334, -20.2050454], [24.1972111, -20.2162564], [24.2074879, -20.2425035], [24.2314485, -20.253821], [24.2603655, -20.2203211], [24.2668635, -20.2465093], [24.2823402, -20.2548945], [24.2826769, -20.2714235], [24.2695034, -20.2860912], [24.2844503, -20.3154631], [24.3260913, -20.3211783], [24.3361212, -20.330911], [24.337373, -20.3517002], [24.3834884, -20.3920581], [24.4095963, -20.4036734], [24.4712507, -20.3852168], [24.4927212, -20.3917543], [25.1781856, -20.3422952], [25.1760472, -20.0717946], [25.1182008, -20.0435552], [25.0607491, -20.0288228], [24.9992102, -19.9968657], [25.0046077, -19.000034], [23.8821849, -19.0004211], [23.8821952, -18.2751954], [23.868797, -18.282136], [23.8729852, -18.2896794], [23.861559, -18.295643], [23.8640347, -18.3050824], [23.8512272, -18.3020445], [23.8444707, -18.3267975], [23.8338464, -18.3231921], [23.8273465, -18.3345823], [23.820704, -18.3305503], [23.803239, -18.339704], [23.808451, -18.353531], [23.792992, -18.365541], [23.795917, -18.37397], [23.7616575, -18.4060617], [23.7453724, -18.4113031], [23.737582, -18.4250183], [23.7140724, -18.4362682], [23.6871189, -18.4307299], [23.6589959, -18.4772661], [23.6470252, -18.4782226], [23.616002, -18.502329], [23.593152, -18.496301], [23.5676627, -18.4806762], [23.5716216, -18.4544722], [23.5548082, -18.4401956], [23.5643703, -18.4136177], [23.5605629, -18.3915572], [23.5508466, -18.3906874], [23.5504979, -18.3821104], [23.5644118, -18.3693514], [23.553521, -18.358302], [23.558559, -18.336807], [23.5368186, -18.3271629], [23.537009, -18.319021], [23.5280419, -18.3200789], [23.5340254, -18.2961514], [23.525846, -18.290781], [23.530899, -18.285669], [23.521951, -18.285312], [23.525821, -18.273114], [23.503009, -18.266084], [23.5008281, -18.2420092], [23.469241, -18.246741], [23.45827, -18.233484], [23.4531069, -18.2361125], [23.44553, -18.212885], [23.4336233, -18.213502], [23.424202, -18.204085], [23.42066, -18.213604], [23.4103578, -18.2035585], [23.397462, -18.208107], [23.402951, -18.174641], [23.384299, -18.163749], [23.380496, -18.13629], [23.3637788, -18.1269915], [23.3674633, -18.1163051], [23.3502998, -18.109906], [23.3399517, -18.0859815], [23.3241809, -18.082758], [23.320275, -18.058552], [23.3348767, -18.0519232], [23.3213091, -18.0493298], [23.320815, -18.0381823], [23.307935, -18.0374733], [23.3170813, -18.023619], [23.3042068, -18.0118449], [23.3087298, -18.001806], [23.098367, -18.000819]]]}}]}