{"type": "FeatureCollection", "features": [{"type": "Feature", "properties": {"slug": "mbale", "members": 1, "country": "Uganda", "input_hash": "9cac1da8f1858bf0"}, "geometry": {"type": "Polygon", "coordinates": [[[34.1391202, 1.0940279], [34.1084142, 1.0572505], [34.1570211, 1.0451945], [34.1695706, 1.032692], [34.2218406, 1.0391757], [34.2543458, 1.0818261], [34.2398786, 1.1203421], [34.2253285, 1.1216869], [34.2250557, 1.1605905], [34.1955629, 1.1606122], [34.1927843, 1.1508897], [34.1620853, 1.1655101], [34.1449674, 1.1599], [34.1205767, 1.1743595], [34.1369886, 1.1431457], [34.1307559, 1.1219545], [34.1391202, 1.0940279]]]}}]}