{"type":"FeatureCollection","features":[{"type":"Feature","properties":{"slug":"mcminnville","member_count":6,"matched_count":6,"unmatched":[],"source":"Overture Maps division_area (CC-BY 4.0)"},"geometry":{"type":"Polygon","coordinates":[[[-85.882431,35.539474],[-85.904465,35.541763],[-85.903988,35.5514322],[-85.918022,35.552666],[-85.9485341,35.5735657],[-85.945129,35.5849],[-85.955872,35.586269],[-85.947075,35.596391],[-85.950203,35.609863],[-85.9693051,35.6259076],[-85.977913,35.651165],[-85.9905053,35.6505313],[-85.984138,35.654343],[-85.9922219,35.6935524],[-85.986389,35.704258],[-85.9977151,35.7098622],[-85.989792,35.711517],[-85.984688,35.734653],[-85.963707,35.761421],[-85.9348012,35.7814745],[-85.942011,35.7866966],[-85.9139443,35.822685],[-85.885706,35.8306183],[-85.885156,35.839658],[-85.873387,35.840425],[-85.875877,35.845776],[-85.842943,35.840419],[-85.842082,35.846912],[-85.789707,35.852071],[-85.787534,35.843036],[-85.747257,35.849369],[-85.642052,35.816696],[-85.620003,35.802563],[-85.609207,35.80661],[-85.600115,35.790805],[-85.611866,35.784432],[-85.601525,35.785207],[-85.608085,35.772484],[-85.601327,35.765509],[-85.615071,35.760252],[-85.591787,35.754093],[-85.60514,35.708529],[-85.594632,35.617898],[-85.557535,35.532977],[-85.754173,35.5243],[-85.81749,35.513523],[-85.8202172,35.5044918],[-85.8325124,35.5152688],[-85.8665658,35.52098],[-85.8741189,35.5290831],[-85.876801,35.524044],[-85.882431,35.539474]]]}}]}