{"type": "FeatureCollection", "features": [{"type": "Feature", "properties": {"slug": "mecca", "members": 1, "country": "Saudi Arabia", "input_hash": "3a08f75ed85f66fc"}, "geometry": {"type": "Polygon", "coordinates": [[[40.47527, 21.7774201], [40.46811, 21.8009001], [40.37367, 21.8190601], [40.32836, 21.8478801], [40.30105, 21.8430401], [40.2739, 21.8240601], [40.24625, 21.7887501], [40.21161, 21.7774201], [40.19162, 21.7509401], [40.16896, 21.7396101], [40.12466, 21.7306201], [40.08418, 21.7402801], [40.04571, 21.7386101], [40.02056, 21.7192901], [39.96692, 21.7043001], [39.9496, 21.6774801], [39.96059, 21.6415001], [39.98361, 21.6199501], [39.98093, 21.6053701], [39.96059, 21.6160601], [39.92695, 21.5957001], [39.88847, 21.5922001], [39.79319, 21.6125201], [39.80219, 21.5958701], [39.86016, 21.5678801], [39.85216, 21.5363901], [39.82834, 21.5202501], [39.80103, 21.5197501], [39.78887, 21.5287401], [39.76439, 21.5742101], [39.72358, 21.5638901], [39.72408, 21.5427301], [39.6397627, 21.4551894], [39.6260808, 21.4129539], [39.6225723, 21.3394928], [39.6072629, 21.3207265], [39.5570136, 21.3101761], [39.5248909, 21.2828123], [39.5058552, 21.2352231], [39.5308396, 21.1900133], [39.5843774, 21.1388549], [39.6402948, 21.1221987], [39.6617099, 21.1269576], [39.6759867, 21.1198192], [39.7330937, 21.1567009], [39.7556986, 21.1329062], [39.8699128, 21.1628875], [39.9327305, 21.200007], [39.9559303, 21.2282037], [39.9191676, 21.2385543], [39.9180968, 21.2506896], [39.9851976, 21.3117227], [40.0068507, 21.2811705], [40.02779, 21.2202563], [40.0373078, 21.2116902], [40.0534882, 21.2078831], [40.0772828, 21.2154973], [40.1124988, 21.1926545], [40.1305827, 21.1974134], [40.2126, 21.1753001], [40.22593, 21.1796301], [40.24258, 21.2029601], [40.22493, 21.2627401], [40.23775, 21.2848901], [40.26923, 21.2952201], [40.24292, 21.3318701], [40.26207, 21.3658401], [40.22576, 21.3818301], [40.22992, 21.4096501], [40.22093, 21.4373001], [40.22926, 21.4557901], [40.18979, 21.4834401], [40.21676, 21.5227501], [40.24425, 21.5319101], [40.28905, 21.5257401], [40.30555, 21.5107501], [40.32037, 21.5089201], [40.3266938, 21.5393414], [40.3331026, 21.5398845], [40.34019, 21.5089201], [40.36834, 21.5155801], [40.34402, 21.5792101], [40.35185, 21.6220201], [40.38899, 21.6311801], [40.38333, 21.6500001], [40.39399, 21.6639901], [40.38882, 21.6989701], [40.40298, 21.7221201], [40.40248, 21.7546001], [40.41714, 21.7640901], [40.43563, 21.7592601], [40.44828, 21.7664301], [40.46378, 21.7599301], [40.47527, 21.7774201]]]}}]}