{"type": "FeatureCollection", "features": [{"type": "Feature", "properties": {"slug": "medan", "members": 4, "country": "Indonesia", "input_hash": "4ac0def53dfc7e92"}, "geometry": {"type": "MultiPolygon", "coordinates": [[[[98.6045496, 3.0992129], [98.5828868, 3.0780539], [98.5863698, 3.0624289], [98.5801029, 3.0508917], [98.5565032, 3.0272246], [98.5536136, 2.9688985], [98.5340999, 2.9256801], [98.5327048, 2.9043344], [98.5508676, 2.893388], [98.5498416, 2.8813976], [98.5567503, 2.8782851], [98.543124, 2.8741949], [98.530397, 2.8979539], [98.5216597, 2.8951667], [98.5219181, 2.8750733], [98.4942928, 2.86843], [98.4355632, 2.8935452], [98.4293634, 2.9173626], [98.368501, 2.932453], [98.3442633, 2.9661898], [98.3113812, 2.9711021], [98.2955033, 2.9659332], [98.2694977, 2.9538135], [98.2488306, 2.9312196], [98.2063875, 2.9723293], [98.1920476, 3.0212017], [98.1980345, 3.045551], [98.1738395, 3.079582], [98.1390544, 3.0484091], [98.1092804, 3.0553974], [98.0980463, 3.0710455], [98.0773333, 3.0745578], [98.0534002, 3.1190614], [98.0358534, 3.1238932], [98.0280206, 3.1216738], [98.0280991, 3.1042282], [98.0394853, 3.0761641], [97.9923134, 3.0911481], [97.9847645, 3.0857153], [97.976667, 3.129873], [97.938514, 3.164035], [97.939144, 3.197357], [97.926443, 3.223542], [97.892826, 3.241108], [97.881661, 3.238873], [97.87018, 3.249785], [97.986987, 3.274301], [98.020066, 3.301804], [98.0292549, 3.3307542], [98.0547631, 3.3189385], [98.0816085, 3.322056], [98.0962975, 3.3156817], [98.1226182, 3.2664927], [98.1589128, 3.2677554], [98.181162, 3.2846956], [98.2003567, 3.2773995], [98.2159277, 3.2836789], [98.2328444, 3.2607788], [98.24968, 3.252917], [98.2926662, 3.2559675], [98.3003325, 3.2256647], [98.3346181, 3.2186708], [98.3577263, 3.2272251], [98.3672173, 3.2450647], [98.3482472, 3.2594259], [98.3514649, 3.2889691], [98.3782753, 3.2699806], [98.3915019, 3.2707579], [98.432515, 3.2374955], [98.4525229, 3.2486957], [98.4656982, 3.2303536], [98.4720828, 3.236177], [98.4700074, 3.2764856], [98.5092273, 3.3084994], [98.4958692, 3.3911695], [98.5046162, 3.4008804], [98.5100303, 3.4956535], [98.5245698, 3.5221598], [98.510648, 3.531858], [98.5102075, 3.5537771], [98.5008349, 3.5654844], [98.4952925, 3.5558634], [98.4745084, 3.5567031], [98.473944, 3.5280627], [98.4496152, 3.5296539], [98.4461972, 3.5652625], [98.4580793, 3.5762624], [98.4602038, 3.5952723], [98.466768, 3.5940042], [98.4624542, 3.5962974], [98.4450856, 3.5981675], [98.4409401, 3.6081898], [98.4740096, 3.61729], [98.4743413, 3.6255439], [98.4626947, 3.6519546], [98.4476805, 3.6535055], [98.4464112, 3.6568458], [98.4533028, 3.6571656], [98.4725877, 3.6481669], [98.4884132, 3.6674649], [98.5006004, 3.6697184], [98.5098768, 3.7279142], [98.5044794, 3.7449719], [98.5362769, 3.7922283], [98.5515155, 3.7899456], [98.5819904, 3.810355], [98.5749905, 3.8138226], [98.5777923, 3.8239474], [98.5866709, 3.8250832], [98.585497, 3.8343078], [98.6031689, 3.8345773], [98.6015597, 3.8488061], [98.6097431, 3.8556418], [98.6036302, 3.8675187], [98.6116008, 3.8662169], [98.6232015, 3.8840635], [98.6385783, 3.8854192], [98.6538611, 3.9047465], [98.6704573, 3.9079659], [98.6899262, 3.8921362], [98.6996344, 3.8701566], [98.6917558, 3.8853766], [98.7082783, 3.7970371], [98.7130538, 3.7914698], [98.726091, 3.7990846], [98.7070183, 3.7717996], [98.7477385, 3.7660405], [98.7599643, 3.7585202], [98.7740585, 3.7307871], [98.8741192, 3.6870768], [98.9433045, 3.675814], [98.9375652, 3.6249347], [98.9185511, 3.6013131], [98.9187226, 3.5834736], [98.93305, 3.5681875], [98.9262612, 3.5468009], [98.9356589, 3.5031992], [98.9142011, 3.4507484], [98.9211877, 3.4028237], [98.9143154, 3.3618245], [98.8906766, 3.3603739], [98.8454262, 3.3403747], [98.8312468, 3.3190164], [98.7997601, 3.3039539], [98.7907976, 3.2797052], [98.7376195, 3.2250507], [98.7274022, 3.1766938], [98.7354141, 3.1705064], [98.7326772, 3.1453201], [98.7262695, 3.1205938], [98.7137244, 3.1075199], [98.7145094, 3.0667103], [98.7050456, 3.0504324], [98.6952901, 3.0410304], [98.6935516, 3.071843], [98.6348445, 3.062014], [98.6337097, 3.0886699], [98.6232778, 3.1049167], [98.6045496, 3.0992129]], [[98.7046647, 3.7681322], [98.7020117, 3.751392], [98.7070183, 3.7717996], [98.7046647, 3.7681322]], [[98.49977060901219, 3.5709822924578707], [98.496601, 3.5660166], [98.4970471179193, 3.5653506785285773], [98.49977060901219, 3.5709822924578707]], [[98.4999893, 3.5714345], [98.4998179, 3.5755741], [98.49995484298793, 3.5713632500555397], [98.4999893, 3.5714345]], [[98.4986479179641, 3.5758911196723], [98.4986217, 3.5757896], [98.4998179, 3.5755741], [98.4986479179641, 3.5758911196723]], [[98.50019557729975, 3.5800039022616117], [98.4998637, 3.5805988], [98.49865657096198, 3.575924625306251], [98.50019557729975, 3.5800039022616117]], [[98.5396094, 3.5753799], [98.5381251, 3.5870792], [98.53940283861452, 3.5751143270240986], [98.5396094, 3.5753799]], [[98.5118842, 3.6724947], [98.51089866787325, 3.6724903296304854], [98.5118036, 3.668328], [98.5118842, 3.6724947]], [[98.67585777254183, 3.7759237925934586], [98.6762857, 3.7758843], [98.6788498, 3.7781784], [98.67585777254183, 3.7759237925934586]], [[98.66795283822158, 3.7768092220824467], [98.6681373, 3.7766363], [98.67071517644875, 3.7763983927925158], [98.66795283822158, 3.7768092220824467]], [[98.6325231, 3.7759747], [98.63218792709306, 3.7739811822395524], [98.63282226210015, 3.7759469157025776], [98.6325231, 3.7759747]], [[98.6321003, 3.77346], [98.63612045070974, 3.7698382809347297], [98.6359723, 3.771225], [98.6321003, 3.77346]], [[98.6356062025193, 3.7690067980739377], [98.6361808, 3.7692734], [98.63615990445471, 3.7694689863125963], [98.6356062025193, 3.7690067980739377]], [[98.6287578, 3.7690411], [98.6335378, 3.7680471], [98.63389273949788, 3.768211784943721], [98.6287578, 3.7690411]], [[98.6361187, 3.7438868], [98.6361541663705, 3.743878627668257], [98.6339387, 3.7475094], [98.6361187, 3.7438868]], [[98.6426987, 3.7390911], [98.64423024041221, 3.7386716460982594], [98.6424372, 3.7405779], [98.6426987, 3.7390911]], [[98.6467308, 3.7379868], [98.6532704, 3.738855], [98.6451378177847, 3.7384230814067987], [98.6467308, 3.7379868]], [[98.6464269, 3.7306681], [98.64638044986164, 3.7305865025734253], [98.6527897, 3.7286314], [98.6464269, 3.7306681]], [[98.6185461, 3.7118436], [98.6188738, 3.7086512], [98.6197228, 3.7146273], [98.6185461, 3.7118436]], [[98.6570034, 3.6656815], [98.65701130477724, 3.6654975436562447], [98.6582149, 3.6656435], [98.6570034, 3.6656815]], [[98.6594059, 3.6387088], [98.6630981, 3.6372574], [98.65940265642806, 3.6389326468406242], [98.6594059, 3.6387088]], [[98.6644388, 3.6318983], [98.6665561, 3.6350842], [98.66630299977889, 3.635110444453882], [98.6644388, 3.6318983]], [[98.6526125, 3.6152136], [98.6651672, 3.6254323], [98.66516348225109, 3.6254653024223855], [98.6526125, 3.6152136]], [[98.6129958, 3.6123814], [98.6270921, 3.6105527], [98.62709527858397, 3.6105626320979156], [98.6129958, 3.6123814]], [[98.5927636, 3.4984804], [98.59279845536574, 3.4978316507599234], [98.5964576, 3.5007111], [98.5927636, 3.4984804]], [[98.62370202183801, 3.5155239748770324], [98.6234833, 3.5151842], [98.6237741, 3.5070999], [98.62370202183801, 3.5155239748770324]], [[98.6276373, 3.511951], [98.6285071, 3.5177754], [98.62797113203077, 3.517940486938139], [98.6276373, 3.511951]], [[98.6456291, 3.4799395], [98.645972476161, 3.4803867123055996], [98.6418687, 3.4820143], [98.6456291, 3.4799395]], [[98.695624, 3.5184101], [98.69600495968812, 3.5188640885729563], [98.6929346, 3.5184551], [98.695624, 3.5184101]], [[98.7230388, 3.5301761], [98.72307095411834, 3.5301745620843996], [98.7221713, 3.5339482], [98.7230388, 3.5301761]], [[98.74272561142432, 3.52789419714309], [98.7450727, 3.5288685], [98.74507617508571, 3.5294177562073905], [98.74272561142432, 3.52789419714309]], [[98.74511985667802, 3.536321869561512], [98.7450704, 3.5362482], [98.74511043827746, 3.534833240105824], [98.74511985667802, 3.536321869561512]], [[98.7472107, 3.5378892], [98.74611132185991, 3.537798733923329], [98.7454036271685, 3.5367445677379012], [98.7472107, 3.5378892]], [[98.7351604, 3.5368976], [98.7443285, 3.536677], [98.7456034073032, 3.5377569384431795], [98.7351604, 3.5368976]], [[98.70502078143535, 3.7409612993678594], [98.7049862, 3.7405892], [98.7055084192646, 3.7407104622841962], [98.70502078143535, 3.7409612993678594]], [[98.60187312308068, 3.178442893122244], [98.6023334227808, 3.1800355528342164], [98.6016852, 3.1792648], [98.60187312308068, 3.178442893122244]], [[98.60388811446673, 3.18188411949798], [98.60813271542615, 3.181408388879918], [98.6045589, 3.1826817], [98.60388811446673, 3.18188411949798]], [[98.6271147, 3.2236893], [98.62703695576519, 3.223847512418512], [98.6213451, 3.2171723], [98.6271147, 3.2236893]]], [[[98.9360346, 3.6776156], [98.9363739, 3.677338], [98.9356687, 3.677156], [98.9360346, 3.6776156]]]]}}]}