{"type": "FeatureCollection", "features": [{"type": "Feature", "properties": {"slug": "media", "members": 1, "country": "Romania", "input_hash": "bbe5747a2b84b75b"}, "geometry": {"type": "Polygon", "coordinates": [[[24.3610336, 46.0676894], [24.3702362, 46.0712509], [24.3660682, 46.0813458], [24.382797, 46.1071454], [24.369023, 46.1097856], [24.3617029, 46.1244889], [24.3929441, 46.1283044], [24.381435, 46.1451022], [24.3962334, 46.1550978], [24.3871635, 46.1638258], [24.3999344, 46.1719782], [24.3907646, 46.1860796], [24.3772264, 46.1807406], [24.3558613, 46.2046137], [24.3328473, 46.1951422], [24.3255386, 46.182199], [24.3126784, 46.1827966], [24.309603, 46.1665047], [24.3242647, 46.1609521], [24.3059085, 46.1443306], [24.3151389, 46.1326532], [24.3305921, 46.129054], [24.3287345, 46.1144896], [24.3172587, 46.1066824], [24.3250137, 46.0904458], [24.3610336, 46.0676894]]]}}]}