{"type": "FeatureCollection", "features": [{"type": "Feature", "properties": {"slug": "meizhou", "members": 8, "country": "China", "input_hash": "20acb1abdf221945"}, "geometry": {"type": "Polygon", "coordinates": [[[115.5332298, 24.1835967], [115.5369186, 24.1988759], [115.552735, 24.2092559], [115.5668144, 24.2071836], [115.5649312, 24.236784], [115.587839, 24.2504298], [115.5720834, 24.2730651], [115.5730474, 24.2933029], [115.5618843, 24.2993368], [115.5670578, 24.3129068], [115.5480131, 24.3363115], [115.5458431, 24.3587091], [115.5529084, 24.3886505], [115.5775787, 24.4087488], [115.5681093, 24.4397972], [115.5884456, 24.4644164], [115.5704193, 24.4622229], [115.5680179, 24.4801185], [115.546398, 24.4722364], [115.5476322, 24.488963], [115.5337847, 24.4844565], [115.5116922, 24.4977968], [115.4894868, 24.4973259], [115.4789581, 24.5651725], [115.5101698, 24.5795903], [115.5001752, 24.6058764], [115.5164336, 24.6222073], [115.5159467, 24.6313974], [115.5533851, 24.6466649], [115.5726648, 24.6175196], [115.6087502, 24.6266928], [115.6687145, 24.6046013], [115.6810029, 24.5863822], [115.6732753, 24.5630155], [115.6841688, 24.5475031], [115.740505, 24.545883], [115.7799029, 24.5694489], [115.8390314, 24.5642454], [115.8445372, 24.5750508], [115.8363184, 24.5769045], [115.8359403, 24.5863822], [115.7908307, 24.6334538], [115.7814611, 24.6331026], [115.7784666, 24.6627768], [115.7563465, 24.6700626], [115.773683, 24.6804733], [115.7930524, 24.6783134], [115.8005868, 24.705081], [115.764327, 24.710268], [115.7675515, 24.7246485], [115.7520358, 24.7384028], [115.7518869, 24.7502854], [115.7716084, 24.7734221], [115.759341, 24.7954341], [115.7685448, 24.8055177], [115.773278, 24.8328716], [115.7872842, 24.8391832], [115.780724, 24.8492393], [115.786125, 24.856363], [115.7775281, 24.8647768], [115.8025461, 24.8637251], [115.8042848, 24.8955347], [115.8195467, 24.9109546], [115.8615653, 24.8921176], [115.8578947, 24.8658285], [115.8889363, 24.8727872], [115.9004928, 24.8872107], [115.8807876, 24.8999156], [115.8737448, 24.935967], [115.8910851, 24.9407118], [115.9038802, 24.9262977], [115.9754448, 24.9187938], [115.9802865, 24.903138], [115.9932986, 24.8987674], [116.0144792, 24.9073763], [116.0353819, 24.886862], [116.0357637, 24.8741363], [116.0438962, 24.8765422], [116.047073, 24.8644027], [116.0634144, 24.852602], [116.1439149, 24.8478299], [116.1522175, 24.8590053], [116.1887066, 24.8742773], [116.2143837, 24.8483181], [116.2173177, 24.8326801], [116.2454167, 24.8307574], [116.227521, 24.8040314], [116.2447974, 24.7979303], [116.2923524, 24.8046094], [116.3275521, 24.8293859], [116.3292795, 24.8242057], [116.3420833, 24.8335352], [116.3449826, 24.8594379], [116.3570052, 24.8725629], [116.3899653, 24.8805534], [116.3890972, 24.8595877], [116.4129774, 24.8433442], [116.3756163, 24.8268186], [116.3707639, 24.8068012], [116.3909484, 24.8040483], [116.4165799, 24.7638433], [116.4109028, 24.7476454], [116.4326128, 24.7362782], [116.4413281, 24.7171701], [116.4837587, 24.7196853], [116.4983681, 24.6984939], [116.499566, 24.6716146], [116.5131337, 24.6544336], [116.5021615, 24.624145], [116.5213802, 24.6077148], [116.5660243, 24.6247678], [116.5929253, 24.6574783], [116.627092, 24.6429188], [116.6521962, 24.658839], [116.6958767, 24.6586155], [116.7117188, 24.6693099], [116.7353906, 24.6701758], [116.748316, 24.6571701], [116.772934, 24.682424], [116.7965972, 24.6811871], [116.8107205, 24.6574978], [116.8081684, 24.6493142], [116.7938889, 24.6400326], [116.7931858, 24.624605], [116.7565365, 24.5858225], [116.7631424, 24.5670508], [116.7516233, 24.553112], [116.7764497, 24.5366298], [116.7834635, 24.5144944], [116.8119965, 24.4945833], [116.8080382, 24.4869531], [116.8285677, 24.4992687], [116.8555903, 24.4661914], [116.8488542, 24.4561176], [116.8373524, 24.4571159], [116.8343663, 24.4455035], [116.8649219, 24.41023], [116.8687413, 24.394145], [116.8807465, 24.399197], [116.8950694, 24.381033], [116.899401, 24.3728668], [116.8916319, 24.3537044], [116.9150174, 24.32398], [116.9082726, 24.3135286], [116.9097483, 24.2907053], [116.9313194, 24.2877018], [116.9349306, 24.2768056], [116.9335156, 24.2343359], [116.9280942, 24.2261127], [116.9101389, 24.2351996], [116.892109, 24.2217532], [116.8998615, 24.2042385], [116.8797827, 24.1965845], [116.874089, 24.1707578], [116.8592619, 24.1681533], [116.8462071, 24.1857356], [116.8314839, 24.1762548], [116.8275711, 24.1638888], [116.8050262, 24.1719746], [116.7740471, 24.1520064], [116.7595738, 24.128276], [116.7694978, 24.0937646], [116.7627376, 24.0770865], [116.7528912, 24.0848656], [116.7314931, 24.0571005], [116.7079685, 24.0651763], [116.6960415, 24.0537762], [116.7063124, 24.0284812], [116.6931539, 24.0057309], [116.6859292, 24.0081119], [116.6891755, 23.9822683], [116.6810157, 23.9924715], [116.6666491, 23.9878409], [116.6413021, 23.9966122], [116.6338803, 23.9719228], [116.6232464, 23.9769356], [116.6053212, 23.970067], [116.6042272, 23.9634306], [116.6213634, 23.9528406], [116.5998087, 23.9531683], [116.5992445, 23.9125023], [116.5860934, 23.903774], [116.5699391, 23.912342], [116.5536197, 23.9100222], [116.5514071, 23.8986155], [116.5309297, 23.8844315], [116.5165286, 23.8844385], [116.5098699, 23.8693714], [116.4924219, 23.8718258], [116.494419, 23.861088], [116.521528, 23.8343801], [116.5149395, 23.8261874], [116.505339, 23.8304063], [116.5122485, 23.8053438], [116.5013897, 23.7962305], [116.4999661, 23.7649421], [116.491598, 23.7550632], [116.4603305, 23.7577089], [116.4314677, 23.7827778], [116.4211632, 23.7832428], [116.3988462, 23.772633], [116.376571, 23.7400997], [116.3682115, 23.7427911], [116.36375, 23.7354583], [116.3340455, 23.7613329], [116.3308076, 23.7764373], [116.3145052, 23.7779476], [116.2944101, 23.7615068], [116.2704866, 23.7616543], [116.2670403, 23.7490343], [116.228533, 23.7207725], [116.2236199, 23.7226677], [116.2296706, 23.7314129], [116.2094789, 23.7215169], [116.2120832, 23.7091976], [116.1993062, 23.6928534], [116.1753645, 23.6870876], [116.1729776, 23.6598052], [116.1869013, 23.6446138], [116.1607122, 23.6185354], [116.1438887, 23.6172351], [116.1280735, 23.6268992], [116.1096794, 23.619818], [116.1017618, 23.6309097], [116.0808598, 23.6270726], [116.0627083, 23.6477428], [116.0516752, 23.6488197], [116.0509988, 23.6419551], [116.0346533, 23.650632], [116.0165541, 23.6471942], [116.0065456, 23.6554033], [116.0128123, 23.6644551], [116.0019443, 23.6780622], [115.9805644, 23.6793122], [115.9549567, 23.6597162], [115.9517536, 23.6490935], [115.9207641, 23.6312198], [115.902483, 23.6305017], [115.8981164, 23.6217213], [115.8640371, 23.642845], [115.8552428, 23.6609075], [115.8299912, 23.6635438], [115.7962937, 23.621734], [115.8049042, 23.6037959], [115.7923784, 23.5984699], [115.8087674, 23.5810247], [115.797483, 23.562018], [115.8030814, 23.5554707], [115.7836805, 23.5418575], [115.78862, 23.5283096], [115.7814583, 23.5200498], [115.7468575, 23.5300521], [115.7184284, 23.5172225], [115.6833245, 23.5597869], [115.672274, 23.5560586], [115.6548696, 23.5352847], [115.6351998, 23.5315105], [115.6370485, 23.516003], [115.6152605, 23.5073782], [115.6185934, 23.4926761], [115.6115541, 23.477771], [115.5914841, 23.4736395], [115.592318, 23.4664212], [115.5626212, 23.4396509], [115.5293836, 23.4368144], [115.5219701, 23.4246266], [115.5036717, 23.4170809], [115.5088017, 23.4080406], [115.5002434, 23.3813083], [115.470582, 23.3761763], [115.4520482, 23.3862517], [115.450321, 23.4197847], [115.4305378, 23.4324071], [115.4356946, 23.4503732], [115.4279076, 23.4712891], [115.4194102, 23.4726849], [115.4214062, 23.4855297], [115.4092884, 23.4926192], [115.43566, 23.5033786], [115.4269528, 23.524579], [115.4454168, 23.5583852], [115.4307902, 23.5659875], [115.421554, 23.6092149], [115.4312764, 23.6324242], [115.4276999, 23.6401278], [115.4476995, 23.6658251], [115.4515454, 23.7076801], [115.4410336, 23.711994], [115.4235591, 23.6964523], [115.4043579, 23.7032297], [115.4075351, 23.7254142], [115.3935937, 23.7257553], [115.3779773, 23.7506071], [115.3943743, 23.7711499], [115.3843054, 23.780685], [115.3663277, 23.7707372], [115.3641577, 23.7594612], [115.3115968, 23.7622106], [115.3534982, 23.7949218], [115.3457204, 23.8031938], [115.3581852, 23.8067159], [115.3451036, 23.8184458], [115.3494613, 23.8449169], [115.3703815, 23.8519729], [115.3669012, 23.867682], [115.3768225, 23.8828278], [115.3859113, 23.8817907], [115.3864667, 23.8991838], [115.3978211, 23.9066798], [115.395642, 23.9304856], [115.406814, 23.9423737], [115.4034807, 23.9530987], [115.4259374, 23.952593], [115.4482811, 23.9695743], [115.4405732, 24.0408898], [115.4126996, 24.0707971], [115.425417, 24.0804237], [115.4324998, 24.1065892], [115.4437245, 24.1128714], [115.4376829, 24.1277825], [115.4611982, 24.1307861], [115.4654955, 24.1421814], [115.4764322, 24.1458271], [115.4788893, 24.1261698], [115.4894882, 24.1250043], [115.4934812, 24.1331406], [115.5054339, 24.1042706], [115.522761, 24.1001605], [115.5327089, 24.1141412], [115.5171701, 24.1399071], [115.505061, 24.1431686], [115.5160941, 24.1461135], [115.4988636, 24.1908859], [115.5104088, 24.1935446], [115.5405816, 24.1731317], [115.5332298, 24.1835967]]]}}]}