{"type":"FeatureCollection","features":[{"type":"Feature","properties":{"slug":"memmingen","member_count":55,"matched_count":52,"unmatched":["Unterallg\u00e4u (DE-BY, type='Rural District')","Kirchheim i. Schw. (DE-BY, type='Market')","Egg a.d. G\u00fcnz (DE-BY, type='Commune')"],"source":"Overture Maps division_area (CC-BY 4.0)"},"geometry":{"type":"MultiPolygon","coordinates":[[[[9.3119285,47.7071277],[9.3035313,47.6772903],[9.2914174,47.6822785],[9.2963434,47.6899178],[9.2893194,47.6996071],[9.3119285,47.7071277]]],[[[10.1862097,47.8479645],[10.1915271,47.8390957],[10.1497018,47.8254939],[10.1534193,47.8215894],[10.1319121,47.8201458],[10.1027692,47.8423574],[10.107453,47.8530485],[10.0924261,47.844472],[10.1054665,47.8643486],[10.0831421,47.8556267],[10.0769768,47.8678991],[10.0914722,47.8673784],[10.1069798,47.8781101],[10.0955965,47.8848902],[10.1125146,47.9165273],[10.1050695,47.9226664],[10.1107947,47.9360032],[10.0902139,47.9473557],[10.0849796,47.9610539],[10.0922279,47.9718498],[10.1160036,47.9763763],[10.1196677,48.0042063],[10.1349158,48.0173579],[10.1280475,48.0333161],[10.1439544,48.0590309],[10.1440294,48.0743718],[10.1355982,48.0772974],[10.136692,48.1083014],[10.1505676,48.1177926],[10.1928762,48.1233339],[10.1964406,48.1333426],[10.2150964,48.1432277],[10.2060066,48.1532148],[10.20953,48.1635782],[10.2235605,48.1633478],[10.22141,48.1792835],[10.2369731,48.1841007],[10.2228157,48.1875079],[10.2526611,48.1981005],[10.2549612,48.2181003],[10.2715136,48.2296139],[10.3012796,48.2151232],[10.2891364,48.1976284],[10.2949256,48.1845199],[10.308018,48.1839646],[10.3152768,48.1977849],[10.3186427,48.1823024],[10.3522391,48.173952],[10.3470507,48.1683604],[10.3490349,48.1596834],[10.3922319,48.1798193],[10.4852013,48.1509948],[10.5067492,48.1580698],[10.5040157,48.1878082],[10.4931108,48.189043],[10.4902413,48.2115476],[10.4829696,48.2129679],[10.5185217,48.2250759],[10.531864,48.2203571],[10.5317429,48.2064475],[10.5427055,48.2088088],[10.546293,48.2026809],[10.5686789,48.1984658],[10.5630474,48.2072654],[10.5916332,48.2101357],[10.5764197,48.1963376],[10.5976507,48.1908874],[10.5690354,48.1871407],[10.5683717,48.1817706],[10.5511577,48.1801057],[10.5438724,48.1728861],[10.5678448,48.17554],[10.5684087,48.1670135],[10.6196386,48.1577603],[10.63032,48.1673516],[10.6711646,48.1736352],[10.6958004,48.1642865],[10.685545,48.148678],[10.701539,48.1448311],[10.6838654,48.1267938],[10.6931406,48.0929824],[10.6820846,48.0928479],[10.6787714,48.0741883],[10.663798,48.0594655],[10.6984944,48.0433082],[10.6987262,48.031615],[10.6856717,48.0316077],[10.6895673,48.0223146],[10.6777031,48.0156183],[10.658172,48.0160471],[10.660534,48.0013352],[10.6456579,47.9900382],[10.6469594,47.973249],[10.6220517,47.9476902],[10.6008687,47.966314],[10.5285276,47.98425],[10.5149308,47.9714441],[10.5213153,47.9679981],[10.510255,47.9499699],[10.513437,47.942715],[10.4993157,47.9339186],[10.4821234,47.9348506],[10.4863574,47.9479244],[10.4636974,47.9362171],[10.455539,47.9228599],[10.4049089,47.9121271],[10.4056781,47.899453],[10.3889339,47.9021142],[10.3716403,47.9253536],[10.3590688,47.9194194],[10.378322,47.9026187],[10.3784,47.8820277],[10.3633394,47.8878],[10.3557538,47.8728225],[10.3309012,47.8719047],[10.3354067,47.8652014],[10.3291758,47.8629884],[10.3363617,47.8601052],[10.3182022,47.8560881],[10.3060227,47.8637638],[10.2902122,47.8526524],[10.259031,47.8604038],[10.2498294,47.8556753],[10.2540747,47.8458324],[10.2360698,47.8396511],[10.1916564,47.8529447],[10.1862097,47.8479645]],[[10.2754084,48.0153837],[10.2759445,48.0022132],[10.2826271,48.0017618],[10.2731465,47.9969168],[10.2802816,47.9946033],[10.2720056,47.994538],[10.2730987,47.9835277],[10.2847994,47.984173],[10.2827718,47.9996055],[10.2900078,47.9997492],[10.295445,48.0037169],[10.2800616,48.0061659],[10.2915372,48.0107064],[10.2826652,48.0195664],[10.2754084,48.0153837]]],[[[10.2883263,47.7977573],[10.2945856,47.7909529],[10.3198655,47.7916428],[10.3419067,47.7700269],[10.2943095,47.7676981],[10.2949801,47.7772484],[10.2824978,47.7816039],[10.2905085,47.785465],[10.2883263,47.7977573]]],[[[11.8763153,49.4949888],[11.8871542,49.4826685],[11.8881601,49.4667384],[11.9130991,49.4629508],[11.9069416,49.4513413],[11.9138233,49.4446741],[11.8921969,49.4368541],[11.8867484,49.4268731],[11.8728049,49.4312836],[11.8605827,49.4206921],[11.8450461,49.4247653],[11.8348974,49.4117467],[11.8164744,49.4261835],[11.7811553,49.4275822],[11.7828416,49.4410742],[11.7766691,49.4428956],[11.7888758,49.458863],[11.7803054,49.4603113],[11.7858019,49.4691482],[11.8460892,49.4681878],[11.8466411,49.4882536],[11.8521832,49.483939],[11.8763153,49.4949888]]]]}}]}