{"type": "FeatureCollection", "features": [{"type": "Feature", "properties": {"slug": "merthyr-tydfil", "members": 7, "country": "United Kingdom", "input_hash": "bf0a132563050433"}, "geometry": {"type": "Polygon", "coordinates": [[[-3.331180707360234, 51.65649904492909], [-3.380028331461884, 51.711006979166775], [-3.399903545369831, 51.71787881243646], [-3.453138716241883, 51.76165709431684], [-3.427460550591093, 51.75849383813404], [-3.416623322748341, 51.7671733768566], [-3.440677580446348, 51.795799130289595], [-3.444192340455776, 51.81648088291155], [-3.417121563328122, 51.83509562384836], [-3.402407194447027, 51.82630657572668], [-3.402305500369396, 51.814153810580386], [-3.357529548479012, 51.80697183994445], [-3.360043589876149, 51.791083357464586], [-3.334460469250994, 51.79039741668976], [-3.329035281312067, 51.75864840628082], [-3.309939231384032, 51.73904529484754], [-3.315500228439259, 51.73180421460094], [-3.300626267964341, 51.73631010389729], [-3.273918642139172, 51.68233267827371], [-3.284667570188732, 51.6771253947858], [-3.285204402571108, 51.65823412111298], [-3.296097215267858, 51.664089391630235], [-3.313894105355409, 51.64467529827585], [-3.31384872099789, 51.65569971323988], [-3.331180707360234, 51.65649904492909]]]}}]}