{"type":"FeatureCollection","features":[{"type":"Feature","properties":{"slug":"mianyang","member_count":9,"matched_count":7,"unmatched":["Ji\u0101ngy\u00f3u Sh\u00ec (CN-SC, type='County-level City')","B\u0115ichu\u0101n Qi\u0101ngz\u00fa Z\u00eczh\u00ecxi\u00e0n (CN-SC, type='Autonomous County')"],"source":"Overture Maps division_area (CC-BY 4.0)"},"geometry":{"type":"MultiPolygon","coordinates":[[[[105.3209731,31.1202276],[105.2602672,31.1037464],[105.219483,31.1098466],[105.2082082,31.0981141],[105.195848,31.0993654],[105.1893202,31.0899017],[105.1965685,31.080248],[105.190857,31.0648402],[105.1715863,31.0489972],[105.1918984,30.9829115],[105.1912477,30.9679241],[105.1739998,30.959344],[105.1911343,30.9194519],[105.2058816,30.9118079],[105.1913428,30.8966043],[105.2006822,30.8851697],[105.2121746,30.8813704],[105.2178163,30.8875272],[105.2253413,30.8798243],[105.228969,30.8487343],[105.2407899,30.8338826],[105.2534798,30.8319512],[105.2691972,30.7560277],[105.2593728,30.7442592],[105.2452948,30.7417177],[105.2406948,30.7286476],[105.2118875,30.7371885],[105.2162709,30.7297122],[105.2000517,30.733564],[105.181445,30.7222166],[105.1709379,30.7249182],[105.1657305,30.7083236],[105.1542501,30.7087441],[105.1595814,30.7162445],[105.1534354,30.7343792],[105.1410532,30.7444146],[105.1351395,30.7410033],[105.1366757,30.7475436],[105.1150121,30.7521183],[105.1100634,30.7625655],[105.0956028,30.7538014],[105.0954962,30.7625799],[105.0777471,30.7581075],[105.0690163,30.7735176],[105.0574007,30.767366],[105.0585036,30.7771981],[105.0441243,30.7743667],[105.03807,30.7852655],[105.0216014,30.7843701],[104.9994711,30.8033107],[104.9869506,30.8302522],[104.9882047,30.873533],[104.9594157,30.8509839],[104.964635,30.8973039],[104.9416038,30.9000177],[104.9439273,30.9175099],[104.9295101,30.9475881],[104.8970469,30.947125],[104.8868809,30.9375063],[104.8539413,30.9524003],[104.8390979,30.9455651],[104.8534031,30.9648007],[104.8430662,30.9838045],[104.8261379,30.9904497],[104.823426,31.001091],[104.8358456,31.0166298],[104.8215028,31.0284479],[104.8211861,31.0608602],[104.7711421,31.0998914],[104.7882773,31.1179274],[104.7866777,31.1327868],[104.757269,31.1346242],[104.7422232,31.1698814],[104.7255268,31.1610702],[104.7163933,31.1678983],[104.7215055,31.1959459],[104.7119293,31.2224484],[104.7381194,31.232824],[104.7385178,31.2561264],[104.7476709,31.2705411],[104.7426042,31.2817374],[104.6736411,31.2700987],[104.6710514,31.3008074],[104.6571553,31.3144466],[104.6543699,31.3335644],[104.5844957,31.360547],[104.5900171,31.3788824],[104.5817345,31.4093799],[104.5632485,31.413214],[104.555897,31.4258697],[104.521205,31.4449995],[104.5153697,31.4323438],[104.5095357,31.4388342],[104.5123748,31.4305494],[104.5028175,31.434568],[104.5089285,31.4298414],[104.4985207,31.4128512],[104.4751611,31.4093469],[104.485977,31.3949414],[104.475916,31.3872388],[104.4313589,31.3785538],[104.4283642,31.3842965],[104.4222963,31.3718028],[104.3843187,31.3849171],[104.3730857,31.3758323],[104.3554901,31.3884174],[104.344132,31.3841569],[104.323403,31.4012437],[104.3247989,31.4141455],[104.2802283,31.4419324],[104.264162,31.4642997],[104.2314378,31.4621948],[104.1979916,31.5189453],[104.1798933,31.5244954],[104.1696857,31.515161],[104.1524336,31.5211034],[104.1488958,31.5456935],[104.1582046,31.5595544],[104.1442622,31.5657934],[104.1293028,31.608871],[104.1058719,31.6277492],[104.0971811,31.6527616],[104.1125868,31.6863344],[104.0913461,31.6970382],[104.0999917,31.7128571],[104.1345444,31.7136183],[104.1504439,31.7299369],[104.171462,31.735522],[104.1852808,31.7299922],[104.2123174,31.7418908],[104.209764,31.7487519],[104.2343116,31.7565977],[104.2630219,31.7825388],[104.2935562,31.7921327],[104.3038129,31.7599183],[104.3330812,31.7368177],[104.3476724,31.7377666],[104.3411493,31.714186],[104.3683147,31.710024],[104.3723273,31.6901793],[104.3838286,31.6872305],[104.3753528,31.6809766],[104.3808567,31.6738275],[104.3514704,31.653144],[104.3674028,31.6396081],[104.361459,31.6302817],[104.3697739,31.6174643],[104.377799,31.6234941],[104.3967354,31.6146046],[104.3904376,31.6019861],[104.3922615,31.5950091],[104.4058388,31.5926148],[104.3982267,31.5851298],[104.403559,31.5604225],[104.424051,31.5732477],[104.4524932,31.5681745],[104.4626749,31.5906545],[104.5068508,31.6196068],[104.5146346,31.6358174],[104.5016688,31.6464128],[104.5031869,31.6727318],[104.5112255,31.676569],[104.5508939,31.6479591],[104.5442072,31.6334162],[104.5485022,31.6225421],[104.5736285,31.6250483],[104.6065376,31.607946],[104.6030245,31.5844085],[104.5875735,31.5624461],[104.6153623,31.5629361],[104.6228218,31.5430613],[104.6488997,31.5418519],[104.6661288,31.5722399],[104.6521396,31.5828544],[104.6716935,31.598077],[104.6835246,31.5955533],[104.6876653,31.6054794],[104.7051916,31.6122101],[104.7233477,31.6020727],[104.7402473,31.6279309],[104.7753356,31.6260608],[104.7726408,31.648328],[104.7794189,31.65415],[104.7945186,31.6515929],[104.7900116,31.6422249],[104.8247065,31.6513152],[104.8152404,31.6677637],[104.8148355,31.6816428],[104.821248,31.6839114],[104.8110367,31.6935801],[104.8298998,31.700385],[104.8378068,31.712661],[104.8805049,31.6888224],[104.892568,31.7033582],[104.884253,31.7104521],[104.889155,31.7159437],[104.9095612,31.6998208],[104.9216289,31.7159678],[104.9314475,31.7146824],[104.9273047,31.7008005],[104.9359891,31.699514],[104.9544792,31.7182433],[104.9699426,31.7212752],[104.9559767,31.74568],[104.9563476,31.7602052],[104.9939037,31.7721585],[104.9790561,31.7820213],[104.9861879,31.7908757],[104.9667636,31.7958548],[104.9625665,31.8058455],[104.983395,31.8263037],[104.9827759,31.8492976],[105.0033815,31.8287301],[105.0353348,31.8405789],[105.0342035,31.8489714],[105.0644636,31.861225],[105.067117,31.8696157],[105.0988926,31.873791],[105.1015648,31.8960601],[105.1144402,31.9057323],[105.1284281,31.9025599],[105.1519083,31.9111801],[105.1632374,31.8982553],[105.2005079,31.9072454],[105.2049015,31.8931448],[105.2203588,31.8852555],[105.211777,31.8804135],[105.2026405,31.8376955],[105.2392499,31.8327629],[105.2486362,31.81601],[105.2405967,31.7976362],[105.2555138,31.781752],[105.2685505,31.7947709],[105.2811995,31.7941957],[105.3045973,31.7732736],[105.3073757,31.7443806],[105.2813413,31.7423272],[105.2762451,31.7255834],[105.2584046,31.7193442],[105.2513655,31.7065142],[105.2599046,31.699779],[105.2823708,31.7020849],[105.3130748,31.7191752],[105.3157818,31.7036607],[105.3417877,31.6794672],[105.3439653,31.6598631],[105.3351448,31.6559364],[105.3279414,31.6323137],[105.3580553,31.6173196],[105.366877,31.6242462],[105.389774,31.6202843],[105.3914293,31.563811],[105.4120529,31.5613527],[105.4116967,31.5467225],[105.4280215,31.5463996],[105.4557397,31.528871],[105.4585362,31.5142974],[105.4521983,31.5092664],[105.4585364,31.5003883],[105.4375208,31.4825293],[105.4544476,31.4769992],[105.4665279,31.4884825],[105.4969677,31.4598278],[105.4885923,31.440083],[105.4800368,31.4463065],[105.4764345,31.4301706],[105.4959771,31.4045779],[105.5212834,31.3937392],[105.5291184,31.4040398],[105.5457792,31.3945849],[105.550192,31.4047316],[105.564061,31.4063458],[105.5693744,31.3839757],[105.6176131,31.4088727],[105.6392099,31.3969784],[105.6411507,31.3805928],[105.6234993,31.3565247],[105.6329554,31.3566785],[105.6218783,31.3454498],[105.601345,31.3417579],[105.6053976,31.3272964],[105.5894574,31.3044458],[105.5908082,31.2942882],[105.6123321,31.2981359],[105.6346665,31.285361],[105.6437624,31.2598828],[105.6767738,31.2545903],[105.6632149,31.2370159],[105.6722478,31.2009714],[105.6854592,31.1969662],[105.6689925,31.1920274],[105.6699828,31.174201],[105.705272,31.1708478],[105.7180075,31.1518608],[105.720309,31.1369881],[105.7125667,31.1319264],[105.721836,31.1155219],[105.7180603,31.1027828],[105.7129752,31.1004003],[105.7122774,31.1105731],[105.7075788,31.1017696],[105.7177901,31.0875906],[105.7041013,31.0730902],[105.7138275,31.0651449],[105.7019149,31.0309729],[105.6878525,31.0187731],[105.6607283,31.0221674],[105.6639354,31.0054182],[105.6292561,31.005484],[105.6100806,30.9926809],[105.6152238,30.9801232],[105.5923629,30.9751633],[105.5687385,30.9926628],[105.562438,31.0137467],[105.5425711,31.0161036],[105.5308882,31.0294904],[105.5015933,31.0284656],[105.5005836,31.0394762],[105.4852413,31.0385293],[105.4710543,31.0659178],[105.4515111,31.0619805],[105.43024,31.0684771],[105.422999,31.0786604],[105.4070414,31.0747079],[105.4045147,31.0906453],[105.3849014,31.115837],[105.3762115,31.1566953],[105.3503401,31.1627544],[105.338517,31.1399109],[105.3408255,31.1280939],[105.3262075,31.1318944],[105.3223624,31.1415058],[105.3159297,31.1298712],[105.3209731,31.1202276]]],[[[104.2413872,32.163552],[104.2559194,32.2162686],[104.245753,32.24953],[104.2099196,32.2827938],[104.210016,32.3004329],[104.1758484,32.3116587],[104.1703734,32.2811486],[104.1568889,32.2589452],[104.1602138,32.2518601],[104.1370688,32.2401006],[104.1311312,32.2268516],[104.1118852,32.2209625],[104.0620297,32.2332599],[104.0476976,32.2512699],[104.0241519,32.2535209],[104.0191357,32.2702285],[104.0056225,32.2756816],[103.9994801,32.2911736],[103.9788009,32.3084799],[103.9564837,32.3073551],[103.9189877,32.3193427],[103.9039666,32.3311463],[103.8901463,32.3653945],[103.8896344,32.3822544],[103.9126682,32.4359257],[103.90325,32.4720343],[103.9044629,32.5133569],[103.8851555,32.5284829],[103.8433292,32.5870235],[103.8497724,32.612784],[103.8859199,32.6316397],[103.8857207,32.6418661],[103.9388853,32.638721],[103.9919598,32.6503075],[104.0115079,32.6426753],[104.0360794,32.6542612],[104.0610878,32.6343987],[104.0832568,32.575705],[104.133492,32.5255365],[104.1267104,32.4914676],[104.092776,32.4691535],[104.139691,32.4734635],[104.1722604,32.5307848],[104.1661023,32.5826547],[104.176164,32.6070001],[104.1807387,32.6681126],[104.1520558,32.7148338],[104.1285373,32.7327047],[104.1445476,32.7655402],[104.1181069,32.8016839],[104.1043325,32.803911],[104.1024546,32.8460762],[104.075241,32.859001],[104.0624249,32.8442959],[104.0321348,32.8349423],[104.0284783,32.821282],[104.0003309,32.8162749],[103.9683679,32.8412791],[103.97607,32.8548939],[103.9929279,32.8611852],[103.993322,32.8811387],[103.9556519,32.8896767],[103.9507514,32.9171929],[103.9649089,32.9246361],[103.9596637,32.9447037],[103.967829,32.9489495],[103.960527,32.9576984],[103.9653076,32.9763339],[103.9767936,32.9858488],[103.9714723,33.0080201],[103.9776512,33.0091451],[103.9763485,33.026013],[104.0012223,33.0443666],[104.0367215,33.0295279],[104.0493515,33.0148699],[104.0917002,32.999838],[104.1049822,33.0030761],[104.163979,32.9541035],[104.1896163,32.9207917],[104.2075316,32.9184582],[104.2169526,32.9092528],[104.2158365,32.8991732],[104.2354274,32.8929033],[104.245067,32.8799301],[104.2748541,32.8932765],[104.2976172,32.833337],[104.3622503,32.8241415],[104.3691445,32.8096165],[104.4226215,32.780045],[104.4189868,32.7701003],[104.44009,32.7658546],[104.4548669,32.7510266],[104.5027506,32.7579099],[104.5205373,32.7448955],[104.5284523,32.7279889],[104.5510415,32.7362182],[104.581101,32.7241733],[104.5917519,32.6965808],[104.6320599,32.6735819],[104.6126299,32.6072337],[104.6334615,32.5996483],[104.6494397,32.5800452],[104.6535044,32.5600833],[104.6910672,32.5600833],[104.7525975,32.5310184],[104.7467647,32.5097076],[104.7566755,32.4961669],[104.7477352,32.4657059],[104.7628757,32.4254994],[104.7715565,32.4213032],[104.7700147,32.4000044],[104.7990083,32.3761829],[104.8193311,32.3744826],[104.8377941,32.3541199],[104.8571362,32.3608685],[104.8832059,32.3570799],[104.9089208,32.3297813],[104.9662909,32.3357961],[104.9786429,32.32872],[104.9644647,32.3257118],[104.956896,32.3055255],[104.985559,32.2820303],[104.9855838,32.2490428],[104.9548829,32.2440404],[104.9506446,32.2316696],[104.9312471,32.2239297],[104.9246088,32.1863025],[104.9337082,32.1744536],[104.9324171,32.1604155],[104.9184355,32.157782],[104.8986028,32.1373221],[104.8804746,32.1038055],[104.8883575,32.0945356],[104.8914207,32.0641297],[104.8787303,32.0491716],[104.8472661,32.047076],[104.8207297,32.0011704],[104.8086171,32.0088837],[104.798359,31.9975289],[104.7838437,31.997505],[104.7837856,32.0222443],[104.7426912,32.0067055],[104.7372842,31.9938094],[104.7182464,31.9961026],[104.704771,32.0189563],[104.6724128,32.0046552],[104.6609973,32.0191746],[104.6383381,32.0258331],[104.6420073,32.0506436],[104.5808517,32.0531467],[104.5557689,32.0617007],[104.5071524,32.089196],[104.4979403,32.0856368],[104.46467,32.1139557],[104.4570731,32.1063353],[104.4613202,32.0879254],[104.4419407,32.0816085],[104.4280791,32.0585115],[104.4125074,32.0551883],[104.4019115,32.0697728],[104.3779821,32.0786006],[104.3705465,32.0953659],[104.3196487,32.11195],[104.2937411,32.1475342],[104.26062,32.146803],[104.2413872,32.163552]]]]}}]}