{"type": "FeatureCollection", "features": [{"type": "Feature", "properties": {"slug": "miass", "members": 1, "country": "Russia", "input_hash": "25700243256131a0"}, "geometry": {"type": "Polygon", "coordinates": [[[59.8872804, 55.1969475], [59.7863077, 55.1148767], [59.7878091, 55.0769721], [59.7265772, 55.0242996], [59.717226, 55.0046891], [59.6674366, 54.9682693], [59.6243067, 54.9244136], [59.6179759, 54.9061115], [59.660276, 54.9079282], [59.6883741, 54.8885052], [59.7369062, 54.8857386], [59.7767118, 54.860409], [59.8045964, 54.8582275], [59.8045967, 54.8520546], [59.842486, 54.8418379], [59.8590886, 54.8541838], [59.8754793, 54.8384325], [59.915283, 54.869936], [60.0018089, 54.8641348], [59.9382736, 54.8178924], [59.9291216, 54.7888904], [59.9548411, 54.7817832], [59.9623688, 54.7689031], [60.0079593, 54.759038], [60.0101709, 54.7737973], [60.0295961, 54.7725033], [60.0880884, 54.8097247], [60.0981171, 54.8165046], [60.091926, 54.8258187], [60.0968541, 54.8359334], [60.1237841, 54.8401237], [60.1351875, 54.8579163], [60.2265593, 54.8797251], [60.2298512, 54.8957815], [60.2619135, 54.90195], [60.2713719, 54.9202214], [60.2798211, 54.9203667], [60.2732089, 54.9378087], [60.2861922, 54.9403174], [60.2633473, 54.9629199], [60.2784808, 55.007999], [60.291313, 55.0221878], [60.2701925, 55.0279185], [60.2872518, 55.025958], [60.2903192, 55.0330095], [60.2813002, 55.0365987], [60.2988515, 55.0527215], [60.2826206, 55.0628562], [60.3172915, 55.0685209], [60.2942659, 55.0850363], [60.2628504, 55.0944126], [60.2588148, 55.105462], [60.2797663, 55.1086773], [60.2676771, 55.1201161], [60.269004, 55.1285075], [60.2731416, 55.1357123], [60.2862735, 55.1355574], [60.288138, 55.1539809], [60.3039995, 55.1494745], [60.295233, 55.156665], [60.3115852, 55.1595572], [60.2967851, 55.1618794], [60.3026304, 55.1664237], [60.2967343, 55.180213], [60.2122137, 55.2186074], [60.2300504, 55.2331996], [60.1957167, 55.2367671], [60.2221602, 55.3024242], [60.2537374, 55.3368848], [60.2227102, 55.3627462], [60.2346025, 55.3745716], [60.2511926, 55.3774041], [60.2450464, 55.3831293], [60.2614723, 55.3903054], [60.2543788, 55.4026414], [60.2724354, 55.4196868], [60.2509405, 55.4173488], [60.2334803, 55.4063082], [60.2364157, 55.393347], [60.189223, 55.3762347], [60.1633966, 55.3836849], [60.1469493, 55.4024753], [60.128921, 55.3991723], [60.1193627, 55.4131188], [60.0957393, 55.4145745], [60.0879284, 55.4283285], [60.050622, 55.4303867], [60.0139472, 55.3798957], [60.0169064, 55.3705329], [59.9596202, 55.3303271], [59.9583922, 55.3078054], [59.9686131, 55.3031063], [59.9561242, 55.2791604], [59.9242582, 55.2609036], [59.9078375, 55.2224531], [59.8909048, 55.2107742], [59.8872804, 55.1969475]]]}}]}