{"type": "FeatureCollection", "features": [{"type": "Feature", "properties": {"slug": "michalovce", "members": 1, "country": "Slovakia", "input_hash": "e648d7873288c312"}, "geometry": {"type": "Polygon", "coordinates": [[[22.148422, 48.830016], [22.165886, 48.864751], [22.166361, 48.881629], [22.1565838, 48.8935089], [22.126111, 48.887979], [22.131594, 48.844698], [22.071657, 48.846993], [22.018672, 48.838644], [21.952891, 48.848924], [21.943759, 48.870265], [21.885017, 48.889437], [21.849451, 48.89398], [21.833191, 48.886548], [21.810706, 48.901985], [21.787029, 48.895849], [21.78342, 48.881253], [21.793621, 48.864381], [21.786752, 48.857422], [21.797863, 48.83644], [21.792495, 48.821833], [21.80698, 48.806047], [21.800008, 48.801387], [21.802342, 48.790537], [21.756036, 48.780797], [21.756646, 48.769777], [21.766412, 48.764547], [21.759802, 48.741604], [21.714767, 48.733347], [21.722724, 48.732778], [21.735601, 48.710348], [21.73226, 48.70211], [21.75963, 48.692552], [21.783019, 48.643349], [21.796328, 48.648666], [21.801418, 48.606286], [21.810717, 48.594711], [21.797947, 48.59465], [21.801963, 48.565224], [21.813403, 48.564416], [21.805878, 48.563652], [21.809787, 48.538445], [21.836184, 48.530795], [21.822823, 48.52275], [21.829924, 48.520491], [21.808326, 48.515042], [21.826853, 48.490529], [21.816584, 48.475891], [21.826443, 48.472233], [21.812639, 48.475081], [21.809859, 48.466656], [21.827445, 48.467226], [21.822456, 48.46375], [21.835459, 48.459896], [21.843425, 48.485804], [21.866891, 48.488528], [21.862157, 48.492319], [21.870274, 48.492008], [21.876807, 48.503684], [21.890972, 48.499193], [21.899962, 48.509356], [21.903685, 48.499216], [21.908695, 48.505492], [21.917424, 48.497219], [21.921868, 48.503015], [22.000802, 48.505687], [22.002261, 48.512008], [22.034624, 48.515599], [22.092681, 48.475268], [22.120094, 48.474401], [22.1405621, 48.4476677], [22.166018, 48.57713], [22.153466, 48.573906], [22.146773, 48.594624], [22.130887, 48.593712], [22.12726, 48.633495], [22.116341, 48.631025], [22.098096, 48.658087], [22.095216, 48.651419], [22.074142, 48.660524], [22.084597, 48.672885], [22.074856, 48.683782], [22.088696, 48.69082], [22.081992, 48.701604], [22.073206, 48.701586], [22.078024, 48.715111], [22.057037, 48.749683], [22.098998, 48.759297], [22.077824, 48.764336], [22.076714, 48.776284], [22.091743, 48.789024], [22.0836, 48.792686], [22.111706, 48.811429], [22.144782, 48.810359], [22.153785, 48.820822], [22.148422, 48.830016]]]}}]}