{"type": "FeatureCollection", "features": [{"type": "Feature", "properties": {"slug": "miercurea-ciuc", "members": 1, "country": "Romania", "input_hash": "a6d9070faecfb4bf"}, "geometry": {"type": "MultiPolygon", "coordinates": [[[[25.836123, 46.3676741], [25.8229452, 46.3583279], [25.8357381, 46.3335484], [25.8306014, 46.330355], [25.7844618, 46.3143295], [25.7571646, 46.3158313], [25.7441905, 46.305986], [25.7249639, 46.3090658], [25.6965139, 46.2945607], [25.6801335, 46.2717314], [25.6726283, 46.3142723], [25.6614713, 46.3307673], [25.6197856, 46.3458329], [25.6423255, 46.3463283], [25.7281379, 46.384677], [25.7677072, 46.3862345], [25.8057049, 46.4042608], [25.815833, 46.3880333], [25.8535315, 46.389502], [25.9083638, 46.3735396], [25.8892328, 46.359948], [25.836123, 46.3676741]]], [[[25.6301002, 46.3813611], [25.6362332, 46.3896563], [25.6462415, 46.3905666], [25.635027, 46.3795871], [25.6301002, 46.3813611]]]]}}]}