{"type":"FeatureCollection","features":[{"type":"Feature","properties":{"slug":"mikhaylovka","member_count":1,"matched_count":1,"unmatched":[],"source":"Overture Maps division_area (CC-BY 4.0)"},"geometry":{"type":"MultiPolygon","coordinates":[[[[21.3973224,54.3481401],[21.3962388,54.3519357],[21.3983524,54.3512416],[21.3973224,54.3481401]]],[[[21.3956273,54.3555653],[21.4042854,54.3552214],[21.4061522,54.3552277],[21.4051437,54.354443],[21.3956273,54.3555653]]],[[[21.3863253,54.3616077],[21.387012,54.3604949],[21.3844478,54.3601886],[21.3863253,54.3616077]]],[[[21.3958847,54.3634643],[21.3984811,54.3623266],[21.3985884,54.3610138],[21.3958847,54.3634643]]]]}}]}