{"type":"FeatureCollection","features":[{"type":"Feature","properties":{"slug":"milwaukee","member_count":220,"matched_count":220,"unmatched":[],"source":"Overture Maps division_area (CC-BY 4.0)"},"geometry":{"type":"MultiPolygon","coordinates":[[[[-90.9678758,43.5101029],[-91.0284546,43.5093196],[-91.029542,43.637384],[-90.91041,43.639197],[-90.9093745,43.5386484],[-90.9678639,43.5386278],[-90.9678758,43.5101029]]],[[[-91.5403258,44.0773818],[-91.5340975,44.0962755],[-91.5485005,44.1077692],[-91.5587361,44.1423069],[-91.5907257,44.1567674],[-91.4626258,44.1576602],[-91.4614929,44.1132833],[-91.4812339,44.1133696],[-91.4811481,44.0986768],[-91.4907783,44.0986275],[-91.4909156,44.0843749],[-91.500975,44.0843502],[-91.5009921,44.0780612],[-91.5403258,44.0773818]]],[[[-88.3058184,42.6108553],[-88.3046582,42.4947591],[-88.7764879,42.4919515],[-88.7770169,42.8427983],[-89.013548,42.8474643],[-89.0068302,43.633097],[-88.40111,43.6308904],[-88.400772,43.543499],[-87.1346919,43.5427204],[-87.147166,43.379859],[-87.0445189,42.668027],[-88.1884646,42.6694075],[-88.1882448,42.6115623],[-88.3058184,42.6108553]]],[[[-90.0728756,43.3803693],[-90.1919479,43.3801961],[-90.1916475,43.4673289],[-90.167648,43.467517],[-90.167768,43.460294],[-90.147578,43.460439],[-90.1475506,43.4675776],[-90.0729546,43.4676309],[-90.0728756,43.3803693]]],[[[-89.788136,43.662864],[-89.785809,43.641049],[-90.312668,43.640697],[-90.312309,44.24971],[-89.9024371,44.2494792],[-89.8949484,44.2292484],[-89.9066857,44.2290792],[-89.9075869,44.2202991],[-89.9253324,44.2142245],[-89.9065141,44.2000429],[-89.9261264,44.1945662],[-89.9039821,44.1909353],[-89.9031237,44.1790718],[-89.9235944,44.1785178],[-89.9295811,44.1523048],[-89.942978,44.16441],[-89.969727,44.162041],[-89.979683,44.128738],[-90.011444,44.117229],[-90.00882,44.107216],[-90.025246,44.090294],[-90.0259638,44.0682546],[-89.995468,44.022068],[-90.006187,44.010181],[-89.97686,43.998451],[-89.9642087,43.9813282],[-89.9600237,43.9598058],[-89.973068,43.910095],[-89.9581147,43.8621957],[-89.923119,43.839672],[-89.908401,43.817406],[-89.861259,43.776562],[-89.827332,43.703346],[-89.811394,43.678799],[-89.788136,43.662864]]]]}}]}