{"type":"FeatureCollection","features":[{"type":"Feature","properties":{"slug":"minatitlan","member_count":6,"matched_count":6,"unmatched":[],"source":"Overture Maps division_area (CC-BY 4.0)"},"geometry":{"type":"Polygon","coordinates":[[[-94.4583782,18.0259475],[-94.4423077,17.9990843],[-94.4296334,17.9964517],[-94.4271242,17.983855],[-94.4498255,17.9512518],[-94.4370703,17.9104811],[-94.4126957,17.9124996],[-94.3962582,17.905236],[-94.3828694,17.9132421],[-94.3717381,17.897901],[-94.3536038,17.9135927],[-94.3399035,17.9044777],[-94.3020509,17.9108748],[-94.2870286,17.8942886],[-94.2672392,17.8878139],[-94.267502,17.8709886],[-94.2850187,17.8552823],[-94.2951408,17.8621986],[-94.2849699,17.8681703],[-94.3011315,17.8655761],[-94.2945351,17.8512392],[-94.3123578,17.8500684],[-94.3107468,17.8375198],[-94.2634499,17.8498469],[-94.2546946,17.8320057],[-94.251688,17.8439731],[-94.2410038,17.8409242],[-94.2156695,17.8578897],[-94.1996376,17.8514365],[-94.2220754,17.7988184],[-94.2206687,17.7877965],[-94.2092559,17.7988228],[-94.1981832,17.7884798],[-94.2254648,17.761641],[-94.217502,17.745098],[-94.2267644,17.7338528],[-94.2089557,17.732383],[-94.1815271,17.7110533],[-94.1914713,17.6954443],[-94.1787265,17.6755897],[-94.1958848,17.6666639],[-94.200892,17.6552624],[-94.1835142,17.6514268],[-94.169706,17.6594607],[-94.1668123,17.6457043],[-94.1449807,17.6354348],[-94.1608372,17.6241953],[-94.1685224,17.600282],[-94.1505945,17.6067681],[-94.1226855,17.5906956],[-94.1436157,17.5748007],[-94.1519891,17.5818495],[-94.1657443,17.5731396],[-94.1752519,17.58376],[-94.190565,17.5648611],[-94.1969205,17.5861692],[-94.207516,17.5775378],[-94.2188617,17.5821102],[-94.225415,17.5562278],[-94.2050383,17.5535392],[-94.1982184,17.5443574],[-94.2076942,17.540648],[-94.2221831,17.5481482],[-94.239812,17.5392106],[-94.2276838,17.5215321],[-94.2321651,17.5085052],[-94.2112616,17.5080614],[-94.2041503,17.517623],[-94.1969707,17.505196],[-94.2075929,17.4990346],[-94.2063568,17.4883605],[-94.2171735,17.4983586],[-94.2280966,17.4909376],[-94.2312922,17.4703617],[-94.2028311,17.4139736],[-94.1854236,17.4110265],[-94.1849426,17.3919067],[-94.2117196,17.3702412],[-94.216521,17.357385],[-94.2078415,17.3251816],[-94.2122574,17.3180995],[-94.2556642,17.4011915],[-94.3615534,17.4014173],[-94.37337,17.4296155],[-94.3508038,17.4364751],[-94.3564991,17.4513126],[-94.434064,17.4264861],[-94.42912,17.4342047],[-94.4376486,17.4483372],[-94.4313698,17.4551165],[-94.4346772,17.4671911],[-94.4434887,17.4680461],[-94.4430647,17.4806203],[-94.4586525,17.4816043],[-94.456614,17.4917998],[-94.4655144,17.487754],[-94.4695482,17.5224645],[-94.4782071,17.5232662],[-94.4677666,17.5359792],[-94.4780386,17.5504574],[-94.4356265,17.5912286],[-94.4434912,17.6022351],[-94.4360893,17.6020012],[-94.4432165,17.6113414],[-94.4398003,17.6224665],[-94.4608235,17.6265931],[-94.4659678,17.6400101],[-94.4741615,17.6375477],[-94.4678658,17.6439344],[-94.4828759,17.6416151],[-94.4870106,17.6533629],[-94.5029552,17.6385345],[-94.4992903,17.6442398],[-94.5069284,17.6425374],[-94.5018522,17.6463549],[-94.510677,17.6537576],[-94.5171898,17.6411223],[-94.5353828,17.6533744],[-94.553465,17.6418942],[-94.5562975,17.6553939],[-94.5775192,17.6473915],[-94.5904002,17.7111409],[-94.5795447,17.7169572],[-94.5919117,17.7313718],[-94.6023322,17.7273329],[-94.598895,17.7427862],[-94.6088557,17.7542743],[-94.5973448,17.7822789],[-94.564137,17.8112607],[-94.5777499,17.8162501],[-94.6054705,17.8069758],[-94.6081156,17.8152544],[-94.5999434,17.8224789],[-94.6159168,17.8149925],[-94.6139816,17.8314548],[-94.6337223,17.8439649],[-94.6261592,17.8199606],[-94.6474092,17.8135973],[-94.6516098,17.7926599],[-94.6454585,17.7767183],[-94.6775523,17.7642078],[-94.6644034,17.7631182],[-94.6853287,17.739983],[-94.6757708,17.7173931],[-94.684179,17.6971432],[-94.6916152,17.701818],[-94.6842786,17.7121634],[-94.6885754,17.7194113],[-94.7011887,17.7282577],[-94.7034028,17.7162097],[-94.7154708,17.7171671],[-94.7063318,17.7349954],[-94.7167119,17.7416369],[-94.7361856,17.7392287],[-94.7364668,17.7502836],[-94.7549233,17.7522539],[-94.7559775,17.7745765],[-94.7789222,17.7810778],[-94.7741939,17.8008812],[-94.763339,17.8072664],[-94.7727405,17.8186179],[-94.763267,17.8263805],[-94.7591291,17.8186688],[-94.7597441,17.8290241],[-94.7463044,17.8409731],[-94.7371288,17.835661],[-94.7207276,17.8489366],[-94.7236637,17.8592262],[-94.7176702,17.8530437],[-94.7133026,17.8624509],[-94.7216498,17.8702846],[-94.7172232,17.8770598],[-94.7663664,17.8850819],[-94.770215,17.9104542],[-94.7822735,17.9140658],[-94.7576954,17.9406349],[-94.7827431,17.9299198],[-94.7829645,17.9555328],[-94.7986846,17.9597405],[-94.7871754,17.9663576],[-94.7913506,17.9800866],[-94.7817694,17.9853367],[-94.7813342,17.9996375],[-94.762968,17.9968696],[-94.7615884,18.0031134],[-94.7690899,18.0266853],[-94.789813,18.0243282],[-94.8002568,18.0412283],[-94.8195948,18.043286],[-94.795173,18.0721677],[-94.8002256,18.086574],[-94.7460832,18.0820553],[-94.7364587,18.1019258],[-94.7437298,18.1054555],[-94.743116,18.1172015],[-94.7266783,18.119867],[-94.7111922,18.1102149],[-94.7130419,18.1038584],[-94.6755167,18.0967346],[-94.6781292,18.0911399],[-94.6760777,18.0886159],[-94.6631951,18.0983332],[-94.6616353,18.0877283],[-94.6287245,18.0936382],[-94.6267374,18.0999027],[-94.612889,18.0986482],[-94.6134775,18.1075047],[-94.5941568,18.096341],[-94.584779,18.1225926],[-94.537357,18.1421457],[-94.514233,18.1244438],[-94.5158426,18.1125234],[-94.5247305,18.1118875],[-94.5199597,18.1009148],[-94.4700862,18.1118961],[-94.4656048,18.1034479],[-94.4473289,18.1020026],[-94.4402264,18.1110319],[-94.4364723,18.0939441],[-94.4240775,18.0980402],[-94.414341,18.0697587],[-94.4195199,18.0553393],[-94.4519179,18.0539567],[-94.4583782,18.0259475]]]}}]}