{"type":"FeatureCollection","features":[{"type":"Feature","properties":{"slug":"mineralnye-vody","member_count":1,"matched_count":1,"unmatched":[],"source":"Overture Maps division_area (CC-BY 4.0)"},"geometry":{"type":"Polygon","coordinates":[[[43.2413921,44.3495643],[43.2423851,44.4483248],[43.1656663,44.4480809],[43.165281,44.5008808],[43.1307951,44.5089813],[43.1159362,44.4944795],[43.0544953,44.4930441],[43.0533248,44.5023423],[42.9897226,44.5158133],[42.9789158,44.5195692],[42.9808037,44.5286755],[42.911839,44.550821],[42.8935376,44.5433319],[42.8698817,44.5455935],[42.7861902,44.5701936],[42.7916565,44.4731893],[42.7793665,44.4754716],[42.7791881,44.4437751],[42.7663178,44.4440119],[42.7665813,44.4132498],[42.7466311,44.383349],[42.7479222,44.3320112],[42.6535691,44.3326987],[42.6530713,44.2424187],[42.7449364,44.2423267],[42.7425271,44.2148696],[42.7498767,44.2078244],[42.7434835,44.1874214],[42.8262768,44.1671289],[42.8453364,44.2117838],[42.8890169,44.1876027],[42.9025033,44.2029002],[42.9398053,44.2043676],[42.9385902,44.2245199],[42.9619049,44.221105],[42.9675821,44.2071056],[42.9796327,44.2061457],[42.9795438,44.1872664],[43.0404991,44.1902029],[43.04096,44.1751339],[43.0300946,44.1690323],[43.0631909,44.1616255],[43.0706538,44.14208],[43.0945481,44.1237495],[43.1559921,44.1229783],[43.1842836,44.0906005],[43.1973786,44.0998971],[43.1978734,44.1099329],[43.2209878,44.1141503],[43.2188072,44.2157604],[43.2303775,44.2311494],[43.2298148,44.2445648],[43.1997677,44.2486946],[43.1995894,44.2622417],[43.2183644,44.2625852],[43.218222,44.2778686],[43.1901826,44.274547],[43.1674807,44.2813361],[43.1672827,44.3495509],[43.2413921,44.3495643]]]}}]}