{"type": "FeatureCollection", "features": [{"type": "Feature", "properties": {"slug": "mingechevir", "members": 1, "country": "Azerbaijan", "input_hash": "ce48afefa241c0bf"}, "geometry": {"type": "Polygon", "coordinates": [[[47.1066215, 40.7470396], [47.1146146, 40.7596624], [47.1011755, 40.8130321], [46.9081876, 40.8751214], [46.868259, 40.8193275], [46.9574852, 40.7590228], [46.9552107, 40.74914], [46.9715838, 40.7580915], [47.0105929, 40.7445395], [47.0728482, 40.7460149], [47.0906559, 40.7552686], [47.1066215, 40.7470396]]]}}]}