{"type": "FeatureCollection", "features": [{"type": "Feature", "properties": {"slug": "minsk", "members": 2, "country": "Belarus", "input_hash": "246391ae32f31fbd"}, "geometry": {"type": "MultiPolygon", "coordinates": [[[[27.8967571, 53.8696112], [27.8797495, 53.8746897], [27.9032341, 53.8877846], [27.9181042, 53.8746758], [27.8967571, 53.8696112]]], [[[28.0790029, 53.8781056], [28.058178, 53.8709022], [28.05719, 53.8623648], [28.0171215, 53.8840602], [27.9999589, 53.901353], [28.0203532, 53.9127212], [28.0061748, 53.9219885], [28.0790029, 53.8781056]]], [[[27.3672729, 54.2517943], [27.4378657, 54.2543968], [27.4402966, 54.2454313], [27.4310964, 54.2379344], [27.4474632, 54.2342599], [27.4477088, 54.2127902], [27.460317, 54.2064353], [27.494381, 54.2018772], [27.5037221, 54.1888705], [27.5680106, 54.1961624], [27.568939, 54.1857334], [27.5838101, 54.1739134], [27.5686819, 54.1714569], [27.5639763, 54.1621074], [27.5699809, 54.1546467], [27.554165, 54.151687], [27.5697902, 54.1217885], [27.5617275, 54.1019517], [27.5741466, 54.0887772], [27.592091, 54.0842475], [27.5922595, 54.072318], [27.612968, 54.0753055], [27.6318707, 54.071039], [27.6356578, 54.0631157], [27.6532525, 54.0639953], [27.6473737, 54.0828071], [27.6410436, 54.0823791], [27.6432109, 54.0919445], [27.6150036, 54.0936996], [27.6055527, 54.1029169], [27.6272957, 54.1092585], [27.6661599, 54.1050053], [27.6736428, 54.1145903], [27.6864667, 54.1089262], [27.7076129, 54.1143333], [27.7187099, 54.0911001], [27.7821293, 54.090026], [27.8017179, 54.0786791], [27.7945616, 54.0463276], [27.8490907, 54.029821], [27.8394627, 54.016431], [27.8482891, 54.0167339], [27.8582182, 53.9892797], [27.8828121, 53.9926846], [27.8852963, 53.9741365], [27.8787596, 53.9698102], [27.9082775, 53.9472971], [27.9040953, 53.937175], [27.9177998, 53.9271327], [27.9155946, 53.9070181], [27.8846117, 53.9037997], [27.8964435, 53.888859], [27.8652763, 53.8739877], [27.8835582, 53.8655362], [27.8865025, 53.8549618], [27.8841747, 53.8431185], [27.8749429, 53.8424729], [27.8863885, 53.8239244], [27.8789727, 53.8188055], [27.9319378, 53.822065], [27.9384664, 53.8097991], [27.9619417, 53.8072855], [27.9426564, 53.7679438], [27.8781295, 53.7625644], [27.873052, 53.7538328], [27.7832469, 53.7649518], [27.7436456, 53.7464041], [27.7408982, 53.7414877], [27.7594508, 53.7400652], [27.7579236, 53.7339769], [27.7082979, 53.7177849], [27.7205803, 53.7001955], [27.7110342, 53.6839252], [27.6534462, 53.671265], [27.6308856, 53.6528934], [27.6362994, 53.6397061], [27.5713342, 53.6380038], [27.5358055, 53.6270932], [27.5375564, 53.633622], [27.5268766, 53.6351441], [27.519309, 53.6504697], [27.5323505, 53.6487402], [27.529335, 53.6592632], [27.5067844, 53.6555863], [27.4717597, 53.6651142], [27.4632828, 53.6837559], [27.466845, 53.6944125], [27.4500863, 53.702382], [27.4452556, 53.7140301], [27.4176315, 53.7147457], [27.3960081, 53.7253222], [27.4168367, 53.7400149], [27.4061216, 53.7575361], [27.4126867, 53.7636447], [27.3496654, 53.7845936], [27.364988, 53.7897027], [27.3683247, 53.8032981], [27.3291027, 53.7955007], [27.2787513, 53.8139449], [27.256844, 53.8397528], [27.2685599, 53.8473063], [27.1985486, 53.8734493], [27.1912981, 53.8681122], [27.1993551, 53.8634564], [27.1771604, 53.8545791], [27.1437981, 53.8710872], [27.0875569, 53.8625781], [27.0867381, 53.8724632], [27.0731449, 53.8801986], [27.0776725, 53.8871865], [27.0667827, 53.8907084], [27.0187497, 53.8846571], [27.0211422, 53.9076564], [27.0334482, 53.9146334], [27.0325127, 53.9425705], [27.0713639, 53.953333], [27.0769858, 53.9476696], [27.0836761, 53.9682861], [27.1320246, 54.0097812], [27.1838786, 54.003562], [27.1848413, 54.0180299], [27.1991014, 54.019608], [27.1922563, 54.0412503], [27.166357, 54.0452797], [27.1717284, 54.0668789], [27.1898029, 54.0670831], [27.1885657, 54.0748133], [27.1675795, 54.0740824], [27.1645875, 54.0846148], [27.2164937, 54.0928019], [27.2130212, 54.1067675], [27.2206507, 54.1205244], [27.2106864, 54.1233741], [27.213492, 54.1360715], [27.2536026, 54.1473894], [27.2806695, 54.1355075], [27.292168, 54.1426145], [27.2739324, 54.1647675], [27.28387, 54.1648712], [27.3061834, 54.1872983], [27.301417, 54.2081295], [27.3380163, 54.2330914], [27.3354616, 54.2464631], [27.3555601, 54.2360016], [27.3672729, 54.2517943]], [[27.705320809503103, 53.8157149554184], [27.7057258, 53.8160584], [27.7028737, 53.8158175], [27.705320809503103, 53.8157149554184]], [[27.685503961132667, 53.8583709639967], [27.6855165, 53.8583346], [27.7066771, 53.8480071], [27.685503961132667, 53.8583709639967]], [[27.6958687, 53.8736768], [27.69727005484793, 53.87389052058074], [27.6843423, 53.8617399], [27.6958687, 53.8736768]], [[27.4139054, 53.8763166], [27.412845323781728, 53.876329172332504], [27.4139426, 53.8739698], [27.4139054, 53.8763166]], [[27.4185059, 53.8768752], [27.4125978, 53.8768614], [27.41283427145439, 53.87635293713748], [27.4185059, 53.8768752]], [[27.4088045, 53.8725702], [27.4109381, 53.8721138], [27.4210231, 53.8720503], [27.4088045, 53.8725702]], [[27.8114698, 53.8548981], [27.79622492468129, 53.859723485646384], [27.7962344, 53.8596344], [27.8114698, 53.8548981]], [[27.6894154, 53.8048461], [27.6949423, 53.8064593], [27.689045266142294, 53.80492338194749], [27.6894154, 53.8048461]], [[27.401479945397647, 53.89411712653986], [27.4012447, 53.8907933], [27.4015275, 53.8940671], [27.401479945397647, 53.89411712653986]], [[27.3972352, 53.9018237], [27.397264108504462, 53.901814430377], [27.398796, 53.9033083], [27.3972352, 53.9018237]], [[27.4056997, 53.9018753], [27.411298744731106, 53.89159292457013], [27.4114052, 53.8916075], [27.4056997, 53.9018753]], [[27.4554036, 53.9588295], [27.4460868, 53.9515812], [27.456520773842488, 53.959403445471025], [27.4554036, 53.9588295]], [[27.4693114, 53.9659746], [27.468539586044912, 53.96557808237029], [27.469534573100102, 53.96600720136041], [27.4693114, 53.9659746]], [[27.4779655, 53.9672388], [27.47083399091753, 53.96619702167735], [27.491471072106222, 53.96796436682023], [27.4779655, 53.9672388]], [[27.5383748, 53.9704842], [27.5255261651558, 53.969793926159326], [27.5956127, 53.9715384], [27.5383748, 53.9704842]], [[27.6333416, 53.9600335], [27.6302219, 53.9589742], [27.6311995, 53.9585835], [27.6333416, 53.9600335]], [[27.741999052327277, 53.947633210974764], [27.7399192, 53.9519552], [27.7414496, 53.9474968], [27.741999052327277, 53.947633210974764]], [[27.777882801483997, 53.890639350267925], [27.7779122, 53.8911607], [27.7711965, 53.8945056], [27.777882801483997, 53.890639350267925]], [[27.77786159959265, 53.8902633584875], [27.7641781, 53.887298], [27.7778145, 53.8894281], [27.77786159959265, 53.8902633584875]]]]}}]}