{"type": "FeatureCollection", "features": [{"type": "Feature", "properties": {"slug": "minya", "members": 3, "country": "Egypt", "input_hash": "dc2db6ecb0e90043"}, "geometry": {"type": "MultiPolygon", "coordinates": [[[[30.755861992000064, 28.106482440000036], [30.77623123738752, 28.07769902027436], [30.83562168800006, 28.033537290000027], [30.80448343100005, 28.03146089200004], [30.801499722000074, 28.026797586000043], [30.81301444500008, 28.02105288300004], [30.78828836400004, 28.017782999000076], [30.77622854200007, 28.004186103000052], [30.75787878600005, 28.015661269000077], [30.707325481000055, 27.99077081100006], [30.694798384000023, 27.995564700000045], [30.668244886000025, 27.984338582000078], [30.66148425800003, 27.987839781000048], [30.664603554000053, 27.997901739000042], [30.649761856000055, 27.998273578000067], [30.643700996000064, 28.01240818200006], [30.64259670900003, 28.03447540600007], [30.649338513000032, 28.03369999100005], [30.652171123000073, 28.043888082000024], [30.64156528700005, 28.053780483000025], [30.647693434000075, 28.05667604000007], [30.629025915000057, 28.05856992400004], [30.625025004000065, 28.07275022700003], [30.646500831000026, 28.08411711800005], [30.627289053000027, 28.084765099000037], [30.623471754000036, 28.092045905000077], [30.60029108200007, 28.08723796000004], [30.56557700500008, 28.09343996800004], [30.544847769000057, 28.12645768400006], [30.562684856000033, 28.153349839000043], [30.584186902000056, 28.15441227100007], [30.602372631000037, 28.16631550200003], [30.60663863800005, 28.179077946000064], [30.667532320000078, 28.186425146000033], [30.69208210900007, 28.178206363000072], [30.706089002000056, 28.216701983000064], [30.727018264000037, 28.208398301000045], [30.742331273000048, 28.217002905000072], [30.734949262000043, 28.20212344400005], [30.739760896000064, 28.19624097700006], [30.744626569000047, 28.208306329000038], [30.762616996000077, 28.209399758000075], [30.742004843000075, 28.183493699000053], [30.737527285000056, 28.16341622300007], [30.755861992000064, 28.106482440000036]], [[30.729007585000033, 28.12318923500004], [30.720267082000078, 28.120709342000055], [30.749177882000026, 28.12570357900006], [30.729007585000033, 28.12318923500004]]], [[[30.77272294000005, 28.14195043600006], [30.796329404000062, 28.137195649000034], [30.813140012000076, 28.089401604000045], [30.80213905000005, 28.077792873000078], [30.770835006000027, 28.113340745000073], [30.77272294000005, 28.14195043600006]]], [[[30.83533604300004, 28.041480586000034], [30.775244074000057, 28.08629268100003], [30.746459194000067, 28.14684778700007], [30.741922903000045, 28.172752151000054], [30.768943926000077, 28.19971288800008], [30.766373126000076, 28.208796977000077], [30.773949464000054, 28.198063991000026], [30.76815739700004, 28.116945372000032], [30.77098099600005, 28.10899657500005], [30.793669115000057, 28.081993100000034], [30.822278538000035, 28.064037579000058], [30.831438498000068, 28.04566032100007], [30.845456918000025, 28.037136959000065], [30.83533604300004, 28.041480586000034]]]]}}]}