{"type": "FeatureCollection", "features": [{"type": "Feature", "properties": {"slug": "miskolc", "members": 2, "country": "Hungary", "input_hash": "d61345b4e19a043f"}, "geometry": {"type": "MultiPolygon", "coordinates": [[[[20.7350847, 48.0235629], [20.724739, 48.0374207], [20.6700808, 48.0503785], [20.6318533, 48.0817472], [20.5008156, 48.0686008], [20.4817398, 48.0981538], [20.5079233, 48.1199139], [20.546834, 48.1285604], [20.609625, 48.1174561], [20.6266736, 48.1362632], [20.685761, 48.1521987], [20.7292714, 48.1432017], [20.7359083, 48.1549111], [20.7562509, 48.1332912], [20.8303481, 48.1371271], [20.8386263, 48.1305376], [20.8317819, 48.1298802], [20.8343749, 48.1226022], [20.8552822, 48.118853], [20.8476393, 48.111361], [20.8573186, 48.0955941], [20.8519014, 48.0809765], [20.8698736, 48.0790776], [20.8581335, 48.0696369], [20.8633666, 48.0657779], [20.8475854, 48.0647341], [20.8517291, 48.0488473], [20.8342193, 48.051404], [20.7902429, 48.0269398], [20.7741114, 48.0366993], [20.7657947, 48.0254006], [20.7350847, 48.0235629]]], [[[20.6667959, 48.2465583], [20.6227205, 48.231497], [20.6114231, 48.2156555], [20.5868602, 48.2133172], [20.5646244, 48.193048], [20.5676993, 48.1812098], [20.5370784, 48.185409], [20.5219919, 48.1955023], [20.5659589, 48.2133147], [20.5468964, 48.2298297], [20.5602816, 48.2395528], [20.5939815, 48.2421606], [20.6102757, 48.2723993], [20.6365173, 48.2681125], [20.6667959, 48.2465583]]]]}}]}