{"type": "FeatureCollection", "features": [{"type": "Feature", "properties": {"slug": "missoula", "members": 1, "country": "United States", "input_hash": "114daded7d703c31"}, "geometry": {"type": "Polygon", "coordinates": [[[-113.933503, 47.138289], [-114.194363, 47.138718], [-114.212098, 47.127709], [-114.235832, 47.134398], [-114.264148, 47.12107], [-114.292366, 47.125412], [-114.3026, 47.136271], [-114.35576, 47.157577], [-114.352343, 47.168911], [-114.338868, 47.172459], [-114.353634, 47.191103], [-114.381271, 47.188048], [-114.423858, 47.210091], [-114.454395, 47.207963], [-114.466971, 47.218952], [-114.493363, 47.219405], [-114.543485, 47.240135], [-114.550145, 47.251672], [-114.686399, 47.274409], [-114.71522, 47.254182], [-114.797204, 47.268916], [-114.7975536, 47.2399499], [-114.775956, 47.2399499], [-114.775956, 47.2256106], [-114.7121234, 47.2256106], [-114.7122613, 47.1821895], [-114.6913578, 47.1822813], [-114.6913837, 47.1672221], [-114.6502535, 47.1671508], [-114.650491, 47.1382664], [-114.6291719, 47.1382569], [-114.6292179, 47.1237112], [-114.5867068, 47.1237738], [-114.5866737, 47.0948651], [-114.5656841, 47.094825], [-114.5660721, 47.0673962], [-114.4836695, 47.0675127], [-114.4832586, 47.0233618], [-114.4195279, 47.0232296], [-114.4193999, 47.0088788], [-114.4513623, 47.0088856], [-114.4512733, 46.99324], [-114.5253048, 47.0091965], [-114.5253648, 46.9922988], [-114.5471423, 46.9924625], [-114.5464823, 46.9633597], [-114.5661601, 46.9634007], [-114.5662801, 46.8334942], [-114.5490021, 46.8336584], [-114.549122, 46.747318], [-114.6749276, 46.7474002], [-114.674942, 46.736826], [-114.648725, 46.732495], [-114.620787, 46.707262], [-114.623543, 46.690933], [-114.642563, 46.672912], [-114.63314, 46.671818], [-114.639892, 46.665614], [-114.635779, 46.659476], [-114.615026, 46.655414], [-114.61455, 46.63938], [-114.605732, 46.6359], [-114.582697, 46.633434], [-114.541822, 46.649992], [-114.466834, 46.631801], [-114.452639, 46.641561], [-114.453477, 46.649209], [-114.424596, 46.66066], [-114.412116, 46.656825], [-114.358119, 46.671142], [-114.353, 46.663557], [-114.332796, 46.660581], [-113.6679973, 46.658372], [-113.6681658, 46.7162297], [-113.5515319, 46.7165129], [-113.5450688, 46.7446319], [-113.4798561, 46.7446971], [-113.478836, 46.801208], [-113.41581, 46.800728], [-113.415268, 46.833328], [-113.302903, 46.832159], [-113.3033527, 47.1794878], [-113.466328, 47.1792069], [-113.4664537, 47.6001444], [-113.948844, 47.599993], [-113.929256, 47.59693], [-113.932121, 47.575961], [-113.9195, 47.549411], [-113.929688, 47.539918], [-113.92187, 47.528317], [-113.9278288, 47.5208543], [-113.908514, 47.5143], [-113.914996, 47.500272], [-113.942466, 47.492805], [-113.938843, 47.484247], [-113.95118, 47.475994], [-113.928775, 47.465901], [-113.932646, 47.457739], [-113.902677, 47.446706], [-113.890521, 47.431261], [-113.891086, 47.415949], [-113.87111, 47.392021], [-113.875879, 47.37103], [-113.893218, 47.359246], [-113.881838, 47.338524], [-113.886545, 47.318439], [-113.901086, 47.312167], [-113.878206, 47.30502], [-113.872638, 47.289355], [-113.855385, 47.285002], [-113.843538, 47.272055], [-113.824348, 47.274413], [-113.8211693, 47.2686993], [-113.8212778, 47.1817794], [-113.9335871, 47.1817501], [-113.933503, 47.138289]]]}}]}