{"type":"FeatureCollection","features":[{"type":"Feature","properties":{"slug":"mitchell-sd","member_count":33,"matched_count":2,"unmatched":["Mitchell city (US-SD, type='City')","Mitchell UT (US-SD, type='Township')","Prosper township (US-SD, type='Township')","Mount Vernon city (US-SD, type='City')","Ethan town (US-SD, type='Town')","Beulah township (US-SD, type='Township')","Perry township (US-SD, type='Township')","Rome township (US-SD, type='Township')","Mount Vernon township (US-SD, type='Township')","Badger township (US-SD, type='Township')","Lisbon township (US-SD, type='Township')","Tobin township (US-SD, type='Township')","Baker township (US-SD, type='Township')","Blendon township (US-SD, type='Township')","Union township (US-SD, type='Township')","Alexandria city (US-SD, type='City')","Emery city (US-SD, type='City')","Hanson township (US-SD, type='Township')","Rosedale township (US-SD, type='Township')","Beulah township (US-SD, type='Township')","Pleasant township (US-SD, type='Township')","Wayne township (US-SD, type='Township')","Jasper township (US-SD, type='Township')","Fairview township (US-SD, type='Township')","Spring Lake township (US-SD, type='Township')","Worthen township (US-SD, type='Township')","Plano township (US-SD, type='Township')","Edgerton township (US-SD, type='Township')","Fulton town (US-SD, type='Town')","Taylor township (US-SD, type='Township')","Farmer town (US-SD, type='Town')"],"source":"Overture Maps division_area (CC-BY 4.0)"},"geometry":{"type":"Polygon","coordinates":[[[-97.607012,43.499826],[-98.320595,43.498651],[-98.3252447,43.8510541],[-97.608517,43.849059],[-97.607012,43.499826]]]}}]}