{"type":"FeatureCollection","features":[{"type":"Feature","properties":{"slug":"mito","member_count":6,"matched_count":6,"unmatched":[],"source":"Overture Maps division_area (CC-BY 4.0)"},"geometry":{"type":"Polygon","coordinates":[[[140.590861,36.336057],[140.8269564,36.2501056],[140.8157468,36.2205008],[140.6864167,36.235527],[140.6104565,36.2575046],[140.557642,36.255897],[140.543663,36.261737],[140.546937,36.266021],[140.526101,36.26642],[140.522396,36.278235],[140.496216,36.275975],[140.496319,36.245971],[140.477551,36.242327],[140.477847,36.236139],[140.451479,36.237539],[140.447269,36.228823],[140.440977,36.238813],[140.43247,36.228146],[140.420681,36.231866],[140.414611,36.219866],[140.384388,36.239903],[140.390401,36.252092],[140.356525,36.271434],[140.349523,36.269802],[140.342996,36.265838],[140.340856,36.265584],[140.312459,36.280852],[140.293909,36.268839],[140.268059,36.267976],[140.233273,36.287261],[140.212334,36.317201],[140.180534,36.321076],[140.177193,36.334749],[140.162339,36.34161],[140.169018,36.360963],[140.178941,36.361566],[140.179846,36.376116],[140.191136,36.385017],[140.185148,36.398339],[140.203251,36.420745],[140.202596,36.454075],[140.214622,36.47623],[140.227154,36.485947],[140.229447,36.502083],[140.249067,36.507728],[140.247376,36.514972],[140.260143,36.517408],[140.25454,36.522406],[140.266542,36.529611],[140.280158,36.51978],[140.290358,36.52981],[140.296494,36.525044],[140.299628,36.536592],[140.315239,36.536442],[140.32496,36.549719],[140.368081,36.528237],[140.394549,36.490666],[140.412771,36.50025],[140.410292,36.51073],[140.418595,36.515327],[140.459779,36.509921],[140.489302,36.493637],[140.499454,36.497369],[140.502209,36.490228],[140.515888,36.503397],[140.550758,36.504337],[140.559786,36.494622],[140.578181,36.51781],[140.583291,36.512724],[140.599991,36.521362],[140.592376,36.553504],[140.578349,36.573567],[140.587699,36.620986],[140.547951,36.62078],[140.542728,36.613147],[140.517395,36.643437],[140.517803,36.651577],[140.541047,36.654519],[140.540893,36.66594],[140.549772,36.667537],[140.537485,36.697275],[140.540948,36.709131],[140.557926,36.714599],[140.573101,36.704587],[140.607375,36.700031],[140.620642,36.710029],[140.635418,36.700601],[140.661521,36.705834],[140.713499,36.695037],[140.7166,36.661691],[140.696037,36.647569],[140.689407,36.620858],[140.653416,36.573719],[140.632407,36.508771],[140.620379,36.486469],[140.612059,36.487697],[140.623359,36.481804],[140.604133,36.481975],[140.577083,36.495845],[140.541667,36.475183],[140.544879,36.447496],[140.554368,36.438841],[140.618457,36.426335],[140.608783,36.413803],[140.61523580000002,36.388524499999974],[140.626746,36.381182],[140.624538,36.368914],[140.605608,36.34296],[140.590861,36.336057]],[[140.586801,36.336684],[140.587918,36.336098],[140.588496,36.336009],[140.586801,36.336684]],[[140.342927,36.265832],[140.342919,36.267124],[140.3425649002848,36.26880579155583],[140.342927,36.265832]],[[140.394549,36.490666],[140.394383,36.489429],[140.394442,36.488012],[140.394549,36.490666]],[[140.58415937005043,36.33597529461922],[140.585901,36.336363],[140.586801,36.336684],[140.58415937005043,36.33597529461922]],[[140.209931,36.433019],[140.207869,36.433511],[140.207046,36.433597],[140.209931,36.433019]],[[140.211689,36.435393],[140.210826,36.434841],[140.209931,36.433019],[140.211689,36.435393]],[[140.2120549611279,36.43537886036962],[140.211975,36.435407],[140.211689,36.435393],[140.2120549611279,36.43537886036962]],[[140.218122,36.435814],[140.216224,36.435481],[140.215416,36.435249],[140.218122,36.435814]],[[140.218122,36.435814],[140.218767,36.435741],[140.218462,36.435842],[140.218122,36.435814]],[[140.21960691779785,36.4319577259089],[140.21961,36.431993],[140.21960603142455,36.43204018195249],[140.21960691779785,36.4319577259089]],[[140.22067917446716,36.431252917228846],[140.220326,36.431454],[140.22010049213506,36.43147920126429],[140.22067917446716,36.431252917228846]],[[140.22509030225555,36.431989120930794],[140.224933,36.431932],[140.222978,36.430354],[140.22509030225555,36.431989120930794]],[[140.22725568345345,36.43366532996315],[140.226815,36.43347],[140.22590758898576,36.43262177785075],[140.22725568345345,36.43366532996315]],[[140.22798225257645,36.434227762909266],[140.227746,36.434121],[140.227450547085,36.4338161727707],[140.22798225257645,36.434227762909266]],[[140.22913272517837,36.43586586533193],[140.228516,36.435468],[140.228498,36.434627],[140.22913272517837,36.43586586533193]],[[140.23104590002959,36.43852218951649],[140.230685,36.438449],[140.230345,36.438232],[140.23104590002959,36.43852218951649]],[[140.232584,36.439159],[140.231526,36.438854],[140.2311779697655,36.4385768695724],[140.232584,36.439159]],[[140.23457426556183,36.436373360526986],[140.233604,36.438509],[140.232584,36.439159],[140.23457426556183,36.436373360526986]],[[140.23525863501183,36.43541549510915],[140.235093,36.435843],[140.23464651294483,36.43627224077404],[140.23525863501183,36.43541549510915]],[[140.23661216690033,36.43352104849414],[140.236527,36.433686],[140.23643352709067,36.433771078497564],[140.23661216690033,36.43352104849414]],[[140.2392619476645,36.43122171316978],[140.238499,36.431442],[140.23806592691776,36.43136317156228],[140.2392619476645,36.43122171316978]],[[140.24151980199974,36.430954667263066],[140.240755,36.431211],[140.23941986985622,36.43120303504949],[140.24151980199974,36.430954667263066]],[[140.243766,36.430689],[140.243533,36.430717],[140.24348993745446,36.430721651075686],[140.243766,36.430689]],[[140.249717,36.430504],[140.24572,36.431267],[140.24461,36.431065],[140.249717,36.430504]],[[140.253723,36.43085],[140.252421,36.431037],[140.24999690115882,36.430528175187455],[140.253723,36.43085]],[[140.25526664087994,36.43230664820869],[140.254736,36.432003],[140.25442993735365,36.43151709753752],[140.25526664087994,36.43230664820869]],[[140.2586034128718,36.43446255421988],[140.258419,36.434617],[140.257751,36.434651],[140.2586034128718,36.43446255421988]],[[140.264653,36.43596],[140.262108,36.435462],[140.259782,36.434202],[140.264653,36.43596]],[[140.267067,36.434928],[140.266321,36.435503],[140.264653,36.43596],[140.267067,36.434928]],[[140.26940378082193,36.43499270319635],[140.268963,36.435039],[140.26891447690133,36.434979154844974],[140.26940378082193,36.43499270319635]],[[140.27245287602975,36.435453081557796],[140.271654,36.435572],[140.270823,36.435032],[140.27245287602975,36.435453081557796]],[[140.2743217000074,36.435935895770285],[140.273768,36.435945],[140.2732171722084,36.43565053892244],[140.2743217000074,36.435935895770285]],[[140.275313,36.436192],[140.274748,36.436059],[140.2746436661486,36.43601907633237],[140.275313,36.436192]],[[140.276254533479,36.43590696545069],[140.275993,36.436123],[140.275313,36.436192],[140.276254533479,36.43590696545069]],[[140.27945088876118,36.436726610583364],[140.278646,36.436895],[140.2785012792646,36.43636178341741],[140.27945088876118,36.436726610583364]],[[140.280795,36.437243],[140.280053,36.437179],[140.27972577235184,36.436832217152904],[140.280795,36.437243]],[[140.2862831945112,36.43702462295153],[140.285454,36.437181],[140.283395,36.436554],[140.2862831945112,36.43702462295153]],[[140.28762288076675,36.43801932017213],[140.287373,36.437885],[140.286666,36.437087],[140.28762288076675,36.43801932017213]],[[140.2893556016435,36.43970756669372],[140.288814,36.43959],[140.28847718252388,36.43885169426608],[140.2893556016435,36.43970756669372]],[[140.291536,36.441832],[140.290309,36.440841],[140.2900534962046,36.440387548150056],[140.291536,36.441832]],[[140.294936,36.442545],[140.293063,36.44257],[140.291536,36.441832],[140.294936,36.442545]],[[140.291328,36.446184],[140.29158,36.445493],[140.29216863384153,36.44533614341759],[140.291328,36.446184]],[[140.29218883691985,36.44693676915732],[140.291815,36.446724],[140.291328,36.446184],[140.29218883691985,36.44693676915732]],[[140.296903,36.448646],[140.295883,36.449186],[140.294116,36.448622],[140.296903,36.448646]],[[140.2974838422844,36.44708689702604],[140.297252,36.448024],[140.296903,36.448646],[140.2974838422844,36.44708689702604]],[[140.298366,36.444719],[140.298432,36.44533],[140.29761377404566,36.44673813282474],[140.298366,36.444719]],[[140.303674,36.444141],[140.301189,36.444713],[140.30040752569053,36.444496693698355],[140.303674,36.444141]],[[140.30395297731027,36.443870670666044],[140.303935,36.443894],[140.303674,36.444141],[140.30395297731027,36.443870670666044]],[[140.3075,36.444633],[140.30522,36.444076],[140.30491164246638,36.4434627645804],[140.3075,36.444633]],[[140.308372,36.442254],[140.30863,36.443713],[140.3075,36.444633],[140.308372,36.442254]],[[140.3117916904823,36.440264132569176],[140.311399,36.440809],[140.310565,36.441382],[140.3117916904823,36.440264132569176]],[[140.31578690697674,36.439731],[140.315386,36.439731],[140.31488742717923,36.43946425771523],[140.31578690697674,36.439731]],[[140.318724,36.440602],[140.31774,36.440736],[140.31614487046136,36.43983715468854],[140.318724,36.440602]],[[140.32039854457486,36.44007474743945],[140.320357,36.440098],[140.32032469486404,36.440098],[140.32039854457486,36.44007474743945]],[[140.32631748754224,36.43685679195155],[140.324516,36.439344],[140.322929,36.439278],[140.32631748754224,36.43685679195155]],[[140.327055,36.436019326578354],[140.326991,36.436292],[140.32687,36.436462],[140.327055,36.436019326578354]],[[140.328153,36.433392],[140.327846,36.434589],[140.32717508226324,36.435731990219715],[140.328153,36.433392]],[[140.330266,36.433839],[140.329415,36.433793],[140.3287209422326,36.43351214679507],[140.330266,36.433839]],[[140.33126276080833,36.43328326881472],[140.330974,36.433499],[140.330266,36.433839],[140.33126276080833,36.43328326881472]],[[140.332621,36.432526],[140.332496,36.432765],[140.33141429717446,36.43319878166027],[140.332621,36.432526]],[[140.33353559066148,36.43029021245136],[140.332837,36.43076],[140.332256,36.430702],[140.33353559066148,36.43029021245136]],[[140.33881352640879,36.429985814822196],[140.338472,36.430109],[140.3378748153615,36.42959896212134],[140.33881352640879,36.429985814822196]],[[140.340316,36.430605],[140.340102,36.430533],[140.3400781791561,36.430506991527594],[140.340316,36.430605]],[[140.3415255435298,36.43020347629997],[140.341276,36.430648],[140.34076,36.430576],[140.340316,36.430605],[140.3415255435298,36.43020347629997]],[[140.3433761119865,36.43112622052016],[140.34271,36.43068],[140.342262,36.429959],[140.3433761119865,36.43112622052016]],[[140.344171,36.431959],[140.3440805,36.4318727],[140.3440511328724,36.43183341893392],[140.344171,36.431959]],[[140.34481032096346,36.432015527601706],[140.344483,36.431997],[140.344171,36.431959],[140.34481032096346,36.432015527601706]],[[140.34751848060847,36.43225497817273],[140.345702,36.432447],[140.34504990125842,36.432036710857474],[140.34751848060847,36.43225497817273]],[[140.349317,36.432414],[140.349097,36.432406],[140.3489252989317,36.43237936650096],[140.349317,36.432414]],[[140.356186,36.431245],[140.354577,36.432062],[140.353152,36.431167],[140.356186,36.431245]],[[140.358484,36.432016],[140.358311,36.432015],[140.35819025802908,36.43191744688443],[140.358484,36.432016]],[[140.36014567501564,36.42903300427884],[140.359693,36.431023],[140.358484,36.432016],[140.36014567501564,36.42903300427884]],[[140.36151099290498,36.42947199897729],[140.361256,36.429403],[140.361256,36.42933784552846],[140.36151099290498,36.42947199897729]],[[140.36288716034252,36.430196009741174],[140.362474,36.430166],[140.36194830896224,36.429702073838854],[140.36288716034252,36.430196009741174]],[[140.365801,36.431729],[140.364262,36.431123],[140.36350328567866,36.430520157343494],[140.365801,36.431729]],[[140.367537,36.433218],[140.366223,36.432501],[140.365801,36.431729],[140.367537,36.433218]],[[140.367275,36.43452],[140.366866,36.433779],[140.36748961629854,36.43345347167676],[140.367275,36.43452]],[[140.370235,36.435926],[140.369938,36.436099],[140.36821959675842,36.43496868346025],[140.370235,36.435926]],[[140.370119348403,36.43416933315013],[140.370298,36.435147],[140.3702042492912,36.435458918246105],[140.370119348403,36.43416933315013]],[[140.37049046528034,36.43000648399667],[140.370941,36.430985],[140.369992,36.432235],[140.37049046528034,36.43000648399667]],[[140.37099871901398,36.42773420621951],[140.371284,36.428281],[140.3707155994793,36.4289999642147],[140.37099871901398,36.42773420621951]],[[140.37578311642952,36.42870479689522],[140.375143,36.428157],[140.37481240965653,36.4274846114602],[140.37578311642952,36.42870479689522]],[[140.37696382107322,36.43018895117272],[140.376646,36.430061],[140.3763613899106,36.429431690843764],[140.37696382107322,36.43018895117272]],[[140.37787633681594,36.43133599006179],[140.377459,36.431212],[140.37706604666255,36.430317449477926],[140.37787633681594,36.43133599006179]],[[140.3798573168271,36.43273756261216],[140.378909,36.433621],[140.378473,36.432086],[140.3798573168271,36.43273756261216]],[[140.38119127823114,36.43336542421143],[140.380428,36.433347],[140.38038512689747,36.43298598934617],[140.38119127823114,36.43336542421143]],[[140.38204061660483,36.43409501317483],[140.381721,36.434064],[140.381883,36.433691],[140.38204061660483,36.43409501317483]],[[140.3828542708631,36.436180624906285],[140.382183,36.435443],[140.3821967726344,36.43449528250779],[140.3828542708631,36.436180624906285]],[[140.387911,36.437551],[140.384686,36.437322],[140.383108,36.436831],[140.387911,36.437551]],[[140.39320819800935,36.43804083295364],[140.391875,36.438056],[140.39143105479454,36.43740205479453],[140.39320819800935,36.43804083295364]],[[140.394205,36.439747],[140.394197,36.439571],[140.3942064536965,36.43950259727623],[140.394205,36.439747]],[[140.396022,36.441226],[140.394658,36.440421],[140.394205,36.439747],[140.396022,36.441226]],[[140.395744,36.445626],[140.396358,36.444574],[140.398295,36.443171],[140.395744,36.445626]],[[140.39312665802302,36.448115611686966],[140.393587,36.447802],[140.39433903390838,36.447706963951205],[140.39312665802302,36.448115611686966]],[[140.39141794025645,36.448691558185715],[140.3917485,36.4484877],[140.39273330690153,36.44824819601752],[140.39141794025645,36.448691558185715]],[[140.381331,36.464287],[140.383331,36.459524],[140.385341,36.455737],[140.381331,36.464287]],[[140.38189576038909,36.46421686281019],[140.38142,36.464385],[140.381331,36.464287],[140.38189576038909,36.46421686281019]],[[140.394545,36.461971],[140.392596,36.462846],[140.3877,36.464398],[140.394545,36.461971]],[[140.39649548437922,36.45852162473534],[140.396109,36.459679],[140.394545,36.461971],[140.39649548437922,36.45852162473534]],[[140.405306,36.454263],[140.404391,36.455008],[140.40225515319926,36.45535495002598],[140.405306,36.454263]],[[140.40571241156633,36.45346927281427],[140.405573,36.453806],[140.405306,36.454263],[140.40571241156633,36.45346927281427]],[[140.411646,36.449176],[140.411061,36.449027],[140.4110517566814,36.448946110249004],[140.411646,36.449176]],[[140.4092798752371,36.452499555290366],[140.4096,36.452181],[140.410902,36.452184],[140.4092798752371,36.452499555290366]],[[140.408049,36.452739],[140.408385,36.452256],[140.40896494116845,36.45256082006713],[140.408049,36.452739]],[[140.407996,36.454336],[140.407956,36.453449],[140.408049,36.452739],[140.407996,36.454336]],[[140.4089156619471,36.454869947622385],[140.408164,36.454501],[140.407996,36.454336],[140.4089156619471,36.454869947622385]],[[140.414441,36.460872],[140.413655,36.460486],[140.4125950827682,36.45993223587397],[140.414441,36.460872]],[[140.578042,36.330413],[140.579817,36.332117],[140.576761,36.329509],[140.578042,36.330413]],[[140.57617440201497,36.32872020076068],[140.575119,36.327301],[140.575589,36.327788],[140.57617440201497,36.32872020076068]],[[140.57329256646938,36.32734917930176],[140.574057,36.327102],[140.575119,36.327301],[140.57329256646938,36.32734917930176]],[[140.568299,36.323671],[140.5704640810621,36.326799754488135],[140.567072,36.322524],[140.568299,36.323671]],[[140.561122,36.320114],[140.565982,36.321994],[140.567072,36.322524],[140.561122,36.320114]],[[140.559431,36.313598],[140.560712,36.316863],[140.559104,36.313289],[140.559431,36.313598]],[[140.554873,36.313422],[140.557687,36.313267],[140.559104,36.313289],[140.554873,36.313422]],[[140.552501,36.314304],[140.553918,36.313598],[140.554873,36.313422],[140.552501,36.314304]],[[140.5510722541922,36.31660794611936],[140.55201,36.314856],[140.552501,36.314304],[140.5510722541922,36.31660794611936]],[[140.542102,36.315888],[140.5419324934358,36.316359624339384],[140.541943,36.315716],[140.542102,36.315888]],[[140.538557,36.314479],[140.540712,36.314813],[140.541943,36.315716],[140.538557,36.314479]],[[140.537466,36.311517],[140.538175,36.312597],[140.538557,36.314479],[140.537466,36.311517]],[[140.5367714641245,36.31112547061507],[140.537112,36.311252],[140.537466,36.311517],[140.5367714641245,36.31112547061507]],[[140.5337,36.309394],[140.534818,36.309967],[140.53550128324758,36.31040943397096],[140.5337,36.309394]],[[140.530701,36.306455],[140.532337,36.307871],[140.5325581777004,36.308275021761055],[140.530701,36.306455]],[[140.530027,36.305007],[140.530865,36.305197],[140.527731,36.304535],[140.530027,36.305007]],[[140.52305842142715,36.30542082626749],[140.52286751137848,36.30549855903744],[140.522896,36.305396],[140.52305842142715,36.30542082626749]],[[140.521992,36.305682],[140.52226675009297,36.305743170775415],[140.52194828118957,36.30587284163443],[140.521992,36.305682]],[[140.520001,36.305855],[140.52013720513463,36.30610871516594],[140.51973572241369,36.305812244638105],[140.520001,36.305855]],[[140.5176793087574,36.30429370844636],[140.518665,36.30409],[140.51929994538875,36.30549044985627],[140.5176793087574,36.30429370844636]],[[140.51662555146893,36.30351557289228],[140.51711,36.303426],[140.517101059946,36.30386670693075],[140.51662555146893,36.30351557289228]],[[140.514929,36.302212],[140.51605300007472,36.303092778572136],[140.51450703011707,36.30195117395145],[140.514929,36.302212]],[[140.514412,36.301881],[140.51379342897002,36.301773193976906],[140.514182,36.301822],[140.514412,36.301881]],[[140.51154549090074,36.301381418009946],[140.510998,36.301286],[140.511461,36.30133],[140.51154549090074,36.301381418009946]],[[140.50910629848502,36.301496255425725],[140.509716,36.301396],[140.510998,36.301286],[140.50910629848502,36.301496255425725]],[[140.507458,36.300725],[140.507831,36.301638],[140.506927,36.300725],[140.507458,36.300725]],[[140.5027496143176,36.30212037734021],[140.503907,36.301369],[140.506927,36.300725],[140.5027496143176,36.30212037734021]],[[140.495229,36.311911],[140.496463,36.308173],[140.49670951076502,36.307764643297794],[140.495229,36.311911]],[[140.493074,36.314007],[140.493494,36.313151],[140.49514961041854,36.31198821603839],[140.493074,36.314007]],[[140.49258,36.316724],[140.49287228898666,36.315379317211224],[140.492601,36.317225],[140.49258,36.316724]],[[140.4903088826382,36.32039986032977],[140.489941,36.320451],[140.490246,36.320392],[140.4903088826382,36.32039986032977]],[[140.479093,36.320724],[140.481458,36.319891],[140.482149,36.321157],[140.479093,36.320724]],[[140.475296,36.316542],[140.475633,36.317975],[140.4750848472429,36.31892915445242],[140.475296,36.316542]],[[140.47238650175407,36.31546449230975],[140.473024,36.315454],[140.475296,36.316542],[140.47238650175407,36.31546449230975]],[[140.471514,36.315135],[140.47160292927114,36.315174302969574],[140.471459,36.315121],[140.471514,36.315135]],[[140.46866861889583,36.3150117142675],[140.467578,36.314969],[140.468596,36.315003],[140.46866861889583,36.3150117142675]],[[140.46728097110025,36.31513611656528],[140.467368,36.315012],[140.467578,36.314969],[140.46728097110025,36.31513611656528]],[[140.4650030041083,36.31925208381588],[140.464993,36.317643],[140.465614,36.316074],[140.4650030041083,36.31925208381588]],[[140.4617655273263,36.3215100038919],[140.461177,36.321867],[140.461631,36.321541],[140.4617655273263,36.3215100038919]],[[140.457519,36.31742],[140.459671,36.318193],[140.460011,36.318699],[140.457519,36.31742]],[[140.45613615286445,36.31757299305915],[140.455413,36.317653],[140.45604,36.317569],[140.45613615286445,36.31757299305915]],[[140.4552768620392,36.31779194322787],[140.455308,36.317738],[140.455413,36.317653],[140.4552768620392,36.31779194322787]],[[140.451253,36.317675],[140.452683,36.318307],[140.453763,36.319337],[140.451253,36.317675]],[[140.44278,36.315939],[140.442756,36.316477],[140.44274125734253,36.31652544016022],[140.44278,36.315939]],[[140.439402,36.316052],[140.441408,36.315904],[140.44249533742217,36.31594852246042],[140.439402,36.316052]],[[140.43719092012753,36.316542282928246],[140.437206,36.316356],[140.439402,36.316052],[140.43719092012753,36.316542282928246]],[[140.434802,36.317072],[140.436193,36.316343],[140.43710417232074,36.31656151831149],[140.434802,36.317072]],[[140.43169349108572,36.316599754639796],[140.433762,36.316766],[140.434802,36.317072],[140.43169349108572,36.316599754639796]],[[140.43050520760067,36.31641923035053],[140.430089,36.316356],[140.430308,36.316379],[140.43050520760067,36.31641923035053]],[[140.42956327860185,36.31645481981168],[140.429807,36.316374],[140.430089,36.316356],[140.42956327860185,36.31645481981168]],[[140.428626,36.316631],[140.42832100883655,36.31653208394699],[140.428391,36.316543],[140.428626,36.316631]],[[140.42568127971185,36.31567595558223],[140.426375,36.315745],[140.42711718504032,36.31614165460768],[140.42568127971185,36.31567595558223]],[[140.42359997363906,36.31836498185426],[140.423886,36.317252],[140.425074,36.315479],[140.42359997363906,36.31836498185426]],[[140.422738,36.319859],[140.42300551645576,36.3195288637831],[140.422723,36.320082],[140.422738,36.319859]],[[140.42357195137308,36.321488219634226],[140.423089,36.32109],[140.42302625866606,36.32058432357703],[140.42357195137308,36.321488219634226]],[[140.4215740254583,36.32478710121322],[140.42136747457573,36.32505027118712],[140.421563,36.324794],[140.4215740254583,36.32478710121322]],[[140.41964442385603,36.32724563925969],[140.420146,36.326216],[140.42113280636713,36.32534926592184],[140.41964442385603,36.32724563925969]],[[140.419071,36.327878],[140.41940497119705,36.32755072994355],[140.418988,36.328082],[140.419071,36.327878]],[[140.418811,36.329],[140.418952872246,36.32887889009722],[140.41894331895543,36.32909561111618],[140.418811,36.329]],[[140.4188811336298,36.330506315317585],[140.418851,36.329884],[140.41891500240055,36.329737985865414],[140.4188811336298,36.330506315317585]],[[140.4176410590163,36.33192669697307],[140.41747228261667,36.332069080050395],[140.417506,36.332003],[140.4176410590163,36.33192669697307]],[[140.41463448048958,36.33446310552152],[140.415476,36.333513],[140.41598376670052,36.333324821239465],[140.41463448048958,36.33446310552152]],[[140.414311,36.334736],[140.41296024639047,36.334889399769175],[140.413133,36.33479],[140.414311,36.334736]],[[140.40971,36.338886],[140.411126,36.335479],[140.412048,36.334993],[140.40971,36.338886]],[[140.40995365848624,36.33971942758105],[140.409769,36.339385],[140.40971,36.338886],[140.40995365848624,36.33971942758105]],[[140.411439,36.3448],[140.410396,36.343637],[140.41012832265247,36.34031686186625],[140.411439,36.3448]],[[140.407413,36.345507],[140.40820672216634,36.34537840761234],[140.406974,36.345599],[140.407413,36.345507]],[[140.406462,36.343515],[140.406644,36.344189],[140.406974,36.345599],[140.406462,36.343515]],[[140.403742,36.339357],[140.40485,36.340523],[140.406462,36.343515],[140.403742,36.339357]],[[140.40403943899076,36.33864493217219],[140.404275,36.338081],[140.404195,36.338324],[140.40403943899076,36.33864493217219]],[[140.40414503808972,36.33763982143181],[140.404243,36.337937],[140.404275,36.338081],[140.40414503808972,36.33763982143181]],[[140.402659,36.334122],[140.40292930209716,36.33453154260649],[140.40251004932063,36.33399499994706],[140.402659,36.334122]],[[140.40241996995707,36.33387972003959],[140.40234263053796,36.333780744195124],[140.402378,36.333811],[140.40241996995707,36.33387972003959]],[[140.402293,36.331566],[140.402215,36.331924],[140.401084,36.33217],[140.402293,36.331566]],[[140.39688624378977,36.33128254763237],[140.397709,36.330544],[140.39799623003046,36.33060384311886],[140.39688624378977,36.33128254763237]],[[140.394137,36.332154],[140.394537,36.332719],[140.3938564452431,36.33185128721248],[140.394137,36.332154]],[[140.39190291426826,36.3293605195109],[140.393289,36.330986],[140.3932865668821,36.33112468771973],[140.39190291426826,36.3293605195109]],[[140.391636,36.328922],[140.39176503031334,36.32918471635964],[140.391428,36.328755],[140.391636,36.328922]],[[140.38993107866165,36.32819430046533],[140.38969,36.328104],[140.38986,36.328164],[140.38993107866165,36.32819430046533]],[[140.38940290706535,36.32821291256607],[140.389533,36.328102],[140.38969,36.328104],[140.38940290706535,36.32821291256607]],[[140.38878525565508,36.32844722693578],[140.388903,36.328307],[140.38921067891596,36.32828583689996],[140.38878525565508,36.32844722693578]],[[140.385667,36.325884],[140.38637,36.326367],[140.38736917499412,36.32831134255785],[140.385667,36.325884]],[[140.387631,36.323469],[140.38762062935737,36.3232478280768],[140.387651,36.323396],[140.387631,36.323469]],[[140.387537086587,36.32146613374655],[140.387776,36.321874],[140.38758003796949,36.322382146398624],[140.387537086587,36.32146613374655]],[[140.391513,36.318244],[140.390903,36.318682],[140.39166924546552,36.31809260687812],[140.391513,36.318244]],[[140.395644,36.314582],[140.395649,36.315802],[140.395132,36.316578],[140.395644,36.314582]],[[140.3947159956183,36.313912086802326],[140.395291,36.3141],[140.395644,36.314582],[140.3947159956183,36.313912086802326]],[[140.393461,36.312992],[140.3941560488756,36.31350786919264],[140.393332,36.312913],[140.393461,36.312992]],[[140.390854,36.312482],[140.392229,36.312662],[140.393332,36.312913],[140.390854,36.312482]],[[140.3900322199599,36.31260493748287],[140.390023,36.312486],[140.390854,36.312482],[140.3900322199599,36.31260493748287]],[[140.3861246105241,36.31318951199747],[140.386885,36.31295],[140.38862733107115,36.31281510747394],[140.3861246105241,36.31318951199747]],[[140.38036068253294,36.313105526942714],[140.382136,36.313055],[140.38437,36.313452],[140.38036068253294,36.313105526942714]],[[140.375979,36.312201],[140.378993,36.312808],[140.379938,36.313069],[140.375979,36.312201]],[[140.373286,36.312422],[140.375075,36.31216],[140.375979,36.312201],[140.373286,36.312422]],[[140.37109447929203,36.31389159790523],[140.371983,36.313077],[140.373286,36.312422],[140.37109447929203,36.31389159790523]],[[140.36857,36.311451],[140.369423,36.313141],[140.368325,36.311362],[140.36857,36.311451]],[[140.3677280364926,36.311577369730614],[140.367795,36.311458],[140.368325,36.311362],[140.3677280364926,36.311577369730614]],[[140.36639767826856,36.3120573302119],[140.366864,36.311581],[140.36756414709328,36.31163649698939],[140.36639767826856,36.3120573302119]],[[140.364891,36.312508],[140.36523915234514,36.31247529783124],[140.36478950524034,36.312637519432116],[140.364891,36.312508]],[[140.360966,36.310991],[140.362616,36.31172],[140.36394,36.312944],[140.360966,36.310991]],[[140.3605337404203,36.31038673595814],[140.3605094386517,36.31035276404496],[140.360525,36.310371],[140.3605337404203,36.31038673595814]],[[140.359773,36.30929],[140.36007967386018,36.309751987515845],[140.359428,36.308841],[140.359773,36.30929]],[[140.356783,36.307072],[140.358147,36.307699],[140.359428,36.308841],[140.356783,36.307072]],[[140.358654,36.303706],[140.35833303221148,36.30418639104306],[140.358814,36.303291],[140.358654,36.303706]],[[140.35921,36.300605],[140.359109,36.301919],[140.358814,36.303291],[140.35921,36.300605]],[[140.357964,36.29804],[140.358916,36.29909],[140.35890736250312,36.299981994237946],[140.357964,36.29804]],[[140.35702346662825,36.29784380699222],[140.357779,36.297972],[140.357964,36.29804],[140.35702346662825,36.29784380699222]],[[140.35474,36.293585],[140.355085,36.296838],[140.355126,36.297448],[140.35474,36.293585]],[[140.3550095222939,36.293090123539294],[140.355576,36.29205],[140.355407,36.292498],[140.3550095222939,36.293090123539294]],[[140.353498,36.288677],[140.354541,36.289808],[140.355576,36.29205],[140.353498,36.288677]],[[140.35328341419407,36.28783264200193],[140.3532229458254,36.28759470943924],[140.353299,36.287778],[140.35328341419407,36.28783264200193]],[[140.352516,36.284813],[140.35240367630826,36.28456572184696],[140.352424,36.284596],[140.352516,36.284813]],[[140.35118067388981,36.281873308746476],[140.351649,36.282682],[140.35170519080185,36.28302802126717],[140.35118067388981,36.281873308746476]],[[140.3496621201573,36.278530245886124],[140.35096,36.280868],[140.35093619866447,36.281335101879925],[140.3496621201573,36.278530245886124]],[[140.34656,36.274583],[140.34690705861829,36.27500640008198],[140.3464807594436,36.27450179480171],[140.34656,36.274583]],[[140.34458470287672,36.272257455116865],[140.34458116659079,36.27225326925714],[140.344582,36.272254],[140.34458470287672,36.272257455116865]],[[140.4118019566938,36.46379424679607],[140.411835,36.463337],[140.412153,36.462864],[140.4118019566938,36.46379424679607]],[[140.40861951839318,36.468717574794894],[140.407994,36.466182],[140.407951,36.465453],[140.40861951839318,36.468717574794894]],[[140.39724635726802,36.4848149172825],[140.397588,36.484998],[140.400413,36.487063],[140.39724635726802,36.4848149172825]],[[140.389658,36.483582],[140.393578,36.482539],[140.394449,36.482829],[140.389658,36.483582]],[[140.386841,36.485083],[140.387077,36.484714],[140.389658,36.483582],[140.386841,36.485083]],[[140.39012771678932,36.48634951670516],[140.38859,36.485772],[140.386841,36.485083],[140.39012771678932,36.48634951670516]]]}}]}