{"type": "FeatureCollection", "features": [{"type": "Feature", "properties": {"slug": "mitrovice", "members": 2, "country": "Kosovo", "input_hash": "877778c79e076061"}, "geometry": {"type": "Polygon", "coordinates": [[[20.843917, 42.9098206], [20.8819052, 42.8986768], [20.875328, 42.878], [20.8949027, 42.8618802], [20.8557805, 42.8684496], [20.8588812, 42.8758485], [20.8462553, 42.882817], [20.85518, 42.8883444], [20.843917, 42.9098206]], [[20.8717012, 42.8930367], [20.8728458, 42.9009256], [20.871226353918445, 42.89290652950882], [20.8717012, 42.8930367]]]}}]}