{"type": "FeatureCollection", "features": [{"type": "Feature", "properties": {"slug": "modria", "members": 1, "country": "Bosnia-Herzegovina", "input_hash": "98f4aa39adc91fc9"}, "geometry": {"type": "Polygon", "coordinates": [[[18.3773728, 45.0151765], [18.315091, 44.9697845], [18.2900714, 44.9767187], [18.2699685, 44.9706601], [18.2299583, 44.9897304], [18.2047578, 44.9906271], [18.1986533, 45.0020575], [18.1274231, 45.0029935], [18.1414964, 44.9751423], [18.1325884, 44.9714048], [18.1391726, 44.9341632], [18.118155, 44.9221019], [18.1241461, 44.8886159], [18.1370972, 44.8881417], [18.149373, 44.8705482], [18.1844824, 44.8551839], [18.2312225, 44.855139], [18.2683854, 44.8316187], [18.3372583, 44.8310702], [18.3284482, 44.8401433], [18.3321579, 44.8606107], [18.3551473, 44.8691386], [18.3715575, 44.8919014], [18.3877358, 44.8958548], [18.4048846, 44.916189], [18.4000137, 44.9269595], [18.4188049, 44.9256716], [18.4157474, 44.9379537], [18.4395437, 44.9375586], [18.4140481, 44.9482056], [18.4119658, 44.9659867], [18.4456463, 44.9730528], [18.446182, 44.9854066], [18.4042614, 44.9937622], [18.410716, 45.0130519], [18.4004731, 45.0186553], [18.3912053, 45.0075375], [18.3773728, 45.0151765]]]}}]}