{"type":"FeatureCollection","features":[{"type":"Feature","properties":{"slug":"mogi-guacu","member_count":1,"matched_count":1,"unmatched":[],"source":"Overture Maps division_area (CC-BY 4.0)"},"geometry":{"type":"Polygon","coordinates":[[[-46.9125911,-22.215932],[-46.8974625,-22.2036145],[-46.8999903,-22.1759628],[-46.8826845,-22.166036],[-46.8836071,-22.1528002],[-46.8652842,-22.1323291],[-46.8663689,-22.1185235],[-46.8763785,-22.1122004],[-46.893,-22.13],[-46.922,-22.131],[-46.945,-22.147],[-46.979,-22.126],[-46.993,-22.127],[-47.02,-22.113],[-47.039,-22.117],[-47.088,-22.084],[-47.101,-22.066],[-47.129,-22.085],[-47.139,-22.112],[-47.166,-22.092],[-47.197502,-22.0980332],[-47.199,-22.145],[-47.1905381,-22.1729441],[-47.204,-22.204],[-47.235066,-22.2120178],[-47.2426446,-22.2216944],[-47.240181,-22.2310872],[-47.2333279,-22.2189481],[-47.2185329,-22.2302853],[-47.231276,-22.2438459],[-47.2304338,-22.2561814],[-47.2057688,-22.2817869],[-47.1926022,-22.280667],[-47.1889593,-22.270666],[-47.1839636,-22.273932],[-47.1876857,-22.2800455],[-47.1780899,-22.2954831],[-47.1679722,-22.2832728],[-47.1547367,-22.2975529],[-47.1301986,-22.2993623],[-47.120899,-22.2897983],[-47.0739863,-22.3064214],[-47.0552767,-22.301446],[-47.0320306,-22.306929],[-47.0287214,-22.3229298],[-47.0219813,-22.3155485],[-47.0135823,-22.3236685],[-47.0164718,-22.3359308],[-46.9908536,-22.3756744],[-46.9691384,-22.3779364],[-46.9447181,-22.4014845],[-46.904469,-22.3736208],[-46.8983388,-22.3823362],[-46.8906248,-22.3766169],[-46.8709695,-22.3883926],[-46.876246,-22.3778339],[-46.8502387,-22.3541185],[-46.855142,-22.3479736],[-46.8426988,-22.3494809],[-46.8431317,-22.3401407],[-46.8243374,-22.3356958],[-46.8160698,-22.3226269],[-46.8205008,-22.3187933],[-46.806564,-22.3164386],[-46.7905566,-22.2997384],[-46.7964578,-22.2804595],[-46.8196213,-22.2768408],[-46.8233335,-22.265428],[-46.8669757,-22.2589616],[-46.8989397,-22.2452014],[-46.9563149,-22.2949267],[-46.9694967,-22.2950025],[-46.9841954,-22.1993426],[-46.9594717,-22.198094],[-46.9508779,-22.1836199],[-46.93,-22.183],[-46.9141931,-22.1998742],[-46.9125911,-22.215932]]]}}]}