{"type": "FeatureCollection", "features": [{"type": "Feature", "properties": {"slug": "moncton", "members": 5, "country": "Canada"}, "geometry": {"type": "Polygon", "coordinates": [[[-64.6945789, 46.0276392], [-64.7030469, 46.0054564], [-64.6925136, 45.9935068], [-65.0352734, 45.9243018], [-65.0299286, 46.0263765], [-65.1211809, 46.2642753], [-64.7657181, 46.2730704], [-64.636571, 46.1582498], [-64.58393, 46.1527446], [-64.5880401, 46.11505], [-64.5687268, 46.0980346], [-64.554263, 46.0972696], [-64.5592058, 46.0897342], [-64.5531072, 46.0843524], [-64.6679608, 46.0610736], [-64.6613143, 46.0445017], [-64.6761172, 46.0414653], [-64.6709108, 46.0297494], [-64.6945789, 46.0276392]]]}}]}