{"type": "FeatureCollection", "features": [{"type": "Feature", "properties": {"slug": "monroe", "members": 4, "country": "United States", "input_hash": "6b3c70a3cfe6f4e4"}, "geometry": {"type": "Polygon", "coordinates": [[[-92.152107, 32.263741], [-92.16523, 32.276882], [-92.312126, 32.27729], [-92.312027, 32.320583], [-92.415543, 32.407738], [-92.4151846, 32.670264], [-92.415459, 32.49522], [-92.6222201, 32.4963099], [-92.6215499, 32.4529489], [-92.879509, 32.454075], [-92.88074, 32.600808], [-92.866528, 32.607282], [-92.860264, 32.641534], [-92.868775, 32.678001], [-92.8456391, 32.7050205], [-92.8284198, 32.7111909], [-92.827976, 32.759432], [-92.6344061, 32.7583876], [-92.725407, 32.759443], [-92.7254532, 32.8033224], [-92.734055, 32.8033585], [-92.7340413, 32.8181752], [-92.7254698, 32.8181439], [-92.7247876, 33.0143985], [-91.4359932, 33.0060973], [-91.437449, 32.9800489], [-91.4757542, 32.9433213], [-91.4754076, 32.9274553], [-91.4982837, 32.9053939], [-91.4952796, 32.8901518], [-91.5126818, 32.8782769], [-91.5456815, 32.8743799], [-91.5673323, 32.8546261], [-91.5727182, 32.8258717], [-91.605076, 32.783668], [-91.5957955, 32.7716094], [-91.5966216, 32.7498539], [-91.6393868, 32.702938], [-91.6235296, 32.6956249], [-91.6219202, 32.6806719], [-91.6378847, 32.66848], [-91.6376702, 32.6576414], [-91.6627113, 32.6190092], [-91.6720668, 32.6110747], [-91.7062682, 32.6131], [-91.7195956, 32.6054532], [-91.7390577, 32.578082], [-91.7346159, 32.5711927], [-91.7420188, 32.5588594], [-91.7694525, 32.554205], [-91.7976371, 32.570398], [-91.8071536, 32.5676059], [-91.8389398, 32.5397586], [-91.8395927, 32.5182163], [-91.8662115, 32.522128], [-91.881772, 32.5414879], [-91.894951, 32.539219], [-91.9009088, 32.5133822], [-91.9330171, 32.4918885], [-91.953667, 32.440598], [-91.985542, 32.412674], [-92.006508, 32.379322], [-92.011635, 32.333275], [-92.034592, 32.277115], [-92.107773, 32.27766], [-92.107666, 32.263077], [-92.152107, 32.263741]], [[-92.0668464427201, 33.00155639833645], [-92.0664338, 33.0019255], [-92.0687417, 33.0080207], [-92.0668464427201, 33.00155639833645]], [[-92.06704987116434, 32.722122144058595], [-92.0683395, 32.7213663], [-92.06948656322821, 32.719390383986564], [-92.06704987116434, 32.722122144058595]], [[-92.05489540529565, 32.72072610481047], [-92.0656423, 32.7228497], [-92.06038649799498, 32.726027508827954], [-92.06674332681297, 32.722301807943495], [-92.05489540529565, 32.72072610481047]], [[-92.049071, 32.7175475], [-92.0478529, 32.7193345], [-92.0481387420405, 32.71939098262116], [-92.049071, 32.7175475]], [[-91.92255345366256, 32.66741120171378], [-91.9228435, 32.6675762], [-91.9301391, 32.6663976], [-91.92255345366256, 32.66741120171378]], [[-91.91080327894494, 32.659567239323025], [-91.9112134, 32.6609602], [-91.91931824707989, 32.665570793914114], [-91.91080327894494, 32.659567239323025]], [[-91.90963088991128, 32.65354579383334], [-91.9093252, 32.654547], [-91.90981720125544, 32.656218063685735], [-91.90963088991128, 32.65354579383334]], [[-91.91168925686193, 32.64986115130809], [-91.9103803, 32.6510913], [-91.91018738250848, 32.651723150038315], [-91.91168925686193, 32.64986115130809]], [[-91.91374185948477, 32.6490310813427], [-91.9129232, 32.6487015], [-91.91277512568458, 32.648840659227254], [-91.91374185948477, 32.6490310813427]], [[-91.9179826, 32.6498664], [-91.91836554559548, 32.64958379204949], [-91.91744904758964, 32.64976130366566], [-91.9179826, 32.6498664]], [[-91.92459720646349, 32.5823469121835], [-91.9249767, 32.582882], [-91.9278615, 32.5838672], [-91.92459720646349, 32.5823469121835]], [[-91.9224952, 32.5765886], [-91.9228138, 32.5798323], [-91.92373092591815, 32.58112545220888], [-91.9224952, 32.5765886]], [[-91.90340318641533, 32.520097835089274], [-91.9033005, 32.5202495], [-91.9050245, 32.5288871], [-91.90340318641533, 32.520097835089274]], [[-92.0833711, 32.8847713], [-92.08391576582903, 32.88271991424648], [-92.0771808, 32.8933116], [-92.0833711, 32.8847713]], [[-92.0848034, 32.8793768], [-92.08446226357506, 32.87859422072537], [-92.08466591565139, 32.879894610038825], [-92.0848034, 32.8793768]], [[-92.05797336167932, 32.84435358397304], [-92.05663189036514, 32.84211914156009], [-92.0571911, 32.8438291], [-92.05797336167932, 32.84435358397304]], [[-92.0560626231746, 32.84037842899661], [-92.05651137853724, 32.83775883774426], [-92.0556603, 32.8391482], [-92.0560626231746, 32.84037842899661]], [[-92.0575924, 32.8359941], [-92.0651921, 32.8354951], [-92.06558224031298, 32.834919632640585], [-92.0575924, 32.8359941]], [[-92.0607041, 32.749654], [-92.0602353265491, 32.74930034138752], [-92.06079310596137, 32.750105729958754], [-92.0607041, 32.749654]], [[-92.0555358381285, 32.745754887712465], [-92.0530055937282, 32.74384598540121], [-92.0531216, 32.7444913], [-92.0555358381285, 32.745754887712465]], [[-92.05244209315536, 32.74071136913924], [-92.05259355630189, 32.73798937241986], [-92.0520723, 32.7386543], [-92.05244209315536, 32.74071136913924]], [[-92.069428, 32.7342148], [-92.06924452386463, 32.7338565895379], [-92.06889493566092, 32.734372866534656], [-92.069428, 32.7342148]], [[-92.0626634, 32.7322271], [-92.0683471, 32.7321045], [-92.06183194466294, 32.73143023160459], [-92.0626634, 32.7322271]]]}}]}