{"type":"FeatureCollection","features":[{"type":"Feature","properties":{"slug":"monterey","member_count":1,"matched_count":1,"unmatched":[],"source":"Overture Maps division_area (CC-BY 4.0)"},"geometry":{"type":"Polygon","coordinates":[[[-121.8087902,36.8533514],[-122.0608667,36.85],[-122.001124,36.647704],[-122.040733,36.60012],[-122.04405,36.578249],[-122.017455,36.537405],[-122.021998,36.508908],[-121.970391,36.383368],[-121.961887,36.293324],[-121.9325833,36.25],[-121.901164,36.239653],[-121.880193,36.210314],[-121.770693,36.162014],[-121.7144833,36.12],[-121.708718,36.1026],[-121.6870333,36.0866667],[-121.6609,36.0441667],[-121.64818,35.998617],[-121.631818,35.978945],[-121.561461,35.943818],[-121.519192,35.8634],[-121.438176,35.796655],[-120.2139463,35.7890391],[-120.2197623,35.818691],[-120.2448848,35.8240381],[-120.2592772,35.8451334],[-120.240196,35.8658648],[-120.243356,35.8778524],[-120.2760132,35.905955],[-120.323325,35.9079421],[-120.3368673,35.9235952],[-120.3361901,35.9372797],[-120.3566599,35.9481497],[-120.360097,35.964174],[-120.4089367,35.9758755],[-120.4348929,35.9694625],[-120.4497547,35.9884843],[-120.4776207,36.0007735],[-120.4806238,36.0114024],[-120.517675,36.027652],[-120.5201055,36.0209199],[-120.5284045,36.0235722],[-120.5270683,36.0357848],[-120.5404543,36.0367365],[-120.5455245,36.04621],[-120.5881664,36.0667959],[-120.5960314,36.078532],[-120.5896944,36.0896961],[-120.6001807,36.1016065],[-120.6145744,36.0951703],[-120.6467117,36.1056003],[-120.6458784,36.1165061],[-120.6675123,36.1379815],[-120.6721484,36.1640018],[-120.6631891,36.1711728],[-120.6500635,36.1680738],[-120.6391773,36.1965896],[-120.626677,36.2033316],[-120.651401,36.2308114],[-120.6798752,36.24682],[-120.6746671,36.2615093],[-120.7021166,36.2861047],[-120.7463906,36.3100395],[-120.7584746,36.3086561],[-120.7177079,36.2600447],[-120.7072379,36.2317128],[-120.7057625,36.2039382],[-120.7180026,36.1967681],[-120.7319616,36.2040086],[-120.7610959,36.2032447],[-120.7893097,36.2349778],[-120.8369333,36.262381],[-120.8368467,36.2718911],[-120.8515696,36.285898],[-120.8741574,36.2952122],[-120.889835,36.2904763],[-120.9191771,36.3109455],[-120.9530677,36.2748652],[-120.98576,36.2929644],[-120.9925314,36.2698876],[-121.0149286,36.2686756],[-121.0271685,36.2598574],[-121.0272036,36.274995],[-121.040416,36.2710368],[-121.0408852,36.3240087],[-121.1952008,36.4472568],[-121.2150635,36.4732822],[-121.2293345,36.4752079],[-121.2395093,36.5046611],[-121.3107282,36.5011548],[-121.2955541,36.5272914],[-121.332084,36.5620456],[-121.3343236,36.5746671],[-121.3236116,36.5775681],[-121.3184206,36.6101185],[-121.3424319,36.6394756],[-121.3663229,36.656601],[-121.4066373,36.6560027],[-121.4156828,36.6731892],[-121.4314132,36.6788241],[-121.4448338,36.6732244],[-121.4690022,36.6856124],[-121.4846453,36.7131635],[-121.4529773,36.7213327],[-121.4625262,36.7438495],[-121.4757215,36.7492138],[-121.4817113,36.7656098],[-121.5041114,36.7572144],[-121.5976354,36.8372462],[-121.6220112,36.8461352],[-121.6425439,36.8736645],[-121.6445741,36.9022659],[-121.6527209,36.903029],[-121.6545525,36.9133486],[-121.6811398,36.903575],[-121.7068438,36.9089224],[-121.7007179,36.9193564],[-121.7139143,36.9106882],[-121.7456564,36.909585],[-121.7684902,36.8853958],[-121.7939703,36.879793],[-121.8087902,36.8533514]]]}}]}