{"type": "FeatureCollection", "features": [{"type": "Feature", "properties": {"slug": "monthey", "members": 9, "country": "Switzerland", "input_hash": "f42c4e4d14129caf"}, "geometry": {"type": "Polygon", "coordinates": [[[6.977363109519956, 46.23620605486559], [6.948816776073386, 46.20869064305879], [6.951866149603177, 46.17464065564178], [6.890532016439465, 46.14347839311341], [6.821884154829945, 46.13294982937117], [6.803202152157667, 46.139923096074085], [6.797961235122955, 46.165550231957695], [6.819441794902957, 46.18500137351464], [6.810001849705657, 46.20679473908598], [6.827499866125947, 46.22584152206866], [6.826121807075765, 46.233379364266284], [6.859630107643397, 46.25638580286255], [6.869059085608342, 46.28486633291499], [6.862703800639963, 46.29329681429658], [6.850852974642015, 46.29026648176374], [6.831572532346513, 46.30044174179301], [6.774669191676785, 46.34730039465916], [6.771322805544107, 46.36016809113471], [6.8054372, 46.3784102], [6.801918161078734, 46.38848319250191], [6.826391219679067, 46.426971435283576], [6.886424064419089, 46.37826919576685], [6.883986950237613, 46.35466766318217], [6.90102100371638, 46.34152603110152], [6.92919015879886, 46.33465957597872], [6.936643123881083, 46.300117493027926], [6.960836887012761, 46.28745269768393], [6.96580505406007, 46.27177429214993], [6.980663776112408, 46.25998306316791], [6.977363109519956, 46.23620605486559]]]}}]}