{"type": "FeatureCollection", "features": [{"type": "Feature", "properties": {"slug": "montpellier", "members": 67, "country": "France", "input_hash": "c7a0a101fd480c1a"}, "geometry": {"type": "Polygon", "coordinates": [[[3.8409693, 43.6681847], [3.8629351, 43.6761764], [3.8544882, 43.690424], [3.8570121, 43.7101959], [3.8457035, 43.7225427], [3.8662902, 43.7338236], [3.8754875, 43.7239407], [3.8679112, 43.7044015], [3.8818818, 43.6976087], [3.8885984, 43.6754064], [3.9493642, 43.6692925], [3.9406029, 43.6939799], [3.950572, 43.6965499], [3.9390299, 43.7085483], [3.9490864, 43.740438], [3.9377285, 43.738467], [3.9009459, 43.7507568], [3.9208877, 43.745685], [3.9387026, 43.7579294], [3.9672417, 43.757592], [3.9856072, 43.7670179], [4.0000009, 43.7568839], [3.9872383, 43.752254], [3.9953076, 43.7514455], [4.0031913, 43.7342114], [4.037527, 43.7484004], [4.0333007, 43.7626175], [4.0114691, 43.7614231], [4.0057734, 43.7766405], [3.9749164, 43.7855138], [3.9744558, 43.8014415], [4.0009632, 43.812984], [4.0492567, 43.7894763], [4.0536787, 43.7722769], [4.0931135, 43.7630224], [4.0926229, 43.7533381], [4.1147289, 43.7373544], [4.1427389, 43.7372216], [4.1666203, 43.6993335], [4.1630277, 43.6871379], [4.1946047, 43.6538705], [4.1937639, 43.6419247], [4.1688173, 43.6092667], [4.1495068, 43.5978613], [4.1502375, 43.5854804], [4.09852, 43.5851384], [4.0851966, 43.5920372], [4.0760703, 43.5891496], [4.1093874, 43.5684943], [4.0991655, 43.5528786], [4.0115471, 43.5528294], [3.9081647, 43.5175163], [3.8458814, 43.4830163], [3.7965135, 43.4404175], [3.7324992, 43.414067], [3.7256575, 43.404952], [3.7313773, 43.3986906], [3.6546854, 43.3898651], [3.5394075, 43.3023828], [3.5308744, 43.3156161], [3.5213103, 43.3150395], [3.5253837, 43.329476], [3.5114982, 43.3306833], [3.492829, 43.3527576], [3.5013179, 43.3700974], [3.5298583, 43.3880178], [3.5274583, 43.3956407], [3.5519642, 43.4034978], [3.5255757, 43.4300173], [3.5371191, 43.4351017], [3.5336825, 43.4462318], [3.5419917, 43.4597502], [3.5679615, 43.4752879], [3.5484081, 43.4943201], [3.5560032, 43.49744], [3.5507258, 43.5023462], [3.5576985, 43.5154851], [3.5800173, 43.528591], [3.6317722, 43.5321606], [3.6410767, 43.5404719], [3.6399503, 43.5533384], [3.6702514, 43.582173], [3.6710254, 43.5974606], [3.6949777, 43.6106343], [3.6981492, 43.6015774], [3.713986, 43.5987653], [3.7196724, 43.607883], [3.7118723, 43.6179437], [3.7351561, 43.620073], [3.7492117, 43.6360669], [3.7401761, 43.6449713], [3.7707212, 43.6621956], [3.7870376, 43.6665542], [3.8005277, 43.6590387], [3.8274061, 43.666718], [3.841208, 43.6476587], [3.8546754, 43.6510617], [3.8409693, 43.6681847]]]}}]}