{"type": "FeatureCollection", "features": [{"type": "Feature", "properties": {"slug": "moradabad", "members": 1, "country": "India", "input_hash": "7630b9f35c48cc10"}, "geometry": {"type": "Polygon", "coordinates": [[[78.6440333, 28.806646], [78.6814973, 28.762047], [78.6778547, 28.7473218], [78.6647164, 28.7459672], [78.6626795, 28.6953517], [78.6428997, 28.6687124], [78.6523656, 28.6703841], [78.6490982, 28.6629145], [78.6650796, 28.6561465], [78.6702174, 28.6441431], [78.6923558, 28.6423435], [78.6964789, 28.6264264], [78.6889762, 28.614313], [78.717463, 28.5978251], [78.7099212, 28.5854094], [78.7157803, 28.5740149], [78.6970062, 28.5796185], [78.6902393, 28.5649228], [78.6949908, 28.5602681], [78.6729167, 28.5456407], [78.6791784, 28.5382045], [78.6685717, 28.5296965], [78.6986374, 28.5153264], [78.7127075, 28.5001351], [78.7067486, 28.4932562], [78.7577862, 28.5281868], [78.7681335, 28.5278725], [78.7763735, 28.5426275], [78.7847331, 28.5382171], [78.7949775, 28.5471245], [78.813049, 28.5222717], [78.8343261, 28.543122], [78.8593953, 28.5345866], [78.8646197, 28.5566616], [78.8778293, 28.5515392], [78.8777662, 28.5410116], [78.8915946, 28.5630353], [78.9030888, 28.5578098], [78.8998404, 28.5464378], [78.9174303, 28.5534794], [78.9205137, 28.5716859], [78.9362132, 28.5621225], [78.9381629, 28.5816368], [78.922155, 28.584467], [78.9253147, 28.5981145], [78.9028674, 28.610533], [78.89572, 28.6310301], [78.8596509, 28.659192], [78.8673934, 28.6715504], [78.8585029, 28.6772809], [78.8752719, 28.7004327], [78.8678526, 28.7176182], [78.8729021, 28.7236094], [78.8863386, 28.7176328], [78.8801222, 28.70083], [78.9011549, 28.6855431], [78.9258307, 28.6987906], [78.9447722, 28.6945208], [78.9599747, 28.7015816], [78.9711014, 28.7412364], [79.0010796, 28.7642212], [78.974097, 28.780655], [78.9943769, 28.7939067], [78.988346, 28.8082213], [78.9980201, 28.8146391], [78.9972876, 28.8237252], [78.9702808, 28.8248173], [78.9627457, 28.8372904], [78.9732939, 28.8492858], [78.9653948, 28.8478192], [78.9535302, 28.8633288], [78.9497141, 28.8573089], [78.9335003, 28.8638982], [78.9385996, 28.8743396], [78.9319439, 28.8856191], [78.9383, 28.8902252], [78.9177127, 28.8966321], [78.9228697, 28.9357678], [78.9340109, 28.9321708], [78.9356492, 28.9423549], [78.9337436, 28.9534074], [78.9154228, 28.9639258], [78.9257574, 28.9785073], [78.9025058, 28.9962481], [78.9345338, 29.0175627], [78.9269426, 29.0434704], [78.9364364, 29.0472257], [78.927795, 29.0583042], [78.9446672, 29.0571324], [78.9428414, 29.0738587], [78.9565814, 29.0680309], [78.9462845, 29.0780941], [78.9737529, 29.1082281], [78.9675926, 29.1204306], [78.9836982, 29.1235404], [78.9641728, 29.1305008], [78.9564453, 29.119888], [78.9346438, 29.1296432], [78.9270213, 29.1181298], [78.9063344, 29.125014], [78.9187581, 29.1355345], [78.9016671, 29.169563], [78.9087501, 29.1785618], [78.8867453, 29.1950807], [78.8906243, 29.2011769], [78.8752161, 29.2051682], [78.8832144, 29.211603], [78.8717641, 29.2225689], [78.8744801, 29.2302485], [78.8585888, 29.23299], [78.8595134, 29.2414921], [78.8495438, 29.2327129], [78.8381574, 29.2425466], [78.8194077, 29.232299], [78.7932388, 29.2445276], [78.7897543, 29.2549551], [78.7526165, 29.268161], [78.7059154, 29.2537092], [78.6888667, 29.2397139], [78.6964975, 29.2327117], [78.6741828, 29.2114955], [78.6821156, 29.2043607], [78.6702522, 29.1906986], [78.6788623, 29.1892922], [78.6955361, 29.2033238], [78.6983173, 29.192099], [78.67551, 29.1869351], [78.6540512, 29.1693593], [78.6766892, 29.133514], [78.6696109, 29.1250491], [78.6771237, 29.1219736], [78.6701716, 29.1084145], [78.6753028, 29.0978441], [78.6584873, 29.0838839], [78.674863, 29.0735801], [78.7022174, 29.0798143], [78.7037843, 29.0734207], [78.6850672, 29.0636103], [78.7022456, 29.0472108], [78.681271, 29.0281745], [78.6877916, 29.0080809], [78.6754406, 28.9963972], [78.7190057, 28.9575411], [78.683322, 28.924764], [78.7075452, 28.9105182], [78.6863527, 28.8900139], [78.6878776, 28.882029], [78.6705673, 28.8727513], [78.6694673, 28.8618091], [78.6559659, 28.8547127], [78.6589013, 28.8483434], [78.6401934, 28.8373014], [78.6329409, 28.8431047], [78.6182166, 28.8237102], [78.634955, 28.8006586], [78.6440333, 28.806646]]]}}]}