{"type":"FeatureCollection","features":[{"type":"Feature","properties":{"slug":"morelia","member_count":3,"matched_count":3,"unmatched":[],"source":"Overture Maps division_area (CC-BY 4.0)"},"geometry":{"type":"Polygon","coordinates":[[[-101.0660497,19.5737727],[-101.1069812,19.5881248],[-101.130545,19.5684602],[-101.1292166,19.5510453],[-101.1094996,19.5553355],[-101.1075473,19.5462156],[-101.1317287,19.5240677],[-101.1435865,19.5372729],[-101.1686458,19.5216984],[-101.1844867,19.4854028],[-101.1814784,19.4471606],[-101.2231167,19.4804964],[-101.2375332,19.4791888],[-101.2507355,19.4604093],[-101.2635381,19.465747],[-101.2697606,19.5010308],[-101.2582027,19.5054851],[-101.2537838,19.5222003],[-101.2678792,19.5116272],[-101.267414,19.5276977],[-101.2744932,19.5308592],[-101.2850073,19.5224608],[-101.2948498,19.5281339],[-101.2991802,19.5214415],[-101.3251435,19.543546],[-101.3483939,19.5336306],[-101.3710713,19.500666],[-101.3879449,19.4972121],[-101.3833604,19.4834628],[-101.3730929,19.484448],[-101.3936486,19.4601172],[-101.4137258,19.4678634],[-101.4171236,19.4565602],[-101.4264368,19.4547832],[-101.4296033,19.4643012],[-101.4057569,19.4886761],[-101.4098183,19.5148882],[-101.3897908,19.5146944],[-101.3840875,19.5266651],[-101.3915569,19.543982],[-101.380396,19.5482152],[-101.3895609,19.5597331],[-101.3797252,19.5612942],[-101.372523,19.5819558],[-101.3857554,19.5955384],[-101.3671648,19.6211296],[-101.4022956,19.6321554],[-101.4170654,19.6295467],[-101.4308935,19.6120838],[-101.4324828,19.6279526],[-101.4474473,19.6313376],[-101.4436105,19.6814225],[-101.4026616,19.690965],[-101.4427996,19.7262625],[-101.4578124,19.7019576],[-101.4895155,19.6887182],[-101.4957925,19.7050786],[-101.4935256,19.7421786],[-101.5089304,19.7623764],[-101.5026701,19.7982691],[-101.479393,19.7994614],[-101.4683126,19.8192562],[-101.3768773,19.8285364],[-101.3678107,19.8177584],[-101.3544613,19.824743],[-101.3597653,19.8388023],[-101.2856602,19.8622702],[-101.2436315,19.8569737],[-101.2379934,19.8628222],[-101.227894,19.8557493],[-101.2009294,19.8681605],[-101.1802667,19.8609504],[-101.1801494,19.8831989],[-101.1587169,19.8777618],[-101.1592263,19.8856999],[-101.1455615,19.8941846],[-101.1250385,19.8901705],[-101.1280381,19.8826843],[-101.1149143,19.8884826],[-101.1024991,19.876353],[-101.0916276,19.8828794],[-101.0682308,19.8716801],[-101.0696805,19.7940167],[-101.0392922,19.7832673],[-101.0038917,19.7913376],[-100.9965203,19.7425465],[-100.9409457,19.7087308],[-100.9392599,19.691156],[-100.9189846,19.659817],[-100.9167722,19.6451465],[-100.92909,19.6391357],[-100.9126374,19.6248947],[-100.9398576,19.605133],[-100.9464895,19.6101345],[-100.9540838,19.594327],[-100.9691967,19.5976528],[-100.9707248,19.5675972],[-100.9872921,19.5703022],[-100.9942133,19.5562514],[-101.01097,19.5520888],[-101.0199721,19.5574405],[-101.0246248,19.5420993],[-101.0597894,19.5592993],[-101.0660497,19.5737727]]]}}]}