{"type": "FeatureCollection", "features": [{"type": "Feature", "properties": {"slug": "morgantown", "members": 3, "country": "United States", "input_hash": "bf93b5a5a4cd1c16"}, "geometry": {"type": "Polygon", "coordinates": [[[-79.4767594, 39.7211311], [-79.487175, 39.194906], [-79.5076658, 39.2162049], [-79.6872798, 39.2713959], [-79.8100647, 39.2303064], [-79.817096, 39.2397949], [-79.8502573, 39.2466453], [-79.8619475, 39.2855127], [-79.8887058, 39.3028704], [-79.8954945, 39.299504], [-79.893768, 39.435753], [-79.96727441377912, 39.46302997623503], [-79.938878, 39.452465], [-80.011024, 39.417601], [-80.025001, 39.401446], [-80.087334, 39.386215], [-80.107487, 39.409886], [-80.120648, 39.401208], [-80.196286, 39.3927], [-80.2821851, 39.4355467], [-80.4942283, 39.469638], [-80.4906588, 39.4820459], [-80.4754951, 39.4817225], [-80.4675613, 39.5029707], [-80.4859727, 39.5209429], [-80.4978916, 39.5630211], [-80.4930019, 39.5752195], [-80.4772174, 39.597965], [-80.4505519, 39.5959978], [-80.4493875, 39.6126428], [-80.4339914, 39.6199719], [-80.4433894, 39.62954], [-80.4332856, 39.6391308], [-80.4119329, 39.6413595], [-80.4036762, 39.6317915], [-80.3896177, 39.6441081], [-80.401179, 39.6550174], [-80.3951032, 39.6802607], [-80.4057507, 39.6941093], [-80.4052113, 39.715093], [-80.4198408, 39.7128354], [-80.4213929, 39.7211879], [-79.4767594, 39.7211311]], [[-80.3895876, 39.6330612], [-80.3902611, 39.6349421], [-80.3958107, 39.6373473], [-80.3895876, 39.6330612]], [[-79.9785021, 39.4743076], [-79.9907424, 39.4791512], [-79.97823696465308, 39.47399659140383], [-79.9785021, 39.4743076]], [[-80.0280541, 39.5059024], [-80.0314151317359, 39.505717802687286], [-80.0160763, 39.5022943], [-80.0280541, 39.5059024]], [[-80.03785582956048, 39.50715531414124], [-80.0410269653601, 39.50901970704905], [-80.0391887, 39.5074528], [-80.03785582956048, 39.50715531414124]], [[-80.0431894, 39.5120707], [-80.0468728, 39.5140026], [-80.04231141429804, 39.51011455012159], [-80.0431894, 39.5120707]]]}}]}