{"type": "FeatureCollection", "features": [{"type": "Feature", "properties": {"slug": "morogoro", "members": 1, "country": "Tanzania", "input_hash": "f05eaf666dca45c1"}, "geometry": {"type": "Polygon", "coordinates": [[[37.6169638, -6.9169009], [37.6853767, -6.8786195], [37.6782998, -6.8511567], [37.6908951, -6.8442511], [37.6922368, -6.8338498], [37.740567, -6.8294646], [37.7387841, -6.8074368], [37.7522266, -6.8044633], [37.7520015, -6.7859951], [37.7464768, -6.7776372], [37.7391076, -6.7799348], [37.7251603, -6.7525985], [37.7314004, -6.7058025], [37.7253565, -6.7057503], [37.7258444, -6.6952615], [37.6802795, -6.7020372], [37.6594301, -6.6958328], [37.6819239, -6.6612705], [37.6183069, -6.659893], [37.6214979, -6.7187778], [37.6299522, -6.7189372], [37.630007, -6.7403458], [37.6149553, -6.7503366], [37.6047412, -6.7431154], [37.5842687, -6.7879154], [37.6008642, -6.8006825], [37.5929188, -6.8122857], [37.6008382, -6.8530892], [37.6197867, -6.8317579], [37.6461353, -6.8399883], [37.6186677, -6.8783862], [37.6169638, -6.9169009]]]}}]}