{"type": "FeatureCollection", "features": [{"type": "Feature", "properties": {"slug": "mudanjiang", "members": 10, "country": "China", "input_hash": "138357cb01a39873"}, "geometry": {"type": "Polygon", "coordinates": [[[128.0578474, 44.2488993], [128.0571528, 44.2590903], [128.0842411, 44.2743903], [128.0947288, 44.2922436], [128.0845951, 44.2900198], [128.0740916, 44.3049491], [128.0580292, 44.3054886], [128.0499039, 44.3271773], [128.0578925, 44.3391346], [128.0434687, 44.3481275], [128.0558214, 44.3535755], [128.0652894, 44.3724543], [128.091452, 44.3517457], [128.1041967, 44.3552679], [128.1164592, 44.3461736], [128.1400714, 44.3551093], [128.1579562, 44.3414019], [128.1656644, 44.3443718], [128.1844524, 44.3660563], [128.2059032, 44.430269], [128.2215845, 44.4432615], [128.2470074, 44.444579], [128.2480404, 44.451221], [128.2244013, 44.4707224], [128.2414806, 44.4813168], [128.2371311, 44.4867332], [128.2490724, 44.5122849], [128.2698254, 44.5312352], [128.2910648, 44.5361906], [128.2869525, 44.5439128], [128.3166658, 44.5692789], [128.3533929, 44.5874964], [128.3503671, 44.5976344], [128.3648359, 44.6062915], [128.3617708, 44.6313589], [128.3708554, 44.6375133], [128.3782185, 44.6329904], [128.3959348, 44.6547699], [128.3937147, 44.6770041], [128.4501124, 44.6748241], [128.467693, 44.6625324], [128.5300847, 44.6807114], [128.5562033, 44.6675802], [128.5715953, 44.6733117], [128.5787764, 44.6664531], [128.599296, 44.667183], [128.60087, 44.6604617], [128.6230359, 44.6532863], [128.6870807, 44.6615185], [128.7211708, 44.6925002], [128.7420976, 44.6985156], [128.7493507, 44.7234796], [128.720256, 44.7319954], [128.7428981, 44.7383316], [128.7449083, 44.7480482], [128.7542192, 44.74686], [128.7754891, 44.7636695], [128.7765183, 44.7795813], [128.8381288, 44.7846651], [128.851129, 44.7981375], [128.8428518, 44.8106135], [128.8611179, 44.8282835], [128.8440574, 44.830537], [128.8817192, 44.8565064], [128.872919, 44.8667744], [128.8808765, 44.8655146], [128.8976195, 44.8813612], [128.9178618, 44.8727764], [128.9612005, 44.8832248], [128.9868159, 44.9056645], [129.0150387, 44.9104077], [129.0330762, 44.898015], [129.0551758, 44.9012184], [129.0356748, 44.9283049], [129.0477667, 44.9331958], [129.0383896, 44.9398337], [129.0430614, 44.9449094], [129.0155574, 44.9524111], [129.0215178, 44.9565632], [129.0166623, 44.9714747], [129.034741, 44.9732757], [129.031913, 44.985097], [129.0448271, 44.9970135], [129.0285188, 45.0233614], [129.040448, 45.0279158], [129.0281851, 45.0396983], [129.0033972, 45.0456937], [128.9899583, 45.0622278], [129.0100298, 45.0778415], [129.0236388, 45.078523], [129.0633102, 45.0654215], [129.0729247, 45.0826864], [129.0972386, 45.098295], [129.1268241, 45.0993413], [129.1438651, 45.1095908], [129.0951538, 45.1356049], [129.0923158, 45.1472739], [129.1243133, 45.1851004], [129.1596223, 45.1897619], [129.2014443, 45.2207578], [129.193525, 45.2353651], [129.2026958, 45.2568096], [129.1770323, 45.2573509], [129.1759338, 45.2804414], [129.1561888, 45.2844084], [129.1243288, 45.2737924], [129.0955353, 45.2821274], [129.0845643, 45.2897069], [129.0743868, 45.3199159], [129.0468903, 45.3325769], [129.0479128, 45.3394319], [129.1231073, 45.3688889], [129.1630708, 45.3717004], [129.1863403, 45.3949164], [129.1865693, 45.4209749], [129.1356963, 45.4419859], [129.1349709, 45.4581214], [129.1115263, 45.4717934], [129.1203112, 45.4823684], [129.1171873, 45.4900629], [129.1271091, 45.4954356], [129.1250843, 45.5226381], [129.1328708, 45.5340191], [129.117675, 45.5635575], [129.0945089, 45.5648564], [129.0907556, 45.573407], [129.0844269, 45.6013846], [129.1014063, 45.6226533], [129.1323377, 45.6164853], [129.1425494, 45.6213335], [129.1723788, 45.6019668], [129.2141653, 45.5917135], [129.2477713, 45.6152884], [129.2950325, 45.6187547], [129.3032286, 45.6266099], [129.303624, 45.643718], [129.2937372, 45.654398], [129.3004056, 45.6705238], [129.3334123, 45.6757134], [129.3467969, 45.6861892], [129.3313549, 45.7011439], [129.336809, 45.7338933], [129.3990063, 45.7361337], [129.4082363, 45.7435947], [129.3942722, 45.7654964], [129.4015583, 45.7729261], [129.423786, 45.7773285], [129.4476205, 45.7614191], [129.4655763, 45.7849349], [129.4605261, 45.7896746], [129.5015408, 45.7866384], [129.5031202, 45.7996703], [129.5486619, 45.8151762], [129.5576122, 45.8260003], [129.5428259, 45.8479642], [129.5667328, 45.8579086], [129.5693653, 45.8633167], [129.5567294, 45.8741314], [129.5639306, 45.879186], [129.5783156, 45.8855853], [129.6007517, 45.8739779], [129.6185923, 45.8914488], [129.6587331, 45.8708099], [129.7150721, 45.8948384], [129.7668318, 45.8794336], [129.7798596, 45.885132], [129.7861486, 45.8950216], [129.7756188, 45.9239617], [129.7902089, 45.9313469], [129.7769351, 45.9684465], [129.8004956, 45.9852721], [129.8387979, 45.9858209], [129.8493278, 45.9686244], [129.8774951, 45.9522461], [129.8848894, 45.9364398], [129.8950791, 45.9349363], [129.8936848, 45.9231377], [129.9013189, 45.9184679], [129.9256692, 45.9249688], [129.9417272, 45.9061965], [129.9666776, 45.9185492], [130.005464, 45.9240002], [130.0260977, 45.922863], [130.0371419, 45.9069792], [130.1082627, 45.9241216], [130.150259, 45.9025658], [130.1700666, 45.9011237], [130.1845346, 45.8791602], [130.1875789, 45.8703939], [130.1756792, 45.8687396], [130.169489, 45.8469847], [130.1911449, 45.8300798], [130.1725611, 45.8156514], [130.1890246, 45.8024367], [130.1801849, 45.7742085], [130.1926416, 45.7557253], [130.1794308, 45.7471499], [130.1846593, 45.7424963], [130.1769264, 45.7234306], [130.1553334, 45.6942864], [130.1760681, 45.6756386], [130.2046333, 45.6892149], [130.1986603, 45.6661522], [130.2049893, 45.6498058], [130.2431549, 45.6510264], [130.2434844, 45.6605521], [130.2586207, 45.6664561], [130.277376, 45.633873], [130.3354739, 45.6166065], [130.3521454, 45.6474834], [130.3806187, 45.6718544], [130.3923276, 45.6734422], [130.4588028, 45.6266091], [130.4733717, 45.6049788], [130.5350092, 45.6286152], [130.5599243, 45.6137551], [130.5649429, 45.5998251], [130.6234716, 45.5865498], [130.6475155, 45.5894039], [130.6588602, 45.6120409], [130.6803127, 45.6123899], [130.6785666, 45.6218116], [130.6932129, 45.6277123], [130.7121173, 45.6548624], [130.7160288, 45.6484387], [130.7271349, 45.6510228], [130.7390301, 45.6337618], [130.7500335, 45.634982], [130.7507818, 45.623469], [130.7710741, 45.6208016], [130.7376161, 45.5579505], [130.7502097, 45.5305422], [130.7367814, 45.5068859], [130.7044878, 45.5095656], [130.6826249, 45.4951718], [130.6779769, 45.4810721], [130.653282, 45.4772105], [130.6607095, 45.4579845], [130.6446183, 45.4373355], [130.6213496, 45.4289868], [130.6044927, 45.4091218], [130.5496871, 45.3891161], [130.5333782, 45.3571506], [130.5181168, 45.3564342], [130.5023294, 45.3364702], [130.4825759, 45.3328011], [130.4666758, 45.2981514], [130.4859662, 45.2744874], [130.483933, 45.2603338], [130.4510457, 45.239739], [130.4262492, 45.2029683], [130.4367073, 45.1862426], [130.4576736, 45.1798719], [130.4601468, 45.167319], [130.4192079, 45.1482876], [130.4199088, 45.1336818], [130.3953385, 45.1319641], [130.3911014, 45.1217551], [130.405126, 45.1161981], [130.4070239, 45.0896778], [130.4243572, 45.0895087], [130.4314878, 45.0703314], [130.4614323, 45.0634152], [130.4679169, 45.0517323], [130.4817072, 45.0558672], [130.4920354, 45.073081], [130.5494119, 45.0989937], [130.5603753, 45.0960569], [130.5626752, 45.0874996], [130.5877349, 45.0779303], [130.5866501, 45.0700381], [130.62235, 45.0532254], [130.6235483, 45.0403566], [130.6368042, 45.0308744], [130.6528434, 44.9967759], [130.6699427, 44.98578], [130.6916112, 44.9922426], [130.7081946, 44.9636065], [130.7611121, 44.9727483], [130.7596738, 44.9879529], [130.7903099, 45.0013501], [130.8139883, 44.9979139], [130.8291053, 44.9858926], [130.8733098, 44.985884], [130.8577365, 44.9811639], [130.862071, 44.9681992], [130.9158626, 44.9327766], [130.9117193, 44.9207056], [130.9197206, 44.8864619], [130.9409432, 44.8793053], [130.9554447, 44.8621491], [130.9591261, 44.8227039], [130.985115, 44.823134], [131.008447, 44.811526], [131.016204, 44.79457], [131.008997, 44.785278], [131.018817, 44.779342], [131.056797, 44.78426], [131.062168, 44.756713], [131.085302, 44.742655], [131.0827, 44.715891], [131.094604, 44.702911], [131.1044767, 44.7075263], [131.3032214, 44.0439331], [131.2715913, 44.0300466], [131.2566662, 44.0314567], [131.2434161, 44.0114135], [131.2504887, 43.9909705], [131.2357664, 43.9846245], [131.2430409, 43.9757801], [131.2344494, 43.9667377], [131.2387071, 43.9529871], [131.261229, 43.9366797], [131.2474179, 43.892496], [131.2290287, 43.8771312], [131.2265196, 43.8473644], [131.2046044, 43.8249127], [131.2139776, 43.821921], [131.2171412, 43.8039078], [131.2059939, 43.7984591], [131.212753, 43.7892122], [131.2036979, 43.7843559], [131.2144804, 43.7771985], [131.2082362, 43.7709156], [131.2190294, 43.7659881], [131.2092233, 43.7589292], [131.223097, 43.760018], [131.2153816, 43.7545741], [131.2248659, 43.7401582], [131.2083971, 43.7289099], [131.2208855, 43.7165738], [131.2090945, 43.710781], [131.2181175, 43.7046075], [131.2091696, 43.6979603], [131.2119698, 43.6837015], [131.2333648, 43.6635582], [131.2249315, 43.6608815], [131.227076, 43.6345532], [131.2135684, 43.6299794], [131.2093949, 43.6100806], [131.2389529, 43.6003773], [131.2300908, 43.5946354], [131.2291574, 43.5816033], [131.2078071, 43.5898254], [131.2126672, 43.5789763], [131.1966061, 43.5803986], [131.2045991, 43.5599469], [131.1860795, 43.5584796], [131.1998248, 43.5494035], [131.1931176, 43.5293219], [131.218874, 43.514756], [131.2651255, 43.4928134], [131.2951796, 43.5010159], [131.3138294, 43.4907903], [131.3057139, 43.4733639], [131.2808538, 43.4732144], [131.2841284, 43.4665601], [131.2282817, 43.4728384], [131.2286881, 43.462121], [131.1963089, 43.4515001], [131.1938703, 43.4394017], [131.1702972, 43.4426478], [131.1349712, 43.4232314], [131.1185448, 43.4307445], [131.1132971, 43.445027], [131.0844044, 43.4549422], [131.0608109, 43.4800887], [131.0196461, 43.5057654], [130.9972923, 43.5053723], [130.951591, 43.4833207], [130.94871, 43.473682], [130.9374112, 43.4745098], [130.9012401, 43.4316048], [130.8540537, 43.4363138], [130.8335845, 43.4526291], [130.8170089, 43.4998541], [130.7964284, 43.5047763], [130.7856376, 43.525429], [130.7679495, 43.5191371], [130.7521526, 43.54043], [130.7287911, 43.542446], [130.7216713, 43.5578459], [130.6939712, 43.5580878], [130.6954174, 43.5640531], [130.6829579, 43.566955], [130.6642686, 43.562844], [130.6595963, 43.5815428], [130.6181375, 43.5832444], [130.628258, 43.6106899], [130.6237021, 43.6197942], [130.5902611, 43.6194279], [130.5824639, 43.6103944], [130.5521436, 43.6276409], [130.5393019, 43.6204195], [130.4950454, 43.6347184], [130.4814468, 43.6535928], [130.466622, 43.6552057], [130.4426572, 43.6441563], [130.4056511, 43.6505281], [130.387148, 43.7005112], [130.4168645, 43.7424769], [130.375905, 43.7744721], [130.3730111, 43.8233161], [130.356093, 43.840659], [130.3793433, 43.8514029], [130.3638958, 43.8679049], [130.3589577, 43.8881721], [130.376493, 43.9037129], [130.3626865, 43.912716], [130.3473682, 43.9398623], [130.3304375, 43.9443613], [130.3318484, 43.9617735], [130.3566398, 43.98955], [130.3602678, 44.0121677], [130.3513993, 44.022024], [130.3587861, 44.0410768], [130.3382982, 44.0491203], [130.3119889, 44.0372613], [130.3007442, 44.0188511], [130.3002365, 44.0004702], [130.2651378, 43.9792846], [130.2674945, 43.9661762], [130.2539458, 43.9557684], [130.2546818, 43.9470066], [130.2313797, 43.9379345], [130.2197286, 43.9467139], [130.1824722, 43.938715], [130.1771886, 43.9283732], [130.1461642, 43.9127596], [130.1471109, 43.8892562], [130.1384948, 43.8777512], [130.1089079, 43.8752703], [130.1035417, 43.8495037], [130.0725429, 43.8325088], [130.0490268, 43.8359985], [130.0379015, 43.8499542], [130.0200345, 43.849092], [130.0017296, 43.8869695], [130.0135435, 43.9000862], [130.0066223, 43.9036824], [130.0166476, 43.9145164], [130.0098737, 43.9330565], [130.0180139, 43.9413804], [130.0062392, 43.9545283], [130.010062, 43.9596062], [129.9957841, 43.9622211], [129.9988113, 43.9681038], [129.9819327, 43.9808498], [129.9954507, 43.9863641], [129.9927308, 43.996636], [129.9784086, 43.9965085], [129.9732271, 44.012554], [129.9329224, 44.025573], [129.9168006, 44.01359], [129.9005266, 44.021605], [129.8734166, 43.9983206], [129.8622089, 43.9998428], [129.861759, 44.0104827], [129.8036768, 43.965439], [129.7736969, 43.9599113], [129.7879426, 43.9383886], [129.7707557, 43.9270072], [129.7792908, 43.9156875], [129.7788844, 43.8992896], [129.7731088, 43.8912259], [129.7317468, 43.8934268], [129.7347057, 43.8748197], [129.6920297, 43.8812217], [129.6508286, 43.8695427], [129.6422069, 43.8779677], [129.6021462, 43.8801398], [129.5527815, 43.8691315], [129.5195807, 43.8679536], [129.4931183, 43.8776804], [129.460427, 43.872032], [129.4613419, 43.8640175], [129.4419032, 43.8479544], [129.4103778, 43.8406678], [129.3992634, 43.8164238], [129.3810638, 43.8146822], [129.3779273, 43.8061286], [129.3505231, 43.7961759], [129.3018726, 43.8099445], [129.2991028, 43.7937584], [129.2829676, 43.7947707], [129.2720605, 43.8106877], [129.2494021, 43.8178901], [129.2050827, 43.7823511], [129.2122693, 43.7492536], [129.2051803, 43.7445477], [129.2143768, 43.740672], [129.2098921, 43.7217046], [129.2258218, 43.706706], [129.2070962, 43.694144], [129.2105449, 43.6464708], [129.2255178, 43.6326662], [129.2231901, 43.5914055], [129.2159095, 43.5834953], [129.1626463, 43.5590641], [129.1601586, 43.5686036], [129.1389106, 43.5677572], [129.1143646, 43.5532325], [129.1014987, 43.5571476], [129.0903168, 43.5466499], [129.0338949, 43.5382343], [129.0070057, 43.520652], [128.9581299, 43.5349617], [128.9396305, 43.5535102], [128.9068679, 43.5408731], [128.8720322, 43.5380595], [128.8593402, 43.5564117], [128.8476653, 43.5554541], [128.8444082, 43.5736407], [128.8283274, 43.585576], [128.8139034, 43.6348017], [128.8064725, 43.6367652], [128.7991578, 43.6646756], [128.7804224, 43.6842648], [128.7775418, 43.7132581], [128.7650766, 43.717573], [128.7614241, 43.7301915], [128.7471691, 43.7249751], [128.7351994, 43.7309817], [128.7378817, 43.7365192], [128.7213625, 43.738029], [128.728887, 43.7490908], [128.7596574, 43.7560303], [128.7340498, 43.8027914], [128.7122081, 43.8160647], [128.7532093, 43.8593206], [128.7215962, 43.8887388], [128.6892168, 43.9014408], [128.687684, 43.8937095], [128.6731, 43.8897275], [128.6639263, 43.894814], [128.6559327, 43.8879976], [128.6303828, 43.8886331], [128.6280982, 43.8989559], [128.6354086, 43.9054561], [128.6227092, 43.9219417], [128.6386359, 43.9335978], [128.6340376, 43.9462902], [128.6178471, 43.9480494], [128.5779005, 43.9884867], [128.5692787, 44.0451153], [128.5595545, 44.0481249], [128.5536284, 44.0659981], [128.5282586, 44.0897123], [128.532301, 44.0972869], [128.5229129, 44.109394], [128.4958981, 44.1210861], [128.4627686, 44.1571541], [128.4553188, 44.1991359], [128.43325, 44.2046278], [128.3916403, 44.195759], [128.3531255, 44.1511717], [128.3260424, 44.1429626], [128.3307558, 44.1327929], [128.2965986, 44.1229923], [128.2774778, 44.127426], [128.2708725, 44.1377696], [128.2588875, 44.1344689], [128.2420177, 44.1190056], [128.2369673, 44.0893204], [128.2094532, 44.0603748], [128.1980549, 44.0635329], [128.1498368, 44.0394797], [128.1283717, 44.0510241], [128.102114, 44.0438121], [128.0804966, 44.0581129], [128.0719236, 44.0943526], [128.0547993, 44.1086306], [128.0952529, 44.1338144], [128.0814884, 44.14004], [128.0799351, 44.1581384], [128.0681741, 44.1564934], [128.0539326, 44.1667188], [128.0644017, 44.1794673], [128.0862964, 44.1796795], [128.0845951, 44.2130366], [128.0976875, 44.2109158], [128.0978256, 44.2274191], [128.0806748, 44.2382672], [128.0876749, 44.239005], [128.0856451, 44.2458925], [128.0578474, 44.2488993]]]}}]}