{"type": "FeatureCollection", "features": [{"type": "Feature", "properties": {"slug": "mueang-chiang-rai", "members": 1, "country": "Thailand", "input_hash": "4cea86bc942d6f11"}, "geometry": {"type": "Polygon", "coordinates": [[[99.3813172, 19.0419029], [99.403249, 18.9999028], [99.4361563, 19.007867], [99.4716035, 19.0441898], [99.4836159, 19.0718093], [99.5178766, 19.080611], [99.5291116, 19.0764519], [99.5382816, 19.0861978], [99.5391254, 19.1113847], [99.5599774, 19.1320751], [99.5600628, 19.1433932], [99.5366288, 19.1639174], [99.5458511, 19.1909201], [99.5414148, 19.2062859], [99.5483583, 19.2512679], [99.5593268, 19.2570881], [99.5806104, 19.3114002], [99.5811651, 19.3377837], [99.5727606, 19.3461635], [99.5806591, 19.3523674], [99.5760383, 19.3892594], [99.5634055, 19.4043049], [99.5648487, 19.4173227], [99.6322952, 19.3854741], [99.6814342, 19.3915326], [99.6885705, 19.381736], [99.6936154, 19.3826842], [99.6829461, 19.422322], [99.7313832, 19.4242095], [99.7868556, 19.4510489], [99.843785, 19.4445806], [99.8767356, 19.4548995], [99.8990577, 19.4256949], [99.914442, 19.4324552], [99.9200825, 19.4063948], [99.947777, 19.4285455], [99.9919623, 19.4290413], [99.9981447, 19.4356687], [100.0106276, 19.4257458], [100.010178, 19.438906], [100.0273663, 19.4360982], [100.0393594, 19.4450371], [100.051199, 19.440607], [100.0516503, 19.4309782], [100.068639, 19.4314832], [100.0684427, 19.5410069], [100.0975277, 19.554542], [100.1618312, 19.5424974], [100.1687281, 19.5653902], [100.1622554, 19.5738973], [100.168853, 19.5755703], [100.1646482, 19.5848194], [100.1743995, 19.6112416], [100.2299305, 19.6057887], [100.2611168, 19.6488169], [100.2694882, 19.6415983], [100.280293, 19.6520352], [100.2904142, 19.6426875], [100.3177868, 19.6497964], [100.3415629, 19.6877686], [100.3369641, 19.7086448], [100.3607735, 19.7159365], [100.3844856, 19.7099544], [100.405022, 19.7324571], [100.403966, 19.752539], [100.415159, 19.781563], [100.438442, 19.791651], [100.4499596, 19.8488187], [100.5005, 19.869381], [100.501127, 19.884264], [100.52029, 19.903365], [100.513932, 19.909401], [100.52226, 19.928915], [100.516081, 19.939499], [100.543662, 20.011589], [100.541692, 20.022168], [100.551632, 20.030846], [100.578496, 20.167794], [100.551184, 20.174819], [100.53005, 20.1449], [100.518051, 20.143908], [100.476008, 20.190392], [100.456038, 20.19866], [100.453352, 20.230164], [100.414443, 20.253687], [100.405757, 20.282049], [100.382384, 20.313967], [100.374862, 20.350682], [100.359191, 20.35523], [100.355251, 20.377969], [100.330536, 20.398228], [100.272329, 20.400626], [100.249731, 20.386368], [100.246994, 20.369212], [100.224514, 20.351077], [100.228688, 20.332246], [100.221229, 20.317744], [100.167476, 20.298123], [100.180615, 20.2634], [100.171684, 20.245772], [100.160296, 20.24412], [100.112457, 20.250004], [100.095842, 20.262767], [100.090593, 20.275865], [100.098594, 20.308476], [100.0785878, 20.38032], [100.0673794, 20.3744535], [100.0716017, 20.3896689], [100.0635937, 20.3851715], [100.0572846, 20.3964836], [100.0537543, 20.3877405], [100.041796, 20.3987105], [100.0395838, 20.392806], [100.0367529, 20.4020577], [100.0289069, 20.4003479], [100.0087245, 20.4191211], [100.0035393, 20.4128069], [99.960349, 20.4648135], [99.9208903, 20.4455987], [99.8716714, 20.44489], [99.8100892, 20.3365881], [99.776264, 20.334784], [99.730143, 20.350117], [99.717542, 20.342304], [99.718465, 20.328981], [99.681463, 20.316183], [99.643353, 20.343327], [99.612689, 20.331765], [99.557685, 20.357986], [99.516267, 20.362674], [99.499113, 20.384158], [99.457532, 20.392122], [99.455749, 20.362399], [99.489551, 20.345743], [99.507097, 20.32577], [99.504943, 20.294124], [99.522577, 20.233442], [99.533738, 20.232194], [99.563785, 20.205936], [99.551225, 20.176505], [99.538024, 20.16529], [99.538597, 20.147665], [99.511301, 20.151071], [99.5206039, 20.1380826], [99.5705183, 20.122206], [99.5708247, 20.1078052], [99.5591624, 20.0981172], [99.5501214, 20.1039393], [99.4911901, 20.0790347], [99.4915423, 20.0655295], [99.505188, 20.0537034], [99.4674777, 20.0340873], [99.4656712, 20.0259023], [99.4783296, 20.0132286], [99.465502, 20.0053731], [99.4413794, 19.9631715], [99.4185827, 19.952976], [99.4146252, 19.9315353], [99.4204152, 19.9176177], [99.4029951, 19.9147325], [99.3813971, 19.8894677], [99.3875859, 19.8652991], [99.4149657, 19.8453041], [99.4080263, 19.8318228], [99.420602, 19.8231787], [99.4199079, 19.8140391], [99.380374, 19.8102258], [99.3770093, 19.7791637], [99.3615252, 19.7773262], [99.3597996, 19.726301], [99.3489193, 19.7246448], [99.3468256, 19.7122521], [99.3134173, 19.7076303], [99.2967854, 19.6821229], [99.2654691, 19.6648088], [99.2579856, 19.6495944], [99.2670449, 19.6108129], [99.2927715, 19.5924878], [99.288983, 19.5809893], [99.2970037, 19.5611753], [99.316789, 19.5546167], [99.3262497, 19.5391099], [99.3059219, 19.5266283], [99.2945116, 19.4951859], [99.2986781, 19.4870117], [99.3078439, 19.4888257], [99.3053968, 19.47462], [99.3186573, 19.4547887], [99.3080595, 19.4309563], [99.3305735, 19.3984211], [99.3230638, 19.3965332], [99.3343014, 19.3522665], [99.3272273, 19.3193458], [99.3392702, 19.2982549], [99.3429798, 19.2678368], [99.3107676, 19.2240628], [99.3145485, 19.2091144], [99.3045739, 19.1825046], [99.319435, 19.1652411], [99.3210757, 19.1236144], [99.3443696, 19.0863904], [99.3602783, 19.0830517], [99.3654833, 19.0692391], [99.3837861, 19.0631043], [99.3813172, 19.0419029]]]}}]}