{"type": "FeatureCollection", "features": [{"type": "Feature", "properties": {"slug": "multan", "members": 1, "country": "Pakistan", "input_hash": "d65f9f18ef3acec6"}, "geometry": {"type": "Polygon", "coordinates": [[[71.8264541, 29.53696], [71.8513749, 29.536979], [71.858507, 29.519226], [71.8765871, 29.515134], [71.8728351, 29.535937], [71.886472, 29.54685], [71.900795, 29.536619], [71.901819, 29.501833], [71.9072801, 29.500469], [71.9141011, 29.530139], [71.933535, 29.514793], [71.9458181, 29.515475], [71.9430891, 29.528093], [71.9120551, 29.557423], [71.9236497, 29.5662898], [71.9495691, 29.558105], [71.9662769, 29.5673114], [71.981622, 29.547532], [72.0119791, 29.549238], [72.0280061, 29.5795887], [72.043009, 29.557081], [72.0692741, 29.554353], [72.0784821, 29.561515], [72.0815511, 29.596301], [72.0726841, 29.607214], [72.111939, 29.593122], [72.137088, 29.596507], [72.166107, 29.618755], [72.164172, 29.64342], [72.183518, 29.65261], [72.196576, 29.71113], [72.215438, 29.703876], [72.244457, 29.708229], [72.244457, 29.721287], [72.217373, 29.763848], [72.228013, 29.767233], [72.2343, 29.794317], [72.248809, 29.810277], [72.3020181, 29.8034989], [72.294756, 29.810761], [72.299592, 29.814146], [72.310232, 29.803506], [72.31265, 29.81995], [72.340702, 29.843165], [72.372622, 29.837361], [72.390033, 29.857191], [72.402608, 29.859609], [72.426306, 29.839779], [72.460161, 29.848485], [72.461129, 29.826721], [72.470318, 29.821401], [72.492565, 29.83059], [72.5024577, 29.817532], [72.512395, 29.843165], [72.532224, 29.830107], [72.542864, 29.808826], [72.563661, 29.808343], [72.56221, 29.830107], [72.569948, 29.839779], [72.604771, 29.838812], [72.618313, 29.854772], [72.643946, 29.859125], [72.655553, 29.870733], [72.683604, 29.85574], [72.696179, 29.886209], [72.694244, 29.910391], [72.709721, 29.922482], [72.732452, 29.92345], [72.751798, 29.892496], [72.77066, 29.892496], [72.77066, 29.906522], [72.762438, 29.912809], [72.773562, 29.932155], [72.767275, 29.961657], [72.787588, 29.980036], [72.819508, 29.980519], [72.83837, 29.967945], [72.860134, 29.924417], [72.860134, 29.954886], [72.9007595, 30.0013158], [72.925909, 29.994061], [72.946222, 29.96069], [72.962666, 29.96069], [72.9721977, 29.9710676], [72.9671021, 29.993103], [72.9724731, 30.0172729], [72.9844971, 30.0244751], [72.959281, 30.033237], [72.931229, 30.024531], [72.942353, 30.052099], [72.9326782, 30.0844727], [72.9462241, 30.0990561], [72.94719, 30.178813], [72.9598999, 30.1860962], [72.9545288, 30.2451172], [72.971372, 30.26732], [72.990234, 30.276025], [72.9926758, 30.2963257], [72.9425049, 30.2924805], [72.9238892, 30.3088989], [72.852879, 30.312298], [72.843689, 30.3375244], [72.84729, 30.3701868], [72.818984, 30.3689739], [72.8076888, 30.3633234], [72.811036, 30.34495], [72.796742, 30.328329], [72.7894133, 30.3364023], [72.8040324, 30.3480359], [72.7904115, 30.3443784], [72.7804426, 30.3251011], [72.7535317, 30.3250975], [72.73692, 30.3370612], [72.7252936, 30.332737], [72.724606, 30.31071], [72.712306, 30.294089], [72.692028, 30.304062], [72.691031, 30.316029], [72.6784361, 30.3264172], [72.6305652, 30.2771579], [72.626873, 30.25586], [72.5877072, 30.2266862], [72.5744109, 30.2652398], [72.5637747, 30.2702233], [72.5245508, 30.2619056], [72.5115889, 30.2170272], [72.4893183, 30.1904285], [72.4830037, 30.170482], [72.468307, 30.162781], [72.454678, 30.162781], [72.447697, 30.178738], [72.401822, 30.183059], [72.412792, 30.206661], [72.3988747, 30.21783], [72.4060376, 30.2688082], [72.3958754, 30.2891224], [72.4408541, 30.3688813], [72.4403541, 30.4322813], [72.4785541, 30.4771813], [72.4872853, 30.5034329], [72.4848541, 30.5405813], [72.5036541, 30.5478813], [72.496974, 30.56791], [72.47555, 30.593616], [72.4491541, 30.6006813], [72.3782541, 30.5633813], [72.366661, 30.571529], [72.3635541, 30.5583813], [72.354261, 30.576954], [72.334495, 30.5591407], [72.32791, 30.565716], [72.306598, 30.556416], [72.3015433, 30.5268586], [72.3011541, 30.5482813], [72.260097, 30.548278], [72.244984, 30.565716], [72.246922, 30.551378], [72.229484, 30.564166], [72.2135541, 30.5637813], [72.1973538, 30.5444399], [72.1973183, 30.5610813], [72.1375589, 30.5772228], [72.1475152, 30.6130555], [72.2022521, 30.7136674], [72.1825909, 30.71175], [72.1438909, 30.72545], [72.061713, 30.730667], [72.031036, 30.697675], [71.9997909, 30.69595], [71.999781, 30.667577], [71.9864743, 30.6600566], [71.962158, 30.674523], [71.926851, 30.662947], [71.900226, 30.682047], [71.87418, 30.68089], [71.832506, 30.647898], [71.813984, 30.648477], [71.79141, 30.631112], [71.7827909, 30.60705], [71.726475, 30.575993], [71.7065909, 30.54045], [71.6747909, 30.53065], [71.6480909, 30.50965], [71.6084909, 30.50095], [71.605081, 30.483024], [71.5631759, 30.4454541], [71.5323842, 30.4539362], [71.5301167, 30.4254706], [71.503516, 30.436595], [71.4880395, 30.424987], [71.463374, 30.4226937], [71.476432, 30.407092], [71.489974, 30.404191], [71.4885594, 30.3883446], [71.47353, 30.387747], [71.4516826, 30.3621448], [71.412108, 30.341801], [71.408722, 30.300207], [71.3928035, 30.2731975], [71.3738534, 30.2781048], [71.365194, 30.27264], [71.376802, 30.253778], [71.3608415, 30.227661], [71.3474961, 30.224371], [71.3337575, 30.205897], [71.32747, 30.21025], [71.318281, 30.188002], [71.298935, 30.16914], [71.285877, 30.1319], [71.291681, 30.073379], [71.2662466, 30.0517668], [71.267498, 30.035655], [71.2592765, 30.023564], [71.276204, 29.994545], [71.273302, 29.989225], [71.261695, 29.994061], [71.236062, 29.977618], [71.215265, 29.984872], [71.175606, 29.894915], [71.17609, 29.877987], [71.1915665, 29.878471], [71.19784, 29.8699572], [71.189405, 29.8390483], [71.1780243, 29.828172], [71.1832297, 29.795424], [71.166901, 29.7892887], [71.180443, 29.747887], [71.1648183, 29.7341496], [71.163032, 29.718869], [71.183345, 29.700974], [71.181894, 29.693236], [71.1589578, 29.6828418], [71.127242, 29.685497], [71.119504, 29.669054], [71.092903, 29.66857], [71.07813, 29.6773565], [71.068721, 29.656962], [71.053245, 29.653577], [71.0475003, 29.6302447], [71.0643696, 29.605214], [71.0266439, 29.5815142], [71.03003, 29.551528], [71.015521, 29.554914], [71.007782, 29.546208], [71.024226, 29.515739], [71.031964, 29.450931], [71.047925, 29.43497], [71.07114, 29.4422244], [71.079845, 29.431101], [71.100631, 29.4320655], [71.1078968, 29.450449], [71.126276, 29.4485111], [71.1219234, 29.4581852], [71.1311111, 29.4722099], [71.1393329, 29.452382], [71.168835, 29.473178], [71.2113972, 29.482851], [71.23316, 29.477531], [71.234611, 29.4548], [71.2437992, 29.4470615], [71.297968, 29.440774], [71.3298893, 29.4625378], [71.3384093, 29.452726], [71.3172695, 29.4170958], [71.323601, 29.414174], [71.337143, 29.427716], [71.346332, 29.419494], [71.355021, 29.422873], [71.377641, 29.389972], [71.393329, 29.41555], [71.438346, 29.418961], [71.480635, 29.372238], [71.485751, 29.381105], [71.480635, 29.398839], [71.507577, 29.410093], [71.51849, 29.446244], [71.54475, 29.432261], [71.545773, 29.419302], [71.571351, 29.426804], [71.593519, 29.446244], [71.609207, 29.434648], [71.615687, 29.438059], [71.618756, 29.463637], [71.632397, 29.472504], [71.659681, 29.478983], [71.683212, 29.470116], [71.699582, 29.485463], [71.715952, 29.476937], [71.734368, 29.500128], [71.73505, 29.522978], [71.751761, 29.527411], [71.7926911, 29.501492], [71.8264541, 29.53696]]]}}]}