{"type": "FeatureCollection", "features": [{"type": "Feature", "properties": {"slug": "najran", "members": 1, "country": "Saudi Arabia", "input_hash": "908fe530a3f60385"}, "geometry": {"type": "Polygon", "coordinates": [[[44.36184, 17.8796601], [44.3144213, 17.8577653], [44.3063022, 17.822066], [44.2645345, 17.797385], [44.2230072, 17.6945489], [44.18165, 17.7063501], [44.12704, 17.7484301], [44.05124, 17.7351401], [44.01326, 17.7036001], [43.99384, 17.6743301], [43.93674, 17.6443501], [43.86621, 17.5832501], [43.85158, 17.5829401], [43.82425, 17.5510401], [43.79033, 17.5337801], [43.78233, 17.5159301], [43.73639, 17.5166001], [43.7068598, 17.530517], [43.6750906, 17.5820346], [43.663356, 17.623821], [43.6493318, 17.6309763], [43.6521939, 17.5817483], [43.6338818, 17.5597654], [43.6375972, 17.5485481], [43.6519077, 17.5265101], [43.6926726, 17.5052624], [43.68992, 17.4896001], [43.70871, 17.4847701], [43.72378, 17.4538901], [43.70412, 17.4324001], [43.68397, 17.4309001], [43.6943, 17.4169101], [43.69298, 17.4020801], [43.7204387, 17.3700006], [43.7888948, 17.3749999], [43.8319444, 17.3388889], [43.9055556, 17.3416667], [43.9666667, 17.3305556], [44.0113611, 17.4024722], [44.0232778, 17.3913056], [44.0666667, 17.4058333], [44.1006111, 17.3660556], [44.1108333, 17.3663889], [44.1308333, 17.3836111], [44.1380556, 17.4088889], [44.3345516, 17.4296009], [44.4182, 17.5028101], [44.4265956, 17.5224837], [44.4153233, 17.531189], [44.4157697, 17.5415685], [44.3926473, 17.5405323], [44.39543, 17.5604101], [44.4582158, 17.5559634], [44.465315, 17.5352887], [44.48416, 17.524193], [44.5702837, 17.5215512], [44.5948082, 17.5720358], [44.5641132, 17.7062374], [44.54507, 17.7275901], [44.5549859, 17.8324106], [44.5088126, 17.8663651], [44.4841317, 17.8783892], [44.4233786, 17.8885147], [44.38971, 17.9159001], [44.37562, 17.9064701], [44.36184, 17.8796601]]]}}]}