{"type":"FeatureCollection","features":[{"type":"Feature","properties":{"slug":"nakhodka","member_count":1,"matched_count":1,"unmatched":["[recovered via metro-name fallback: Nakhodka]"],"source":"Overture Maps division_area (CC-BY 4.0)"},"geometry":{"type":"MultiPolygon","coordinates":[[[[133.0226199,42.7189251],[133.0145935,42.7254224],[133.0269885,42.7298183],[133.0190277,42.7225043],[133.0585527,42.7184528],[133.0559134,42.7280844],[133.0622434,42.7290459],[133.0708694,42.7131083],[133.0226199,42.7189251]]],[[[133.040142,42.8164328],[133.0360758,42.8245384],[133.0409574,42.8182035],[133.0406915,42.8127133],[133.0645019,42.8061459],[133.0493957,42.8069842],[133.0442405,42.7982426],[133.0582148,42.7887282],[133.0746084,42.789925],[133.0695069,42.7704472],[133.0749142,42.7645794],[133.0779076,42.7746055],[133.0975628,42.7761333],[133.0905354,42.7891337],[133.1057703,42.7819448],[133.1014533,42.7896719],[133.1098779,42.7812362],[133.1023679,42.7680834],[133.1529236,42.7555522],[133.1340837,42.744613],[133.1340516,42.7325962],[133.125565,42.7408979],[133.0852889,42.7171917],[133.0425775,42.7449558],[133.0496489,42.7479834],[133.0732096,42.7331305],[133.0941122,42.740747],[133.0736344,42.7448997],[133.0653378,42.7631732],[133.0523461,42.7589207],[133.0344013,42.7786183],[133.0279689,42.7920459],[133.0402815,42.8113407],[133.0303252,42.8112148],[133.040142,42.8164328]]],[[[132.7829978,42.8508493],[132.8133608,42.829424],[132.8467247,42.8380917],[132.8516266,42.8648265],[132.8931103,42.8906731],[132.9313206,42.8755896],[132.9539717,42.8804418],[132.9548414,42.8683468],[132.9749776,42.8706186],[132.9721606,42.8608213],[132.9926314,42.8496634],[132.9808533,42.8383859],[132.9877668,42.8326951],[132.9415458,42.8392434],[132.9000843,42.8301024],[132.902584,42.8242826],[132.8858688,42.8055515],[132.8761414,42.8074092],[132.8835884,42.7983833],[132.8625085,42.7857915],[132.884935,42.7917567],[132.9063665,42.8099511],[132.9136719,42.8057133],[132.9070157,42.7934854],[132.9115632,42.7868389],[132.8874854,42.7765603],[132.8943284,42.7614971],[132.8765613,42.7624784],[132.8725605,42.7388626],[132.849265,42.7339512],[132.8512467,42.7479378],[132.8341341,42.7393471],[132.8357397,42.7478084],[132.8207114,42.7505853],[132.8235695,42.7598438],[132.8066928,42.7585418],[132.8026067,42.7725962],[132.8139399,42.7818296],[132.8072731,42.8049488],[132.7860001,42.8219247],[132.7922024,42.8314536],[132.7631155,42.8428978],[132.7829978,42.8508493]]],[[[133.023544,42.8332612],[133.0212593,42.815087],[133.0170321,42.8154963],[133.0161202,42.8252623],[133.0187166,42.8260413],[133.023544,42.8332612]]],[[[133.0138618,42.8303493],[133.0200469,42.8335713],[133.0192423,42.8285514],[133.0138618,42.8303493]]]]}}]}