{"type":"FeatureCollection","features":[{"type":"Feature","properties":{"slug":"nanchong","member_count":9,"matched_count":8,"unmatched":["L\u00e1ngzh\u014dng Sh\u00ec (CN-SC, type='County-level City')"],"source":"Overture Maps division_area (CC-BY 4.0)"},"geometry":{"type":"Polygon","coordinates":[[[106.1567627,30.6039962],[106.1193696,30.5471976],[106.1109185,30.508153],[106.0876094,30.505442],[106.0835215,30.4949691],[106.0636882,30.4932402],[106.0611876,30.5020504],[106.0485355,30.5024978],[106.0501207,30.5121448],[106.0362637,30.5101575],[106.0423619,30.5150461],[106.0361031,30.5208101],[106.0245993,30.5086672],[106.0293094,30.4979957],[106.0216087,30.4845773],[105.9987407,30.4940494],[105.9790488,30.4912867],[105.9670603,30.4798255],[105.9514877,30.5163879],[105.9421218,30.5159054],[105.9452114,30.5025077],[105.9288401,30.5207366],[105.9256805,30.5124079],[105.9159928,30.5190871],[105.9128771,30.5094018],[105.9229721,30.4972191],[105.9289699,30.50257],[105.9452027,30.4971493],[105.9459758,30.4805974],[105.9244129,30.4825877],[105.9229634,30.4920865],[105.9192742,30.4699336],[105.9032581,30.4619255],[105.8894913,30.46764],[105.885767,30.4608184],[105.8715568,30.4716476],[105.8844303,30.4797427],[105.8821216,30.4981778],[105.8638747,30.4998681],[105.856696,30.4877108],[105.843276,30.4943933],[105.8432932,30.5079864],[105.8592052,30.5151957],[105.8744129,30.5559554],[105.8363312,30.5819759],[105.8193265,30.6076723],[105.8196733,30.6246081],[105.80417,30.6289719],[105.8101595,30.6539636],[105.795247,30.687898],[105.7978074,30.7084471],[105.7889792,30.7139479],[105.7919827,30.7365419],[105.7787795,30.7524788],[105.7892567,30.762473],[105.7786323,30.7875574],[105.7932331,30.8082302],[105.7807936,30.8119325],[105.7805767,30.8263204],[105.7527382,30.8428456],[105.7546041,30.8541804],[105.7431542,30.8549318],[105.7491702,30.8621707],[105.7398384,30.858399],[105.7315744,30.8669737],[105.726809,30.8792524],[105.7423873,30.8835201],[105.7272205,30.9095946],[105.7006365,30.9135506],[105.6871009,30.9383603],[105.6760806,30.93862],[105.6676174,30.9200846],[105.6564233,30.9205448],[105.6563308,30.9447656],[105.63996,30.9506059],[105.6100806,30.9926809],[105.6292561,31.005484],[105.6588021,31.0027937],[105.6653763,31.0080427],[105.6607283,31.0221674],[105.6878525,31.0187731],[105.7019149,31.0309729],[105.7138275,31.0651449],[105.7041013,31.0730902],[105.7177901,31.0875906],[105.7075788,31.1017696],[105.7122774,31.1105731],[105.7148182,31.1003923],[105.7215725,31.1113417],[105.7125667,31.1319264],[105.720309,31.1369881],[105.7180075,31.1518608],[105.705272,31.1708478],[105.6728414,31.1726755],[105.6682839,31.1794695],[105.6689925,31.1920274],[105.6854592,31.1969662],[105.6722478,31.2009714],[105.6632149,31.2370159],[105.6767738,31.2545903],[105.6437624,31.2598828],[105.6346665,31.285361],[105.6123321,31.2981359],[105.5908082,31.2942882],[105.5894574,31.3044458],[105.6053976,31.3272964],[105.601345,31.3417579],[105.6218783,31.3454498],[105.6329554,31.3566785],[105.6234993,31.3565247],[105.6411507,31.3805928],[105.6392099,31.3969784],[105.6176131,31.4088727],[105.5693744,31.3839757],[105.564061,31.4063458],[105.550192,31.4047316],[105.5457792,31.3945849],[105.5291184,31.4040398],[105.5212834,31.3937392],[105.5138986,31.3961992],[105.4959771,31.4045779],[105.4766146,31.4277115],[105.4800368,31.4463065],[105.4867011,31.4389304],[105.4977782,31.4569086],[105.4780299,31.4827454],[105.4665279,31.4884825],[105.4544476,31.4769992],[105.4375208,31.4825293],[105.4585364,31.5003883],[105.4521983,31.5092664],[105.4585362,31.5142974],[105.4555363,31.529491],[105.4752283,31.5482378],[105.4913316,31.5510935],[105.4861189,31.5614841],[105.4987782,31.567829],[105.4939379,31.5786936],[105.514416,31.5825792],[105.5331256,31.5648946],[105.5477395,31.5638635],[105.5756643,31.5685428],[105.5786429,31.5802796],[105.5959562,31.5831342],[105.6061022,31.5542663],[105.6152243,31.559422],[105.6193199,31.5870989],[105.6355163,31.5898741],[105.6269527,31.6001811],[105.6484547,31.6169871],[105.6576699,31.6014496],[105.6804751,31.6111212],[105.689904,31.585848],[105.702712,31.584715],[105.700378,31.57791],[105.71083,31.576366],[105.710925,31.566113],[105.720691,31.568691],[105.727072,31.555571],[105.760322,31.561211],[105.772146,31.547387],[105.784337,31.551866],[105.781542,31.563963],[105.798952,31.55646],[105.804199,31.564248],[105.824392,31.56275],[105.827859,31.530617],[105.822184,31.522027],[105.81505,31.526572],[105.81492,31.519222],[105.804187,31.52243],[105.797011,31.507848],[105.819372,31.47634],[105.805941,31.473745],[105.797361,31.453223],[105.805239,31.448242],[105.828022,31.458419],[105.839912,31.439818],[105.822215,31.435192],[105.823059,31.428033],[105.857044,31.424036],[105.863975,31.393022],[105.873638,31.413922],[105.884828,31.405373],[105.884933,31.395209],[105.900777,31.394042],[105.885958,31.388794],[105.880518,31.372986],[105.886634,31.369723],[105.902275,31.380263],[105.910471,31.366355],[105.932595,31.364846],[105.948374,31.379298],[105.946654,31.402179],[105.955326,31.404953],[105.9564,31.414748],[105.973007,31.410805],[105.988406,31.430481],[106.018252,31.416834],[106.034308,31.423729],[106.0405004,31.4014969],[106.052156,31.399882],[106.093415,31.4084929],[106.117963,31.418888],[106.126785,31.433109],[106.15209,31.438459],[106.153616,31.423675],[106.165273,31.420429],[106.186059,31.41872],[106.19471,31.428807],[106.208965,31.416229],[106.243097,31.435177],[106.26073,31.426841],[106.263303,31.432965],[106.255033,31.437079],[106.272198,31.436659],[106.274212,31.44727],[106.283095,31.44517],[106.28562,31.462175],[106.298778,31.462084],[106.2892064,31.5012316],[106.2689524,31.5050456],[106.2633741,31.5223592],[106.2839978,31.541488],[106.2649493,31.5548471],[106.2768153,31.5570841],[106.2763953,31.5702368],[106.2433173,31.5822247],[106.2404821,31.6067326],[106.2560466,31.6231194],[106.2690251,31.6196689],[106.282902,31.6391617],[106.3006279,31.6336782],[106.3156102,31.6421582],[106.352317,31.6386546],[106.3596224,31.6534269],[106.3940688,31.648564],[106.403116,31.6641392],[106.4384649,31.657468],[106.4468763,31.6487749],[106.4546657,31.6254328],[106.4487847,31.5991931],[106.4572871,31.5884614],[106.4797969,31.5865816],[106.4878,31.5697069],[106.5004049,31.5670646],[106.5139102,31.5781446],[106.5339235,31.573286],[106.561829,31.5485665],[106.559228,31.5255453],[106.5691014,31.5181276],[106.6029173,31.5093846],[106.622466,31.5125945],[106.6403733,31.5423738],[106.6285558,31.5702864],[106.6426607,31.5925467],[106.6554657,31.5842807],[106.6654856,31.5909664],[106.6762738,31.5871781],[106.6627686,31.5826615],[106.6833766,31.5634846],[106.7150915,31.5747936],[106.7206893,31.5647707],[106.7579603,31.5673953],[106.7660178,31.5770654],[106.7731808,31.5676524],[106.7632045,31.5577327],[106.7632079,31.5384208],[106.7781137,31.5396997],[106.781315,31.533646],[106.8132446,31.5496911],[106.8204607,31.5468441],[106.8078485,31.5264016],[106.8115032,31.5172452],[106.8240432,31.5203409],[106.8222331,31.5132294],[106.838088,31.5054182],[106.8391566,31.4755911],[106.8461353,31.4691925],[106.8347076,31.4542361],[106.8511311,31.4528292],[106.8798172,31.4231679],[106.861278,31.4025683],[106.8744373,31.3897104],[106.8840638,31.3946065],[106.9134823,31.3795506],[106.9096267,31.3754195],[106.9278841,31.3472876],[106.9449,31.3392009],[106.9301603,31.3116694],[106.9398212,31.2913976],[106.9606967,31.294598],[106.9389523,31.2719788],[106.9586793,31.2567634],[106.9611109,31.2420831],[106.9552721,31.2199445],[106.94855,31.2231781],[106.936296,31.2088656],[106.9324966,31.1767405],[106.9480598,31.164717],[106.9323825,31.1427847],[106.9350949,31.135619],[106.926913,31.1349335],[106.9284535,31.1148529],[106.905276,31.1101168],[106.8968033,31.0944681],[106.8683602,31.0852497],[106.827551,31.0569421],[106.815297,31.0142658],[106.7989118,30.9956002],[106.7827365,30.9980011],[106.7795855,30.9735689],[106.7321802,30.9762105],[106.7381749,30.9573988],[106.7186694,30.9486954],[106.7026907,30.9182583],[106.677499,30.9246182],[106.6630799,30.9175101],[106.6857431,30.8872946],[106.6720196,30.8696076],[106.6710868,30.8413017],[106.6257192,30.8237101],[106.6118673,30.8302197],[106.6120365,30.8050434],[106.6222143,30.7901869],[106.6142517,30.7690951],[106.5803949,30.7597551],[106.5839062,30.7422064],[106.5396658,30.7456169],[106.524775,30.734965],[106.5035711,30.7625371],[106.5041424,30.7867978],[106.4835809,30.7904401],[106.462548,30.7632676],[106.4440322,30.7556958],[106.437001,30.7295112],[106.4170614,30.7129444],[106.4190144,30.695605],[106.3983721,30.6974583],[106.3859587,30.6819179],[106.3769398,30.6953684],[106.3602997,30.6997276],[106.3558117,30.707486],[106.3628604,30.7159541],[106.3505425,30.7245455],[106.3331206,30.7111839],[106.3101432,30.7104614],[106.3206553,30.7015793],[106.3103424,30.7007587],[106.3129985,30.6937712],[106.3009155,30.6880159],[106.2829725,30.7076921],[106.2589359,30.7120328],[106.2541355,30.7280682],[106.2496739,30.7136277],[106.2387977,30.7315057],[106.2358544,30.7225058],[106.2039104,30.7272261],[106.2136762,30.7071673],[106.2340233,30.709671],[106.2336584,30.6900191],[106.2223391,30.6984951],[106.2214447,30.6906679],[106.210412,30.6902701],[106.2139882,30.6802053],[106.1731665,30.6530673],[106.1633428,30.655327],[106.1758636,30.6210771],[106.1875871,30.6112174],[106.1764611,30.5975596],[106.1567627,30.6039962]],[[105.9002562,30.484088],[105.9008368,30.4746602],[105.9142051,30.4728282],[105.9092912,30.4824599],[105.9002562,30.484088]],[[105.9202555,30.4966326],[105.9113839,30.4949816],[105.9194565,30.4934012],[105.9202555,30.4966326]]]}}]}