{"type":"FeatureCollection","features":[{"type":"Feature","properties":{"slug":"nanning","member_count":12,"matched_count":12,"unmatched":[],"source":"Overture Maps division_area (CC-BY 4.0)"},"geometry":{"type":"Polygon","coordinates":[[[108.1294129,22.3137201],[108.1306408,22.3451729],[108.0942553,22.3649606],[108.0921763,22.3755403],[108.1106125,22.397843],[108.0961809,22.4117812],[108.0826832,22.4075132],[108.0777734,22.4141596],[108.0844152,22.4615144],[108.0610677,22.458652],[108.0552352,22.4721423],[108.0325786,22.4777058],[108.0407184,22.4829111],[108.0137344,22.4799419],[108.006941,22.4999357],[107.9925017,22.4950794],[107.9814286,22.5015953],[108.0143128,22.5449549],[107.989855,22.5817153],[108.000815,22.6101567],[108.0206711,22.6084654],[108.0544855,22.6261024],[108.0565401,22.6203468],[108.0687121,22.6280359],[108.0815751,22.6235602],[108.1020125,22.6600735],[108.0862191,22.6725795],[108.0821297,22.7056194],[108.0706104,22.6986876],[108.0680812,22.6728434],[108.0447168,22.6588246],[107.9958041,22.6903105],[107.9998534,22.7091604],[107.9936557,22.720476],[108.0084266,22.7237908],[108.0225159,22.749992],[108.0140884,22.7683684],[108.0284934,22.774664],[108.0259832,22.7883227],[107.9727508,22.7920077],[107.9680468,22.7994419],[107.9768788,22.8227153],[107.9582547,22.8459848],[107.8790542,22.8494351],[107.8688781,22.8675697],[107.8483339,22.8787146],[107.8296138,22.8730538],[107.7929416,22.8817218],[107.7505943,22.9234979],[107.7418468,22.9470674],[107.7353846,22.9481452],[107.7307064,22.9376224],[107.7082471,22.9545339],[107.6937251,22.9408577],[107.6398003,22.9497229],[107.6303503,22.9386802],[107.6549324,22.920195],[107.6647882,22.9211131],[107.670645,22.9048823],[107.6995303,22.8813025],[107.6876757,22.8646354],[107.6661514,22.8584802],[107.647092,22.902882],[107.6088743,22.9071935],[107.5666458,22.8915555],[107.5710556,22.8632062],[107.5412065,22.8625415],[107.5025276,22.8458192],[107.4828533,22.8731794],[107.4832247,22.9021229],[107.4719637,22.9264048],[107.4969403,22.9398596],[107.4900933,22.9509234],[107.4965692,22.9814575],[107.4709421,23.0150693],[107.4774411,23.0247922],[107.4730553,23.0351598],[107.4537976,23.0402415],[107.455875,23.0460507],[107.4399772,23.0546507],[107.4282902,23.0467515],[107.4085641,23.0541363],[107.3954185,23.0441481],[107.3823213,23.05086],[107.3660688,23.0320249],[107.3321936,23.0505741],[107.3369854,23.0633403],[107.3502101,23.0688795],[107.3489038,23.0833118],[107.3721785,23.0856955],[107.3878552,23.0987128],[107.3585064,23.1041506],[107.3599633,23.1116274],[107.3246692,23.1371552],[107.332558,23.1501344],[107.3553702,23.1527171],[107.3423214,23.1610756],[107.3500926,23.1662256],[107.3404061,23.1933831],[107.3548887,23.2018143],[107.3622989,23.19697],[107.3614859,23.2125734],[107.3717629,23.2179583],[107.3723243,23.2389387],[107.3800866,23.2478382],[107.3986071,23.2462751],[107.4203776,23.2608101],[107.4357463,23.2604536],[107.4495331,23.2494693],[107.46714,23.2551831],[107.4766831,23.2498297],[107.4655654,23.2261711],[107.4877367,23.2286303],[107.4885935,23.2362202],[107.5210328,23.2136174],[107.5596895,23.2066942],[107.5671241,23.2216885],[107.5573876,23.2281935],[107.5825597,23.2341002],[107.5759338,23.2388195],[107.5825575,23.2501627],[107.5705879,23.2610971],[107.5748964,23.2784523],[107.5668115,23.2851106],[107.5776142,23.287581],[107.5785072,23.2994698],[107.6399677,23.2882715],[107.6445193,23.2781262],[107.6672011,23.2850537],[107.6977649,23.281243],[107.7065947,23.292411],[107.7135268,23.2898372],[107.7087997,23.3017933],[107.7456989,23.3133075],[107.7442683,23.3391769],[107.7656619,23.3454242],[107.7656966,23.3512077],[107.8134962,23.3471515],[107.8139611,23.3347873],[107.8301811,23.3370489],[107.8336088,23.3474501],[107.8187845,23.3448265],[107.8168903,23.3510944],[107.8289426,23.3529214],[107.8244317,23.3729085],[107.8535784,23.389582],[107.8639437,23.4066095],[107.8583727,23.4165216],[107.8741243,23.4319585],[107.8821993,23.4283585],[107.8765534,23.4382573],[107.8829972,23.4439487],[107.8652993,23.4483311],[107.8488231,23.4350982],[107.8396635,23.4394998],[107.831437,23.4310996],[107.8149032,23.4307481],[107.8014684,23.4390394],[107.7881004,23.4324616],[107.7600362,23.4496887],[107.7423808,23.4453471],[107.7324422,23.4539017],[107.7376682,23.4643129],[107.7264874,23.4836281],[107.7338761,23.5332249],[107.7117004,23.5578121],[107.7190583,23.5569577],[107.7320993,23.5729518],[107.7378082,23.5636949],[107.7570878,23.5751494],[107.7895903,23.5692481],[107.7881464,23.5819728],[107.8075788,23.6085644],[107.8203583,23.6029348],[107.8415481,23.6111024],[107.8433902,23.5970013],[107.8532279,23.6054146],[107.867563,23.6031855],[107.884562,23.6114683],[107.8861261,23.6250533],[107.8964904,23.621091],[107.9043885,23.6311879],[107.8992113,23.6380422],[107.9300611,23.6477335],[107.9348795,23.6632075],[107.9654859,23.6285971],[107.9791451,23.6300099],[107.9928791,23.6412768],[107.9885322,23.6490767],[107.9961426,23.6749618],[108.0141528,23.6789908],[108.0395077,23.7226729],[108.0194802,23.7360515],[108.0117062,23.7619015],[108.0182549,23.7787298],[108.054688,23.8040172],[108.0901849,23.7975782],[108.1101378,23.8185119],[108.1117215,23.8341994],[108.1277693,23.8556459],[108.1470436,23.8464889],[108.162376,23.8255699],[108.1736484,23.8248757],[108.1800304,23.8297158],[108.1721886,23.8419021],[108.1758736,23.8551057],[108.1990326,23.8743091],[108.2047244,23.8582001],[108.2179558,23.8567774],[108.2189189,23.8282998],[108.2287449,23.8253463],[108.2285626,23.8096031],[108.2390113,23.807664],[108.2482933,23.8169693],[108.2457025,23.8075462],[108.2522619,23.8040611],[108.2601351,23.8203577],[108.2763073,23.8011434],[108.2794238,23.8190627],[108.3056251,23.8421824],[108.2866868,23.8510708],[108.292699,23.8714629],[108.313618,23.8843895],[108.3091312,23.9002432],[108.3266015,23.9082401],[108.3258973,23.9152345],[108.3651951,23.9219119],[108.3640898,23.9578595],[108.3584764,23.9700538],[108.3503734,23.9683357],[108.3544388,23.9843919],[108.3670126,23.9892064],[108.3677523,24.0040213],[108.3591842,24.0052286],[108.4019279,24.0325897],[108.429737,24.0347846],[108.4430254,24.030913],[108.4542846,24.0122066],[108.4752751,24.021861],[108.4949058,23.9932892],[108.4832537,23.9922289],[108.47327,23.9804431],[108.456746,23.989508],[108.4294521,23.9659011],[108.4388817,23.9561051],[108.4190684,23.9188864],[108.4398133,23.9221368],[108.4513754,23.9141367],[108.4407035,23.9006257],[108.4711815,23.89546],[108.457847,23.8910588],[108.4542057,23.8675788],[108.4423775,23.8571563],[108.4535195,23.8455547],[108.4140324,23.8271779],[108.4118572,23.8197705],[108.421848,23.8119783],[108.4146526,23.8024558],[108.4269362,23.8003831],[108.433282,23.8103698],[108.439603,23.8048516],[108.4302011,23.7898415],[108.4466719,23.7891516],[108.4457182,23.7815249],[108.4599025,23.7886913],[108.4704768,23.7804315],[108.4652483,23.7705668],[108.4844241,23.7623647],[108.4799042,23.7500005],[108.4858463,23.7473867],[108.4685884,23.7388738],[108.4730094,23.7271244],[108.4997837,23.7068949],[108.4916591,23.6856021],[108.4991781,23.6656082],[108.5251638,23.6745347],[108.5252124,23.6828961],[108.537628,23.6891665],[108.537776,23.7026976],[108.561965,23.7102334],[108.5630314,23.7261869],[108.5769696,23.7397031],[108.59149,23.7392363],[108.58958,23.7476585],[108.6173344,23.7541171],[108.6256626,23.7689742],[108.666861,23.7749421],[108.6720684,23.7893216],[108.7074828,23.7852821],[108.724529,23.8011089],[108.739747,23.7987002],[108.7487443,23.779703],[108.7686784,23.7808735],[108.7826206,23.7618191],[108.7773767,23.7490564],[108.784154,23.7432354],[108.7732902,23.7302005],[108.8002907,23.7175143],[108.7864254,23.6948131],[108.7690925,23.6885099],[108.7797623,23.6667609],[108.7761539,23.6474521],[108.7939538,23.6338988],[108.7786918,23.6177236],[108.797561,23.603706],[108.7897648,23.6002629],[108.7994724,23.5924087],[108.795044,23.588343],[108.8078446,23.5688614],[108.8089324,23.5392607],[108.8222765,23.5217321],[108.8184286,23.4964974],[108.8332324,23.4887135],[108.8385616,23.475474],[108.8612245,23.4725655],[108.8659304,23.4469909],[108.9077576,23.4323506],[108.9162573,23.4119032],[108.908761,23.3936023],[108.9192039,23.3923677],[108.9341295,23.362735],[108.9460207,23.3589531],[108.9534096,23.3655004],[108.9624483,23.3565231],[108.9639964,23.3731496],[108.9932022,23.3743873],[109.0258739,23.3557622],[109.0464063,23.3599706],[109.0527751,23.3236313],[109.0676798,23.3300725],[109.0703223,23.3250546],[109.0826774,23.3380175],[109.0797656,23.3497313],[109.0981744,23.348424],[109.0888109,23.3330543],[109.0805533,23.3333356],[109.0801094,23.3212971],[109.1003876,23.296941],[109.1270252,23.2885206],[109.1383985,23.3052464],[109.1389989,23.2936629],[109.1614568,23.291257],[109.1660311,23.2798499],[109.1921551,23.269338],[109.203573,23.2760796],[109.1880446,23.2859134],[109.2042365,23.3028907],[109.2371549,23.2871472],[109.228865,23.2748591],[109.2087481,23.2745286],[109.2281352,23.2661659],[109.2368445,23.2499869],[109.2284356,23.2387412],[109.249777,23.2318284],[109.2558233,23.2133713],[109.2351774,23.151463],[109.2477303,23.1329396],[109.2431207,23.1224155],[109.252765,23.112003],[109.2470168,23.1044409],[109.2832374,23.1044837],[109.304266,23.0947138],[109.3209741,23.0986327],[109.3451257,23.0719006],[109.3395298,23.057553],[109.3350911,23.0601856],[109.340682,23.0453954],[109.3272638,23.0432089],[109.3319873,23.038521],[109.3110154,23.0241309],[109.3104173,23.0092302],[109.3516528,22.9843883],[109.3496616,22.977002],[109.3718583,22.9516224],[109.3761961,22.9349071],[109.4056183,22.9290479],[109.4138418,22.9121006],[109.4261609,22.9169977],[109.4789128,22.8935017],[109.4800352,22.8807927],[109.4484678,22.8680854],[109.4556323,22.8607274],[109.4512533,22.8520102],[109.4674445,22.8466687],[109.4765954,22.8253862],[109.5179948,22.8301795],[109.5309794,22.8175152],[109.5111967,22.8163112],[109.5015884,22.7746849],[109.5512174,22.7777387],[109.5594973,22.7641683],[109.5704744,22.7651831],[109.5770191,22.7515326],[109.5728193,22.7411687],[109.5841977,22.7268422],[109.5777929,22.7194814],[109.5968778,22.7145261],[109.6181782,22.6826965],[109.6056638,22.6757896],[109.5777563,22.6842965],[109.5640649,22.6600968],[109.5524467,22.662466],[109.5468222,22.6528659],[109.5131555,22.6389693],[109.4854172,22.653461],[109.4659136,22.6344658],[109.4466061,22.6336517],[109.4369033,22.6128444],[109.433571,22.6351895],[109.4077949,22.6378128],[109.3985822,22.6284954],[109.3778045,22.6419738],[109.3632013,22.6299428],[109.347324,22.6318425],[109.3212539,22.6112158],[109.3173336,22.5957438],[109.3024364,22.5881429],[109.2843049,22.5627129],[109.2886173,22.5439768],[109.3164515,22.5253287],[109.3126292,22.5135592],[109.2926356,22.5139214],[109.260685,22.4871194],[109.2448077,22.5127444],[109.2270683,22.5060443],[109.2253042,22.523337],[109.2198157,22.5161848],[109.211289,22.5229749],[109.1943336,22.5141024],[109.1779663,22.5193536],[109.1921775,22.5410802],[109.1822787,22.5487743],[109.1636024,22.5453071],[109.1586652,22.5565441],[109.1493545,22.5397986],[109.1604294,22.5389839],[109.1696421,22.5216026],[109.1428859,22.5128206],[109.1213242,22.5197014],[109.094764,22.5117341],[109.0766326,22.5244997],[109.0492239,22.5241607],[109.0386364,22.5103884],[109.0261043,22.5090909],[109.0040651,22.5140811],[109.003633,22.5313457],[108.9994196,22.5279528],[108.9764701,22.5467536],[108.9590128,22.5217671],[108.9318167,22.5284207],[108.9150104,22.5149425],[108.8892661,22.5123314],[108.8681053,22.5142368],[108.8376638,22.5442255],[108.8072339,22.5262],[108.7786177,22.5304123],[108.7726893,22.5130356],[108.7653927,22.5157739],[108.7603764,22.5057683],[108.7445291,22.5100866],[108.7352944,22.4891258],[108.7094789,22.4913118],[108.716255,22.4537275],[108.6999517,22.4504611],[108.6952264,22.4633823],[108.6863662,22.4655539],[108.6724895,22.4349981],[108.6569241,22.4327919],[108.6322558,22.463662],[108.6254159,22.4558883],[108.6294098,22.4484972],[108.6136394,22.4414776],[108.6028464,22.4161727],[108.5905906,22.4179244],[108.5801336,22.4337854],[108.554708,22.4231022],[108.5557887,22.412726],[108.542966,22.3977629],[108.5603695,22.389264],[108.5646626,22.3721368],[108.5446011,22.3637828],[108.5431242,22.349859],[108.5368863,22.3489721],[108.5376688,22.333812],[108.5476286,22.3300799],[108.5431084,22.3111397],[108.5250701,22.278195],[108.5030029,22.2779362],[108.4905278,22.2399794],[108.4682016,22.2389475],[108.4313927,22.2520313],[108.4198022,22.2708186],[108.4105364,22.2720163],[108.3692201,22.245823],[108.3501119,22.2492211],[108.3186263,22.2405926],[108.2980941,22.2276751],[108.2954038,22.2149308],[108.2744131,22.2065209],[108.2765479,22.2253874],[108.2647699,22.2327347],[108.2575469,22.2284721],[108.2406732,22.2437267],[108.2429215,22.2575597],[108.2279919,22.2697905],[108.2287827,22.2893594],[108.2024546,22.2946713],[108.1855429,22.2759725],[108.1596042,22.2924809],[108.145664,22.2911001],[108.1294129,22.3137201]]]}}]}