{"type":"FeatureCollection","features":[{"type":"Feature","properties":{"slug":"nantes","member_count":205,"matched_count":205,"unmatched":[],"source":"Overture Maps division_area (CC-BY 4.0)"},"geometry":{"type":"MultiPolygon","coordinates":[[[[-1.6349687,46.9242434],[-1.6398221,46.9141911],[-1.6309608,46.9058927],[-1.6404293,46.8785012],[-1.6651396,46.874739],[-1.6865083,46.8906227],[-1.7227356,46.8836965],[-1.7372048,46.8956471],[-1.735508,46.9111747],[-1.7459931,46.9167231],[-1.7457411,46.928353],[-1.8321161,46.932174],[-1.8279649,46.9528624],[-1.8771607,46.9537002],[-1.9171121,46.9747927],[-1.91223,47.0015148],[-1.8939547,46.9975371],[-1.8350734,47.011137],[-1.8192457,47.0444745],[-1.8453573,47.0520384],[-1.8725031,47.0456852],[-1.8771224,47.0516668],[-1.8110566,47.1332576],[-1.8333918,47.1308486],[-1.8480646,47.1379304],[-1.8461838,47.1463564],[-1.8636371,47.1559019],[-1.8641571,47.1639434],[-1.8960716,47.1748229],[-1.9217221,47.165203],[-1.938584,47.1748959],[-1.9310161,47.1995143],[-1.9113165,47.2130954],[-1.8796533,47.2093399],[-1.8786324,47.22703],[-1.8628058,47.2346753],[-1.9207736,47.278062],[-1.9197277,47.2846744],[-1.8915021,47.283844],[-1.8751059,47.3074548],[-1.8466881,47.3129522],[-1.8146181,47.3335495],[-1.7955503,47.3307599],[-1.7998405,47.3354884],[-1.7913983,47.3331628],[-1.7868734,47.3407637],[-1.7889133,47.3319685],[-1.7764323,47.3152761],[-1.7184802,47.2777894],[-1.7168073,47.2868032],[-1.6921826,47.2864216],[-1.6505754,47.3103298],[-1.6808846,47.3371067],[-1.6840532,47.3563976],[-1.6148212,47.3319839],[-1.597747,47.3336246],[-1.5680913,47.3520173],[-1.5314857,47.3100302],[-1.527883,47.3252549],[-1.4786324,47.320834],[-1.4514543,47.3277174],[-1.4335703,47.3427692],[-1.4034702,47.3440979],[-1.390169,47.3085567],[-1.3691112,47.3108846],[-1.3373124,47.3002411],[-1.2962945,47.306138],[-1.2747533,47.2904679],[-1.2781004,47.2707487],[-1.2545083,47.2480686],[-1.2287739,47.2394911],[-1.1977045,47.2529587],[-1.1814065,47.2408717],[-1.1885829,47.220169],[-1.1744215,47.2138592],[-1.1784571,47.1940555],[-1.1622774,47.187439],[-1.1617663,47.1778152],[-1.197915,47.1491344],[-1.2058673,47.1502524],[-1.2042618,47.1450896],[-1.239075,47.1371885],[-1.2242967,47.1189146],[-1.2495736,47.0984824],[-1.1700261,47.0935699],[-1.155363,47.0724177],[-1.115324,47.0627824],[-1.1213773,47.055671],[-1.1174027,47.040019],[-1.1485596,47.0295488],[-1.201274,47.0402186],[-1.269794,47.0849922],[-1.2875162,47.0764736],[-1.2875127,47.057479],[-1.3052692,47.0409405],[-1.2953911,47.0420426],[-1.3004487,47.0342876],[-1.3204379,47.0345174],[-1.3402713,47.0459016],[-1.3471049,47.038044],[-1.366314,47.0418098],[-1.3787293,47.0312885],[-1.3671214,47.019715],[-1.3666163,47.006691],[-1.3863587,47.0056733],[-1.3957679,47.0144265],[-1.4145045,46.9987041],[-1.4628968,46.996687],[-1.4751816,47.0218947],[-1.4722377,47.0313475],[-1.4987978,47.0408775],[-1.5166266,47.0266503],[-1.5554194,47.0147835],[-1.5424312,47.0027727],[-1.5554682,46.9787357],[-1.534087,46.945012],[-1.519885,46.940808],[-1.521565,46.928965],[-1.540741,46.92287],[-1.5998544,46.9447758],[-1.6349687,46.9242434]]],[[[0.5749608,42.8793442],[0.6141513,42.8829161],[0.6125894,42.8691624],[0.5749608,42.8793442]]],[[[-1.2461645,43.0891727],[-1.237268,43.1126274],[-1.2477148,43.1247361],[-1.2420007,43.1406068],[-1.2305647,43.147628],[-1.224682,43.1392039],[-1.2101684,43.1384754],[-1.2144792,43.1287859],[-1.2069995,43.1203555],[-1.2160191,43.1183672],[-1.2131382,43.101014],[-1.2218918,43.0818266],[-1.214445,43.0798095],[-1.211938,43.0495766],[-1.2292925,43.0554486],[-1.247621,43.0426151],[-1.2592541,43.0487036],[-1.2691225,43.0703502],[-1.2461645,43.0891727]]],[[[0.9391067,43.3107269],[0.9283619,43.3189594],[0.9441952,43.3191679],[0.9458827,43.3286524],[0.9854167,43.3345738],[0.959234,43.347203],[0.96845,43.3506977],[0.9534912,43.3639135],[0.9596194,43.3724051],[0.9784806,43.3627397],[0.9939892,43.366563],[0.9959357,43.3762753],[1.0058211,43.3798372],[0.9979307,43.3826266],[1.0022136,43.3914185],[0.9930292,43.4095002],[1.0300925,43.4183608],[1.0187246,43.4306787],[1.0453504,43.4590586],[1.0176314,43.4735989],[1.0336553,43.4868052],[1.0522736,43.4873102],[1.0458747,43.4962349],[1.0562971,43.493594],[1.0591788,43.5056469],[1.0728438,43.504654],[1.0501965,43.5159666],[1.0575731,43.5272238],[1.0684457,43.5220377],[1.0768033,43.5276873],[1.0505125,43.5411244],[1.087742,43.5471026],[1.1027572,43.5346324],[1.1185177,43.545095],[1.1119885,43.556724],[1.1565707,43.5566576],[1.1612756,43.5745175],[1.2146172,43.565515],[1.2530163,43.5698336],[1.237753,43.5527363],[1.2574023,43.5447511],[1.2574738,43.5367862],[1.2901237,43.5256552],[1.310677,43.536809],[1.3374935,43.5203131],[1.3298617,43.4899419],[1.3473143,43.4899522],[1.3867673,43.5119179],[1.3717152,43.5266215],[1.3662595,43.5491406],[1.388668,43.5367635],[1.4105927,43.5490803],[1.4287749,43.5460724],[1.4283726,43.5267294],[1.4202811,43.5233846],[1.435108,43.5166178],[1.4310346,43.5081168],[1.4139602,43.507119],[1.413061,43.513391],[1.3957426,43.506434],[1.4114113,43.4940597],[1.4050724,43.484893],[1.4194244,43.4739756],[1.4143814,43.460339],[1.420632,43.446641],[1.4439468,43.4427371],[1.4772202,43.4567601],[1.472516,43.4453912],[1.4988027,43.4338306],[1.49379,43.4149168],[1.4755917,43.4199691],[1.4794973,43.4099332],[1.5186614,43.4036896],[1.5381766,43.3934796],[1.5443114,43.3796431],[1.5190819,43.3718062],[1.4898139,43.3823647],[1.4892477,43.3905119],[1.4754246,43.3968638],[1.4654793,43.3975521],[1.4624891,43.3882397],[1.4514656,43.3905378],[1.440846,43.3742853],[1.4461215,43.3618854],[1.434777,43.356636],[1.4538296,43.3284388],[1.4780515,43.3179851],[1.4869525,43.3360826],[1.5118111,43.3356642],[1.5191812,43.3462254],[1.5362174,43.3463709],[1.5533895,43.3431466],[1.5686231,43.3215802],[1.5952909,43.30351],[1.5764482,43.2863402],[1.5787109,43.2751134],[1.5689583,43.2712524],[1.5747069,43.2624168],[1.5659166,43.2529401],[1.5471466,43.2779027],[1.5181604,43.2697599],[1.5180316,43.2891596],[1.5126868,43.293607],[1.5064694,43.2860624],[1.4964849,43.2932176],[1.4894749,43.2587785],[1.5047665,43.2493666],[1.4930734,43.2372562],[1.5095356,43.2220728],[1.4867533,43.2277661],[1.4677738,43.2089343],[1.4157409,43.2266527],[1.4287522,43.2546511],[1.3759773,43.2884813],[1.3775737,43.2960133],[1.3638362,43.3073496],[1.3729782,43.310147],[1.3314871,43.3162514],[1.3179973,43.2958808],[1.3052023,43.2985616],[1.3026511,43.2863376],[1.292559,43.288952],[1.3023336,43.272411],[1.293622,43.264067],[1.3306478,43.2625622],[1.318365,43.2511989],[1.3400072,43.2442345],[1.37356,43.2446224],[1.3817098,43.22474],[1.3684051,43.2093147],[1.3451291,43.2120205],[1.3274868,43.2047798],[1.329814,43.1970464],[1.3211068,43.1899703],[1.2741374,43.1962926],[1.2509459,43.183257],[1.2443737,43.1895969],[1.2289163,43.1869288],[1.2279146,43.1738307],[1.2141856,43.1623521],[1.2190099,43.1527094],[1.2741866,43.1484286],[1.3029328,43.1226795],[1.2913111,43.1240962],[1.280357,43.1101306],[1.2601179,43.1091933],[1.2616996,43.0916539],[1.2234362,43.0858489],[1.2084159,43.1189935],[1.1752688,43.1408682],[1.1661365,43.1298396],[1.1246372,43.1561003],[1.1131413,43.144528],[1.1044941,43.1477422],[1.1098231,43.1659993],[1.0961018,43.1709457],[1.121099,43.1822192],[1.139567,43.1776608],[1.1441703,43.1920075],[1.1608688,43.1914722],[1.1617405,43.2028281],[1.1014658,43.2039825],[1.1027361,43.1884273],[1.0730154,43.1789866],[1.0729464,43.1566962],[1.0557239,43.146304],[1.0502443,43.1582699],[1.0251445,43.1677799],[1.0206619,43.1576333],[1.0096492,43.1608948],[1.0059438,43.1757857],[0.9922779,43.1819947],[0.9776753,43.1801516],[0.9690372,43.1635278],[0.9594166,43.1618441],[0.9628245,43.173219],[0.9461291,43.176592],[0.9463415,43.1895645],[0.9338429,43.2042436],[0.9398546,43.2222881],[0.957128,43.229781],[0.9652972,43.2225406],[0.9803056,43.2242704],[0.9805931,43.2313238],[1.0020844,43.2286318],[1.0019705,43.2333884],[0.9931257,43.238436],[0.9947862,43.248368],[0.9845665,43.2455219],[0.9608732,43.25803],[0.9577673,43.2792118],[0.941369,43.2849727],[0.9313745,43.2802956],[0.9202722,43.2891519],[0.9254864,43.3033823],[0.9391067,43.3107269]],[[1.0966195,43.4660635],[1.0813038,43.456501],[1.0845338,43.447769],[1.1101126,43.4424281],[1.1344669,43.4548986],[1.1271747,43.4642314],[1.0966195,43.4660635]],[[1.1913729,43.4432121],[1.2029891,43.4373813],[1.1905422,43.4181604],[1.1915763,43.4035886],[1.2181876,43.3939021],[1.2392837,43.4044183],[1.2431865,43.4183597],[1.2772279,43.4094618],[1.2948381,43.422354],[1.2689347,43.4327874],[1.25544,43.4278736],[1.2684976,43.449804],[1.252226,43.4587805],[1.2421114,43.4416915],[1.2236083,43.4454739],[1.2261018,43.4577055],[1.2161291,43.4603659],[1.196228,43.4542679],[1.1913729,43.4432121]],[[1.2935547,43.3649334],[1.2727629,43.3405026],[1.2900153,43.3214211],[1.3035183,43.318248],[1.3032471,43.3341926],[1.3247591,43.3351847],[1.3281985,43.3423144],[1.3444318,43.3352406],[1.356434,43.340807],[1.354985,43.348232],[1.3316801,43.3549124],[1.336382,43.362544],[1.330024,43.365459],[1.2935547,43.3649334]]],[[[0.4351942,43.4093053],[0.4454404,43.3923483],[0.4216668,43.3836238],[0.4102229,43.3841607],[0.408562,43.395749],[0.3955446,43.4021385],[0.4112451,43.4161182],[0.4351942,43.4093053]]],[[[0.2836893,43.5421899],[0.2772702,43.5199624],[0.2876734,43.5158149],[0.2817234,43.5115815],[0.2605974,43.5169908],[0.2439897,43.5053805],[0.2356051,43.5270003],[0.2375022,43.5349471],[0.245311,43.5324336],[0.2613104,43.5444366],[0.2836893,43.5421899]]],[[[0.2932949,43.8319934],[0.2758724,43.8380647],[0.2772608,43.8515048],[0.3114149,43.8560168],[0.3123586,43.8328891],[0.3232578,43.8236631],[0.2900029,43.8271461],[0.2932949,43.8319934]]],[[[0.9644076,43.8634812],[0.9848969,43.8562792],[0.9811448,43.8447519],[0.9510505,43.8576774],[0.9644076,43.8634812]]],[[[1.6910085,42.952876],[1.6625235,42.9698378],[1.640049,42.9753616],[1.6372667,42.9722597],[1.631844,42.9748963],[1.6466367,42.9785267],[1.6530048,42.9934819],[1.6711243,42.9959932],[1.6795322,42.9906729],[1.6771478,42.980456],[1.7141084,42.9740663],[1.7183512,42.9602717],[1.6910085,42.952876]]],[[[2.3150895,43.1153559],[2.336992,43.1084644],[2.3302706,43.0983186],[2.3663411,43.0774709],[2.3710971,43.0641523],[2.396174,43.0544112],[2.3932208,43.0391958],[2.3862046,43.0353193],[2.363377,43.0382615],[2.3740926,43.0385716],[2.3596856,43.052996],[2.364857,43.0590039],[2.3200281,43.0740341],[2.3170234,43.0821505],[2.2799796,43.084874],[2.3150895,43.1153559]]],[[[2.7685836,43.315422],[2.7888905,43.3122372],[2.7994867,43.3058067],[2.7489728,43.2904507],[2.7415066,43.2998459],[2.7685836,43.315422]]],[[[1.6713177,43.4088327],[1.662835,43.394774],[1.64837,43.399787],[1.6544583,43.4070463],[1.6499658,43.4235922],[1.6713177,43.4088327]]]]}}]}