{"type": "FeatureCollection", "features": [{"type": "Feature", "properties": {"slug": "navapolatsk", "members": 2, "country": "Belarus", "input_hash": "93d15078de1afa81"}, "geometry": {"type": "Polygon", "coordinates": [[[29.362281, 55.7583348], [29.4002206, 55.7537376], [29.4532786, 55.7321187], [29.457357, 55.7188356], [29.479074, 55.7084466], [29.5152857, 55.7015757], [29.5462581, 55.7171188], [29.5714161, 55.7138884], [29.5755815, 55.7021888], [29.5654079, 55.69997], [29.567492, 55.6938404], [29.5954057, 55.7036201], [29.6014434, 55.6918736], [29.5825503, 55.6766211], [29.5398794, 55.6663121], [29.5172473, 55.647021], [29.5290447, 55.6393277], [29.5269651, 55.6194756], [29.5463669, 55.611093], [29.5794084, 55.6107838], [29.5703351, 55.6090175], [29.5791195, 55.6037151], [29.5735691, 55.5980259], [29.5967437, 55.5966458], [29.5553197, 55.5794566], [29.5465326, 55.5912495], [29.5497157, 55.5990224], [29.5130261, 55.6030595], [29.5075071, 55.600584], [29.5138221, 55.5949664], [29.5010187, 55.5945212], [29.4887021, 55.5784281], [29.4891334, 55.5680906], [29.4545644, 55.5628128], [29.4243729, 55.5678284], [29.4263005, 55.5518933], [29.442029, 55.5432867], [29.4233603, 55.5234297], [29.3389884, 55.5255292], [29.3202781, 55.4662048], [29.2286965, 55.4435874], [29.2287819, 55.4361045], [29.1996001, 55.4207052], [29.1951583, 55.407183], [29.1721344, 55.4033266], [29.1734859, 55.3937972], [29.1450548, 55.3929327], [29.1085333, 55.3767018], [29.0864968, 55.3765259], [29.0872688, 55.3701907], [29.0633956, 55.369325], [29.0616909, 55.3865291], [29.0358996, 55.386205], [29.0372085, 55.3754968], [29.0167587, 55.3819703], [28.988446, 55.3672573], [29.0034518, 55.3441748], [28.9688115, 55.3323754], [28.9550257, 55.3191461], [28.9415463, 55.3193653], [28.9407078, 55.2997043], [28.9126253, 55.3059088], [28.9092555, 55.2954219], [28.8935536, 55.295315], [28.8861793, 55.2825654], [28.8695919, 55.2933451], [28.8477766, 55.2935194], [28.8671404, 55.2812541], [28.8212478, 55.274538], [28.8206094, 55.2653572], [28.797142, 55.2656379], [28.7988996, 55.2597817], [28.7754962, 55.2496278], [28.7237018, 55.2666294], [28.6664843, 55.2569876], [28.6322808, 55.281474], [28.6231613, 55.2703146], [28.6329889, 55.2632482], [28.6229038, 55.2665248], [28.6067887, 55.2542573], [28.5937857, 55.2559694], [28.5770058, 55.2747152], [28.5849666, 55.2846025], [28.5688976, 55.2905886], [28.5577798, 55.2804719], [28.5327589, 55.2876866], [28.523147, 55.2661891], [28.5105514, 55.2615119], [28.5240483, 55.2542972], [28.482871, 55.2338932], [28.4540319, 55.2311699], [28.455491, 55.2386893], [28.4450197, 55.2467387], [28.4103007, 55.2383517], [28.3525157, 55.2453932], [28.347516, 55.2257923], [28.3344698, 55.2293657], [28.344469, 55.2204316], [28.3347702, 55.2086796], [28.2756758, 55.2196237], [28.2912111, 55.2527807], [28.3265734, 55.2649232], [28.3533525, 55.263456], [28.3471722, 55.2805877], [28.3314228, 55.2858368], [28.3287191, 55.2985433], [28.338375, 55.305237], [28.3337831, 55.3143352], [28.3524298, 55.3275698], [28.3596986, 55.3515247], [28.2597817, 55.3662164], [28.2631568, 55.3867814], [28.2897508, 55.3940636], [28.282274, 55.4046973], [28.2826632, 55.4345153], [28.2717062, 55.4506158], [28.2525894, 55.4526178], [28.2551837, 55.4651343], [28.2737924, 55.4756515], [28.2676599, 55.483261], [28.2802248, 55.487073], [28.2868874, 55.5013983], [28.3123037, 55.5188336], [28.3088484, 55.5236836], [28.3323616, 55.5358318], [28.3189271, 55.5402283], [28.3423593, 55.544822], [28.3279037, 55.547305], [28.3383919, 55.5508313], [28.3338797, 55.5542662], [28.3437865, 55.5649261], [28.3299529, 55.5777321], [28.3461749, 55.5916425], [28.3453066, 55.5998001], [28.3958636, 55.6153569], [28.4025208, 55.6309824], [28.3881223, 55.6451569], [28.399719, 55.6455994], [28.4016538, 55.6650237], [28.4195014, 55.6895422], [28.4065245, 55.6901905], [28.4051729, 55.695922], [28.4298706, 55.7073182], [28.464804, 55.7007351], [28.4715202, 55.703891], [28.4652646, 55.7174163], [28.470372, 55.7197928], [28.5370666, 55.7293663], [28.5502428, 55.7217144], [28.5420835, 55.7133505], [28.5546684, 55.707563], [28.6673695, 55.700759], [28.6799759, 55.7111112], [28.734135, 55.7146137], [28.7346125, 55.7229048], [28.7721205, 55.7306987], [28.7721419, 55.740744], [28.7939322, 55.7445495], [28.8385105, 55.7282459], [28.8366864, 55.7121163], [28.9110799, 55.7081345], [28.9471507, 55.7196417], [28.9861393, 55.7161971], [29.0016746, 55.7281251], [28.9997918, 55.7447511], [29.017059, 55.7414935], [29.0551042, 55.7567278], [29.1586925, 55.7579623], [29.1492558, 55.7673028], [29.276768, 55.7702593], [29.299314, 55.7785793], [29.2912474, 55.7814235], [29.3310085, 55.7879269], [29.3669726, 55.7871279], [29.3658331, 55.7701716], [29.358618, 55.7679731], [29.362281, 55.7583348]], [[28.505656157168414, 55.518880931701936], [28.504606328600612, 55.51873566164628], [28.5047176, 55.5185702], [28.505656157168414, 55.518880931701936]], [[28.5083674, 55.5192561], [28.507633590443135, 55.51915455908328], [28.5068131, 55.5168329], [28.5083674, 55.5192561]], [[28.6930764, 55.5611951], [28.6710784, 55.5644191], [28.6939724, 55.5601933], [28.6930764, 55.5611951]], [[28.6047373966526, 55.598005083063754], [28.6039752, 55.5973771], [28.6085406, 55.5943628], [28.6047373966526, 55.598005083063754]]]}}]}