{"type": "FeatureCollection", "features": [{"type": "Feature", "properties": {"slug": "navojoa", "members": 1, "country": "Mexico", "input_hash": "f43fca13180c18c5"}, "geometry": {"type": "Polygon", "coordinates": [[[-109.5912918, 26.8667311], [-109.5914327, 26.8480169], [-109.5464188, 26.8480141], [-109.5463922, 26.8387183], [-109.4662765, 26.8387552], [-109.4659148, 26.8262194], [-109.3891984, 26.8261286], [-109.3892956, 26.8038522], [-109.3497584, 26.8050627], [-109.1973778, 26.6235248], [-109.1205065, 26.6713167], [-109.103303, 26.6679566], [-109.0659307, 26.7321457], [-109.071403, 26.7364725], [-109.0642878, 26.751679], [-109.0766274, 26.770616], [-109.1055836, 26.7755861], [-109.1040293, 26.7980439], [-109.1527496, 26.8055699], [-109.1565105, 26.8155822], [-109.1568789, 26.8224822], [-109.0995564, 26.8595783], [-109.1011677, 26.8725844], [-109.1476332, 26.8626989], [-109.1490387, 26.8834145], [-109.1946388, 26.8933496], [-109.1984599, 26.9086057], [-109.2126243, 26.8994577], [-109.214116, 26.8813487], [-109.220707, 26.8876559], [-109.2207556, 26.9229164], [-109.2489778, 26.9118379], [-109.2400957, 26.9498407], [-109.2541407, 26.9614453], [-109.236054, 27.001423], [-109.2551915, 27.042224], [-109.2334499, 27.0503101], [-109.2516846, 27.0875638], [-109.2385468, 27.0896417], [-109.2492616, 27.103705], [-109.2343555, 27.1127201], [-109.2597034, 27.1452732], [-109.2596148, 27.1816823], [-109.2378058, 27.1985079], [-109.2279506, 27.1769377], [-109.1667945, 27.1764666], [-109.1667639, 27.2129661], [-109.1347702, 27.2141489], [-109.1649606, 27.2571692], [-109.19514, 27.279671], [-109.1734141, 27.2980397], [-109.1922618, 27.2967579], [-109.2034671, 27.3080905], [-109.2178804, 27.2967928], [-109.2426653, 27.3127212], [-109.3052965, 27.3131353], [-109.3038184, 27.35077], [-109.3126595, 27.3742184], [-109.3378315, 27.3735676], [-109.3268999, 27.3963736], [-109.3567725, 27.4307818], [-109.3846415, 27.4222282], [-109.3765782, 27.3938302], [-109.417469, 27.3882271], [-109.4148491, 27.3739615], [-109.425908, 27.3782473], [-109.4253359, 27.3486313], [-109.4496149, 27.3402668], [-109.461724, 27.3113871], [-109.5075152, 27.3240052], [-109.5129571, 27.368708], [-109.5704415, 27.3682397], [-109.5699878, 27.3417619], [-109.5879156, 27.3354274], [-109.6749297, 27.3575158], [-109.6898888, 27.3749834], [-109.6527842, 27.3892902], [-109.6522594, 27.3992741], [-109.6929436, 27.4018691], [-109.7075688, 27.4150734], [-109.7365342, 27.398441], [-109.7143105, 27.378163], [-109.7240788, 27.3713352], [-109.7693577, 27.3786677], [-109.7702615, 27.4072793], [-109.7758328, 27.4073258], [-109.7757512, 27.3633474], [-109.7679822, 27.3573208], [-109.7738161, 27.3479916], [-109.8185848, 27.3533014], [-109.8186879, 27.3153759], [-109.80469, 27.3153472], [-109.8093458, 27.2995556], [-109.7962521, 27.2858262], [-109.7901671, 27.2903228], [-109.8069013, 27.255962], [-109.8255548, 27.2558146], [-109.8256248, 27.2447044], [-109.8149816, 27.2445561], [-109.8201431, 27.2261773], [-109.7445558, 27.2224037], [-109.7250398, 27.2302135], [-109.7079199, 27.2222128], [-109.7075638, 27.2399372], [-109.6953777, 27.2399398], [-109.6836549, 27.2354486], [-109.6835898, 27.2182082], [-109.6727459, 27.2247265], [-109.6390855, 27.1800731], [-109.6294974, 27.1841253], [-109.627435, 27.1686162], [-109.5816695, 27.1639679], [-109.5816822, 27.1006904], [-109.5541014, 27.0775368], [-109.5632669, 27.0646638], [-109.550191, 27.0680752], [-109.5453773, 27.0527528], [-109.551551, 27.0172058], [-109.5389679, 27.0173051], [-109.5388425, 26.9989161], [-109.5594272, 26.9988351], [-109.5594668, 26.9838939], [-109.5488674, 26.9835601], [-109.5490341, 26.9714929], [-109.5185713, 26.9714896], [-109.5186022, 26.9624523], [-109.4985632, 26.9623597], [-109.4987197, 26.9027343], [-109.5301675, 26.9010573], [-109.5299529, 26.8622923], [-109.5912918, 26.8667311]]]}}]}