{"type":"FeatureCollection","features":[{"type":"Feature","properties":{"slug":"neftekamsk","member_count":1,"matched_count":1,"unmatched":[],"source":"Overture Maps division_area (CC-BY 4.0)"},"geometry":{"type":"Polygon","coordinates":[[[54.2808166,56.1279172],[54.21938,56.1090317],[54.2188138,56.0965347],[54.2370922,56.0905288],[54.2111864,56.079064],[54.2216226,56.0600297],[54.2311954,56.0522433],[54.2716088,56.064023],[54.2724157,56.044955],[54.2971342,56.0488367],[54.2922863,56.0550123],[54.3120588,56.0933315],[54.3089271,56.1038765],[54.3268087,56.1134662],[54.2808166,56.1279172]],[[54.2453948,56.0676385],[54.2496604,56.0770952],[54.2549054,56.0750217],[54.2453948,56.0676385]]]}}]}