{"type":"FeatureCollection","features":[{"type":"Feature","properties":{"slug":"nefteyugansk","member_count":1,"matched_count":1,"unmatched":["[recovered via metro-name fallback: Nefteyugansk]"],"source":"Overture Maps division_area (CC-BY 4.0)"},"geometry":{"type":"Polygon","coordinates":[[[72.4526358,61.1292569],[72.4752033,61.0926568],[72.4532531,61.0863093],[72.4212821,61.0028844],[72.4607842,61.0101642],[72.4885967,60.9997393],[72.5141733,61.0197951],[72.5405562,60.9981699],[72.5575118,61.002752],[72.5679308,61.0180207],[72.5649648,61.035298],[72.5268713,61.0523689],[72.5353086,61.0661407],[72.5302084,61.074334],[72.5973393,61.084252],[72.6030368,61.0810563],[72.5971655,61.0682389],[72.6202214,61.0604383],[72.6897213,61.075701],[72.7598789,61.073784],[72.8086462,61.0945516],[72.7488181,61.1137189],[72.6869697,61.101237],[72.6860901,61.1137361],[72.654921,61.1312253],[72.6320854,61.1238584],[72.6374387,61.1178842],[72.6111034,61.1122564],[72.6030317,61.1194311],[72.6107898,61.1329181],[72.5900787,61.134504],[72.6019374,61.1258205],[72.5962186,61.1229492],[72.5326304,61.1387246],[72.49156,61.1255832],[72.475493,61.1366239],[72.4526358,61.1292569]]]}}]}