{"type": "FeatureCollection", "features": [{"type": "Feature", "properties": {"slug": "neiva", "members": 1, "country": "Colombia", "input_hash": "4b614653b8a0802f"}, "geometry": {"type": "Polygon", "coordinates": [[[-75.25784098399998, 3.126895607897064], [-75.26803109100001, 3.129753311896978], [-75.26703677299997, 3.10716818289773], [-75.27849876200003, 3.104287731897807], [-75.28319618900002, 3.073088826898837], [-75.29674366699999, 3.05779724689934], [-75.31245898600002, 3.061725636899211], [-75.31548892400002, 3.069811324898938], [-75.33884013699998, 3.071665907898892], [-75.344494635, 3.098122624897997], [-75.36113557099998, 3.092629524898209], [-75.37039407399999, 3.11315978389753], [-75.39705328899998, 3.119865189897298], [-75.40888956999999, 3.113124964897529], [-75.40336912100003, 3.131615838896936], [-75.41301578999997, 3.137051750896749], [-75.390078658, 3.202902301894575], [-75.33742321300002, 3.271734949892332], [-75.35560928400002, 3.283989705891934], [-75.365270592, 3.265914624892515], [-75.378861916, 3.274728067892232], [-75.40562371300001, 3.25007923389304], [-75.43931596700003, 3.242316344893304], [-75.449930424, 3.249896771893047], [-75.46191554400002, 3.240923866893337], [-75.47301770299998, 3.24986751989306], [-75.48633791700001, 3.229759069893711], [-75.53031765399999, 3.232218640893601], [-75.562902238, 3.201704661894624], [-75.57303874399997, 3.165013374895832], [-75.58480469199998, 3.150148366896298], [-75.57631842299998, 3.144782762896515], [-75.58254868699998, 3.123797461897208], [-75.60165296100001, 3.113902477897506], [-75.62208310900002, 3.075015086898777], [-75.60001351800003, 3.048452468899636], [-75.58577349199999, 3.087991816898345], [-75.55781052700002, 3.104374575897817], [-75.53803017500002, 3.072074650898856], [-75.52350877200001, 3.068737461898986], [-75.53142588999998, 3.037695262899992], [-75.49259504000003, 3.036235147900055], [-75.49120543499998, 3.02658405590036], [-75.463244884, 3.02114679990054], [-75.439073274, 3.048263269899659], [-75.42501133000002, 3.096761548898072], [-75.398356724, 3.072778324898853], [-75.40320946399999, 3.052045765899527], [-75.33893116799999, 3.041568530899877], [-75.31605690599997, 2.969954145902247], [-75.300594187, 2.971158521902178], [-75.309061741, 2.939227514903262], [-75.292284816, 2.907934708904279], [-75.29023311399999, 2.868391964905559], [-75.25130149, 2.856479721905967], [-75.216281375, 2.860996392905797], [-75.20119417799998, 2.831874980906756], [-75.16144588600002, 2.809288368907501], [-75.171321384, 2.78714354390823], [-75.15819653, 2.771806751908705], [-75.16701073399997, 2.765329505908941], [-75.13525138, 2.749632281909451], [-75.14528775100001, 2.723409809910337], [-75.12174394700003, 2.729534290910107], [-75.114385464, 2.72471588291026], [-75.096282922, 2.737567748909842], [-75.08785963000003, 2.73033418691007], [-75.02648572599998, 2.793154581908024], [-75.020276664, 2.814955296907296], [-74.98895538199997, 2.858004806905885], [-74.95579305400003, 2.879709918905182], [-74.94463985800002, 2.896782200904636], [-74.97087506399998, 2.898393256904585], [-74.97069484899998, 2.934201940903427], [-75.009746265, 2.933829644903417], [-75.03454726500001, 2.940236944903182], [-75.04415795199998, 2.951214033902818], [-75.05136376399997, 2.944145505903058], [-75.06576759299998, 2.952684440902766], [-75.09877892700001, 2.941344761903192], [-75.111506066, 2.961658220902494], [-75.11548452800002, 2.998056834901308], [-75.156815795, 3.001578337901191], [-75.177103193, 2.99296390290145], [-75.228272157, 3.037477158900005], [-75.24316013100002, 3.03433087690012], [-75.250484009, 3.041510577899867], [-75.23231556000002, 3.065745624899061], [-75.260797464, 3.089807295898299], [-75.25784098399998, 3.126895607897064]]]}}]}