{"type": "FeatureCollection", "features": [{"type": "Feature", "properties": {"slug": "newry", "members": 1, "country": "United Kingdom", "input_hash": "f3c0089e9585f314"}, "geometry": {"type": "Polygon", "coordinates": [[[-6.600843514288262, 54.21905502888814], [-6.644979885499048, 54.17986683568547], [-6.629684, 54.153531], [-6.6485245, 54.1216257], [-6.6612681, 54.1226628], [-6.6450586, 54.0959952], [-6.6588461, 54.096141], [-6.6583963, 54.0755641], [-6.6689854, 54.0728911], [-6.624237095918185, 54.036764166772166], [-6.595762806932091, 54.044892232566745], [-6.587543107637792, 54.05768043790536], [-6.558407533916636, 54.049595206800966], [-6.532902595043637, 54.059780287241004], [-6.511054900795827, 54.05294255607278], [-6.472214618230083, 54.06642242861576], [-6.4814213, 54.0719302], [-6.47870048587179, 54.07723651693268], [-6.4560111, 54.0725574], [-6.4434855961161315, 54.05680145804459], [-6.391736861282159, 54.059206128745416], [-6.364482883974732, 54.072733745600814], [-6.367348035718467, 54.11376610837819], [-6.3399326, 54.1118875], [-6.336345, 54.0947192], [-6.318975192143915, 54.09108839358918], [-6.309986773278038, 54.106833100030514], [-6.291849057011567, 54.112799050778825], [-6.255056454044681, 54.096479980194445], [-6.199076426347907, 54.0982967659564], [-6.184172559555319, 54.07377878415251], [-6.160368788190244, 54.06508772306109], [-6.095939026314483, 54.06277424998955], [-6.07406730710673, 54.04603861736175], [-6.099497301382408, 54.04869876040049], [-6.108558349340466, 54.04030815843567], [-6.0637139452689, 54.02287315266303], [-5.989166833493862, 54.05773151884153], [-5.997157285735942, 54.06142861937943], [-5.964051535888422, 54.06285753876636], [-5.952953290026231, 54.07792526369967], [-5.897941553313808, 54.10483323269611], [-5.872796453415658, 54.167725602460074], [-5.893885249325788, 54.20554279984943], [-5.830755049284991, 54.242058231001806], [-5.834347237813374, 54.251363227186125], [-5.851116205361361, 54.253431577489586], [-5.81541472232281, 54.28658844085068], [-5.816891426285815, 54.2592584750137], [-5.834859840322459, 54.25677417682131], [-5.822600834143768, 54.242970300043226], [-5.693799142250188, 54.251425919817926], [-5.678146234605674, 54.246708083837866], [-5.661229075461802, 54.22573197113666], [-5.637408053348504, 54.24238534858619], [-5.640857818168485, 54.26310170709773], [-5.63543177860487, 54.252545397671646], [-5.609818525396372, 54.24882890058034], [-5.609027814993359, 54.26553428197403], [-5.591634988272934, 54.26390550057127], [-5.561383157934453, 54.286593912268636], [-5.551605751158223, 54.306459628146655], [-5.526850785463306, 54.310458030701035], [-5.532698071156032, 54.31591247797284], [-5.517041335310769, 54.324446006387404], [-5.54945247305719, 54.37386005844156], [-5.585535985352629, 54.391779448901175], [-5.596546650392281, 54.406989266925805], [-5.584812092912895, 54.449606741134204], [-5.629278044199868, 54.46507690845972], [-5.639538471764123, 54.45759096208074], [-5.668412235718668, 54.461050830117856], [-5.702795687715446, 54.446471444145125], [-5.723907015371933, 54.44780404816792], [-5.737016054828629, 54.46397821291274], [-5.792119871380748, 54.463707011640494], [-5.824504606808199, 54.49549404344805], [-5.872256504256532, 54.479515052871484], [-5.87742141614495, 54.46730086716972], [-5.903261181495803, 54.462249320022195], [-5.900764841325199, 54.454836717530014], [-5.91645636674347, 54.45004860508264], [-5.915847991104148, 54.43342893318176], [-5.930593188144556, 54.43039703935659], [-5.925290862386673, 54.42401401204095], [-5.951728488792752, 54.40382245555136], [-5.939456271945605, 54.38396492068746], [-5.971326149142397, 54.384476519364526], [-6.019549546786466, 54.370574292818155], [-6.064586559979651, 54.32702352671873], [-6.099415583870939, 54.32666400698215], [-6.105394374155381, 54.318584525486195], [-6.060872486302538, 54.29150406924417], [-6.059857201320457, 54.28100344487068], [-6.073352239707388, 54.27967568860937], [-6.063636724050541, 54.27155678286193], [-6.07667756732247, 54.26358882572673], [-6.039846745489228, 54.26324528664468], [-6.05137891244381, 54.244038744873876], [-6.071110804735445, 54.25451013317384], [-6.107856403936006, 54.2402174206295], [-6.137559668273328, 54.24323767196961], [-6.161268572618056, 54.219023255003464], [-6.189915501520767, 54.237650428294046], [-6.182405891470496, 54.24429183648866], [-6.213324958209942, 54.25872298708281], [-6.242471226462504, 54.263833786045986], [-6.254982245915928, 54.257895212082296], [-6.280096089795099, 54.27186682887672], [-6.289468732743823, 54.26515025641546], [-6.332016624809889, 54.26327970393826], [-6.352406737358148, 54.27410500606352], [-6.369405909153539, 54.26541328515207], [-6.402625634668193, 54.2731384789126], [-6.440047545358141, 54.267586830304616], [-6.458822847221756, 54.25221428413491], [-6.467728737873225, 54.25508553125501], [-6.50504530865553, 54.225794727732584], [-6.525943238018029, 54.23733380100295], [-6.572925924571179, 54.22431167776061], [-6.586139489889071, 54.213652024275575], [-6.600843514288262, 54.21905502888814]]]}}]}