{"type": "FeatureCollection", "features": [{"type": "Feature", "properties": {"slug": "ngandajika", "members": 3, "country": "Congo DR", "input_hash": "c66265f30d53e4ce"}, "geometry": {"type": "Polygon", "coordinates": [[[24.076221446000034, -6.362640875999944], [24.106956480000065, -6.344085019999966], [24.11295552000007, -6.365425478999953], [24.130787760000032, -6.374239131999957], [24.118673400000034, -6.426408993999928], [24.18469452000005, -6.494085831999939], [24.221385284000064, -6.478276535999953], [24.255560415000048, -6.475057423999942], [24.269051107000053, -6.449685206999959], [24.33943218400003, -6.461748837999949], [24.345197555000027, -6.504603825999936], [24.418087111000034, -6.604218977999949], [24.447979317000033, -6.609746966999978], [24.507969262000074, -6.590692977999936], [24.63042405300007, -6.581979278999938], [24.636289500000032, -6.587726250999935], [24.634229293000033, -6.610713855999961], [24.655391171000076, -6.645651885999939], [24.65632432700005, -6.695754931999943], [24.705303335000053, -6.688404893999973], [24.724615189000076, -6.670479130999979], [24.757969219000074, -6.698518820999936], [24.803728036000052, -6.692541910999978], [24.832481319000067, -6.70770797299997], [24.862606072000062, -6.708852940999975], [24.92192827300005, -6.693674958999964], [24.932419425000035, -6.74611424099993], [24.87554231000007, -6.757845372999952], [24.84079763400007, -6.794679094999935], [24.847486074000074, -6.82720792799995], [24.81690227200005, -6.841687991999947], [24.79023311900005, -6.868804939999961], [24.78127310600007, -6.890175943999964], [24.748840363000056, -6.889946928999962], [24.698023006000028, -6.948308973999929], [24.669040230000064, -6.955199851999964], [24.65638910100006, -6.950832959999957], [24.643739458000027, -6.96071182299994], [24.643974169000046, -6.980242016999966], [24.619491975000074, -6.983268660999954], [24.553781541000035, -7.012880245999952], [24.524130144000026, -6.987624886999981], [24.50463038600003, -7.044248662999962], [24.483041547000028, -7.054114761999926], [24.397425662000046, -7.046315155999935], [24.37964340700006, -7.058070939999936], [24.345140307000065, -7.058724981999944], [24.322365279000053, -7.050212919999979], [24.306722200000024, -7.03228396999998], [24.266468443000065, -7.017326902999969], [24.225517378000063, -7.01707199699996], [24.21792818800003, -7.009943975999931], [24.228285405000065, -6.998232919999964], [24.22805932400007, -6.974107988999947], [24.201160284000025, -6.925837249999972], [24.177475368000046, -6.90629000399997], [24.142282153000053, -6.902588008999942], [24.104780280000057, -6.926227008999945], [24.071653440000034, -6.93033599499995], [24.038379, -6.887042951999945], [24.018546240000035, -6.883343663999938], [23.92621452000003, -6.899559943999975], [23.909358600000076, -6.884167221999974], [23.904504360000033, -6.863464238999939], [23.861720520000063, -6.84700246999995], [23.872780800000044, -6.805355396999971], [23.814999, -6.790158054999949], [23.805974160000062, -6.77688653499996], [23.805637560000037, -6.756678346999934], [23.779038240000034, -6.758946014999935], [23.73379164000005, -6.743675245999952], [23.737369240000078, -6.727768009999977], [23.72792230400006, -6.719249795999929], [23.755121255000063, -6.675389928999948], [23.78571331200004, -6.667152937999958], [23.778824222000026, -6.656342895999956], [23.756523455000035, -6.650799921999976], [23.762968175000026, -6.642992913999933], [23.740213348000054, -6.631473677999963], [23.748729480000065, -6.621140933999925], [23.748304320000045, -6.581147856999962], [23.767389354000045, -6.580941107999934], [23.771791414000063, -6.538883007999971], [23.786060319000057, -6.522350028999938], [23.765609135000034, -6.50784495399995], [23.778953254000044, -6.49774692099993], [23.776439383000024, -6.478664936999962], [23.787014294000073, -6.479136954999944], [23.80520841300006, -6.439620918999935], [23.791433442000027, -6.416847003999976], [23.79420825400007, -6.396850982999979], [23.813282124000068, -6.403540030999977], [23.808235327000034, -6.390430829999957], [23.839284641000063, -6.367712231999974], [23.85259986400007, -6.392549502999941], [23.90455959700006, -6.38663011999995], [23.907302582000057, -6.402951253999959], [23.94017025100004, -6.412180011999965], [23.97489117400005, -6.395893006999927], [24.016502212000034, -6.395008104999931], [24.021562104000054, -6.387430237999979], [24.065693112000076, -6.379806927999937], [24.076221446000034, -6.362640875999944]]]}}]}