{"type": "FeatureCollection", "features": [{"type": "Feature", "properties": {"slug": "nitra", "members": 1, "country": "Slovakia", "input_hash": "b6fd634d87928a96"}, "geometry": {"type": "Polygon", "coordinates": [[[17.904669, 48.396428], [17.855323, 48.35043], [17.860522, 48.337039], [17.849344, 48.332082], [17.847098, 48.306623], [17.832953, 48.297574], [17.8362, 48.29048], [17.865608, 48.280689], [17.881018, 48.284572], [17.885695, 48.277644], [17.89654, 48.283163], [17.898453, 48.274226], [17.944281, 48.25508], [17.981071, 48.252418], [17.990451, 48.236792], [17.97997, 48.237615], [17.991963, 48.209478], [17.970501, 48.188261], [18.038686, 48.141295], [18.131501, 48.193316], [18.189412, 48.206619], [18.197162, 48.193692], [18.180563, 48.183607], [18.1921, 48.168726], [18.242905, 48.181505], [18.244199, 48.206851], [18.294303, 48.193332], [18.292871, 48.181736], [18.346233, 48.177021], [18.343375, 48.187136], [18.357883, 48.199251], [18.345549, 48.207854], [18.347692, 48.220058], [18.358724, 48.222948], [18.389403, 48.211043], [18.390311, 48.218722], [18.411974, 48.2213], [18.438614, 48.23874], [18.413311, 48.266762], [18.350683, 48.278687], [18.355387, 48.294094], [18.307078, 48.298144], [18.30887, 48.311524], [18.292244, 48.310962], [18.277943, 48.322355], [18.26676, 48.315409], [18.261601, 48.328044], [18.243806, 48.337396], [18.267963, 48.352666], [18.259148, 48.362125], [18.265312, 48.373346], [18.244022, 48.39002], [18.24453, 48.401077], [18.225411, 48.406173], [18.227294, 48.412606], [18.187567, 48.439219], [18.13138, 48.44768], [18.113569, 48.421641], [18.105955, 48.420959], [18.050635, 48.436115], [18.059195, 48.450015], [18.040535, 48.453595], [18.039564, 48.460049], [18.013293, 48.464712], [17.993184, 48.455726], [17.956738, 48.461565], [17.945014, 48.44093], [17.932362, 48.442194], [17.920479, 48.428594], [17.904669, 48.396428]]]}}]}