{"type":"FeatureCollection","features":[{"type":"Feature","properties":{"slug":"nizhny-tagil","member_count":1,"matched_count":1,"unmatched":[],"source":"Overture Maps division_area (CC-BY 4.0)"},"geometry":{"type":"Polygon","coordinates":[[[60.0735215,57.8304157],[60.0909844,57.8783713],[60.0896437,57.8986617],[60.1565094,57.9029469],[60.1518641,57.9176429],[60.1595288,57.9258337],[60.1389999,57.9313532],[60.1335775,57.9505391],[60.1037057,57.9528979],[60.0989529,57.9904361],[60.0282142,58.0006174],[60.0446357,58.0319566],[59.9066712,58.0164565],[59.8900453,58.0275096],[59.8712969,58.0282588],[59.8737651,58.0052132],[59.8664252,57.9993289],[59.8800343,57.9987314],[59.8698423,57.983784],[59.831102,57.9911949],[59.8033675,57.9074052],[59.8428674,57.8822589],[59.9196149,57.8601823],[59.9194692,57.8465906],[59.9386232,57.8442547],[59.946323,57.858059],[60.0082122,57.8551868],[60.0111713,57.8279317],[60.0735215,57.8304157]]]}}]}