{"type":"FeatureCollection","features":[{"type":"Feature","properties":{"slug":"nizhnekamsk","member_count":1,"matched_count":1,"unmatched":["[recovered via metro-name fallback: Nizhnekamsk]"],"source":"Overture Maps division_area (CC-BY 4.0)"},"geometry":{"type":"Polygon","coordinates":[[[51.6631454,55.5896176],[51.6928276,55.5786649],[51.7206056,55.5818964],[51.7084317,55.5835692],[51.7113911,55.5905253],[51.7298138,55.5890809],[51.7591926,55.6128266],[51.7623639,55.6053444],[51.7874366,55.6132872],[51.7961454,55.6089538],[51.7855369,55.605587],[51.7993637,55.6028063],[51.7831904,55.5827248],[51.8158476,55.583215],[51.8116445,55.589229],[51.8209826,55.5982744],[51.8308931,55.5936441],[51.8228861,55.5866274],[51.8309586,55.5867783],[51.8267222,55.576955],[51.8332603,55.5761252],[51.8509399,55.583988],[51.8619479,55.59969],[51.8778595,55.58527],[51.8696202,55.5821403],[51.8757918,55.5663392],[51.8761583,55.5723536],[51.909516,55.5690153],[51.909616,55.5803868],[51.931532,55.5807073],[51.9358352,55.5802171],[51.9372696,55.5785012],[51.9222586,55.5751824],[51.9342007,55.5626776],[51.9571507,55.5742394],[51.9496028,55.5702784],[51.9506145,55.5595172],[51.9682963,55.573379],[51.9963702,55.5793226],[52.0164968,55.573959],[52.0251769,55.6019525],[51.9819081,55.6166615],[51.9044566,55.6178732],[51.8858843,55.6265146],[51.894224,55.6294527],[51.892105,55.6338391],[51.8852225,55.6261962],[51.8570513,55.6446495],[51.8901497,55.6507323],[51.8971692,55.6620891],[51.891796,55.6676671],[51.9040449,55.6760566],[51.8370695,55.6790713],[51.8586225,55.6571762],[51.8184265,55.6691241],[51.7666887,55.6366022],[51.7429714,55.6309156],[51.7044766,55.5862981],[51.6631454,55.5896176]]]}}]}