{"type": "FeatureCollection", "features": [{"type": "Feature", "properties": {"slug": "nong-bua-lam-phu", "members": 1, "country": "Thailand", "input_hash": "ee0aca4e3aecd6eb"}, "geometry": {"type": "Polygon", "coordinates": [[[102.1254304, 17.5090276], [102.1259684, 17.4883745], [102.1044572, 17.4761026], [102.1134376, 17.4673934], [102.1208163, 17.473138], [102.1291827, 17.4610806], [102.1210971, 17.4516495], [102.1158714, 17.4560892], [102.1050546, 17.4468078], [102.086726, 17.4654165], [102.0523775, 17.4490808], [102.0463944, 17.4557888], [101.9955752, 17.4605338], [101.9874959, 17.4542039], [101.9927667, 17.4201961], [101.9816995, 17.413772], [102.0180254, 17.3739133], [102.0142733, 17.3577664], [102.0206908, 17.3450578], [102.0114163, 17.3342313], [101.9903367, 17.3340615], [101.9836421, 17.3162769], [102.0146926, 17.2878003], [102.0134251, 17.2783744], [102.0264422, 17.281245], [102.0343833, 17.2629543], [102.0453317, 17.2627865], [102.0536904, 17.2501339], [102.0602689, 17.2546245], [102.0770692, 17.2482039], [102.0936074, 17.2054793], [102.0967799, 17.1770717], [102.0841511, 17.1679411], [102.0776876, 17.1828356], [102.0380009, 17.2202878], [102.0283408, 17.2136076], [102.0235816, 17.2042536], [102.0319623, 17.1963073], [102.0294431, 17.1857675], [102.0442214, 17.1642762], [102.0340278, 17.1481771], [102.0373411, 17.1383924], [102.0750033, 17.1106268], [102.0889228, 17.1125723], [102.100524, 17.1011034], [102.1018219, 17.0670601], [102.1203144, 17.0574667], [102.1301884, 17.0373836], [102.1495208, 17.0337452], [102.1554045, 17.0245676], [102.1238816, 16.9939872], [102.0913313, 16.9804844], [102.0724931, 16.9631777], [102.0508881, 16.9650092], [102.0292112, 16.9506746], [102.0483421, 16.9047951], [102.070768, 16.8851852], [102.0813523, 16.8897234], [102.0987838, 16.8831693], [102.0964114, 16.8909003], [102.1046807, 16.8974113], [102.1244418, 16.8805465], [102.1561688, 16.8812762], [102.1578274, 16.8720335], [102.1715083, 16.8649792], [102.1804085, 16.8719346], [102.188168, 16.8575357], [102.2138457, 16.8603703], [102.235221, 16.880599], [102.2491784, 16.8784284], [102.254488, 16.894803], [102.2954419, 16.8918536], [102.2915995, 16.884125], [102.3069157, 16.8843504], [102.3024487, 16.8769768], [102.3116457, 16.8675247], [102.3247473, 16.8669999], [102.3167499, 16.8547706], [102.3306432, 16.854937], [102.3321025, 16.8486171], [102.3235577, 16.8462768], [102.3399558, 16.8366922], [102.3432292, 16.8180866], [102.350081, 16.8309651], [102.3755619, 16.8108276], [102.3774379, 16.817915], [102.3919927, 16.8103901], [102.4014285, 16.8177531], [102.4049913, 16.8022787], [102.415605, 16.8050784], [102.4149919, 16.794523], [102.433579, 16.7833766], [102.438776, 16.7949009], [102.450004, 16.790148], [102.4593655, 16.8085417], [102.4747452, 16.7995358], [102.4964714, 16.8038751], [102.5497359, 16.7812806], [102.6105686, 16.773565], [102.6187178, 16.8275446], [102.6789648, 16.9698553], [102.6697064, 16.9934618], [102.5432937, 17.0669321], [102.5192517, 17.1001843], [102.5042046, 17.1462681], [102.4691931, 17.2027045], [102.4911524, 17.2075318], [102.4908185, 17.2194701], [102.502174, 17.2300923], [102.5383048, 17.2255014], [102.5744206, 17.2336386], [102.5946393, 17.2638133], [102.5483857, 17.2769048], [102.5015753, 17.2718933], [102.4869863, 17.2831186], [102.4622104, 17.2870661], [102.4378482, 17.282143], [102.4410378, 17.325645], [102.4275874, 17.3664911], [102.3986086, 17.4146332], [102.3666549, 17.5062544], [102.3324807, 17.5509363], [102.3179423, 17.6791827], [102.3028671, 17.6743668], [102.2883683, 17.691433], [102.2806261, 17.685357], [102.2665273, 17.6905604], [102.262073, 17.6817195], [102.2694073, 17.6626682], [102.2450821, 17.6506722], [102.186717, 17.6572085], [102.1578826, 17.6683988], [102.1279778, 17.6350187], [102.1196374, 17.6327686], [102.1046166, 17.6472589], [102.0832264, 17.6343232], [102.1063793, 17.6076611], [102.1188817, 17.5687979], [102.1348223, 17.5544273], [102.140076, 17.5300508], [102.1354417, 17.5087942], [102.1254304, 17.5090276]]]}}]}