{"type":"FeatureCollection","features":[{"type":"Feature","properties":{"slug":"norfolk-on","member_count":5,"matched_count":3,"unmatched":["Six Nations (Part) 40 (CA-ON, type='Indian Reserve')","New Credit (Part) 40A (CA-ON, type='Indian Reserve')"],"source":"Overture Maps division_area (CC-BY 4.0)"},"geometry":{"type":"Polygon","coordinates":[[[-80.2124677,42.7697697],[-80.2817143,42.7163719],[-80.3254656,42.6474185],[-80.3434067,42.6437141],[-80.395027,42.655521],[-80.4365749,42.6233362],[-80.4346864,42.5929885],[-80.396286,42.5964642],[-80.2304088,42.571435],[-80.0336854,42.5549752],[-80.0393511,42.5401344],[-80.1529785,42.5313211],[-80.4129681,42.5709714],[-80.542963,42.5670307],[-80.638964,42.5776933],[-80.7215225,42.6138464],[-80.7171535,42.7878896],[-80.7446328,42.8239513],[-80.7270494,42.8457634],[-80.7119705,42.8338207],[-80.7004446,42.8484382],[-80.7051858,42.8545405],[-80.5053888,42.8840833],[-80.5427002,42.9828719],[-80.2432916,43.0316672],[-80.054247,42.9629105],[-80.0451252,42.9765411],[-80.0371427,42.9752594],[-80.0432508,42.9793416],[-80.0099404,43.0290945],[-79.9935105,43.0271009],[-80.0076628,43.0324949],[-79.9766282,43.0788098],[-80.0038764,43.0882026],[-79.9850306,43.1322001],[-79.5115087,42.9646625],[-79.4358638,42.8737565],[-79.4482364,42.8724481],[-79.4843548,42.83801],[-79.5250372,42.8502415],[-79.541562,42.8384717],[-79.5536802,42.8396257],[-79.5824805,42.8511646],[-79.6400811,42.8320089],[-79.70319,42.8554334],[-79.7493019,42.8388179],[-79.7880171,42.8378947],[-79.8382209,42.8189657],[-79.9512188,42.8025714],[-79.9779732,42.7883671],[-80.0384066,42.7929867],[-80.0708267,42.7799354],[-80.2124677,42.7697697]]]}}]}