{"type": "FeatureCollection", "features": [{"type": "Feature", "properties": {"slug": "north-wilkesboro", "members": 1, "country": "United States", "input_hash": "c0b75a385ea610cc"}, "geometry": {"type": "Polygon", "coordinates": [[[-81.4554908, 36.2611537], [-81.4777063, 36.2358367], [-81.465321, 36.2265849], [-81.4557961, 36.2004482], [-81.5003956, 36.1425013], [-81.5454913, 36.1174823], [-81.5164688, 36.097483], [-81.4771243, 36.096841], [-81.4678052, 36.0855431], [-81.4539848, 36.0904954], [-81.4447633, 36.0721338], [-81.4244442, 36.077858], [-81.4074176, 36.0718566], [-81.3894668, 36.0501354], [-81.3963992, 36.0407712], [-81.3820129, 36.0444349], [-81.3449842, 36.0256303], [-81.3267313, 35.9948581], [-81.2684548, 36.0249903], [-81.2026185, 36.0361968], [-81.1686072, 36.0254525], [-81.1398263, 36.0376595], [-81.1115134, 36.0377404], [-81.0981168, 36.0281693], [-81.0576264, 36.0315652], [-81.0485115, 36.0410866], [-80.9756775, 36.0588124], [-80.8815946, 36.0556891], [-80.8687474, 36.326471], [-80.8932729, 36.3412164], [-80.9059943, 36.3614526], [-80.9421398, 36.373611], [-80.9671565, 36.4020268], [-80.9840308, 36.388831], [-80.9813763, 36.3761675], [-80.9946542, 36.3794036], [-81.0136741, 36.3711482], [-81.0266887, 36.3731994], [-81.0437902, 36.3933272], [-81.0442725, 36.4110678], [-81.0780507, 36.4179277], [-81.0951151, 36.44078], [-81.1284016, 36.4259063], [-81.1382458, 36.4124859], [-81.1629599, 36.4325221], [-81.1892861, 36.3993891], [-81.2382883, 36.3683015], [-81.2536524, 36.3666023], [-81.2499864, 36.3626518], [-81.2593314, 36.3563199], [-81.2817739, 36.3545166], [-81.2915704, 36.3646647], [-81.3224208, 36.3734981], [-81.3592238, 36.3666894], [-81.366607, 36.3591382], [-81.3613694, 36.3095101], [-81.366729, 36.2844541], [-81.4140922, 36.2947395], [-81.4131285, 36.2814637], [-81.4302412, 36.2660432], [-81.4554908, 36.2611537]]]}}]}