{"type": "FeatureCollection", "features": [{"type": "Feature", "properties": {"slug": "nosy-be", "members": 1, "country": "Madagascar", "input_hash": "41daab32e7ce6b97"}, "geometry": {"type": "MultiPolygon", "coordinates": [[[[48.371958696000206, -13.467671163000034], [48.36690091900016, -13.491283591000013], [48.34459693500014, -13.499445387999856], [48.33076382600018, -13.489582173999906], [48.3247201060002, -13.456356687999914], [48.34575328600016, -13.440253887999916], [48.36073286800024, -13.448655994000035], [48.371958696000206, -13.467671163000034]]], [[[48.34769795700004, -13.436624221999978], [48.3480613590001, -13.43606871299994], [48.34826391800004, -13.437040233999937], [48.34769795700004, -13.436624221999978]]], [[[48.36748187300009, -13.440134388], [48.36084600700008, -13.43054512599997], [48.362488105999944, -13.428845144999912], [48.372879684, -13.43516045900003], [48.36748187300009, -13.440134388]]], [[[48.17842441900018, -13.370454192999887], [48.17807159199998, -13.359658298999932], [48.18607774000003, -13.35859028799996], [48.1868383100001, -13.372281023999847], [48.17842441900018, -13.370454192999887]]], [[[48.26855110700012, -13.198001705999843], [48.288104467000096, -13.209416336], [48.304786271000125, -13.200702569999862], [48.31295809200009, -13.217832593000026], [48.294950099000175, -13.258239065], [48.30587453200019, -13.267405961999884], [48.313820341999985, -13.258602726999982], [48.305795873000136, -13.275354200999914], [48.313359570000046, -13.279293777999897], [48.32707726000018, -13.26498588999982], [48.3324877620002, -13.280691660999935], [48.323362551, -13.310708556], [48.34580545900013, -13.319458347000023], [48.34564236700015, -13.348045275999823], [48.33045591300004, -13.337528616999919], [48.325214370000026, -13.347068550000017], [48.32708634500011, -13.34321139399998], [48.323822883000105, -13.336542766999969], [48.3266878660001, -13.343349286000034], [48.31819218900017, -13.345517837999864], [48.31387154300006, -13.36035770299992], [48.33901616200018, -13.38742080299994], [48.34884941400003, -13.381462137000028], [48.36006533700015, -13.410740031999978], [48.34201138200018, -13.40605697199993], [48.318778417000146, -13.424644587999978], [48.31043081200005, -13.423296875999938], [48.296605636000095, -13.399892750999982], [48.28912542800009, -13.408481468], [48.285710633000065, -13.401029404999974], [48.2776085820002, -13.401074257999937], [48.28093782000013, -13.40789588900003], [48.266634422000095, -13.40451601999996], [48.26074545400007, -13.416227121999952], [48.214228095000124, -13.38581367], [48.21332320500005, -13.398444938000011], [48.198022136000134, -13.397708341999987], [48.20272633400015, -13.392309985999987], [48.1883078890001, -13.388843266000038], [48.189279354000064, -13.354790671999979], [48.18095761900014, -13.330585443999894], [48.178333032000126, -13.338812512999823], [48.17308507000007, -13.33689982299984], [48.18224577099994, -13.302183044999822], [48.199759264000136, -13.278532799999823], [48.17263674000009, -13.270455636999884], [48.180224363000036, -13.266841492999959], [48.17175834600005, -13.252495108], [48.20007265000015, -13.250969656999814], [48.200111323000044, -13.260666732999937], [48.21689747100021, -13.264766441999882], [48.21627083800013, -13.276376041999981], [48.22954669100017, -13.271683293000024], [48.23081180300005, -13.259768871], [48.23968063600012, -13.279625519999911], [48.256125196000085, -13.275740120999956], [48.26247040700008, -13.265218587999982], [48.24332081400024, -13.21209356899982], [48.26855110700012, -13.198001705999843]]], [[[48.17436899000006, -13.305129412999975], [48.15514469200019, -13.313083811999888], [48.14857930600016, -13.319941620999941], [48.147997335999946, -13.299854125999957], [48.155833757000096, -13.29200606300003], [48.17415391600002, -13.290422732999843], [48.17436899000006, -13.305129412999975]]], [[[48.190305889, -13.287204359999919], [48.18563131500014, -13.287915276999854], [48.18510561299996, -13.285491864], [48.190305889, -13.287204359999919]]]]}}]}