{"type": "FeatureCollection", "features": [{"type": "Feature", "properties": {"slug": "nova-friburgo", "members": 1, "country": "Brazil", "input_hash": "9fbd08c521687fec"}, "geometry": {"type": "Polygon", "coordinates": [[[-42.6417706, -22.1872539], [-42.6444444, -22.2119026], [-42.6593966, -22.2098873], [-42.6775852, -22.2425979], [-42.7166988, -22.2698682], [-42.7110089, -22.2872787], [-42.7261427, -22.3162166], [-42.7177399, -22.3280106], [-42.7266539, -22.3358535], [-42.7223956, -22.352324], [-42.7276812, -22.3556126], [-42.7105231, -22.3615498], [-42.7109251, -22.3776425], [-42.6935511, -22.3890918], [-42.6841528, -22.3934145], [-42.6590492, -22.3858295], [-42.6507816, -22.3961357], [-42.6161618, -22.3854454], [-42.5846049, -22.3552881], [-42.5643661, -22.3594248], [-42.5510756, -22.3865305], [-42.5582556, -22.4015803], [-42.5562315, -22.4239711], [-42.5756823, -22.4404995], [-42.5712024, -22.4489596], [-42.5369036, -22.4577717], [-42.5149981, -22.4358447], [-42.4999643, -22.4347397], [-42.4712343, -22.4492477], [-42.45097, -22.433881], [-42.4035212, -22.4291174], [-42.3895682, -22.4202697], [-42.3286334, -22.4284775], [-42.2786524, -22.4034334], [-42.2886854, -22.4046796], [-42.2941732, -22.3923025], [-42.2571526, -22.3664728], [-42.2224846, -22.358752], [-42.2257559, -22.3518951], [-42.2053249, -22.3691278], [-42.2157327, -22.3414504], [-42.2615388, -22.3202966], [-42.2508868, -22.3061032], [-42.2656719, -22.3070267], [-42.2775621, -22.2925131], [-42.3586424, -22.301687], [-42.4745415, -22.2240071], [-42.4717797, -22.2114418], [-42.4856742, -22.1937768], [-42.528749, -22.15627], [-42.552125, -22.1584935], [-42.5553695, -22.1731614], [-42.5660638, -22.179488], [-42.5934577, -22.1780116], [-42.6114489, -22.1963992], [-42.6417706, -22.1872539]]]}}]}