{"type":"FeatureCollection","features":[{"type":"Feature","properties":{"slug":"novotroitsk","member_count":1,"matched_count":1,"unmatched":["[recovered via metro-name fallback: Novotroitsk]"],"source":"Overture Maps division_area (CC-BY 4.0)"},"geometry":{"type":"Polygon","coordinates":[[[58.2870248,51.2343363],[58.2878589,51.2266388],[58.2592841,51.2160135],[58.2500373,51.1756204],[58.2548463,51.1721694],[58.2953896,51.1802788],[58.3432811,51.1766857],[58.3689843,51.1950518],[58.3961068,51.2021512],[58.4057198,51.215379],[58.3557063,51.2446872],[58.2870248,51.2343363]]]}}]}