{"type":"FeatureCollection","features":[{"type":"Feature","properties":{"slug":"nyagan","member_count":1,"matched_count":1,"unmatched":[],"source":"Overture Maps division_area (CC-BY 4.0)"},"geometry":{"type":"Polygon","coordinates":[[[65.4590469,62.1904089],[65.4157767,62.1563816],[65.3546472,62.1574502],[65.3285963,62.1281942],[65.3664347,62.1068981],[65.4123547,62.1128629],[65.4447387,62.1067572],[65.4448527,62.1145715],[65.4318232,62.1165271],[65.4391481,62.1216517],[65.4221549,62.131077],[65.472428,62.1324663],[65.4677372,62.1352736],[65.4789602,62.1300277],[65.5122347,62.139904],[65.4940812,62.1429804],[65.510639,62.158562],[65.4828615,62.1610914],[65.4817359,62.169609],[65.4602604,62.1806699],[65.4806775,62.2124622],[65.501382,62.208197],[65.4951317,62.2122565],[65.4987446,62.2193299],[65.4845536,62.2227685],[65.4590469,62.1904089]]]}}]}