{"type": "FeatureCollection", "features": [{"type": "Feature", "properties": {"slug": "nzerekore", "members": 1, "country": "Guinea", "input_hash": "26f5aca1ef91c68e"}, "geometry": {"type": "Polygon", "coordinates": [[[-8.87606, 8.255034], [-8.936866, 8.255031], [-8.949289, 8.247868], [-8.986657, 8.184], [-8.972857, 8.156493], [-8.99753, 8.117914], [-9.00932, 8.120246], [-9.010693, 8.087924], [-9.064054, 8.063978], [-9.070661, 8.044389], [-9.102188, 8.01489], [-9.153748, 7.935374], [-9.167815, 7.934446], [-9.179547, 7.907631], [-9.213116, 7.868766], [-9.18574, 7.866997], [-9.125969, 7.880999], [-9.083317, 7.87522], [-9.048886, 7.834217], [-9.057882, 7.784766], [-9.015081, 7.785512], [-8.962249, 7.767753], [-8.951304, 7.730227], [-8.949015, 7.667237], [-8.843888, 7.531898], [-8.795982, 7.484872], [-8.812177, 7.439003], [-8.81220220930157, 7.407919812446737], [-8.806411013021972, 7.405618008806118], [-8.801847, 7.4161865], [-8.779938138999967, 7.412228387000027], [-8.7785947, 7.4527429], [-8.7664256, 7.461029], [-8.761535, 7.4562329], [-8.70701787173836, 7.515059557091687], [-8.718089, 7.5275077], [-8.711532865547479, 7.545912226819951], [-8.719451, 7.545297], [-8.7258547, 7.5560305], [-8.7045255, 7.6244883], [-8.714138, 7.6413637], [-8.6963426, 7.664099], [-8.6811692, 7.6708741], [-8.6770705, 7.6952545], [-8.564604518031581, 7.695761513250912], [-8.569127, 7.744454], [-8.56379, 7.775962], [-8.604572, 7.79413], [-8.608833, 7.812777], [-8.567903, 7.885555], [-8.56544, 7.897395], [-8.581324, 7.93243], [-8.567296, 7.984577], [-8.538309, 8.029666], [-8.547146, 8.057844], [-8.581305, 8.089951], [-8.566822, 8.112847], [-8.578091, 8.155638], [-8.561671, 8.185972], [-8.546227, 8.186872], [-8.533508, 8.201267], [-8.446292, 8.212963], [-8.441849, 8.245272], [-8.464554, 8.271854], [-8.509047, 8.249182], [-8.52349, 8.251748], [-8.533512, 8.264155], [-8.568754, 8.259745], [-8.594938, 8.335063], [-8.609496, 8.349867], [-8.644815, 8.372623], [-8.690426, 8.38237], [-8.719345, 8.363408], [-8.730157, 8.341993], [-8.749256, 8.346295], [-8.770997, 8.337766], [-8.775741, 8.327975], [-8.793442, 8.329007], [-8.783499, 8.308805], [-8.790881, 8.299081], [-8.812409, 8.293575], [-8.801785, 8.261274], [-8.823581, 8.235392], [-8.835601, 8.231804], [-8.87606, 8.255034]]]}}]}