{"type": "FeatureCollection", "features": [{"type": "Feature", "properties": {"slug": "oaxaca", "members": 24, "country": "Mexico"}, "geometry": {"type": "Polygon", "coordinates": [[[-96.7157058, 16.9059136], [-96.7449199, 16.9082782], [-96.75609, 16.8990975], [-96.7520278, 16.9234179], [-96.7720961, 16.9312197], [-96.7694468, 16.9452774], [-96.8279531, 16.9421687], [-96.8415771, 16.9502535], [-96.8449451, 16.9651724], [-96.85905, 16.961899], [-96.8333338, 16.9905582], [-96.8492644, 17.002544], [-96.8240957, 17.0210763], [-96.8122096, 17.0030976], [-96.8107212, 16.9763118], [-96.7793232, 16.9644041], [-96.7769275, 16.9549737], [-96.7448487, 16.9638495], [-96.7398292, 16.9967176], [-96.762709, 16.9972351], [-96.756564, 17.0156561], [-96.7767792, 17.0156105], [-96.7736659, 17.019688], [-96.7975948, 17.0277173], [-96.7884336, 17.0333667], [-96.8069712, 17.0441555], [-96.7824624, 17.0521511], [-96.7896598, 17.066606], [-96.7985948, 17.0653113], [-96.8010991, 17.0818528], [-96.8139693, 17.0719163], [-96.8288602, 17.0890669], [-96.8221344, 17.1248807], [-96.8264854, 17.146943], [-96.8315892, 17.1434585], [-96.8355623, 17.1547634], [-96.855503, 17.158592], [-96.8361096, 17.1896927], [-96.8180313, 17.1872748], [-96.8140264, 17.1682948], [-96.8003195, 17.1605959], [-96.8032484, 17.1758734], [-96.7803816, 17.1847857], [-96.7820468, 17.1909919], [-96.7838337, 17.1852852], [-96.8099721, 17.1830915], [-96.8048442, 17.2353315], [-96.8182889, 17.2367849], [-96.8197593, 17.2183186], [-96.8224941, 17.2241969], [-96.8303378, 17.2161447], [-96.8461139, 17.2219575], [-96.8420309, 17.2385113], [-96.8272828, 17.2486052], [-96.8330497, 17.2842478], [-96.8162282, 17.2786153], [-96.8065286, 17.2619843], [-96.7799659, 17.2681126], [-96.7977154, 17.2301939], [-96.7956025, 17.217018], [-96.8042606, 17.2120355], [-96.7959607, 17.2120032], [-96.7856058, 17.1960289], [-96.7736634, 17.203207], [-96.7802334, 17.1738006], [-96.7707662, 17.1759561], [-96.7640665, 17.1627466], [-96.6970702, 17.1877062], [-96.6574736, 17.1810839], [-96.6505439, 17.1457508], [-96.6363291, 17.1355314], [-96.6224913, 17.1448996], [-96.607241, 17.1192176], [-96.5380095, 17.1314726], [-96.523281, 17.113989], [-96.5466842, 17.0842679], [-96.6092678, 17.0397117], [-96.6083152, 17.0209177], [-96.6152623, 17.0245588], [-96.6446691, 17.0072835], [-96.6632602, 17.009606], [-96.6509107, 16.9778142], [-96.6598737, 16.96991], [-96.6584733, 16.9262553], [-96.6617335, 16.9161232], [-96.675808, 16.9180922], [-96.6871793, 16.8863795], [-96.700463, 16.9011336], [-96.7081328, 16.8898338], [-96.7157058, 16.9059136]]]}}]}