{"type":"FeatureCollection","features":[{"type":"Feature","properties":{"slug":"ocotlan","member_count":3,"matched_count":3,"unmatched":[],"source":"Overture Maps division_area (CC-BY 4.0)"},"geometry":{"type":"Polygon","coordinates":[[[-102.7332047,20.3092225],[-102.7481126,20.2114704],[-102.6844231,20.2121777],[-102.6797218,20.1715015],[-102.7302262,20.166618],[-102.7761471,20.1384463],[-102.815204,20.1392646],[-102.8018734,20.1230342],[-102.8169467,20.1060665],[-102.8406746,20.1161091],[-102.8549943,20.1367127],[-102.8523083,20.1492473],[-102.8659532,20.1623636],[-102.8754955,20.157576],[-102.9721161,20.173381],[-103.0250716,20.1644603],[-103.0368237,20.1771497],[-103.0229883,20.2864679],[-103.0338599,20.334071],[-103.0551676,20.3294981],[-103.0805488,20.3351929],[-103.1126166,20.3212689],[-103.1157327,20.3305517],[-103.1065686,20.3475013],[-103.0720317,20.3615216],[-103.0636571,20.3728292],[-103.0923476,20.395104],[-103.0468545,20.4101482],[-103.0340962,20.406951],[-103.0271323,20.4222103],[-102.9908344,20.4018129],[-102.9540139,20.4023016],[-102.9329454,20.3858838],[-102.9003424,20.3812066],[-102.8840449,20.3829777],[-102.8787913,20.3969564],[-102.8592499,20.4108108],[-102.8401034,20.416761],[-102.8084901,20.4106593],[-102.791578,20.4300429],[-102.7882434,20.4471153],[-102.7674555,20.4479295],[-102.7581094,20.4324038],[-102.7648416,20.491117],[-102.7870902,20.4943155],[-102.785432,20.5009037],[-102.8126188,20.5228294],[-102.8118791,20.530968],[-102.8593945,20.5198324],[-102.8877826,20.5479411],[-102.8698066,20.5737073],[-102.8728922,20.5971345],[-102.8266923,20.6066018],[-102.8195592,20.6144106],[-102.8203966,20.6339396],[-102.8130311,20.6356943],[-102.7960334,20.6209533],[-102.775392,20.6224459],[-102.7600983,20.610758],[-102.7432643,20.6122102],[-102.732608,20.627927],[-102.7360412,20.6358967],[-102.7079495,20.6494328],[-102.713141,20.637469],[-102.7068276,20.6263894],[-102.7301145,20.6206197],[-102.7287016,20.6128605],[-102.6985151,20.6196624],[-102.6913105,20.6282651],[-102.662372,20.6136549],[-102.6527877,20.606371],[-102.6696841,20.5955891],[-102.6680831,20.579219],[-102.6358672,20.5763864],[-102.6294164,20.5675365],[-102.6344527,20.5452916],[-102.6193508,20.5440851],[-102.6304498,20.5221397],[-102.6486157,20.5306053],[-102.6774335,20.5203144],[-102.6896762,20.4899011],[-102.6786362,20.4812059],[-102.6648196,20.4835199],[-102.6464405,20.4572408],[-102.6257089,20.4675563],[-102.6155099,20.4541738],[-102.6032122,20.4559416],[-102.5951152,20.4469265],[-102.6038187,20.4269307],[-102.6489995,20.377494],[-102.679094,20.3766574],[-102.6728485,20.3732107],[-102.6751788,20.3576171],[-102.7355754,20.3362883],[-102.7488562,20.317613],[-102.7332047,20.3092225]]]}}]}