{"type": "FeatureCollection", "features": [{"type": "Feature", "properties": {"slug": "odessa", "members": 1, "country": "Ukraine", "input_hash": "a8662837101acb39"}, "geometry": {"type": "Polygon", "coordinates": [[[30.6984433, 46.3430172], [30.7216121, 46.3628782], [30.7521961, 46.3752281], [30.7542143, 46.3986493], [30.7726952, 46.4363853], [30.7603345, 46.4962604], [30.7569731, 46.4840379], [30.7292559, 46.4990564], [30.7290701, 46.5121636], [30.7363541, 46.5094541], [30.7384315, 46.5128506], [30.7299175, 46.5137559], [30.7365523, 46.5286802], [30.7523271, 46.545339], [30.7943344, 46.5578788], [30.8303772, 46.5490955], [31.0115169, 46.5990497], [31.1771456, 46.6266906], [31.1904375, 46.6476197], [31.1758592, 46.6507501], [31.1971883, 46.6602818], [31.1854915, 46.6624472], [31.1790155, 46.7091137], [31.1540348, 46.7351697], [31.1539673, 46.7468789], [31.1778072, 46.769368], [31.1531653, 46.792222], [31.154884, 46.8368057], [31.1111509, 46.8448318], [31.0928831, 46.8810873], [31.0400672, 46.8991214], [31.0384021, 46.9088514], [31.001746, 46.9082264], [30.9980179, 46.8950228], [30.9767052, 46.8952199], [30.9787406, 46.8875051], [30.9106815, 46.8709691], [30.9070082, 46.8821186], [30.8984566, 46.8808801], [30.892392, 46.9005272], [30.9033144, 46.9020408], [30.8959794, 46.9246768], [30.8658594, 46.9202425], [30.864888, 46.9451616], [30.844257, 46.9540271], [30.7952622, 46.947346], [30.8021832, 46.9178854], [30.725391, 46.9014984], [30.7283274, 46.89468], [30.7169628, 46.8880624], [30.7102809, 46.8968469], [30.7068724, 46.8820058], [30.6919024, 46.8740694], [30.6816268, 46.888251], [30.6905421, 46.8893942], [30.6958117, 46.9077347], [30.6408216, 46.8992244], [30.6424297, 46.874245], [30.6509962, 46.875378], [30.6657332, 46.853432], [30.6732424, 46.8549047], [30.6777343, 46.839459], [30.6517563, 46.8302452], [30.6609517, 46.7990564], [30.653226, 46.7978641], [30.6583369, 46.7800758], [30.6078197, 46.7744931], [30.5945507, 46.805977], [30.5975005, 46.8147641], [30.5869878, 46.8160489], [30.58907, 46.7947532], [30.5826851, 46.7921143], [30.5928992, 46.7747666], [30.5659695, 46.769421], [30.5473595, 46.8108782], [30.5097456, 46.7949307], [30.4891809, 46.8199391], [30.4792601, 46.8471259], [30.4563556, 46.8639712], [30.4616221, 46.8274847], [30.4867265, 46.791366], [30.4944004, 46.7555271], [30.4027289, 46.739705], [30.3839165, 46.7537665], [30.3918344, 46.7408052], [30.324407, 46.7306953], [30.3294441, 46.7072373], [30.3900306, 46.7046451], [30.3995031, 46.6586301], [30.3507125, 46.6540909], [30.3761918, 46.6168716], [30.3446285, 46.6138458], [30.3384029, 46.6391896], [30.2814196, 46.6327514], [30.2765868, 46.647074], [30.3249456, 46.6516944], [30.3166992, 46.6901762], [30.1285002, 46.6749585], [30.1527892, 46.6276476], [29.9543224, 46.6331603], [29.9682979, 46.5984221], [29.9632777, 46.5837565], [29.9361724, 46.589094], [29.9389902, 46.5683534], [29.9485625, 46.5687809], [29.9398452, 46.5592762], [29.9485321, 46.5611539], [29.9451926, 46.5552545], [29.8759653, 46.5467104], [29.8799942, 46.5418307], [29.8882926, 46.5471038], [29.9025636, 46.5324974], [29.8958812, 46.5273045], [29.9135179, 46.5215879], [29.9063373, 46.5143164], [29.9279206, 46.5129076], [29.9238925, 46.5034654], [29.9437634, 46.5017639], [29.9371699, 46.4937582], [29.961496, 46.5099987], [29.9529006, 46.4903967], [29.9608287, 46.4906299], [29.9708869, 46.5015926], [29.982816, 46.499182], [29.9867551, 46.5101853], [29.9924479, 46.5009685], [29.9876895, 46.4938549], [30.0010931, 46.49581], [29.9898887, 46.4863922], [29.995019, 46.4734071], [30.0232968, 46.4687771], [29.994955, 46.4608898], [30.0250741, 46.4536949], [30.0225685, 46.4420884], [30.0641721, 46.4429057], [30.0551891, 46.4350116], [30.0590353, 46.4263387], [30.0791062, 46.4241188], [30.0833918, 46.4349874], [30.0964881, 46.4260861], [30.0897991, 46.4386282], [30.095724, 46.4400692], [30.1053948, 46.4276716], [30.1139594, 46.4310509], [30.135236, 46.4173699], [30.1311659, 46.4118038], [30.1459593, 46.4144234], [30.154358, 46.4293341], [30.167073, 46.4134449], [30.1743418, 46.4209782], [30.1686823, 46.4351415], [30.186916, 46.4337163], [30.1950109, 46.445701], [30.2272305, 46.4407863], [30.2455703, 46.4290115], [30.2610911, 46.4140092], [30.2555386, 46.4023534], [30.2603686, 46.3884271], [30.2719313, 46.3742342], [30.2878904, 46.370903], [30.2998611, 46.3475293], [30.284425, 46.340284], [30.2925467, 46.326098], [30.272517, 46.3027257], [30.2669294, 46.2664797], [30.376768, 46.2223057], [30.4560327, 46.112367], [30.4905316, 46.1561481], [30.503883, 46.1511889], [30.5495955, 46.1834763], [30.5652364, 46.1655159], [30.5816737, 46.1946754], [30.6643817, 46.2891049], [30.6984433, 46.3430172]]]}}]}