{"type": "FeatureCollection", "features": [{"type": "Feature", "properties": {"slug": "offenburg", "members": 11, "country": "Germany", "input_hash": "21253463d63d993d"}, "geometry": {"type": "MultiPolygon", "coordinates": [[[[7.9812284, 48.3697658], [7.9813148, 48.3481587], [7.9724193, 48.353221], [7.9759464, 48.3669356], [7.9552146, 48.3540114], [7.958319, 48.3619761], [7.9348362, 48.3601628], [7.9269322, 48.3458475], [7.8496124, 48.3577182], [7.8479199, 48.3670523], [7.821954, 48.3804395], [7.833250590107345, 48.393948133510975], [7.8205479, 48.4013726], [7.8303977, 48.4086296], [7.7534058, 48.434083], [7.7643015, 48.4541582], [7.7692463, 48.4908367], [7.8056264, 48.5149277], [7.8010742, 48.5861998], [7.8362401, 48.6339808], [7.8789302, 48.6381411], [7.8732229, 48.6260148], [7.8870545, 48.615536], [7.8827624, 48.611992], [7.9137747, 48.6167757], [7.9214385, 48.6080215], [7.9122427, 48.6055341], [7.9292022, 48.6042322], [7.9329983, 48.6223692], [7.9413047, 48.6033786], [7.9508037, 48.6026394], [7.9464126, 48.5792007], [7.9623318, 48.5493626], [7.997391667868272, 48.54702236049135], [8.0105745, 48.5729881], [7.9946826, 48.5726737], [7.9626127, 48.6078831], [7.9774687, 48.6264547], [7.9716224, 48.6364012], [7.9809568, 48.642492], [7.9704238, 48.6374168], [7.9749727, 48.647737], [7.988392, 48.6498085], [7.9807447, 48.6690632], [7.9960151, 48.6690321], [7.9980436, 48.6761695], [8.0072881, 48.6709169], [8.0318111, 48.683097], [8.0378316, 48.6795061], [8.0333033, 48.6748256], [8.0629784, 48.6743137], [8.0594202, 48.654051], [8.104681, 48.613949], [8.0939185, 48.5979812], [8.099182, 48.5904605], [8.0868879, 48.5833185], [8.0861229, 48.5732197], [8.1023067, 48.5633805], [8.0990359, 48.5566603], [8.1131435, 48.5408479], [8.0913877, 48.526862], [8.1104068, 48.4957031], [8.1246796, 48.4890949], [8.1176278, 48.4645993], [8.0934785, 48.4527262], [8.0671972, 48.4701157], [8.0669932, 48.4808638], [8.0535704, 48.4923873], [8.031251, 48.5043333], [8.0342025, 48.5250211], [8.004958784151125, 48.53153798600545], [7.9700531, 48.5150181], [7.9720042, 48.5009958], [8.0198291, 48.478214], [8.0285146, 48.4658562], [7.9958254, 48.4529154], [7.9711227, 48.4645499], [7.9514799, 48.446966], [7.9794893, 48.422104], [7.9701089, 48.4237839], [7.9553725, 48.4016288], [7.9593485, 48.3979629], [7.948951016931331, 48.398661391429435], [7.9812284, 48.3697658]], [[7.944365021215826, 48.59024384451536], [7.9445338, 48.590194], [7.9466031, 48.5974941], [7.944365021215826, 48.59024384451536]], [[8.0204113, 48.5602644], [8.021053546877875, 48.560240511351516], [8.0111698, 48.5667808], [8.0204113, 48.5602644]], [[7.8454861382890115, 48.49271940242679], [7.84544066360374, 48.49273788047917], [7.8418024, 48.4874249], [7.8454861382890115, 48.49271940242679]], [[7.8923834, 48.4766718], [7.8616068, 48.4864564], [7.8625712, 48.4901834], [7.8614047, 48.4862511], [7.8923834, 48.4766718]], [[7.890423, 48.5067398], [7.874058949278836, 48.5015385715346], [7.8787585, 48.4988257], [7.8722482, 48.4950718], [7.8809167, 48.4993976], [7.890423, 48.5067398]], [[7.9412096434359825, 48.54661093685105], [7.9397897, 48.5421147], [7.9414926, 48.5463963], [7.9412096434359825, 48.54661093685105]], [[7.9494166, 48.5485804], [7.950645848886471, 48.54965369146268], [7.9451106, 48.5466012], [7.9494166, 48.5485804]], [[7.8400695, 48.4871243], [7.838832834782856, 48.480468377606485], [7.8405557, 48.4848754], [7.8400695, 48.4871243]], [[7.8388192657591205, 48.48043366857013], [7.838714221290112, 48.480286132102705], [7.8387821, 48.4803386], [7.8388192657591205, 48.48043366857013]], [[7.835808346544408, 48.476204789231446], [7.8349524, 48.4750026], [7.835563278746725, 48.474177050115], [7.835808346544408, 48.476204789231446]], [[7.8361483477683365, 48.47338637984517], [7.8366006, 48.4727752], [7.837112800938368, 48.47287778084074], [7.8361483477683365, 48.47338637984517]], [[7.841477823423571, 48.46630116307455], [7.841979, 48.464756], [7.8471281, 48.4592364], [7.841477823423571, 48.46630116307455]], [[7.8501959, 48.4500273], [7.8583465, 48.4488817], [7.8474846, 48.4535096], [7.8501959, 48.4500273]], [[7.881890358418479, 48.43620804849436], [7.8845322, 48.4352638], [7.8832311, 48.4366202], [7.881890358418479, 48.43620804849436]], [[7.93001566161318, 48.41086583689392], [7.9303706, 48.4095033], [7.93272596646019, 48.409089984099545], [7.93001566161318, 48.41086583689392]], [[7.919629364138051, 48.405115550208464], [7.9163597, 48.4057694], [7.91133020141398, 48.405346170195784], [7.919629364138051, 48.405115550208464]], [[7.868012013642503, 48.41194151508678], [7.8674486, 48.4122296], [7.8586897, 48.4136523], [7.868012013642503, 48.41194151508678]], [[7.851317340173341, 48.4127390365055], [7.853493070652285, 48.41641781159727], [7.8514069, 48.4143688], [7.851317340173341, 48.4127390365055]], [[7.851167048346056, 48.41000410341365], [7.8511446, 48.4095956], [7.851439665094517, 48.40946922632999], [7.851167048346056, 48.41000410341365]], [[7.8552219, 48.4077817], [7.855095818508585, 48.40781643045495], [7.8547087, 48.406273], [7.8552219, 48.4077817]], [[7.8466204, 48.3958795], [7.8466379276266585, 48.39589191900295], [7.846552088273477, 48.39587280859281], [7.8466204, 48.3958795]], [[7.839530606458279, 48.395185026329685], [7.8383141, 48.3960422], [7.8352205765970675, 48.39476284164415], [7.839530606458279, 48.395185026329685]], [[7.854114119928276, 48.44273261351351], [7.8602762, 48.4327155], [7.8568725, 48.4398991], [7.854114119928276, 48.44273261351351]], [[7.8722107634112355, 48.502312106302945], [7.8712393, 48.5027187], [7.8659357, 48.5030284], [7.8722107634112355, 48.502312106302945]], [[7.847057112115588, 48.51161894645931], [7.8461945522108465, 48.512001619362984], [7.8468584, 48.5114245], [7.847057112115588, 48.51161894645931]], [[7.838386071192608, 48.52690461060622], [7.8384087745548445, 48.52733774393542], [7.8382206, 48.5272093], [7.838386071192608, 48.52690461060622]], [[7.8440999, 48.5655142], [7.844917695598154, 48.566809103968986], [7.8448461, 48.5668281], [7.8440999, 48.5655142]], [[7.8678957929713285, 48.54885541567659], [7.8681842, 48.5486108], [7.8810565, 48.5488798], [7.8678957929713285, 48.54885541567659]], [[7.887256088490534, 48.59507660704492], [7.8900691, 48.5963076], [7.8927628, 48.5989086], [7.887256088490534, 48.59507660704492]], [[7.8929134177756435, 48.60245051041712], [7.893725676826846, 48.6032169780954], [7.8929485, 48.6032755], [7.8929134177756435, 48.60245051041712]], [[7.928172, 48.5981708], [7.9385729, 48.5919544], [7.943622603015459, 48.59046309882259], [7.928172, 48.5981708]], [[7.9567276, 48.5515491], [7.955935483261919, 48.55174117506859], [7.9559455652779105, 48.55148639412281], [7.9567276, 48.5515491]], [[7.9524212, 48.5512038], [7.951854082418992, 48.55250030748475], [7.951871626849864, 48.550723952365686], [7.9524212, 48.5512038]], [[7.986682, 48.6645367], [7.9991921, 48.6627171], [7.9869686229396955, 48.665054630734], [7.986682, 48.6645367]], [[8.0002528, 48.6522208], [7.999207190503176, 48.66355566699104], [7.9991921, 48.6627171], [8.0002528, 48.6522208]], [[8.003702, 48.6502102], [7.9990723, 48.6512854], [8.00762, 48.6485504], [8.003702, 48.6502102]], [[8.006379, 48.645444], [7.9920994, 48.6460385], [8.0103003, 48.6449793], [8.006379, 48.645444]], [[8.023287224405214, 48.56015742875647], [8.024971, 48.5600948], [8.026078709054152, 48.5615439371469], [8.023287224405214, 48.56015742875647]], [[8.0608323, 48.572984], [8.0676593, 48.5741412], [8.0634351, 48.5739748], [8.0608323, 48.572984]], [[8.078294975658753, 48.57026393042123], [8.0835197, 48.5669409], [8.0802551, 48.5699009], [8.078294975658753, 48.57026393042123]], [[8.093974493425607, 48.591042541388184], [8.0942176, 48.5895406], [8.094007340072658, 48.591067335622576], [8.093974493425607, 48.591042541388184]]], [[[8.1248904, 48.5474305], [8.1144863, 48.55206], [8.1124006, 48.556212], [8.1174566, 48.5568925], [8.1248904, 48.5474305]]], [[[8.1978216, 48.5982843], [8.1971748, 48.5947937], [8.1801334, 48.6000875], [8.1978216, 48.5982843]]], [[[8.2486312, 48.6086129], [8.247486, 48.6028189], [8.2220741, 48.603176], [8.2262995, 48.6113905], [8.2486312, 48.6086129]]], [[[8.0729928, 48.6718397], [8.1038287, 48.6549829], [8.0754675, 48.6496044], [8.0630228, 48.6678426], [8.0729928, 48.6718397]]], [[[8.0612199, 48.6618335], [8.0636424, 48.6601096], [8.0620429, 48.6599263], [8.0612199, 48.6618335]]], [[[8.079714, 48.6709896], [8.0790357, 48.6732069], [8.0805778, 48.6726014], [8.079714, 48.6709896]]]]}}]}