{"type":"FeatureCollection","features":[{"type":"Feature","properties":{"slug":"opoczno","member_count":8,"matched_count":8,"unmatched":[],"source":"Overture Maps division_area (CC-BY 4.0)"},"geometry":{"type":"MultiPolygon","coordinates":[[[[20.244672,51.2546017],[20.2417664,51.2438591],[20.2560674,51.2366268],[20.251295,51.2215815],[20.2638911,51.2161278],[20.2516518,51.2067425],[20.2352516,51.2089148],[20.2320041,51.2010461],[20.2165673,51.1992814],[20.2145251,51.2096171],[20.2077747,51.1998406],[20.1958627,51.1967662],[20.2011469,51.2041636],[20.1788477,51.2070953],[20.1794995,51.1954832],[20.1195134,51.1892741],[20.0646179,51.1970299],[20.0557293,51.190724],[20.0603463,51.1992213],[20.0473144,51.2023995],[20.011007,51.1954438],[19.9935325,51.1840505],[19.9920601,51.1930603],[20.0134449,51.2007355],[20.0122064,51.2100561],[19.9920696,51.2208886],[20.0194171,51.2289631],[20.0151501,51.2416979],[20.0408519,51.2390902],[20.0491361,51.2481118],[20.0642573,51.2475463],[20.0617227,51.2684903],[20.0410125,51.279518],[20.0475253,51.2958228],[20.0342533,51.3014078],[20.0101812,51.3343457],[19.9866117,51.3337237],[19.9823805,51.3433977],[19.9909339,51.3562249],[19.9282691,51.3526012],[19.9190829,51.3645771],[19.8919742,51.3653794],[19.8807212,51.3766456],[19.8659304,51.3779969],[19.8661848,51.3839414],[19.8560063,51.3842074],[19.8647065,51.3896069],[19.8546014,51.3955619],[19.8659243,51.4043736],[19.90322,51.4095918],[19.926386,51.4242496],[20.0574428,51.4408789],[20.0660849,51.4565215],[20.0552401,51.4681049],[20.101634,51.4705857],[20.1193352,51.4518224],[20.1291146,51.4633266],[20.1917627,51.463135],[20.1851229,51.486054],[20.225093,51.4887447],[20.230708,51.5050614],[20.2654941,51.5015914],[20.2671389,51.5111771],[20.2523463,51.5159599],[20.2516972,51.5230687],[20.3004454,51.5527596],[20.3256126,51.5823775],[20.3417914,51.5800349],[20.3353085,51.5751186],[20.3470029,51.5747514],[20.3542751,51.5839683],[20.3667688,51.5763546],[20.3997214,51.5856364],[20.4129791,51.5989475],[20.4296029,51.5994018],[20.4378252,51.5822795],[20.4332915,51.5752954],[20.4606462,51.5744067],[20.4680335,51.5595237],[20.4556417,51.5422568],[20.4524382,51.5037545],[20.4945346,51.5003054],[20.5199473,51.5097848],[20.5265295,51.4684196],[20.5339625,51.4624752],[20.4875507,51.4410043],[20.4849103,51.4315734],[20.4928061,51.4251803],[20.4870057,51.412668],[20.4481829,51.4120778],[20.4297535,51.3694457],[20.4166537,51.3621101],[20.4325821,51.3343115],[20.4096225,51.3260648],[20.4103519,51.3185624],[20.3639276,51.3112884],[20.3904219,51.2722042],[20.3752588,51.2618155],[20.3797423,51.245929],[20.3712094,51.2366331],[20.3308173,51.2577454],[20.3101129,51.2431053],[20.2732725,51.2456059],[20.2600729,51.2509575],[20.2606288,51.2587837],[20.244672,51.2546017]]],[[[20.2221091,51.5304807],[20.2106224,51.5496591],[20.1959465,51.5523539],[20.2247519,51.5569836],[20.2221091,51.5304807]]]]}}]}