{"type": "FeatureCollection", "features": [{"type": "Feature", "properties": {"slug": "oral", "members": 1, "country": "Kazakhstan", "input_hash": "0c5bb52c0b8c354d"}, "geometry": {"type": "MultiPolygon", "coordinates": [[[[51.526045, 51.0805594], [51.4931904, 51.0566236], [51.4686563, 51.0673142], [51.4848094, 51.0863224], [51.526045, 51.0805594]]], [[[51.1438492, 51.277238], [51.1795786, 51.2842885], [51.186161, 51.2937838], [51.1799414, 51.3010787], [51.1483803, 51.3032614], [51.1352918, 51.3180977], [51.1219577, 51.3146113], [51.1269646, 51.3218873], [51.1006648, 51.3261442], [51.0909644, 51.344205], [51.0806315, 51.33851], [51.0961779, 51.3608469], [51.0510308, 51.3628298], [51.0345256, 51.3825209], [50.9834253, 51.4064734], [50.965073, 51.4244147], [50.9897751, 51.4221642], [51.012349, 51.4344926], [51.0366099, 51.4351963], [51.070792, 51.4177616], [51.0788879, 51.4413935], [51.0629895, 51.451702], [51.0767674, 51.4680602], [51.1325901, 51.4479282], [51.1728289, 51.4446755], [51.1598289, 51.4227215], [51.1797366, 51.4181929], [51.1757924, 51.4108425], [51.2264988, 51.3786236], [51.2339075, 51.3642183], [51.2168102, 51.3619744], [51.2318301, 51.3299101], [51.2025507, 51.3337984], [51.2010482, 51.3116831], [51.2138057, 51.3095105], [51.2084609, 51.3014415], [51.219566, 51.3048887], [51.212098, 51.2965109], [51.2271452, 51.2995867], [51.2307608, 51.2904593], [51.2537487, 51.3039222], [51.2700364, 51.2990467], [51.275253, 51.3046313], [51.2765592, 51.2956849], [51.2885669, 51.3003388], [51.3049466, 51.2879772], [51.2870949, 51.2760629], [51.3048147, 51.277068], [51.3034587, 51.2660613], [51.3176683, 51.2663048], [51.3086725, 51.2517992], [51.3267448, 51.2600593], [51.3259739, 51.2659362], [51.3354152, 51.2624385], [51.3364184, 51.2532064], [51.3221726, 51.251106], [51.3258174, 51.2450889], [51.3468275, 51.2479362], [51.3401559, 51.255133], [51.3592021, 51.261628], [51.3775474, 51.252095], [51.4262953, 51.26235], [51.4559824, 51.2811605], [51.4465036, 51.2889319], [51.4611994, 51.3008981], [51.4734082, 51.3011534], [51.4607962, 51.2950386], [51.4578989, 51.2844662], [51.4816108, 51.2862848], [51.4809561, 51.270344], [51.5050732, 51.2666647], [51.5040492, 51.2528579], [51.5590408, 51.2143983], [51.4916421, 51.1742317], [51.4760014, 51.1717833], [51.4532562, 51.1868019], [51.3986062, 51.1751442], [51.3895742, 51.1576044], [51.3670273, 51.1572047], [51.378825, 51.1400801], [51.3674477, 51.1377228], [51.357404, 51.1011505], [51.3202431, 51.0882075], [51.3322341, 51.080409], [51.3465893, 51.0925599], [51.3640451, 51.0863938], [51.3530196, 51.0710669], [51.331592, 51.0686545], [51.3295948, 51.0533797], [51.3190269, 51.0443215], [51.3427377, 51.0259703], [51.3239169, 51.0193861], [51.2722354, 51.0282633], [51.2629516, 51.0188978], [51.0467646, 51.081175], [51.0649819, 51.0865792], [51.0733409, 51.1317459], [51.1006486, 51.1619257], [51.1084328, 51.1892405], [51.0958484, 51.2028049], [51.1936815, 51.2143256], [51.2082338, 51.2637241], [51.1419696, 51.268946], [51.1438492, 51.277238]]]]}}]}