{"type": "FeatureCollection", "features": [{"type": "Feature", "properties": {"slug": "orange-nsw", "members": 1, "country": "Australia", "input_hash": "13f5c94cf0fc39b2"}, "geometry": {"type": "Polygon", "coordinates": [[[149.057806, -33.3889006], [149.151661, -33.3936259], [149.1681188, -33.4294604], [149.1819656, -33.4381474], [149.1863752, -33.4292925], [149.2158634, -33.4368851], [149.2171508, -33.4228902], [149.2344405, -33.4277318], [149.2364535, -33.4123844], [149.2266493, -33.4109816], [149.2319138, -33.381889], [149.2074535, -33.3744897], [149.2097741, -33.3641851], [149.1933878, -33.361811], [149.1920436, -33.3395785], [149.1810467, -33.3378443], [149.1885236, -33.3029679], [149.1751259, -33.3011211], [149.1774541, -33.2905662], [149.1610202, -33.284355], [149.1710651, -33.2415187], [149.1664034, -33.228538], [149.1047629, -33.2179642], [149.0918527, -33.2173772], [149.0877678, -33.2295496], [149.0434351, -33.2227449], [149.0486904, -33.2327355], [149.0323676, -33.273629], [149.050518, -33.283795], [149.0422387, -33.3198288], [149.0369711, -33.3189323], [149.0206042, -33.3602603], [149.0094472, -33.3660511], [149.0314659, -33.3702568], [149.0304638, -33.3758791], [149.057806, -33.3889006]]]}}]}