{"type":"FeatureCollection","features":[{"type":"Feature","properties":{"slug":"orenburg","member_count":2,"matched_count":1,"unmatched":["Orenburgsky Raion (RU-ORE, type='District')"],"source":"Overture Maps division_area (CC-BY 4.0)"},"geometry":{"type":"Polygon","coordinates":[[[55.2388001,51.7998939],[55.3098936,51.8540147],[55.1395276,51.8966577],[55.0929845,51.8782687],[55.0735833,51.868486],[55.0859906,51.8407852],[55.0489664,51.8234972],[55.0480576,51.8106734],[55.0194765,51.7908182],[55.0375074,51.777999],[55.033477,51.7717889],[55.0435925,51.7552571],[55.06817,51.7410193],[55.0492825,51.7412884],[55.0441852,51.7334337],[55.0645742,51.7274378],[55.0647323,51.7190421],[55.0222023,51.7164149],[55.0228479,51.7110129],[55.0722859,51.7032987],[55.0785053,51.6858038],[55.1168699,51.6838978],[55.1237462,51.6905225],[55.1206998,51.7111416],[55.1425499,51.7113932],[55.1232791,51.7398364],[55.1354471,51.7451044],[55.1559972,51.7245651],[55.1874875,51.7415463],[55.1907689,51.7285197],[55.1994304,51.7262526],[55.2073096,51.7433225],[55.2402798,51.7448244],[55.2511695,51.7884919],[55.2361424,51.7894312],[55.2388001,51.7998939]]]}}]}