{"type":"FeatureCollection","features":[{"type":"Feature","properties":{"slug":"orihuela","member_count":27,"matched_count":27,"unmatched":[],"source":"Overture Maps division_area (CC-BY 4.0)"},"geometry":{"type":"MultiPolygon","coordinates":[[[[-0.7071392,37.9416206],[-0.7179281,37.9368484],[-0.7221338,37.9212704],[-0.7201168,37.9111203],[-0.7405445,37.909258],[-0.750027,37.8987156],[-0.7624292,37.846596],[-0.7872546,37.8465179],[-0.8036282,37.8591356],[-0.8306646,37.8646229],[-0.9001801,37.9231291],[-0.9608325,38.0079544],[-1.018613,38.0696682],[-1.0367447,38.1377164],[-0.9938452,38.1904837],[-0.9680576,38.255773],[-0.9713312,38.2902082],[-0.9893369,38.3207127],[-0.9714657,38.3296105],[-0.9486825,38.2836087],[-0.9624388,38.2573289],[-0.9247208,38.2539011],[-0.8997214,38.2680359],[-0.8353967,38.2056001],[-0.8182242,38.1638136],[-0.8344988,38.1584381],[-0.8143828,38.158687],[-0.7860527,38.1761779],[-0.7513177,38.1631455],[-0.7157759,38.1365767],[-0.6687521,38.1430147],[-0.660025,38.1417849],[-0.6560097,38.128366],[-0.6389512,38.1285968],[-0.6528956,38.0246989],[-0.6477701,38.0000742],[-0.6657945,37.9760596],[-0.6873294,37.9643269],[-0.6809478,37.9691161],[-0.6812955,37.9751007],[-0.6934323,37.9726352],[-0.6930519,37.9706799],[-0.6915149,37.9718485],[-0.6897252,37.9705519],[-0.6885195,37.9666736],[-0.6967927,37.9693886],[-0.7071392,37.9416206]]],[[[-0.7208799,37.9205519],[-0.7208893,37.9204229],[-0.7209496,37.9205117],[-0.7208799,37.9205519]]]]}}]}