{"type": "FeatureCollection", "features": [{"type": "Feature", "properties": {"slug": "orsk", "members": 1, "country": "Russia", "input_hash": "b1d1ee3e9a348794"}, "geometry": {"type": "MultiPolygon", "coordinates": [[[[58.486957, 51.0913385], [58.4622645, 51.0801629], [58.3789203, 51.0772637], [58.3734284, 51.1106229], [58.4610951, 51.1185642], [58.4833754, 51.1331737], [58.4911664, 51.1516005], [58.386084, 51.1524603], [58.3785738, 51.1621066], [58.3775281, 51.1756841], [58.3916902, 51.1765181], [58.3840513, 51.1901433], [58.414135, 51.1817776], [58.4173107, 51.2012099], [58.3891074, 51.2381957], [58.3671308, 51.2415168], [58.3513045, 51.2883473], [58.3406826, 51.2917231], [58.3529262, 51.295212], [58.3513044, 51.3379804], [58.3825594, 51.337829], [58.3821762, 51.3178709], [58.4892867, 51.3143704], [58.6837777, 51.3216725], [58.6974387, 51.3385106], [58.7425011, 51.3286351], [58.7441247, 51.3201279], [58.7705586, 51.3321537], [58.7815711, 51.3200114], [58.78373, 51.2868518], [58.7978784, 51.2802585], [58.7856076, 51.2736514], [58.8130561, 51.2525116], [58.7786464, 51.1849243], [58.7946671, 51.1771334], [58.7909241, 51.1541146], [58.8385079, 51.1622397], [58.8745516, 51.1469322], [58.899948, 51.2308468], [59.0161405, 51.2339394], [58.9880841, 51.1469347], [59.0275287, 51.1361261], [59.0255676, 51.1226998], [59.061113, 51.1248278], [59.0667585, 51.103932], [59.083634, 51.1029931], [59.0678265, 51.092932], [59.0671857, 51.0804533], [59.0849157, 51.0753534], [59.0817115, 51.0444741], [59.0543688, 51.0487715], [59.0466687, 51.0128803], [58.9992342, 51.0101807], [58.9421925, 51.0122678], [58.8494506, 51.0455125], [58.7637905, 51.0485354], [58.7324968, 51.0376008], [58.7164358, 51.0516277], [58.6562585, 51.0585013], [58.6141735, 51.0474024], [58.486957, 51.0913385]]], [[[58.7086845, 51.7789277], [58.6583236, 51.8380632], [58.6769444, 51.8508743], [58.66975, 51.8597616], [58.6144128, 51.8847545], [58.6556414, 51.8930007], [58.6591861, 52.0305548], [58.7542673, 52.036828], [58.7827542, 52.049445], [58.7860175, 52.0357641], [58.7720853, 52.0234949], [58.7861526, 52.0134875], [58.785224, 51.996125], [58.8015523, 51.9789703], [58.8180552, 51.9390516], [58.8177815, 51.8939211], [58.7923144, 51.8835287], [58.7897096, 51.8727853], [58.8001996, 51.8355582], [58.7864599, 51.8182451], [58.7884402, 51.7858653], [58.7792484, 51.7731997], [58.7086845, 51.7789277]]]]}}]}