{"type":"FeatureCollection","features":[{"type":"Feature","properties":{"slug":"osaka-kyoto-kobe","member_count":91,"matched_count":82,"unmatched":["S\u014draku (JP-26, type='District')","Yosa (JP-26, type='District')","Tsuzuki (JP-26, type='District')","Otokuni (JP-26, type='District')","Kuse (JP-26, type='District')","Funai (JP-26, type='District')","Minamikawachi (JP-27, type='District')","Mishima (JP-27, type='District')","Senboku (JP-27, type='District')"],"source":"Overture Maps division_area (CC-BY 4.0)"},"geometry":{"type":"MultiPolygon","coordinates":[[[[135.300462,34.197233],[135.308911,34.202521],[135.318158,34.193527],[135.312629,34.178371],[135.290067,34.166192],[135.30301,34.165535],[135.302828,34.150095],[135.284487,34.120404],[135.262815,34.115617],[135.239172,34.12216],[135.231276,34.107288],[135.139939,34.094336],[135.132027,34.106891],[135.11206312424068,34.11293801996947],[135.11560949999998,34.11994989999999],[135.1447493,34.11158719999999],[135.130968,34.12263],[135.13259909999996,34.1301139],[135.121522,34.130604],[135.12474,34.136087],[135.167991,34.133494],[135.208693,34.151891],[135.185655,34.148253],[135.19272089999998,34.157012099999974],[135.182737,34.158416],[135.18007780000002,34.187192],[135.1737249,34.18828490000001],[135.174526,34.177931],[135.164193,34.187573],[135.147639,34.182846],[135.13986,34.188522],[135.137177,34.201069],[135.1500302,34.195433800000025],[135.139969,34.212002],[135.143423,34.219283],[135.136012,34.219581],[135.144855,34.227095],[135.122231,34.224792],[135.107071,34.228413],[135.100293,34.235788],[135.13272239999998,34.22986720000003],[135.116365,34.246326],[135.118923,34.239504],[135.095724,34.252975],[135.0997179,34.25631089999997],[135.061253,34.265105],[135.07423350000002,34.28092170000003],[135.068429,34.293445],[135.074181,34.305354],[135.09291856707728,34.31208553183938],[135.105918,34.308856],[135.096934,34.297104],[135.110296,34.273786],[135.136616,34.273506],[135.147962,34.283857],[135.153789,34.274278],[135.18454,34.278905],[135.205238,34.288627],[135.208043,34.308202],[135.191625,34.312454],[135.188132,34.331889],[135.223742,34.347833],[135.249368,34.377222],[135.279671,34.395487],[135.285248,34.383819],[135.298724,34.385473],[135.288782,34.40365],[135.29352,34.414081],[135.319666,34.420936],[135.317786,34.430738],[135.322869,34.424452],[135.325004,34.436986],[135.330924,34.433661],[135.352151,34.45788],[135.353486,34.451307],[135.360809,34.46153879999998],[135.3539158,34.46293160000001],[135.372205,34.471629],[135.366153,34.480657],[135.375976,34.473276],[135.37087543922107,34.50033199533924],[135.415081,34.473541],[135.418681,34.477941],[135.367177,34.517109],[135.371361,34.52256],[135.384453,34.518767],[135.4094112,34.5544615],[135.402032,34.59981],[135.415729,34.593751],[135.420854,34.569665],[135.429482,34.57072],[135.426138,34.589669],[135.441544,34.582921],[135.444716,34.56735],[135.452446,34.564862],[135.45143,34.574994],[135.457571,34.573866],[135.450128,34.583463],[135.46429,34.583076],[135.449289,34.587134],[135.462423,34.587341],[135.460922,34.59206],[135.425538,34.593366],[135.423517,34.605028],[135.444657,34.597688],[135.437019,34.604789],[135.446833,34.606161],[135.423405,34.610803],[135.423392,34.618997],[135.432925,34.613058],[135.431282,34.621804],[135.441253,34.626121],[135.447153,34.61472],[135.45266810000004,34.6349418],[135.42800379999997,34.65488179999996],[135.41918,34.653328],[135.420417,34.66016],[135.414355,34.65224],[135.424425,34.665766],[135.408208,34.671903],[135.422076,34.679526],[135.408214,34.696597099999984],[135.39197340000004,34.6800609],[135.37621220000003,34.6766612],[135.40119539999998,34.6991662],[135.37752920000003,34.69268479999999],[135.3713149,34.68077920000002],[135.353939,34.6968234],[135.363218,34.706298400000016],[135.345356,34.721590399999975],[135.3243398113364,34.725541398616336],[135.323837,34.717986],[135.29445,34.719507],[135.269431,34.706243],[135.254394,34.708182],[135.253172,34.700186],[135.22797860000003,34.700037299999956],[135.238019,34.693248],[135.211426,34.695917],[135.2054113,34.69083420000002],[135.21816370000002,34.6899894],[135.2039216,34.686926],[135.2023701,34.6786132],[135.19014140000002,34.68547340000002],[135.18377529999998,34.677797799999986],[135.189396,34.672323],[135.177647,34.670447],[135.187036,34.666863],[135.178616,34.660738],[135.183272,34.649417],[135.0455937,34.62476679999999],[135.01868836953878,34.64331449007174],[134.965416,34.646268],[134.906301,34.677815],[134.87054891724347,34.70284705119503],[134.890716,34.721225],[134.879869,34.730296],[134.853497,34.725659],[134.8472621535611,34.71528446496144],[134.8436534,34.72053380000001],[134.836698,34.70724],[134.828588,34.710022],[134.8312680394096,34.699527658533256],[134.808887,34.718381],[134.813128,34.730847],[134.79703220000002,34.732454],[134.788166,34.747777],[134.7853521,34.7413415],[134.763283,34.748576],[134.757245,34.75185],[134.7661439,34.760542299999976],[134.7124344,34.77628310000003],[134.70023309999996,34.77774619999999],[134.7019433,34.7720981],[134.692919,34.770157],[134.68527,34.778165],[134.667935,34.770698],[134.659738,34.773821],[134.670278,34.780018],[134.66072480000003,34.78381850000003],[134.650112,34.770673],[134.657995,34.787183],[134.65555020000002,34.7883845],[134.64573930000003,34.767311100000015],[134.631968,34.772563],[134.6439205,34.78341259999998],[134.62252959999998,34.78375540000003],[134.62862229999996,34.77313359999998],[134.61153669999996,34.767804099999985],[134.61295559999996,34.77706569999998],[134.60543969999998,34.7794754],[134.585514,34.770244],[134.5864683,34.7618664],[134.5698717470253,34.75801420840369],[134.5268262,34.78274960000004],[134.504878,34.761305],[134.50035,34.774595],[134.474256,34.755223],[134.469765,34.784329],[134.476095,34.787193],[134.464486,34.80444],[134.45929280000001,34.80379329999997],[134.467928,34.798121],[134.466027,34.790635],[134.45646,34.783521],[134.463901,34.763913],[134.45083379345556,34.75377701844146],[134.459387,34.768673],[134.440646,34.775201],[134.442268,34.790656],[134.425853,34.789454],[134.425438,34.808848],[134.409157,34.82442],[134.409141,34.849279],[134.424407,34.879141],[134.419905,34.887066],[134.448576,34.908967],[134.451639,34.920178],[134.444561,34.939078],[134.429528,34.945385],[134.432282,34.96027],[134.475844,34.978887],[134.475891,34.993585],[134.489393,35.007107],[134.492561,35.000578],[134.512538,34.999748],[134.508238,34.989408],[134.51664,34.975024],[134.535581,34.967993],[134.55196,34.975394],[134.548785,34.95577],[134.570447,34.954321],[134.573371,34.96803],[134.564222,34.976941],[134.578703,34.987132],[134.592462,35.016402],[134.591386,35.043446],[134.599203,35.058735],[134.610241,35.060494],[134.606178,35.069341],[134.618164,35.085052],[134.650244,35.087533],[134.658929,35.081058],[134.67537,35.094339],[134.700549,35.075562],[134.70151,35.05846],[134.72031,35.053151],[134.720649,35.035524],[134.695061,35.011605],[134.712304,34.993807],[134.704951,34.980142],[134.717389,34.966098],[134.717508,34.952819],[134.728987,34.938145],[134.767444,34.935394],[134.770041,34.924241],[134.792187,34.920076],[134.796713,34.90559],[134.786093,34.887391],[134.81479,34.86702],[134.816051,34.853123],[134.857654,34.854098],[134.872814,34.840095],[134.888824,34.842411],[134.889848,34.864215],[134.905883,34.882661],[134.898194,34.890736],[134.908009,34.915575],[134.913278,34.906326],[134.921902,34.915271],[134.937258,34.903046],[134.928929,34.879874],[134.96411,34.883961],[134.973038,34.897109],[135.001387,34.900837],[135.004971,34.889412],[135.023464,34.879155],[135.024759,34.852997],[135.053146,34.863256],[135.062693,34.871661],[135.062179,34.884414],[135.094234,34.891764],[135.118447,34.928945],[135.10753,34.929815],[135.092672,34.96457],[135.100325,34.958196],[135.115978,34.964607],[135.126606,34.955879],[135.139887,34.97029],[135.139545,34.989928],[135.157596,34.987712],[135.167562,35.000754],[135.174885,34.996413],[135.17554,35.009166],[135.220317,35.035298],[135.231657,35.028224],[135.238791,35.037045],[135.254915,35.011512],[135.285019,35.015848],[135.286317,34.997405],[135.302902,34.995109],[135.310365,34.984593],[135.299313,34.979535],[135.302095,34.962912],[135.314462,34.959628],[135.342081,34.911359],[135.323921,34.893844],[135.33621,34.891498],[135.350509,34.864216],[135.383676,34.877504],[135.380811,34.891067],[135.406727,34.915669],[135.407094,34.928101],[135.441592,34.939379],[135.461012,34.926275],[135.475179,34.930663],[135.484851,34.946281],[135.481936,34.96523],[135.488456,34.966572],[135.483163,34.981868],[135.492606,34.989338],[135.436188,35.008407],[135.422818,35.002109],[135.409767,35.011526],[135.381551,35.010375],[135.380044,35.039106],[135.368729,35.05489],[135.399535,35.076099],[135.404281,35.088993],[135.391614,35.098028],[135.420575,35.104556],[135.426079,35.118852],[135.446327,35.126818],[135.450954,35.153641],[135.465071,35.168158],[135.46222,35.184838],[135.446073,35.192936],[135.457144,35.216252],[135.450024,35.235203],[135.464859,35.249258],[135.456146,35.261019],[135.460994,35.284345],[135.478165,35.296124],[135.480241,35.31297],[135.502572,35.325344],[135.496117,35.343997],[135.428538,35.342303],[135.384613,35.314942],[135.367252,35.291996],[135.351338,35.289264],[135.332404,35.271119],[135.318627,35.273847],[135.323397,35.254883],[135.288748,35.234615],[135.299986,35.210516],[135.293847,35.198352],[135.283781,35.19751],[135.289319,35.172417],[135.23203,35.177457],[135.228571,35.165781],[135.20663,35.160614],[135.186867,35.173166],[135.186713,35.190224],[135.199104,35.193582],[135.197058,35.203017],[135.154692,35.226699],[135.167026,35.242745],[135.157254,35.26123],[135.109316,35.266292],[135.067875,35.237351],[135.056942,35.264483],[135.03747,35.260689],[135.01048,35.269737],[135.007323,35.285583],[134.9247,35.31166],[134.928061,35.330239],[134.917206,35.340158],[134.926826,35.377461],[134.923408,35.394282],[134.934354,35.407405],[134.946149,35.41331],[134.985478,35.396214],[134.990554,35.385713],[135.001966,35.38705],[135.019241,35.394123],[135.030034,35.4101],[135.049167,35.407743],[135.050643,35.451389],[135.090011,35.443055],[135.106977,35.450707],[135.110211,35.463649],[135.137475,35.481522],[135.15139,35.509513],[135.167482,35.518763],[135.165976,35.531476],[135.155457,35.530383],[135.138312,35.546774],[135.146155,35.559022],[135.158733,35.5533],[135.170623,35.563517],[135.178812,35.56082],[135.201834,35.537615],[135.21088,35.548289],[135.204288,35.559827],[135.22562,35.568133],[135.228105,35.583757],[135.237701,35.581601],[135.256211,35.598311],[135.247411,35.585625],[135.251113,35.570173],[135.274708,35.560108],[135.254421,35.55259],[135.24331,35.560638],[135.236591,35.551442],[135.241416,35.538576],[135.269423,35.533378],[135.28861202405912,35.516220052405004],[135.31074,35.512355],[135.32273,35.525678],[135.331224,35.516878],[135.332198,35.495438],[135.316394,35.47839],[135.317891,35.463377],[135.311003,35.45787],[135.316721,35.451182],[135.34718,35.475157],[135.346752,35.482438],[135.340969,35.479762],[135.350317,35.490732],[135.379808,35.490094],[135.382544,35.484719],[135.371597,35.47696],[135.398221,35.478883],[135.394201,35.517083],[135.379751,35.502355],[135.34404,35.503843],[135.349756,35.518889],[135.337173,35.525853],[135.340624,35.550208],[135.347431,35.542782],[135.379514,35.561967],[135.389819,35.556646],[135.412756,35.570289],[135.426129,35.566678],[135.433699,35.589494],[135.462272,35.603357],[135.452539,35.591427],[135.451253,35.568755],[135.465952,35.570757],[135.466469,35.562201],[135.486599,35.557936],[135.460484,35.548457],[135.449862,35.52725],[135.476224,35.505493],[135.476303,35.489681],[135.458429,35.468857],[135.497788,35.437545],[135.502049,35.420031],[135.527022,35.418415],[135.527541,35.380217],[135.642364,35.366715],[135.700986,35.343687],[135.718938,35.3553],[135.768785,35.356014],[135.764072,35.344557],[135.780818,35.340562],[135.790871,35.323803],[135.808782,35.316878],[135.834609,35.274079],[135.858431,35.289229],[135.865957,35.280179],[135.887488,35.283587],[135.927893,35.258275],[135.956532,35.277647],[135.99372890000004,35.264387800000016],[136.01629939999998,35.23127889999997],[135.99584730000004,35.19020689999998],[136.007979,35.1409025],[136.024959,35.1359],[136.033237,35.114417],[136.066545,35.106312],[136.077955,35.092019],[136.079699,35.060829],[136.073169,35.0523],[136.055059,35.055603],[136.052985,35.036264],[136.041236,35.025342],[136.015963,35.050671],[135.994921,35.036892],[135.962836,35.050685],[135.958662,35.045848],[135.972492,35.031373],[135.970469,35.015586],[135.999185,34.996908],[135.989413,34.979997],[136.010252,34.975544],[136.013992,34.962609],[136.003569,34.9568],[136.030038,34.939731],[136.040282,34.944994],[136.039496,34.949677],[136.041193,34.953108],[136.039796,34.955528],[136.041446,34.961189],[136.043101,34.960341],[136.041074,34.945271],[136.033109,34.938226],[136.0418,34.923477],[136.009757,34.919954],[135.992736,34.908655],[135.987493,34.889837],[135.971849,34.893673],[135.964306,34.880016],[135.943235,34.878177],[135.938879,34.893117],[135.897296,34.871297],[135.885014,34.875644],[135.886931,34.883206],[135.862682,34.891489],[135.825675,34.863037],[135.848205,34.836162],[135.847711,34.824799],[135.790712,34.821596],[135.80188,34.810702],[135.800444,34.790067],[135.866296,34.803346],[135.881055,34.773953],[135.891238,34.768921],[135.899236,34.779288],[135.898422,34.764836],[135.913111,34.764792],[135.916962,34.754027],[135.928962,34.756841],[135.923923,34.741446],[135.942896,34.737492],[135.954924,34.748285],[135.958263,34.740884],[135.972778,34.742075],[135.991988,34.712159],[136.005236,34.717328],[136.028776,34.706349],[136.043004,34.73611],[136.051079,34.738716],[136.071066,34.714677],[136.046768,34.697287],[136.04259,34.702979],[136.035071,34.693954],[136.021321,34.695045],[136.015401,34.683745],[135.989698,34.68654],[135.980315,34.699391],[135.979536,34.691086],[135.952851,34.68079],[135.960007,34.670601],[135.955063,34.654522],[135.978742,34.655872],[135.983998,34.667489],[135.993607,34.66738],[135.988883,34.656172],[136.000061,34.641123],[135.990797,34.630163],[135.999587,34.61857],[135.969741,34.588841],[135.978046,34.580639],[135.973946,34.559946],[135.946122,34.560298],[135.942806,34.540465],[135.910108,34.517069],[135.913547,34.505867],[135.886867,34.476697],[135.890016,34.456369],[135.872781,34.443982],[135.861862,34.452902],[135.865538,34.458144],[135.809499,34.495516],[135.80618,34.469039],[135.751761,34.46474],[135.750678,34.48167],[135.741072,34.470642],[135.682169,34.464866],[135.684806,34.483598],[135.673012,34.502901],[135.676927,34.525531],[135.662835,34.529629],[135.660143,34.541071],[135.621678,34.52275],[135.617663,34.50706],[135.627833,34.490174],[135.613038,34.490417],[135.615996,34.451832],[135.602131,34.438141],[135.663382,34.396541],[135.651401,34.379511],[135.663525,34.355444],[135.659001,34.334],[135.668125,34.325748],[135.67276,34.281482],[135.681182,34.271662],[135.661464,34.244747],[135.632349,34.248884],[135.643744,34.268011],[135.625938,34.284366],[135.587957,34.280785],[135.573964,34.284406],[135.570862,34.300057],[135.561205,34.293864],[135.549753,34.298354],[135.526925,34.329197],[135.529151,34.351431],[135.503496,34.336541],[135.501745,34.350202],[135.485376,34.362832],[135.465705,34.347335],[135.43429,34.348226],[135.424787,34.33997],[135.409221,34.341938],[135.397411,34.330527],[135.338894,34.334962],[135.3280280000001,34.324029],[135.330409,34.316702],[135.303967,34.313715],[135.297552,34.300782],[135.291636,34.299548],[135.282552,34.317876],[135.271041,34.312466],[135.272777,34.253547],[135.307643,34.252286],[135.314714,34.238901],[135.274506,34.221894],[135.282778,34.203492],[135.300462,34.197233]],[[135.803304,34.785881],[135.759967,34.779488],[135.753999,34.769378],[135.761604,34.763555],[135.736708,34.75181],[135.757058,34.735919],[135.755514,34.727532],[135.77813,34.723171],[135.794072,34.737759],[135.77515,34.73854],[135.776138,34.743667],[135.805186,34.751099],[135.803304,34.785881]],[[135.3532,34.406633],[135.335458,34.399028],[135.342962,34.386738],[135.388314,34.355428],[135.382021,34.367053],[135.387144,34.384631],[135.376744,34.403384],[135.36074,34.419254],[135.3532,34.406633]],[[134.908117,34.722189],[134.954066,34.73703],[134.966422,34.752497],[134.959348,34.766157],[134.962938,34.777193],[134.935067,34.779086],[134.932102,34.768459],[134.896821,34.777438],[134.894371,34.765514],[134.880131,34.755822],[134.889583,34.732617],[134.908117,34.722189]],[[134.576585,34.844972],[134.560368,34.838426],[134.557492,34.809326],[134.577524,34.809029],[134.588892,34.820685],[134.581124,34.822261],[134.595503,34.827648],[134.613835,34.817532],[134.629966,34.826073],[134.631679,34.837018],[134.615279,34.846231],[134.616944,34.852849],[134.607,34.849625],[134.584726,34.860177],[134.576585,34.844972]],[[135.629028,34.935004],[135.630212,34.906813],[135.636516,34.910117],[135.634667,34.892308],[135.655071,34.872476],[135.672756,34.870031],[135.682694,34.887842],[135.705586,34.900362],[135.706526,34.908107],[135.676675,34.91391],[135.662033,34.903697],[135.648502,34.909547],[135.650706,34.923028],[135.642765,34.930662],[135.629028,34.935004]],[[135.668138,34.656517],[135.658766,34.614732],[135.650121,34.607833],[135.674907,34.601715],[135.681759,34.584778],[135.671552,34.579912],[135.67308,34.570731],[135.704892,34.573772],[135.706187,34.548254],[135.719883,34.551577],[135.731021,34.52785],[135.818462,34.534997],[135.826028,34.55129],[135.811518,34.564164],[135.807425,34.589477],[135.797489,34.577942],[135.786576,34.580045],[135.794384,34.586921],[135.786403,34.595846],[135.795169,34.601581],[135.795002,34.612303],[135.821354,34.613506],[135.813274,34.619464],[135.823892,34.625208],[135.816231,34.647547],[135.794809,34.652024],[135.794315,34.66125],[135.754499,34.657195],[135.729956,34.666751],[135.720152,34.64649],[135.676264,34.662187],[135.668138,34.656517]],[[135.90425,34.757571],[135.91102,34.757036],[135.909296,34.763816],[135.903161,34.756972],[135.90977,34.751235],[135.90425,34.757571]],[[135.85156,34.800342],[135.85795,34.795619],[135.858678,34.79622],[135.85156,34.800342]],[[135.732472,34.874916],[135.767108,34.874413],[135.765824,34.886226],[135.759786,34.886181],[135.766758,34.893535],[135.760916,34.908085],[135.753066,34.904167],[135.747713,34.911385],[135.715951,34.89923],[135.732472,34.874916]]],[[[135.011671,34.276363],[134.998869,34.279762],[135.020629,34.293165],[135.02704,34.293869],[135.011671,34.276363]]],[[[135.033716,34.295527],[135.056544,34.299104],[135.059859,34.298043],[135.033716,34.295527]]],[[[135.23103,34.415645],[135.21893,34.422125],[135.22960303484746,34.430449525329266],[135.240436,34.422873],[135.23103,34.415645]]],[[[135.22905662614122,34.43082971626199],[135.205806,34.42304],[135.200351,34.42802],[135.21781506240376,34.438654737084256],[135.22905662614122,34.43082971626199]]],[[[135.21101690000006,34.629345600000015],[135.2360218,34.64175319999998],[135.24055290000004,34.6330963],[135.21101690000006,34.629345600000015]]],[[[134.518441,34.640488],[134.50215,34.643346],[134.515728,34.65952],[134.51823569999993,34.65020740000001],[134.510399,34.648011],[134.518441,34.640488]]],[[[134.495909,34.667439100000024],[134.500094,34.644097],[134.484144,34.641747],[134.4905846,34.64812019999996],[134.480839,34.649902],[134.467648,34.640362],[134.460402,34.644761],[134.464306,34.664611],[134.480413,34.658904],[134.487315,34.671098],[134.495909,34.667439100000024]]],[[[134.590697,34.668173],[134.573006,34.651285],[134.561555,34.668815],[134.575097,34.67664],[134.590697,34.668173]]],[[[135.228122,34.657991],[135.23888890000003,34.661285499999984],[135.24518839999996,34.6507529],[135.2172089,34.6501813],[135.2023409,34.659214100000014],[135.2014373,34.67363079999998],[135.21998370000003,34.68278530000001],[135.2254902,34.6778664],[135.2177755,34.67268259999999],[135.23173059999996,34.6737948],[135.2209861,34.6672554],[135.23341649999998,34.671046],[135.2364476,34.665302],[135.228122,34.657991]]],[[[134.544565,34.676251],[134.541897,34.658195],[134.510529,34.6767],[134.535588,34.686552],[134.528191,34.676981],[134.544565,34.676251]]],[[[134.884039,34.691919],[134.87773439999998,34.6845472],[134.8628675124024,34.68988011182658],[134.86968672774015,34.70139312794163],[134.884039,34.691919]]],[[[135.16152797716956,35.55792197399864],[135.161639,35.556007],[135.15879229087702,35.555359271705015],[135.16152797716956,35.55792197399864]]],[[[135.217076,35.686993],[135.276028,35.691821],[135.266815,35.676282],[135.274397,35.66726],[135.251119,35.645759],[135.24473,35.620662],[135.213746,35.597443],[135.18871190000002,35.5625426],[135.197141,35.579916],[135.173054,35.574586],[135.182174,35.604718],[135.174904,35.607138],[135.146042,35.584347],[135.118407,35.546967],[135.09365,35.548669],[135.053838,35.531642],[135.030032,35.540268],[134.997218,35.535207],[134.960725,35.513005],[134.930064,35.511677],[134.915129,35.527708],[134.914807,35.54494],[134.854035,35.589283],[134.873897,35.621156],[134.86750797898887,35.658085734734065],[134.879441,35.660862],[134.883541,35.647102],[134.901448,35.64691],[134.888406,35.62789],[134.909829,35.632777],[134.888795,35.611776],[134.910018,35.605851],[134.905991,35.616399],[134.928422,35.63365],[134.921542,35.641256],[134.900544,35.641474],[134.901988,35.646614],[134.923504,35.646279],[134.961894,35.661443],[134.963932,35.672526],[134.98541,35.691864],[135.026895,35.690023],[135.032808,35.700257],[135.055563,35.705347],[135.084545,35.724855],[135.085741,35.739779],[135.125324,35.746293],[135.138929,35.757543],[135.145992,35.749805],[135.192748,35.766762],[135.206811,35.76385],[135.223903,35.7793],[135.231576,35.765163],[135.21976,35.742299],[135.197382,35.732394],[135.188957,35.707995],[135.195061,35.696401],[135.217076,35.686993]]],[[[135.24156752662805,34.43732535275933],[135.251722,34.444127],[135.265084,34.437759],[135.25198054320205,34.429839330122974],[135.24156752662805,34.43732535275933]]],[[[135.22894124079184,34.44615524461076],[135.24162940000002,34.45540359999997],[135.2543849,34.45125259999997],[135.23988471257752,34.43848493321362],[135.22894124079184,34.44615524461076]]],[[[135.343093,34.464226],[135.345953,34.45448],[135.333392,34.444879],[135.328697,34.450661],[135.343093,34.464226]]],[[[135.38969459999998,34.628305],[135.418399,34.619615],[135.42033,34.61299],[135.402625,34.612071],[135.38969459999998,34.628305]]],[[[135.407375,34.629451],[135.4147961,34.63483210000001],[135.398495,34.631372],[135.398483,34.63822],[135.416222,34.644746],[135.439343,34.641221],[135.441846,34.628324],[135.4221,34.621868],[135.407375,34.629451]]],[[[135.3952525,34.644332],[135.378966,34.643114],[135.372863,34.65201],[135.379406,34.66004],[135.39962,34.656885],[135.404499,34.65372319999999],[135.3952525,34.644332]]],[[[135.409713,34.659026],[135.386753,34.66265],[135.387904,34.667738],[135.402582,34.673248],[135.409713,34.659026]]],[[[135.2544681,34.67775429999997],[135.2522026,34.69331480000002],[135.28815670000003,34.69666710000001],[135.2891022,34.690868],[135.27876840000002,34.689669600000016],[135.2905188,34.6816417],[135.2544681,34.67775429999997]]],[[[135.283486,34.711565],[135.288015,34.703976],[135.272024,34.702267],[135.271366,34.706353],[135.283486,34.711565]]],[[[135.322093,34.705617],[135.31138990000002,34.7056698],[135.306162,34.713206],[135.322083,34.716377],[135.322093,34.705617]]],[[[135.304029,34.705726],[135.293438,34.704791],[135.29397,34.717555],[135.30330289999998,34.71685949999996],[135.304029,34.705726]]],[[[135.334359,34.72129239999999],[135.338734,34.710914],[135.324907,34.710316],[135.324888,34.716992],[135.334359,34.72129239999999]]],[[[135.557059,34.288168],[135.543927,34.281211],[135.556159,34.290152],[135.557059,34.288168]]]]}}]}