{"type": "FeatureCollection", "features": [{"type": "Feature", "properties": {"slug": "ostersund", "members": 1, "country": "Sweden", "input_hash": "485dede8097dd739"}, "geometry": {"type": "MultiPolygon", "coordinates": [[[[14.7357601, 62.666832], [14.7096709, 62.6930916], [14.6963675, 62.7017017], [14.7364638, 62.7077502], [14.7565965, 62.695863], [14.7555581, 62.667446], [14.7357601, 62.666832]]], [[[14.6602954, 62.7716799], [14.7375224, 62.7626951], [14.7528518, 62.746772], [14.7900514, 62.7402132], [14.7509076, 62.7278009], [14.7030851, 62.7376366], [14.6487378, 62.7256882], [14.6364377, 62.7605794], [14.6602954, 62.7716799]]], [[[14.7289951, 62.8887732], [14.7086707, 62.8846325], [14.7075402, 62.8868191], [14.7289951, 62.8887732]]], [[[15.4557568, 63.2594579], [15.4268406, 63.2853103], [15.3651211, 63.3032087], [15.2714493, 63.236866], [15.2217449, 63.2425225], [15.2317628, 63.1871111], [15.3075673, 63.189465], [15.2913849, 63.1772494], [15.3179143, 63.1441326], [15.2567456, 63.0966503], [15.1721444, 63.1459426], [15.1003864, 63.1484751], [15.1309018, 63.0845891], [15.1157117, 63.0562136], [15.0418895, 63.0637413], [15.0085647, 63.0422486], [15.053184, 62.9885335], [15.011967, 62.9618472], [14.9878853, 62.9729037], [14.9631988, 62.9515479], [15.0012356, 62.9398404], [14.9978989, 62.9355527], [14.921651, 62.9054459], [14.8902365, 62.9225982], [14.7935075, 62.9328042], [14.7728416, 62.9129018], [14.7807502, 62.8915358], [14.6936097, 62.8960742], [14.6871648, 62.9076164], [14.601506, 62.9082626], [14.5951588, 62.9439906], [14.538001, 62.9542809], [14.5329564, 62.9678515], [14.5418411, 63.0103889], [14.4482442, 63.0145012], [14.4045276, 63.0693446], [14.4059229, 63.0900204], [14.3958443, 63.1119618], [14.3343882, 63.1273846], [14.2647107, 63.164133], [14.3000062, 63.2121201], [14.2719137, 63.2249159], [14.3130549, 63.2305828], [14.4055273, 63.2162502], [14.5153807, 63.2318803], [14.5998342, 63.2086131], [14.6217725, 63.2231284], [14.7478874, 63.2246197], [14.7173848, 63.2526138], [14.731353, 63.266312], [14.729442, 63.2804701], [14.7216725, 63.283079], [14.7358191, 63.2929092], [14.7402849, 63.3119427], [14.6940899, 63.3045583], [14.6321259, 63.3170357], [14.6485912, 63.3591771], [14.4983636, 63.4495865], [14.5855021, 63.4878922], [14.5478526, 63.4990791], [14.5924355, 63.5088087], [14.5789915, 63.5207898], [14.5798925, 63.5397122], [14.5722037, 63.5429143], [14.5779862, 63.548513], [14.5450541, 63.558011], [14.5313347, 63.5850575], [14.5382225, 63.5886811], [14.5951463, 63.5647296], [14.6904859, 63.5684295], [14.7122695, 63.5380308], [14.7426739, 63.5496857], [14.757228, 63.5379155], [14.7726355, 63.5580182], [14.7642442, 63.5568505], [14.7825893, 63.5932077], [14.8637936, 63.5705021], [14.9440616, 63.5948629], [14.9870612, 63.5789551], [15.0573957, 63.525724], [15.087451, 63.5174194], [15.0385331, 63.4865993], [15.0778809, 63.4682645], [15.1211585, 63.4793214], [15.2385089, 63.4435055], [15.3419786, 63.3993703], [15.3913725, 63.3633878], [15.4368034, 63.3470048], [15.4949465, 63.3634071], [15.5035497, 63.3258792], [15.5559949, 63.3087949], [15.4704577, 63.259329], [15.4557568, 63.2594579]], [[14.5308519, 63.0214469], [14.5338683, 63.0189618], [14.5373715, 63.016953], [14.5308519, 63.0214469]]]]}}]}