{"type": "FeatureCollection", "features": [{"type": "Feature", "properties": {"slug": "ottawa", "members": 82, "country": "Canada", "input_hash": "28717977ba9da585"}, "geometry": {"type": "Polygon", "coordinates": [[[-75.5949511, 45.0843429], [-75.3573167, 44.7961918], [-75.3699444, 44.7829722], [-75.4137222, 44.7721667], [-75.4236389, 44.7560833], [-75.4964953, 44.7098686], [-75.5209704, 44.7322162], [-75.5366624, 44.7216042], [-75.5177942, 44.6956752], [-75.655015, 44.5967529], [-75.6954208, 44.6347332], [-75.7357809, 44.608647], [-75.6999629, 44.5651887], [-75.7669167, 44.5152778], [-75.8075833, 44.4716944], [-75.8213889, 44.4320556], [-75.9128333, 44.3678056], [-75.9701944, 44.3425278], [-76.0011111, 44.3478611], [-76.0455, 44.3318056], [-76.0969722, 44.2997222], [-76.1311667, 44.2963889], [-76.1618056, 44.2807222], [-76.197903, 44.2930742], [-76.1923796, 44.3017082], [-76.2041936, 44.3079941], [-76.2337605, 44.3094471], [-76.2548292, 44.4980262], [-76.2627438, 44.4905534], [-76.2782031, 44.5014607], [-76.526238, 44.7220085], [-76.5311907, 44.7188555], [-76.769081, 45.1450761], [-76.4264069, 45.3596846], [-76.2999943, 45.4451667], [-76.2899358338417, 45.465372925491096], [-76.3221203, 45.4568709], [-76.3703379, 45.4594726], [-76.4989173, 45.5172388], [-76.6074072, 45.5320741], [-76.6586302, 45.5590172], [-76.6748657, 45.5852738], [-76.6702277, 45.6246568], [-76.7128367, 45.6635855], [-76.6887204, 45.6812743], [-76.6919257, 45.7101022], [-76.7043838, 45.7217598], [-76.7488941, 45.724247], [-76.7688138, 45.7343636], [-76.7656712, 45.746689], [-76.7807538, 45.7836532], [-76.7655869, 45.8079758], [-76.7711034, 45.8326608], [-76.7643583, 45.8503265], [-76.7809755, 45.8732263], [-76.8499222, 45.8944893], [-76.9272159, 45.8935433], [-76.9231867, 45.8712538], [-76.9010318, 45.8507729], [-76.9287115, 45.8481637], [-76.912415, 45.8046952], [-76.9387441, 45.7884026], [-76.9889065, 45.7873573], [-77.0170369, 45.8070374], [-77.0516359, 45.8100968], [-77.0716706, 45.8310623], [-77.193413, 45.8659973], [-77.2371056, 45.9221075], [-77.2766954, 45.949112], [-77.2857138, 45.9812166], [-77.2781446, 46.0139503], [-77.3137355, 46.0275572], [-77.3575204, 46.0578307], [-77.5725024, 46.162243], [-77.6654276, 46.1949386], [-77.6803892, 46.1976509], [-77.6959457, 46.1827125], [-77.8498824, 46.2079875], [-77.8537989, 46.2773113], [-77.8419543, 46.287514], [-77.8466749, 46.2962026], [-77.8391862, 46.3149688], [-77.8262258, 46.3227342], [-77.8267376, 46.3328691], [-77.8080234, 46.3578283], [-77.7744521, 46.3730279], [-77.7701998, 46.3883411], [-77.7417898, 46.4054186], [-77.7654791, 46.4304923], [-77.7601361, 46.4409917], [-77.7762079, 46.4527753], [-77.7590203, 46.5067667], [-77.784791, 46.5268927], [-77.7679038, 46.5372407], [-77.7815294, 46.5493576], [-77.7892971, 46.571142], [-77.774251, 46.5846813], [-77.7929127, 46.6094962], [-77.8334248, 46.623196], [-77.8603435, 46.6484124], [-77.8530049, 46.6686552], [-77.8343046, 46.6793884], [-77.8383386, 46.6957711], [-77.8198529, 46.7091327], [-77.8303886, 46.7209758], [-77.8384352, 46.7736426], [-77.8322554, 46.8069774], [-77.8526187, 46.8130721], [-77.8492499, 46.8203702], [-77.8578115, 46.8239528], [-77.8912211, 46.8229984], [-77.9022504, 46.8391762], [-77.8916074, 46.8736879], [-77.8934098, 46.8942788], [-77.8677464, 46.9158584], [-77.8483487, 46.9542463], [-77.846632, 46.9973193], [-77.854743, 47.0180382], [-77.837534, 47.0592473], [-77.840066, 47.0845886], [-77.8263565, 47.1081026], [-77.8477049, 47.1050984], [-77.858293, 47.236128], [-77.9017353, 47.2426189], [-77.9316134, 47.2697153], [-77.6471026, 47.2694987], [-77.6464148, 47.2892174], [-77.4316947, 47.2891311], [-77.4336564, 47.1449819], [-77.0037136, 47.1454606], [-76.9998722, 47.0000002], [-76.7967703, 47.0000511], [-76.7968589, 46.6402188], [-76.7595261, 46.6548448], [-76.7408451, 46.6364783], [-76.7252031, 46.655125], [-76.7000535, 46.6479061], [-76.6627288, 46.6674972], [-76.6117182, 46.6458056], [-76.6176778, 46.632892], [-76.6681334, 46.6342379], [-76.6745078, 46.6119511], [-76.6632002, 46.5919373], [-76.6815934, 46.5828903], [-76.6568146, 46.5703218], [-76.6420524, 46.5438563], [-76.6595088, 46.5151241], [-76.6149343, 46.5000644], [-76.5786963, 46.4545751], [-76.5554178, 46.4461708], [-76.5529627, 46.434333], [-76.5198094, 46.4154704], [-76.5348235, 46.4038069], [-76.5135767, 46.3826815], [-76.5042366, 46.3447045], [-76.548156, 46.3262944], [-76.5873813, 46.3300764], [-76.5950602, 46.3181018], [-76.5531054, 46.2887283], [-76.5240997, 46.2524649], [-76.4800068, 46.2416885], [-76.4601468, 46.2457398], [-76.4384281, 46.2622192], [-76.3979417, 46.2570785], [-76.3629569, 46.284636], [-76.3431833, 46.2834571], [-76.3156716, 46.2648768], [-76.3192965, 46.0247638], [-76.1522154, 46.0221916], [-76.1501088, 45.7504007], [-75.7250144, 45.7850936], [-75.736413, 45.8250027], [-75.7368687, 45.9133301], [-75.7568089, 45.9375029], [-75.7684252, 45.9406821], [-75.766118, 45.9493771], [-75.7772472, 45.9528899], [-75.7466125, 45.9728858], [-75.6655465, 45.9703962], [-75.6624788, 45.98246], [-75.6204366, 45.9823962], [-75.6203748, 45.9944166], [-75.5998748, 45.994401], [-75.6000234, 45.9713882], [-75.4082859, 45.9731774], [-75.4083028, 46.0976167], [-75.1763605, 46.1034091], [-75.1769785, 46.1323045], [-75.1559317, 46.1322957], [-75.1563078, 46.1606038], [-75.1372786, 46.1605682], [-75.1376435, 46.1849461], [-75.1165582, 46.1847826], [-75.1173883, 46.2152048], [-75.07523, 46.2152867], [-75.0899043, 46.1032506], [-74.9394339, 46.1058114], [-74.9390906, 46.0622877], [-74.8586945, 46.0629749], [-74.8582261, 46.0166695], [-74.8370871, 46.0168828], [-74.831663, 45.9731208], [-74.8089013, 45.9730242], [-74.8012697, 45.945147], [-74.7630688, 45.9457257], [-74.763146, 45.9726754], [-74.69876, 45.9717762], [-74.7150043, 45.888336], [-74.7711147, 45.760845], [-74.806639, 45.6425412], [-74.8001292, 45.6401395], [-74.8448452, 45.6379307], [-74.7791973, 45.6401788], [-74.7096591, 45.6318594], [-74.6324449, 45.6370947], [-74.528527, 45.5924188], [-74.4807803, 45.5956585], [-74.3810283, 45.5655785], [-74.4385299, 45.3934173], [-74.4939098, 45.4075727], [-74.5813016, 45.5090994], [-74.7472335, 45.4399764], [-74.732665, 45.4235849], [-74.8924146, 45.3576172], [-74.8857887, 45.3503951], [-75.0168676, 45.3158106], [-74.9932235, 45.2769298], [-75.1922555, 45.2216779], [-75.201154, 45.239797], [-75.5949511, 45.0843429]], [[-75.953094, 45.0723026], [-75.9410204, 45.0800131], [-75.9411605614117, 45.080135957841485], [-75.953094, 45.0723026]], [[-75.81937477076421, 44.960914606782154], [-75.81961792593016, 44.961927033563626], [-75.82352382825519, 44.965035785366275], [-75.81937477076421, 44.960914606782154]], [[-75.94204169443161, 45.08090831094184], [-75.9640726, 45.1002194], [-76.2105976, 45.3031213], [-75.94204169443161, 45.08090831094184]], [[-75.8159714, 44.9570721], [-75.81674390771236, 44.95779895196901], [-75.81871046223421, 44.952261195367], [-75.8159714, 44.9570721]], [[-75.8318712, 44.9291456], [-75.8237692124713, 44.943375977408515], [-75.8266526, 44.9399996], [-75.8318712, 44.9291456]], [[-75.9261629, 44.8780489], [-75.9208982, 44.8703361], [-75.92637315645713, 44.87934660252133], [-75.9261629, 44.8780489]], [[-75.9276821, 44.8874254], [-75.92697722496834, 44.883074912418174], [-75.9263778, 44.8854853], [-75.9276821, 44.8874254]], [[-75.9632723, 44.870378], [-75.9587479, 44.8702989], [-75.97016099574685, 44.87138144372541], [-75.9632723, 44.870378]], [[-75.9805029, 44.8728879], [-75.97940610545989, 44.87272813512726], [-75.98134576510154, 44.87462523744455], [-75.9805029, 44.8728879]], [[-75.9915924, 44.8967504], [-75.9700398, 44.9057004], [-76.0032405, 44.8993222], [-76.0216217, 44.9142109], [-76.0326079, 44.9064197], [-76.0372823, 44.8797679], [-76.025772, 44.8850155], [-76.0164423, 44.8771198], [-76.0039265, 44.8917274], [-75.9969252, 44.8845377], [-75.9915924, 44.8967504]], [[-76.0437939, 44.8939113], [-76.04326276895333, 44.89387235356403], [-76.04381891564475, 44.89407929186782], [-76.0437939, 44.8939113]], [[-76.04696186749962, 44.89955679909982], [-76.0442153, 44.8967412], [-76.0466724, 44.8994917], [-76.04696186749962, 44.89955679909982]], [[-76.05266824237154, 44.899430928402595], [-76.04867414943315, 44.899941878642984], [-76.0501176, 44.9002665], [-76.05266824237154, 44.899430928402595]], [[-76.0556312, 44.8946107], [-76.0535335037246, 44.89914747517567], [-76.053886, 44.899032], [-76.0556312, 44.8946107]], [[-76.1448661, 44.3471142], [-76.1854097, 44.3420952], [-76.1845207, 44.3159188], [-76.1446309, 44.3291669], [-76.1448661, 44.3471142]], [[-74.94035226071352, 45.644071817475194], [-74.93806245191867, 45.64472364314931], [-74.94437820969507, 45.6429257755372], [-74.94035226071352, 45.644071817475194]], [[-74.9669877, 45.6242981], [-74.97504637045853, 45.6188562291557], [-74.9728539, 45.6199873], [-74.9669877, 45.6242981]], [[-74.9871426514032, 45.61261589389929], [-75.00513396474659, 45.60388592847718], [-75.0006975, 45.6056231], [-74.9871426514032, 45.61261589389929]], [[-75.01057539082095, 45.601755247640114], [-75.02454733482544, 45.597184065361006], [-75.0191646, 45.598392], [-75.01057539082095, 45.601755247640114]], [[-75.0839369, 45.5900373], [-75.11164882044645, 45.58066360079155], [-75.108242, 45.5814797], [-75.0839369, 45.5900373]], [[-75.11867733604494, 45.57897992943092], [-75.12638429878675, 45.577858212424964], [-75.1234051, 45.5778474], [-75.11867733604494, 45.57897992943092]], [[-75.13837391042728, 45.57790172639816], [-75.1566682, 45.5791374], [-75.1753434, 45.5780359], [-75.13837391042728, 45.57790172639816]], [[-75.312385, 45.5481147], [-75.3429824344035, 45.53730056003958], [-75.3414953, 45.5376502], [-75.312385, 45.5481147]], [[-75.3621868, 45.6541001], [-75.35456166994975, 45.6017029766302], [-75.3656073, 45.6890534], [-75.3621868, 45.6541001]], [[-76.2414475, 45.4693985], [-76.27472714836388, 45.46663557346686], [-76.2469408, 45.4679603], [-76.2414475, 45.4693985]], [[-76.2339169, 45.5072326], [-76.23398405471745, 45.506784483305246], [-76.2278137, 45.5114289], [-76.2339169, 45.5072326]], [[-76.1921916, 45.5179901], [-76.19433893551836, 45.51779173032747], [-76.18931696367304, 45.51775464097674], [-76.1921916, 45.5179901]], [[-76.16796098156584, 45.516005390596604], [-76.1726031282533, 45.516385624894276], [-76.1692426, 45.5158881], [-76.16796098156584, 45.516005390596604]], [[-76.0915839, 45.5167467], [-76.09415654384927, 45.51685712744018], [-76.08897991925402, 45.51600158757569], [-76.0915839, 45.5167467]], [[-76.0878903, 45.5156898], [-76.08829598333097, 45.51580588368868], [-76.0813296, 45.5104142], [-76.0878903, 45.5156898]], [[-75.9727484, 45.4756662], [-75.97347908107845, 45.475858223441584], [-75.9531942, 45.457802], [-75.9727484, 45.4756662]], [[-75.902794, 45.4069634], [-75.8686748, 45.3844108], [-75.9210888, 45.4218063], [-75.902794, 45.4069634]], [[-75.75835304508071, 45.4107946593239], [-75.7573535447984, 45.41170455784396], [-75.7575601, 45.4116668], [-75.75835304508071, 45.4107946593239]], [[-75.77799166479095, 45.38919462738148], [-75.7733458, 45.3931541], [-75.76945759442835, 45.398581040232834], [-75.77799166479095, 45.38919462738148]], [[-75.7849980722773, 45.38408722862722], [-75.7823872, 45.3854485], [-75.78095658853888, 45.38666774919534], [-75.7849980722773, 45.38408722862722]], [[-75.80140131903183, 45.375931268865166], [-75.7998662, 45.3763352], [-75.79687264916906, 45.3778959944841], [-75.80140131903183, 45.375931268865166]], [[-75.81545348259108, 45.37296182509089], [-75.8131176, 45.3728484], [-75.80790598373606, 45.37421971650913], [-75.81545348259108, 45.37296182509089]]]}}]}