{"type":"FeatureCollection","features":[{"type":"Feature","properties":{"slug":"owensboro","member_count":14,"matched_count":5,"unmatched":["Owensboro city (US-KY, type='City')","Balance of Daviess County (US-KY, type='Balance')","Whitesville city (US-KY, type='City')","Balance of Hancock County (US-KY, type='Balance')","Lewisport city (US-KY, type='City')","Hawesville city (US-KY, type='City')","Balance of McLean County (US-KY, type='Balance')","Livermore city (US-KY, type='City')","Sacramento city (US-KY, type='City')"],"source":"Overture Maps division_area (CC-BY 4.0)"},"geometry":{"type":"MultiPolygon","coordinates":[[[[-89.296031,33.856821],[-89.311258,33.841575],[-89.328646,33.851851],[-89.326375,33.871261],[-89.306822,33.871132],[-89.296031,33.856821]]],[[[-87.39521,37.588711],[-87.480301,37.599144],[-87.499649,37.626938],[-87.4952344,37.6475467],[-87.467003,37.666916],[-87.417671,37.670876],[-87.3872687,37.7300229],[-87.3207754,37.742525],[-87.2716136,37.7801269],[-87.2973224,37.7852135],[-87.2991932,37.7953149],[-87.3104863,37.7990145],[-87.3032653,37.8117157],[-87.3234076,37.819246],[-87.302919,37.897828],[-87.220944,37.849134],[-87.162319,37.840159],[-87.1360013,37.8071373],[-87.1309373,37.7880116],[-87.111133,37.782512],[-87.0883478,37.7888928],[-87.067836,37.806065],[-87.043854,37.870796],[-87.045101,37.893775],[-87.033444,37.906593],[-86.969044,37.932858],[-86.919329,37.936664],[-86.85595,37.987292],[-86.823491,37.998939],[-86.794985,37.988982],[-86.765054,37.93251],[-86.73146,37.89434],[-86.716138,37.894073],[-86.680929,37.91501],[-86.645513,37.906529],[-86.662495,37.856951],[-86.655296,37.842508],[-86.666039,37.835876],[-86.678177,37.792694],[-86.622498,37.654957],[-86.8234339,37.7377609],[-86.8665569,37.7088567],[-86.8175188,37.6738209],[-86.9207033,37.6243224],[-86.9502881,37.6299062],[-87.0493813,37.5518778],[-87.1123658,37.4720921],[-87.1242769,37.4869531],[-87.135634,37.4851602],[-87.1048471,37.4615618],[-87.10157,37.413849],[-87.171684,37.413357],[-87.218445,37.380516],[-87.3008962,37.3900717],[-87.3118354,37.4019822],[-87.3285481,37.3984691],[-87.325146,37.4073977],[-87.3526531,37.4270303],[-87.3541174,37.4806611],[-87.3618219,37.4869816],[-87.349034,37.5163556],[-87.3667008,37.5341196],[-87.3609036,37.5502432],[-87.39521,37.588711]]],[[[-118.045296,45.325839],[-118.06023,45.341145],[-118.042373,45.347534],[-118.045296,45.325839]]]]}}]}