{"type":"FeatureCollection","features":[{"type":"Feature","properties":{"slug":"oxford-ms","member_count":5,"matched_count":5,"unmatched":[],"source":"Overture Maps division_area (CC-BY 4.0)"},"geometry":{"type":"Polygon","coordinates":[[[-89.7209706,34.1926144],[-89.7213468,34.5542916],[-89.476729,34.5541271],[-89.4343282,34.5201893],[-89.4025207,34.5281718],[-89.3794274,34.5168198],[-89.3530569,34.5272255],[-89.3433651,34.5212604],[-89.3298044,34.5273371],[-89.3228162,34.5188226],[-89.3149159,34.5242781],[-89.3010718,34.5133655],[-89.2969446,34.5202116],[-89.2882968,34.5063192],[-89.2464325,34.4975816],[-89.2454536,34.1611605],[-89.5094417,34.1620485],[-89.5093579,34.190936],[-89.7209706,34.1926144]]]}}]}