{"type": "FeatureCollection", "features": [{"type": "Feature", "properties": {"slug": "oxford", "members": 68, "country": "United Kingdom"}, "geometry": {"type": "Polygon", "coordinates": [[[-1.6909712, 51.5838946], [-1.6847697, 51.5903259], [-1.6906301, 51.6054487], [-1.6669621, 51.6163219], [-1.6737498, 51.622848], [-1.659973, 51.6351212], [-1.6919516, 51.6521619], [-1.6906367, 51.6637806], [-1.7003442, 51.6711803], [-1.6968726, 51.6815448], [-1.6815598, 51.6904108], [-1.6683306, 51.6804497], [-1.6482677, 51.6840832], [-1.6880138, 51.7120402], [-1.6958842, 51.7235327], [-1.6858002, 51.7298998], [-1.6870344, 51.7398787], [-1.7007174, 51.7705785], [-1.7195008, 51.7832059], [-1.6819444, 51.8039867], [-1.6768724, 51.817018], [-1.6864742, 51.8344487], [-1.6763977, 51.8503022], [-1.6868681, 51.8654997], [-1.6671244, 51.876992], [-1.6576016, 51.8971799], [-1.6330637, 51.899217], [-1.6455263, 51.9222887], [-1.615202, 51.9376724], [-1.6325032, 51.9556419], [-1.6625409, 51.9639951], [-1.6657663, 51.9874783], [-1.6123555, 51.9553939], [-1.5916471, 51.9704402], [-1.6003146, 51.9769316], [-1.5805865, 51.9729862], [-1.5496853, 51.9808497], [-1.5572374, 51.9916475], [-1.5439413, 51.9963146], [-1.5227066, 51.996793], [-1.4936833, 51.9748889], [-1.4355318, 51.989073], [-1.4096681, 51.972698], [-1.4018835, 51.9798604], [-1.3772507, 51.9795916], [-1.3614126, 51.9685272], [-1.361875, 51.9483658], [-1.3324826, 51.9421404], [-1.3399689, 51.9348918], [-1.2989378, 51.9131501], [-1.3037029, 51.9026275], [-1.291351, 51.8966727], [-1.2980029, 51.8883352], [-1.2862703, 51.8748307], [-1.302131, 51.8691086], [-1.296763, 51.8610926], [-1.3340119, 51.8624718], [-1.3391927, 51.8561659], [-1.3420176, 51.8301739], [-1.3267108, 51.8266093], [-1.3383578, 51.8199456], [-1.3223604, 51.7878339], [-1.3050038, 51.7897952], [-1.3026968, 51.7809711], [-1.2836682, 51.7962658], [-1.2479251, 51.7866163], [-1.244365, 51.7906629], [-1.2538274, 51.7978408], [-1.2419822, 51.8099895], [-1.1945386, 51.7969885], [-1.1873365, 51.8121296], [-1.1674304, 51.8137715], [-1.1516045, 51.802691], [-1.1535511, 51.7963968], [-1.1268388, 51.7994968], [-1.1219638, 51.7870751], [-1.083376, 51.7805811], [-1.0808722, 51.7565485], [-1.0454922, 51.744594], [-1.0304562, 51.7449232], [-1.0298035, 51.7578834], [-0.9861525, 51.7521148], [-0.9798182, 51.7606999], [-0.9536957, 51.7578493], [-0.924096, 51.7477024], [-0.8894186, 51.7201383], [-0.8865804, 51.7050794], [-0.8947952, 51.6925185], [-0.8799177, 51.6808612], [-0.8979182, 51.6763972], [-0.8777282, 51.6683815], [-0.9101943, 51.6738574], [-0.9308175, 51.6660902], [-0.9230901, 51.6568914], [-0.9272724, 51.6514403], [-0.950747, 51.6507379], [-0.9345981, 51.6366349], [-0.9488939, 51.6313624], [-0.9501446, 51.6215584], [-0.9385862, 51.6179396], [-0.9430083, 51.6047843], [-0.9169458, 51.5996832], [-0.94155, 51.585458], [-0.9386224, 51.5710385], [-0.9017208, 51.556083], [-0.9001539, 51.5366587], [-0.8785315, 51.5234834], [-0.8803731, 51.5119797], [-0.870066, 51.5041992], [-0.8936558, 51.4967864], [-0.9216706, 51.4679604], [-0.9442769, 51.4599403], [-0.9554729, 51.4612553], [-0.9411567, 51.4749762], [-0.9575072, 51.4930785], [-0.9984195, 51.4843028], [-1.0071779, 51.4679511], [-1.0177441, 51.4665141], [-1.0504924, 51.49162], [-1.1022004, 51.4896721], [-1.113207, 51.5095907], [-1.1420736, 51.5161939], [-1.1344665, 51.5337203], [-1.1403948, 51.5429092], [-1.2046698, 51.5283932], [-1.2046636, 51.5376023], [-1.2606743, 51.5377887], [-1.3287383, 51.5637111], [-1.3424206, 51.5436853], [-1.367338, 51.5524658], [-1.3837956, 51.5404256], [-1.404874, 51.5472348], [-1.4227846, 51.5357648], [-1.4266072, 51.5455986], [-1.4478474, 51.5364266], [-1.4644379, 51.5385167], [-1.4630032, 51.5301912], [-1.47076, 51.528607], [-1.5129537, 51.5507595], [-1.5309735, 51.5460692], [-1.5550226, 51.5533703], [-1.5812008, 51.5369943], [-1.5847219, 51.5249114], [-1.6028327, 51.5182932], [-1.6476996, 51.5719338], [-1.6550559, 51.5764924], [-1.6765608, 51.5693901], [-1.6909712, 51.5838946]]]}}]}