{"type":"FeatureCollection","features":[{"type":"Feature","properties":{"slug":"ozyorsk","member_count":1,"matched_count":1,"unmatched":["[recovered via metro-name fallback: Ozyorsk]"],"source":"Overture Maps division_area (CC-BY 4.0)"},"geometry":{"type":"Polygon","coordinates":[[[62.0440545,55.2597932],[62.0663506,55.3036274],[62.1031939,55.2977337],[62.1060827,55.3044618],[62.161149,55.3126836],[62.17239,55.3499635],[62.2444515,55.337179],[62.2416817,55.3590855],[62.1689462,55.4016516],[62.1668609,55.4094057],[62.1882502,55.4454407],[62.2836074,55.4305354],[62.2995068,55.403819],[62.319534,55.4137375],[62.3780105,55.4179732],[62.3832354,55.4270265],[62.4762797,55.4339646],[62.454923,55.4672461],[62.6200899,55.4905694],[62.5978629,55.531209],[62.5515703,55.5674053],[62.5346686,55.5748832],[62.4689671,55.5636263],[62.4723975,55.5859838],[62.5234047,55.5903024],[62.5245916,55.6252492],[62.5462492,55.6241534],[62.5540157,55.6460689],[62.5517911,55.6628113],[62.5174295,55.6792042],[62.5446444,55.7058541],[62.5159339,55.7257802],[62.5247907,55.7382275],[62.5199254,55.7429056],[62.5258926,55.7699092],[62.469247,55.8007512],[62.4200784,55.8063168],[62.4403212,55.8275725],[62.4219084,55.8346044],[62.3909363,55.8131926],[62.3607367,55.8054291],[62.304293,55.8379752],[62.2918096,55.8665707],[62.3100551,55.8667699],[62.313568,55.9006546],[62.3445619,55.901515],[62.3699709,55.9233277],[62.3643293,55.9333869],[62.3176605,55.9476027],[62.2385947,55.9337355],[62.2303343,55.9396325],[62.218997,55.9963386],[62.2304192,56.0279994],[62.1138666,56.0906654],[62.1497648,56.1157223],[61.8369794,56.1778334],[61.8724914,56.1982876],[61.8778347,56.2064997],[61.8695117,56.2093102],[61.8707436,56.2226794],[61.835693,56.24013],[61.7724105,56.2268533],[61.7612019,56.2442727],[61.7499199,56.2445002],[61.7515059,56.257803],[61.7427938,56.2698354],[61.7233862,56.2721294],[61.7352128,56.286424],[61.6970514,56.3004361],[61.6936401,56.3083979],[61.6696313,56.3171567],[61.6192981,56.319778],[61.6050823,56.3017827],[61.5941962,56.3031493],[61.5821179,56.2860407],[61.5668557,56.283515],[61.563007,56.3092865],[61.5390909,56.3058783],[61.5211397,56.3222213],[61.5047324,56.3212212],[61.5056862,56.3308431],[61.4717903,56.3308294],[61.4720895,56.3438599],[61.4421579,56.3529684],[61.4211401,56.3339171],[61.4112566,56.3435929],[61.3979592,56.3416879],[61.3374566,56.3153711],[61.3133344,56.3133983],[61.3188635,56.3297141],[61.3101863,56.339583],[61.2597267,56.3329822],[61.2191748,56.3493495],[61.1796588,56.3531103],[61.1771275,56.3610981],[61.1606657,56.3657203],[61.1542873,56.3562962],[61.1199343,56.3523817],[61.0928612,56.3386599],[61.091729,56.3192581],[61.1456913,56.2801902],[61.1602009,56.2401544],[61.1726582,56.2336372],[61.185875,56.2082643],[61.1035104,56.1816711],[61.0798288,56.1840579],[61.0459208,56.2003736],[61.0140708,56.1851923],[60.9758853,56.2006812],[60.9638688,56.1909516],[60.873982,56.2146633],[60.8784859,56.2205641],[60.8435597,56.2247596],[60.8393724,56.2151346],[60.8243251,56.2222107],[60.7677966,56.2177993],[60.770043,56.2370996],[60.6994348,56.2392928],[60.6549918,56.2145444],[60.6774898,56.3093427],[60.574761,56.3168849],[60.5529715,56.2223389],[60.5042432,56.2360018],[60.46553,56.2220231],[60.3639439,56.2335999],[60.3043614,56.2246549],[60.2891023,56.2290694],[60.2596553,56.2127796],[60.255393,56.1983707],[60.1987589,56.2037073],[60.172878,56.2166315],[60.0637377,56.2123506],[60.0327071,56.2227694],[60.0046072,56.220863],[59.9768236,56.2376264],[59.9519824,56.2395647],[59.9103294,56.2589118],[59.8622063,56.2587858],[59.7857298,56.2329379],[59.7833019,56.2255969],[59.7571582,56.2234195],[59.6366362,56.2481139],[59.714939,56.3238023],[59.5730404,56.3213904],[59.5719226,56.3396458],[59.4127324,56.3360457],[59.4215219,56.3205862],[59.2920662,56.3273366],[59.2794199,56.3308901],[59.2841857,56.3445918],[59.2228215,56.355702],[59.1597345,56.3453714],[59.1682471,56.339549],[59.1629694,56.326244],[59.1629494,56.3332517],[59.1385009,56.3336025],[59.1398157,56.3196633],[59.1503845,56.3234181],[59.1623982,56.3199493],[59.1507606,56.3205666],[59.1531334,56.3154331],[59.1844688,56.3140709],[59.1896396,56.2792597],[59.1994279,56.2716843],[59.1690856,56.2292188],[59.1694391,56.1989044],[59.1332301,56.2023773],[59.1214302,56.1894168],[59.1099858,56.1978122],[59.0188337,56.1979904],[59.0309122,56.1730591],[59.0614521,56.1689361],[59.0967874,56.1524948],[59.1525567,56.14909],[59.1627746,56.1337656],[59.1862377,56.1453691],[59.2670758,56.1324898],[59.2649467,56.1452602],[59.2826139,56.1502089],[59.2795561,56.1594682],[59.3141168,56.1574458],[59.3326353,56.1646826],[59.3324232,56.1446225],[59.3234253,56.1440134],[59.3210059,56.1516962],[59.3139785,56.1466881],[59.3261253,56.1361208],[59.3190459,56.1289177],[59.3245484,56.1182303],[59.3420975,56.1123042],[59.3280488,56.113315],[59.3351358,56.103183],[59.3235433,56.1035929],[59.3144267,56.0875072],[59.3354998,56.0879331],[59.3122092,56.057784],[59.3000761,56.0586353],[59.3081653,56.0462896],[59.286454,56.0347418],[59.2817708,56.0434689],[59.2783653,56.0351674],[59.2415406,56.0360184],[59.2475797,56.0312178],[59.1925833,56.0251621],[59.2219593,55.9887104],[59.2162135,55.9518327],[59.2461629,55.9507047],[59.2486366,55.924494],[59.2344429,55.9033942],[59.2043396,55.8854653],[59.2075027,55.8650797],[59.2251193,55.8497628],[59.1923778,55.8283215],[59.1939017,55.8201635],[59.133416,55.8200193],[59.1357163,55.7894939],[59.2628587,55.7914132],[59.2898121,55.7835535],[59.2988483,55.7696515],[59.3183929,55.7671262],[59.3186061,55.7583991],[59.2756103,55.7091219],[59.2986113,55.7014535],[59.2888087,55.6779915],[59.3173333,55.6766784],[59.322318,55.6522247],[59.3365851,55.6327946],[59.2944417,55.6225771],[59.2764655,55.6059384],[59.2504966,55.6070029],[59.2496461,55.5814599],[59.2758279,55.5797574],[59.3354275,55.6095582],[59.3828947,55.6206806],[59.3909825,55.6447337],[59.4644191,55.6434574],[59.4714441,55.6270674],[59.4616534,55.6023225],[59.4684945,55.5948279],[59.5493519,55.5927449],[59.601502,55.6057299],[59.6476928,55.5993446],[59.6549303,55.5918947],[59.6425481,55.5584529],[59.5887701,55.5499638],[59.5789421,55.5165952],[59.4920959,55.503397],[59.4640736,55.4736187],[59.4310062,55.4770019],[59.4336929,55.4939938],[59.3803449,55.4980743],[59.3735337,55.4882827],[59.3860925,55.4859414],[59.3724695,55.4850898],[59.3728955,55.4780655],[59.3496936,55.4840253],[59.2813664,55.4639626],[59.183238,55.4684315],[59.1830261,55.4419838],[59.1730218,55.4398551],[59.1702552,55.4238375],[59.1500335,55.425753],[59.1442868,55.4125557],[59.1843053,55.38696],[59.1600409,55.3424192],[59.1781342,55.3345436],[59.1247062,55.3426316],[59.101292,55.3328399],[59.1044853,55.3224098],[59.080645,55.3228353],[59.0932042,55.3104897],[59.0774527,55.3066048],[59.0746861,55.2919176],[59.0487171,55.295323],[59.0342433,55.2771767],[59.0182786,55.2852651],[59.0159377,55.2693007],[58.9889048,55.2614246],[58.9854995,55.2480145],[58.9846476,55.2618503],[58.9663936,55.2625149],[58.9652755,55.3159693],[58.9305793,55.3170331],[58.9113143,55.3259348],[58.8469252,55.3268236],[58.8377735,55.2933516],[58.9333355,55.2944879],[58.938882,55.2837209],[58.9318581,55.2720137],[58.7253838,55.2896785],[58.7094197,55.2796739],[58.6930313,55.2319403],[58.7730671,55.2125711],[58.7554015,55.16372],[58.7153308,55.1400731],[58.6928947,55.1509556],[58.6916256,55.1721281],[58.6755323,55.1726061],[58.656113,55.1609684],[58.6435646,55.1750545],[58.6523766,55.192295],[58.6223039,55.1950171],[58.6089598,55.1816182],[58.5812348,55.1785662],[58.5752569,55.1609642],[58.6002734,55.1562991],[58.5885083,55.1466561],[58.599029,55.1429594],[58.6413095,55.1470625],[58.7334786,55.1201902],[58.798403,55.0555886],[58.829204,55.0499254],[58.8064926,55.0287153],[58.7309471,54.9961759],[58.7270877,54.9678638],[58.6527172,54.9586636],[58.621954,54.9647078],[58.5976801,54.9562879],[58.5668363,54.9709464],[58.504528,54.9762667],[58.4926191,54.9833267],[58.5255782,54.9952136],[58.5484648,55.026735],[58.5101925,55.0240289],[58.4752844,55.0016784],[58.4637899,55.0046583],[58.4532786,54.99672],[58.422069,55.0179082],[58.4388841,55.0387685],[58.4297302,55.0662803],[58.3792851,55.0657791],[58.4003551,55.0795304],[58.3469265,55.1038488],[58.3725836,55.1211662],[58.3616458,55.1422956],[58.2715286,55.1715411],[58.2487009,55.1707911],[58.2193365,55.1447844],[58.1946215,55.1491015],[58.1691169,55.1311652],[58.1288043,55.1259132],[58.1589717,55.1054962],[58.1397413,55.0979766],[58.1398002,55.0862313],[58.1542155,55.0833541],[58.184031,55.0985195],[58.2014761,55.0919936],[58.1912864,55.0682221],[58.165623,55.0672022],[58.1492531,55.0560854],[58.167007,55.0512075],[58.1521798,55.0373952],[58.1772852,55.0401617],[58.1808472,55.0311483],[58.1541217,55.029282],[58.1457961,55.0239963],[58.1490231,55.0185429],[58.0874543,55.0129553],[58.1335249,54.9979366],[58.1010782,54.9871997],[58.1255574,54.9754927],[58.1270472,54.9833685],[58.1410959,54.9816658],[58.1434376,54.9763444],[58.1232165,54.9609651],[58.1296836,54.9494368],[58.1142512,54.9464771],[58.1173186,54.9386276],[58.0827738,54.9465115],[58.0800072,54.9299938],[58.0050815,54.9061528],[57.9829434,54.9279173],[57.9637863,54.9211056],[57.9329207,54.9486171],[57.9529291,54.9601117],[57.9588886,54.9759165],[57.983014,54.9844327],[57.9993318,54.9778859],[58.027003,54.9912963],[58.0087793,54.9988497],[58.0327489,55.027908],[58.0233827,55.0389765],[58.0294409,55.059835],[58.0404104,55.0681914],[57.9917897,55.091641],[57.9952368,55.1012706],[58.0071699,55.1022887],[58.0023348,55.1112341],[57.9897514,55.1127562],[58.005871,55.141352],[57.9868,55.155508],[58.0058221,55.1634223],[58.0415376,55.1540959],[58.1319353,55.1940449],[58.1366176,55.2111268],[58.0787195,55.2215562],[58.0439186,55.2388555],[58.0231612,55.2765261],[58.0044293,55.2833374],[57.9697333,55.2804102],[57.9407839,55.2957356],[57.8828859,55.3023335],[57.6412906,55.3014792],[57.5680663,55.3193584],[57.5301008,55.3370193],[57.507614,55.3274463],[57.3939475,55.3172277],[57.3807511,55.2946114],[57.3398826,55.2797108],[57.3260475,55.2596488],[57.246225,55.2660335],[57.2326028,55.2463972],[57.2632555,55.2191517],[57.2398412,55.2148943],[57.2204702,55.2366056],[57.211956,55.2302197],[57.2125957,55.2008453],[57.233031,55.1797194],[57.2598513,55.179028],[57.2547429,55.1717907],[57.2641088,55.170088],[57.2106824,55.1351254],[57.1564036,55.127249],[57.1312877,55.0850495],[57.1642819,55.0581766],[57.1689655,55.0404562],[57.1837478,55.0348013],[57.1776937,55.0137426],[57.1918963,55.0061889],[57.1939689,54.987181],[57.1872425,54.9766871],[57.2041374,54.9835557],[57.215805,54.9722109],[57.2596464,54.9605291],[57.2505534,54.9409327],[57.1410877,54.852449],[57.1627995,54.8487774],[57.2013286,54.8044502],[57.2177189,54.8018961],[57.216442,54.7952975],[57.2463869,54.7696024],[57.386058,54.7360989],[57.3967202,54.7192793],[57.4524178,54.7165637],[57.5154067,54.6920366],[57.4854413,54.6653723],[57.5197504,54.6540872],[57.6036848,54.6779813],[57.6268348,54.617943],[57.7455824,54.5820449],[57.7391424,54.5739892],[57.7636559,54.5630032],[57.7470094,54.5447456],[57.7580242,54.5316852],[57.7473041,54.5249014],[57.7553916,54.5201111],[57.7534145,54.5026887],[57.8255755,54.4861729],[57.9010052,54.4214939],[57.9840874,54.3965418],[58.0123553,54.3964611],[58.1162775,54.4587784],[58.1684627,54.5024368],[58.1640136,54.5101204],[58.2570659,54.5145368],[58.3859742,54.5605954],[58.4367844,54.5535485],[58.4366878,54.5440952],[58.5992717,54.4614327],[58.714686,54.4781909],[58.7390845,54.5376563],[58.7740955,54.5528564],[58.8059124,54.5507813],[58.8392469,54.567094],[58.9089739,54.5721092],[58.9209375,54.5833602],[58.953371,54.584813],[59.0664722,54.6497677],[59.1523117,54.6285758],[59.2345929,54.6237809],[59.2646852,54.6132997],[59.2915049,54.6377817],[59.2888449,54.6582413],[59.3810115,54.7026233],[59.441463,54.7207169],[59.4457196,54.7369474],[59.5227732,54.779786],[59.5200055,54.7955907],[59.5368198,54.8414086],[59.6008896,54.8670056],[59.6179759,54.9061115],[59.660276,54.9079282],[59.6883741,54.8885052],[59.7369062,54.8857386],[59.7767118,54.860409],[59.8045964,54.8582275],[59.8045967,54.8520546],[59.842486,54.8418379],[59.8590886,54.8541838],[59.8754793,54.8384325],[59.915283,54.869936],[60.0018089,54.8641348],[59.9382736,54.8178924],[59.9289603,54.7876295],[59.9469169,54.7698728],[59.8975576,54.7051601],[59.8971963,54.6846427],[59.8537755,54.6090243],[59.7577777,54.5563408],[59.7269132,54.5516576],[59.7109494,54.5335113],[59.6754024,54.5185576],[59.6766802,54.4983361],[59.6464888,54.484027],[59.6702954,54.469334],[59.7399009,54.4556587],[59.7360713,54.400688],[59.6717898,54.3396502],[59.7550934,54.3146165],[59.7892914,54.2443443],[59.7763075,54.2264641],[59.7107481,54.1900113],[59.7075963,54.1417713],[59.6623714,54.1427667],[59.6577843,54.1506675],[59.5981061,54.1604157],[59.5268377,54.1874017],[59.3991222,54.1835688],[59.3789009,54.1729257],[59.3256543,54.1877931],[59.3092963,54.1624416],[59.2848178,54.1498827],[59.2365015,54.0696878],[59.2247943,54.0652177],[59.1922282,54.0245082],[59.1881846,54.0035948],[59.1409309,53.9726766],[59.1398668,53.9650137],[59.1047453,53.9560732],[59.0904834,53.9673546],[59.0513172,53.9707598],[59.0002316,53.951602],[58.9482934,53.9669272],[58.9291364,53.9564969],[58.9106186,53.9287719],[58.934033,53.9315394],[58.929137,53.9381379],[58.9544678,53.9236639],[58.9648984,53.9078593],[58.9365886,53.8940231],[58.907744,53.8626625],[58.9255235,53.7848268],[58.9040258,53.7519932],[58.8831657,53.7464586],[58.9091364,53.6914351],[58.9125426,53.6781847],[58.9029644,53.6637102],[58.9114498,53.6566981],[58.9039604,53.651094],[58.9068655,53.642514],[58.8221286,53.6082928],[58.8258419,53.6023463],[58.813353,53.5916035],[58.8131415,53.5496704],[58.9063739,53.5477025],[58.9070142,53.4937962],[58.8972227,53.49353],[58.9010358,53.2768675],[58.8742323,53.2765458],[58.8722749,53.2018174],[58.9065975,53.2114398],[58.9134139,53.0560534],[58.9759948,53.0485509],[58.9923853,53.0364181],[58.9855739,53.0321609],[58.9891322,53.019652],[58.8391271,53.0240174],[58.8610541,52.9444087],[58.8123095,52.9403106],[58.815077,52.9274859],[58.802945,52.8969939],[58.7608004,52.8496324],[58.7627173,52.8106262],[58.7795339,52.7873184],[58.8046568,52.6950863],[58.7765569,52.6903082],[58.7854972,52.683284],[58.7761318,52.6705124],[58.7801763,52.665191],[58.7510148,52.6579003],[58.7510163,52.6110183],[58.7810294,52.6105929],[58.7812353,52.5920838],[58.8240275,52.5932987],[58.8389284,52.5659998],[58.8382913,52.5208206],[58.781245,52.5203942],[58.7701779,52.4711707],[58.7978496,52.4686167],[58.7961479,52.4317922],[58.8549267,52.4258061],[58.8590349,52.4467999],[58.9010689,52.4474192],[58.9987501,52.4266302],[59.0017203,52.4206078],[58.9891393,52.4082739],[59.0075376,52.385834],[59.0019077,52.3618883],[59.029422,52.3484823],[59.0570617,52.3469778],[59.1656737,52.2765025],[59.2162566,52.2974766],[59.2302693,52.3528983],[59.2274208,52.4248797],[59.2501081,52.43643],[59.2435078,52.4459174],[59.2521287,52.4574263],[59.2449508,52.4700487],[59.2640905,52.483909],[59.2745683,52.4746691],[59.2879745,52.481393],[59.3123949,52.4710807],[59.3872229,52.4688541],[59.4184901,52.487087],[59.4145309,52.4608519],[59.4432824,52.4574284],[59.4891948,52.4274401],[59.5017357,52.3989777],[59.5231855,52.4096205],[59.547646,52.4421671],[59.6704893,52.4397759],[59.6775646,52.4086941],[59.7256208,52.4204509],[59.7340358,52.422596],[59.733458,52.4340635],[59.8241659,52.4800584],[59.8601366,52.4646312],[59.9182594,52.4220205],[60.0211378,52.4134417],[60.0375552,52.4229294],[60.1629979,52.4001195],[60.160155,52.282928],[60.173892,52.2602818],[60.1443573,52.2447715],[60.1259645,52.2200327],[60.0871503,52.2146216],[60.0615543,52.1731878],[60.0233306,52.1735607],[59.9653598,52.1518157],[59.9284853,52.0845513],[59.9035494,52.0834057],[59.9189066,52.0644592],[59.9077372,52.0399459],[59.9755675,52.0335692],[60.001992,51.9932809],[60.1976618,51.9908827],[60.3394528,52.0548499],[60.5108473,52.1563836],[60.7167493,52.1561542],[60.7700457,52.2056464],[60.7804883,52.2290635],[60.836795,52.2301077],[60.8745605,52.2482934],[60.944255,52.2663666],[60.9789521,52.2883242],[61.0106547,52.32607],[61.0667983,52.3470908],[60.9922327,52.4230554],[60.9823287,52.5078713],[60.8418292,52.5222515],[60.843069,52.6410326],[60.8170958,52.631199],[60.7614617,52.6266924],[60.744673,52.6317444],[60.744406,52.6516021],[60.714553,52.6630268],[60.711907,52.7643606],[60.8343995,52.7741412],[60.8848169,52.8212505],[60.870612,52.8327564],[60.8877861,52.8308248],[60.9409697,52.847938],[60.973757,52.8676312],[60.9842283,52.8852438],[61.0733206,52.923242],[61.076205,52.9278434],[61.0304099,52.9504657],[61.0086368,52.9781089],[61.054008,52.9806122],[61.0939193,52.9671611],[61.1122531,52.9692051],[61.1217499,52.9876785],[61.1411261,52.997559],[61.2510284,53.0361836],[61.3068427,52.9959542],[61.3907395,52.9923489],[61.4690237,53.0366041],[61.5226436,53.0154997],[61.557147,53.0121159],[61.6320857,52.9541202],[61.673195,52.968535],[61.701773,52.998212],[61.7165561,52.9914448],[61.8115962,52.9981118],[61.8341783,52.992863],[61.8478466,53.0033034],[61.9607607,52.9501514],[62.0293354,52.9510472],[62.1304402,52.99006],[62.1473649,53.0680022],[62.1193063,53.1118151],[62.0273991,53.1419367],[61.9159627,53.1420566],[61.7841509,53.1846369],[61.7507467,53.2065788],[61.7323896,53.2391598],[61.6739255,53.2656589],[61.6393854,53.248929],[61.6304764,53.2232233],[61.5271202,53.2153363],[61.4566451,53.2395194],[61.4002329,53.2738943],[61.341927,53.2850466],[61.2262353,53.2833853],[61.1770356,53.3117561],[61.1552533,53.4055026],[61.2166893,53.4317947],[61.2288277,53.4839136],[61.2586516,53.5080373],[61.321894,53.5191303],[61.3151345,53.5072828],[61.3594177,53.4930675],[61.3683253,53.4805219],[61.3668823,53.4673769],[61.4284497,53.4555416],[61.425789,53.4624238],[61.4538905,53.4681769],[61.4647749,53.462839],[61.4877856,53.4759007],[61.518639,53.4730176],[61.5147123,53.4905781],[61.5333429,53.505012],[61.5504581,53.5071041],[61.5556106,53.4976421],[61.5672433,53.4967024],[61.5689251,53.5045422],[61.5591753,53.5079257],[61.5932608,53.5261239],[61.5822047,53.5405545],[61.565178,53.5383436],[61.5530652,53.5930524],[61.5100104,53.5892221],[61.5072262,53.5949755],[61.3911992,53.6021032],[61.3495092,53.5587142],[61.2721665,53.567125],[61.2155517,53.5636444],[61.1264464,53.5899433],[61.1217767,53.6151332],[60.9002873,53.6286665],[60.8959293,53.667893],[60.9955761,53.6729206],[60.9986043,53.6507946],[61.0424262,53.6530131],[61.0584766,53.7213169],[61.1146715,53.7209328],[61.1703193,53.7722493],[61.2271763,53.795613],[61.2372069,53.8417793],[61.210413,53.838152],[61.2073231,53.8472862],[61.1792457,53.8525646],[61.136899,53.9045151],[61.057291,53.8940467],[61.0362062,53.9085002],[60.9934947,53.9069754],[60.9971351,53.9349014],[61.0374454,53.9581119],[61.054354,53.9583755],[61.06471,53.9451596],[61.0797921,53.9453854],[61.0885629,53.9564185],[61.0801595,53.9704702],[61.099914,53.9748385],[61.1803776,53.9719547],[61.17136,53.9430663],[61.205062,53.9188607],[61.2798674,53.9285743],[61.2646472,53.9652004],[61.2723412,53.9927198],[61.2435678,54.0285152],[61.2465128,54.0378142],[61.2660688,54.0416006],[61.2938343,54.0738747],[61.333357,54.0791726],[61.3489959,54.0729878],[61.400587,54.0868636],[61.4805654,54.0827653],[61.472894,54.0704475],[61.4833868,54.0507204],[61.4806294,54.0301095],[61.5518078,54.0129607],[61.5420947,54.0086573],[61.569137,54.0081896],[61.5709877,53.9675987],[61.611558,53.9681461],[61.6138549,53.9904694],[61.6604313,54.0297723],[61.6672257,54.0170676],[61.7006455,54.0188582],[61.7251697,54.029539],[61.741308,54.0156998],[61.7458838,54.0005646],[61.78204,53.9845738],[61.818658,54.019153],[61.8459145,54.0317174],[61.8524529,54.0291374],[61.8443082,54.0133317],[61.8502603,54.008441],[61.8718061,54.0163811],[61.8929699,54.0090828],[61.870553,53.9728591],[61.8562452,53.9633672],[61.9323322,53.9499079],[62.0438652,53.9484557],[62.006083,54.037524],[62.0132898,54.0398533],[62.0602274,54.0380789],[62.0751108,54.0509981],[62.154168,54.0331603],[62.165446,54.0373866],[62.1754592,54.0285733],[62.2174216,54.0393454],[62.339218,54.032274],[62.3893972,54.0477956],[62.4187937,54.046982],[62.4940056,54.0326254],[62.45938,54.0136422],[62.3964161,54.0037869],[62.4467102,53.9269381],[62.475493,53.9310284],[62.5166073,53.9135313],[62.560074,53.9381564],[62.5626214,53.9486824],[62.5841948,53.9636683],[62.5783772,53.9701885],[62.5873921,53.9867533],[62.598043,53.9882082],[62.5687534,54.0465395],[62.5752175,54.0591234],[62.5919545,54.0622782],[62.5947654,54.0739005],[62.6153433,54.0721253],[62.6619601,54.0923095],[62.7785396,54.0944488],[62.798742,54.1004886],[62.8062308,54.1117228],[62.8588343,54.1175715],[62.8999686,54.1124775],[62.9231502,54.1188414],[62.9619276,54.1074207],[62.9773021,54.1114398],[63.0499149,54.1007593],[63.0818117,54.1041875],[63.158834,54.1298007],[63.1543708,54.1411181],[63.1695199,54.1530796],[63.1505298,54.1631626],[63.1573534,54.1769169],[63.1512809,54.1824361],[63.1599176,54.1907732],[63.2063091,54.1860336],[63.2238454,54.1893796],[63.2249933,54.1977593],[63.2631397,54.1906853],[63.3275503,54.2021963],[63.3514795,54.1940745],[63.3389848,54.2313475],[63.3520149,54.2410168],[63.3440003,54.251514],[63.309289,54.2618988],[63.2748968,54.2373509],[63.2515847,54.2853807],[63.2633808,54.293759],[63.2154694,54.2942935],[63.2139367,54.3151899],[63.1716258,54.3081133],[63.1552189,54.3209834],[63.1276244,54.314759],[63.1174556,54.3282762],[63.1034743,54.325522],[63.0975329,54.3334851],[63.1656257,54.3359879],[63.1251662,54.3809134],[63.1395402,54.4032645],[63.1629114,54.3948981],[63.1812113,54.3949223],[63.1825531,54.4023405],[63.1817122,54.4318611],[63.1440849,54.4385558],[63.132462,54.4564531],[63.1298896,54.4681263],[63.1420694,54.4839508],[63.1534535,54.4938091],[63.168383,54.4906952],[63.1670285,54.4728488],[63.1957995,54.4653189],[63.218199,54.4714313],[63.2079213,54.4839395],[63.2342349,54.4872448],[63.2440311,54.5226197],[63.2801729,54.5294352],[63.2947368,54.5437907],[63.2725891,54.5472385],[63.2851004,54.5813614],[63.2431442,54.5812449],[63.2262928,54.6090633],[63.2371009,54.6469272],[63.1998212,54.6990849],[63.0614353,54.7005125],[63.0143723,54.6928928],[62.9784328,54.7054497],[62.9232715,54.6987],[62.8270971,54.6610221],[62.6717239,54.6240117],[62.6596023,54.6636264],[62.6386045,54.6697463],[62.6318243,54.6701652],[62.6218212,54.6356134],[62.6006716,54.6345951],[62.5502517,54.652031],[62.5490448,54.6773845],[62.5241421,54.6783562],[62.5199356,54.6883864],[62.5782534,54.7149236],[62.5624758,54.7283702],[62.4411526,54.7157251],[62.4057924,54.7229769],[62.3926163,54.7141876],[62.3993807,54.7078185],[62.3955273,54.685839],[62.2760225,54.6693163],[62.2391554,54.672924],[62.2378227,54.6912704],[62.2026328,54.68929],[62.1884429,54.6766735],[62.1564729,54.6803093],[62.155404,54.6683874],[62.0778542,54.6756086],[62.0848095,54.7198937],[62.0543581,54.7270455],[62.0169628,54.7238837],[62.0371488,54.7642647],[62.0743711,54.7876755],[62.1118993,54.7980369],[62.1187883,54.8141483],[62.1136195,54.8398142],[62.0739916,54.867154],[62.0823217,54.8774028],[62.0547641,54.9001216],[62.0103342,54.9060646],[62.0008642,54.9317508],[62.0079647,54.9434476],[61.9878705,54.970678],[61.9953715,54.9818778],[61.9661851,55.0303115],[62.0691322,55.0215765],[62.0882713,55.033948],[62.1472378,55.0382697],[62.1938247,54.9901902],[62.2090486,55.0070847],[62.223947,55.0659111],[62.2529098,55.0641722],[62.2583203,55.0739783],[62.2847697,55.0782121],[62.2639065,55.084684],[62.2833913,55.1073926],[62.2741908,55.1134047],[62.237112,55.1085682],[62.2240072,55.1507339],[62.2086428,55.1503427],[62.2016989,55.1705961],[62.2259385,55.203206],[62.1743741,55.2025044],[62.1608147,55.2311319],[62.0716793,55.2593325],[62.0440545,55.2597932]]]}}]}