{"type": "FeatureCollection", "features": [{"type": "Feature", "properties": {"slug": "palermo", "members": 82, "country": "Italy", "input_hash": "eb961a7dc2e44858"}, "geometry": {"type": "MultiPolygon", "coordinates": [[[[13.0328184, 38.067487], [13.0329102, 38.0674411], [13.0321824, 38.0664653], [13.0328184, 38.067487]]], [[[13.0328015, 38.0677593], [13.033464, 38.0684708], [13.0334771, 38.068337], [13.0328015, 38.0677593]]], [[[13.0345215, 38.0691399], [13.0337153, 38.0685067], [13.0345117, 38.0692084], [13.0345215, 38.0691399]]], [[[13.0355691, 38.0697175], [13.035605, 38.0696914], [13.0355691, 38.0696196], [13.0355691, 38.0697175]]], [[[13.03584, 38.069649], [13.0364862, 38.0701777], [13.0365874, 38.0701777], [13.03584, 38.069649]]], [[[13.0706614, 38.14451], [13.070794, 38.144922], [13.0709791, 38.1444309], [13.0706614, 38.14451]]], [[[13.0784615, 38.1743801], [13.0783004, 38.1739969], [13.0781607, 38.1742368], [13.0784615, 38.1743801]]], [[[13.1828862, 37.6357074], [13.1515153, 37.625216], [13.1430661, 37.6391866], [13.1672206, 37.6460176], [13.1828862, 37.6357074]]], [[[13.2376476, 38.2109275], [13.2339754, 38.2100351], [13.2354179, 38.2125252], [13.2376476, 38.2109275]]], [[[13.1513612, 38.7002013], [13.1802422, 38.7207664], [13.2007682, 38.7109954], [13.1736267, 38.6907355], [13.1559187, 38.6925108], [13.1513612, 38.7002013]]], [[[13.5070514, 38.1196918], [13.5067285, 38.1198879], [13.5070938, 38.1199252], [13.5070514, 38.1196918]]], [[[13.2436326, 38.1929867], [13.2433735, 38.193069], [13.2435137, 38.1932366], [13.2436326, 38.1929867]]], [[[13.5372315, 38.1134236], [13.5379725, 38.1137037], [13.5378686, 38.1135378], [13.5372315, 38.1134236]]], [[[13.507074, 38.119545], [13.5071896, 38.1195971], [13.5072156, 38.1195378], [13.507074, 38.119545]]], [[[13.5398075, 38.0620568], [13.5395247, 38.0626846], [13.5398938, 38.062048], [13.5398075, 38.0620568]]], [[[13.5390565, 38.063403], [13.5390661, 38.0635036], [13.5394528, 38.0628306], [13.5390565, 38.063403]]], [[[13.5389042, 38.0642634], [13.5390834, 38.063614], [13.5387838, 38.0642968], [13.5389042, 38.0642634]]], [[[13.583257, 38.0331459], [13.5831267, 38.0330206], [13.5831665, 38.0332077], [13.583257, 38.0331459]]], [[[13.539913, 38.0618392], [13.5399274, 38.0619411], [13.5403109, 38.0613523], [13.539913, 38.0618392]]], [[[13.5845364, 38.0326062], [13.5844911, 38.0326028], [13.584493, 38.0326611], [13.5845364, 38.0326062]]], [[[13.5845186, 38.0327502], [13.5845388, 38.0327319], [13.5845125, 38.0327242], [13.5845186, 38.0327502]]], [[[13.5858021, 38.0322101], [13.5857728, 38.0323052], [13.5858542, 38.0323108], [13.5858021, 38.0322101]]], [[[13.5854082, 38.0324116], [13.5854791, 38.0325489], [13.5855193, 38.0324609], [13.5854082, 38.0324116]]], [[[13.5845681, 38.0326024], [13.5846788, 38.0325783], [13.5845608, 38.0325735], [13.5845681, 38.0326024]]], [[[13.5872299, 38.030432], [13.5872299, 38.0304905], [13.5873407, 38.0305231], [13.5872299, 38.030432]]], [[[13.5863425, 38.0306999], [13.5862245, 38.0306761], [13.5863238, 38.0307782], [13.5863425, 38.0306999]]], [[[13.5968188, 38.0265775], [13.5968889, 38.0265848], [13.5968693, 38.0265304], [13.5968188, 38.0265775]]], [[[13.5875259, 38.0305202], [13.5875222, 38.0306862], [13.5876148, 38.0306719], [13.5875259, 38.0305202]]], [[[13.6001233, 38.0259566], [13.6001689, 38.0259805], [13.6001395, 38.0259374], [13.6001233, 38.0259566]]], [[[13.5999885, 38.0269023], [13.5998908, 38.0269183], [13.6000875, 38.0270241], [13.5999885, 38.0269023]]], [[[13.6040805, 38.0234974], [13.6040831, 38.0234671], [13.6040428, 38.0234745], [13.6040805, 38.0234974]]], [[[13.6037456, 38.0236513], [13.6037628, 38.0235885], [13.6037114, 38.0235946], [13.6037456, 38.0236513]]], [[[13.6036727, 38.0238818], [13.6036806, 38.0239211], [13.6036982, 38.0238988], [13.6036727, 38.0238818]]], [[[13.6051091, 38.0226456], [13.6051485, 38.0226937], [13.605166, 38.0226733], [13.6051091, 38.0226456]]], [[[13.6044912, 38.0229562], [13.6045419, 38.0229416], [13.6045202, 38.0228861], [13.6044912, 38.0229562]]], [[[13.6053903, 38.022306], [13.6054017, 38.0222579], [13.6053582, 38.022253], [13.6053903, 38.022306]]], [[[13.6051975, 38.0224497], [13.605228, 38.0224273], [13.6051807, 38.0223819], [13.6051975, 38.0224497]]], [[[13.6064199, 38.021738], [13.606502, 38.0217183], [13.6064209, 38.0217206], [13.6064199, 38.021738]]], [[[13.6056481, 38.0220288], [13.6056191, 38.0220174], [13.6056387, 38.0220402], [13.6056481, 38.0220288]]], [[[13.6056025, 38.0220524], [13.6055725, 38.0220752], [13.6056025, 38.0220818], [13.6056025, 38.0220524]]], [[[13.6070393, 38.0211602], [13.6070273, 38.0211681], [13.6070423, 38.0211878], [13.6070393, 38.0211602]]], [[[13.6068942, 38.0212556], [13.6069042, 38.0212154], [13.6068852, 38.0212209], [13.6068942, 38.0212556]]], [[[13.6078458, 38.0209135], [13.6078538, 38.0209008], [13.6077848, 38.0209087], [13.6078458, 38.0209135]]], [[[13.6072694, 38.0211586], [13.6071804, 38.0211381], [13.6071894, 38.0211641], [13.6072694, 38.0211586]]], [[[14.0740925, 37.6440899], [14.0421957, 37.6444425], [14.0259656, 37.6325928], [14.0196222, 37.6190054], [14.0288034, 37.602464], [14.0197724, 37.5977123], [13.9593261, 37.5855215], [13.9231077, 37.5966373], [13.9310557, 37.6071686], [13.8985523, 37.6178184], [13.9043314, 37.6575214], [13.8938519, 37.6584245], [13.8793384, 37.6804841], [13.8636443, 37.6892333], [13.8128802, 37.7045328], [13.8205808, 37.7139819], [13.8065073, 37.7450156], [13.7763673, 37.7223032], [13.7763995, 37.7013623], [13.743315, 37.7066808], [13.7440333, 37.6941274], [13.7332316, 37.6829476], [13.6953967, 37.6949349], [13.6786816, 37.6922259], [13.6566813, 37.6587373], [13.5989925, 37.6555615], [13.5689835, 37.6360005], [13.5178616, 37.6412313], [13.5115397, 37.6592745], [13.4635729, 37.6466122], [13.4527738, 37.6604967], [13.426208, 37.6432604], [13.4161833, 37.6552755], [13.3948457, 37.6596271], [13.3832334, 37.6514655], [13.3864333, 37.6350983], [13.4018249, 37.6180463], [13.391058, 37.6166493], [13.3810496, 37.5995784], [13.3885593, 37.5764738], [13.4029954, 37.5707878], [13.400374, 37.5583036], [13.3563006, 37.5393034], [13.3398749, 37.5531595], [13.3425175, 37.5764595], [13.320535, 37.5881885], [13.3337802, 37.6087712], [13.3283234, 37.6237967], [13.3187017, 37.6253752], [13.350932, 37.6461517], [13.3481061, 37.657062], [13.3276588, 37.6624717], [13.3137645, 37.6427783], [13.300453, 37.6390095], [13.2756589, 37.6472665], [13.2492732, 37.6115044], [13.2461373, 37.6210637], [13.2123032, 37.640491], [13.2137021, 37.6743348], [13.1876436, 37.6916824], [13.1481143, 37.6873821], [13.1235122, 37.701512], [13.0785842, 37.6905682], [13.046562, 37.7120506], [13.027343, 37.7407662], [13.0122167, 37.7426028], [13.0518097, 37.7652858], [13.0620978, 37.7569571], [13.1001376, 37.7711337], [13.0751037, 37.7886495], [13.0969854, 37.8165941], [13.0870074, 37.8112546], [13.0820521, 37.8206237], [13.0561781, 37.8081141], [13.04075, 37.8165986], [12.968384, 37.8236414], [12.9676491, 37.8344544], [12.942846, 37.8448909], [12.9587497, 37.8647776], [12.9475993, 37.8838091], [12.9287551, 37.8865133], [12.9376778, 37.8897666], [12.9391211, 37.9060333], [12.9546672, 37.8970512], [12.9623008, 37.9029011], [12.993291, 37.8974702], [12.995081, 37.9119886], [12.9995996, 37.9021604], [13.0167665, 37.9003064], [13.0476423, 37.9174558], [13.0403531, 37.9225176], [13.0473509, 37.9391652], [13.041502, 37.9475314], [13.0537882, 37.9587107], [13.038041, 37.9708106], [13.0236483, 37.9643781], [13.0291066, 37.9760014], [13.0038227, 37.9903244], [13.0062801, 38.0059585], [12.9851734, 38.0194828], [12.9765873, 38.0398857], [12.9988668, 38.0485797], [13.0026476, 38.0519415], [13.0012588, 38.0558536], [13.0046553, 38.0589287], [13.0027379, 38.0533304], [13.0302419, 38.0635086], [13.0387806, 38.0707506], [13.0397214, 38.0738257], [13.053431, 38.0728525], [13.0781418, 38.087996], [13.0681367, 38.1207728], [13.0523951, 38.1388014], [13.0724491, 38.1419306], [13.0722569, 38.1516242], [13.0849877, 38.1616658], [13.0786765, 38.1736495], [13.1057415, 38.1907854], [13.1227221, 38.1917201], [13.1430884, 38.1823889], [13.1602343, 38.1857742], [13.1642799, 38.1705209], [13.1935431, 38.1696821], [13.2364167, 38.1853735], [13.244132, 38.1932084], [13.2414467, 38.20395], [13.2741062, 38.1981531], [13.2812358, 38.2112446], [13.3181889, 38.2242747], [13.3306692, 38.2119884], [13.3284001, 38.2003302], [13.3586412, 38.1918675], [13.3657043, 38.1823163], [13.3766337, 38.1524598], [13.3687812, 38.1426975], [13.372181, 38.1442283], [13.3778088, 38.132524], [13.3686221, 38.1379931], [13.3729648, 38.1335862], [13.3756829, 38.126443], [13.3804995, 38.1224401], [13.3679731, 38.1325881], [13.3684845, 38.1367493], [13.3627011, 38.1339925], [13.3672482, 38.1191489], [13.3719817, 38.1256252], [13.3927834, 38.1047162], [13.4422852, 38.0948035], [13.4988037, 38.1052495], [13.5075244, 38.1193768], [13.5377721, 38.1126913], [13.5337958, 38.1019487], [13.5426712, 38.0878299], [13.5367271, 38.0826042], [13.544157, 38.0755622], [13.5360565, 38.0692344], [13.5410962, 38.0575804], [13.5676325, 38.0379179], [13.6521887, 37.9977093], [13.7065279, 37.9919484], [13.7233416, 37.9856585], [13.7036228, 37.9898696], [13.7062341, 37.9838011], [13.7150502, 37.986535], [13.7063696, 37.9833264], [13.7104179, 37.9775682], [13.7528636, 37.9708099], [13.7520537, 37.9902384], [13.7529454, 37.9708114], [13.8346984, 37.9826445], [13.9495675, 38.0309948], [14.0060364, 38.0323071], [14.0218628, 38.0416387], [14.0372791, 38.0414872], [14.0323273, 38.0364695], [14.0651287, 38.0184359], [14.1262958, 38.0168173], [14.1462775, 38.0302163], [14.1693071, 38.0183121], [14.1834571, 38.0194634], [14.2301613, 37.9486694], [14.2531546, 37.9360168], [14.2517778, 37.9153311], [14.2923767, 37.9188532], [14.274469, 37.9049833], [14.2682362, 37.8754928], [14.2800862, 37.8418768], [14.2648539, 37.8324101], [14.2622982, 37.8196261], [14.2724165, 37.8007678], [14.260644, 37.7922005], [14.2715886, 37.7905148], [14.2686117, 37.7757034], [14.2911369, 37.764314], [14.2873354, 37.7525376], [14.2941487, 37.7438068], [14.2614549, 37.6975307], [14.2424601, 37.6961394], [14.2166978, 37.6779479], [14.184058, 37.6697209], [14.1745011, 37.676426], [14.1608673, 37.6687987], [14.1655896, 37.6384628], [14.1318029, 37.6116329], [14.1231864, 37.6119896], [14.116345, 37.6318406], [14.1022021, 37.6268764], [14.0740925, 37.6440899]], [[14.0427432, 37.7254631], [14.0286689, 37.704135], [14.0410248, 37.6980673], [14.0412381, 37.6893816], [14.0076767, 37.6854636], [14.0059397, 37.6721028], [14.0184796, 37.657093], [14.0330225, 37.6555832], [14.0602738, 37.6744969], [14.0881956, 37.6790356], [14.0774285, 37.6901366], [14.0909207, 37.6978415], [14.0893918, 37.7076416], [14.0427432, 37.7254631]]], [[[13.6078708, 38.0207195], [13.6079018, 38.0206817], [13.6078668, 38.0206888], [13.6078708, 38.0207195]]]]}}]}