{"type": "FeatureCollection", "features": [{"type": "Feature", "properties": {"slug": "paneveys", "members": 2, "country": "Lithuania", "input_hash": "bee6dd69ae48860b"}, "geometry": {"type": "Polygon", "coordinates": [[[23.9573852, 55.5042248], [23.9409357, 55.5101065], [23.9112505, 55.5404877], [23.9168198, 55.5630301], [23.8795545, 55.5578168], [23.8986839, 55.573041], [23.9250429, 55.6265974], [23.9735906, 55.616236], [23.9821384, 55.6285165], [24.0325823, 55.6309581], [24.0378573, 55.6350899], [24.0224058, 55.6479146], [24.0224433, 55.6664519], [24.0123436, 55.6729617], [24.0316505, 55.6909172], [24.0586306, 55.6882198], [24.0671701, 55.6959163], [24.0600745, 55.697381], [24.0629375, 55.7044858], [24.0299343, 55.7110497], [24.0328386, 55.7235978], [24.0425085, 55.7230402], [24.0387131, 55.7319425], [24.0465311, 55.7454013], [24.0134246, 55.7538456], [24.027451, 55.7672155], [24.0113923, 55.7859935], [23.9839135, 55.7822819], [23.966996, 55.8017623], [23.9612662, 55.8413411], [24.0147949, 55.8382357], [24.003787, 55.8536975], [24.0355294, 55.850813], [24.0338504, 55.8633059], [24.1049198, 55.8807631], [24.1133861, 55.840539], [24.1324966, 55.8404271], [24.1334594, 55.8460178], [24.1766404, 55.8402556], [24.1757733, 55.8507411], [24.1914305, 55.8486388], [24.1910322, 55.8662095], [24.2082545, 55.864974], [24.2068887, 55.8886091], [24.2393992, 55.8872122], [24.2452022, 55.9037615], [24.276089, 55.9012242], [24.2782375, 55.9066202], [24.3566987, 55.8927063], [24.372862, 55.9205671], [24.3934128, 55.9199917], [24.397358, 55.89987], [24.4190954, 55.9026555], [24.4233684, 55.8861824], [24.4461309, 55.8901767], [24.4453199, 55.8778718], [24.4210098, 55.8741908], [24.424366, 55.8628873], [24.5513486, 55.8744886], [24.5522493, 55.8825027], [24.566884, 55.8894775], [24.5277558, 55.8926191], [24.542952, 55.9132707], [24.5600267, 55.9081344], [24.5859938, 55.9159623], [24.5810525, 55.9283367], [24.5954458, 55.9356546], [24.6258041, 55.9230518], [24.6292595, 55.9004584], [24.6823092, 55.9359368], [24.7152585, 55.9224885], [24.7187121, 55.8919731], [24.7276642, 55.8855002], [24.7234835, 55.8734943], [24.7413878, 55.8714548], [24.7394792, 55.850747], [24.7550295, 55.839416], [24.7587467, 55.8220898], [24.7383431, 55.810907], [24.7344044, 55.8014626], [24.7422057, 55.8014068], [24.743392, 55.7871936], [24.7018243, 55.7830936], [24.6973064, 55.7725433], [24.677957, 55.7720724], [24.6903666, 55.7596749], [24.6902958, 55.7426424], [24.7039237, 55.7466671], [24.7122236, 55.7376028], [24.6981203, 55.7334124], [24.7236594, 55.7058343], [24.7133078, 55.6842292], [24.7512162, 55.6731815], [24.7276382, 55.6555816], [24.7022326, 55.6647147], [24.7090461, 55.6712598], [24.6548279, 55.6653224], [24.6661907, 55.6426993], [24.6942692, 55.6549052], [24.7087713, 55.647426], [24.7209202, 55.6345404], [24.7254412, 55.6091527], [24.6775147, 55.6007104], [24.6685523, 55.5827], [24.6748209, 55.5678269], [24.6629119, 55.5601036], [24.6742443, 55.5519292], [24.6725729, 55.5426598], [24.6530601, 55.5239848], [24.6550133, 55.5177846], [24.6288934, 55.5106139], [24.64653, 55.4962196], [24.6502436, 55.4607319], [24.6047509, 55.4495963], [24.541727, 55.4608954], [24.534945, 55.4576776], [24.5421054, 55.4529889], [24.5357049, 55.4460387], [24.5519697, 55.4260319], [24.4879175, 55.406417], [24.484918, 55.3950386], [24.4549631, 55.4019452], [24.4153454, 55.3872229], [24.3989491, 55.3946682], [24.4011964, 55.4097656], [24.3847764, 55.4139686], [24.392108, 55.4301522], [24.3173767, 55.4459064], [24.3165054, 55.4540306], [24.3014921, 55.4386688], [24.2428645, 55.453982], [24.242955, 55.4663449], [24.2004799, 55.4752509], [24.2002367, 55.4511713], [24.1934502, 55.4446683], [24.1642747, 55.451127], [24.150372, 55.4377675], [24.1319155, 55.4352083], [24.1201258, 55.4385914], [24.1203202, 55.450281], [24.0955558, 55.4517203], [24.0919963, 55.4441842], [24.0529718, 55.4403447], [24.0380963, 55.4446536], [24.0550366, 55.4652184], [24.0542997, 55.4755892], [24.0398469, 55.4798512], [24.0027464, 55.5145972], [23.9573852, 55.5042248]], [[24.2905642, 55.7166767], [24.3130952, 55.7165797], [24.3104882, 55.6951318], [24.3587252, 55.7019198], [24.3674827, 55.6890797], [24.3759012, 55.6907001], [24.3864342, 55.7064892], [24.3903193, 55.6950242], [24.4150781, 55.7011266], [24.4184631, 55.707027], [24.3922203, 55.7083244], [24.3894442, 55.7177219], [24.3984497, 55.7183859], [24.3945656, 55.7294866], [24.4042772, 55.7414265], [24.4284761, 55.7343731], [24.4215232, 55.7421595], [24.4296882, 55.747087], [24.3876494, 55.7509932], [24.3788708, 55.7719464], [24.3404484, 55.7579461], [24.2897654, 55.7580245], [24.2883004, 55.7458064], [24.240166, 55.7413095], [24.2356189, 55.7353428], [24.2783552, 55.7395017], [24.2905642, 55.7166767]]]}}]}