{"type": "FeatureCollection", "features": [{"type": "Feature", "properties": {"slug": "parakou", "members": 1, "country": "Benin", "input_hash": "c061ac16f656033e"}, "geometry": {"type": "Polygon", "coordinates": [[[2.7532534, 9.2757232], [2.7717943, 9.4130307], [2.7397733, 9.3912847], [2.7376114, 9.3699006], [2.7055222, 9.387051], [2.6714997, 9.3894843], [2.6257824, 9.4273061], [2.5541421, 9.4419358], [2.4971563, 9.3915826], [2.4808043, 9.3532328], [2.4901552, 9.3226413], [2.5793787, 9.2531258], [2.6173366, 9.2328678], [2.6539362, 9.256904], [2.6775687, 9.2583994], [2.7134577, 9.2747507], [2.7532534, 9.2757232]]]}}]}