{"type": "FeatureCollection", "features": [{"type": "Feature", "properties": {"slug": "paranagua", "members": 1, "country": "Brazil", "input_hash": "4be1a7c062c039a7"}, "geometry": {"type": "Polygon", "coordinates": [[[-48.628, -25.67], [-48.636, -25.684], [-48.629, -25.699], [-48.6345185, -25.7044998], [-48.5900195, -25.7333647], [-48.5689802, -25.6829075], [-48.5829936, -25.6772006], [-48.5845328, -25.6539026], [-48.5336515, -25.6409541], [-48.5130769, -25.6727794], [-48.5151353, -25.6595399], [-48.4966411, -25.6461959], [-48.5144421, -25.6295947], [-48.479182, -25.6270649], [-48.4930097, -25.6142714], [-48.4826905, -25.6105489], [-48.4899126, -25.5970038], [-48.47858, -25.5978585], [-48.4927006, -25.5849136], [-48.4785021, -25.5833208], [-48.4702816, -25.5732883], [-48.4753361, -25.5653621], [-48.4635827, -25.5465212], [-48.4236115, -25.5571523], [-48.3724813, -25.5448658], [-48.3493331, -25.5695685], [-48.3585273, -25.5859451], [-48.319, -25.586], [-48.295087, -25.5685786], [-48.2986208, -25.5591191], [-48.276, -25.514], [-48.447, -25.375], [-48.462, -25.391], [-48.48, -25.394], [-48.499, -25.392], [-48.516, -25.365], [-48.536, -25.371], [-48.56, -25.401], [-48.593, -25.421], [-48.615, -25.451], [-48.625, -25.45], [-48.6342307, -25.4674601], [-48.6838648, -25.5021225], [-48.680496, -25.5307306], [-48.7041148, -25.5678178], [-48.6846272, -25.6172663], [-48.6883351, -25.6270116], [-48.654, -25.642], [-48.628, -25.67]]]}}]}