{"type": "FeatureCollection", "features": [{"type": "Feature", "properties": {"slug": "parkersburg", "members": 3, "country": "United States", "input_hash": "a15ade8123048e6d"}, "geometry": {"type": "Polygon", "coordinates": [[[-81.296053, 39.181392], [-81.316879, 39.16745], [-81.310569, 39.157942], [-81.329158, 39.150206], [-81.299848, 39.129856], [-81.287311, 39.132432], [-81.276382, 39.108016], [-81.261043, 39.103412], [-81.257225, 39.071805], [-81.273739, 39.058679], [-81.253681, 39.05607], [-81.24909, 39.034496], [-81.228238, 39.03228], [-81.210741, 39.045181], [-81.202807, 39.038101], [-81.179378, 39.041412], [-81.162455, 39.030608], [-81.272285, 38.9361123], [-81.2663198, 38.9266313], [-81.277628, 38.9242608], [-81.2782396, 38.9149998], [-81.3437293, 38.8961875], [-81.4150859, 38.9207256], [-81.4480199, 38.9416329], [-81.4672354, 38.927554], [-81.5126547, 38.9188148], [-81.5194109, 38.9362214], [-81.5387419, 38.9448025], [-81.5500685, 38.9603567], [-81.5452673, 38.9715118], [-81.5295829, 38.9774677], [-81.5371749, 38.9902301], [-81.5321969, 39.0056916], [-81.7471261, 39.0954122], [-81.7427648, 39.1440769], [-81.7561501, 39.1803103], [-81.7372158, 39.1940626], [-81.726973, 39.215068], [-81.6997207, 39.2212173], [-81.7257392, 39.2157467], [-81.7219091, 39.269474], [-81.818077, 39.2723022], [-81.8164301, 39.3017521], [-81.8355489, 39.3024536], [-81.8347603, 39.3171925], [-81.8535411, 39.3179561], [-81.8447971, 39.4500628], [-81.825493, 39.449047], [-81.8209, 39.4939], [-81.706573, 39.481895], [-81.705444, 39.530846], [-81.7223272, 39.5314128], [-81.7237173, 39.5473339], [-81.7122567, 39.5854013], [-81.68927, 39.59058], [-81.473877, 39.583107], [-81.472984, 39.64566], [-81.452087, 39.645035], [-81.452286, 39.631435], [-81.413467, 39.630653], [-81.413696, 39.615692], [-81.39518, 39.615532], [-81.395401, 39.601479], [-81.356606, 39.600677], [-81.35672, 39.593426], [-81.283318, 39.591827], [-81.2833199, 39.6056783], [-81.2643145, 39.6053131], [-81.26528, 39.5769099], [-81.0369611, 39.57206], [-81.0388266, 39.5397804], [-81.0921746, 39.4964787], [-81.1319507, 39.4464809], [-81.1844791, 39.4323842], [-81.2102959, 39.4049814], [-81.2141776, 39.3897262], [-81.2693109, 39.3860736], [-81.3443473, 39.3471127], [-81.37130664852232, 39.342246750273894], [-81.3635047, 39.3204068], [-81.3494242, 39.3287843], [-81.340828, 39.318878], [-81.327973, 39.3221348], [-81.3238327, 39.2983079], [-81.2658777, 39.2954858], [-81.26017, 39.2814217], [-81.2400802, 39.2694072], [-81.267996, 39.259979], [-81.277277, 39.23374], [-81.291325, 39.224076], [-81.301558, 39.20254], [-81.296053, 39.181392]], [[-81.38030994885948, 39.343346770991495], [-81.38329772049887, 39.3440898784976], [-81.3826267, 39.3435923], [-81.38030994885948, 39.343346770991495]], [[-81.4168099, 39.3980341], [-81.41927122996299, 39.3993601615734], [-81.41585084348074, 39.39709179704935], [-81.4168099, 39.3980341]], [[-81.4566096, 39.4091784], [-81.473188, 39.40017], [-81.45590326688843, 39.409259266820065], [-81.4566096, 39.4091784]], [[-81.6068186, 39.2761547], [-81.6218605, 39.2738458], [-81.6057463821076, 39.275907948064926], [-81.6068186, 39.2761547]], [[-81.6449865, 39.2773133], [-81.64679526864279, 39.277320063722584], [-81.6218605, 39.2738458], [-81.6449865, 39.2773133]], [[-81.656138, 39.277355], [-81.66272678004302, 39.27643262880474], [-81.64852671113093, 39.277326538291184], [-81.656138, 39.277355]], [[-81.6768093, 39.2744612], [-81.67960157458586, 39.272606498853634], [-81.67284129585757, 39.275016685643735], [-81.6768093, 39.2744612]], [[-81.689483, 39.266043], [-81.69031636937781, 39.264941213646935], [-81.68775114178968, 39.26719334510728], [-81.689483, 39.266043]], [[-81.6967413, 39.2564469], [-81.69673637906908, 39.25617227490679], [-81.69539204808122, 39.25823072766458], [-81.6967413, 39.2564469]]]}}]}