{"type": "FeatureCollection", "features": [{"type": "Feature", "properties": {"slug": "passos", "members": 1, "country": "Brazil", "input_hash": "e0eb9783bb23cfba"}, "geometry": {"type": "Polygon", "coordinates": [[[-46.5976586, -20.6205448], [-46.5854472, -20.5885673], [-46.595, -20.567], [-46.655, -20.535], [-46.699, -20.496], [-46.782, -20.485], [-46.82, -20.462], [-46.862, -20.469], [-46.859, -20.494], [-46.839, -20.512], [-46.855, -20.513], [-46.855, -20.53], [-46.825, -20.532], [-46.818, -20.541], [-46.801, -20.537], [-46.808, -20.543], [-46.8052784, -20.5600218], [-46.8147219, -20.5592995], [-46.8125193, -20.5654442], [-46.827883, -20.5840556], [-46.8331841, -20.5798442], [-46.842485, -20.6010921], [-46.8430278, -20.6120142], [-46.8314546, -20.609577], [-46.8328071, -20.6307058], [-46.8085438, -20.6401338], [-46.8070149, -20.6542949], [-46.8176043, -20.6528291], [-46.8188596, -20.6618743], [-46.8052769, -20.6691271], [-46.8034852, -20.6637515], [-46.7975414, -20.6627326], [-46.7998374, -20.6718324], [-46.7845005, -20.6638218], [-46.7573834, -20.664921], [-46.7645127, -20.6778451], [-46.7568737, -20.6757823], [-46.746971, -20.6912699], [-46.7298156, -20.6908484], [-46.7373633, -20.7117135], [-46.7275357, -20.7170372], [-46.7264923, -20.7294075], [-46.7357674, -20.7338777], [-46.729019, -20.746688], [-46.7389753, -20.7542403], [-46.7279702, -20.7582132], [-46.7312077, -20.7683254], [-46.7178315, -20.7717136], [-46.7265058, -20.7870961], [-46.7204869, -20.7945886], [-46.7127782, -20.7898595], [-46.6948181, -20.8283357], [-46.707, -20.846], [-46.698, -20.864], [-46.672, -20.868], [-46.669, -20.902], [-46.665, -20.894], [-46.648, -20.891], [-46.634, -20.902], [-46.631, -20.912], [-46.654, -20.926], [-46.648, -20.936], [-46.632, -20.942], [-46.6105565, -20.9730885], [-46.6076759, -20.9582962], [-46.5951258, -20.96701], [-46.5884337, -20.9635586], [-46.5873393, -20.9791193], [-46.5753579, -20.9831714], [-46.5722948, -20.99267], [-46.5705112, -20.9769554], [-46.5576661, -20.972247], [-46.5431124, -20.9795801], [-46.5319795, -20.9697666], [-46.523624, -20.9465249], [-46.5270104, -20.9227399], [-46.5036445, -20.9259798], [-46.486896, -20.8967539], [-46.4756278, -20.888559], [-46.4637135, -20.8916542], [-46.4707621, -20.8716978], [-46.4560348, -20.8397893], [-46.4397117, -20.8296388], [-46.4396003, -20.8124684], [-46.424988, -20.8033054], [-46.4173353, -20.8078881], [-46.4181865, -20.8015906], [-46.4087874, -20.805225], [-46.4124191, -20.7829209], [-46.4040238, -20.780195], [-46.4055687, -20.7628405], [-46.3975489, -20.7590333], [-46.4069515, -20.7388354], [-46.389643, -20.7348094], [-46.3991377, -20.7142583], [-46.3831624, -20.7070712], [-46.3794593, -20.6965512], [-46.3987739, -20.6905668], [-46.3995109, -20.6752995], [-46.4392755, -20.6926649], [-46.4494412, -20.6867956], [-46.4593778, -20.6625809], [-46.5380337, -20.6589362], [-46.586174, -20.6408165], [-46.5976586, -20.6205448]]]}}]}