{"type": "FeatureCollection", "features": [{"type": "Feature", "properties": {"slug": "patna", "members": 1, "country": "India", "input_hash": "a9f2ac062a6e6c2d"}, "geometry": {"type": "Polygon", "coordinates": [[[85.1608967, 25.3029865], [85.1748711, 25.3058956], [85.1732771, 25.3160646], [85.1878983, 25.3368641], [85.1861398, 25.3821348], [85.1758415, 25.3856366], [85.1792925, 25.4026875], [85.2044145, 25.4089365], [85.2063337, 25.4022569], [85.2369088, 25.4030871], [85.2500001, 25.4147146], [85.2531157, 25.3964662], [85.2804872, 25.4031945], [85.2973514, 25.3927185], [85.3039561, 25.3940319], [85.3019839, 25.4060403], [85.3340038, 25.4016407], [85.3426545, 25.410642], [85.3600058, 25.4017748], [85.3730109, 25.4303696], [85.3990247, 25.4328577], [85.4012685, 25.4586906], [85.412494, 25.4621267], [85.4442146, 25.4385103], [85.4563667, 25.4445162], [85.4827711, 25.4365451], [85.4795956, 25.4428147], [85.4880649, 25.4450148], [85.4971133, 25.4255421], [85.5245986, 25.4265166], [85.5319763, 25.4242467], [85.5294761, 25.4181428], [85.5483407, 25.4176201], [85.5571022, 25.4242389], [85.5579019, 25.4133295], [85.5760147, 25.4219041], [85.573107, 25.3947803], [85.5870553, 25.3801542], [85.598969, 25.3888026], [85.6258699, 25.3791796], [85.6249398, 25.3667608], [85.6366697, 25.3615883], [85.6308576, 25.3493923], [85.6399163, 25.3528479], [85.6467651, 25.3386641], [85.6456067, 25.3325854], [85.6282423, 25.3309813], [85.6277033, 25.3197175], [85.6415044, 25.3227947], [85.6404697, 25.3136702], [85.6501936, 25.3103311], [85.6569619, 25.3125218], [85.655686, 25.3333342], [85.6684289, 25.3439695], [85.6854551, 25.3435031], [85.6865821, 25.3524395], [85.7011592, 25.3494853], [85.7038326, 25.358854], [85.7106184, 25.3521341], [85.711833, 25.3626229], [85.7195519, 25.3616162], [85.7206275, 25.346003], [85.7295597, 25.3477663], [85.7305781, 25.333307], [85.7398868, 25.3326337], [85.740957, 25.3195299], [85.7814292, 25.3135376], [85.7820199, 25.3072957], [85.8024961, 25.3090675], [85.8089875, 25.2880372], [85.8649482, 25.2937614], [85.8647508, 25.2790515], [85.8911804, 25.2791097], [85.89503, 25.292632], [85.9319461, 25.2987879], [85.9315197, 25.3215095], [86.0202498, 25.2964232], [86.020102, 25.3067592], [86.0316151, 25.3087709], [86.0402722, 25.3338807], [86.0689271, 25.3376588], [86.0466766, 25.3916261], [86.0323562, 25.3918119], [86.0285134, 25.3629001], [86.0128059, 25.3626453], [86.0016331, 25.3729543], [86.0038821, 25.3800506], [85.9574892, 25.4128244], [85.9392778, 25.4086268], [85.9068227, 25.4312998], [85.9002395, 25.4202655], [85.8868654, 25.4217521], [85.8730979, 25.4394004], [85.8808341, 25.4725249], [85.8952263, 25.4591998], [85.906149, 25.4592565], [85.8926239, 25.4782787], [85.8897886, 25.5000014], [85.8383604, 25.5176166], [85.8374623, 25.5264311], [85.8093272, 25.5443305], [85.7816725, 25.5481743], [85.7454537, 25.5346064], [85.7312752, 25.5210987], [85.7204222, 25.5268912], [85.6949087, 25.4844787], [85.6792412, 25.476361], [85.6775835, 25.4947631], [85.6541099, 25.4920525], [85.6542293, 25.5022181], [85.6478303, 25.5006018], [85.6548879, 25.4609183], [85.6204243, 25.4633273], [85.5955835, 25.4741881], [85.6180877, 25.4855051], [85.5445071, 25.4844658], [85.5460458, 25.5038938], [85.5137006, 25.5032353], [85.5051234, 25.4834126], [85.4928502, 25.4938381], [85.4495734, 25.5051294], [85.4513835, 25.5181062], [85.4325778, 25.5187559], [85.429587, 25.4961156], [85.3986431, 25.5050254], [85.3831019, 25.4985374], [85.3062957, 25.5135428], [85.239265, 25.6018799], [85.1879157, 25.6226685], [85.1255906, 25.6312134], [85.1029144, 25.6615589], [85.0813377, 25.7114538], [85.0407939, 25.7213946], [85.0297131, 25.7313371], [85.0057543, 25.7328751], [84.9763192, 25.7255143], [84.968395, 25.7103683], [84.9500773, 25.7044484], [84.9386218, 25.7090664], [84.937821, 25.7021749], [84.9027069, 25.7092265], [84.9033372, 25.7204015], [84.8774584, 25.7114091], [84.8744841, 25.719339], [84.8650227, 25.7179215], [84.8536595, 25.7096337], [84.8472449, 25.6789555], [84.8300463, 25.679565], [84.822982, 25.6719621], [84.8417222, 25.6578543], [84.824331, 25.6382703], [84.8216844, 25.6222423], [84.8321483, 25.6237036], [84.8183655, 25.6081774], [84.8201248, 25.5816979], [84.7959026, 25.5677673], [84.772021, 25.5402657], [84.7555747, 25.5042224], [84.7790824, 25.4487956], [84.7544519, 25.4076597], [84.7266136, 25.333873], [84.7020425, 25.3149805], [84.7260517, 25.2969659], [84.7266731, 25.2860832], [84.6922019, 25.272499], [84.6869288, 25.2598992], [84.6974335, 25.2549837], [84.7218785, 25.2625244], [84.7371781, 25.2535867], [84.7469222, 25.2698776], [84.7661856, 25.2570039], [84.7858784, 25.258803], [84.7902458, 25.2458409], [84.7728291, 25.2303571], [84.7500011, 25.2368174], [84.7494575, 25.229689], [84.7224775, 25.2167869], [84.7289988, 25.2128556], [84.7258273, 25.2054825], [84.7344728, 25.2032601], [84.7552126, 25.2207884], [84.7745407, 25.2248742], [84.8118098, 25.21696], [84.8412621, 25.2362792], [84.8673362, 25.2202686], [84.8690868, 25.2358226], [84.8793198, 25.2458385], [84.8745681, 25.2524308], [84.8912843, 25.2570444], [84.8900682, 25.2748621], [84.9039732, 25.2893022], [84.9205832, 25.2937221], [84.9246161, 25.2866362], [84.9175614, 25.2757214], [84.9361727, 25.2682019], [84.9355783, 25.2807524], [84.9483884, 25.2931705], [84.9819083, 25.29076], [84.9830353, 25.3077198], [84.9929328, 25.30925], [84.9947847, 25.3192462], [85.0040185, 25.3168209], [85.0049051, 25.2940958], [85.0150342, 25.2932507], [85.0206138, 25.2827652], [85.0099772, 25.2648428], [85.0578483, 25.2887946], [85.0768799, 25.2734823], [85.0832386, 25.287204], [85.0924071, 25.2880581], [85.1119849, 25.2700764], [85.117381, 25.2771463], [85.1074366, 25.2887053], [85.121134, 25.2984136], [85.1224723, 25.3140259], [85.1608967, 25.3029865]]]}}]}