{"type": "FeatureCollection", "features": [{"type": "Feature", "properties": {"slug": "pato-branco", "members": 1, "country": "Brazil", "input_hash": "94565872c08ddee6"}, "geometry": {"type": "Polygon", "coordinates": [[[-52.7709829, -26.2406213], [-52.7533071, -26.2479321], [-52.7538704, -26.2575119], [-52.7302551, -26.2738391], [-52.6877658, -26.2689199], [-52.662409, -26.2980521], [-52.6391336, -26.307804], [-52.6382324, -26.2999548], [-52.6199646, -26.2968176], [-52.5864485, -26.2998217], [-52.5934653, -26.2903531], [-52.5816891, -26.2865248], [-52.5926041, -26.2779086], [-52.5644335, -26.280187], [-52.5709148, -26.2692857], [-52.5528082, -26.2701128], [-52.5492903, -26.2595455], [-52.5407323, -26.2587162], [-52.5519755, -26.2482155], [-52.529887, -26.2314037], [-52.539447, -26.2260222], [-52.5394983, -26.2079989], [-52.5604788, -26.205276], [-52.536941, -26.2002654], [-52.548267, -26.1934186], [-52.5445641, -26.1714683], [-52.5363086, -26.1710489], [-52.5516803, -26.1626824], [-52.5409767, -26.154919], [-52.5757177, -26.1529285], [-52.558256, -26.1364777], [-52.5765414, -26.1123022], [-52.5859994, -26.1180418], [-52.6067657, -26.1100838], [-52.5955266, -26.0873053], [-52.6326748, -26.0913448], [-52.6218698, -26.0785564], [-52.5865506, -26.0713382], [-52.6125426, -26.0557445], [-52.6251314, -26.0640224], [-52.6487499, -26.0543439], [-52.628808, -26.0300919], [-52.654185, -26.0370209], [-52.6688747, -26.0324218], [-52.6738371, -26.0177528], [-52.6628512, -26.0143672], [-52.6742321, -25.997519], [-52.6888138, -26.01023], [-52.7069296, -25.9959988], [-52.704477, -26.00477], [-52.7129576, -26.0064391], [-52.7150929, -26.0183301], [-52.7241755, -26.0208438], [-52.7383532, -26.0093252], [-52.7508873, -26.0276831], [-52.7494634, -26.0522108], [-52.7325148, -26.0691519], [-52.7430238, -26.1091881], [-52.7210069, -26.1220549], [-52.7199528, -26.1460674], [-52.7532653, -26.1577836], [-52.7689631, -26.1542405], [-52.7939869, -26.1674759], [-52.7991292, -26.1630435], [-52.7972218, -26.1700737], [-52.8131517, -26.1761902], [-52.8025357, -26.1849145], [-52.789308, -26.1782862], [-52.7973515, -26.1881713], [-52.786222, -26.1944743], [-52.7800339, -26.2107803], [-52.7929341, -26.2067748], [-52.8022038, -26.2178057], [-52.7818405, -26.2272763], [-52.7808963, -26.235678], [-52.776873, -26.2294514], [-52.7709829, -26.2406213]]]}}]}