{"type": "FeatureCollection", "features": [{"type": "Feature", "properties": {"slug": "patras", "members": 1, "country": "Greece", "input_hash": "2bf2458eb02a3e2b"}, "geometry": {"type": "MultiPolygon", "coordinates": [[[[21.7117667, 38.2216872], [21.7169074, 38.2338654], [21.7165604, 38.2324326], [21.7117667, 38.2216872]]], [[[21.6961905, 38.1327905], [21.6782149, 38.1190282], [21.6031725, 38.1262249], [21.6158301, 38.1372505], [21.605239, 38.1428249], [21.6715732, 38.1678727], [21.6797099, 38.1861441], [21.7149909, 38.2111155], [21.7254664, 38.245103], [21.7354142, 38.2506309], [21.7456542, 38.2809269], [21.7598546, 38.2852968], [21.7796972, 38.3129272], [21.8261131, 38.3168216], [21.8458035, 38.3413906], [21.8665264, 38.3372014], [21.8853138, 38.3262292], [21.8777896, 38.3067021], [21.8993755, 38.2926011], [21.9290059, 38.292191], [21.9409224, 38.2765594], [21.9059173, 38.2611075], [21.9121021, 38.2478183], [21.8749975, 38.2230386], [21.8751277, 38.2108219], [21.8625606, 38.1975006], [21.8887042, 38.1657321], [21.8891934, 38.1484124], [21.8647238, 38.1329845], [21.8736114, 38.1155649], [21.8335615, 38.1206722], [21.8114073, 38.1340213], [21.795826, 38.1300173], [21.7791284, 38.1505902], [21.7303082, 38.1485753], [21.7337672, 38.1396311], [21.7213866, 38.1363098], [21.6948068, 38.1518123], [21.6961905, 38.1327905]]], [[[21.732838, 38.2597766], [21.7265933, 38.2478745], [21.7259387, 38.2474817], [21.732838, 38.2597766]]], [[[21.7371995, 38.2613056], [21.7369494, 38.2601299], [21.7367631, 38.2600122], [21.7371995, 38.2613056]]]]}}]}