{"type": "FeatureCollection", "features": [{"type": "Feature", "properties": {"slug": "pavlohrad", "members": 1, "country": "Ukraine", "input_hash": "c65dbb379b70d407"}, "geometry": {"type": "Polygon", "coordinates": [[[35.7007807, 48.3351978], [35.755654, 48.3369179], [35.7493367, 48.3294321], [35.7554975, 48.3208617], [35.7473113, 48.3168093], [35.7604283, 48.3034876], [35.7526413, 48.2990614], [35.7894971, 48.2859566], [35.784401, 48.3096455], [35.8145164, 48.3126401], [35.8053233, 48.3552508], [35.827421, 48.357775], [35.8237926, 48.3773899], [35.8412426, 48.3799526], [35.8407528, 48.3852774], [35.8838869, 48.3908549], [35.8684625, 48.4040795], [35.889459, 48.4094864], [36.1034368, 48.350123], [36.046762, 48.4581583], [36.1063781, 48.4414693], [36.0997168, 48.4267102], [36.1122214, 48.4186936], [36.1547839, 48.4419661], [36.1899816, 48.4363025], [36.2275157, 48.4602862], [36.2489113, 48.4796113], [36.242578, 48.4833503], [36.2962497, 48.531178], [36.271346, 48.5437229], [36.319428, 48.5872395], [36.251138, 48.620609], [36.2600166, 48.6241582], [36.2669045, 48.6495366], [36.2810903, 48.6608545], [36.1430402, 48.7243035], [36.1618074, 48.748951], [36.1401103, 48.7658944], [36.1594635, 48.7680938], [36.1531969, 48.7811162], [36.1592194, 48.7842264], [36.1235371, 48.8085277], [36.0649955, 48.8083981], [36.0756049, 48.8332397], [36.0192844, 48.8546717], [36.04008, 48.8735334], [36.0117342, 48.8880117], [36.0436846, 48.9153848], [35.9955519, 48.9393712], [36.0035164, 48.9463562], [35.9773899, 48.9596734], [35.9890893, 48.9693509], [35.9399698, 48.9990133], [35.9306742, 48.9797588], [35.942571, 48.9771163], [35.9387829, 48.9713022], [35.8838604, 48.9752096], [35.8790576, 48.9627019], [35.8551191, 48.9577751], [35.8564006, 48.9449014], [35.8307902, 48.9504378], [35.8100443, 48.9411361], [35.8186269, 48.9244309], [35.8080482, 48.8762601], [35.7554555, 48.8760766], [35.7578266, 48.886293], [35.7281842, 48.8876052], [35.6363175, 48.8819452], [35.6396677, 48.8686906], [35.6510359, 48.869629], [35.6858626, 48.8469356], [35.6683501, 48.8477482], [35.646536, 48.8310982], [35.6803999, 48.8103984], [35.6698943, 48.8022616], [35.6832862, 48.794412], [35.6603571, 48.7694729], [35.6775288, 48.7589238], [35.6757616, 48.7337936], [35.6429152, 48.7054689], [35.6187117, 48.7017243], [35.5989316, 48.6879502], [35.6049528, 48.6846464], [35.5846439, 48.66954], [35.594957, 48.6636705], [35.5556072, 48.6424539], [35.5693731, 48.6397448], [35.5642445, 48.6307008], [35.5485927, 48.6317771], [35.5443713, 48.6193396], [35.5552748, 48.5948441], [35.5254788, 48.5989247], [35.5533173, 48.5388155], [35.5201511, 48.5320652], [35.5331468, 48.4989176], [35.5657582, 48.5044396], [35.5626523, 48.5206713], [35.6104586, 48.5288771], [35.6048589, 48.5437482], [35.6192114, 48.5463065], [35.638259, 48.5224391], [35.6147736, 48.5111269], [35.6473472, 48.478284], [35.6704941, 48.491037], [35.7066829, 48.4609403], [35.7243136, 48.4712866], [35.7326229, 48.4650672], [35.7472347, 48.4719248], [35.7919552, 48.4361995], [35.7767468, 48.4267157], [35.7828358, 48.4049132], [35.7332339, 48.4005024], [35.7477182, 48.3862426], [35.7154584, 48.3687309], [35.7021868, 48.3840884], [35.6919837, 48.3799698], [35.7006955, 48.3695078], [35.6786585, 48.3611252], [35.7007807, 48.3351978]]]}}]}