{"type": "FeatureCollection", "features": [{"type": "Feature", "properties": {"slug": "perugia", "members": 59, "country": "Italy", "input_hash": "49161d707dfafdb4"}, "geometry": {"type": "MultiPolygon", "coordinates": [[[[12.4078047, 43.602136], [12.4282766, 43.6084662], [12.4334297, 43.5926998], [12.4250737, 43.5917251], [12.4078047, 43.602136]]], [[[12.7583507, 43.3648506], [12.7941114, 43.334046], [12.8023914, 43.3064546], [12.7995915, 43.2907784], [12.788981, 43.2832259], [12.8039639, 43.2699791], [12.8247624, 43.26657], [12.8366, 43.2175352], [12.8653892, 43.2060592], [12.8624905, 43.165966], [12.8296453, 43.1455085], [12.8430031, 43.1223442], [12.8813078, 43.1212114], [12.8850263, 43.0996433], [12.8973277, 43.0934846], [12.8899348, 43.0588841], [12.906709, 43.0353934], [12.9055538, 43.0202844], [12.8977033, 43.0248292], [12.8879599, 43.009801], [12.9082279, 42.9853133], [12.8958221, 42.964592], [12.9480524, 42.9414702], [12.9493368, 42.9299576], [12.9767005, 42.9260927], [12.9683941, 42.9006808], [12.9761569, 42.8698022], [12.9890949, 42.8694966], [13.0010585, 42.8892052], [13.0024247, 42.8957134], [12.9920363, 42.9008123], [13.0014554, 42.9134724], [13.0092605, 42.9030386], [13.0263804, 42.902238], [13.0544191, 42.9201958], [13.0726424, 42.9036548], [13.1122455, 42.8893295], [13.1608634, 42.831898], [13.2122478, 42.8417159], [13.2312825, 42.8543288], [13.2352706, 42.8676862], [13.243504, 42.8586695], [13.2632619, 42.8142084], [13.2514729, 42.7943667], [13.2595251, 42.789692], [13.251325, 42.7896642], [13.2385338, 42.7609418], [13.234313, 42.7731462], [13.1945041, 42.7612146], [13.1995564, 42.7506976], [13.187686, 42.7356335], [13.1914628, 42.7108815], [13.1742619, 42.6882687], [13.1750628, 42.6670725], [13.1468401, 42.6463963], [13.1297691, 42.6597377], [13.1168472, 42.6570934], [13.1097358, 42.641962], [13.0600203, 42.6231364], [13.035944, 42.6280502], [13.0242193, 42.6391517], [13.0109623, 42.6171187], [12.9497445, 42.6186205], [12.9207255, 42.603287], [12.8867544, 42.6197472], [12.8854278, 42.6283234], [12.8953274, 42.6341499], [12.8605576, 42.6669052], [12.8279798, 42.6721194], [12.807633, 42.656652], [12.7924247, 42.663186], [12.7750254, 42.635588], [12.7574028, 42.6362473], [12.7338173, 42.6241433], [12.7361925, 42.6107668], [12.7209968, 42.5968383], [12.698776, 42.6369643], [12.670706, 42.6473836], [12.6393801, 42.6748353], [12.6215596, 42.673396], [12.6135276, 42.6957365], [12.5833577, 42.6874191], [12.5787705, 42.7074123], [12.6166951, 42.7071688], [12.6272988, 42.7203041], [12.6097079, 42.7209535], [12.6053114, 42.7368897], [12.5894193, 42.7442142], [12.5769504, 42.7398874], [12.5805, 42.7192967], [12.5733125, 42.7137768], [12.5433563, 42.7172703], [12.5324299, 42.7110488], [12.5160658, 42.7177973], [12.5119253, 42.7324841], [12.493215, 42.7347227], [12.4625267, 42.7047041], [12.4171026, 42.6804349], [12.4123554, 42.7012727], [12.4005365, 42.6995222], [12.3972604, 42.6779509], [12.3866286, 42.6733137], [12.3814377, 42.6841823], [12.3687059, 42.6869305], [12.372677, 42.7129347], [12.328481, 42.7531791], [12.3156318, 42.7408405], [12.2973075, 42.7489427], [12.2904548, 42.7689628], [12.2907652, 42.7812041], [12.3009424, 42.7819688], [12.3133788, 42.8337253], [12.3272843, 42.8503799], [12.3227406, 42.8628521], [12.3315012, 42.8727268], [12.3305532, 42.8896371], [12.304708, 42.8896755], [12.3194526, 42.9153557], [12.2917161, 42.9154777], [12.2820391, 42.9242962], [12.2786463, 42.9164835], [12.2669925, 42.9248711], [12.2603223, 42.9161745], [12.2544663, 42.9226937], [12.230747, 42.9213944], [12.2256782, 42.9286417], [12.2075007, 42.9239936], [12.2050643, 42.9339439], [12.1886467, 42.9395442], [12.153619, 42.9333663], [12.1506642, 42.9424609], [12.1425564, 42.9348954], [12.1273599, 42.9431276], [12.0615782, 42.9340305], [12.0508221, 42.9407548], [12.0150816, 42.9081361], [11.9997101, 42.9099269], [12.0113912, 42.905568], [12.0073578, 42.9017033], [12.0156177, 42.8968126], [12.0089926, 42.8907651], [12.0300937, 42.8813209], [11.9657377, 42.8682856], [11.9619323, 42.8619416], [11.9344666, 42.8650086], [11.9425317, 42.8722052], [11.9593484, 42.868682], [11.9705205, 42.8885652], [11.9853866, 42.8926173], [11.9984602, 42.9093328], [11.9576065, 42.9167771], [11.9520828, 42.9009046], [11.9332247, 42.9048162], [11.9392969, 42.9372393], [11.9566736, 42.953854], [11.9489837, 42.9783101], [11.9827957, 43.049902], [11.9713085, 43.0642781], [11.9562523, 43.0687663], [11.9485319, 43.0557636], [11.9385935, 43.0540678], [11.9240303, 43.0744896], [11.9309102, 43.0924954], [11.9123518, 43.1284024], [11.9204241, 43.1316678], [11.9240292, 43.1477783], [11.9887863, 43.1817418], [12.0226897, 43.1862209], [12.036207, 43.2255916], [12.0446441, 43.2296919], [12.0340498, 43.246458], [12.0484493, 43.2527672], [12.0922658, 43.235933], [12.1205996, 43.2548469], [12.1477567, 43.2542695], [12.2246532, 43.2957978], [12.1943655, 43.312115], [12.1769421, 43.2816151], [12.1311294, 43.2930826], [12.1248321, 43.305697], [12.1374313, 43.3278452], [12.1223894, 43.3608262], [12.1031515, 43.3720565], [12.0774345, 43.3655679], [12.0773061, 43.4021445], [12.032936, 43.4002249], [12.0252212, 43.4150694], [12.0567912, 43.4383217], [12.0810035, 43.4325144], [12.1032787, 43.4597862], [12.1291411, 43.4722805], [12.1432871, 43.4697346], [12.1451121, 43.4789959], [12.0919158, 43.499909], [12.0951244, 43.5223835], [12.1088474, 43.5320219], [12.1164737, 43.5270238], [12.1423406, 43.5357599], [12.1532945, 43.5287635], [12.1625387, 43.5608025], [12.1943648, 43.5887685], [12.2031793, 43.6061973], [12.2138068, 43.6108907], [12.2254679, 43.5933172], [12.262184, 43.5889093], [12.2877916, 43.5946269], [12.2978021, 43.5858042], [12.3356247, 43.6115801], [12.3507843, 43.6079692], [12.3554043, 43.6173376], [12.3700595, 43.611996], [12.3613096, 43.5965391], [12.3734965, 43.5842877], [12.3702926, 43.5794015], [12.3440279, 43.5528593], [12.3202465, 43.5532898], [12.312894, 43.5445138], [12.3317959, 43.5245007], [12.3501241, 43.5218258], [12.3667278, 43.5341031], [12.3948244, 43.5088396], [12.4179356, 43.534894], [12.4373665, 43.5385536], [12.4578814, 43.5152762], [12.4749426, 43.5155732], [12.4805343, 43.5274538], [12.4998147, 43.521458], [12.5635878, 43.4601899], [12.6195848, 43.4270297], [12.6194173, 43.4165862], [12.6373127, 43.4314993], [12.6631766, 43.4368308], [12.7088578, 43.4246829], [12.7152654, 43.4460855], [12.7332573, 43.4636418], [12.7674461, 43.4598479], [12.7764418, 43.4505175], [12.7663119, 43.4453961], [12.7745014, 43.4333539], [12.7647894, 43.4330308], [12.7659123, 43.4260388], [12.7818296, 43.4154522], [12.7744275, 43.4019665], [12.7461961, 43.3900484], [12.7583507, 43.3648506]]]]}}]}