{"type": "FeatureCollection", "features": [{"type": "Feature", "properties": {"slug": "pesaro", "members": 50, "country": "Italy", "input_hash": "09853b0109960825"}, "geometry": {"type": "MultiPolygon", "coordinates": [[[[12.5181745, 43.8810415], [12.5416922, 43.8640278], [12.5624524, 43.8698165], [12.5658963, 43.8822433], [12.5894923, 43.885645], [12.5893597, 43.8652515], [12.6025614, 43.8634348], [12.6055852, 43.8452637], [12.6194397, 43.844339], [12.6100132, 43.8365641], [12.6140589, 43.8274241], [12.623628, 43.8210437], [12.659421, 43.8282452], [12.6728853, 43.8236533], [12.6831634, 43.8285104], [12.6820395, 43.8526176], [12.7236323, 43.8612367], [12.7339925, 43.870259], [12.7226533, 43.8802805], [12.7339404, 43.8961707], [12.7268305, 43.9251601], [12.7559006, 43.9623548], [12.7509997, 43.9675565], [12.7510008, 43.971583], [12.7967572, 43.9653881], [12.8918453, 43.9235284], [12.9048264, 43.9266224], [12.9039202, 43.9163747], [12.9058363, 43.9277462], [12.9706798, 43.8756238], [13.0095291, 43.8525969], [13.022393, 43.8533058], [13.1723132, 43.7505106], [13.1357537, 43.7316492], [13.0626401, 43.7233426], [13.0799251, 43.7043759], [13.0693503, 43.6926475], [13.0227718, 43.6745437], [13.0019902, 43.6544281], [12.9862101, 43.6553855], [12.9791631, 43.6233513], [12.9605057, 43.5971083], [12.9229637, 43.5878127], [12.919979, 43.570104], [12.8888415, 43.5431168], [12.8434211, 43.5255016], [12.8300876, 43.509196], [12.8203793, 43.5125058], [12.8045393, 43.503811], [12.7956355, 43.4914669], [12.7991489, 43.4788806], [12.7748357, 43.4718857], [12.7661431, 43.4595277], [12.7332573, 43.4636418], [12.7152654, 43.4460855], [12.7088578, 43.4246829], [12.6631766, 43.4368308], [12.6373127, 43.4314993], [12.6194173, 43.4165862], [12.6195848, 43.4270297], [12.5635878, 43.4601899], [12.4998147, 43.521458], [12.4805343, 43.5274538], [12.4749426, 43.5155732], [12.4578814, 43.5152762], [12.4373665, 43.5385536], [12.4179356, 43.534894], [12.3948244, 43.5088396], [12.3667278, 43.5341031], [12.3501241, 43.5218258], [12.3317959, 43.5245007], [12.312894, 43.5445138], [12.3202465, 43.5532898], [12.3440279, 43.5528593], [12.3702926, 43.5794015], [12.3734965, 43.5842877], [12.3613096, 43.5965391], [12.3700595, 43.611996], [12.3554043, 43.6173376], [12.3507843, 43.6079692], [12.3356247, 43.6115801], [12.3131711, 43.6020172], [12.2995399, 43.5858733], [12.2877916, 43.5946269], [12.262184, 43.5889093], [12.2254679, 43.5933172], [12.2099098, 43.6210256], [12.1854536, 43.6411036], [12.2328026, 43.6555382], [12.2502215, 43.6716207], [12.2441689, 43.6817804], [12.2727004, 43.6762095], [12.2947535, 43.6842305], [12.2916272, 43.6900943], [12.3059879, 43.6976646], [12.3010425, 43.7199093], [12.3085839, 43.7296559], [12.3204343, 43.6938362], [12.3161298, 43.6786281], [12.3308754, 43.6740165], [12.3364887, 43.6791885], [12.3303547, 43.7084172], [12.358773, 43.7022184], [12.3722747, 43.7098096], [12.3273254, 43.7505234], [12.2836618, 43.7629534], [12.2895879, 43.7871859], [12.2828902, 43.7891838], [12.3158868, 43.8056377], [12.3497944, 43.7996015], [12.3661936, 43.813326], [12.3871848, 43.8154915], [12.3985444, 43.8263582], [12.3909489, 43.8449976], [12.404573, 43.8763884], [12.4456932, 43.870806], [12.4699145, 43.8975403], [12.4874043, 43.8964693], [12.4868313, 43.8859691], [12.4993597, 43.873587], [12.5181745, 43.8810415]], [[12.4306287, 43.6064043], [12.4240733, 43.6101319], [12.4078047, 43.602136], [12.4302993, 43.5912531], [12.4306287, 43.6064043]]], [[[13.0846373, 43.7150872], [13.0910669, 43.7146427], [13.0782411, 43.7127457], [13.0846373, 43.7150872]]], [[[13.0873807, 43.7201971], [13.100913, 43.7220883], [13.0976528, 43.7180642], [13.0873807, 43.7201971]]]]}}]}