{"type": "FeatureCollection", "features": [{"type": "Feature", "properties": {"slug": "peshawar", "members": 1, "country": "Pakistan", "input_hash": "2fa6d22a9fa33faa"}, "geometry": {"type": "Polygon", "coordinates": [[[71.9687024, 34.1311892], [71.92763, 34.1459887], [71.9068804, 34.1831492], [71.8976751, 34.2302821], [71.8811317, 34.2389669], [71.8825264, 34.2486873], [71.8342467, 34.2593466], [71.8187328, 34.2924331], [71.8371005, 34.3500462], [71.7986583, 34.3999696], [71.7620086, 34.4270893], [71.7554854, 34.4559696], [71.715195, 34.4488162], [71.68351, 34.470108], [71.6432833, 34.5360457], [71.6272974, 34.535922], [71.6200232, 34.515804], [71.6070413, 34.5195699], [71.5832662, 34.5073877], [71.5436552, 34.5441765], [71.5443419, 34.5731576], [71.5344714, 34.5844644], [71.5278625, 34.6267105], [71.5603065, 34.653121], [71.5518092, 34.6733116], [71.5240001, 34.6783232], [71.4616012, 34.6584868], [71.4525889, 34.6747234], [71.4154243, 34.6734528], [71.3572311, 34.6472606], [71.3237571, 34.6572866], [71.2875365, 34.6512853], [71.2689113, 34.6545331], [71.273632, 34.6753587], [71.2265967, 34.7228495], [71.2090873, 34.7057052], [71.1969852, 34.7062696], [71.1827373, 34.7126903], [71.17226, 34.73027], [71.15222, 34.72687], [71.15261, 34.7171], [71.14252, 34.71092], [71.11034, 34.70493], [71.09681, 34.69013], [71.0887, 34.67504], [71.0922, 34.66147], [71.11728, 34.62853], [71.091723, 34.601949], [71.086395, 34.584915], [71.070115, 34.58754], [71.025663, 34.560277], [71.011032, 34.533938], [71.01762, 34.50926], [71.00416, 34.49952], [71.023633, 34.451012], [71.03918, 34.44516], [71.054395, 34.425556], [71.07824, 34.43778], [71.096654, 34.437346], [71.125007, 34.417468], [71.11558, 34.37718], [71.12022, 34.3729], [71.1761, 34.36333], [71.17031, 34.33393], [71.15502, 34.32423], [71.15163, 34.29446], [71.12995, 34.28233], [71.12516, 34.24457], [71.11891, 34.24082], [71.138412, 34.227907], [71.12355, 34.20714], [71.13021, 34.16459], [71.09066, 34.13181], [71.0937278, 34.120208], [71.07085, 34.10929], [71.08283, 34.07043], [71.07627, 34.05575], [71.05996, 34.05005], [71.03151, 34.05476], [71.00101, 34.02487], [70.9684, 34.03047], [70.93551, 34.00689], [70.91411, 34.01112], [70.91946, 33.99456], [70.87231, 33.97135], [70.8552, 33.98389], [70.77916, 33.96096], [70.68514, 33.96295], [70.64708, 33.95225], [70.58396, 33.96237], [70.54686, 33.94301], [70.51371, 33.9497], [70.4954, 33.93973], [70.43759, 33.95036], [70.448958, 33.9276304], [70.4412332, 33.9197783], [70.4489306, 33.8979737], [70.4985879, 33.8848045], [70.5003903, 33.8491526], [70.5256674, 33.8532691], [70.5237792, 33.8413111], [70.5426405, 33.8314013], [70.5729816, 33.8430399], [70.5699775, 33.8223816], [70.5843971, 33.8041434], [70.5760286, 33.7900742], [70.5796764, 33.7829585], [70.6100175, 33.7742548], [70.6021305, 33.781351], [70.6046019, 33.7980196], [70.6364237, 33.8013183], [70.6610832, 33.7706965], [70.6584696, 33.7600799], [70.703595, 33.7437732], [70.7265574, 33.75382], [70.8309276, 33.7707848], [70.8432872, 33.7817896], [70.9043343, 33.7689654], [70.9330766, 33.784381], [70.9849564, 33.7936399], [70.9781114, 33.8249477], [70.9702794, 33.8285128], [70.9759871, 33.8396527], [71.0867516, 33.843235], [71.1134021, 33.8212755], [71.1496441, 33.8133022], [71.172239, 33.8167608], [71.2052409, 33.8360302], [71.2292306, 33.8206293], [71.2460105, 33.8211641], [71.2674467, 33.796756], [71.3361122, 33.7553488], [71.3450386, 33.7645361], [71.4027944, 33.7482627], [71.492702, 33.7517596], [71.5386062, 33.7356922], [71.5491671, 33.7227375], [71.5467714, 33.7009633], [71.5567492, 33.7032305], [71.5848802, 33.6790209], [71.6991423, 33.7097102], [71.7045925, 33.7019452], [71.6797231, 33.6823376], [71.687362, 33.6768737], [71.6812895, 33.6681414], [71.6885637, 33.6574971], [71.7399333, 33.6704094], [71.7447398, 33.6776237], [71.7361997, 33.6850516], [71.747186, 33.6924968], [71.798438, 33.677872], [71.8203463, 33.6942269], [71.886349, 33.7022963], [71.9311741, 33.7287122], [71.9931758, 33.7233801], [72.0062866, 33.7120972], [72.021503, 33.72138], [72.040057, 33.753187], [72.083129, 33.765777], [72.071864, 33.783668], [72.085117, 33.786982], [72.193127, 33.760476], [72.209693, 33.761139], [72.219633, 33.771741], [72.247464, 33.763789], [72.236862, 33.783006], [72.2401123, 33.8571167], [72.2313711, 33.932951], [72.206051, 33.9780169], [72.2186038, 33.986771], [72.2339719, 34.0180018], [72.2445291, 34.0836403], [72.2191232, 34.0847777], [72.2079652, 34.0934852], [72.173666, 34.0881595], [72.1714559, 34.0799312], [72.1010747, 34.0832013], [72.0764628, 34.0754702], [72.0367661, 34.0882483], [72.0421949, 34.0986969], [72.0272818, 34.1014865], [72.0199433, 34.1299992], [71.9894519, 34.1365353], [71.9687024, 34.1311892]]]}}]}