{"type": "FeatureCollection", "features": [{"type": "Feature", "properties": {"slug": "petroani", "members": 1, "country": "Romania", "input_hash": "441372a1eb66c644"}, "geometry": {"type": "Polygon", "coordinates": [[[23.5274287, 45.3282686], [23.5391506, 45.3401084], [23.5102583, 45.3802659], [23.4804964, 45.3960748], [23.4211959, 45.3962611], [23.4050285, 45.4284475], [23.3666651, 45.4371115], [23.3702289, 45.468342], [23.3936742, 45.4771038], [23.3897395, 45.5134222], [23.375547, 45.5231694], [23.4406894, 45.5878814], [23.4010874, 45.5651647], [23.3889058, 45.5661377], [23.3779485, 45.5525454], [23.3625884, 45.5539376], [23.3566826, 45.5442631], [23.3136595, 45.5418388], [23.3037927, 45.5157546], [23.3231486, 45.5072566], [23.3135504, 45.4962594], [23.3345208, 45.479926], [23.3300984, 45.4677353], [23.3114021, 45.4379138], [23.2614634, 45.4265047], [23.2818148, 45.4184731], [23.3157342, 45.4259986], [23.3411901, 45.3884724], [23.3644002, 45.3796314], [23.3655842, 45.3684618], [23.3807752, 45.3559385], [23.3775717, 45.3384539], [23.402535, 45.3346582], [23.4003618, 45.315912], [23.4399958, 45.2980501], [23.4722978, 45.3028439], [23.4826688, 45.3137802], [23.5274287, 45.3282686]]]}}]}