{"type":"FeatureCollection","features":[{"type":"Feature","properties":{"slug":"philadelphia","member_count":15,"matched_count":15,"unmatched":[],"source":"Overture Maps division_area (CC-BY 4.0)"},"geometry":{"type":"MultiPolygon","coordinates":[[[[-75.1604372,39.1999081],[-75.158072,39.2041757],[-75.1551366,39.1994865],[-75.1477294,39.1994466],[-75.1474118,39.2018411],[-75.1451803,39.2001517],[-75.1430688,39.2027457],[-75.1371347,39.1882563],[-75.1330498,39.1946107],[-75.1275704,39.1904422],[-75.1367539,39.1826571],[-75.1604372,39.1999081]]],[[[-75.0271331,39.2261236],[-75.0332807,39.2273286],[-75.0226592,39.2290906],[-75.0271331,39.2261236]]],[[[-75.0136899,39.2483025],[-75.0103425,39.2521243],[-75.0059651,39.2467073],[-75.0136899,39.2483025]]],[[[-75.0028752,39.2548161],[-75.0034331,39.2576407],[-75.0027465,39.2574745],[-74.9997424,39.2581059],[-74.9990558,39.2578401],[-74.9982404,39.2595347],[-74.9930905,39.2584714],[-75.0028752,39.2548161]]],[[[-75.0048064,39.2631566],[-74.9991845,39.2580727],[-74.9996566,39.2583053],[-75.0025319,39.2576407],[-75.0033902,39.2581059],[-75.0048064,39.2631566]]],[[[-74.9936484,39.2629572],[-74.9992274,39.2659144],[-74.9938201,39.2689711],[-74.9936484,39.2629572]]],[[[-75.0013732,39.2670441],[-75.0074243,39.2713632],[-75.0002145,39.2757485],[-75.0013732,39.2670441]]],[[[-74.9946355,39.2727918],[-74.9920177,39.279901],[-74.987297,39.2780075],[-74.9946355,39.2727918]]],[[[-74.9807738,39.2817613],[-74.9834775,39.2709977],[-74.9818038,39.2782068],[-74.9830913,39.2797349],[-74.9836492,39.2797017],[-74.9807738,39.2817613]]],[[[-74.9845075,39.2735227],[-74.98322,39.2795689],[-74.9819755,39.2781072],[-74.9845075,39.2735227]]],[[[-74.9988841,39.3124482],[-74.9945926,39.3092274],[-74.9971675,39.3075007],[-74.9988841,39.3124482]]],[[[-74.9126682,39.2269503],[-74.9258003,39.2189379],[-74.9265117,39.2088225],[-74.9234561,39.202737],[-74.9366569,39.213112],[-74.9258164,39.1990788],[-74.9464759,39.2012738],[-74.946802,39.1943228],[-74.9451713,39.1905843],[-74.9389485,39.1872781],[-74.9404448,39.1857885],[-74.9520206,39.1890875],[-74.9508618,39.1946089],[-74.9552821,39.2006618],[-74.9613332,39.1998969],[-74.9548959,39.2035551],[-74.9599599,39.212201],[-74.9618053,39.2004955],[-74.9669122,39.2025574],[-74.9689292,39.2012604],[-74.9670838,39.2078782],[-74.9769544,39.2034221],[-74.9734353,39.2162575],[-74.9799155,39.2240042],[-74.9775552,39.2065813],[-74.9849795,39.206149],[-74.9693154,39.2004623],[-74.9713325,39.1957397],[-74.9732637,39.1993648],[-74.9840354,39.1987662],[-74.9799584,39.2018258],[-74.9930476,39.203023],[-74.9836271,39.1938035],[-75.0044202,39.1912163],[-74.9969529,39.203156],[-75.0100421,39.1931454],[-75.0018882,39.2029565],[-74.992876,39.2062155],[-75.0015019,39.2062155],[-75.0046348,39.2012272],[-75.0044202,39.2096406],[-75.0082826,39.1967707],[-75.0280236,39.1949414],[-75.017681,39.2056502],[-75.0257491,39.213398],[-75.0142907,39.2119682],[-75.0195264,39.216856],[-75.0133349,39.2198434],[-75.0207163,39.2209074],[-75.0056101,39.224498],[-75.0229479,39.2336066],[-75.0312735,39.2305484],[-75.0241496,39.2356675],[-75.0105025,39.2334736],[-75.0151373,39.2456389],[-75.0043227,39.245373],[-74.991846,39.2560789],[-74.9901294,39.2682734],[-74.9826192,39.2695691],[-74.9759244,39.2747851],[-74.9804734,39.2847177],[-74.9714612,39.2852491],[-74.986267,39.2851827],[-74.9884557,39.2798678],[-74.9905585,39.285382],[-74.9803018,39.2886039],[-74.9671268,39.3079656],[-74.9778797,39.2972017],[-74.9895715,39.3004939],[-74.9882988,39.3076032],[-74.992627,39.310627],[-74.9891195,39.3089428],[-74.9777268,39.3178602],[-74.9762248,39.3220103],[-74.9774264,39.3246661],[-74.9891607,39.3093753],[-74.9973821,39.3125147],[-74.9981116,39.3196863],[-75.0048923,39.3216451],[-75.000987,39.32699],[-75.0102138,39.33811],[-74.9981116,39.3534428],[-75.0016307,39.3633642],[-75.0056647,39.3443166],[-75.0193976,39.3383424],[-75.0142049,39.3427567],[-75.0305127,39.3673456],[-75.0371217,39.3660517],[-75.0271653,39.3687723],[-75.0386666,39.3856241],[-75.0378942,39.3654213],[-75.0234317,39.3501243],[-75.0300836,39.3469052],[-75.0131632,39.327483],[-75.0032927,39.3258232],[-75.0087859,39.3239641],[-74.9978562,39.3168808],[-75.0074243,39.316333],[-75.0011586,39.3065709],[-74.9902152,39.3069362],[-74.9987983,39.3025528],[-74.9807309,39.2975714],[-74.9919318,39.2899989],[-74.9948501,39.2749512],[-75.0001287,39.2762136],[-75.0091409,39.2708981],[-75.0033902,39.2634224],[-75.0139932,39.2628925],[-75.0052785,39.2630569],[-75.0069951,39.2536862],[-75.0108146,39.2613623],[-75.0109433,39.2524234],[-75.0201701,39.2541515],[-75.0130462,39.2351406],[-75.0236033,39.2377],[-75.0307273,39.2353068],[-75.0370788,39.2263978],[-75.0309848,39.2198483],[-75.0608539,39.2154263],[-75.065832,39.2261983],[-75.0581502,39.2263646],[-75.065832,39.2263313],[-75.0651883,39.2326807],[-75.0574206,39.2315173],[-75.0690339,39.2337362],[-75.0615666,39.2153848],[-75.0815323,39.213172],[-75.0828526,39.225093],[-75.0764153,39.2241622],[-75.0858567,39.2269547],[-75.0851528,39.2145883],[-75.1107476,39.2168478],[-75.1328061,39.1985584],[-75.1340077,39.2064068],[-75.1548646,39.1997557],[-75.1565713,39.2049372],[-75.166795,39.2059412],[-75.1460437,39.2204863],[-75.1655973,39.2181748],[-75.171417,39.2364539],[-75.1843045,39.2497566],[-75.1699708,39.2547414],[-75.1788113,39.2562036],[-75.1749489,39.2612544],[-75.185077,39.2503548],[-75.1824162,39.2469649],[-75.1916859,39.245702],[-75.2046452,39.2627954],[-75.243356,39.2775342],[-75.2525636,39.296483],[-75.2463592,39.2989433],[-75.2497629,39.3027246],[-75.2460714,39.3021427],[-75.2408713,39.3052927],[-75.2402398,39.3072481],[-75.2456404,39.3100829],[-75.2336376,39.3201352],[-75.2216479,39.3186731],[-75.2334897,39.3206974],[-75.2441637,39.3132493],[-75.2463036,39.3092915],[-75.2411694,39.3059878],[-75.2503802,39.3035497],[-75.2478996,39.2987916],[-75.2713368,39.3044375],[-75.2910999,39.2927168],[-75.3132442,39.3098526],[-75.3285105,39.3422281],[-75.3480838,39.351135],[-75.3610163,39.345147],[-75.3861124,39.3567177],[-75.4075178,39.3829143],[-75.4449147,39.3559219],[-75.4801429,39.3863515],[-75.5284774,39.3533588],[-75.5526575,39.3535465],[-75.5510861,39.3454276],[-75.5605668,39.3453106],[-75.5558761,39.3358073],[-75.5693945,39.3283884],[-75.574673,39.3132161],[-75.6193448,39.3101969],[-75.666766,39.2902319],[-75.7146258,39.2993691],[-75.7600538,39.2966001],[-75.7665914,39.3775578],[-75.7806618,39.3821006],[-75.8050101,39.3752617],[-75.8221498,39.3817317],[-75.8550496,39.3646564],[-75.8861885,39.3607145],[-75.9572847,39.3743368],[-75.9810499,39.3663769],[-75.9944189,39.3758644],[-76.0432612,39.3784961],[-76.0674084,39.3922304],[-76.0798556,39.4054487],[-76.0522791,39.4246024],[-76.0370988,39.4542317],[-76.0443244,39.5000522],[-76.092464,39.5736908],[-76.1470161,39.6202896],[-76.1609011,39.6505253],[-76.2194602,39.6969821],[-76.2332499,39.7212838],[-76.1200448,39.723318],[-76.1204188,39.7355998],[-76.1141847,39.737069],[-76.101747,39.7241996],[-76.0924687,39.7339888],[-76.100298,39.7455922],[-76.0893024,39.7442959],[-76.0826028,39.7608937],[-76.0629034,39.7641183],[-76.0585777,39.7797088],[-76.0433616,39.7914429],[-76.0495724,39.8031624],[-76.0395528,39.8012336],[-76.0301543,39.8129866],[-76.0374059,39.827301],[-76.0269131,39.8239722],[-76.0164912,39.831296],[-76.0227289,39.8499147],[-76.0074633,39.8524256],[-76.0022851,39.8744066],[-75.991606,39.8686661],[-75.9867164,39.8735189],[-75.9974238,39.9279815],[-75.9809309,39.933499],[-75.994629,39.952429],[-75.935892,40.0374715],[-75.9428875,40.1089056],[-75.8731587,40.1371456],[-76.1517588,40.3158323],[-76.205528,40.360661],[-76.2315834,40.3658587],[-76.440181,40.495952],[-76.338228,40.515536],[-76.256008,40.517067],[-76.171624,40.534947],[-76.132034,40.554414],[-76.07944,40.566098],[-76.065339,40.579678],[-76.0529199,40.5740768],[-76.0452383,40.5836151],[-76.017799,40.5739435],[-75.993218,40.6396037],[-75.8919161,40.6771773],[-75.4839252,40.4184845],[-75.4097329,40.4879842],[-75.2663656,40.57758],[-75.1964537,40.6087173],[-75.1894276,40.590288],[-75.1954907,40.5787249],[-75.1840234,40.5679474],[-75.1620053,40.5640672],[-75.1401834,40.575471],[-75.1173973,40.5734813],[-75.0686373,40.5422473],[-75.0620097,40.4883458],[-75.0710433,40.4561481],[-75.0573691,40.4172816],[-75.0281389,40.4040363],[-74.9947165,40.410389],[-74.9656668,40.3974179],[-74.9404207,40.3382787],[-74.8709522,40.2978926],[-74.8400461,40.2484361],[-74.7722017,40.2161731],[-74.7551774,40.1863875],[-74.7231402,40.163054],[-74.723723,40.1471794],[-74.706474,40.161619],[-74.704213,40.168731],[-74.710106,40.166724],[-74.713072,40.175498],[-74.701704,40.18423],[-74.674271,40.173633],[-74.677435,40.166152],[-74.623699,40.148978],[-74.621945,40.141148],[-74.5880087,40.1382175],[-74.389905,39.773428],[-74.390399,39.596037],[-74.400819,39.572242],[-74.419041,39.568367],[-74.416661,39.550536],[-74.402431,39.539111],[-74.380796,39.498537],[-74.326389,39.506333],[-74.312612,39.500117],[-74.2960495,39.4752893],[-74.2318151,39.4751962],[-74.2424705,39.4685806],[-74.2812673,39.4011054],[-74.3607271,39.3295138],[-74.4527393,39.2892677],[-74.4929376,39.2620501],[-74.5509573,39.2999566],[-74.568107,39.299079],[-74.586396,39.309895],[-74.620612,39.292598],[-74.6358793,39.2959481],[-74.640088,39.29599],[-74.642268,39.295779],[-74.642934,39.295633],[-74.643408,39.295492],[-74.6150524,39.2830095],[-74.6269911,39.2736103],[-74.6288443,39.2489726],[-74.6378833,39.248651],[-74.6474328,39.2397947],[-74.6490224,39.2286404],[-74.6657503,39.2279575],[-74.670039,39.2055567],[-74.6905418,39.1992506],[-74.7109885,39.18462],[-74.6988774,39.1629549],[-74.7061783,39.1450983],[-74.7242386,39.1396658],[-74.7230755,39.1509724],[-74.7319037,39.158129],[-74.7501084,39.1486364],[-74.7360259,39.1356823],[-74.7197325,39.1368489],[-74.7206321,39.1203051],[-74.7395182,39.1196563],[-74.7527314,39.1267671],[-74.7486159,39.1321375],[-74.7603623,39.1341805],[-74.7642729,39.1296179],[-74.7451133,39.1146517],[-74.7281448,39.1152553],[-74.7460503,39.1085167],[-74.7502744,39.1011186],[-74.7708444,39.1112672],[-74.7897346,39.1026041],[-74.7954671,39.0887071],[-74.7854585,39.0887895],[-74.7833141,39.0720861],[-74.7667027,39.0689422],[-74.7715244,39.0613029],[-74.7654683,39.0577019],[-74.787183,39.0436429],[-74.7942079,39.0481704],[-74.789252,39.0569061],[-74.794029,39.0650342],[-74.815223,39.0672682],[-74.8265103,39.0497063],[-74.8180103,39.0513852],[-74.8021639,39.0358446],[-74.8114067,39.0317943],[-74.8122919,39.019192],[-74.8256493,39.0199464],[-74.8299985,39.0082288],[-74.8479009,39.017354],[-74.8526869,39.0002953],[-74.8467314,39.0046449],[-74.8339894,38.9914936],[-74.8591903,38.974643],[-74.8820293,38.9699615],[-74.8725557,38.9627041],[-74.8788428,38.9537272],[-74.9040985,38.9536354],[-74.9374437,38.967509],[-74.9666368,38.9676758],[-74.9436557,39.0273813],[-74.8986697,39.0911417],[-74.8924997,39.1273556],[-74.8663214,39.1211299],[-74.8772648,39.1259574],[-74.8663214,39.1303851],[-74.8705271,39.1324157],[-74.8882413,39.1286627],[-74.8870633,39.1629889],[-74.9109515,39.1783969],[-74.9073896,39.182788],[-74.9125823,39.1800602],[-74.9119815,39.1896736],[-74.922367,39.1888088],[-74.916316,39.1962259],[-74.9257573,39.1970241],[-74.9175605,39.2056707],[-74.9261007,39.2087966],[-74.9255857,39.2186387],[-74.9126682,39.2269503]],[[-75.4135827070029,39.38454693680896],[-75.4144058,39.3849874],[-75.41305330272294,39.3843903],[-75.4135827070029,39.38454693680896]]],[[[-74.9072792,38.9488206],[-74.8786891,38.949873],[-74.8712326,38.9437167],[-74.9124547,38.9296943],[-74.9626962,38.9303175],[-74.9725159,38.940424],[-74.9634118,38.9658098],[-74.9380997,38.9663954],[-74.9088693,38.9548641],[-74.924647,38.938906],[-74.9128633,38.9490912],[-74.9103735,38.9475561],[-74.9072792,38.9488206]]],[[[-74.9103912,38.9479266],[-74.9065369,38.9539416],[-74.9040012,38.9517027],[-74.9103912,38.9479266]]],[[[-74.8674703,38.9596841],[-74.8717725,38.9576485],[-74.8691225,38.9618615],[-74.8674703,38.9596841]]],[[[-74.9239539,39.1808713],[-74.92289680615556,39.17919578623232],[-74.9291896,39.1875907],[-74.9222802,39.1882893],[-74.9239539,39.1808713]]],[[[-74.9138846,39.1881301],[-74.923623,39.1810306],[-74.9221558,39.1882858],[-74.9138846,39.1881301]]],[[[-74.91983573688647,39.19385936674985],[-74.928975,39.1914159],[-74.9196624,39.1961388],[-74.91983573688647,39.19385936674985]]],[[[-74.9452586,39.1995302],[-74.9382205,39.1881553],[-74.9443144,39.1905502],[-74.9452586,39.1995302]]],[[[-74.9796767,39.1924793],[-74.9837966,39.198333],[-74.9741835,39.1974017],[-74.9796767,39.1924793]]],[[[-74.9649138,39.200927],[-74.9520392,39.194741],[-74.9756426,39.1937432],[-74.9711794,39.1941423],[-74.9649138,39.200927]]],[[[-74.9703211,39.2053167],[-74.9707503,39.2019912],[-74.9759001,39.2031884],[-74.9703211,39.2053167]]],[[[-74.8338265,38.9812231],[-74.8317964,38.9935862],[-74.8242196,38.988162],[-74.8310216,38.9951182],[-74.8158737,38.9982641],[-74.8248692,39.0045912],[-74.8080978,39.0008081],[-74.7990967,39.0067989],[-74.7972393,39.0112138],[-74.8003906,39.0232139],[-74.7962851,39.0237217],[-74.7864582,39.0016694],[-74.8645218,38.9398896],[-74.8730229,38.9540848],[-74.8574254,38.9649836],[-74.8597401,38.9717382],[-74.8490811,38.9780772],[-74.8437483,38.9703268],[-74.8338265,38.9812231]]],[[[-74.8378909,38.9802707],[-74.8442102,38.9842072],[-74.8391193,38.9844073],[-74.8378909,38.9802707]]],[[[-74.8264754,38.9984667],[-74.8332346,38.9944143],[-74.8293293,39.0071428],[-74.8173409,38.9981578],[-74.8264754,38.9984667]]],[[[-74.7982202,39.0102158],[-74.8125799,39.0045411],[-74.8027111,39.0202691],[-74.8106235,39.0245516],[-74.8081881,39.0310526],[-74.798618,39.0261853],[-74.8011232,39.0234097],[-74.8027043,39.0133295],[-74.7982202,39.0102158]]],[[[-74.7975281,39.0373649],[-74.7824722,39.0414773],[-74.7908994,39.0296879],[-74.7975281,39.0373649]]],[[[-74.8061363,39.0494123],[-74.7890233,39.0431446],[-74.798617,39.038656],[-74.8061363,39.0494123]]],[[[-74.807405,39.0540675],[-74.8046401,39.0410687],[-74.8108138,39.0443801],[-74.807405,39.0540675]]],[[[-74.8121005,39.0470774],[-74.8159948,39.0499626],[-74.8139682,39.052031],[-74.8121005,39.0470774]]],[[[-74.8009035,39.0536756],[-74.7956876,39.0556756],[-74.79456,39.0545848],[-74.8009035,39.0536756]]],[[[-74.7957775,39.0601183],[-74.7922359,39.0560661],[-74.794922,39.0550047],[-74.7957775,39.0601183]]],[[[-74.7630128,39.069958],[-74.7687464,39.0608503],[-74.7648383,39.0686996],[-74.7663711,39.0705271],[-74.7630128,39.069958]]],[[[-74.7375722,39.0929101],[-74.7298384,39.0917092],[-74.7136074,39.1094756],[-74.7147839,39.112514],[-74.721588,39.1155356],[-74.7161722,39.1176253],[-74.7033969,39.1066617],[-74.7693169,39.0343865],[-74.7914117,39.0200413],[-74.7325685,39.0890213],[-74.7447806,39.0880109],[-74.7394851,39.0926957],[-74.7462373,39.0953183],[-74.7307054,39.0942891],[-74.7375722,39.0929101]]],[[[-74.7502465,39.075086],[-74.7566966,39.0754003],[-74.7474617,39.07699],[-74.7502465,39.075086]]],[[[-74.7702998,39.0731963],[-74.7810232,39.073946],[-74.7736356,39.0884577],[-74.7702998,39.0731963]]],[[[-74.7531321,39.08623],[-74.7421096,39.0799495],[-74.7487401,39.0733087],[-74.7469279,39.0767736],[-74.7479294,39.0774577],[-74.7672438,39.0774822],[-74.7552856,39.0886541],[-74.7603095,39.0932462],[-74.7619174,39.1012544],[-74.7516321,39.0936867],[-74.7573494,39.0919125],[-74.7512187,39.0931273],[-74.7480522,39.0876855],[-74.7404084,39.087889],[-74.7416641,39.0803962],[-74.7531321,39.08623]]],[[[-74.7416228,39.1004837],[-74.746628,39.0955974],[-74.7471571,39.091136],[-74.7555027,39.0998067],[-74.7285578,39.105668],[-74.7405259,39.1028934],[-74.7416228,39.1004837]]],[[[-74.7253719,39.0979214],[-74.7313077,39.095321],[-74.7410884,39.1008851],[-74.7329639,39.1042392],[-74.7253719,39.0979214]]],[[[-74.7236361,39.100234],[-74.7281918,39.1045502],[-74.7223955,39.1012534],[-74.7236361,39.100234]]],[[[-74.7203513,39.1036109],[-74.7315731,39.1089207],[-74.7305849,39.1093956],[-74.7203513,39.1036109]]],[[[-74.7430185,39.115686],[-74.7439077,39.1167687],[-74.7326945,39.1173684],[-74.7430185,39.115686]]],[[[-74.7375787,39.1382327],[-74.7398103,39.1425183],[-74.7370023,39.1421145],[-74.7375787,39.1382327]]],[[[-74.737184,39.1377032],[-74.7336484,39.1509611],[-74.7240863,39.150745],[-74.7264386,39.1395487],[-74.737184,39.1377032]]],[[[-74.7150716,39.1116507],[-74.7199328,39.1050296],[-74.7270006,39.1084324],[-74.7220452,39.114965],[-74.7150716,39.1116507]]],[[[-74.6995697,39.1684764],[-74.6845975,39.1681455],[-74.6702135,39.186802],[-74.6733963,39.1911199],[-74.6606022,39.1956694],[-74.6504045,39.2043578],[-74.7158397,39.1201352],[-74.7139852,39.1376566],[-74.7052664,39.1436912],[-74.696694,39.1611921],[-74.6995697,39.1684764]]],[[[-74.6878907,39.1828607],[-74.6832238,39.1826616],[-74.679539,39.1819023],[-74.6878907,39.1828607]]],[[[-74.6948624,39.1833726],[-74.6918491,39.1880237],[-74.694661,39.1811207],[-74.6948624,39.1833726]]],[[[-74.6709331,39.1866483],[-74.6827302,39.1870551],[-74.6791391,39.1906517],[-74.6791366,39.1916282],[-74.6803052,39.1934411],[-74.6710105,39.1941652],[-74.6743665,39.1903099],[-74.6709331,39.1866483]]],[[[-74.6793826,39.1913556],[-74.6894622,39.1881933],[-74.6810136,39.1931439],[-74.6793826,39.1913556]]],[[[-74.6714452,39.1964679],[-74.6964901,39.1892279],[-74.6881075,39.1971051],[-74.6714452,39.1964679]]],[[[-74.6611538,39.2021157],[-74.659198,39.2023215],[-74.6602751,39.1976675],[-74.6611538,39.2021157]]],[[[-74.6706153,39.2036687],[-74.6579273,39.215791],[-74.6480766,39.2154219],[-74.6679666,39.198252],[-74.6789026,39.2023802],[-74.6706153,39.2036687]]],[[[-74.6588571,39.221686],[-74.6553584,39.222019],[-74.6668119,39.2078848],[-74.6588571,39.221686]]],[[[-74.6616889,39.2276225],[-74.6554457,39.2227565],[-74.659007,39.2219203],[-74.6616269,39.2199866],[-74.6616889,39.2276225]]],[[[-74.6301233,39.2478333],[-74.6300469,39.2451836],[-74.6379493,39.2483209],[-74.6301233,39.2478333]]],[[[-74.5978454,39.2766357],[-74.5919389,39.2724727],[-74.5539415,39.2984477],[-74.5588931,39.2785345],[-74.6171451,39.2405215],[-74.6511555,39.2080739],[-74.6461678,39.2155834],[-74.6546406,39.2269702],[-74.6451606,39.2293417],[-74.6465248,39.2393676],[-74.6286125,39.2447092],[-74.6198739,39.2607536],[-74.6135897,39.2554501],[-74.6172702,39.2598853],[-74.608132,39.2639704],[-74.6105482,39.2677643],[-74.59736,39.268285],[-74.6005467,39.2764012],[-74.594523,39.2705431],[-74.5978454,39.2766357]]],[[[-74.6110341,39.2684212],[-74.609525,39.2648165],[-74.6152847,39.2677094],[-74.6110341,39.2684212]]],[[[-74.6031548,39.2802537],[-74.6099516,39.2703457],[-74.6121356,39.2780356],[-74.6031548,39.2802537]]],[[[-74.5867466,39.2794559],[-74.5925139,39.2828574],[-74.5885896,39.2860328],[-74.5867466,39.2794559]]],[[[-74.5792751,39.2889781],[-74.5794964,39.286005],[-74.5882303,39.2875006],[-74.5792751,39.2889781]]],[[[-74.5843513,39.2972252],[-74.5765022,39.2961934],[-74.5865403,39.2952152],[-74.5843513,39.2972252]]],[[[-74.5940645,39.300773],[-74.5802217,39.2996419],[-74.583657,39.2989292],[-74.5940645,39.300773]]],[[[-74.5933551,39.3021683],[-74.5952927,39.3045903],[-74.5913906,39.3057853],[-74.5933551,39.3021683]]],[[[-74.5831857,39.3049189],[-74.5926526,39.3066549],[-74.5878479,39.3075976],[-74.5831857,39.3049189]]]]}}]}