{"type": "FeatureCollection", "features": [{"type": "Feature", "properties": {"slug": "phnom-penh", "members": 18, "country": "Cambodia", "input_hash": "0db950a51ec319cb"}, "geometry": {"type": "Polygon", "coordinates": [[[104.9220259809739, 11.428972312453192], [104.88065692322718, 11.436211557448011], [104.87343667783026, 11.422486920182081], [104.8575611328832, 11.423820372864249], [104.83079799283664, 11.430914516989256], [104.82214008078502, 11.444069120646509], [104.8106192010961, 11.430004585415018], [104.79935428466209, 11.444830709274827], [104.78231009699688, 11.449253640841775], [104.78514474438755, 11.454286937404234], [104.77393004121937, 11.458933680734788], [104.77733341612402, 11.466954795052622], [104.75564149848334, 11.457847809032065], [104.75938403237834, 11.450547206191443], [104.75282893421516, 11.456447070298733], [104.74110032364038, 11.447583182095366], [104.73822466944677, 11.456100876620818], [104.72340602948537, 11.45882859341208], [104.71363017489489, 11.445686693596596], [104.70167100646951, 11.445492746537536], [104.67820019961894, 11.459098867166475], [104.65730753184293, 11.44799899073155], [104.68652501860028, 11.641175025989805], [104.75100678346239, 11.800410250461516], [104.7505184528083, 11.821137378770825], [104.73650985861619, 11.82628399601027], [104.78234984344726, 11.839122818739868], [104.76971070331274, 11.852241518424565], [104.76395036925604, 11.880957512889088], [104.77204108887281, 11.8873601011378], [104.77977568106887, 11.879973251964694], [104.78622549632772, 11.88847109576164], [104.8143186434627, 11.892817107886346], [104.83677725442352, 11.869000399327975], [104.83331547149565, 11.823526744511108], [104.85174586009369, 11.825805751551634], [104.85509621811634, 11.833219739503713], [104.88293051718698, 11.812363607946386], [104.87834604921687, 11.818825520166918], [104.88466736745394, 11.825074947397903], [104.91011929397867, 11.807154274442235], [104.93983364829494, 11.833864196115359], [104.95620174188804, 11.875397977399766], [104.96310035675431, 11.857184657242662], [104.99125764576401, 11.880136915875982], [105.00399952559226, 11.855105614489263], [105.02214043777605, 11.852188440725564], [104.99153226857648, 11.832980795121772], [105.02281124002823, 11.852156734387599], [105.03893867295673, 11.849961425257959], [105.06677011823196, 11.81220466303788], [105.04961743227854, 11.79244265151658], [105.04945930257817, 11.752116202792235], [105.0879513797392, 11.750350230666477], [105.10154107493345, 11.734448299328621], [105.12099015851341, 11.741922002382234], [105.16024105800402, 11.735519086597439], [105.15656986625024, 11.708059279354325], [105.13387648354812, 11.699469221772587], [105.12123409438259, 11.66985939216208], [105.13221170051285, 11.651280150309228], [105.11113851233141, 11.641640663993414], [105.10290189981066, 11.62405954355198], [105.11208326874417, 11.613206038490423], [105.11794940809013, 11.576546456472254], [105.11248660552063, 11.572362551426618], [105.1234549225154, 11.552887099258465], [105.13444238750334, 11.549101967090166], [105.12837398692108, 11.535400172759385], [105.14478493380575, 11.526730886717797], [105.15889886348965, 11.531808317685732], [105.17851627082864, 11.518609019165915], [105.1987886095879, 11.522535516993505], [105.2137240909051, 11.488205405028626], [105.22745190289734, 11.486169245194596], [105.22686508411499, 11.473264401419677], [105.23715015807655, 11.462359751347735], [105.25544320892604, 11.451394734353068], [105.26144353428552, 11.458544584716284], [105.27033539349227, 11.44933725108257], [105.27807854827968, 11.458598836632206], [105.2971605003803, 11.424039031813797], [105.25552568405097, 11.39053471701495], [105.24695765120767, 11.407040513250303], [105.15191195823192, 11.478317558158977], [105.04175268614512, 11.538996627040017], [105.02628415130586, 11.515667994732874], [105.02931127704461, 11.483530876561119], [105.0503765336595, 11.48240205931079], [105.02882319047647, 11.465416341714], [104.96692862122296, 11.464096635423878], [104.9735759031715, 11.462684230287957], [104.96003143687838, 11.45528830689002], [104.9725238837837, 11.432393243506665], [104.95950061832646, 11.432572607283735], [104.94942161716223, 11.419318547646508], [104.9411472329307, 11.419242393479234], [104.94104137999818, 11.428483517295588], [104.92258983118059, 11.428797657075599], [104.92276170710069, 11.451618127957685], [104.9220259809739, 11.428972312453192]], [[104.84643582476734, 11.692451724895172], [104.85578922492888, 11.67524440613788], [104.87898414762492, 11.644878815500046], [104.85518783004663, 11.676589334477985], [104.84643582476734, 11.692451724895172]], [[104.90755242151434, 11.630651954387739], [104.90530363548974, 11.632988404286174], [104.90386896524099, 11.63363654832688], [104.90755242151434, 11.630651954387739]], [[104.92068752444534, 11.605913597159711], [104.92055027358009, 11.609410621558343], [104.92006800421976, 11.610837023133472], [104.92068752444534, 11.605913597159711]], [[104.92041397776846, 11.588770003645134], [104.92136680628074, 11.58860612774833], [104.92095367548728, 11.599132316140148], [104.92041397776846, 11.588770003645134]], [[104.90630099213274, 11.570387930900262], [104.90812972688404, 11.55774961324848], [104.90631189036253, 11.57038900620521], [104.90630099213274, 11.570387930900262]], [[104.89773708164415, 11.548676693221369], [104.89842109267768, 11.548354116473647], [104.90591462903903, 11.5556059600614], [104.89773708164415, 11.548676693221369]], [[104.91733142596696, 11.527183604500271], [104.91801607788216, 11.527109586592909], [104.91687677190626, 11.527901692168674], [104.91733142596696, 11.527183604500271]], [[104.92179792098364, 11.526700730492268], [104.93281835250029, 11.531322062533322], [104.91941022809095, 11.526958864629362], [104.92179792098364, 11.526700730492268]], [[104.93534183296637, 11.524546172198558], [104.93263124028495, 11.532638027822392], [104.93281835250029, 11.531322062533322], [104.93534183296637, 11.524546172198558]], [[104.9136249792366, 11.482355188777321], [104.92138084089373, 11.484501871876873], [104.94672010550988, 11.493840260949783], [104.94671962360292, 11.49384117426895], [104.9136249792366, 11.482355188777321]], [[104.72892422018667, 11.689234581261607], [104.71051790581193, 11.682159292250164], [104.73003315094178, 11.689127106406229], [104.72892422018667, 11.689234581261607]], [[104.74795259488451, 11.657247216509719], [104.74732591675838, 11.6598858135178], [104.74254883723225, 11.67080061979989], [104.74795259488451, 11.657247216509719]], [[104.74779005335422, 11.655319353822074], [104.74788042070611, 11.656391177408093], [104.74249184596127, 11.648010880498173], [104.74779005335422, 11.655319353822074]], [[104.74018701392185, 11.621178881216354], [104.74387593419598, 11.639342752205991], [104.73989125168693, 11.620440386091998], [104.74018701392185, 11.621178881216354]], [[104.82392319670421, 11.580005265041088], [104.80913311086356, 11.579932849987838], [104.82337038270593, 11.579447878430148], [104.82392319670421, 11.580005265041088]], [[104.86292047340523, 11.52185556063135], [104.86150801364148, 11.54513667937633], [104.8642880584648, 11.567647647043781], [104.86140455194742, 11.544549923499098], [104.86292047340523, 11.52185556063135]], [[104.89560926774973, 11.549680161370523], [104.89071473451706, 11.549741987372382], [104.86150801364148, 11.54513667937633], [104.89560926774973, 11.549680161370523]], [[104.88758830259488, 11.552925004380217], [104.88798554034278, 11.551776957052358], [104.89071473451706, 11.549741987372382], [104.88758830259488, 11.552925004380217]], [[104.86558000657179, 11.510095494250436], [104.85899078674869, 11.506605295210324], [104.86917349739095, 11.51077791553403], [104.86558000657179, 11.510095494250436]], [[104.87463517428917, 11.513430328476336], [104.87704872770384, 11.514602448400913], [104.87756964210512, 11.51626877126812], [104.87463517428917, 11.513430328476336]], [[104.87551339741462, 11.52182961733165], [104.87794879179532, 11.517481611222909], [104.8780966871454, 11.517954705080914], [104.87551339741462, 11.52182961733165]], [[104.74269043308394, 11.536294708333923], [104.7443630785764, 11.529809657703462], [104.74486423317379, 11.529556081464271], [104.74269043308394, 11.536294708333923]], [[104.82601574545734, 11.58211512235543], [104.83000385252937, 11.586136217139336], [104.83070991884418, 11.587713483264102], [104.82601574545734, 11.58211512235543]], [[104.83182623113497, 11.59020718891754], [104.83214246986725, 11.590913627716997], [104.8321746241527, 11.591901156182484], [104.83182623113497, 11.59020718891754]], [[104.89626095571987, 11.59039319590737], [104.88740639320505, 11.583651241833763], [104.8974887331894, 11.590933992090955], [104.89626095571987, 11.59039319590737]], [[104.88736478956233, 11.556192404793194], [104.88678950719789, 11.555233583879184], [104.88723688132465, 11.553940638600213], [104.88736478956233, 11.556192404793194]], [[104.82684199370175, 11.715745787516486], [104.82291689343907, 11.715411036349467], [104.84004384099057, 11.7156065066156], [104.82684199370175, 11.715745787516486]], [[104.81666449864366, 11.688679546691036], [104.80993731441993, 11.67854688896753], [104.81695756642023, 11.688303792056278], [104.81666449864366, 11.688679546691036]], [[104.80650459219993, 11.672894185749977], [104.78096239598354, 11.67138072743718], [104.7970495354036, 11.671512365124533], [104.80650459219993, 11.672894185749977]], [[104.91843306412876, 11.571584976409786], [104.9197101469502, 11.556106622696444], [104.92042586908046, 11.556141655670896], [104.91843306412876, 11.571584976409786]], [[104.9699642940986, 11.548287232042442], [104.9469322524986, 11.56148416981647], [104.95251394158177, 11.557712294018653], [104.9699642940986, 11.548287232042442]], [[104.94511680668215, 11.575531437582322], [104.94173511107911, 11.562006672133524], [104.9469322524986, 11.56148416981647], [104.94511680668215, 11.575531437582322]], [[104.93469480429198, 11.567370316593665], [104.93541560608193, 11.566221846232366], [104.94173511107911, 11.562006672133524], [104.93469480429198, 11.567370316593665]], [[105.07551900367332, 11.642961264713774], [105.07104909463129, 11.64061784518323], [105.07562220511612, 11.642578096371777], [105.07551900367332, 11.642961264713774]], [[105.08071221857041, 11.634978865749742], [105.07703751688352, 11.637323299068479], [105.08073157877406, 11.633698469404388], [105.08071221857041, 11.634978865749742]], [[105.1004582896909, 11.574047686488512], [105.100040398448, 11.578421378737078], [105.09972819187159, 11.575873901476042], [105.1004582896909, 11.574047686488512]], [[105.10428853841974, 11.566461793330893], [105.10192769010165, 11.57037223234824], [105.10272272895786, 11.568383578449446], [105.10428853841974, 11.566461793330893]], [[104.93197345876835, 11.537264223082085], [104.93274819094644, 11.538841575270867], [104.93183505230199, 11.538237639516602], [104.93197345876835, 11.537264223082085]], [[104.97279650950725, 11.54726067420459], [104.97601997400399, 11.546092305183622], [104.99429496141772, 11.54300821087433], [104.97279650950725, 11.54726067420459]], [[105.0179181623846, 11.543486160121535], [105.01483412097822, 11.54389303964098], [104.99429496141772, 11.54300821087433], [105.0179181623846, 11.543486160121535]], [[105.02304767796646, 11.542809419909613], [105.04109456158722, 11.53918098282233], [105.03267644306992, 11.54153909088289], [105.02304767796646, 11.542809419909613]], [[104.96837270260478, 11.71099086185076], [104.96003433831734, 11.711335735839397], [104.96729710529341, 11.70760893941205], [104.96837270260478, 11.71099086185076]], [[104.94325622997798, 11.587804035923938], [104.94257202115443, 11.59229848011858], [104.93228112087057, 11.622354374135092], [104.94325622997798, 11.587804035923938]], [[104.93755673129334, 11.642351922080522], [104.93703782698428, 11.640384981202045], [104.94724624870638, 11.655164852879281], [104.93755673129334, 11.642351922080522]], [[105.01675274425052, 11.776024345184998], [105.01319144573662, 11.765085889908729], [105.01471920105135, 11.767281613134124], [105.01675274425052, 11.776024345184998]], [[105.00851303266452, 11.758361972707199], [105.00151770055666, 11.74937237143779], [105.00759877970127, 11.757047988428456], [105.00851303266452, 11.758361972707199]], [[104.97582097867303, 11.723242238575589], [104.97367703628903, 11.719715751965543], [104.99005985646416, 11.739334983742657], [104.97582097867303, 11.723242238575589]]]}}]}