{"type": "FeatureCollection", "features": [{"type": "Feature", "properties": {"slug": "phuket", "members": 1, "country": "Thailand", "input_hash": "7d64c00e93bc8af1"}, "geometry": {"type": "MultiPolygon", "coordinates": [[[[98.312826, 7.4822152], [98.3199, 7.4872001], [98.3048781, 7.4622612], [98.312826, 7.4822152]]], [[[98.3159446, 7.5011668], [98.3317493, 7.5204042], [98.3199281, 7.4886774], [98.3159446, 7.5011668]]], [[[98.3640953, 7.6149412], [98.3714987, 7.6102453], [98.3761101, 7.6171693], [98.3631789, 7.588252], [98.3555511, 7.5894216], [98.3549248, 7.6036006], [98.3676229, 7.6075861], [98.3640953, 7.6149412]]], [[[98.372097, 7.7427342], [98.3580415, 7.7344751], [98.3680221, 7.7483384], [98.3856456, 7.7451021], [98.3794211, 7.7380815], [98.372097, 7.7427342]]], [[[98.3037361, 7.7465579], [98.3008571, 7.7427693], [98.3006894, 7.7489363], [98.3037361, 7.7465579]]], [[[98.3306777, 7.7592289], [98.3354542, 7.76289], [98.328346, 7.7527094], [98.3306777, 7.7592289]]], [[[98.3991309, 7.7625845], [98.3901168, 7.7570065], [98.3997602, 7.7658369], [98.3991309, 7.7625845]]], [[[98.3550943, 7.7885563], [98.3830727, 7.7937395], [98.3896217, 7.7801683], [98.3620169, 7.7806035], [98.3550943, 7.7885563]]], [[[98.3385566, 8.170258], [98.3475471, 8.1434409], [98.3456573, 8.1156902], [98.3509721, 8.125572], [98.3520676, 8.1106461], [98.3730977, 8.1188873], [98.3761983, 8.0994498], [98.3965561, 8.0794637], [98.4177047, 8.0856616], [98.4252247, 8.1008135], [98.4337745, 8.098302], [98.4401412, 8.0927282], [98.4358101, 8.0713804], [98.4438008, 8.0705459], [98.4297424, 8.0553127], [98.4326831, 8.0402467], [98.4175452, 8.0487731], [98.4210956, 8.0408198], [98.4149104, 8.041266], [98.4110695, 8.0262488], [98.4107783, 8.0020475], [98.425991, 7.9873316], [98.4024195, 7.9910182], [98.3930629, 7.9786753], [98.3961066, 7.9502663], [98.4132288, 7.9268614], [98.4117313, 7.9133502], [98.4223485, 7.9039136], [98.4176276, 7.8973677], [98.425945, 7.8966999], [98.4182081, 7.8947854], [98.4135732, 7.8864227], [98.4144243, 7.8712052], [98.409726, 7.8781824], [98.3979055, 7.870683], [98.4023818, 7.8628062], [98.3917161, 7.8519654], [98.3973305, 7.8382359], [98.4103518, 7.8374967], [98.4008565, 7.8241068], [98.4124818, 7.8010163], [98.3949604, 7.8143229], [98.38914, 7.8054088], [98.3759892, 7.8421264], [98.366277, 7.8391657], [98.3454407, 7.8233047], [98.3332026, 7.7891045], [98.3373727, 7.7775317], [98.3106968, 7.7577323], [98.3026788, 7.758488], [98.3045497, 7.7773797], [98.2881857, 7.7756605], [98.2909545, 7.7868817], [98.2847312, 7.7878513], [98.2987525, 7.8039422], [98.2978114, 7.8195418], [98.2896539, 7.8245989], [98.2900974, 7.8567029], [98.2733843, 7.8678224], [98.2720681, 7.8820644], [98.2609231, 7.8857], [98.2642124, 7.8931839], [98.2873295, 7.8855852], [98.2957191, 7.8981028], [98.2912707, 7.9160552], [98.2621229, 7.9234383], [98.2580648, 7.9350631], [98.2623617, 7.9485453], [98.2825094, 7.9548296], [98.2701945, 7.9879625], [98.2848034, 7.984899], [98.289477, 8.0258667], [98.2857621, 8.0349396], [98.2720776, 8.0379407], [98.2774962, 8.0565725], [98.2703917, 8.0714146], [98.2960854, 8.087774], [98.3011437, 8.1057709], [98.2836246, 8.196828], [98.2975048, 8.2005776], [98.3034449, 8.1934067], [98.2970632, 8.1888958], [98.3046648, 8.1928247], [98.3385566, 8.170258]]], [[[98.298349, 8.2021889], [98.2987336007884, 8.201924306685754], [98.29765977398577, 8.20215218933812], [98.298349, 8.2021889]]], [[[98.4807328, 7.7621693], [98.4751324, 7.7510017], [98.4815892, 7.7708896], [98.4807328, 7.7621693]]], [[[98.4194283, 7.8301203], [98.4109352, 7.8269694], [98.4095405, 7.8292865], [98.4194283, 7.8301203]]], [[[98.424318, 7.8307129], [98.4226352, 7.8353423], [98.424027, 7.8368022], [98.424318, 7.8307129]]], [[[98.4141333, 7.8863882], [98.4264446, 7.896521], [98.4414842, 7.9147957], [98.4378627, 7.8949521], [98.4450963, 7.8831935], [98.4296589, 7.8747056], [98.4378058, 7.8652178], [98.4256844, 7.8749619], [98.4164729, 7.8693585], [98.4203343, 7.8783247], [98.4141333, 7.8863882]]], [[[98.4377856, 7.9447484], [98.4362568, 7.9298818], [98.4173365, 7.9289524], [98.4168538, 7.9429377], [98.4377856, 7.9447484]]], [[[98.4521912, 7.951023], [98.4471636, 7.9609744], [98.4534819, 7.955166], [98.4521912, 7.951023]]], [[[98.4589139, 8.0263804], [98.461713, 8.0284106], [98.4604665, 8.0220628], [98.4589139, 8.0263804]]], [[[98.4675255, 8.0618422], [98.46679, 8.038959], [98.4572746, 8.0604012], [98.4675255, 8.0618422]]], [[[98.4498551, 8.0564107], [98.4425734, 8.0599417], [98.4499033, 8.0640667], [98.4498551, 8.0564107]]], [[[98.4010564, 8.1076251], [98.4051317, 8.106705], [98.3991072, 8.1040005], [98.4010564, 8.1076251]]]]}}]}