{"type":"FeatureCollection","features":[{"type":"Feature","properties":{"slug":"pia","member_count":9,"matched_count":9,"unmatched":[],"source":"Overture Maps division_area (CC-BY 4.0)"},"geometry":{"type":"Polygon","coordinates":[[[16.8078156,53.0530473],[16.7959582,53.042456],[16.8017617,53.0261938],[16.7750726,53.0245935],[16.7798247,53.0135381],[16.7410001,53.0027994],[16.7389361,52.9819979],[16.7320575,52.9835508],[16.7378158,52.9798921],[16.706693,52.9687451],[16.6983538,52.9618548],[16.7013689,52.9516817],[16.64843,52.956908],[16.6325738,52.9892279],[16.6493541,52.9912674],[16.6502537,53.0224015],[16.625424,53.0443731],[16.6076396,53.0419434],[16.6587018,53.0630761],[16.6567582,53.0707196],[16.6677004,53.0726872],[16.6580628,53.086589],[16.6700355,53.094032],[16.6917571,53.0904948],[16.7196985,53.1177487],[16.6985811,53.130951],[16.6795238,53.1308046],[16.6383227,53.119301],[16.6564632,53.1068406],[16.6086775,53.1061601],[16.5803137,53.1212797],[16.5690612,53.1220438],[16.5660259,53.1110158],[16.5534408,53.1145351],[16.5556173,53.1207732],[16.52074,53.1296523],[16.4987374,53.121826],[16.4997043,53.1142562],[16.4795925,53.1150687],[16.3905264,53.130953],[16.3983465,53.148381],[16.3915686,53.1577758],[16.4095179,53.1636347],[16.4053171,53.1585106],[16.4247716,53.1486454],[16.47243,53.1698302],[16.4995193,53.1632982],[16.5278998,53.199717],[16.5396482,53.201419],[16.5289694,53.2154505],[16.5564188,53.2212896],[16.5506679,53.2233426],[16.5593652,53.2331568],[16.5960683,53.2296979],[16.5964561,53.2176034],[16.6207379,53.2062722],[16.6249926,53.2160162],[16.6383243,53.2149773],[16.6250449,53.2264464],[16.6345301,53.2278163],[16.6324796,53.2337804],[16.6206659,53.2335967],[16.6293667,53.2493801],[16.644597,53.2555524],[16.6300382,53.2600077],[16.6608549,53.2668835],[16.6513597,53.2807798],[16.6618378,53.2785553],[16.673721,53.2922235],[16.714467,53.2991325],[16.7437555,53.2818753],[16.7524738,53.29837],[16.800752,53.2895558],[16.7906417,53.2846698],[16.7895326,53.2704564],[16.8001332,53.2515348],[16.8216592,53.2415509],[16.7929343,53.2207416],[16.7798238,53.1893904],[16.8569953,53.1779069],[16.8529009,53.1693568],[16.9139532,53.1789477],[16.9061187,53.1970104],[16.9458107,53.2219962],[16.9690487,53.2188947],[16.9960351,53.2343342],[17.0285643,53.2334247],[17.0453379,53.2240003],[17.0698268,53.2293406],[17.0823635,53.240614],[17.1435515,53.2385408],[17.1487283,53.2518274],[17.1419751,53.2620103],[17.1899359,53.2704241],[17.1856617,53.2875693],[17.1942802,53.297533],[17.2558095,53.3186282],[17.2491756,53.323685],[17.2607063,53.3269933],[17.2667656,53.3422886],[17.2607827,53.3638277],[17.3381565,53.3476822],[17.3421435,53.3371712],[17.3545764,53.3334594],[17.3550069,53.3209926],[17.4013897,53.2936422],[17.3953741,53.2884199],[17.4201211,53.2833478],[17.4387932,53.2675148],[17.4183091,53.2533691],[17.4279069,53.246423],[17.4126628,53.2414132],[17.417279,53.2309366],[17.4092078,53.2272528],[17.321557,53.2162727],[17.347128,53.1962625],[17.3352399,53.1794906],[17.3468279,53.1634471],[17.3352514,53.1554321],[17.3928022,53.1419569],[17.3870634,53.1337421],[17.3526623,53.1311863],[17.3609444,53.117441],[17.3571521,53.0872049],[17.3349816,53.077599],[17.2889179,53.0842265],[17.2282726,53.0792693],[17.2065936,53.0897692],[17.0673415,53.066509],[17.0259514,53.0669717],[17.0177375,53.0741265],[16.998411,53.0599622],[16.9510465,53.0534741],[16.8256264,53.0551124],[16.8078156,53.0530473]]]}}]}