{"type":"FeatureCollection","features":[{"type":"Feature","properties":{"slug":"pingdingshan","member_count":10,"matched_count":9,"unmatched":["R\u016dzh\u014du Sh\u00ec (CN-HA, type='County-level City')"],"source":"Overture Maps division_area (CC-BY 4.0)"},"geometry":{"type":"MultiPolygon","coordinates":[[[[118.1602866,32.021475],[118.2000427,32.0257678],[118.2058936,32.0179159],[118.2406202,32.0432761],[118.2505843,32.0332343],[118.2622588,32.0341045],[118.2692937,32.046181],[118.2943336,32.0391671],[118.2987881,32.0464079],[118.3203725,32.0476814],[118.3323029,32.03061],[118.3124968,32.0156901],[118.3047171,31.9942592],[118.2245461,31.9332419],[118.2129482,31.9643361],[118.1993577,31.9657729],[118.1917842,31.977559],[118.1816307,31.969821],[118.1811106,32.0091401],[118.159423,32.0143408],[118.1602866,32.021475]]],[[[113.4624794,33.7388661],[113.5032881,33.7643813],[113.5530076,33.7504433],[113.571481,33.7584807],[113.5679231,33.7438468],[113.5547612,33.7438852],[113.5834461,33.733481],[113.5763176,33.7222906],[113.580053,33.7128857],[113.5706278,33.7081469],[113.5783494,33.7049592],[113.5712406,33.6837514],[113.5813074,33.6562898],[113.5934128,33.6546217],[113.6237082,33.6243769],[113.617182,33.6172432],[113.6042967,33.619709],[113.5965806,33.6083302],[113.5799255,33.6081229],[113.5659788,33.59125],[113.545706,33.5881646],[113.5478008,33.5721902],[113.5570401,33.5691903],[113.5520504,33.5589101],[113.5434603,33.5614802],[113.5507603,33.5551702],[113.5352606,33.5411002],[113.5270603,33.5164403],[113.5306703,33.4998602],[113.5003606,33.5097401],[113.4960431,33.5017171],[113.4715104,33.5052002],[113.4761172,33.4930523],[113.4838354,33.4939069],[113.4655073,33.4648864],[113.4662755,33.4437461],[113.4493106,33.4305002],[113.4589606,33.4224701],[113.4469003,33.3998402],[113.4571204,33.3993702],[113.4236503,33.3768901],[113.4030901,33.3786801],[113.4047807,33.35732],[113.3877905,33.3345201],[113.3314504,33.3531403],[113.2997606,33.3435903],[113.2889404,33.3529902],[113.2695001,33.3496701],[113.2499906,33.3670902],[113.2258207,33.3667701],[113.2181201,33.37831],[113.2231705,33.3947702],[113.2124003,33.3957],[113.1741106,33.4362503],[113.1469707,33.4349001],[113.1305703,33.4252001],[113.1060403,33.4477903],[113.0670706,33.4498901],[113.0390307,33.4414603],[113.0318305,33.4658703],[113.0474703,33.4888802],[113.0402409,33.5355301],[113.0191605,33.5495605],[113.0140904,33.5638004],[112.9804245,33.5708537],[112.9677202,33.5861003],[112.9434906,33.59039],[112.9363307,33.6089704],[112.9044804,33.6080701],[112.8896803,33.6164003],[112.8828604,33.6092802],[112.8634916,33.61272],[112.8493005,33.6053801],[112.8381506,33.5786004],[112.8114104,33.5762202],[112.8058606,33.58243],[112.7634603,33.5613203],[112.7563903,33.5731101],[112.7403305,33.5730204],[112.7202905,33.5898201],[112.6817403,33.5877301],[112.6512904,33.6081701],[112.6270306,33.59657],[112.6087602,33.6004102],[112.5934205,33.6212302],[112.5827103,33.6210903],[112.5539605,33.5922302],[112.5233104,33.5889],[112.5149203,33.5967802],[112.5182204,33.6075302],[112.4981705,33.6209001],[112.4868305,33.6408602],[112.45183,33.6421403],[112.4128306,33.67875],[112.3803905,33.6644299],[112.3285302,33.66782],[112.3047796,33.6853986],[112.3033622,33.6986584],[112.2733108,33.71368],[112.2497207,33.7131403],[112.2416803,33.7300004],[112.2575702,33.74324],[112.2609705,33.7688299],[112.2508003,33.7765802],[112.2528401,33.78383],[112.2703503,33.79163],[112.2655606,33.8002802],[112.2769804,33.8105502],[112.2934703,33.8068965],[112.3086002,33.8241003],[112.3324205,33.82486],[112.3572604,33.8391402],[112.3834902,33.8298303],[112.3952105,33.8115102],[112.4134306,33.8103901],[112.425397,33.8145638],[112.4510703,33.8485803],[112.4737706,33.8589401],[112.5172704,33.8635002],[112.5357408,33.8977002],[112.4890005,33.9183301],[112.4888108,33.9302201],[112.5232703,33.9428502],[112.5234507,33.9587802],[112.5437689,33.9834274],[112.5424121,33.9911804],[112.5703056,33.9727947],[112.5710588,33.9904188],[112.6030208,33.9752003],[112.6359583,33.9797745],[112.6503005,33.9567202],[112.6699004,33.9664001],[112.6873404,33.9465803],[112.7107202,33.9431302],[112.7219702,33.95389],[112.7239204,33.9640801],[112.7162105,33.9705902],[112.7300005,33.9817902],[112.7206506,33.9863336],[112.7233303,33.9947803],[112.7459203,33.99007],[112.7550004,33.9995403],[112.7674404,33.99346],[112.7864706,34.0013502],[112.8246003,34.0003801],[112.8434107,34.0127299],[112.8467303,34.0038503],[112.8572001,34.0063302],[112.8604906,34.00016],[112.8827006,34.0049702],[112.8942504,34.0010102],[112.8921305,33.9938001],[112.9165603,33.9933901],[112.9242805,34.0010203],[112.9365905,33.9933101],[112.9489502,34.0081601],[112.9796005,34.0045302],[112.9838205,34.0125102],[112.9934804,34.0094102],[112.9939409,34.0119503],[112.9897407,34.0163703],[112.9894707,34.0197504],[113.0111209,34.0169105],[113.0059706,34.0393804],[113.0162562,34.0563335],[112.995381,34.0751404],[113.0197406,34.1045303],[113.0201605,34.12596],[113.0644701,34.1337601],[113.0588006,34.1393002],[113.0641506,34.1512102],[113.0946706,34.1808602],[113.1226502,34.1458002],[113.1229904,34.1256203],[113.1398305,34.1189],[113.1561561,34.0986435],[113.1727106,34.0963603],[113.2066415,34.1104542],[113.2236705,34.0903703],[113.2370905,34.10104],[113.2347605,34.1119403],[113.2484003,34.1146801],[113.2775607,34.0884503],[113.3239905,34.0682401],[113.3117605,34.0506404],[113.3260002,34.0291302],[113.3401203,34.0279001],[113.3368903,34.0384601],[113.3477904,34.0463305],[113.3605807,34.0386702],[113.3768206,34.0386603],[113.3788706,34.0463102],[113.3897803,34.0422104],[113.3862102,34.0257904],[113.4070003,34.0159101],[113.3918042,33.9958994],[113.4119059,33.9870097],[113.4147147,33.9614137],[113.4082312,33.9579723],[113.4105142,33.9440834],[113.3822814,33.9370592],[113.3561683,33.8851561],[113.3775207,33.842],[113.3739952,33.8129311],[113.3795804,33.7991701],[113.3863407,33.7992902],[113.3648436,33.7865124],[113.4156604,33.7640202],[113.4522294,33.7593958],[113.4570801,33.7512578],[113.4453101,33.7511202],[113.4436221,33.7384622],[113.4593911,33.7442684],[113.4624794,33.7388661]]]]}}]}