{"type": "FeatureCollection", "features": [{"type": "Feature", "properties": {"slug": "piracicaba", "members": 1, "country": "Brazil", "input_hash": "45e11cee224b50ea"}, "geometry": {"type": "Polygon", "coordinates": [[[-47.8014386, -22.6347086], [-47.8026325, -22.6668544], [-47.8208293, -22.6736267], [-47.8718051, -22.6478173], [-47.9051693, -22.6624374], [-47.917487, -22.6580208], [-47.9203343, -22.6682424], [-47.9042226, -22.6809622], [-47.912834, -22.6923994], [-47.9299309, -22.6773507], [-47.9295274, -22.65246], [-47.9326515, -22.6608133], [-47.9709266, -22.6669607], [-47.9858982, -22.654702], [-48.0065183, -22.6547203], [-48.001104, -22.6649168], [-48.010682, -22.6699605], [-48.0263612, -22.6527844], [-48.0605623, -22.6414059], [-48.0887296, -22.6514159], [-48.0980587, -22.690859], [-48.0717863, -22.7370489], [-48.0363035, -22.7195267], [-48.0150604, -22.7296998], [-48.0181489, -22.7477625], [-48.0279088, -22.7541187], [-48.034308, -22.8277104], [-48.0494401, -22.8262679], [-48.04052, -22.845808], [-48.0136784, -22.8521862], [-48.0029923, -22.8657175], [-48.0021328, -22.8800354], [-48.014988, -22.8837617], [-48.0097778, -22.895541], [-47.9931166, -22.8961076], [-47.9863431, -22.8688175], [-47.9697763, -22.90008], [-47.9592675, -22.8893022], [-47.9164704, -22.884325], [-47.8998641, -22.8772913], [-47.8987927, -22.8692573], [-47.865916, -22.8602867], [-47.8584694, -22.8691436], [-47.8696103, -22.8983648], [-47.8457229, -22.9016305], [-47.8304948, -22.8843298], [-47.8061743, -22.8770265], [-47.7888697, -22.8433976], [-47.7734189, -22.8484561], [-47.7463544, -22.8284697], [-47.7190044, -22.8463163], [-47.6996219, -22.8368891], [-47.6718091, -22.7996549], [-47.6294875, -22.7867262], [-47.6176966, -22.8062308], [-47.5999188, -22.8102313], [-47.5875592, -22.8011942], [-47.5979204, -22.7948615], [-47.546009, -22.7672113], [-47.522639, -22.7803065], [-47.5168669, -22.7660614], [-47.495346, -22.7683504], [-47.4921332, -22.7528307], [-47.5098713, -22.736], [-47.490322, -22.7239839], [-47.5020401, -22.6906323], [-47.521034, -22.6973378], [-47.5388055, -22.7168599], [-47.5498295, -22.7050194], [-47.5446595, -22.6929847], [-47.5518237, -22.6847222], [-47.527273, -22.6881174], [-47.5221473, -22.6818263], [-47.537354, -22.6471832], [-47.533223, -22.6230975], [-47.5491373, -22.6122526], [-47.548849, -22.5828397], [-47.5776994, -22.5643137], [-47.5850809, -22.5413164], [-47.607, -22.552], [-47.6344047, -22.546208], [-47.6546417, -22.5208872], [-47.661355, -22.5288248], [-47.6562806, -22.5357249], [-47.6724891, -22.5482228], [-47.6651291, -22.5549209], [-47.6769952, -22.5535238], [-47.6894192, -22.5649179], [-47.6838295, -22.5827404], [-47.7051252, -22.5931776], [-47.7046371, -22.6064543], [-47.7218199, -22.5994612], [-47.7233462, -22.5915021], [-47.7638528, -22.587067], [-47.7693057, -22.5746667], [-47.7770858, -22.581525], [-47.8018463, -22.5802689], [-47.7818504, -22.5972623], [-47.8014386, -22.6347086]]]}}]}