{"type":"FeatureCollection","features":[{"type":"Feature","properties":{"slug":"pirmasens","member_count":89,"matched_count":89,"unmatched":[],"source":"Overture Maps division_area (CC-BY 4.0)"},"geometry":{"type":"MultiPolygon","coordinates":[[[[7.491088,49.1695812],[7.4333795,49.1652785],[7.441874,49.1723122],[7.435559,49.1801419],[7.4457686,49.1843031],[7.3654443,49.1720895],[7.3689618,49.1616885],[7.3627273,49.158362],[7.3361822,49.1753202],[7.3383988,49.1843799],[7.295621,49.2053629],[7.3040304,49.2221488],[7.288695,49.2362895],[7.304175,49.2454995],[7.3063472,49.2561614],[7.3245345,49.2480502],[7.3263732,49.258464],[7.3451055,49.2717585],[7.3348149,49.2782158],[7.3557552,49.2836947],[7.3651676,49.2781858],[7.3871274,49.2937691],[7.3805543,49.3064837],[7.3953052,49.3151657],[7.3780763,49.320502],[7.402853,49.3376912],[7.4036669,49.3461213],[7.3911417,49.3531985],[7.402768,49.3559412],[7.3931444,49.3633983],[7.4019031,49.3681098],[7.4287483,49.3605067],[7.4349514,49.3517557],[7.4862561,49.3400341],[7.5026017,49.3560433],[7.522592,49.3355206],[7.5580079,49.3514619],[7.5722957,49.3722676],[7.6048691,49.377463],[7.6056975,49.3634999],[7.6286332,49.3589911],[7.6227136,49.3454507],[7.627607,49.3419101],[7.6686271,49.3422841],[7.6691273,49.3321142],[7.7619828,49.3450229],[7.7684229,49.3372068],[7.7669152,49.3157722],[7.7986097,49.3069523],[7.8527189,49.3340783],[7.87341,49.3035338],[7.8725086,49.2840771],[7.8562866,49.2722693],[7.8322212,49.2703484],[7.8252036,49.2486485],[7.8488027,49.2574449],[7.8775667,49.2497318],[7.8826402,49.2445429],[7.8657894,49.2342785],[7.9009654,49.2327568],[7.9094593,49.2192023],[7.9002566,49.2109252],[7.9179051,49.2030821],[7.8883311,49.1907879],[7.9043871,49.1892157],[7.9166484,49.177836],[7.8985974,49.1478834],[7.8873561,49.1422613],[7.8625031,49.156058],[7.8457277,49.1331388],[7.863068,49.1158456],[7.9129211,49.1141145],[7.9099248,49.0926655],[7.8874442,49.0916265],[7.8936492,49.0754414],[7.8821219,49.0550557],[7.8926494,49.0486364],[7.9030339,49.0563536],[7.91167,49.0466032],[7.902833,49.0446787],[7.8891051,49.0491953],[7.8666833,49.0329707],[7.7944344,49.0657512],[7.7572879,49.045315],[7.7323575,49.0440063],[7.7318631,49.0556184],[7.7216318,49.0510577],[7.6959533,49.0577848],[7.6976492,49.0497532],[7.6748259,49.0449367],[7.6315603,49.0549149],[7.6295217,49.0735692],[7.6004828,49.0833],[7.5632691,49.0802793],[7.528757,49.0970515],[7.5155227,49.1211773],[7.4894474,49.1364999],[7.5063809,49.1548069],[7.4959804,49.1551468],[7.491088,49.1695812]]],[[[6.944017,49.37762],[6.9947065,49.3840741],[7.0000185,49.3590194],[6.9645929,49.3564798],[6.9561476,49.3737675],[6.944017,49.37762]]],[[[12.1133408,47.8218425],[12.1132121,47.8246951],[12.1178266,47.823006],[12.1133408,47.8218425]]],[[[12.3494525,47.91243],[12.3505631,47.9129692],[12.3499045,47.9123269],[12.3494525,47.91243]]]]}}]}