{"type": "FeatureCollection", "features": [{"type": "Feature", "properties": {"slug": "piteti", "members": 2, "country": "Romania", "input_hash": "851b74e407f11ae2"}, "geometry": {"type": "Polygon", "coordinates": [[[24.9715645, 44.8258288], [24.9139218, 44.8191803], [24.8937941, 44.8372563], [24.8622243, 44.822512], [24.8341511, 44.8539102], [24.7853701, 44.8522357], [24.780386, 44.8582477], [24.8286789, 44.8828218], [24.8249214, 44.8885055], [24.8506307, 44.8958233], [24.8549895, 44.8817293], [24.892477859599374, 44.87593782288498], [24.8952703, 44.8990004], [24.9221534, 44.9028033], [24.9353896, 44.9132983], [24.943686, 44.9099723], [24.9616846, 44.932315], [24.9978353, 44.9249574], [24.9962644, 44.9131499], [24.9651228, 44.8922621], [24.9754885, 44.8758374], [24.9644741, 44.8658357], [24.9720505, 44.8609122], [24.9644535, 44.8455261], [24.9768699, 44.8353974], [24.9715645, 44.8258288]], [[24.8870399, 44.8685998], [24.887051123245147, 44.868453564360735], [24.887693258623923, 44.86933916241979], [24.8870399, 44.8685998]], [[24.8875414, 44.8620654], [24.8880551, 44.867614], [24.887087730502262, 44.86797658238489], [24.8875414, 44.8620654]]]}}]}