{"type":"FeatureCollection","features":[{"type":"Feature","properties":{"slug":"platteville-wi","member_count":53,"matched_count":1,"unmatched":["Platteville city (US-WI, type='City')","Lancaster city (US-WI, type='City')","Boscobel city (US-WI, type='City')","Fennimore city (US-WI, type='City')","Jamestown town (US-WI, type='Town')","Cuba City city (US-WI, type='City')","Platteville town (US-WI, type='Town')","Muscoda village (US-WI, type='Village')","Hazel Green village (US-WI, type='Village')","Dickeyville village (US-WI, type='Village')","Hazel Green town (US-WI, type='Town')","South Lancaster town (US-WI, type='Town')","Potosi town (US-WI, type='Town')","Smelser town (US-WI, type='Town')","Lima town (US-WI, type='Town')","Muscoda town (US-WI, type='Town')","Cassville village (US-WI, type='Village')","Bloomington village (US-WI, type='Village')","Beetown town (US-WI, type='Town')","Paris town (US-WI, type='Town')","Montfort village (US-WI, type='Village')","Potosi village (US-WI, type='Village')","Marion town (US-WI, type='Town')","Livingston village (US-WI, type='Village')","Fennimore town (US-WI, type='Town')","Hickory Grove town (US-WI, type='Town')","Ellenboro town (US-WI, type='Town')","North Lancaster town (US-WI, type='Town')","Waterloo town (US-WI, type='Town')","Mount Ida town (US-WI, type='Town')","Liberty town (US-WI, type='Town')","Harrison town (US-WI, type='Town')","Blue River village (US-WI, type='Village')","Cassville town (US-WI, type='Town')","Clifton town (US-WI, type='Town')","Wingville town (US-WI, type='Town')","Watterstown town (US-WI, type='Town')","Boscobel town (US-WI, type='Town')","Glen Haven town (US-WI, type='Town')","Patch Grove town (US-WI, type='Town')","Bagley village (US-WI, type='Village')","Tennyson village (US-WI, type='Village')","Wyalusing town (US-WI, type='Town')","Bloomington town (US-WI, type='Town')","Little Grant town (US-WI, type='Town')","Mount Hope town (US-WI, type='Town')","Castle Rock town (US-WI, type='Town')","Mount Hope village (US-WI, type='Village')","Patch Grove village (US-WI, type='Village')","Woodman town (US-WI, type='Town')","Millville town (US-WI, type='Town')","Woodman village (US-WI, type='Village')"],"source":"Overture Maps division_area (CC-BY 4.0)"},"geometry":{"type":"Polygon","coordinates":[[[-90.4267314,42.5071396],[-90.4295457,43.2009967],[-90.5442407,43.211629],[-90.6568379,43.1717928],[-90.6903355,43.1727533],[-90.7429608,43.1234077],[-90.8002277,43.1083495],[-90.8473216,43.0768769],[-90.9384027,43.0642361],[-90.9667472,43.0347046],[-91.0600305,42.9933515],[-91.1362427,42.9992709],[-91.1567962,42.9883561],[-91.156562,42.978226],[-91.14543,42.958211],[-91.144706,42.905964],[-91.100565,42.883078],[-91.0929781,42.8435361],[-91.0777927,42.8350803],[-91.069549,42.769628],[-91.060261,42.761847],[-91.065783,42.753387],[-91.053733,42.738238],[-91.035418,42.73734],[-91.026786,42.724228],[-90.949213,42.685573],[-90.921155,42.685406],[-90.709204,42.636078],[-90.6851971,42.589062],[-90.6435783,42.5420961],[-90.636727,42.518702],[-90.6409949,42.5079428],[-90.4267314,42.5071396]]]}}]}