{"type": "FeatureCollection", "features": [{"type": "Feature", "properties": {"slug": "plav", "members": 2, "country": "Montenegro", "input_hash": "08f62b6c012eb054"}, "geometry": {"type": "Polygon", "coordinates": [[[19.9063193, 42.5072875], [19.8987037, 42.4849281], [19.8779784, 42.4958342], [19.8677874, 42.4815538], [19.8362857, 42.4787013], [19.8314213, 42.4658321], [19.8071075, 42.4735096], [19.7609309, 42.5092021], [19.7433901, 42.5451387], [19.753986, 42.5642669], [19.7481417, 42.5752096], [19.7515353, 42.5814472], [19.7749374, 42.5818649], [19.779168, 42.5962509], [19.8495492, 42.5923934], [19.8260316, 42.6299154], [19.8356446, 42.6438067], [19.8507766, 42.6503788], [19.8771867, 42.6819288], [19.9351996, 42.7024949], [20.0337369, 42.7114392], [20.0332304, 42.6974337], [20.0833932, 42.680036], [20.0885733, 42.6687164], [20.1119442, 42.6554024], [20.0757302, 42.6209103], [20.0728171, 42.6068975], [20.0882264, 42.5777911], [20.0788765, 42.5560902], [20.0565081, 42.5591476], [20.049386, 42.5500633], [20.0167815, 42.5431497], [20.0019174, 42.5090012], [19.9532703, 42.5106539], [19.9401473, 42.5178774], [19.9063193, 42.5072875]]]}}]}