{"type":"FeatureCollection","features":[{"type":"Feature","properties":{"slug":"playa-del-carmen","member_count":2,"matched_count":1,"unmatched":["Solidaridad\u00a0(Playa del Carmen) (MX-ROO, type='Municipality')"],"source":"Overture Maps division_area (CC-BY 4.0)"},"geometry":{"type":"Polygon","coordinates":[[[-87.8463418,20.4413302],[-87.9950654,20.4473164],[-87.9735461,20.2095518],[-87.6279703,20.2064984],[-87.6279544,20.1346053],[-87.4999999,20.1345428],[-87.4999988,19.8072414],[-87.4869713,19.8009982],[-87.4861398,19.7872288],[-87.475301,19.7841824],[-87.4791098,19.7787939],[-87.4714306,19.7790614],[-87.4742174,19.8169038],[-87.4484119,19.8391937],[-87.4298269,19.8860569],[-87.4359933,19.9270461],[-87.4525988,19.9335038],[-87.4652267,19.9591102],[-87.464337,19.9944126],[-87.4727135,19.993216],[-87.4784848,20.0063764],[-87.4731187,20.1013925],[-87.4232666,20.2262638],[-87.3912109,20.265759],[-87.381906,20.2673416],[-87.3789432,20.2835724],[-87.3676112,20.2858539],[-87.3755726,20.2887129],[-87.3601752,20.3004923],[-87.3585206,20.3248221],[-87.3524195,20.3229423],[-87.3230228,20.3863514],[-87.3035959,20.4105715],[-87.32957,20.4122743],[-87.3573215,20.4484815],[-87.3636912,20.4383546],[-87.381599,20.4467113],[-87.4081387,20.4045082],[-87.364785,20.3814923],[-87.377835,20.3568648],[-87.4483977,20.3940842],[-87.5253028,20.3741421],[-87.5810223,20.4419518],[-87.5894601,20.4691844],[-87.6356309,20.5158217],[-87.7704773,20.5160898],[-87.8463418,20.4413302]]]}}]}