{"type": "FeatureCollection", "features": [{"type": "Feature", "properties": {"slug": "pleiku", "members": 3, "country": "Vietnam", "input_hash": "26504f9c887c18b3"}, "geometry": {"type": "MultiPolygon", "coordinates": [[[[108.1260701, 13.9955188], [108.1349205, 14.0222876], [108.1603496, 14.0221973], [108.1582062, 13.9934844], [108.1778796, 13.9525961], [108.1525876, 13.9025713], [108.1300182, 13.9131383], [108.1259666, 13.9048286], [108.1153506, 13.9091796], [108.1242401, 13.921513], [108.1019617, 13.9437446], [108.0964858, 13.9925955], [108.1260701, 13.9955188]]], [[[108.0633816, 13.9968675], [108.037295, 13.9902987], [108.0315337, 13.9715857], [108.0208925, 13.9656066], [108.0096554, 13.9667889], [108.0077471, 13.9740772], [108.0031862, 13.9662753], [107.995192, 13.9843959], [108.0090006, 14.0026011], [108.0277954, 14.0015824], [108.0343933, 14.0130101], [108.0278206, 14.0220139], [108.0467301, 14.0324032], [108.0536719, 14.0330608], [108.0633816, 13.9968675]]], [[[107.7353918, 14.0715251], [107.7746882, 14.0844087], [107.7938496, 14.074753], [107.8640342, 14.0789121], [107.8711441, 14.0720302], [107.864798, 14.0589321], [107.8803918, 14.0438759], [107.873016, 14.0319489], [107.8596831, 14.0402445], [107.8561939, 14.0078267], [107.8447021, 13.9879568], [107.891503, 13.9856995], [107.8962654, 13.9728074], [107.8552453, 13.9509793], [107.8560092, 13.9414224], [107.8354572, 13.9345207], [107.7747134, 13.9523167], [107.7566293, 13.942472], [107.7404899, 13.9654825], [107.7298068, 13.957929], [107.6911791, 13.9724942], [107.7105811, 13.9936819], [107.6983758, 14.0326486], [107.7261301, 14.049237], [107.7353918, 14.0715251]]]]}}]}