{"type": "FeatureCollection", "features": [{"type": "Feature", "properties": {"slug": "pljevlja", "members": 1, "country": "Montenegro", "input_hash": "19af4c4938f241f3"}, "geometry": {"type": "Polygon", "coordinates": [[[19.5005756, 43.1892952], [19.5154829, 43.2199533], [19.5359805, 43.2203412], [19.5512776, 43.2452764], [19.5272451, 43.2793382], [19.5355638, 43.309096], [19.5213727, 43.3209413], [19.4852447, 43.3275872], [19.4611286, 43.3448123], [19.4485469, 43.3881075], [19.4103594, 43.3930918], [19.3823945, 43.4126885], [19.359365, 43.4115313], [19.3342745, 43.4366032], [19.2881659, 43.4457972], [19.2237215, 43.4812093], [19.2255931, 43.5285182], [19.1526461, 43.5367765], [19.1247589, 43.5203025], [19.1031796, 43.5220442], [19.0970575, 43.5133377], [19.0868336, 43.5167017], [19.0513351, 43.5019052], [19.0421757, 43.5033009], [19.0435595, 43.5244162], [19.0360591, 43.5328884], [18.9966551, 43.5579716], [18.981571, 43.5439723], [18.9856617, 43.5311963], [18.9800598, 43.5273074], [18.9124408, 43.5032805], [18.9214857, 43.4902665], [18.9499093, 43.5036742], [18.9617474, 43.4700639], [18.9563506, 43.4522656], [18.9778838, 43.4560191], [18.9997751, 43.4389496], [19.0109486, 43.445576], [19.0205633, 43.4085657], [19.0427056, 43.3964977], [19.0352609, 43.3786116], [19.0399165, 43.365445], [19.0615709, 43.3521418], [19.0833915, 43.3191596], [19.080249, 43.2997799], [19.0362962, 43.2901249], [19.0197437, 43.2596131], [19.0087836, 43.2506054], [18.9994628, 43.253657], [18.9996477, 43.2375532], [19.0309885, 43.2251415], [19.0375767, 43.2092976], [19.1058112, 43.2066908], [19.1580578, 43.2165547], [19.286367, 43.1422074], [19.2946193, 43.1218091], [19.3169802, 43.1214205], [19.3475935, 43.1035421], [19.3661437, 43.0733155], [19.3869075, 43.0665091], [19.4199165, 43.0715653], [19.4105994, 43.0799266], [19.4247081, 43.0960625], [19.4156573, 43.1057809], [19.4414788, 43.1083074], [19.4603792, 43.1234644], [19.4609116, 43.1331784], [19.5040363, 43.1696893], [19.5005756, 43.1892952]]]}}]}