{"type": "FeatureCollection", "features": [{"type": "Feature", "properties": {"slug": "ploieti", "members": 1, "country": "Romania", "input_hash": "1249ed8dafd31408"}, "geometry": {"type": "Polygon", "coordinates": [[[25.9745934, 44.9089187], [25.9891379, 44.8961443], [26.0178491, 44.9000048], [26.0132714, 44.9114231], [26.0312112, 44.9020373], [26.0672827, 44.9088012], [26.0785868, 44.9168629], [26.0613404, 44.9257624], [26.0644278, 44.930902], [26.1015079, 44.9428205], [26.0859883, 44.9593428], [26.0612437, 44.9644229], [26.0330941, 44.9540187], [26.0234981, 44.9684177], [25.9817282, 44.9599334], [25.9762931, 44.93948], [25.9184444, 44.9378198], [25.9229386, 44.9241339], [25.9684411, 44.9316196], [25.9875636, 44.9161381], [25.9745934, 44.9089187]]]}}]}