{"type": "FeatureCollection", "features": [{"type": "Feature", "properties": {"slug": "plovdiv", "members": 18, "country": "Bulgaria", "input_hash": "092eb51c2c7bad5c"}, "geometry": {"type": "Polygon", "coordinates": [[[24.512161, 41.921586], [24.452663, 41.921426], [24.439825, 41.938268], [24.453846, 41.943791], [24.460005, 41.955775], [24.455348, 41.982772], [24.478605, 41.997536], [24.46066, 42.005035], [24.454486, 42.028357], [24.459989, 42.030369], [24.439381, 42.052216], [24.444037, 42.08217], [24.466097, 42.092379], [24.431441, 42.124264], [24.449254, 42.133341], [24.439085, 42.135279], [24.454522, 42.13379], [24.443158, 42.136317], [24.470911, 42.146165], [24.491887, 42.145169], [24.499402, 42.134333], [24.512272, 42.146229], [24.526212, 42.147734], [24.537003, 42.150768], [24.542058, 42.153996], [24.535824, 42.150784], [24.535752, 42.161368], [24.518607, 42.163785], [24.517929, 42.180947], [24.499136, 42.18072], [24.498795, 42.191901], [24.491528, 42.189764], [24.496628763230568, 42.227107412871064], [24.48908, 42.264309], [24.473101, 42.266266], [24.470975, 42.281186], [24.452168, 42.292988], [24.461073, 42.302914], [24.469978, 42.29855], [24.479799, 42.30543], [24.475221, 42.309829], [24.484764, 42.323198], [24.43685, 42.362876], [24.448818, 42.369088], [24.43943, 42.371109], [24.437001, 42.381231], [24.44575, 42.391024], [24.428229, 42.397652], [24.430616, 42.417185], [24.444148, 42.423705], [24.427304, 42.43703], [24.433641, 42.453119], [24.388134, 42.467272], [24.380917, 42.482902], [24.381199, 42.495082], [24.409603, 42.510486], [24.410943, 42.521441], [24.421718, 42.528353], [24.414872, 42.549201], [24.428301, 42.560273], [24.46103, 42.557599], [24.466439, 42.563271], [24.459246, 42.574061], [24.471106, 42.577333], [24.472509, 42.587763], [24.48957, 42.601194], [24.465785, 42.606941], [24.437032, 42.637215], [24.401802, 42.645748], [24.356874, 42.677438], [24.369998, 42.695953], [24.367946, 42.712041], [24.3864, 42.73021], [24.3859203, 42.7499984], [24.463726, 42.74997], [24.484994, 42.765734], [24.480985, 42.780728], [24.494499, 42.793717], [24.530511, 42.786995], [24.574698, 42.790715], [24.621985, 42.778478], [24.640724, 42.769469], [24.647149, 42.752161], [24.674893, 42.725347], [24.75001, 42.708783], [24.780719677273805, 42.713005567269484], [24.790047, 42.724606], [24.835272, 42.72815], [24.849181, 42.719092], [24.8813506, 42.7247465], [24.9143477, 42.7162736], [24.9271413, 42.7302853], [24.9464495, 42.7238746], [25.0037021, 42.7400398], [25.020803, 42.702556], [25.015241, 42.678989], [25.023557, 42.658898], [25.016878, 42.639456], [25.020739, 42.622548], [25.004453, 42.609252], [25.013939, 42.597155], [25.000566, 42.588224], [25.018831, 42.564401], [25.022416, 42.545305], [25.010751, 42.542103], [25.028353, 42.536154], [25.038387, 42.518793], [25.066777, 42.509697], [25.076932, 42.494153], [25.154424, 42.505703], [25.191291, 42.491788], [25.178254, 42.482866], [25.180444, 42.468592], [25.162558, 42.465561], [25.153697, 42.454131], [25.164616, 42.439354], [25.199507, 42.422342], [25.194336, 42.391174], [25.180524, 42.392386], [25.165498, 42.40886], [25.143908, 42.411473], [25.132069, 42.42391], [25.112294, 42.396383], [25.123965, 42.357534], [25.11275, 42.343667], [25.122438, 42.336205], [25.130342, 42.300261], [25.126073, 42.28614], [25.155218, 42.2921185], [25.15578, 42.280527], [25.176146, 42.279376], [25.173744, 42.271251], [25.083016, 42.256018], [25.081129, 42.183939], [25.124735, 42.159254], [25.1490652, 42.157918], [25.1594685, 42.1383738], [25.1660638, 42.1423365], [25.1560198, 42.1483344], [25.1671516, 42.1521396], [25.1589358, 42.1617764], [25.1599322, 42.1703695], [25.1699802, 42.1697221], [25.1664802, 42.1802877], [25.1754603, 42.1801173], [25.175083, 42.1695279], [25.1963679, 42.1741783], [25.1972743, 42.1659151], [25.2160797, 42.1594401], [25.2598192, 42.1844259], [25.2761835, 42.1529608], [25.3156026, 42.1483303], [25.3312899, 42.1144102], [25.3480504, 42.1143799], [25.3407681, 42.0781769], [25.3207711, 42.0719046], [25.2951593, 42.0442996], [25.311932, 42.0111102], [25.3074641, 41.9946685], [25.317243, 41.979252], [25.309973, 41.97508], [25.317608, 41.967982], [25.305603, 41.962605], [25.30278, 41.948636], [25.285227, 41.944231], [25.262743, 41.923827], [25.262986, 41.905889], [25.251105, 41.896765], [25.188879, 41.899671], [25.172544, 41.876216], [25.143088, 41.869725], [25.142889, 41.834694], [25.108175, 41.818377], [25.118689, 41.799608], [25.081548, 41.78797], [25.070391, 41.804327], [25.03527, 41.798966], [25.028524, 41.803971], [25.03284, 41.819578], [25.002492, 41.83926], [24.961076, 41.805462], [24.962334, 41.785184], [24.953487, 41.766235], [24.964155, 41.750734], [24.957657, 41.743401], [24.96836, 41.744079], [24.964388, 41.734031], [24.944116, 41.744698], [24.941373, 41.739098], [24.932502, 41.745741], [24.914477, 41.741298], [24.907159, 41.712318], [24.856749, 41.70583], [24.843056, 41.683014], [24.836338, 41.693501], [24.827991, 41.693011], [24.832594, 41.703564], [24.800481, 41.711329], [24.785907, 41.725872], [24.807323, 41.763557], [24.769437, 41.764643], [24.766697, 41.778419], [24.748992, 41.781358], [24.736111, 41.799853], [24.757309, 41.804066], [24.766488, 41.824349], [24.779068, 41.823406], [24.771239, 41.82813], [24.783444, 41.840405], [24.760194, 41.86606], [24.764017, 41.87349], [24.75287, 41.887635], [24.734651, 41.893269], [24.721025, 41.887602], [24.692773, 41.903603], [24.655022, 41.907372], [24.628479, 41.903719], [24.618392, 41.893669], [24.549321, 41.871657], [24.548102, 41.879977], [24.518692, 41.894368], [24.512161, 41.921586]], [[24.49484510633253, 42.59786504536534], [24.493296, 42.599896], [24.48957, 42.601194], [24.49484510633253, 42.59786504536534]], [[24.717592, 42.711557], [24.71784686146235, 42.71134928974524], [24.717690283299522, 42.711663861382554], [24.717592, 42.711557]], [[24.699417, 42.680438], [24.69951045899434, 42.68033863814686], [24.706074, 42.686287], [24.699417, 42.680438]], [[24.79568188269586, 42.67403799390612], [24.795667, 42.674059], [24.788594, 42.674769], [24.79568188269586, 42.67403799390612]], [[24.797101, 42.671355], [24.796745227082557, 42.67253714270092], [24.795876879435294, 42.673762766900595], [24.797101, 42.671355]], [[24.794565252333182, 42.67978064301192], [24.794405, 42.678308], [24.796395469932108, 42.67369929654181], [24.794565252333182, 42.67978064301192]], [[24.788664, 42.699389], [24.790399, 42.690389], [24.793643881083916, 42.68284212477107], [24.788664, 42.699389]], [[24.784048289481227, 42.70149826788118], [24.784387, 42.701063], [24.788664, 42.699389], [24.784048289481227, 42.70149826788118]], [[24.781481428709704, 42.70749510585294], [24.781935, 42.704214], [24.783755742762896, 42.70187421188993], [24.781481428709704, 42.70749510585294]], [[25.001641, 42.54263], [25.001462928152613, 42.54253767886527], [25.007529, 42.540618], [25.001641, 42.54263]], [[24.999176117448098, 42.5413520846107], [24.999858, 42.541314], [25.00056955617497, 42.54207451123981], [24.999176117448098, 42.5413520846107]], [[24.9925975161681, 42.54217659786923], [24.994988, 42.541586], [24.99774817913434, 42.54143183804424], [24.9925975161681, 42.54217659786923]], [[24.980199, 42.5479], [24.984096, 42.544277], [24.986192675084887, 42.543758991126204], [24.980199, 42.5479]], [[24.975296, 42.544978], [24.973402, 42.541678], [24.97666542675533, 42.545794125837055], [24.975296, 42.544978]], [[24.972526, 42.537708], [24.975705, 42.533497], [24.972558547870683, 42.53785550576099], [24.972526, 42.537708]], [[24.977746, 42.519686], [24.982404, 42.517588], [24.977899418529322, 42.52005779333064], [24.977746, 42.519686]], [[24.986419097476244, 42.47552220404361], [24.989236, 42.476753], [24.989193563769987, 42.47680784833363], [24.986419097476244, 42.47552220404361]], [[24.972671, 42.477302], [24.984281, 42.474588], [24.984336620247515, 42.47461230228776], [24.972671, 42.477302]], [[24.966021, 42.477914], [24.949828816131287, 42.480470260986934], [24.95391, 42.479076], [24.966021, 42.477914]], [[24.931653793165648, 42.48730252019688], [24.932298765979684, 42.48563515019987], [24.933523588407116, 42.486040640472446], [24.931653793165648, 42.48730252019688]], [[24.925163, 42.491683], [24.916309423799582, 42.492395923371774], [24.91992, 42.491164], [24.925163, 42.491683]], [[24.890796746300342, 42.490161053334255], [24.890948, 42.49008], [24.891259693518464, 42.49017588434385], [24.890796746300342, 42.490161053334255]], [[24.847014, 42.506179], [24.846816518031115, 42.50603095491127], [24.849416, 42.506036], [24.847014, 42.506179]], [[24.839095937126963, 42.5018065138036], [24.845999, 42.510016], [24.838956, 42.502237], [24.839095937126963, 42.5018065138036]], [[24.83683155220492, 42.49592193807807], [24.838133, 42.496626], [24.838429912419276, 42.498223361700425], [24.83683155220492, 42.49592193807807]], [[24.824711, 42.497868], [24.834961, 42.49491], [24.835302138969503, 42.49509455059005], [24.824711, 42.497868]], [[24.78038, 42.508748], [24.780382550438926, 42.50872542320096], [24.79422, 42.504537], [24.78038, 42.508748]], [[24.747124135258932, 42.44487745426217], [24.747331, 42.444919], [24.747965, 42.449273], [24.747124135258932, 42.44487745426217]], [[24.731492, 42.403742], [24.737059, 42.407937], [24.73702216547501, 42.40799961580274], [24.731492, 42.403742]], [[24.699903, 42.415804], [24.69987419068196, 42.41572751298572], [24.710516, 42.417038], [24.699903, 42.415804]], [[24.644378, 42.379799], [24.63668637744049, 42.38566113369193], [24.6442698830215, 42.379073052595245], [24.652774, 42.387807], [24.644378, 42.379799]], [[24.64843, 42.375459], [24.654985, 42.373744], [24.64667416713955, 42.37698435910382], [24.64843, 42.375459]], [[24.720821, 42.301886], [24.748325, 42.29336], [24.720790678780297, 42.30191494114822], [24.720821, 42.301886]], [[24.591003, 42.226646], [24.599844, 42.21603], [24.583788, 42.235634], [24.591003, 42.226646]], [[24.655416, 42.144227], [24.649073, 42.151746], [24.64810979269998, 42.15195140140369], [24.655416, 42.144227]], [[24.67817763291728, 42.151014683767094], [24.672192, 42.15046], [24.671459907659237, 42.15009335353525], [24.67817763291728, 42.151014683767094]], [[24.755517292203695, 42.19816957330739], [24.7554486, 42.198216], [24.7360266, 42.195201], [24.755517292203695, 42.19816957330739]], [[24.765027973135652, 42.19048196391753], [24.7634206, 42.192828], [24.757829356437803, 42.196606928789905], [24.765027973135652, 42.19048196391753]], [[24.824029, 42.150819], [24.829825574416603, 42.15156809255163], [24.82005726418819, 42.15198607457153], [24.824029, 42.150819]], [[24.862345, 42.150893], [24.862588562196557, 42.150975969538024], [24.86176930492519, 42.15092170548602], [24.862345, 42.150893]], [[24.880589, 42.153724], [24.871898, 42.15396], [24.87140610416956, 42.15379104222149], [24.880589, 42.153724]], [[24.890074078431372, 42.156688087009805], [24.893719, 42.15676], [24.913564410580197, 42.15747789099849], [24.890074078431372, 42.156688087009805]], [[24.871281, 42.142944], [24.895835, 42.155858], [24.895703896472604, 42.15591388628626], [24.871281, 42.142944]], [[24.835591, 42.07264], [24.835351108764083, 42.07209793171828], [24.8356838033481, 42.07246964487391], [24.835591, 42.07264]], [[24.794783, 42.079779], [24.79165, 42.078703], [24.795837447414883, 42.079264594405814], [24.794783, 42.079779]], [[24.680914, 41.940674], [24.681478, 41.943635], [24.679566, 41.951594], [24.680914, 41.940674]], [[24.663381, 41.915468], [24.671803, 41.922544], [24.67179547673407, 41.92259599412677], [24.663381, 41.915468]], [[24.50031063874184, 42.07771343092831], [24.499956, 42.076503], [24.499436, 42.072912], [24.50031063874184, 42.07771343092831]], [[24.501798, 42.08279], [24.501622047745617, 42.0821894506931], [24.515756, 42.095315], [24.501798, 42.08279]], [[24.53284, 42.104945], [24.527974, 42.098532], [24.534864241778806, 42.106218544284786], [24.53284, 42.104945]], [[24.542879, 42.111261], [24.541910794344002, 42.110651856965504], [24.542878812598616, 42.11123353717887], [24.542879, 42.111261]], [[24.558694, 42.118604], [24.558616510121777, 42.11853670953455], [24.55888030085168, 42.11852906154779], [24.558694, 42.118604]], [[24.561011, 42.117672], [24.56052903885077, 42.117865866116134], [24.560186, 42.115168], [24.561011, 42.117672]], [[24.56737451453344, 42.11122367741816], [24.567346384017554, 42.11121817193661], [24.567346458020733, 42.11121793402947], [24.56737451453344, 42.11122367741816]], [[24.573246, 42.118107], [24.578697413628284, 42.1135415638659], [24.579105, 42.113625], [24.573246, 42.118107]], [[24.697305, 42.090009], [24.688905096758088, 42.091600532458], [24.691533, 42.090231], [24.697305, 42.090009]], [[24.75512435970165, 42.10466493762749], [24.759871, 42.106375], [24.75498, 42.10565], [24.75512435970165, 42.10466493762749]], [[24.795252, 42.114538], [24.781992, 42.107603], [24.786611, 42.109491], [24.795252, 42.114538]], [[24.491113622605038, 41.93986913357143], [24.491224, 41.939323], [24.495846, 41.937332], [24.491113622605038, 41.93986913357143]], [[24.495863, 42.030472], [24.498262, 42.032165], [24.494409, 42.026488], [24.495863, 42.030472]], [[24.49501653785575, 42.01967181128857], [24.49507, 42.019072], [24.498595, 42.014404], [24.49501653785575, 42.01967181128857]], [[24.501032, 42.064272], [24.498789297581112, 42.06164063663732], [24.501798577773968, 42.0645425425757], [24.501032, 42.064272]], [[24.493577476827905, 42.055525605919314], [24.493369, 42.055281], [24.493436, 42.053001], [24.493577476827905, 42.055525605919314]], [[24.568102, 42.108789], [24.570454, 42.107629], [24.567430405965144, 42.11094805621397], [24.568102, 42.108789]], [[24.562507, 42.103314], [24.568005, 42.102059], [24.568040662893505, 42.1020878187467], [24.562507, 42.103314]], [[24.56926563526704, 42.07625200483665], [24.569065, 42.076122], [24.569306809315737, 42.07586195144404], [24.56926563526704, 42.07625200483665]], [[24.575137, 42.069592], [24.573932, 42.068091], [24.573968635969884, 42.068075107038865], [24.575137, 42.069592]], [[24.578268, 42.06607], [24.578162548239906, 42.06611867756961], [24.580159, 42.061977], [24.578268, 42.06607]], [[24.589726, 42.057036], [24.584839, 42.058031], [24.59008687248859, 42.05635056231587], [24.589726, 42.057036]], [[24.59071, 42.055167], [24.59032938730984, 42.0558899320304], [24.581426, 42.048333], [24.59071, 42.055167]], [[24.539957716629285, 42.03600962950308], [24.539994, 42.036014], [24.538259, 42.039053], [24.539957716629285, 42.03600962950308]], [[24.513686, 42.071642], [24.511958, 42.075707], [24.511930418716986, 42.07570383553795], [24.513686, 42.071642]], [[24.50708941635598, 42.07514841655161], [24.506711, 42.075105], [24.5059460568129, 42.07063595755491], [24.50708941635598, 42.07514841655161]], [[24.505771740443187, 42.06961754564112], [24.505728, 42.069362], [24.507345, 42.0665], [24.505771740443187, 42.06961754564112]], [[24.636169607574224, 42.38605498739713], [24.636062, 42.386137], [24.631203, 42.386054], [24.636169607574224, 42.38605498739713]], [[24.629324, 42.396824], [24.630705, 42.397075], [24.630587780141067, 42.397626259955786], [24.629324, 42.396824]], [[24.633788087742214, 42.39965784642494], [24.636891, 42.400627], [24.635922966263184, 42.40101308812575], [24.633788087742214, 42.39965784642494]], [[24.632769198094707, 42.4022709290407], [24.632418, 42.402411], [24.632401357833654, 42.4024026927163], [24.632769198094707, 42.4022709290407]], [[24.625628263746012, 42.40077606453384], [24.625603, 42.400786], [24.624272, 42.398205], [24.625628263746012, 42.40077606453384]], [[24.620933, 42.400172], [24.62091432863702, 42.400124804993574], [24.624272, 42.398205], [24.620933, 42.400172]], [[24.620890706255185, 42.4000650954553], [24.619921, 42.397614], [24.620756493028544, 42.39585776563533], [24.620890706255185, 42.4000650954553]], [[24.62245094594211, 42.39229596878669], [24.622724, 42.391722], [24.62277471653431, 42.39175104510741], [24.62245094594211, 42.39229596878669]], [[24.557568, 42.393444], [24.559881, 42.394142], [24.553683, 42.394891], [24.557568, 42.393444]], [[24.848462, 42.518877], [24.848272196936737, 42.51894605303533], [24.84841903461006, 42.518820448769546], [24.848462, 42.518877]], [[24.844217032094516, 42.520421379282844], [24.839768, 42.52204], [24.842739, 42.520247], [24.844217032094516, 42.520421379282844]], [[24.731396101739836, 42.546189848340674], [24.730884, 42.549656], [24.731345, 42.546199], [24.731396101739836, 42.546189848340674]], [[24.632005, 42.562055], [24.631715014870874, 42.56206152475705], [24.637601, 42.556234], [24.632005, 42.562055]], [[24.615487, 42.565671], [24.615233980308993, 42.56561927521516], [24.624094, 42.562233], [24.615487, 42.565671]], [[24.579949, 42.572756], [24.559322, 42.569898], [24.580380559317298, 42.57250556005542], [24.579949, 42.572756]], [[24.535633, 42.582134], [24.515597574805767, 42.586278307670604], [24.529233, 42.582509], [24.535633, 42.582134]], [[24.508315365926858, 42.58829136449833], [24.50371139975846, 42.591169197504826], [24.505155, 42.589165], [24.508315365926858, 42.58829136449833]], [[24.865527368363047, 42.05429362143557], [24.865319018430263, 42.054962344050274], [24.865413, 42.05434], [24.865527368363047, 42.05429362143557]], [[25.0754204, 42.0939245], [25.074657517547656, 42.09193741858669], [25.074669, 42.091936], [25.0754204, 42.0939245]], [[24.770435, 41.876527], [24.769193, 41.878149], [24.770045393019664, 41.876342637831215], [24.770435, 41.876527]], [[24.77031324093807, 41.87923506409589], [24.770373, 41.879293], [24.767511, 41.881067], [24.77031324093807, 41.87923506409589]], [[24.848666208392913, 41.878171541168044], [24.848673, 41.878135], [24.852162, 41.878755], [24.848666208392913, 41.878171541168044]], [[25.146499068284935, 41.87055585420274], [25.143392, 41.871333], [25.142609325848188, 41.870536858465826], [25.146499068284935, 41.87055585420274]], [[25.14106942993841, 41.86897046574767], [25.140893, 41.868791], [25.14092190106746, 41.86872882141772], [25.14106942993841, 41.86897046574767]], [[25.140197, 41.861056], [25.140286768930462, 41.86125827989435], [25.137859, 41.865383], [25.140197, 41.861056]], [[24.826329039526588, 42.02345723989202], [24.826192, 42.023122], [24.829315, 42.021319], [24.826329039526588, 42.02345723989202]], [[24.804969, 41.984012], [24.801738, 41.981546], [24.801688189754277, 41.98122246909798], [24.804969, 41.984012]], [[24.795662, 41.971176], [24.796258097985778, 41.97166369538622], [24.788548, 41.972255], [24.795662, 41.971176]], [[24.712358, 41.926875], [24.727975, 41.926698], [24.712250641339036, 41.9269387897272], [24.712358, 41.926875]], [[24.70112923405103, 41.933091984683145], [24.70084, 41.933255], [24.699280765786103, 41.93297135045239], [24.70112923405103, 41.933091984683145]], [[24.68038, 41.929533], [24.687624, 41.929983], [24.6917757563207, 41.93160606964935], [24.68038, 41.929533]], [[25.012795, 42.147762], [25.021329, 42.140718], [25.022376572299514, 42.1404314409188], [25.012795, 42.147762]], [[25.024453174957404, 42.13986339482791], [25.025438, 42.139594], [25.025690338065836, 42.1397949159675], [25.024453174957404, 42.13986339482791]], [[25.0890322, 42.1681775], [25.094113, 42.169188], [25.099798, 42.171572], [25.0890322, 42.1681775]], [[24.750936, 42.297464], [24.785229, 42.286972], [24.781818, 42.288356], [24.750936, 42.297464]], [[24.811869, 42.282246], [24.812328979901533, 42.266878744631065], [24.812414, 42.288492], [24.811869, 42.282246]], [[24.812359406723935, 42.26586222902162], [24.812361, 42.265809], [24.831234, 42.263245], [24.812359406723935, 42.26586222902162]], [[24.9982155, 42.1993715], [24.999265019295407, 42.19512164846863], [24.999474, 42.195466], [24.9982155, 42.1993715]], [[24.930871, 42.155644], [24.933572042425645, 42.15794816067195], [24.927249, 42.154835], [24.930871, 42.155644]], [[24.9011734239166, 42.33780467480054], [24.901163, 42.337808], [24.898677, 42.332062], [24.9011734239166, 42.33780467480054]], [[24.880773652569726, 42.338428362438336], [24.86741, 42.314965], [24.88033, 42.337526], [24.898677, 42.332062], [24.880773652569726, 42.338428362438336]], [[24.833662, 42.288666], [24.835187, 42.291108], [24.833539638617268, 42.28870481376157], [24.833662, 42.288666]], [[25.075369, 42.255884], [25.075561457516006, 42.25585992405977], [25.076889108624055, 42.262306767901805], [25.075369, 42.255884]], [[25.07771658187754, 42.2663248347089], [25.077723, 42.266356], [25.07757475755739, 42.26638392038479], [25.07771658187754, 42.2663248347089]], [[24.902768, 42.417315], [24.90375686297771, 42.41954750703852], [24.90373, 42.419588], [24.902768, 42.417315]], [[24.921211945716564, 42.42123342179155], [24.921744, 42.419689], [24.921248, 42.421275], [24.921211945716564, 42.42123342179155]], [[24.925161, 42.41927], [24.925193989392138, 42.41931600328248], [24.921744, 42.419689], [24.925161, 42.41927]], [[24.933612, 42.421523], [24.933712234729594, 42.4220151898706], [24.928154, 42.420433], [24.933612, 42.421523]], [[24.92309869019867, 42.47820309327732], [24.92588475896072, 42.47873782578324], [24.923143, 42.478321], [24.92309869019867, 42.47820309327732]], [[24.929934, 42.479515], [24.930016786664762, 42.4797292566441], [24.929763825191845, 42.47948233820685], [24.929934, 42.479515]]]}}]}