{"type":"FeatureCollection","features":[{"type":"Feature","properties":{"slug":"pocatello","member_count":9,"matched_count":9,"unmatched":[],"source":"Overture Maps division_area (CC-BY 4.0)"},"geometry":{"type":"Polygon","coordinates":[[[-112.065949,43.019392],[-112.052883,42.991044],[-112.063849,42.97988],[-112.088706,42.973477],[-112.082053,42.950425],[-112.127424,42.944498],[-112.143623,42.91766],[-112.134329,42.913552],[-112.136509,42.905785],[-112.149649,42.89809],[-112.136244,42.879651],[-112.134174,42.845746],[-112.119591,42.82206],[-112.126501,42.810461],[-112.14105,42.808246],[-112.141034,42.763093],[-112.114986,42.727846],[-112.109042,42.702549],[-112.097177,42.696567],[-112.068588,42.705613],[-112.057274,42.718033],[-111.969449,42.718039],[-111.972102,42.704424],[-111.956824,42.689874],[-111.966081,42.674689],[-111.946381,42.674685],[-111.946466,42.63554],[-111.921924,42.632008],[-111.916298,42.524277],[-111.896726,42.524125],[-111.895149,42.488817],[-111.885372,42.488808],[-111.885188,42.445233],[-111.875475,42.4453],[-111.875636,42.416158],[-111.89532,42.416193],[-111.896728,42.256276],[-111.983916,42.256486],[-111.983848,42.28555],[-112.126194,42.285229],[-112.137805,42.295749],[-112.156013,42.294473],[-112.190656,42.350839],[-112.259281,42.350721],[-112.266579,42.328729],[-112.279899,42.316568],[-112.305058,42.326497],[-112.327102,42.323836],[-112.328868,42.347207],[-112.29119,42.395675],[-112.294452,42.446237],[-112.308297,42.456725],[-112.342931,42.447667],[-112.345984,42.466945],[-112.365464,42.467002],[-112.370458,42.481345],[-112.380208,42.481475],[-112.384498,42.503055],[-112.419825,42.503038],[-112.419845,42.557301],[-112.415556,42.568187],[-112.386177,42.571779],[-112.389418,42.624382],[-112.37967,42.624494],[-112.37967,42.646273],[-112.418042,42.646234],[-112.418027,42.675126],[-112.437514,42.675077],[-112.437936,42.696782],[-112.457519,42.696761],[-112.457753,42.732965],[-112.49691,42.733013],[-112.497227,42.790727],[-112.516739,42.790824],[-112.519999,42.918026],[-112.546775,42.936155],[-112.549897,42.954604],[-112.58905,42.973603],[-112.605677,42.963776],[-112.60255,42.959556],[-112.61952,42.960961],[-112.649002,42.940072],[-112.698034,42.937761],[-112.704508,42.923225],[-112.730549,42.914257],[-112.732849,42.906293],[-112.748336,42.913964],[-112.743983,42.928565],[-112.733503,42.927424],[-112.740325,42.932218],[-112.732088,42.939083],[-112.752118,42.955887],[-112.734206,42.975481],[-112.741566,42.988858],[-112.706747,42.990683],[-112.678364,43.02173],[-112.665635,43.01553],[-112.653822,43.021969],[-112.065949,43.019392]]]}}]}