{"type": "FeatureCollection", "features": [{"type": "Feature", "properties": {"slug": "poega", "members": 1, "country": "Croatia", "input_hash": "d4815eadb38c472d"}, "geometry": {"type": "Polygon", "coordinates": [[[17.7402184, 45.2911391], [17.75166, 45.3064088], [17.7336963, 45.3058231], [17.7501179, 45.3368961], [17.7068397, 45.3523215], [17.7198026, 45.3614789], [17.7214425, 45.391138], [17.6940978, 45.3814203], [17.6855391, 45.3941735], [17.6897437, 45.4030901], [17.6765945, 45.4025354], [17.6728863, 45.3882163], [17.6649983, 45.3865172], [17.6633352, 45.3932319], [17.6260219, 45.3934163], [17.6121237, 45.405874], [17.5879624, 45.382748], [17.5866063, 45.3717761], [17.6064763, 45.3554477], [17.6032845, 45.3374874], [17.6341175, 45.3343699], [17.6386385, 45.3275469], [17.617263, 45.3171521], [17.6140633, 45.2970806], [17.5958126, 45.2856264], [17.5669987, 45.2816557], [17.6089335, 45.268173], [17.6850844, 45.2696384], [17.7402184, 45.2911391]]]}}]}