{"type": "FeatureCollection", "features": [{"type": "Feature", "properties": {"slug": "pointe-noire", "members": 1, "country": "Congo", "input_hash": "4dd1efe67d3a7b6e"}, "geometry": {"type": "Polygon", "coordinates": [[[15.047322273254395, -1.046997666358948], [15.058147430419922, -1.080312013626099], [15.122489929199219, -1.109459638595581], [15.168583869934082, -1.1503666639328], [15.202361106872559, -1.1998610496521], [15.217499732971191, -1.164722204208374], [15.241944313049316, -1.140833377838135], [15.32361125946045, -1.099444508552551], [15.342499732971191, -1.06333327293396], [15.36500072479248, -1.067222237586975], [15.381111145019531, -1.056944370269775], [15.403888702392578, -1.032222151756287], [15.404443740844727, -0.997777819633484], [15.416389465332031, -0.982222199440002], [15.472777366638184, -0.971944391727448], [15.490833282470703, -0.955555558204651], [15.51388931274414, -0.96444445848465], [15.543611526489258, -0.961388885974884], [15.573333740234375, -0.938333332538605], [15.613611221313477, -0.936666667461395], [15.650127410888672, -0.950488746166229], [15.620059967041016, -0.837420880794525], [15.593493461608887, -0.787007927894592], [15.458661079406738, -0.733059048652649], [15.409778594970703, -0.695207118988037], [15.378439903259277, -0.648734629154205], [15.452141761779785, -0.445244312286377], [15.4419584274292, -0.410114288330078], [15.141789999994216, -0.440410000000156], [15.154175758361816, -0.46961185336113], [15.112106323242188, -0.572217881679535], [15.007972717285156, -0.685923635959625], [15.070320129394531, -0.748230159282684], [15.151801109313965, -0.809873640537262], [15.185383796691895, -0.857638776302338], [15.172341346740723, -0.870547533035278], [15.13707447052002, -0.949535012245178], [15.088017463684082, -0.992015421390533], [15.047322273254395, -1.046997666358948]]]}}]}