{"type": "FeatureCollection", "features": [{"type": "Feature", "properties": {"slug": "porto-velho", "members": 1, "country": "Brazil", "input_hash": "90967efa9ab87fc8"}, "geometry": {"type": "Polygon", "coordinates": [[[-65.5679086, -9.8379783], [-65.560742, -9.8456529], [-65.5533606, -9.8417628], [-65.5650336, -9.8113171], [-65.5391717, -9.8022174], [-65.532219, -9.7814696], [-65.5126768, -9.7933867], [-65.5004889, -9.7856052], [-65.5013472, -9.730284], [-65.4821211, -9.7285921], [-65.4883009, -9.7101496], [-65.4719931, -9.714718], [-65.4461695, -9.6962754], [-65.4442938, -9.6689438], [-65.3728739, -9.7001998], [-65.3548494, -9.7225344], [-65.3186382, -9.8159877], [-65.2858687, -9.8429117], [-65.2885881, -9.8690257], [-65.326126, -9.9159476], [-65.332, -9.944], [-65.317, -9.937], [-65.275, -9.963], [-65.227, -9.969], [-65.194, -9.962], [-65.166, -10.0], [-64.3412355, -10.0], [-64.3464648, -9.9674809], [-64.3336536, -9.952808], [-64.3185462, -9.8964444], [-64.3271838, -9.8833405], [-64.3137561, -9.8534447], [-64.2974611, -9.8435906], [-64.3107113, -9.8123849], [-64.296, -9.817], [-64.275, -9.842], [-64.26, -9.831], [-64.226, -9.847], [-64.201, -9.834], [-64.184, -9.841], [-64.158, -9.822], [-64.135, -9.833], [-63.683947, -9.8329869], [-63.6788942, -9.8122016], [-63.689344, -9.8032154], [-63.671, -9.784], [-63.68, -9.781], [-63.68, -9.768], [-63.6620593, -9.7577416], [-63.6730729, -9.7435816], [-63.639, -9.688], [-63.641, -9.67], [-63.63, -9.668], [-63.618, -9.652], [-63.625, -9.647], [-63.626, -9.638], [-63.616, -9.638], [-63.625, -9.624], [-63.611, -9.621], [-63.614, -9.615], [-63.5913433, -9.596], [-63.590047, -9.5827194], [-63.563, -9.572], [-63.561, -9.545], [-63.5576223, -9.5552484], [-63.5473992, -9.5515235], [-63.5505364, -9.533656], [-63.562, -9.528], [-63.561, -9.517], [-63.547, -9.506], [-63.568, -9.495], [-63.553, -9.482], [-63.566, -9.445], [-63.555, -9.438], [-63.565, -9.432], [-63.581, -9.444], [-63.5752177, -9.4257109], [-63.5825669, -9.4109354], [-63.595, -9.415], [-63.597, -9.425], [-63.611, -9.418], [-63.62, -9.422], [-63.62, -9.437], [-63.642, -9.421], [-63.64, -9.435], [-63.659, -9.434], [-63.66, -9.441], [-63.67, -9.442], [-63.674, -9.438], [-63.6638789, -9.4269045], [-63.6783092, -9.4231578], [-63.6780732, -9.4140236], [-63.6891239, -9.4344931], [-63.7029748, -9.4357843], [-63.7099808, -9.4575437], [-63.7231265, -9.4429724], [-63.7370409, -9.4455711], [-63.735, -9.431], [-63.745, -9.423], [-63.734, -9.417], [-63.746, -9.407], [-63.753, -9.41], [-63.747, -9.398], [-63.763, -9.393], [-63.759, -9.384], [-63.771, -9.381], [-63.765, -9.37], [-63.775, -9.377], [-63.786, -9.374], [-63.767, -9.362], [-63.779, -9.366], [-63.782, -9.351], [-63.773, -9.34], [-63.79, -9.334], [-63.773, -9.294], [-63.783, -9.293], [-63.761, -9.279], [-63.77, -9.263], [-63.764, -9.257], [-63.773, -9.265], [-63.788, -9.251], [-63.779, -9.246], [-63.78, -9.23], [-63.77, -9.229], [-63.776, -9.215], [-63.771, -9.203], [-63.778, -9.2], [-63.762, -9.187], [-63.781, -9.191], [-63.785, -9.179], [-63.784, -9.158], [-63.77, -9.152], [-63.794, -9.128], [-63.776, -9.111], [-63.7936543, -9.102565], [-63.7841164, -9.0891107], [-63.7833332, -9.0692038], [-63.7766276, -9.071577], [-63.7754904, -9.0644679], [-63.797978, -9.0486812], [-63.7855367, -9.0416504], [-63.7943517, -9.0293548], [-63.783, -9.02], [-63.787, -9.012], [-63.7718669, -9.0159714], [-63.7701289, -9.0018781], [-63.777918, -9.0060532], [-63.783, -8.996], [-63.763, -8.986], [-63.767, -8.97], [-63.755, -8.982], [-63.7503694, -8.9692176], [-63.741462, -8.9669239], [-63.7481806, -8.9565083], [-63.7343626, -8.9629194], [-63.7280409, -8.9544548], [-63.736089, -8.9561299], [-63.7448101, -8.9360815], [-63.7536119, -8.935789], [-63.7387269, -8.9332896], [-63.7434373, -8.9251794], [-63.7222807, -8.9232649], [-63.7389422, -8.9176541], [-63.7343395, -8.8994917], [-63.7437334, -8.8882694], [-63.7223076, -8.8849186], [-63.7494667, -8.8723129], [-63.7387, -8.8571536], [-63.7487376, -8.8511382], [-63.7274206, -8.8425624], [-63.7475386, -8.8394216], [-63.740896, -8.8226642], [-63.7272684, -8.8347763], [-63.7179422, -8.8210467], [-63.7057991, -8.8209339], [-63.697139, -8.8049844], [-63.718418, -8.798232], [-63.7172258, -8.7895649], [-63.7031241, -8.7882213], [-63.7018725, -8.7777538], [-63.718534, -8.7756256], [-63.7226262, -8.7659914], [-63.7160408, -8.7565859], [-63.7101977, -8.7714277], [-63.7025533, -8.7615265], [-63.7058662, -8.7359915], [-63.6984895, -8.7397443], [-63.686, -8.731], [-63.6939809, -8.7154139], [-63.7107097, -8.7172896], [-63.696, -8.699], [-63.6921778, -8.7099827], [-63.6814431, -8.7135572], [-63.6798293, -8.7015329], [-63.6705699, -8.6969565], [-63.6684291, -8.7148605], [-63.662567, -8.707147], [-63.6469979, -8.7070341], [-63.6384711, -8.7151239], [-63.6527459, -8.7196015], [-63.6528982, -8.732808], [-63.6438765, -8.7218966], [-63.6281552, -8.7266751], [-63.6347787, -8.7085016], [-63.6150604, -8.6931117], [-63.6111943, -8.702818], [-63.5964708, -8.6908713], [-63.5841842, -8.6561615], [-63.5752516, -8.6604336], [-63.5816578, -8.6679774], [-63.5606151, -8.6782141], [-63.5634701, -8.6261113], [-63.5481865, -8.6358212], [-63.543169, -8.6307058], [-63.5297315, -8.6444903], [-63.5101188, -8.6078363], [-63.4522945, -8.5915272], [-63.4467714, -8.5713541], [-63.4757176, -8.56957], [-63.4830706, -8.5592963], [-63.466, -8.545], [-63.4508177, -8.5], [-62.8211865, -8.500007], [-62.8429282, -8.5081542], [-62.8397388, -8.5210029], [-62.811926, -8.5407157], [-62.8198524, -8.5438696], [-62.8161941, -8.551708], [-62.8231825, -8.5542589], [-62.8242612, -8.561726], [-62.8175073, -8.5537023], [-62.811457, -8.5640914], [-62.8041872, -8.5594071], [-62.8042587, -8.57215], [-62.7942401, -8.5780763], [-62.7801451, -8.5564646], [-62.768239, -8.5634828], [-62.7807421, -8.5651225], [-62.7638281, -8.575256], [-62.7834569, -8.5958056], [-62.7741376, -8.6046266], [-62.7671398, -8.5907883], [-62.7404114, -8.6067183], [-62.7567665, -8.6183338], [-62.7549812, -8.6271022], [-62.7284906, -8.6363828], [-62.7260719, -8.6425318], [-62.7392596, -8.6394573], [-62.735438, -8.6508049], [-62.7158211, -8.6542601], [-62.7215224, -8.6605226], [-62.7316004, -8.6563666], [-62.7337438, -8.6751146], [-62.7470809, -8.6785284], [-62.7441783, -8.6895937], [-62.7622994, -8.6900729], [-62.751732, -8.7025582], [-62.7570367, -8.7253635], [-62.7726143, -8.7178312], [-62.7607417, -8.7142523], [-62.7636888, -8.7070112], [-62.7797294, -8.7142939], [-62.751036, -8.7508536], [-62.766457, -8.7593864], [-62.7614556, -8.7800408], [-62.7545489, -8.7802173], [-62.7636276, -8.7982322], [-62.726, -8.8], [-62.703, -8.813], [-62.664, -8.798], [-62.655, -8.776], [-62.629, -8.776], [-62.625, -8.757], [-62.599, -8.751], [-62.588, -8.763], [-62.58, -8.745], [-62.559, -8.74], [-62.552, -8.751], [-62.536, -8.751], [-62.488, -8.73], [-62.485, -8.758], [-62.471, -8.771], [-62.448, -8.768], [-62.448, -8.754], [-62.435, -8.737], [-62.416, -8.736], [-62.408, -8.747], [-62.394, -8.74], [-62.375, -8.746], [-62.366, -8.737], [-62.377, -8.728], [-62.362, -8.703], [-62.365, -8.672], [-62.345, -8.679], [-62.345, -8.7], [-62.333, -8.709], [-62.274, -8.702], [-62.244, -8.689], [-62.237, -8.663], [-62.244, -8.651], [-62.238, -8.622], [-62.245, -8.593], [-62.2688885, -8.5757586], [-62.289, -8.589], [-62.294, -8.605], [-62.279, -8.629], [-62.281, -8.638], [-62.335, -8.609], [-62.341, -8.594], [-62.325, -8.563], [-62.337, -8.516], [-62.36, -8.506], [-62.366, -8.493], [-62.369, -8.446], [-62.359, -8.407], [-62.365, -8.391], [-62.384, -8.377], [-62.432, -8.372], [-62.465, -8.339], [-62.518, -8.384], [-62.526, -8.383], [-62.539, -8.358], [-62.551, -8.358], [-62.561, -8.284], [-62.569, -8.287], [-62.585, -8.271], [-62.6, -8.272], [-62.654, -8.229], [-62.65, -8.222], [-62.659, -8.199], [-62.686, -8.173], [-62.673, -8.145], [-62.685, -8.116], [-62.679, -8.111], [-62.692, -8.093], [-62.743, -8.045], [-62.786, -8.026], [-62.809, -8.025], [-62.832, -7.994], [-62.841, -7.995], [-62.866, -7.975], [-63.6212491, -7.9765317], [-63.621779, -8.0296108], [-63.6670003, -8.0816033], [-63.6624486, -8.1011713], [-63.6698977, -8.1217432], [-63.6934211, -8.1583487], [-63.7470344, -8.1985832], [-63.7485628, -8.2078652], [-63.7227614, -8.249499], [-63.7465624, -8.2701692], [-63.7735083, -8.3207328], [-63.7912313, -8.3332153], [-63.8253386, -8.3061526], [-63.8707594, -8.2888196], [-63.8949267, -8.3020287], [-63.9108359, -8.3285248], [-63.9317883, -8.3246916], [-63.9441225, -8.3311877], [-63.9453732, -8.3878261], [-63.9769546, -8.4097397], [-63.9778954, -8.4201329], [-63.9439509, -8.4352694], [-63.9408384, -8.452264], [-63.9731772, -8.4784472], [-63.9745046, -8.4872381], [-63.9437881, -8.5266044], [-63.9456204, -8.550498], [-63.9231714, -8.5592935], [-63.9245687, -8.5755254], [-63.9459539, -8.6094853], [-63.9725403, -8.5824525], [-63.9862097, -8.5856339], [-63.9910948, -8.6174138], [-64.0048419, -8.6259109], [-64.0164261, -8.667682], [-64.0354821, -8.6935577], [-64.0278692, -8.7156662], [-64.0673962, -8.7107253], [-64.0947671, -8.7283635], [-64.1245948, -8.7167138], [-64.1308684, -8.7221602], [-64.1430671, -8.7430315], [-64.1447623, -8.7764473], [-64.129459, -8.8051627], [-64.1582033, -8.8431675], [-64.1417669, -8.9450507], [-64.1494522, -8.9589372], [-64.1750139, -8.9605714], [-64.2332051, -8.9923081], [-64.2650711, -8.9883824], [-64.3113185, -8.9964708], [-64.326072, -8.9798321], [-64.3095688, -8.9344929], [-64.3233996, -8.9288606], [-64.446574, -8.9768705], [-64.5501239, -8.9782709], [-64.5688804, -8.9917741], [-64.5788533, -8.9884155], [-64.587961, -9.0095099], [-64.611074, -9.0164518], [-64.641538, -9.006646], [-64.6713762, -9.0147962], [-64.6833507, -8.9936169], [-64.6992671, -8.988262], [-64.7535697, -9.0207482], [-64.7916271, -8.9864028], [-64.8393242, -8.9941114], [-64.8705663, -9.0121936], [-64.8940991, -9.0437018], [-64.9172668, -9.0431411], [-64.9156801, -9.0746143], [-64.9399298, -9.1245658], [-64.9196828, -9.2202803], [-64.9360779, -9.2558112], [-64.9536531, -9.2712715], [-64.9628795, -9.2927766], [-64.9861829, -9.291931], [-65.0005153, -9.3046138], [-65.0127072, -9.3286775], [-65.0058467, -9.3435294], [-65.0393083, -9.3595813], [-65.0356802, -9.3748168], [-65.053546, -9.4021423], [-65.0779285, -9.4009814], [-65.0922916, -9.4093867], [-65.0889104, -9.4250804], [-65.09785, -9.4325158], [-65.1428806, -9.4468123], [-65.1854632, -9.4270317], [-65.1735439, -9.3854485], [-65.1961582, -9.3752629], [-65.1883246, -9.3448525], [-65.2089565, -9.3096433], [-65.2080252, -9.2856332], [-65.2466614, -9.2576636], [-65.2841828, -9.2702683], [-65.3426895, -9.3094609], [-65.3512411, -9.3231093], [-65.3775134, -9.3244261], [-65.3852109, -9.3380311], [-65.3935223, -9.339597], [-65.4167964, -9.3195363], [-65.4402184, -9.3117453], [-65.4470184, -9.3163764], [-65.4461298, -9.3706882], [-65.4566002, -9.4012087], [-65.4433302, -9.4201472], [-65.4347158, -9.466333], [-65.4566578, -9.4705194], [-65.4678803, -9.4592913], [-65.4769664, -9.4726636], [-65.4928012, -9.4736638], [-65.5031633, -9.4699754], [-65.5065502, -9.447698], [-65.5224118, -9.4469045], [-65.5556338, -9.4224552], [-65.5967755, -9.4138652], [-65.6416338, -9.4334674], [-65.6498843, -9.4472713], [-65.6794352, -9.4513929], [-65.6809976, -9.5004075], [-65.6960809, -9.5076713], [-65.7235481, -9.5590566], [-65.7299672, -9.5630727], [-65.7503267, -9.5536231], [-65.7565486, -9.5689552], [-65.7707144, -9.5653561], [-65.791522, -9.5856444], [-65.8000217, -9.5850225], [-65.8180266, -9.5622559], [-65.8250771, -9.5300912], [-65.8482485, -9.5323243], [-65.8466077, -9.5164113], [-65.8809081, -9.4874649], [-65.9126344, -9.4837503], [-65.9318805, -9.4475944], [-65.9703006, -9.4131601], [-66.0266341, -9.4008417], [-66.0424116, -9.4023724], [-66.0597396, -9.4182176], [-66.1238908, -9.4087794], [-66.1736328, -9.4344187], [-66.2047463, -9.4259737], [-66.2434147, -9.4293871], [-66.267804, -9.4097634], [-66.2904394, -9.4124947], [-66.2841858, -9.4321636], [-66.3074975, -9.4368453], [-66.3189162, -9.4199636], [-66.3416104, -9.4270167], [-66.3533063, -9.4166195], [-66.3747764, -9.4263661], [-66.4088584, -9.4069466], [-66.4147219, -9.4219488], [-66.3961089, -9.4375202], [-66.3900523, -9.4556297], [-66.3924143, -9.5004801], [-66.4235776, -9.5257876], [-66.4389348, -9.55439], [-66.4949168, -9.6015832], [-66.5006134, -9.6335642], [-66.5368884, -9.6435496], [-66.5863066, -9.6735589], [-66.6094487, -9.6648985], [-66.6241659, -9.6808192], [-66.6849453, -9.7146456], [-66.691803, -9.7338899], [-66.7253897, -9.7560725], [-66.7584708, -9.7603598], [-66.7753636, -9.7530913], [-66.7821409, -9.758572], [-66.7805792, -9.7913933], [-66.8102531, -9.8180459], [-66.6268906, -9.8980269], [-66.6094403, -9.8935379], [-66.580991, -9.9042827], [-66.5743974, -9.8887086], [-66.5671333, -9.8937886], [-66.5622044, -9.8887375], [-66.562275, -9.8799042], [-66.5499685, -9.8882433], [-66.5433743, -9.8767854], [-66.5260386, -9.88613], [-66.5027796, -9.8741799], [-66.5031969, -9.883513], [-66.4950645, -9.8841641], [-66.4892183, -9.8687702], [-66.4811127, -9.8670367], [-66.4561993, -9.879729], [-66.4589888, -9.8721938], [-66.436588, -9.865207], [-66.4252959, -9.8733903], [-66.4329681, -9.892738], [-66.4279631, -9.8993247], [-66.4124052, -9.8942241], [-66.4220612, -9.8955716], [-66.4243325, -9.8884965], [-66.4121155, -9.8817627], [-66.4043747, -9.8632092], [-66.358922, -9.8653476], [-66.3472114, -9.8381673], [-66.3190676, -9.8363988], [-66.3152245, -9.8301512], [-66.3071049, -9.8402794], [-66.3032951, -9.83457], [-66.2851097, -9.8444697], [-66.2834296, -9.8302009], [-66.2547042, -9.8334071], [-66.2483023, -9.820566], [-66.2406492, -9.826759], [-66.2355586, -9.8128074], [-66.2037927, -9.835108], [-66.1939414, -9.8284777], [-66.1959552, -9.8187625], [-66.1867157, -9.8230815], [-66.197129, -9.8137769], [-66.1950894, -9.8046437], [-66.1762528, -9.8031943], [-66.1730964, -9.7925225], [-66.152512, -9.7841606], [-66.1451304, -9.7913323], [-66.1284685, -9.7853164], [-66.1226945, -9.7914917], [-66.1031914, -9.7820917], [-66.0975909, -9.7893869], [-66.1018825, -9.8051715], [-66.093, -9.814], [-66.0787645, -9.7944335], [-66.0873321, -9.7890243], [-66.0699374, -9.7827744], [-66.0366726, -9.7854433], [-66.0235392, -9.8132919], [-66.0024357, -9.7946894], [-65.9982446, -9.8049227], [-65.9897513, -9.8015969], [-65.9822222, -9.8101124], [-65.9823706, -9.802401], [-65.9644196, -9.8034608], [-65.9759542, -9.7914], [-65.9682397, -9.7717363], [-65.943713, -9.7604027], [-65.9340737, -9.7690642], [-65.9197564, -9.7531381], [-65.904376, -9.7675974], [-65.8860896, -9.75223], [-65.8718432, -9.7530682], [-65.8624874, -9.7672481], [-65.8703548, -9.7932314], [-65.8411532, -9.791136], [-65.8441301, -9.7847102], [-65.820457, -9.7674577], [-65.8164878, -9.7555131], [-65.8072738, -9.7627777], [-65.799052, -9.757469], [-65.813511, -9.7725567], [-65.8058562, -9.7894597], [-65.794374, -9.792952], [-65.779915, -9.781148], [-65.7794898, -9.7406341], [-65.7701339, -9.7344169], [-65.771835, -9.7587961], [-65.7432005, -9.782964], [-65.7270404, -9.7586564], [-65.6839468, -9.7499248], [-65.6804738, -9.7674577], [-65.7041469, -9.764035], [-65.7088249, -9.7694135], [-65.6997525, -9.790228], [-65.7102306, -9.8085731], [-65.6888374, -9.8136952], [-65.6891918, -9.8011237], [-65.6696296, -9.7812877], [-65.6615495, -9.7933012], [-65.6446807, -9.7926726], [-65.6536108, -9.8094565], [-65.6480402, -9.8173911], [-65.6350272, -9.8055952], [-65.6270683, -9.8382125], [-65.5998414, -9.8253785], [-65.597146, -9.8433515], [-65.5679086, -9.8379783]]]}}]}