{"type":"FeatureCollection","features":[{"type":"Feature","properties":{"slug":"porto-acre","member_count":1,"matched_count":1,"unmatched":[],"source":"Overture Maps division_area (CC-BY 4.0)"},"geometry":{"type":"Polygon","coordinates":[[[-67.517,-9.56],[-67.974,-9.353],[-68.02,-9.357],[-68.021,-9.349],[-68.039,-9.347],[-68.048,-9.352],[-68.062,-9.39],[-68.059,-9.417],[-68.027,-9.444],[-68.019,-9.47],[-68.033,-9.495],[-68.075,-9.522],[-68.0894407,-9.5583455],[-67.9116808,-9.6678364],[-67.9211286,-9.6758258],[-67.9206293,-9.6899979],[-67.909,-9.709],[-67.88,-9.718],[-67.8633148,-9.7405114],[-67.857784,-9.7256166],[-67.853967,-9.738592],[-67.8455539,-9.7370565],[-67.834,-9.75],[-67.8061371,-9.7415095],[-67.8096087,-9.7519135],[-67.796,-9.762],[-67.794442,-9.781303],[-67.744,-9.74],[-67.703,-9.787],[-67.716,-9.804],[-67.707,-9.817],[-67.71,-9.836],[-67.685,-9.834],[-67.653,-9.863],[-67.625,-9.856],[-67.601,-9.865],[-67.608,-9.851],[-67.592,-9.843],[-67.592,-9.824],[-67.581,-9.824],[-67.581,-9.839],[-67.566,-9.852],[-67.53,-9.855],[-67.513,-9.885],[-67.517,-9.906],[-67.482,-9.927],[-67.47,-9.915],[-67.447,-9.914],[-67.436,-9.837],[-67.406,-9.805],[-67.368,-9.782],[-67.335,-9.724],[-67.337,-9.683],[-67.327,-9.65],[-67.34,-9.623],[-67.3240858,-9.5921587],[-67.517,-9.56]]]}}]}