{"type": "FeatureCollection", "features": [{"type": "Feature", "properties": {"slug": "port-said", "members": 11, "country": "Egypt", "input_hash": "fadb24146d3aba64"}, "geometry": {"type": "MultiPolygon", "coordinates": [[[[32.0335783, 31.0622437], [32.0545721, 31.072363], [32.200898556932735, 31.290666791115907], [32.3115331, 31.2729248], [32.3270243, 31.2795373], [32.2996784, 31.2547333], [32.3010781, 31.2334414], [32.2652178, 31.2444189], [32.2815607, 31.2335733], [32.3017294, 31.232107], [32.311584777724164, 30.871341330403656], [32.1907262, 30.8724103], [32.2172922, 30.8987449], [32.2255444, 30.9289273], [32.1962276, 30.9883328], [32.1890613, 31.0268614], [32.106284, 31.0198884], [32.0335783, 31.0622437]]], [[[32.3323012, 31.1910367], [32.3096492, 31.1138324], [32.3069236, 31.1923111], [32.3323012, 31.1910367]]], [[[32.3480455, 31.2017335], [32.3413727, 31.198369], [32.3554642, 31.2364082], [32.3480455, 31.2017335]]], [[[32.3142868, 31.2399602], [32.3081755, 31.2473026], [32.3177973, 31.259668], [32.3233452, 31.2545933], [32.3183803, 31.2612704], [32.3255, 31.2598756], [32.3294378, 31.2754396], [32.3257416, 31.2531327], [32.3421624, 31.2425803], [32.333549, 31.1938865], [32.3091311, 31.1943666], [32.3068598, 31.2203671], [32.321721, 31.2319105], [32.3067987, 31.2217089], [32.3084231, 31.2423304], [32.3142868, 31.2399602]]], [[[32.3373993, 31.1874186], [32.3430343, 31.1866434], [32.3351156, 31.1543975], [32.3401706, 31.1497155], [32.3598226, 31.227065], [32.377975, 31.2210854], [32.3778744, 31.2284048], [32.3661626, 31.2329265], [32.368826, 31.2463251], [32.3672589, 31.2350238], [32.3697434, 31.2319891], [32.3770988, 31.2291527], [32.3780777, 31.2284579], [32.3788856, 31.2274277], [32.3777015, 31.2164806], [32.4869599, 31.148926], [32.4804371, 31.1459151], [32.4859208, 31.1474095], [32.5128889, 31.1061666], [32.57839203756491, 31.067044492129934], [32.5735377, 31.0525644], [32.593976, 30.9469999], [32.5387228, 30.9643425], [32.3846977, 30.8795676], [32.31783198771549, 30.872044275930197], [32.3101801, 31.0938377], [32.3373993, 31.1874186]]]]}}]}