{"type": "FeatureCollection", "features": [{"type": "Feature", "properties": {"slug": "porto-novo", "members": 3, "country": "Benin", "input_hash": "49517b678e57df73"}, "geometry": {"type": "Polygon", "coordinates": [[[2.5798893, 6.5072693], [2.5855824, 6.476415], [2.5948984, 6.4681869], [2.5819125, 6.4558225], [2.5466283, 6.4383476], [2.4858314, 6.4389803], [2.4948424, 6.4935117], [2.5456151, 6.5268478], [2.5807481, 6.535574], [2.5821376, 6.5816962], [2.5715398, 6.6068887], [2.5855765, 6.6426832], [2.6010461, 6.6230534], [2.6360554, 6.6191513], [2.6549942, 6.598129], [2.6740772, 6.5922035], [2.6999105, 6.5577503], [2.729991, 6.538198], [2.703255, 6.5187225], [2.6599674, 6.5426524], [2.6397366, 6.5254155], [2.6002625, 6.5336741], [2.5798893, 6.5072693]]]}}]}