{"type": "FeatureCollection", "features": [{"type": "Feature", "properties": {"slug": "potenza", "members": 100, "country": "Italy", "input_hash": "dfb30751402ce59b"}, "geometry": {"type": "MultiPolygon", "coordinates": [[[[15.6984986, 39.9921995], [15.698285, 39.9919878], [15.6981753, 39.9922836], [15.6984986, 39.9921995]]], [[[15.6984693, 39.9923418], [15.6984064, 39.9923306], [15.6983172, 39.9924461], [15.6984693, 39.9923418]]], [[[15.7171425, 39.9673318], [15.7150107, 39.9666161], [15.7152412, 39.9674146], [15.7171425, 39.9673318]]], [[[15.7428885, 39.9339137], [15.7438481, 39.9340083], [15.7438048, 39.9333926], [15.7428885, 39.9339137]]], [[[16.1888332, 40.2910882], [16.1963037, 40.2663909], [16.2424816, 40.2674714], [16.2583011, 40.2751753], [16.2830315, 40.2699691], [16.3149517, 40.27615], [16.3341698, 40.3054495], [16.3764505, 40.3114091], [16.3756268, 40.2974326], [16.3648308, 40.2889383], [16.3763222, 40.2748686], [16.3685281, 40.263402], [16.3719893, 40.2519926], [16.3495999, 40.2180303], [16.3494281, 40.2063948], [16.3603939, 40.1882131], [16.3981534, 40.1680067], [16.3973089, 40.1547635], [16.3751245, 40.1474233], [16.3513357, 40.1243019], [16.3718128, 40.1066818], [16.3561014, 40.0918653], [16.3701058, 40.0858464], [16.3633049, 40.0736813], [16.3838968, 40.0823053], [16.3846009, 40.0637449], [16.3995736, 40.0564319], [16.3935597, 40.043188], [16.3993681, 40.0189111], [16.3613943, 39.96959], [16.3589057, 39.9551022], [16.3386216, 39.9371781], [16.3604828, 39.9206072], [16.355975, 39.9021098], [16.3440465, 39.9034369], [16.3171677, 39.9297921], [16.2697071, 39.9369864], [16.2143859, 39.9262965], [16.2198637, 39.9141174], [16.2150172, 39.8961031], [16.1594268, 39.9210721], [16.1387835, 39.9024178], [16.1041307, 39.9079265], [16.083207, 39.8972552], [16.0498373, 39.8958079], [16.043423, 39.9124405], [16.0234461, 39.9246492], [16.0076165, 39.95831], [16.0344065, 39.9833533], [16.0315261, 39.9943624], [16.0094122, 39.9974857], [16.0066826, 39.9905163], [15.9800194, 39.9834051], [15.9693431, 39.992739], [15.9288478, 40.002076], [15.8985876, 39.982676], [15.8911303, 39.9955169], [15.8684792, 39.9911315], [15.8451691, 40.005295], [15.8208816, 40.0028749], [15.7953408, 39.9713398], [15.7775973, 39.9653054], [15.7564433, 39.9226017], [15.7509184, 39.9331434], [15.7339006, 39.9429856], [15.7354494, 39.9572119], [15.7202158, 39.9772558], [15.6802832, 40.0065129], [15.6779127, 40.0291312], [15.6446025, 40.0416478], [15.6761642, 40.0548991], [15.6718589, 40.0703485], [15.6516257, 40.0785817], [15.6777562, 40.0844104], [15.7058299, 40.1177323], [15.7092175, 40.139868], [15.7005081, 40.1582784], [15.7164909, 40.1695869], [15.7119623, 40.177923], [15.7297529, 40.1863255], [15.7300017, 40.1997016], [15.7507012, 40.2006685], [15.7740848, 40.2173435], [15.7952048, 40.2213821], [15.7873545, 40.2366346], [15.8053724, 40.2514096], [15.7996173, 40.2677856], [15.8063612, 40.273232], [15.7922863, 40.2897797], [15.7677559, 40.290756], [15.7649957, 40.2983514], [15.7437512, 40.3008438], [15.7268796, 40.3154464], [15.7308374, 40.322167], [15.704748, 40.342241], [15.7026673, 40.3618681], [15.7101223, 40.3772995], [15.7029405, 40.3835404], [15.6709894, 40.3982651], [15.662733, 40.3924933], [15.6479787, 40.4140072], [15.586616, 40.4433519], [15.5917924, 40.4460255], [15.5772033, 40.4593967], [15.5787319, 40.468894], [15.5381818, 40.488628], [15.535225, 40.4996407], [15.550474, 40.509245], [15.5353071, 40.5222614], [15.5453042, 40.5316561], [15.5359833, 40.5353764], [15.5265771, 40.5573346], [15.539341, 40.5680622], [15.5198889, 40.5704887], [15.5101282, 40.5857474], [15.4740182, 40.5926553], [15.4494721, 40.6091001], [15.4674966, 40.638733], [15.4899359, 40.6454839], [15.5038735, 40.6634586], [15.4289422, 40.6925924], [15.4108831, 40.7125599], [15.3814762, 40.7241508], [15.3790577, 40.7509305], [15.3913213, 40.7676288], [15.3804019, 40.780584], [15.3882857, 40.7953926], [15.3666432, 40.7983083], [15.3805019, 40.8109502], [15.3664572, 40.8121387], [15.3349712, 40.83488], [15.3776832, 40.8364478], [15.3734789, 40.8611622], [15.3790301, 40.8676043], [15.355245, 40.8708938], [15.3541736, 40.8826538], [15.3752323, 40.8858385], [15.3881117, 40.8756185], [15.4299255, 40.8796305], [15.460816, 40.8671507], [15.4737791, 40.8746041], [15.4681761, 40.8902149], [15.5272463, 40.9078366], [15.5422857, 40.9463962], [15.5666175, 40.9687803], [15.5722653, 40.9966539], [15.5595517, 41.0169743], [15.5631539, 41.0310243], [15.5428713, 41.0558542], [15.5447812, 41.0657042], [15.5648345, 41.090388], [15.5806506, 41.0978292], [15.616541, 41.0994062], [15.682645, 41.0871985], [15.7435859, 41.1003886], [15.7713967, 41.0856733], [15.7901584, 41.0881739], [15.8020522, 41.0960776], [15.7968192, 41.104724], [15.8079139, 41.1085792], [15.8058136, 41.1160358], [15.8163013, 41.1061718], [15.8272091, 41.1130447], [15.8153772, 41.1177753], [15.8285134, 41.1179147], [15.8299684, 41.1280839], [15.8446804, 41.1243391], [15.8472835, 41.1319811], [15.8637469, 41.1305154], [15.8710894, 41.1392878], [15.9209101, 41.1110279], [15.9534024, 41.1107167], [15.9600677, 41.1004185], [15.9542297, 41.0929536], [15.9825996, 41.0891954], [15.9789797, 41.0812087], [15.9988586, 41.05399], [16.0072503, 41.0591063], [16.0250589, 41.0522258], [16.0407369, 41.0359842], [16.0404675, 41.0283607], [16.0279344, 41.0240812], [16.0270382, 40.9912139], [16.0083528, 40.9720917], [15.9718115, 40.9721317], [15.9766285, 40.9584529], [16.092774, 40.9206407], [16.1210693, 40.8977189], [16.1380672, 40.9183534], [16.1629706, 40.92858], [16.1994558, 40.9192276], [16.2151611, 40.9051172], [16.2448372, 40.8390236], [16.1686448, 40.8057744], [16.121528, 40.7966042], [16.122391, 40.7751701], [16.1151218, 40.7667312], [16.1490038, 40.731952], [16.14833, 40.7001848], [16.1250835, 40.6943394], [16.0781492, 40.6616717], [16.0608805, 40.660339], [16.0491351, 40.6411929], [16.0818063, 40.601875], [16.1217876, 40.5846346], [16.1027313, 40.5581216], [16.0765145, 40.5456386], [16.1170804, 40.5016847], [16.0978588, 40.482704], [16.1220582, 40.4601209], [16.1423139, 40.4535243], [16.128725, 40.4313374], [16.1103048, 40.4273174], [16.107044, 40.4096535], [16.1523251, 40.3787557], [16.1672472, 40.3492368], [16.1642063, 40.3394567], [16.1756817, 40.339394], [16.1883138, 40.320925], [16.1732558, 40.3186617], [16.1705313, 40.3106166], [16.1888332, 40.2910882]], [[15.9848276, 40.6067666], [15.9820514, 40.649813], [15.9543941, 40.6493486], [15.9422533, 40.6389245], [15.9554394, 40.6122466], [15.9848276, 40.6067666]]]]}}]}