{"type": "FeatureCollection", "features": [{"type": "Feature", "properties": {"slug": "prachuap-khiri-khan", "members": 1, "country": "Thailand", "input_hash": "e6c1c7418be74b6d"}, "geometry": {"type": "MultiPolygon", "coordinates": [[[[99.5481588, 11.0687879], [99.5562577, 11.0733696], [99.5642209, 11.0847486], [99.5617568, 11.0715664], [99.5481588, 11.0687879]]], [[[99.8297757, 11.7586282], [99.8291451, 11.763575], [99.8306901, 11.7635519], [99.8297757, 11.7586282]]], [[[99.8222994, 11.7957394], [99.8246548, 11.7966702], [99.8254129, 11.7937674], [99.8222994, 11.7957394]]], [[[99.1519784, 11.0320034], [99.180227, 11.060153], [99.179428, 11.082965], [99.226479, 11.10915], [99.225709, 11.142104], [99.25447, 11.169421], [99.26363, 11.214809], [99.282804, 11.243654], [99.307167, 11.255161], [99.324477, 11.281939], [99.312387, 11.316381], [99.327779, 11.336172], [99.342101, 11.333049], [99.344368, 11.348311], [99.365736, 11.371569], [99.40217, 11.388924], [99.393728, 11.46122], [99.409936, 11.464611], [99.422127, 11.481734], [99.444274, 11.480284], [99.448567, 11.50459], [99.4744, 11.533174], [99.471273, 11.547053], [99.463026, 11.549812], [99.468377, 11.567306], [99.458393, 11.583709], [99.467844, 11.615105], [99.507804, 11.636555], [99.517302, 11.63647], [99.531247, 11.6209], [99.565462, 11.626675], [99.586424, 11.660367], [99.588087, 11.688511], [99.602258, 11.707205], [99.615773, 11.711118], [99.619038, 11.72236], [99.636262, 11.727168], [99.641124, 11.789829], [99.664904, 11.823147], [99.622011, 11.833085], [99.625249, 11.849623], [99.609965, 11.868528], [99.599891, 11.87892], [99.588009, 11.872245], [99.579463, 11.943661], [99.593169, 11.954994], [99.592249, 11.992515], [99.574943, 12.00761], [99.53652, 12.01689], [99.541435, 12.031291], [99.5341, 12.066005], [99.556215, 12.094602], [99.55562, 12.113884], [99.571294, 12.144508], [99.515224, 12.14767], [99.500741, 12.143787], [99.495315, 12.130073], [99.473312, 12.131602], [99.472809, 12.15769], [99.486919, 12.165664], [99.496395, 12.197542], [99.471003, 12.234697], [99.484465, 12.273757], [99.461424, 12.286429], [99.462181, 12.297399], [99.444999, 12.316939], [99.446316, 12.331738], [99.433841, 12.342799], [99.443847, 12.351156], [99.432228, 12.364102], [99.445888, 12.407101], [99.426764, 12.42427], [99.424986, 12.448429], [99.400994, 12.459914], [99.406126, 12.480914], [99.425151, 12.491368], [99.417405, 12.524764], [99.422598, 12.555995], [99.435547, 12.565408], [99.42798, 12.578907], [99.4552985, 12.5791885], [99.4967717, 12.5929517], [99.4987425, 12.5734199], [99.5144559, 12.5637389], [99.5305877, 12.565753], [99.548385, 12.579837], [99.5988434, 12.5734241], [99.6165746, 12.5812618], [99.6283001, 12.5998188], [99.6137624, 12.6152323], [99.6225049, 12.6446011], [99.6475158, 12.64257], [99.6581974, 12.6330276], [99.7318112, 12.6305413], [99.7681229, 12.6142038], [99.7769742, 12.6257287], [99.7878384, 12.621483], [99.8055221, 12.6314317], [99.8543079, 12.6299809], [99.8836327, 12.6201073], [99.9162013, 12.639094], [99.95875366053487, 12.63283628132803], [99.956049, 12.5862341], [99.9700879, 12.5342422], [99.9851984, 12.5139972], [99.974878, 12.5022086], [99.9838432, 12.4512215], [99.979788, 12.4313839], [99.9952043, 12.4141709], [100.0028145, 12.3357382], [99.9874271, 12.3177829], [99.974673, 12.2645916], [100.0198823, 12.1887629], [99.975197, 12.1468428], [99.9607799, 12.1114633], [99.9675515, 12.1052763], [99.962905, 12.0869895], [99.9418573, 12.0807742], [99.8641412, 11.9951561], [99.842421, 11.9611465], [99.8119561, 11.8802018], [99.8171798, 11.8645784], [99.8257279, 11.8655798], [99.8333577, 11.83116], [99.8289078, 11.8286981], [99.8281347, 11.8392196], [99.8165053, 11.8387582], [99.7984944, 11.8177149], [99.8024868, 11.7964546], [99.8185394, 11.784502], [99.8131582, 11.7768277], [99.8136345, 11.7842205], [99.8045836, 11.7832954], [99.7955581, 11.7708316], [99.8111564, 11.7379659], [99.7893183, 11.7442924], [99.7257921, 11.6804384], [99.6387021, 11.5180046], [99.6276569, 11.4708571], [99.6136393, 11.4515471], [99.5810489, 11.3572922], [99.5722908, 11.3572015], [99.5609133, 11.3370691], [99.5510422, 11.2682119], [99.5628034, 11.2296678], [99.5806712, 11.2146716], [99.5847898, 11.1995062], [99.5790136, 11.2073241], [99.5839364, 11.2006154], [99.5789674, 11.2068235], [99.5792875, 11.1951801], [99.5666815, 11.1830994], [99.5591903, 11.1903713], [99.5631227, 11.201868], [99.5552212, 11.2053237], [99.5403277, 11.2072659], [99.522798, 11.1973241], [99.4970252, 11.1647008], [99.4859921, 11.126683], [99.502717, 10.9919099], [99.4694029, 10.9935334], [99.4073271, 10.9547062], [99.3820291, 10.9624869], [99.375574, 10.9725406], [99.3446293, 10.9756158], [99.3358785, 10.9637955], [99.3214495, 10.9708387], [99.2907648, 10.9697165], [99.2808691, 10.9584457], [99.2064892, 10.9901014], [99.2020438, 10.9851131], [99.2000912, 10.99709], [99.1694089, 11.0009641], [99.1658136, 11.01097], [99.1501651, 11.0141768], [99.1519784, 11.0320034]]], [[[100.0284923, 12.2094497], [100.0320526, 12.2122698], [100.0276877, 12.2018386], [100.0284923, 12.2094497]]], [[[100.0082445, 12.2442189], [100.0116893, 12.2492731], [100.0055616, 12.2366293], [100.0082445, 12.2442189]]]]}}]}