{"type": "FeatureCollection", "features": [{"type": "Feature", "properties": {"slug": "praia-cv", "members": 9, "country": "Cape Verde", "input_hash": "59722c55045838cb"}, "geometry": {"type": "MultiPolygon", "coordinates": [[[[-23.5577319, 14.9086127], [-23.5900516, 14.9071557], [-23.6084481, 14.9162303], [-23.6253962, 14.9105955], [-23.6273743, 14.9198148], [-23.6746279, 14.9398712], [-23.7268134, 14.9863615], [-23.7152583, 14.9992442], [-23.7152139, 15.0126049], [-23.7399997, 15.0354953], [-23.7495932, 15.0313268], [-23.765853, 15.0605084], [-23.7794108, 15.0629495], [-23.7658079, 15.1229873], [-23.7705737, 15.1255326], [-23.7599678, 15.1363208], [-23.7704667, 15.1777127], [-23.7626204, 15.1799747], [-23.7537468, 15.2249039], [-23.7400761, 15.2442328], [-23.7566164, 15.2586546], [-23.7600426, 15.2781271], [-23.7524918, 15.2826882], [-23.7743019, 15.2994013], [-23.7602522, 15.3058468], [-23.7588164, 15.3148227], [-23.7666737, 15.3195687], [-23.7581276, 15.3192242], [-23.7567103, 15.3330481], [-23.7448453, 15.3336389], [-23.7447205, 15.3396755], [-23.7222476, 15.3281462], [-23.7134398, 15.3349313], [-23.6955546, 15.3308452], [-23.6816795, 15.3116883], [-23.6916794, 15.3020898], [-23.6917408, 15.2875334], [-23.6805401, 15.2576596], [-23.6393301, 15.2449201], [-23.6332846, 15.2296252], [-23.614898, 15.227889], [-23.594645, 15.189996], [-23.5710143, 15.1696765], [-23.5748574, 15.1623273], [-23.5550161, 15.1510088], [-23.5424961, 15.1557117], [-23.5409571, 15.145769], [-23.5315924, 15.1505473], [-23.5277208, 15.1330264], [-23.5015244, 15.1244228], [-23.5006695, 15.1040987], [-23.485682, 15.0880435], [-23.4930147, 15.0625479], [-23.4855393, 15.0881273], [-23.473244, 15.0618998], [-23.4473949, 15.0474919], [-23.4560144, 15.0437774], [-23.4534573, 15.0367463], [-23.4428432, 15.0419509], [-23.4413017, 15.0200121], [-23.4305694, 15.0163716], [-23.4371913, 15.0069758], [-23.4283476, 15.0024735], [-23.4388511, 15.0010615], [-23.4286386, 14.9986002], [-23.4297737, 14.9875723], [-23.4343764, 14.9801724], [-23.4434913, 14.9865051], [-23.4608409, 14.9702135], [-23.4541171, 14.9630025], [-23.4691701, 14.9534559], [-23.4634434, 14.9471892], [-23.4818294, 14.9057735], [-23.4886224, 14.911411], [-23.5019864, 14.9050876], [-23.5033685, 14.9191795], [-23.5109768, 14.9116861], [-23.5089273, 14.9000644], [-23.5551696, 14.9035116], [-23.556734, 14.9168781], [-23.5577319, 14.9086127]], [[-23.586442663126693, 14.973611260582528], [-23.5863043, 14.9741303], [-23.586919299107386, 14.97488913532585], [-23.586442663126693, 14.973611260582528]], [[-23.5811085, 14.9576116], [-23.5716161, 14.952054], [-23.581114685874425, 14.957684349886481], [-23.5811085, 14.9576116]], [[-23.6111082, 15.0960973], [-23.6001357, 15.103826], [-23.5923968, 15.1101434], [-23.6111082, 15.0960973]], [[-23.4724583, 14.98116], [-23.4772588, 14.9804549], [-23.471889266367803, 14.98057619049092], [-23.4724583, 14.98116]], [[-23.5679674, 14.9815916], [-23.582191589650968, 14.977915724367332], [-23.5762184, 14.9788891], [-23.5679674, 14.9815916]], [[-23.55973467063518, 14.986002841711151], [-23.566865, 14.9837851], [-23.5611186, 14.9847957], [-23.55973467063518, 14.986002841711151]], [[-23.5117078, 14.9937324], [-23.51185863662495, 14.993653131503406], [-23.5059449, 14.9919559], [-23.5117078, 14.9937324]]], [[[-23.5062683, 14.9067966], [-23.5084803, 14.9076613], [-23.5092554, 14.9100781], [-23.5062683, 14.9067966]]], [[[-23.5871769, 15.1846841], [-23.5874322, 15.184753], [-23.5871983, 15.1847742], [-23.5871769, 15.1846841]]]]}}]}