{"type": "FeatureCollection", "features": [{"type": "Feature", "properties": {"slug": "prelip", "members": 1, "country": "North Macedonia", "input_hash": "0d7722af350e37a6"}, "geometry": {"type": "Polygon", "coordinates": [[[21.3713716, 41.2435275], [21.3890207, 41.2431586], [21.4075812, 41.2348576], [21.4123209, 41.22001], [21.4267972, 41.2193484], [21.4291333, 41.2053755], [21.4149652, 41.1951575], [21.4682321, 41.1979585], [21.471083, 41.1861234], [21.5017139, 41.1830954], [21.5014827, 41.1763798], [21.5535666, 41.1821911], [21.5709248, 41.1671453], [21.5878774, 41.1693672], [21.5980038, 41.1624057], [21.6268017, 41.1705786], [21.6236688, 41.160208], [21.6434957, 41.1494318], [21.6455557, 41.1387669], [21.6778924, 41.131446], [21.6957475, 41.1397302], [21.7475475, 41.1182845], [21.7688411, 41.1173106], [21.8163162, 41.0926772], [21.8350531, 41.1005992], [21.8365723, 41.0866935], [21.8525874, 41.0928298], [21.8780767, 41.0719939], [21.9040339, 41.0689691], [21.9091201, 41.0907615], [21.9315423, 41.1008526], [21.9399933, 41.1107786], [21.9330665, 41.1179963], [21.9471202, 41.1224186], [21.9424699, 41.1294399], [21.9233726, 41.130707], [21.8923967, 41.1606346], [21.8943661, 41.1889701], [21.8835944, 41.2141559], [21.8936881, 41.2366372], [21.8938781, 41.2701431], [21.8881703, 41.2739008], [21.8953856, 41.2796757], [21.8722506, 41.285764], [21.8452208, 41.2768532], [21.8378492, 41.2969473], [21.8240541, 41.2967152], [21.8189751, 41.3090822], [21.8097204, 41.3096753], [21.829877, 41.3211949], [21.8209856, 41.3292557], [21.8258687, 41.3463953], [21.8456714, 41.3545529], [21.8390888, 41.3615029], [21.8442895, 41.3655128], [21.8225635, 41.3849177], [21.817581, 41.4049631], [21.8296436, 41.4194205], [21.8228446, 41.441814], [21.8121788, 41.4303821], [21.7979386, 41.4317169], [21.7933706, 41.4445146], [21.7879662, 41.4431952], [21.7913345, 41.4339], [21.7836735, 41.4351472], [21.7735505, 41.4538161], [21.7801211, 41.4610984], [21.774593, 41.4700976], [21.757048, 41.4692046], [21.7182036, 41.4915482], [21.7012249, 41.4647468], [21.6748661, 41.4615104], [21.6673919, 41.4488123], [21.5875513, 41.4505452], [21.5769764, 41.4406196], [21.5818897, 41.438448], [21.5719977, 41.4204934], [21.5772342, 41.4154718], [21.5559697, 41.4069265], [21.5205919, 41.40069], [21.5052857, 41.4104062], [21.4959796, 41.3918638], [21.4671515, 41.4078742], [21.4406121, 41.3833118], [21.4348407, 41.3677908], [21.3870855, 41.3671501], [21.3704151, 41.3572945], [21.3683724, 41.3573058], [21.3680999, 41.3640555], [21.3662116, 41.3640555], [21.3708313, 41.3474162], [21.414343, 41.3439169], [21.4126101, 41.3270524], [21.4303139, 41.326941], [21.4363303, 41.3194566], [21.4312229, 41.315793], [21.4414011, 41.3121645], [21.4122401, 41.3086395], [21.4124439, 41.3196207], [21.4003289, 41.3197964], [21.4002302, 41.3124135], [21.3775699, 41.3156773], [21.4238655, 41.2808461], [21.3986032, 41.274328], [21.3994686, 41.259901], [21.3652007, 41.253331], [21.3713716, 41.2435275]]]}}]}