{"type": "FeatureCollection", "features": [{"type": "Feature", "properties": {"slug": "preveza", "members": 1, "country": "Greece", "input_hash": "49cb1785ade4456d"}, "geometry": {"type": "MultiPolygon", "coordinates": [[[[20.9152581, 38.9852166], [20.9140447, 38.9894453], [20.921144, 38.9849066], [20.9152581, 38.9852166]]], [[[20.9203156, 38.9947611], [20.9215688, 38.9945678], [20.9205873, 38.9940746], [20.9203156, 38.9947611]]], [[[20.9242216, 38.9961468], [20.9253112, 38.9960543], [20.9253392, 38.9957279], [20.9242216, 38.9961468]]], [[[20.7633187, 39.1012745], [20.7784884, 39.0469247], [20.7597095, 39.0321002], [20.7545609, 39.0077791], [20.8090067, 38.973496], [20.8284789, 38.9694806], [20.830957, 38.9599838], [20.8196682, 38.9548365], [20.7857301, 38.9724424], [20.7524068, 38.9748321], [20.7569094, 38.9506503], [20.7383489, 38.944672], [20.7263693, 38.9492177], [20.6996526, 38.9976578], [20.7114011, 39.0039425], [20.7151133, 39.0198464], [20.6991541, 39.0553718], [20.6593904, 39.0891786], [20.6379368, 39.092878], [20.6049195, 39.1150025], [20.5479071, 39.1753888], [20.5636694, 39.1843682], [20.5802795, 39.1812904], [20.5863202, 39.196916], [20.6097043, 39.180791], [20.6188803, 39.1812966], [20.6170238, 39.1928718], [20.6344377, 39.1939757], [20.6505402, 39.1804059], [20.697799, 39.1714736], [20.6918176, 39.2017777], [20.658713, 39.2215772], [20.6550699, 39.2856487], [20.6458611, 39.2960147], [20.6340998, 39.2956954], [20.6404684, 39.3336005], [20.686852, 39.2811096], [20.7054806, 39.3023131], [20.6998822, 39.3059309], [20.7058474, 39.3355016], [20.7513156, 39.33815], [20.7341139, 39.2774683], [20.7134981, 39.2786983], [20.7125839, 39.2692456], [20.7190293, 39.2400302], [20.7379715, 39.2301315], [20.7448973, 39.2077964], [20.7404476, 39.1845572], [20.8050923, 39.1992672], [20.8125648, 39.1965534], [20.8113621, 39.1791752], [20.8246482, 39.1694582], [20.7899759, 39.1584227], [20.808398, 39.1233332], [20.7955746, 39.1112568], [20.7633187, 39.1012745]]]]}}]}