{"type": "FeatureCollection", "features": [{"type": "Feature", "properties": {"slug": "prijedor", "members": 1, "country": "Bosnia-Herzegovina", "input_hash": "2da5ab3d1cd3faca"}, "geometry": {"type": "Polygon", "coordinates": [[[16.9090776, 45.0495928], [16.8989603, 45.0560159], [16.882936, 45.0495055], [16.8484551, 45.0581594], [16.7915144, 45.055548], [16.7496146, 45.0760044], [16.7410534, 45.0958085], [16.7147326, 45.0874826], [16.7135926, 45.0798962], [16.7002688, 45.0779552], [16.6999412, 45.0697438], [16.6901694, 45.0783419], [16.6839723, 45.0716985], [16.6754125, 45.0786908], [16.6663633, 45.0736691], [16.6524628, 45.084915], [16.6434796, 45.0709769], [16.6347004, 45.0708197], [16.6298507, 45.0797201], [16.6122381, 45.0830966], [16.5936806, 45.06891], [16.5952338, 45.0592803], [16.5801434, 45.0349875], [16.5623454, 45.0269544], [16.5738378, 45.0239733], [16.5867301, 45.0056942], [16.5501747, 44.9948769], [16.5455928, 44.9668933], [16.5000736, 44.966155], [16.4890568, 44.9602816], [16.4996044, 44.9513294], [16.4816844, 44.9420996], [16.5045739, 44.9212624], [16.4917692, 44.9081411], [16.5208912, 44.8844232], [16.5555826, 44.8822893], [16.5692623, 44.8993467], [16.5828091, 44.8989328], [16.6001688, 44.8843414], [16.5984081, 44.8718481], [16.6242927, 44.8631089], [16.6399247, 44.8815502], [16.6775097, 44.8730193], [16.7056255, 44.8544862], [16.7109171, 44.8592449], [16.7051535, 44.8671484], [16.7456769, 44.8610057], [16.7472501, 44.8521433], [16.731756, 44.8353127], [16.7496637, 44.8225153], [16.766843, 44.8246482], [16.8100994, 44.8083509], [16.8717883, 44.8205269], [16.8732338, 44.8123932], [16.918076, 44.8125353], [16.9457521, 44.7973947], [16.9271611, 44.8618318], [16.946771, 44.864571], [16.956397, 44.881742], [16.9461525, 44.8978989], [17.0022114, 44.9418654], [17.0234175, 44.9711576], [17.0148183, 44.9844053], [17.0045715, 44.9859096], [17.0093787, 45.0103863], [16.9815487, 45.0036211], [16.9721032, 45.018866], [16.9444736, 45.0250598], [16.9391935, 45.01803], [16.9257189, 45.0207174], [16.9173657, 45.0399065], [16.8974695, 45.0383457], [16.9090776, 45.0495928]]]}}]}