{"type": "FeatureCollection", "features": [{"type": "Feature", "properties": {"slug": "prince-albert", "members": 2, "country": "Canada"}, "geometry": {"type": "Polygon", "coordinates": [[[-105.5370274, 53.232921], [-105.4955489, 53.2481729], [-105.4352786, 53.2450863], [-105.4078128, 53.2288533], [-105.3693778, 53.2313246], [-105.3087813, 53.2492001], [-105.2895552, 53.246324], [-105.2907397, 53.2605943], [-105.2667071, 53.2536113], [-105.2253367, 53.2668576], [-105.2045829, 53.2577242], [-105.1898028, 53.2637774], [-105.1837947, 53.2570003], [-105.1676585, 53.2601836], [-105.1632125, 53.2458104], [-105.1463725, 53.2562814], [-105.1359011, 53.2438536], [-105.1130702, 53.2401554], [-105.0945307, 53.2505301], [-105.0747943, 53.2247023], [-105.1159287, 53.2152593], [-105.1088047, 53.2091556], [-105.0835276, 53.2134219], [-105.0969601, 53.2048246], [-105.0896001, 53.1887306], [-105.1199627, 53.1963027], [-105.1273012, 53.1931275], [-105.1187182, 53.1829703], [-105.1230312, 53.176489], [-105.1428795, 53.1870849], [-105.2031055, 53.1768861], [-105.2130063, 53.1653573], [-105.2287243, 53.1665597], [-105.2222502, 53.1559758], [-105.2381229, 53.1367795], [-105.2845551, 53.1265796], [-105.3340294, 53.1600016], [-105.4130076, 53.1743949], [-105.4315838, 53.1629357], [-105.4245466, 53.1547851], [-105.4293758, 53.1484014], [-105.4448983, 53.1456154], [-105.4399415, 53.1339105], [-105.4672337, 53.1196328], [-105.5099774, 53.1186412], [-105.494957, 53.0737249], [-105.5098701, 53.0428258], [-105.5295682, 53.0315104], [-105.5434728, 53.0066499], [-105.5631495, 53.0055007], [-105.567956, 53.0171715], [-105.592053, 53.0244383], [-105.6100345, 53.0205405], [-105.6174588, 53.0303103], [-105.6429506, 53.0225024], [-105.6679058, 53.0261806], [-105.7558823, 52.99517], [-105.7696366, 52.971038], [-105.7475567, 52.9471641], [-105.7515049, 52.9405438], [-105.9234882, 52.9005934], [-105.9406758, 52.9137806], [-106.0037412, 52.9137097], [-106.0031115, 53.1524732], [-105.8893143, 53.1672558], [-105.8718049, 53.1790885], [-105.8685691, 53.1963739], [-105.8594453, 53.2031556], [-105.8080778, 53.2049759], [-105.8171882, 53.2082106], [-105.7828505, 53.2122725], [-105.7828467, 53.2200912], [-105.7625284, 53.2201854], [-105.7583491, 53.2289378], [-105.7584632, 53.2199649], [-105.7462538, 53.2199392], [-105.746168, 53.2271847], [-105.7337655, 53.2271847], [-105.7337002, 53.2326804], [-105.684842, 53.2328363], [-105.6847137, 53.2489635], [-105.5862936, 53.2489811], [-105.5862473, 53.2633455], [-105.5371289, 53.2631663], [-105.5370274, 53.232921]], [[-105.5087599, 53.0590285], [-105.4985913, 53.0771022], [-105.511662, 53.0999835], [-105.5120115, 53.1178613], [-105.5082245, 53.1218165], [-105.492434, 53.1252364], [-105.5899699, 53.125024], [-105.5854077, 53.0516407], [-105.5613896, 53.0516458], [-105.5609056, 53.0592191], [-105.5087599, 53.0590285]], [[-105.7493898, 53.1327237], [-105.7370302, 53.1330327], [-105.7372104, 53.1396905], [-105.7494156, 53.1396596], [-105.7493898, 53.1327237]], [[-105.7370302, 53.147212], [-105.7369015, 53.1399685], [-105.7250568, 53.1398295], [-105.7249796, 53.1471039], [-105.7370302, 53.147212]], [[-105.7545196, 53.1796719], [-105.757035, 53.1807661], [-105.7570191, 53.1796788], [-105.7545196, 53.1796719]], [[-105.7378971, 53.1932046], [-105.73875, 53.1935228], [-105.7387468, 53.1932085], [-105.7378971, 53.1932046]], [[-105.7611194, 53.182255], [-105.7625163, 53.1813176], [-105.7604628, 53.1815027], [-105.7611194, 53.182255]], [[-105.7800338, 53.1905105], [-105.777163, 53.187818], [-105.7772396, 53.1904692], [-105.7800338, 53.1905105]], [[-105.7730521, 53.1944594], [-105.7801716, 53.1912443], [-105.773144, 53.1912535], [-105.7730521, 53.1944594]]]}}]}