{"type": "FeatureCollection", "features": [{"type": "Feature", "properties": {"slug": "puerto-iguazu", "members": 1, "country": "Argentina", "input_hash": "955f8b9ae905f262"}, "geometry": {"type": "Polygon", "coordinates": [[[-54.5574541, -25.5872702], [-54.5935346, -25.5927528], [-54.5981448, -25.6231466], [-54.583618, -25.6661967], [-54.6034398, -25.6689887], [-54.6408068, -25.6596185], [-54.6582234, -25.6757837], [-54.6311462, -25.7661517], [-54.587047, -25.8304285], [-54.6223063, -25.9142525], [-54.6210022, -25.9378493], [-54.6077907, -25.9578901], [-54.6106206, -25.9781796], [-54.6218036, -25.9853136], [-54.6634626, -25.9799437], [-54.6793297, -25.9952393], [-54.6780087, -26.0142254], [-54.6430096, -26.0934442], [-54.6518294, -26.1199453], [-54.6740621, -26.142917], [-54.6682853, -26.1661463], [-54.6474552, -26.1838292], [-54.6402539, -26.1510231], [-54.6338466, -26.1499191], [-54.6251052, -26.1651504], [-54.6178491, -26.1486953], [-54.6013293, -26.1618405], [-54.6024233, -26.1507417], [-54.5890252, -26.1546084], [-54.5944273, -26.1370932], [-54.5867263, -26.1324146], [-54.5722044, -26.148626], [-54.5697639, -26.1378662], [-54.5631687, -26.1439536], [-54.5467925, -26.1408666], [-54.5397101, -26.1485422], [-54.5459022, -26.1598311], [-54.5259563, -26.1543372], [-54.531311, -26.1609229], [-54.5182872, -26.1732559], [-54.518295, -26.1657043], [-54.5080552, -26.1655249], [-54.5169259, -26.1613799], [-54.5136684, -26.1566967], [-54.5011437, -26.1500968], [-54.4918056, -26.1589534], [-54.4848846, -26.1560169], [-54.4854937, -26.1419579], [-54.4766088, -26.1498324], [-54.4642522, -26.126233], [-54.4557035, -26.1275748], [-54.4522672, -26.1493988], [-54.4347551, -26.151921], [-54.4311537, -26.120718], [-54.3211032, -26.1422954], [-54.1532291, -26.1427026], [-54.1537056, -26.1179825], [-54.1965091, -26.1034207], [-54.1659409, -25.7613087], [-54.1642891, -25.5423359], [-54.1937327, -25.5345518], [-54.207648, -25.5438257], [-54.2050088, -25.557774], [-54.1745925, -25.572853], [-54.1811478, -25.5855109], [-54.23, -25.562], [-54.2373763, -25.5699693], [-54.235, -25.593], [-54.255077, -25.5961888], [-54.28, -25.556], [-54.2881729, -25.5539346], [-54.33074, -25.5733756], [-54.3483138, -25.6070495], [-54.3714531, -25.5941873], [-54.3839459, -25.5974707], [-54.3975071, -25.6408105], [-54.4254879, -25.6630935], [-54.4239777, -25.6892649], [-54.4328837, -25.6975601], [-54.4456993, -25.6649532], [-54.4691043, -25.6366776], [-54.4999604, -25.614622], [-54.527599, -25.6280658], [-54.5376745, -25.6173766], [-54.5349246, -25.5984713], [-54.5574541, -25.5872702]]]}}]}