{"type": "FeatureCollection", "features": [{"type": "Feature", "properties": {"slug": "puerto-montt", "members": 1, "country": "Chile", "input_hash": "c8c44760869c7d62"}, "geometry": {"type": "MultiPolygon", "coordinates": [[[[-73.1240934, -41.91219], [-73.1610757, -41.9078206], [-73.1179377, -41.9036784], [-73.1168461, -41.8960801], [-73.1380999, -41.8815718], [-73.0935913, -41.9040977], [-73.0785334, -41.8990948], [-73.0794789, -41.8907163], [-73.0662757, -41.8977651], [-73.1240934, -41.91219]]], [[[-73.1624544, -41.8723186], [-73.1311161, -41.8927873], [-73.1825374, -41.8705175], [-73.1624544, -41.8723186]]], [[[-73.0966437, -41.832795], [-73.1169614, -41.8255261], [-73.1226772, -41.8156756], [-73.0846891, -41.834041], [-73.0988914, -41.8537858], [-73.1095464, -41.8349373], [-73.0966437, -41.832795]]], [[[-73.1348786, -41.8319956], [-73.1440558, -41.8386983], [-73.1643158, -41.8183662], [-73.1348786, -41.8319956]]], [[[-73.3388366, -41.7987395], [-73.3212467, -41.8185561], [-73.3474411, -41.8324473], [-73.3277269, -41.8170289], [-73.3354945, -41.8050618], [-73.348691, -41.8025226], [-73.3388366, -41.7987395]]], [[[-73.7999886, -41.7431997], [-73.8216642, -41.7411753], [-73.8107389, -41.7305903], [-73.7999886, -41.7431997]]], [[[-73.5668859, -41.6305342], [-73.5528392, -41.6370395], [-73.5652685, -41.6348344], [-73.5668859, -41.6305342]]], [[[-73.5858078, -41.6281329], [-73.5762828, -41.6238231], [-73.5639757, -41.6398545], [-73.5858078, -41.6281329]]], [[[-73.4977118, -41.5322653], [-73.4983315, -41.541175], [-73.5006585, -41.5367427], [-73.4977118, -41.5322653]]], [[[-73.3955061, -41.5251019], [-73.3939746, -41.5230697], [-73.3920622, -41.5267425], [-73.3955061, -41.5251019]]], [[[-73.3946717, -41.5096638], [-73.3809736, -41.5195652], [-73.3682372, -41.5118872], [-73.360904, -41.5193543], [-73.382543, -41.524879], [-73.3880084, -41.5224489], [-73.3795139, -41.5206034], [-73.3940046, -41.5219325], [-73.3995997, -41.5154016], [-73.4033521, -41.5171428], [-73.4044639, -41.5140349], [-73.4094314, -41.5122534], [-73.406658, -41.5123056], [-73.4027659, -41.514709], [-73.4064032, -41.5103594], [-73.396796, -41.5095473], [-73.3875967, -41.5194607], [-73.3946717, -41.5096638]]], [[[-73.4030083, -41.5193766], [-73.4054652, -41.5188705], [-73.4053016, -41.5146972], [-73.4030083, -41.5193766]]], [[[-73.379078, -41.5127036], [-73.4068645, -41.5039077], [-73.3687005, -41.5114142], [-73.3846838, -41.5151017], [-73.379078, -41.5127036]]], [[[-73.4067626, -41.510266], [-73.4075699, -41.5057908], [-73.4012211, -41.5088499], [-73.4067626, -41.510266]]], [[[-73.4222451, -41.506183], [-73.4226126, -41.5092441], [-73.4344411, -41.5102484], [-73.4222451, -41.506183]]], [[[-73.850133204977, -41.39653834950815], [-73.85003588258441, -41.39665086553251], [-73.8505375, -41.3966827], [-73.850133204977, -41.39653834950815]]], [[[-72.8803021, -41.9072437], [-72.8843817, -41.9089684], [-72.8858033, -41.9082079], [-72.8803021, -41.9072437]]], [[[-72.9044098, -41.8748017], [-72.8933403, -41.8973878], [-72.9198539, -41.8913642], [-72.9374009, -41.8748136], [-72.8972349, -41.870148], [-72.9044098, -41.8748017]]], [[[-73.0568188, -41.8006766], [-73.0975316, -41.7724308], [-73.0662732, -41.7759874], [-73.0874251, -41.7640246], [-73.0719296, -41.7448488], [-73.0888761, -41.752601], [-73.0579556, -41.7319054], [-73.0299265, -41.7702594], [-73.026353, -41.7934642], [-72.9899026, -41.8279624], [-72.9855485, -41.8576452], [-73.0161882, -41.8649946], [-73.0334616, -41.8607918], [-73.0471516, -41.8436179], [-73.0670206, -41.840988], [-73.1156121, -41.8044659], [-73.107839, -41.8001671], [-73.0718845, -41.8204719], [-73.0987412, -41.7966878], [-73.0948198, -41.7902487], [-73.0444747, -41.8217143], [-73.0568188, -41.8006766]]], [[[-73.0980518, -41.761743], [-73.0999267, -41.7642118], [-73.10038, -41.7608877], [-73.0980518, -41.761743]]], [[[-73.0445276, -41.7180982], [-73.0452311, -41.7201706], [-73.0592671, -41.7231676], [-73.0445276, -41.7180982]]], [[[-72.4799475, -41.7010025], [-72.4620639, -41.6958416], [-72.454598, -41.6836256], [-72.4352069, -41.6837918], [-72.4741633, -41.7062231], [-72.4799475, -41.7010025]]], [[[-72.9519303, -41.6951014], [-72.9803069, -41.6880922], [-72.9638626, -41.6944417], [-72.9529969, -41.7166951], [-72.9658018, -41.7243547], [-72.9859076, -41.7206972], [-73.001661, -41.7052927], [-72.9952934, -41.6837264], [-72.9864666, -41.6828593], [-72.9919816, -41.6683392], [-72.9651189, -41.6670033], [-72.9737224, -41.6607931], [-72.9687201, -41.658142], [-72.9025711, -41.6783991], [-72.8867032, -41.6961921], [-72.8953533, -41.7017615], [-72.9293811, -41.6867814], [-72.9085617, -41.7076867], [-72.9299255, -41.711302], [-72.9519303, -41.6951014]]], [[[-72.9927604, -41.6592596], [-72.985277, -41.6603758], [-72.9892816, -41.6635929], [-72.9927604, -41.6592596]]], [[[-73.0545223, -41.6582847], [-73.0545116, -41.6486892], [-73.0476666, -41.6594871], [-73.0545223, -41.6582847]]], [[[-72.3700774, -41.6365047], [-72.3667515, -41.6359916], [-72.3700855, -41.6386557], [-72.3700774, -41.6365047]]], [[[-72.991551, -41.6015929], [-72.9938291, -41.6050447], [-72.9964664, -41.5999376], [-72.991551, -41.6015929]]], [[[-72.9750565, -41.5907126], [-73.0070499, -41.5933665], [-73.0107889, -41.5874808], [-73.0014145, -41.582373], [-73.0231083, -41.5749613], [-73.0163115, -41.5699688], [-73.0193156, -41.5615101], [-72.9750163, -41.5560128], [-72.9737851, -41.5708879], [-72.9607711, -41.5804369], [-72.9750565, -41.5907126]]], [[[-72.768639, -41.5306068], [-72.7680664, -41.5297454], [-72.7645379, -41.5311178], [-72.768639, -41.5306068]]], [[[-72.9489357, -41.4831829], [-72.985783, -41.5168013], [-72.9944381, -41.5113772], [-72.9795075, -41.4923875], [-72.9659463, -41.4931286], [-72.9489357, -41.4831829]]], [[[-73.8334733, -41.4435306], [-73.8401842, -41.43186], [-73.8559395, -41.4285097], [-73.8356513, -41.4109184], [-73.8408387, -41.4063278], [-73.8346213, -41.3956726], [-73.84825651611725, -41.39653794045815], [-73.8345999, -41.3909923], [-73.8334733, -41.3241337], [-73.8486653, -41.2990387], [-73.8431588, -41.2902444], [-73.8593298, -41.27087], [-73.8749886, -41.2037791], [-73.9092082, -41.1665421], [-73.9063489, -41.1511886], [-73.9193013, -41.1446643], [-73.905893, -41.1249078], [-73.9181131, -41.115306], [-73.9238584, -41.120495], [-73.9277744, -41.1095587], [-73.9185315, -41.0841994], [-73.9361047, -41.0610856], [-73.8955442, -41.0269882], [-73.8600103, -41.0319091], [-73.8154642, -41.0097299], [-73.7505762, -41.0275062], [-73.7109224, -41.0514918], [-73.6726419, -41.0360203], [-73.6339435, -41.0643069], [-73.6297485, -41.0543806], [-73.6097285, -41.0469046], [-73.585395, -41.0565079], [-73.5624997, -41.0476081], [-73.5129968, -41.0564109], [-73.4889811, -41.0413982], [-73.466633, -41.0078561], [-73.4307879, -40.9936376], [-73.3812958, -41.0060344], [-73.3762962, -40.9995772], [-73.3559221, -41.0198657], [-73.3351296, -41.0068076], [-73.3280325, -41.0216101], [-73.309367, -41.0092527], [-73.2795167, -41.0061356], [-73.2558596, -40.9920221], [-73.2600385, -40.9881794], [-73.2520938, -40.9784158], [-73.2198536, -40.9857133], [-73.2235712, -40.9922286], [-73.2124347, -40.9958888], [-73.2163185, -41.0026824], [-73.1996083, -41.0048442], [-73.1728506, -40.9845957], [-73.107276, -40.9772211], [-73.0234972, -41.0069169], [-73.0234301, -41.0150411], [-72.993958, -41.0294168], [-72.9170746, -41.0102597], [-72.6258424, -41.1192373], [-72.6013464, -41.1106564], [-72.5807491, -41.1185794], [-72.5558153, -41.1084592], [-72.4958742, -41.1044943], [-72.4744886, -41.0712615], [-72.4247881, -41.0645605], [-72.4224278, -41.0569076], [-72.3884603, -41.0422304], [-72.3703929, -41.0267891], [-72.3659995, -41.000597], [-72.3346874, -41.0013533], [-72.2885748, -40.9848496], [-72.2231718, -40.9523159], [-72.2180005, -40.9408248], [-72.2048684, -40.9432075], [-72.1855834, -40.9233705], [-72.1447011, -40.9508087], [-72.1260759, -40.9548278], [-72.0831391, -40.9544227], [-72.0774099, -40.9436613], [-72.0468971, -40.9460115], [-72.0462104, -40.9267541], [-72.0372411, -40.91748], [-72.0407816, -40.8950676], [-72.0729038, -40.8878493], [-72.0665523, -40.8768013], [-72.0973655, -40.8576211], [-72.0938035, -40.8483211], [-72.1051639, -40.8386772], [-72.0934051, -40.8294233], [-72.0984691, -40.8200706], [-72.0893711, -40.8111713], [-72.1020591, -40.8131515], [-72.1076059, -40.8049741], [-71.9275975, -40.7942331], [-71.9254947, -40.8103744], [-71.9351453, -40.8219125], [-71.9076312, -40.8464395], [-71.9082964, -40.8580322], [-71.8789208, -40.8817468], [-71.858182, -40.8794674], [-71.8690556, -40.8925142], [-71.8556745, -40.9227398], [-71.8668503, -40.9339327], [-71.8549628, -40.9443066], [-71.8572398, -40.9559886], [-71.8877752, -40.9665011], [-71.9024522, -40.9607328], [-71.9051988, -40.9851638], [-71.8750722, -40.9984448], [-71.8581636, -41.0335455], [-71.8453497, -41.0322897], [-71.8196005, -41.0603832], [-71.8453497, -41.0804427], [-71.8515295, -41.098685], [-71.8362517, -41.1169223], [-71.8407665, -41.1497925], [-71.8881634, -41.1608905], [-71.8729479, -41.2056207], [-71.854815, -41.2166988], [-71.8603952, -41.2329785], [-71.8449326, -41.2434165], [-71.855474, -41.248259], [-71.8341815, -41.2712832], [-71.8562722, -41.2574847], [-71.8990374, -41.2554038], [-71.8883783, -41.2644045], [-71.8966609, -41.278899], [-71.8901807, -41.2916894], [-71.8757236, -41.2967194], [-71.8760508, -41.3079589], [-71.8867636, -41.3150748], [-71.8811524, -41.3232293], [-71.9014353, -41.3313546], [-71.8991715, -41.3405784], [-71.9120702, -41.3407355], [-71.9093129, -41.3616715], [-71.8902504, -41.3674993], [-71.8867046, -41.3798979], [-71.8654776, -41.3968517], [-71.8706918, -41.4105704], [-71.8648472, -41.4211306], [-71.8347287, -41.4334889], [-71.8437839, -41.4536874], [-71.837014, -41.4757647], [-71.8280715, -41.4800852], [-71.8508998, -41.5134781], [-71.848952, -41.5330902], [-71.8283446, -41.5518979], [-71.8278346, -41.5727736], [-71.8173102, -41.5750149], [-71.830097, -41.573287], [-71.844851, -41.565628], [-71.8858775, -41.6051558], [-71.8667467, -41.6220686], [-71.8569911, -41.6452738], [-71.8365634, -41.6456346], [-71.8371052, -41.6661918], [-71.8297559, -41.6757126], [-71.8177825, -41.6699306], [-71.8169564, -41.6899111], [-71.7943668, -41.6947461], [-71.7915881, -41.703706], [-71.8103582, -41.720529], [-71.7841798, -41.7349618], [-71.7752373, -41.7677588], [-71.7540586, -41.787129], [-71.7739928, -41.7937204], [-71.7651093, -41.8166731], [-71.7513442, -41.8249084], [-71.794897, -41.8357861], [-71.7897472, -41.8897363], [-71.7747701, -41.907396], [-71.7713369, -41.9449448], [-71.7937328, -41.9440668], [-71.7951156, -41.9509517], [-71.7735025, -42.0076511], [-71.7542034, -42.0247635], [-71.7621956, -42.0331026], [-71.7282499, -42.0462418], [-71.7254799, -42.0600472], [-71.7399802, -42.0724422], [-71.7409124, -42.0830283], [-71.7253787, -42.1101212], [-71.7308752, -42.1228132], [-71.7467653, -42.1303419], [-71.7765466, -42.1304418], [-71.7817497, -42.1480809], [-71.8034488, -42.1455712], [-71.8347341, -42.1625684], [-71.8459189, -42.1540545], [-71.8744522, -42.1547067], [-71.8928576, -42.1807337], [-71.9237459, -42.1904125], [-71.9545966, -42.1643895], [-71.9575471, -42.1412516], [-72.0068622, -42.1400901], [-72.05276, -42.11375], [-72.0793283, -42.1283378], [-72.0651663, -42.1382673], [-72.0660246, -42.1482589], [-72.0846498, -42.1439316], [-72.0925462, -42.1538586], [-72.1141756, -42.146913], [-72.1259344, -42.15404], [-72.1688497, -42.13814], [-72.1876574, -42.1637253], [-72.2163141, -42.139658], [-72.2529638, -42.1365489], [-72.2533071, -42.1284015], [-72.2740781, -42.1213894], [-72.2775114, -42.0865021], [-72.2582853, -42.0738887], [-72.2611177, -42.060062], [-72.3235982, -42.0565571], [-72.3160494, -42.0352588], [-72.299484, -42.0289473], [-72.3018015, -42.0177891], [-72.2570837, -41.9924049], [-72.2287595, -42.0038226], [-72.2240389, -42.0179262], [-72.1736562, -42.0092438], [-72.1838701, -41.9873651], [-72.1607816, -41.9433297], [-72.182926, -41.9315275], [-72.2015512, -41.9333058], [-72.2157133, -41.9193208], [-72.1926248, -41.9110817], [-72.1827543, -41.8935875], [-72.2286737, -41.8756858], [-72.2394026, -41.8866133], [-72.2672117, -41.8829071], [-72.2777689, -41.8634141], [-72.299484, -41.8603458], [-72.2890985, -41.8379683], [-72.2963083, -41.8234508], [-72.3633421, -41.8055391], [-72.3954385, -41.781296], [-72.4957745, -41.8482086], [-72.5208371, -41.8490398], [-72.5223005, -41.8339396], [-72.5353468, -41.8327245], [-72.5462473, -41.8179499], [-72.5683015, -41.8237802], [-72.5785196, -41.8178219], [-72.5735371, -41.7947353], [-72.5937116, -41.7899263], [-72.5936258, -41.7743737], [-72.6108778, -41.7664359], [-72.605037, -41.7510793], [-72.6124184, -41.7380792], [-72.6471284, -41.7301605], [-72.6017723, -41.7362374], [-72.587857, -41.7474408], [-72.5753552, -41.7442469], [-72.5818998, -41.7406365], [-72.5767821, -41.7338155], [-72.5693737, -41.7465818], [-72.5090133, -41.7226351], [-72.4650707, -41.7251996], [-72.3952675, -41.7009745], [-72.3852307, -41.6834973], [-72.3593527, -41.6760452], [-72.3274157, -41.6480397], [-72.3165581, -41.6562146], [-72.3266378, -41.6241145], [-72.3211125, -41.5831313], [-72.3044667, -41.5349467], [-72.2873462, -41.5242926], [-72.2853291, -41.5072817], [-72.2788811, -41.5057381], [-72.2845218, -41.5041914], [-72.2754184, -41.5042918], [-72.2778967, -41.4984301], [-72.3152518, -41.4935131], [-72.3104506, -41.4660676], [-72.2844863, -41.4191756], [-72.2861841, -41.4018796], [-72.2750529, -41.3902086], [-72.3116523, -41.3769454], [-72.3324435, -41.394242], [-72.3221625, -41.4219764], [-72.3263133, -41.4270375], [-72.3203038, -41.4249409], [-72.3110193, -41.4079613], [-72.300041, -41.4147002], [-72.3012105, -41.4226652], [-72.3268221, -41.4501472], [-72.3304948, -41.4882251], [-72.3246503, -41.5001025], [-72.3384033, -41.5120641], [-72.362012, -41.6234854], [-72.3892338, -41.6510075], [-72.3867064, -41.6606298], [-72.4401717, -41.6774976], [-72.4498706, -41.6728758], [-72.4792019, -41.6902587], [-72.5130218, -41.6867484], [-72.5450093, -41.7098981], [-72.6144616, -41.7101939], [-72.6478015, -41.6962702], [-72.64079, -41.68865], [-72.6644789, -41.6640043], [-72.670115, -41.6165338], [-72.6887286, -41.6171301], [-72.6925635, -41.6050702], [-72.7044771, -41.6009563], [-72.7087588, -41.5945469], [-72.7029692, -41.5889898], [-72.7186622, -41.5820317], [-72.7378399, -41.55238], [-72.7396309, -41.5320334], [-72.7513737, -41.5548748], [-72.7660319, -41.5272967], [-72.8046906, -41.5017678], [-72.8264165, -41.4949978], [-72.8517473, -41.5086817], [-72.862924, -41.5023122], [-72.8473022, -41.5022427], [-72.8600762, -41.4895071], [-72.8859213, -41.4993843], [-72.91987, -41.4757828], [-72.9390958, -41.4727902], [-72.9674699, -41.4894153], [-72.9824411, -41.4878493], [-72.9994825, -41.5122699], [-73.0250756, -41.5108088], [-73.0409342, -41.5188444], [-73.0396415, -41.5295519], [-73.0445163, -41.5240998], [-73.0449334, -41.529395], [-73.0315824, -41.5613706], [-73.0694066, -41.5668148], [-73.0964483, -41.5890767], [-73.0838346, -41.6067312], [-73.0641706, -41.6136137], [-73.0870493, -41.6193778], [-73.0746683, -41.6354188], [-73.0541903, -41.644506], [-73.0670275, -41.6654762], [-73.03778, -41.7045191], [-73.0610983, -41.7215577], [-73.0972876, -41.69902], [-73.0934351, -41.7288777], [-73.1066182, -41.7473611], [-73.1355842, -41.754686], [-73.1600188, -41.7389008], [-73.1442798, -41.7091067], [-73.1528566, -41.7009162], [-73.1530604, -41.7141801], [-73.172029, -41.7407438], [-73.160636, -41.7533936], [-73.1275698, -41.7619812], [-73.1343102, -41.7652111], [-73.124385, -41.7781388], [-73.1329701, -41.7766837], [-73.1559607, -41.8079049], [-73.1766928, -41.8060566], [-73.1901069, -41.7954339], [-73.1577886, -41.7976668], [-73.1345809, -41.7656103], [-73.1512269, -41.7619332], [-73.1576103, -41.7747493], [-73.1801464, -41.7758486], [-73.1907505, -41.7820642], [-73.1787866, -41.788044], [-73.1762411, -41.7772048], [-73.1583543, -41.7764144], [-73.1604107, -41.7910807], [-73.1738996, -41.7918956], [-73.1931656, -41.784941], [-73.2075506, -41.7945393], [-73.2148098, -41.787199], [-73.2053939, -41.782153], [-73.2138066, -41.781863], [-73.219273, -41.788519], [-73.2121693, -41.7944273], [-73.2431781, -41.7998193], [-73.2347964, -41.773199], [-73.2192099, -41.7752045], [-73.2393401, -41.7645009], [-73.23511, -41.7523251], [-73.2479524, -41.7346257], [-73.246563, -41.7204491], [-73.2312213, -41.7383793], [-73.2125395, -41.7362698], [-73.1906714, -41.7567952], [-73.1984066, -41.785669], [-73.1886391, -41.7805195], [-73.1825282, -41.7572874], [-73.1905588, -41.7452571], [-73.2223209, -41.7314752], [-73.2311722, -41.7172778], [-73.2539766, -41.7120722], [-73.2630079, -41.7307093], [-73.248878, -41.7629884], [-73.2688268, -41.7536156], [-73.2394045, -41.7727029], [-73.2543117, -41.787557], [-73.3778089, -41.7632376], [-73.4061043, -41.765681], [-73.4074634, -41.7773688], [-73.3766716, -41.780385], [-73.3578621, -41.7936472], [-73.3619659, -41.8027292], [-73.3488037, -41.8112675], [-73.3914077, -41.8060294], [-73.4195655, -41.7828172], [-73.4751222, -41.8002722], [-73.5538638, -41.7692752], [-73.6498761, -41.7583977], [-73.6978206, -41.7445445], [-73.7071949, -41.752503], [-73.7596884, -41.7459028], [-73.7605494, -41.7396693], [-73.7309218, -41.7384004], [-73.7027586, -41.6984952], [-73.6864024, -41.6597115], [-73.6938743, -41.6546636], [-73.6886287, -41.65006], [-73.6969192, -41.6336894], [-73.6885544, -41.6295295], [-73.6730839, -41.6388757], [-73.6648428, -41.6536835], [-73.6829245, -41.658796], [-73.6991859, -41.7119438], [-73.6832026, -41.7084758], [-73.6857909, -41.7019397], [-73.6318517, -41.6670734], [-73.6652076, -41.6721745], [-73.6586952, -41.646276], [-73.6504769, -41.6448149], [-73.6712531, -41.6374522], [-73.6535712, -41.6031496], [-73.5934817, -41.6157219], [-73.5931606, -41.6276521], [-73.5654399, -41.6474501], [-73.5528636, -41.6716742], [-73.5533638, -41.659209], [-73.5417301, -41.6669001], [-73.5555201, -41.65477], [-73.5520855, -41.648982], [-73.5151501, -41.6616999], [-73.5335927, -41.6459177], [-73.5229297, -41.6404745], [-73.5501838, -41.6392005], [-73.5736201, -41.61803], [-73.5631853, -41.608188], [-73.5355232, -41.6057703], [-73.4933344, -41.6288021], [-73.5044521, -41.6194668], [-73.4901962, -41.6160259], [-73.5136414, -41.6156188], [-73.5089958, -41.586905], [-73.5029725, -41.5817612], [-73.4668729, -41.5898661], [-73.4888101, -41.58024], [-73.4808433, -41.5635411], [-73.49497, -41.5726201], [-73.5003161, -41.5688511], [-73.4883428, -41.5302865], [-73.4549546, -41.5238448], [-73.4271991, -41.5128193], [-73.4183639, -41.5072757], [-73.4084993, -41.5184824], [-73.3942943, -41.5229968], [-73.395718, -41.524875], [-73.3950636, -41.525879], [-73.3963913, -41.5267304], [-73.3904394, -41.5283208], [-73.3881354, -41.5234994], [-73.3878913, -41.5310997], [-73.3875158, -41.525371], [-73.3771545, -41.5302002], [-73.3814943, -41.5257465], [-73.3719399, -41.5286629], [-73.3757544, -41.5237785], [-73.3675438, -41.5268617], [-73.3718997, -41.5235986], [-73.3620188, -41.5197803], [-73.3539667, -41.5272076], [-73.330783, -41.5081629], [-73.3279264, -41.5163594], [-73.3285353, -41.5020444], [-73.349545, -41.5220488], [-73.3727201, -41.5022826], [-73.4150541, -41.4951505], [-73.475318, -41.5132049], [-73.5017692, -41.5318255], [-73.531201, -41.5896288], [-73.555298, -41.5941223], [-73.5644362, -41.5798826], [-73.5688243, -41.5899819], [-73.5774457, -41.5834604], [-73.5719445, -41.5913024], [-73.58888, -41.5876373], [-73.5713759, -41.5942772], [-73.582145, -41.6055716], [-73.5990241, -41.6059176], [-73.6349872, -41.5818654], [-73.6543871, -41.5853157], [-73.6632169, -41.5723082], [-73.6172444, -41.5612532], [-73.6096108, -41.5511414], [-73.6049438, -41.5565849], [-73.6026532, -41.5563119], [-73.5900146, -41.5455649], [-73.6041391, -41.5558623], [-73.6106086, -41.5491582], [-73.6250281, -41.5595152], [-73.6446405, -41.5587083], [-73.6608624, -41.5375829], [-73.6608169, -41.5302704], [-73.6541918, -41.5315696], [-73.6524859, -41.529656], [-73.6651969, -41.5267364], [-73.6800617, -41.5047528], [-73.6612809, -41.4983246], [-73.681435, -41.5010326], [-73.7145048, -41.4891486], [-73.6750567, -41.540779], [-73.6783183, -41.5740322], [-73.6728117, -41.5803225], [-73.681486, -41.5866723], [-73.6936712, -41.5707795], [-73.6997491, -41.5734784], [-73.6827815, -41.5876152], [-73.6563081, -41.5902472], [-73.6750621, -41.6021219], [-73.680979, -41.5934849], [-73.6998671, -41.59319], [-73.7272525, -41.5659654], [-73.7552494, -41.5571187], [-73.7726516, -41.5603621], [-73.769787, -41.5713233], [-73.7923229, -41.5821222], [-73.7829673, -41.5534778], [-73.7997365, -41.504801], [-73.824783, -41.4948532], [-73.8398194, -41.4647953], [-73.8540271, -41.4636798], [-73.8334733, -41.4435306]]], [[[-72.3093939, -41.388795], [-72.3173607, -41.3857412], [-72.3115028, -41.3821953], [-72.3093939, -41.388795]]]]}}]}