{"type":"FeatureCollection","features":[{"type":"Feature","properties":{"slug":"puyang","member_count":6,"matched_count":6,"unmatched":[],"source":"Overture Maps division_area (CC-BY 4.0)"},"geometry":{"type":"MultiPolygon","coordinates":[[[[114.9143003,35.6815512],[114.9068072,35.6966441],[114.8973923,35.6949159],[114.8973489,35.7046608],[114.9091172,35.706691],[114.8960505,35.7307903],[114.8818502,35.7338303],[114.8786208,35.7592801],[114.8905302,35.7610904],[114.9101902,35.7834801],[114.9339605,35.7887701],[114.9438306,35.8177503],[114.9349504,35.8264604],[114.9262502,35.8242701],[114.9255205,35.8521302],[114.9480904,35.8570803],[114.9673082,35.8845376],[114.9653987,35.8946474],[114.9755986,35.9087574],[114.9650485,35.9293075],[114.9824383,35.9663473],[114.9745884,35.9809473],[114.9776484,36.0027075],[114.9732486,35.998237],[114.9749886,36.0032175],[114.96996,35.9973905],[114.9663784,35.9994672],[114.9788386,36.0259074],[114.9299185,36.0403472],[114.9197686,36.0555278],[114.962095,36.070606],[114.983839,36.059491],[115.002691,36.071241],[115.001424,36.078061],[115.043454,36.11473],[115.036885,36.130458],[115.045585,36.145712],[115.038914,36.156259],[115.051886,36.164218],[115.05341,36.17922],[115.095043,36.171183],[115.095523,36.194102],[115.123675,36.21239],[115.143014,36.210534],[115.157934,36.198226],[115.155117,36.192795],[115.165923,36.189436],[115.16655,36.1949],[115.167745,36.195528],[115.167945,36.188068],[115.180432,36.192227],[115.195854,36.212666],[115.202517,36.209892],[115.199207,36.202887],[115.245449,36.189675],[115.267854,36.139316],[115.297768,36.13017],[115.291067,36.100828],[115.315327,36.085515],[115.35985,36.098092],[115.369173,36.112729],[115.364656,36.122372],[115.373584,36.131241],[115.386922,36.12902],[115.398981,36.159693],[115.39826,36.142309],[115.413013,36.134782],[115.431225,36.150065],[115.442907,36.146522],[115.445548,36.174015],[115.465058,36.166667],[115.462342,36.151702],[115.4771892,36.1481809],[115.482491,36.130099],[115.476754,36.114507],[115.464477,36.109905],[115.470791,36.105557],[115.460288,36.078936],[115.452649,36.078442],[115.453596,36.063197],[115.435534,36.055573],[115.444075,36.041532],[115.441263,36.008932],[115.40596,36.005161],[115.405606,35.995696],[115.3910498,35.9939927],[115.380107,35.972941],[115.352058,35.975239],[115.354549,35.955241],[115.34579,35.941481],[115.356431,35.933503],[115.361219,35.899676],[115.350873,35.870007],[115.332807,35.868763],[115.343385,35.85837],[115.3291833,35.8351587],[115.3360712,35.8268779],[115.3272629,35.8177784],[115.3260183,35.7959388],[115.3577435,35.7774967],[115.3344092,35.7626024],[115.3485671,35.7527908],[115.3402895,35.7366825],[115.3504217,35.7383945],[115.344834,35.7143681],[115.351596,35.6992004],[115.3854247,35.690223],[115.3710491,35.6763846],[115.3621034,35.6876343],[115.3452923,35.6884352],[115.3456176,35.6797257],[115.3591168,35.6720063],[115.3580005,35.6392792],[115.3876439,35.6550087],[115.3871637,35.638895],[115.4325771,35.6243727],[115.4083728,35.6248611],[115.4021072,35.5948904],[115.391947,35.5937998],[115.3768515,35.5689055],[115.365994,35.5702757],[115.3629148,35.560082],[115.3548574,35.5648038],[115.3520894,35.5552379],[115.3394294,35.553335],[115.3589934,35.5409524],[115.3466177,35.5412361],[115.3417682,35.5222374],[115.3549893,35.4947552],[115.320987,35.4878788],[115.3169632,35.4773419],[115.2732324,35.4619633],[115.2133164,35.4072113],[115.1897351,35.4243846],[115.162515,35.4283784],[115.1189518,35.4184855],[115.1154113,35.3999125],[115.1104331,35.418468],[115.1085448,35.403498],[115.0832891,35.4152504],[115.0777316,35.4111757],[115.0811219,35.3929858],[115.0691271,35.3759116],[115.0178137,35.3727063],[115.0116715,35.3320438],[114.9856567,35.3358884],[114.9573133,35.3649674],[114.9407441,35.3710816],[114.9598407,35.4016004],[114.9805104,35.4125403],[114.9747905,35.4353203],[114.9564204,35.4391702],[114.9663307,35.4790503],[114.9307802,35.4828203],[114.9365102,35.4979803],[114.9639906,35.5066602],[114.9629806,35.5400302],[114.9534003,35.5532503],[114.9569104,35.5716703],[114.9255804,35.59015],[114.9103703,35.5873403],[114.8804801,35.6043602],[114.8636406,35.6046303],[114.8697105,35.6082202],[114.8690702,35.6296603],[114.8960662,35.6450562],[114.8986839,35.6623843],[114.9110024,35.6675181],[114.9143003,35.6815512]]],[[[115.6556189,35.9246011],[115.679791,35.9234977],[115.6894254,35.9445899],[115.704832,35.9520942],[115.7317828,35.9474389],[115.7840967,35.9687678],[115.7927227,35.976756],[115.7744836,35.9792217],[115.7743599,35.9938088],[115.7947723,36.0084951],[115.830832,36.0114],[115.854435,36.0025644],[115.8614516,36.0167194],[115.8864283,36.0266291],[115.913612,36.0202953],[115.9293459,36.0329028],[115.9843419,36.0467488],[116.0081813,36.0608178],[116.0509036,36.105645],[116.0971878,36.1132293],[116.0820065,36.080668],[116.0843287,36.0661312],[116.0743868,36.0586142],[116.0860705,36.0579966],[116.0699129,36.0566887],[116.0710019,36.0323288],[116.0677907,36.0259008],[116.0572979,36.0287294],[116.0426339,35.9698017],[116.032598,35.9639397],[115.9851551,35.9756099],[115.9062725,35.9602872],[115.9021262,35.926837],[115.8648677,35.9150847],[115.8792031,35.9090173],[115.8834565,35.8973771],[115.8696699,35.8597004],[115.8645658,35.8728091],[115.8575326,35.8556655],[115.8158131,35.8527471],[115.8111302,35.8442927],[115.7676962,35.8544386],[115.7474022,35.8330485],[115.6932807,35.8409147],[115.6897931,35.8501295],[115.6971429,35.8474514],[115.707607,35.8655524],[115.7077323,35.8635503],[115.7133427,35.863862],[115.6871031,35.8880861],[115.7008902,35.8960471],[115.6928433,35.9078507],[115.6802254,35.9018197],[115.67435,35.9197341],[115.6556189,35.9246011]]]]}}]}