{"type":"FeatureCollection","features":[{"type":"Feature","properties":{"slug":"pyeongchang","member_count":1,"matched_count":1,"unmatched":[],"source":"Overture Maps division_area (CC-BY 4.0)"},"geometry":{"type":"Polygon","coordinates":[[[128.3142619,37.7016983],[128.2765766,37.6688794],[128.2703444,37.632664],[128.2538964,37.6273705],[128.2830418,37.6205613],[128.2793761,37.6105423],[128.2859931,37.6018664],[128.2792943,37.5918695],[128.2949229,37.5688013],[128.2938851,37.5450037],[128.3022663,37.5379617],[128.2975631,37.5118326],[128.2768167,37.5025152],[128.263862,37.4846292],[128.243529,37.4797203],[128.2462759,37.4459924],[128.2577288,37.4385024],[128.2592026,37.4168794],[128.2651354,37.4083803],[128.2932731,37.4021328],[128.2975116,37.3887036],[128.3259375,37.3780692],[128.316481,37.3534933],[128.3244778,37.3213701],[128.3575909,37.3085671],[128.3718718,37.2912422],[128.4088487,37.294659],[128.4046874,37.3208497],[128.4205938,37.3436568],[128.4528213,37.3356897],[128.4637714,37.3222529],[128.4624721,37.3084905],[128.4966854,37.3033974],[128.5008758,37.2892866],[128.5564258,37.2885191],[128.5747412,37.279722],[128.5759135,37.2671233],[128.5820253,37.2667232],[128.5963543,37.2826215],[128.579574,37.2987189],[128.5839596,37.3105963],[128.5662057,37.3453143],[128.5472487,37.3549803],[128.5536991,37.3705299],[128.5404345,37.3968345],[128.5139292,37.4041045],[128.5059735,37.416562],[128.5189943,37.434447],[128.5132077,37.4551041],[128.5238032,37.4636233],[128.5521937,37.4564498],[128.5634322,37.4613657],[128.5565905,37.4890271],[128.5650675,37.5024051],[128.5721137,37.4902339],[128.5844585,37.4872953],[128.5753318,37.4937511],[128.5771707,37.5111277],[128.5883633,37.5572398],[128.600907,37.5695915],[128.6251659,37.5731661],[128.6324427,37.5425627],[128.6403718,37.5406914],[128.6451078,37.5531294],[128.673868,37.5559178],[128.6673151,37.5687331],[128.679668,37.5708423],[128.6841044,37.5938252],[128.7120731,37.5886364],[128.7230244,37.6113164],[128.7365599,37.6097499],[128.7286974,37.6368042],[128.7334701,37.6548969],[128.7651105,37.6735157],[128.743799,37.741432],[128.6983717,37.7713337],[128.6708474,37.7668766],[128.6373395,37.7824636],[128.623625,37.7695862],[128.6024446,37.7693483],[128.5999639,37.808816],[128.5827355,37.8213851],[128.5696643,37.8074106],[128.5563834,37.8094583],[128.5437571,37.8002276],[128.5239505,37.7640147],[128.5235137,37.7302298],[128.4578062,37.7308124],[128.4449201,37.7176569],[128.4439491,37.7007311],[128.4154881,37.6879841],[128.359894,37.6993489],[128.3233718,37.6900435],[128.3142619,37.7016983]]]}}]}