{"type": "FeatureCollection", "features": [{"type": "Feature", "properties": {"slug": "pyongyang", "members": 26, "country": "North Korea", "input_hash": "c97ef77c411fb7bc"}, "geometry": {"type": "MultiPolygon", "coordinates": [[[[124.8747066, 38.5429325], [124.8723224, 38.5341406], [124.8866807, 38.5273572], [124.8965042, 38.5060387], [124.880759, 38.5019526], [124.8734699, 38.5156229], [124.8753771, 38.501241], [124.8232135, 38.5265505], [124.7983699, 38.5240499], [124.7958019, 38.5322549], [124.786364, 38.5229947], [124.8005026, 38.51394], [124.769572, 38.5214775], [124.78338, 38.5236432], [124.7768193, 38.5412867], [124.8029333, 38.5416203], [124.8177794, 38.5646914], [124.8543615, 38.5423919], [124.8747066, 38.5429325]]], [[[125.0965896, 38.7310898], [125.0999156, 38.7279804], [125.0947174, 38.7294661], [125.0965896, 38.7310898]]], [[[125.2729459, 39.8575082], [125.2262239, 39.8624429], [125.2224756, 39.8763468], [125.2504075, 39.9012054], [125.2811263, 39.8827527], [125.2729459, 39.8575082]]], [[[125.248412, 38.9678417], [125.2576986, 38.9582799], [125.2892712, 38.9716362], [125.3294684, 38.9581592], [125.3483816, 38.9804192], [125.3354999, 39.0065899], [125.348232, 39.019723], [125.3730523, 39.0217608], [125.4121111, 39.0057956], [125.4315305, 39.0100473], [125.4649638, 39.0326349], [125.4723788, 39.0328202], [125.4739952, 39.0106142], [125.482471, 39.0104808], [125.5310968, 39.0356445], [125.5563635, 39.0322219], [125.5803005, 39.0417102], [125.5866158, 39.0355029], [125.5865333, 39.075941], [125.6271601, 39.0780336], [125.6572496, 39.0637076], [125.6655264, 39.0850543], [125.6551838, 39.0936939], [125.6598058, 39.0989687], [125.6467724, 39.1048551], [125.6658804, 39.1143705], [125.6742704, 39.1093591], [125.6770129, 39.1170603], [125.6580653, 39.125429], [125.6394064, 39.151296], [125.6517935, 39.1587006], [125.6480491, 39.1701384], [125.6603765, 39.1686329], [125.6619429, 39.1751373], [125.6207335, 39.1995939], [125.635432, 39.2193209], [125.6334579, 39.2275908], [125.6160772, 39.2334789], [125.622375, 39.2419092], [125.6192958, 39.2578945], [125.6366147, 39.2655406], [125.6642818, 39.2376511], [125.6701991, 39.2533751], [125.7276463, 39.2794987], [125.744791, 39.2642909], [125.7692956, 39.2613669], [125.7696135, 39.2427737], [125.7968902, 39.2190882], [125.8369356, 39.2206841], [125.8591389, 39.2428232], [125.8838135, 39.2356511], [125.8737301, 39.2305332], [125.8830642, 39.2167608], [125.9479737, 39.2184399], [125.965588, 39.2403232], [125.9560683, 39.2560941], [125.9637755, 39.2783536], [125.9603432, 39.3015883], [125.9778571, 39.3055856], [125.9945465, 39.301175], [125.999836, 39.2732935], [126.020723, 39.2568], [126.0085004, 39.2381814], [126.0356499, 39.2398824], [126.037817, 39.2307739], [126.0564852, 39.2354111], [126.0660553, 39.2223797], [126.0912895, 39.2161291], [126.0843801, 39.1868303], [126.095581, 39.1697309], [126.1354065, 39.1779318], [126.1424017, 39.1657798], [126.1644494, 39.1615789], [126.1779836, 39.1490603], [126.2039208, 39.1628267], [126.2491, 39.1515707], [126.2484455, 39.1393476], [126.2326004, 39.1327495], [126.215465, 39.1094007], [126.2345838, 39.0880689], [126.2579298, 39.0821062], [126.2586164, 39.0657145], [126.2823486, 39.0518184], [126.3032055, 39.0624156], [126.3478589, 39.050202], [126.3326671, 39.0207765], [126.3916218, 38.9733564], [126.3873838, 38.9631862], [126.4033269, 38.9511324], [126.4016532, 38.9353445], [126.3915128, 38.9258167], [126.2971199, 38.9651099], [126.2841498, 38.9523543], [126.2804569, 38.96059], [126.2695897, 38.9546527], [126.2675053, 38.9634716], [126.2572486, 38.9615135], [126.2476301, 38.9750871], [126.2339546, 38.9785098], [126.2391422, 38.9872566], [126.200806, 38.9880011], [126.181732, 38.9968464], [126.175432, 38.9940711], [126.1809774, 38.9836952], [126.1686884, 38.9872013], [126.168261, 38.9746498], [126.1516744, 38.9775306], [126.1521781, 38.9670539], [126.1311519, 38.9772059], [126.1116981, 38.9657939], [126.0963349, 38.9822784], [126.1023617, 39.0135319], [126.0983276, 39.063282], [126.0728514, 39.0724807], [126.0642957, 39.0865034], [126.046164, 39.0887185], [126.0271311, 39.0795577], [126.0048899, 39.0960566], [125.9680113, 39.0946139], [125.9486644, 39.0812412], [125.9363584, 39.0545274], [125.8888404, 39.0570934], [125.8777427, 39.040653], [125.9217632, 39.0275272], [125.9241564, 39.0041591], [125.9541875, 38.9976228], [125.9646796, 38.9857629], [125.9685738, 38.963606], [125.9934647, 38.9506577], [125.9910365, 38.9253097], [125.9780101, 38.9241255], [125.958414, 38.9059399], [125.9335552, 38.9080605], [125.9212267, 38.8772529], [125.9062171, 38.8848865], [125.8437537, 38.8879598], [125.8222879, 38.885641], [125.8059454, 38.8734608], [125.7542323, 38.8897803], [125.7470655, 38.882498], [125.7125203, 38.8793628], [125.6921069, 38.863547], [125.70166, 38.8536411], [125.687456, 38.849735], [125.6846476, 38.8267462], [125.6697426, 38.8291439], [125.6621484, 38.814393], [125.6235993, 38.8071788], [125.6251451, 38.7989997], [125.6106417, 38.805088], [125.610041, 38.7916735], [125.57732706432523, 38.80307844602138], [125.5874506, 38.7458922], [125.6203839, 38.7300575], [125.6095826, 38.6904145], [125.6304944, 38.6648235], [125.6137979, 38.6500009], [125.5997008, 38.6524778], [125.5546319, 38.7044911], [125.4391595, 38.7262025], [125.2354632, 38.6722437], [125.2377032, 38.6563931], [125.2513075, 38.6433194], [125.2425656, 38.6354163], [125.2223032, 38.6397023], [125.2038951, 38.6215862], [125.1857328, 38.629421], [125.1677513, 38.6709864], [125.1776677, 38.6786818], [125.1686659, 38.682321], [125.1904029, 38.682694], [125.2350742, 38.7416522], [125.2304332, 38.7459106], [125.2498376, 38.7509296], [125.2435882, 38.7527615], [125.24927, 38.75739], [125.2437801, 38.7652099], [125.2541868, 38.7719486], [125.2425332, 38.7718943], [125.2563904, 38.789021], [125.2418819, 38.7740999], [125.2387828, 38.781365], [125.2495534, 38.7983762], [125.2324969, 38.7883955], [125.2378904, 38.8157777], [125.2310764, 38.8037733], [125.2156574, 38.8103822], [125.2360237, 38.7804921], [125.2380761, 38.7551605], [125.2300391, 38.7468204], [125.21663, 38.75159], [125.2263338, 38.740735], [125.2068992, 38.7330439], [125.1981541, 38.7155213], [125.1210636, 38.7560545], [125.1471104, 38.7855919], [125.13365, 38.81195], [125.1522189, 38.8400426], [125.1425241, 38.8408867], [125.1445199, 38.85154], [125.1593935, 38.8535832], [125.177103, 38.8750586], [125.1588668, 38.8559894], [125.1456071, 38.856283], [125.1261919, 38.8801846], [125.146702, 38.879018], [125.158314, 38.9028836], [125.1755109, 38.9441151], [125.1507995, 38.950453], [125.1771847, 38.9996028], [125.2434895, 38.9941718], [125.2510687, 38.9828434], [125.248412, 38.9678417]], [[125.59044269032769, 39.008100607716266], [125.5898721, 39.0078978], [125.58962405645376, 39.00633095030217], [125.59044269032769, 39.008100607716266]], [[125.5857038, 39.0000426], [125.5855965, 38.9976245], [125.58764332915005, 39.002049172000646], [125.5857038, 39.0000426]], [[125.58559238551813, 38.975402284730585], [125.58540768083746, 38.97564985875853], [125.5858661525324, 38.975035333540134], [125.58559238551813, 38.975402284730585]], [[125.6358031, 38.9632611], [125.6339491, 38.9545314], [125.6350694, 38.9584826], [125.6358031, 38.9632611]], [[125.5674492, 38.8114444], [125.5759740561661, 38.804980951889824], [125.5743837, 38.8072172], [125.5674492, 38.8114444]]]]}}]}