{"type": "FeatureCollection", "features": [{"type": "Feature", "properties": {"slug": "qingyuan", "members": 8, "country": "China", "input_hash": "87e6d8f998633aa3"}, "geometry": {"type": "Polygon", "coordinates": [[[113.74318, 24.0294406], [113.7135625, 23.9950385], [113.7271148, 23.9845419], [113.7351919, 23.9633664], [113.7696627, 23.9579141], [113.7704268, 23.9410997], [113.7951874, 23.9256967], [113.7955637, 23.9062159], [113.7766304, 23.8994721], [113.7716159, 23.8814481], [113.7527216, 23.8601263], [113.7195458, 23.8561836], [113.7062786, 23.8635607], [113.7129679, 23.8237311], [113.7009878, 23.817851], [113.6824733, 23.828324], [113.6770368, 23.8148239], [113.6415121, 23.8215946], [113.6282729, 23.7995101], [113.6104193, 23.7904119], [113.6312202, 23.7529938], [113.6230182, 23.7139171], [113.6333034, 23.7076208], [113.6177136, 23.702361], [113.5933553, 23.6658375], [113.582165, 23.6780135], [113.5628007, 23.6824752], [113.5530438, 23.703789], [113.5393749, 23.7054614], [113.5331283, 23.7018022], [113.5399107, 23.6985591], [113.507202, 23.6842981], [113.4753407, 23.6862816], [113.4630914, 23.6936749], [113.4588141, 23.7104632], [113.4383277, 23.7183754], [113.4363743, 23.729495], [113.4045779, 23.7236276], [113.3728067, 23.7339767], [113.3698467, 23.7152699], [113.3581892, 23.709627], [113.3435794, 23.67045], [113.3225031, 23.6579936], [113.3218083, 23.6469361], [113.2838833, 23.6469388], [113.2940566, 23.6394541], [113.2759665, 23.6109427], [113.2712008, 23.6185857], [113.2431186, 23.6041839], [113.2350196, 23.6088281], [113.2390556, 23.5894682], [113.2225194, 23.5969963], [113.2216171, 23.5883136], [113.1968426, 23.5790582], [113.1953751, 23.5643729], [113.2073261, 23.5428361], [113.1848209, 23.5176039], [113.1663542, 23.5145997], [113.167075, 23.5228047], [113.1599951, 23.5115132], [113.1105995, 23.5130755], [113.1099236, 23.503916], [113.0782311, 23.4969171], [113.0488299, 23.4729816], [113.0202565, 23.4744162], [113.0098147, 23.4626547], [112.9881267, 23.4694648], [112.9636468, 23.465992], [112.9540443, 23.4486011], [112.9238732, 23.4673474], [112.9284299, 23.4747619], [112.9206518, 23.4751488], [112.9211564, 23.4880306], [112.9002965, 23.4891028], [112.8829619, 23.5157695], [112.909871, 23.552627], [112.8952448, 23.5694962], [112.8890558, 23.554923], [112.8577878, 23.576193], [112.8220158, 23.5697123], [112.8253401, 23.5484197], [112.796963, 23.5482018], [112.7878488, 23.573005], [112.7949405, 23.5744779], [112.7945848, 23.5915616], [112.7766248, 23.5911325], [112.7671541, 23.6058193], [112.7452189, 23.6126751], [112.746833, 23.6312641], [112.7768421, 23.6484456], [112.7756615, 23.6738407], [112.7615464, 23.6799863], [112.7366074, 23.6711167], [112.7406183, 23.6889182], [112.7235175, 23.6811233], [112.7098633, 23.694288], [112.7213044, 23.7117879], [112.7061216, 23.7147388], [112.737486, 23.7569458], [112.6994036, 23.7570519], [112.6925289, 23.7683836], [112.7007325, 23.8090391], [112.670376, 23.8178999], [112.6503152, 23.8153611], [112.6694391, 23.8322705], [112.6647945, 23.8497983], [112.6743781, 23.8599487], [112.6671988, 23.8685505], [112.6870255, 23.8923469], [112.6802292, 23.8995513], [112.6892563, 23.9125266], [112.6783187, 23.9253849], [112.6774596, 23.9418351], [112.6578152, 23.9523855], [112.6373296, 23.9432779], [112.6176413, 23.9465069], [112.5701237, 23.9701856], [112.5619473, 23.9677652], [112.5591779, 23.9801938], [112.5305233, 23.9735239], [112.5109661, 23.9797652], [112.5010002, 24.0076669], [112.5135094, 24.0203648], [112.4928412, 24.0626067], [112.4955756, 24.0835458], [112.4842471, 24.0888083], [112.4884055, 24.0988368], [112.4814083, 24.1168769], [112.4617821, 24.1243555], [112.4484745, 24.1178362], [112.4499941, 24.1274412], [112.4238041, 24.1321463], [112.4260616, 24.1760284], [112.4530497, 24.2349291], [112.444638, 24.2836964], [112.4388396, 24.2904346], [112.4183602, 24.2876136], [112.3683526, 24.3506245], [112.3366507, 24.3562623], [112.3143766, 24.3829855], [112.2836998, 24.3915058], [112.2794553, 24.3801797], [112.2884301, 24.3304249], [112.2691598, 24.3234589], [112.2531088, 24.3270978], [112.2567378, 24.2933865], [112.2442285, 24.2461984], [112.2119797, 24.2467894], [112.2119629, 24.2290649], [112.1966677, 24.2100138], [112.1645404, 24.2001333], [112.1588116, 24.1893455], [112.1434727, 24.1921793], [112.1390457, 24.2040561], [112.1215634, 24.2120688], [112.1142193, 24.2296795], [112.1006697, 24.2311637], [112.0828218, 24.2582256], [112.0674746, 24.2641025], [112.0477269, 24.2486449], [112.0450004, 24.2269319], [112.0359995, 24.2193885], [112.0406084, 24.2002829], [112.0316237, 24.1923534], [111.993872, 24.1886381], [111.9728743, 24.2255711], [111.9529267, 24.2390595], [111.9375608, 24.2378451], [111.935599, 24.2481576], [111.9535593, 24.2665475], [111.9809288, 24.2598351], [111.9851476, 24.2826866], [112.0226563, 24.2990082], [112.0253299, 24.3127235], [112.053967, 24.3424436], [112.0564063, 24.3708594], [112.0522656, 24.3898003], [112.0351215, 24.4000868], [112.0367448, 24.4130447], [112.0178212, 24.4443555], [111.9959115, 24.4520139], [111.9803385, 24.4695378], [111.9879514, 24.4945747], [112.004375, 24.5030838], [112.002066, 24.5374306], [111.992526, 24.5541124], [111.9735345, 24.5629623], [111.9658745, 24.5827232], [111.949061, 24.589777], [111.9451388, 24.600084], [111.9320023, 24.5989002], [111.9232725, 24.6364995], [111.9478025, 24.6501779], [111.9350108, 24.6705559], [111.9351165, 24.6886079], [111.9604437, 24.7277061], [112.0049889, 24.7333103], [112.0241545, 24.7471432], [112.0287893, 24.7747339], [112.0529936, 24.7932801], [112.0543669, 24.8032534], [112.0787428, 24.8085514], [112.0911024, 24.829741], [112.1187399, 24.8443847], [112.1355627, 24.8481232], [112.1474074, 24.8398671], [112.1609686, 24.856223], [112.1701204, 24.9297488], [112.1358203, 24.9407714], [112.1144485, 24.9667627], [112.1153068, 24.9866805], [112.1500682, 25.0294616], [112.1434592, 25.0422153], [112.1710109, 25.1098498], [112.1686935, 25.1315316], [112.1874045, 25.1754273], [112.1814608, 25.1847711], [112.2413899, 25.1884886], [112.2501468, 25.1622991], [112.2764214, 25.1684977], [112.2969939, 25.1597511], [112.3088121, 25.1775634], [112.3274802, 25.1772916], [112.35883, 25.1943209], [112.3877132, 25.1651452], [112.382476, 25.156086], [112.3979874, 25.1415291], [112.420882, 25.160089], [112.4264683, 25.1811552], [112.4382818, 25.1897124], [112.4490464, 25.1776795], [112.4531737, 25.1549079], [112.4914093, 25.1499759], [112.5013018, 25.1401781], [112.5587944, 25.1274293], [112.5935925, 25.1298527], [112.6300335, 25.1439249], [112.6546239, 25.1357664], [112.6632928, 25.1175437], [112.7086985, 25.084809], [112.7097701, 25.0284506], [112.7363348, 25.0014611], [112.7373962, 24.9620399], [112.777233, 24.9466861], [112.7814387, 24.9142297], [112.775213, 24.9005729], [112.7821254, 24.8953902], [112.8674353, 24.8986164], [112.8696179, 24.9095822], [112.8999709, 24.9250495], [112.9310321, 24.9244182], [112.9439014, 24.9156324], [112.9526744, 24.9273117], [112.9621387, 24.9217934], [112.9908581, 24.9275388], [113.0167406, 24.8736804], [113.0141019, 24.858791], [112.9935461, 24.8533939], [112.946332, 24.8218892], [112.9552563, 24.8017027], [112.9428322, 24.7904756], [112.9477357, 24.7830601], [112.9373701, 24.7624689], [112.9274187, 24.7588548], [112.9317971, 24.7323453], [112.9209543, 24.7199052], [112.8906702, 24.7206549], [112.9112608, 24.6642361], [112.8893776, 24.6543517], [112.894889, 24.6414434], [112.8787621, 24.6197897], [112.8790198, 24.6016699], [112.9166308, 24.6042308], [112.9567319, 24.593127], [112.9558512, 24.5733199], [112.9727942, 24.5608635], [112.9708112, 24.5495533], [112.9862953, 24.5479701], [112.9950912, 24.5293975], [113.0168201, 24.5170019], [113.0207366, 24.496277], [113.0590845, 24.4699808], [113.0809153, 24.4756036], [113.0915614, 24.5035669], [113.1094575, 24.5056598], [113.1071878, 24.4999539], [113.1131127, 24.5033173], [113.1281856, 24.4834937], [113.1456032, 24.4814133], [113.1484457, 24.4698361], [113.1565136, 24.4861414], [113.1667528, 24.4768515], [113.1789147, 24.4834577], [113.1992098, 24.4772483], [113.2110987, 24.4985571], [113.2304394, 24.5087176], [113.2388874, 24.5041051], [113.2461476, 24.5125515], [113.2477569, 24.496873], [113.2665109, 24.4684202], [113.290801, 24.4596116], [113.3258048, 24.4745363], [113.346407, 24.4736466], [113.3704304, 24.4970292], [113.3757305, 24.4962725], [113.3724904, 24.4838484], [113.4121489, 24.4874355], [113.4060114, 24.4763189], [113.41017, 24.4632933], [113.4348284, 24.4557604], [113.4640503, 24.4646312], [113.4754014, 24.4844928], [113.4908294, 24.4733808], [113.501371, 24.4883305], [113.5134566, 24.4721114], [113.5353112, 24.5129029], [113.5705386, 24.5128475], [113.5793896, 24.5024553], [113.5840678, 24.5185074], [113.5950623, 24.5152576], [113.5963143, 24.496481], [113.6233039, 24.4958237], [113.6491978, 24.4707931], [113.6680775, 24.4661164], [113.7062659, 24.4139696], [113.7169737, 24.417485], [113.723216, 24.4408986], [113.7568187, 24.4360148], [113.7580689, 24.4195981], [113.798672, 24.404541], [113.8026202, 24.3886517], [113.7945413, 24.3800916], [113.8152051, 24.3539094], [113.810598, 24.3482737], [113.8337016, 24.3412708], [113.843569, 24.3282863], [113.8386851, 24.2829928], [113.8471663, 24.2815308], [113.8357235, 24.2666033], [113.8504495, 24.2564366], [113.8656735, 24.2599451], [113.8673792, 24.2427682], [113.8761663, 24.2499286], [113.8876462, 24.2437853], [113.8907504, 24.2120125], [113.926165, 24.1971695], [113.9227619, 24.1888857], [113.8984621, 24.1835858], [113.9020659, 24.189494], [113.8937967, 24.1929792], [113.8514504, 24.164502], [113.8661676, 24.139918], [113.8489835, 24.1376375], [113.8469065, 24.1282553], [113.8318597, 24.1214392], [113.8372667, 24.1088916], [113.8314997, 24.0938476], [113.8413172, 24.0879285], [113.823776, 24.0750629], [113.8265722, 24.0642334], [113.7949689, 24.0539699], [113.7832311, 24.0261633], [113.7757665, 24.0318478], [113.7599004, 24.0229615], [113.74318, 24.0294406]]]}}]}