{"type":"FeatureCollection","features":[{"type":"Feature","properties":{"slug":"quanzhou","member_count":11,"matched_count":11,"unmatched":[],"source":"Overture Maps division_area (CC-BY 4.0)"},"geometry":{"type":"MultiPolygon","coordinates":[[[[118.4556795,24.5688824],[118.45666,24.5652999],[118.4522262,24.5666566],[118.4556795,24.5688824]]],[[[118.7117385,24.8234312],[118.6554336,24.8353494],[118.6397695,24.8659964],[118.6351775,24.8699679],[118.6032486,24.8724159],[118.6399412,24.8644583],[118.6466843,24.836245],[118.6378984,24.8319645],[118.6562222,24.7944828],[118.6839133,24.802311],[118.7025547,24.7948261],[118.7163252,24.8179055],[118.7284591,24.8171089],[118.7350792,24.8109714],[118.7246145,24.8090795],[118.7186598,24.7915036],[118.7410144,24.7705628],[118.7515316,24.7807029],[118.7681991,24.772274],[118.7671721,24.7834077],[118.7809641,24.7721091],[118.7732008,24.7458546],[118.7573092,24.7377707],[118.7620245,24.7301017],[118.7512085,24.7314479],[118.7515037,24.7241284],[118.7563283,24.7276537],[118.7598637,24.7179678],[118.7549053,24.7258997],[118.7489199,24.7215585],[118.737997,24.7278745],[118.7348463,24.715801],[118.74491,24.7196295],[118.7306526,24.7085956],[118.7340801,24.6964999],[118.7167803,24.6915216],[118.7160456,24.6786769],[118.679768,24.6646355],[118.6820624,24.6716435],[118.6687718,24.6718349],[118.6780578,24.6770035],[118.67279,24.6880599],[118.6523985,24.6832236],[118.64428,24.64639],[118.6547825,24.6157503],[118.6747074,24.6292507],[118.6694531,24.6347005],[118.6785433,24.626177],[118.6815134,24.6361855],[118.6828565,24.6086585],[118.6701437,24.5991604],[118.6671401,24.5789601],[118.6567311,24.5788923],[118.647996,24.5679709],[118.6531154,24.5581198],[118.634876,24.5584878],[118.6325343,24.5479978],[118.6076601,24.52843],[118.5850625,24.5290208],[118.572373,24.511828],[118.5556285,24.5151021],[118.5704279,24.5193055],[118.5636938,24.5229843],[118.5704898,24.522953],[118.5735301,24.54053],[118.5633812,24.5536372],[118.5727301,24.5469097],[118.5783329,24.5524758],[118.5703148,24.5841404],[118.5437179,24.5951787],[118.541717,24.6060546],[118.5035244,24.6163985],[118.4957394,24.6273117],[118.4398541,24.6290509],[118.4470272,24.6321212],[118.44174,24.65116],[118.4535054,24.6733404],[118.4501805,24.6952564],[118.4426381,24.6905816],[118.4452297,24.7066754],[118.4416125,24.6978974],[118.4350252,24.70377],[118.4387863,24.6690046],[118.4332502,24.6710349],[118.4230095,24.6482336],[118.4336552,24.6269167],[118.4235969,24.6118122],[118.4339457,24.6086783],[118.4222559,24.6108976],[118.3894168,24.5958129],[118.3949378,24.5826744],[118.3898227,24.5803274],[118.3856129,24.5906056],[118.3693169,24.5833255],[118.3666406,24.5914008],[118.3683362,24.5818213],[118.3605352,24.5786526],[118.3370163,24.5950389],[118.3369943,24.6109641],[118.3241504,24.6024389],[118.3309556,24.6212286],[118.340707,24.622178],[118.3379506,24.6461678],[118.3469824,24.6521282],[118.3481686,24.6666629],[118.3153156,24.6980052],[118.3344957,24.7251857],[118.3270275,24.734707],[118.3182181,24.7322325],[118.3102822,24.749881],[118.3309846,24.754341],[118.335291,24.7659211],[118.3294032,24.7721294],[118.3415033,24.7774032],[118.3196571,24.7836833],[118.3213446,24.8010709],[118.2962807,24.8183183],[118.2988517,24.8280241],[118.2911715,24.8320466],[118.268704,24.8350797],[118.2580027,24.8274572],[118.2448194,24.8357159],[118.2350921,24.8256667],[118.2269661,24.8275617],[118.21839,24.842586],[118.221659,24.853046],[118.187636,24.873581],[118.198645,24.884256],[118.189534,24.895709],[118.1312192,24.8968874],[118.0714078,24.8564497],[118.065463,24.8582282],[118.0687644,24.8776284],[118.0595537,24.8794007],[118.0556423,24.8696807],[118.0455808,24.8740738],[118.0338511,24.9022085],[118.0123764,24.9072638],[118.0126284,24.8965172],[118.0060217,24.8946007],[117.989204,24.9038844],[117.9852511,24.8978846],[118.001745,24.893117],[118.0117899,24.8803145],[117.9923213,24.8813099],[117.9866809,24.8753056],[117.9931278,24.8623043],[117.9692857,24.8516848],[117.9517608,24.8737054],[117.9305961,24.8698116],[117.9149075,24.8857592],[117.9054645,24.870576],[117.8975149,24.8730321],[117.877378,24.8988882],[117.8677873,24.8775619],[117.8603801,24.8832794],[117.8448041,24.8764398],[117.8254864,24.8848707],[117.8174492,24.8780738],[117.8232758,24.8684727],[117.8152655,24.8656867],[117.8169829,24.859331],[117.7977945,24.8548277],[117.7903596,24.8683649],[117.7760721,24.8491916],[117.7649293,24.8596228],[117.7638184,24.8757307],[117.7559335,24.8712007],[117.7427029,24.8847031],[117.7281179,24.876676],[117.7187946,24.8820735],[117.7112423,24.8757287],[117.714475,24.8689855],[117.6760163,24.85095],[117.6672864,24.8594196],[117.6185926,24.8708102],[117.6094749,24.8956259],[117.6280495,24.9270071],[117.6013756,24.9308591],[117.5980399,24.9515081],[117.6081708,24.9677524],[117.6507184,24.9849505],[117.6529975,25.0008745],[117.6683384,25.0023886],[117.6816449,24.9908453],[117.6946305,25.0066587],[117.7113887,25.0049142],[117.7120707,25.0201623],[117.731996,25.0281305],[117.7353301,25.0371409],[117.7190222,25.0465497],[117.7263271,25.0541466],[117.7172441,25.0820075],[117.7046853,25.0696563],[117.6696075,25.0925326],[117.6669924,25.127376],[117.6311822,25.1357662],[117.6282778,25.144533],[117.620291,25.1416642],[117.616308,25.1648105],[117.5728527,25.1795235],[117.5702001,25.1916878],[117.5513271,25.1937086],[117.5540446,25.2180166],[117.5721385,25.2352706],[117.5984372,25.221859],[117.6007159,25.2280016],[117.6101525,25.2250817],[117.6194526,25.2411369],[117.6091072,25.2589169],[117.5976736,25.2619265],[117.6031356,25.2824382],[117.5954121,25.2965236],[117.6488996,25.3214344],[117.6552468,25.3398243],[117.6788679,25.3506203],[117.6752552,25.3617517],[117.6847152,25.3613586],[117.6869114,25.3928614],[117.6783119,25.4060012],[117.6977667,25.4331245],[117.6912918,25.4311288],[117.6853454,25.4422567],[117.6889128,25.4561804],[117.700556,25.4615042],[117.701065,25.4754649],[117.7181692,25.4838999],[117.7093251,25.4953543],[117.7123211,25.5165949],[117.7306566,25.5171912],[117.7270757,25.5123539],[117.7387983,25.5067749],[117.7522789,25.5118293],[117.757143,25.4988389],[117.7638972,25.5022495],[117.7917298,25.4813842],[117.7951078,25.4891379],[117.782844,25.4963813],[117.782403,25.5112248],[117.8141085,25.5193295],[117.8381283,25.4917028],[117.8488229,25.4904874],[117.8590589,25.4995202],[117.9254401,25.5084956],[117.9289367,25.5212158],[117.9525926,25.5328896],[117.9778677,25.5182638],[117.9749375,25.5323443],[118.0262747,25.5712594],[118.0269595,25.5904803],[118.0414674,25.6089127],[118.0359102,25.6318985],[118.0226532,25.6342543],[118.0142629,25.6229249],[117.9964777,25.6186112],[117.9934205,25.6253181],[117.9851633,25.6181669],[117.9825593,25.6250787],[117.9893102,25.6263419],[117.9923774,25.6302085],[117.9813439,25.6264433],[117.9633842,25.6474081],[117.9518944,25.6436395],[117.9483278,25.6590537],[117.9319265,25.6561151],[117.9333024,25.6655503],[117.9466777,25.6715219],[117.9427524,25.6776403],[117.9545104,25.6736291],[117.9545203,25.6808693],[117.9677536,25.6870495],[117.9994659,25.6899922],[118.010546,25.7280838],[117.9997813,25.72605],[118.001214,25.7244546],[117.9988348,25.719775],[118.0014327,25.7182816],[117.9975865,25.7166574],[118.0000545,25.7249182],[117.9903657,25.7267456],[117.9960163,25.7325191],[117.984762,25.734565],[117.9707121,25.7640779],[117.9791372,25.7609996],[117.982745,25.7756021],[117.992336,25.7686416],[118.0022102,25.7718551],[118.0064054,25.8168168],[118.0216689,25.8343674],[118.0251042,25.826227],[118.0294328,25.8333138],[118.0070649,25.8602324],[118.0262815,25.8661017],[118.060232,25.8509011],[118.0828942,25.8704725],[118.070748,25.8798309],[118.0738661,25.8888833],[118.094933,25.887714],[118.0988293,25.8953335],[118.1055366,25.8907925],[118.1222676,25.9026804],[118.1284007,25.8974051],[118.1497699,25.9104073],[118.1735102,25.9041198],[118.173587,25.8859448],[118.1912261,25.8874749],[118.2024962,25.902953],[118.230362,25.8878256],[118.2699317,25.9075795],[118.2606499,25.9212434],[118.269347,25.9355722],[118.2894372,25.9247968],[118.3007601,25.9358996],[118.3133278,25.9162372],[118.3301784,25.9164016],[118.3449046,25.9433018],[118.3667945,25.9084334],[118.3649914,25.8970292],[118.3886039,25.9035311],[118.4062332,25.8933992],[118.4009928,25.8819014],[118.4204347,25.8595516],[118.4025432,25.8452438],[118.3924147,25.8498669],[118.3898811,25.8266566],[118.375986,25.814502],[118.4045644,25.7999402],[118.4123798,25.7816402],[118.4183076,25.7831113],[118.4129735,25.7729053],[118.4254292,25.7601695],[118.4259651,25.7331707],[118.4770484,25.7096465],[118.517654,25.6620117],[118.5361816,25.6646812],[118.5403991,25.6595261],[118.5256572,25.6458073],[118.5481267,25.6363552],[118.5420945,25.6200247],[118.5326263,25.6180654],[118.5388612,25.6138028],[118.5260324,25.611677],[118.5263216,25.6026116],[118.5048733,25.5802303],[118.5043266,25.5629514],[118.4840198,25.55211],[118.4869686,25.5475252],[118.4577158,25.5186129],[118.4659339,25.5154887],[118.4559858,25.5052255],[118.4695641,25.4961808],[118.4621839,25.4835409],[118.4762448,25.4821048],[118.4739198,25.4680401],[118.4666601,25.4702076],[118.4567317,25.4549404],[118.456638,25.4378449],[118.4637345,25.4274271],[118.4787102,25.4291233],[118.4819531,25.4055634],[118.4948126,25.4028883],[118.4894757,25.3884487],[118.4970796,25.3917381],[118.5170171,25.3721152],[118.5139446,25.3652439],[118.5266268,25.3604703],[118.5168976,25.350494],[118.5237889,25.3333861],[118.514232,25.3316139],[118.5085945,25.3175597],[118.5168948,25.3139106],[118.5291337,25.3305133],[118.5283162,25.2940972],[118.5417795,25.2901478],[118.5686134,25.2885838],[118.5653982,25.2971177],[118.574114,25.3055569],[118.5748515,25.3002307],[118.5922387,25.3059149],[118.6193002,25.2946551],[118.6284771,25.305731],[118.6584658,25.3028108],[118.6629972,25.2907828],[118.6421021,25.2712052],[118.6539511,25.259617],[118.657616,25.2694018],[118.6673981,25.2665337],[118.6760814,25.2740499],[118.6921097,25.2603983],[118.6825764,25.2548689],[118.6851247,25.2405107],[118.6771718,25.227847],[118.6781007,25.2145451],[118.6794002,25.2186463],[118.6883352,25.2167671],[118.6677675,25.1987743],[118.6744714,25.1959157],[118.6731379,25.1804486],[118.6886203,25.1727958],[118.6880657,25.1556356],[118.7217186,25.1719326],[118.7350904,25.1899518],[118.7734383,25.1973313],[118.7713361,25.2097918],[118.7901857,25.2232698],[118.8195242,25.2204465],[118.8411323,25.2295802],[118.8451041,25.2200225],[118.8628768,25.2265177],[118.8710831,25.2444803],[118.9006554,25.2421191],[118.9118333,25.2505445],[118.9373016,25.2422893],[119.0059661,25.1887095],[119.0048503,25.1116373],[119.0571212,25.0825673],[119.0622708,24.9932155],[119.3619604,24.6537303],[119.0884482,24.4745431],[118.8034056,24.8168095],[118.7117385,24.8234312]]],[[[118.65185,25.368011],[118.652501,25.387234],[118.66246,25.385479],[118.67556,25.401866],[118.670836,25.404449],[118.684879,25.407478],[118.69204,25.428018],[118.71573,25.417719],[118.703407,25.401252],[118.720003,25.382354],[118.704744,25.36241],[118.680893,25.355525],[118.65185,25.368011]]]]}}]}