{"type": "FeatureCollection", "features": [{"type": "Feature", "properties": {"slug": "queretaro", "members": 5, "country": "Mexico", "input_hash": "69ab32cd728e64b2"}, "geometry": {"type": "Polygon", "coordinates": [[[-100.3933605, 20.3478689], [-100.4096696, 20.3756988], [-100.4761811, 20.3896108], [-100.4687849, 20.3839998], [-100.4806607, 20.3548389], [-100.5085876, 20.3323845], [-100.5417996, 20.3346342], [-100.5860172, 20.3105369], [-100.5930975, 20.3257198], [-100.6558856, 20.3499889], [-100.6559678, 20.4067817], [-100.6702913, 20.4231912], [-100.6884144, 20.4169573], [-100.6940006, 20.424881], [-100.6915338, 20.4736906], [-100.6682243, 20.4799766], [-100.6686414, 20.4644506], [-100.6588125, 20.4776004], [-100.6366684, 20.4745502], [-100.6527623, 20.5019043], [-100.624112, 20.4857834], [-100.5982838, 20.4932156], [-100.6034044, 20.5065826], [-100.5798552, 20.5048435], [-100.5757633, 20.5127146], [-100.5624832, 20.5130229], [-100.557407, 20.5310466], [-100.5478251, 20.5340987], [-100.5367762, 20.5250032], [-100.5190404, 20.5270194], [-100.5047654, 20.5550334], [-100.4850034, 20.5538042], [-100.482216, 20.5763563], [-100.4961774, 20.6161937], [-100.5214863, 20.6248643], [-100.5289365, 20.6383285], [-100.5511252, 20.633766], [-100.5619306, 20.6714278], [-100.5836035, 20.6784243], [-100.5812845, 20.6929326], [-100.5965357, 20.7172609], [-100.5844145, 20.7289373], [-100.5489146, 20.7363834], [-100.548121, 20.7495608], [-100.5640773, 20.7746968], [-100.5583282, 20.8045711], [-100.5733644, 20.8036741], [-100.5775889, 20.8166697], [-100.5020486, 20.8529204], [-100.5090235, 20.8707067], [-100.4853667, 20.9087997], [-100.4699582, 20.9070393], [-100.4722328, 20.928446], [-100.4531764, 20.923199], [-100.453956, 20.9001793], [-100.4133993, 20.8874318], [-100.3335908, 20.8907284], [-100.2983943, 20.9152917], [-100.3051704, 20.9219696], [-100.2992092, 20.9313278], [-100.2655432, 20.9292474], [-100.2617967, 20.9533731], [-100.2720611, 20.9630295], [-100.2636233, 20.9709988], [-100.1878111, 20.9325476], [-100.2335201, 20.9197202], [-100.2715676, 20.8553885], [-100.2276342, 20.8656703], [-100.2108305, 20.8324306], [-100.1993755, 20.7709009], [-100.1800918, 20.7810131], [-100.1797592, 20.7676272], [-100.1941514, 20.7614262], [-100.1825031, 20.7334236], [-100.1626094, 20.730098], [-100.1592783, 20.7214075], [-100.1668348, 20.7219037], [-100.1693506, 20.7043049], [-100.1549131, 20.6980486], [-100.17765, 20.6953175], [-100.1970531, 20.6431243], [-100.1839948, 20.6118298], [-100.1919196, 20.5896747], [-100.2017965, 20.5842384], [-100.1844402, 20.5324552], [-100.1751965, 20.5276846], [-100.2031077, 20.5170438], [-100.2059679, 20.5218658], [-100.1918758, 20.5333776], [-100.23232060748805, 20.532345801758538], [-100.2194643, 20.5191627], [-100.2487022, 20.4880147], [-100.2474753, 20.4588037], [-100.2597415, 20.4618908], [-100.2729078, 20.4503795], [-100.2967313, 20.4505146], [-100.2986471, 20.4487168], [-100.277875, 20.4174297], [-100.2777155, 20.3980969], [-100.2705012, 20.3934316], [-100.2523246, 20.4016992], [-100.2300984, 20.3875199], [-100.2514909, 20.3845812], [-100.2503033, 20.3744792], [-100.2582267, 20.3707228], [-100.2529956, 20.3584918], [-100.1975196, 20.360422], [-100.196026, 20.3665819], [-100.1833584, 20.3594008], [-100.1953023, 20.3293895], [-100.2171785, 20.3189072], [-100.2510293, 20.3198433], [-100.258889, 20.2901791], [-100.3074845, 20.2854694], [-100.3458331, 20.2980002], [-100.3506565, 20.2884131], [-100.3824034, 20.3037495], [-100.392023, 20.3143275], [-100.3933605, 20.3478689]], [[-100.34439690121066, 20.551350730466723], [-100.3458561, 20.556414], [-100.34524132808527, 20.5530224647498], [-100.34439690121066, 20.551350730466723]], [[-100.32962807550062, 20.567310627149205], [-100.32887094929539, 20.566404191934662], [-100.3288243, 20.5667156], [-100.32962807550062, 20.567310627149205]], [[-100.40668851018442, 20.80495597453522], [-100.4072394, 20.8048008], [-100.40697091323764, 20.80399291226184], [-100.40668851018442, 20.80495597453522]]]}}]}