{"type":"FeatureCollection","features":[{"type":"Feature","properties":{"slug":"quincy","member_count":62,"matched_count":8,"unmatched":["Quincy city (US-IL, type='City')","Melrose township (US-IL, type='Township')","Ellington township (US-IL, type='Township')","Riverside township (US-IL, type='Township')","Camp Point village (US-IL, type='Village')","Balance of Gilmer township (US-IL, type='Balance')","Payson village (US-IL, type='Village')","Burton township (US-IL, type='Township')","Mendon village (US-IL, type='Village')","Balance of Liberty township (US-IL, type='Balance')","Clayton village (US-IL, type='Village')","Golden village (US-IL, type='Village')","Ursa village (US-IL, type='Village')","Balance of Honey Creek township (US-IL, type='Balance')","Balance of Mendon township (US-IL, type='Balance')","Fall Creek township (US-IL, type='Township')","Balance of Ursa township (US-IL, type='Balance')","Balance of Columbus township (US-IL, type='Balance')","Balance of Camp Point township (US-IL, type='Balance')","Balance of Payson township (US-IL, type='Balance')","Richfield township (US-IL, type='Township')","Balance of Lima township (US-IL, type='Balance')","Beverly township (US-IL, type='Township')","Balance of Keene township (US-IL, type='Balance')","Loraine village (US-IL, type='Village')","Concord township (US-IL, type='Township')","Balance of Clayton township (US-IL, type='Balance')","Plainville village (US-IL, type='Village')","Balance of Houston township (US-IL, type='Balance')","McKee township (US-IL, type='Township')","Balance of Northeast township (US-IL, type='Balance')","Coatsburg village (US-IL, type='Village')","Lima village (US-IL, type='Village')","Columbus village (US-IL, type='Village')","Columbus village (US-IL, type='Village')","La Prairie village (US-IL, type='Village')","Golden village (US-IL, type='Village')","Golden village (US-IL, type='Village')","Balance of Lewis County (US-MO, type='Balance')","La Grange city (US-MO, type='City')","La Belle city (US-MO, type='City')","Lewistown town (US-MO, type='Town')","Ewing city (US-MO, type='City')","Monticello village (US-MO, type='Village')","Hannibal city (US-MO, type='City')","Balance of Marion County (US-MO, type='Balance')","Palmyra city (US-MO, type='City')","Monroe City city (US-MO, type='City')","Balance of Ralls County (US-MO, type='Balance')","New London city (US-MO, type='City')","Hannibal city (US-MO, type='City')","Rensselaer village (US-MO, type='Village')","Monroe City city (US-MO, type='City')","Vandalia city (US-MO, type='City')"],"source":"Overture Maps division_area (CC-BY 4.0)"},"geometry":{"type":"MultiPolygon","coordinates":[[[[-97.7975563,31.1160447],[-97.7902789,31.1165792],[-97.7895796,31.1142073],[-97.7975563,31.1160447]]],[[[-89.9376133,37.8750022],[-89.8980432,37.8709945],[-89.8439856,37.9056524],[-89.7990058,37.8812988],[-89.7975584,37.8619651],[-89.7861083,37.8514349],[-89.7397476,37.8465346],[-89.6684528,37.7984117],[-89.6606172,37.7862017],[-89.668032,37.7595037],[-89.6633762,37.7499603],[-89.6168401,37.7494831],[-89.6017304,37.728091],[-89.5736856,37.7094393],[-89.5166956,37.6925556],[-89.5114611,37.6837442],[-89.5170558,37.6391112],[-89.4775033,37.5977258],[-89.4776111,37.5864535],[-89.4899834,37.5801505],[-89.5183491,37.5837035],[-89.528591,37.563953],[-89.538905,37.574391],[-89.54244,37.566981],[-89.554583,37.576823],[-89.581474,37.571011],[-89.583456,37.58188],[-89.592305,37.574757],[-89.603865,37.603384],[-89.636182,37.586867],[-89.638927,37.603595],[-89.665005,37.598389],[-89.672184,37.58338],[-89.675732,37.591556],[-89.681055,37.584609],[-89.687026,37.595577],[-89.710149,37.599452],[-89.719313,37.587857],[-89.734951,37.601558],[-89.740659,37.599193],[-89.737144,37.590624],[-89.760665,37.587789],[-89.786334,37.598728],[-89.800999,37.592487],[-89.799977,37.606461],[-89.816318,37.599883],[-90.1464896,37.5975075],[-90.1468366,37.6417763],[-90.1103961,37.6712592],[-90.004089,37.816711],[-89.9376133,37.8750022]]],[[[-91.367854,39.729136],[-91.229317,39.620853],[-91.1784554,39.5986452],[-91.2036897,39.5982816],[-91.4601518,39.4509079],[-91.4384366,39.3185621],[-91.7184163,39.3243388],[-91.7151976,39.6577116],[-91.8469048,39.6584385],[-91.8402903,39.9481686],[-91.9529124,39.9494552],[-91.9507779,40.2572394],[-91.4972339,40.2488456],[-91.506501,40.236304],[-91.5050729,40.2003599],[-90.910461,40.192471],[-90.916885,39.756645],[-91.365395,39.758984],[-91.367854,39.729136]]],[[[-92.7957742,45.3828294],[-92.809839,45.3858715],[-92.8107875,45.3874256],[-92.7954251,45.3879398],[-92.7957742,45.3828294]]],[[[-92.8292463,45.3900574],[-92.8171412,45.3936817],[-92.8234757,45.3977214],[-92.8259853,45.4082164],[-92.8183306,45.3971372],[-92.8108263,45.4045236],[-92.8120772,45.3832039],[-92.8148134,45.3898909],[-92.8188835,45.3871217],[-92.8292463,45.3900574]]],[[[-97.6709413,48.6843964],[-97.6643998,48.6913621],[-97.6643717,48.6844077],[-97.6709413,48.6843964]]]]}}]}