{"type": "FeatureCollection", "features": [{"type": "Feature", "properties": {"slug": "rafsanjan", "members": 1, "country": "Iran", "input_hash": "d269a6f9d26a9585"}, "geometry": {"type": "Polygon", "coordinates": [[[55.6667392, 30.3229097], [55.702852, 30.2645768], [55.8331367, 30.1087361], [55.7950771, 30.0845671], [55.6722956, 30.0453961], [55.6797954, 29.952065], [55.7559109, 29.9787303], [55.7853155, 29.9771356], [55.8980938, 29.960289], [56.0307971, 29.9034842], [56.0378668, 29.9440092], [56.0297739, 29.9751685], [56.035502, 29.9975618], [56.0577391, 30.0138146], [56.0612145, 30.0279822], [56.0755458, 30.0271876], [56.0831187, 30.0517637], [56.1097525, 30.0802354], [56.1025427, 30.1264215], [56.1181492, 30.1809565], [56.190928, 30.1984597], [56.2039844, 30.1440112], [56.2125977, 30.1462306], [56.4378845, 30.2323475], [56.5245534, 30.2929077], [56.5720562, 30.3445734], [56.6320586, 30.3262384], [56.6921559, 30.5012837], [56.6427205, 30.4529842], [56.6083709, 30.4424729], [56.5797521, 30.4443232], [56.5494063, 30.4619085], [56.5451135, 30.5843008], [56.5215005, 30.6451359], [56.4506614, 30.5545745], [56.363716, 30.5481853], [56.297877, 30.5904106], [56.1900953, 30.687084], [56.1078698, 30.6562458], [56.0909233, 30.6568054], [56.053144, 30.7087442], [55.9736986, 30.8531966], [55.7586884, 31.0332056], [55.6831297, 31.1254228], [55.6228505, 31.1770933], [55.5811811, 31.2315362], [55.494789, 31.185976], [55.2642221, 31.1104203], [55.3358911, 31.0273657], [55.3795037, 30.9493058], [55.4514527, 30.8601378], [55.5781243, 30.8004148], [55.6950723, 30.7037536], [55.5753475, 30.652916], [55.5000651, 30.6106894], [55.4411726, 30.5584737], [55.4260341, 30.5383274], [55.4767321, 30.5326372], [55.4928419, 30.5204094], [55.3139443, 30.3254092], [55.3306141, 30.3181818], [55.3953398, 30.3223504], [55.4383958, 30.3165215], [55.5000649, 30.294298], [55.5464576, 30.297077], [55.6667392, 30.3229097]]]}}]}