{"type": "FeatureCollection", "features": [{"type": "Feature", "properties": {"slug": "rahim-yar-khan", "members": 1, "country": "Pakistan", "input_hash": "7e0a9d6d70bed377"}, "geometry": {"type": "Polygon", "coordinates": [[[70.3049821, 28.8272971], [70.285858, 28.819558], [70.282671, 28.80681], [70.31454, 28.765836], [70.301338, 28.75582], [70.251258, 28.753999], [70.235323, 28.769478], [70.220754, 28.750812], [70.197991, 28.743983], [70.222576, 28.723951], [70.228494, 28.703464], [70.213925, 28.677058], [70.1124, 28.667497], [70.0788873, 28.6421794], [70.0764346, 28.6237941], [70.1169546, 28.6028521], [70.077344, 28.570524], [70.070504, 28.552754], [70.081308, 28.521817], [70.130989, 28.515934], [70.141448, 28.503514], [70.143409, 28.469522], [70.152561, 28.454487], [70.194398, 28.44795], [70.197013, 28.434876], [70.229697, 28.405459], [70.223814, 28.378658], [70.23362, 28.340743], [70.221853, 28.312634], [70.244079, 28.293677], [70.249308, 28.277988], [70.217931, 28.260992], [70.227736, 28.251841], [70.208779, 28.234191], [70.205511, 28.200199], [70.19832, 28.195623], [70.214662, 28.16686], [70.256499, 28.174051], [70.259829, 28.163196], [70.267394, 28.1637], [70.249962, 28.144525], [70.23011, 28.0776269], [70.2355909, 27.9056629], [70.296236, 27.9360154], [70.3722329, 28.0118243], [70.4419976, 28.0209618], [70.4442275, 28.0869655], [70.490522, 28.355452], [70.524515, 28.430409], [70.503596, 28.445226], [70.50011, 28.467016], [70.501853, 28.473117], [70.528873, 28.475732], [70.525386, 28.502751], [70.53846, 28.51321], [70.531487, 28.520183], [70.518414, 28.515825], [70.497495, 28.534129], [70.507083, 28.559405], [70.4986883, 28.5660557], [70.5081517, 28.5812736], [70.5016045, 28.5974659], [70.5068812, 28.6004228], [70.4929127, 28.5975568], [70.481806, 28.617802], [70.50534, 28.613444], [70.504468, 28.623903], [70.501853, 28.633491], [70.469604, 28.656152], [70.484421, 28.679685], [70.488779, 28.716292], [70.474834, 28.729366], [70.457402, 28.716292], [70.445199, 28.733724], [70.471347, 28.755514], [70.4954406, 28.7931484], [70.5448296, 28.7994806], [70.5488526, 28.8045611], [70.5322546, 28.8154983], [70.5356398, 28.8267796], [70.5247239, 28.8357011], [70.4818387, 28.8199075], [70.47832, 28.857491], [70.445199, 28.854876], [70.43997, 28.84616], [70.406736, 28.847032], [70.385563, 28.79816], [70.373724, 28.7908755], [70.3455539, 28.822816], [70.3049821, 28.8272971]]]}}]}