{"type": "FeatureCollection", "features": [{"type": "Feature", "properties": {"slug": "ranchi", "members": 1, "country": "India", "input_hash": "6d2fd7e084b217e1"}, "geometry": {"type": "Polygon", "coordinates": [[[85.54852, 22.9300575], [85.5797456, 22.9056292], [85.6040264, 22.9336058], [85.6179891, 22.9144162], [85.6527614, 22.9216386], [85.6534156, 22.9352205], [85.6901836, 22.9345237], [85.7040023, 22.944404], [85.72443, 22.9441669], [85.7671685, 22.9319969], [85.7718515, 22.9223895], [85.8002185, 22.9088708], [85.8369578, 22.9044408], [85.836544, 22.8895138], [85.8648491, 22.885704], [85.8581542, 22.9005791], [85.8713293, 22.911796], [85.8759212, 22.9317767], [85.8657932, 22.9448979], [85.8522157, 22.9464865], [85.8477258, 22.9843133], [85.8286047, 22.9915768], [85.8132219, 23.0098531], [85.8237361, 23.0282], [85.8115053, 23.0779552], [85.8014471, 23.0836734], [85.8050251, 23.0920096], [85.8163976, 23.0925228], [85.824337, 23.1139175], [85.8458826, 23.1375691], [85.8599567, 23.1468317], [85.8699131, 23.1402811], [85.8710289, 23.1563809], [85.8933365, 23.1567899], [85.8815746, 23.1702585], [85.8825232, 23.198729], [85.8638145, 23.2223818], [85.836581, 23.2205262], [85.8386057, 23.2468344], [85.8196735, 23.2681201], [85.8383835, 23.3064969], [85.8681995, 23.3297839], [85.8662528, 23.3415221], [85.8830678, 23.3507821], [85.8751659, 23.3598252], [85.8784327, 23.3816765], [85.8705581, 23.3882093], [85.9027926, 23.3983291], [85.8867294, 23.4046019], [85.8910495, 23.4116491], [85.8802876, 23.4223947], [85.8864719, 23.4269542], [85.8479404, 23.4305678], [85.8440351, 23.4224953], [85.8226633, 23.4551365], [85.80657, 23.457538], [85.7965409, 23.4506509], [85.7739114, 23.4623409], [85.7544257, 23.4629296], [85.7337299, 23.4498641], [85.7293653, 23.4558452], [85.7192373, 23.4439945], [85.6728458, 23.4517114], [85.6677389, 23.4610812], [85.6033659, 23.4846602], [85.6061124, 23.4896983], [85.5898475, 23.4950904], [85.5898046, 23.5033552], [85.5506568, 23.5401526], [85.5419111, 23.5440419], [85.5306458, 23.5344419], [85.5198437, 23.5408292], [85.5286932, 23.5622563], [85.519917, 23.5769283], [85.5033228, 23.5700947], [85.5129466, 23.5569496], [85.5077523, 23.5431108], [85.4895808, 23.5461473], [85.4803525, 23.5540645], [85.4881382, 23.5608992], [85.4721737, 23.5715396], [85.4651774, 23.555882], [85.4483127, 23.5492744], [85.4156971, 23.5604075], [85.3959989, 23.5549394], [85.3917503, 23.5626497], [85.3830814, 23.5508874], [85.3640699, 23.5632004], [85.3366939, 23.559895], [85.3186312, 23.5703371], [85.2667165, 23.5784426], [85.260365, 23.5901829], [85.2409945, 23.5942721], [85.2443576, 23.6043405], [85.2338862, 23.6186539], [85.2057981, 23.6253874], [85.2054655, 23.6456348], [85.2132867, 23.6557402], [85.2222347, 23.6548041], [85.2215631, 23.6719526], [85.2352381, 23.6843615], [85.2237367, 23.6862283], [85.2236295, 23.7008864], [85.1882901, 23.7100623], [85.1660791, 23.6685419], [85.1581903, 23.6759596], [85.1193984, 23.6650545], [85.0780558, 23.6714916], [85.061463, 23.6842438], [85.0594856, 23.6984606], [85.0691204, 23.699077], [85.0678482, 23.7126434], [85.048685, 23.7107886], [85.035038, 23.6898439], [85.0109624, 23.6958958], [85.0052186, 23.6812256], [84.9886465, 23.7049142], [84.9674463, 23.7174878], [84.9633693, 23.6980178], [84.9492502, 23.7029691], [84.9224281, 23.6690923], [84.9200249, 23.6509713], [84.9428558, 23.6365828], [84.9471473, 23.6062478], [84.9318888, 23.5742978], [84.9361395, 23.5497465], [84.9244022, 23.5540542], [84.9168706, 23.5415829], [84.9096219, 23.5424752], [84.9062061, 23.5850307], [84.8969895, 23.5595543], [84.8844695, 23.5555491], [84.8902594, 23.5438811], [84.909296, 23.537078], [84.9103912, 23.5210936], [84.9266338, 23.5268086], [84.942727, 23.5139806], [84.9457335, 23.4988057], [84.9362897, 23.4808028], [84.8933907, 23.4345669], [84.8956918, 23.4109961], [84.8854438, 23.402965], [84.8935747, 23.3831561], [84.8856675, 23.3732424], [84.9028158, 23.3635317], [84.9023401, 23.3258354], [84.9236727, 23.3110254], [84.8981528, 23.2860225], [84.89685, 23.2607038], [84.9129438, 23.2560932], [84.9104547, 23.2433178], [84.9509239, 23.2277608], [84.9349594, 23.2011975], [84.909811, 23.1933478], [84.9245309, 23.1842747], [84.921441, 23.1686517], [84.8894477, 23.1689871], [84.8864538, 23.1177606], [84.8987388, 23.1093783], [84.8951125, 23.0990758], [84.8654365, 23.0988389], [84.8719597, 23.0692493], [84.9033522, 23.0561007], [84.9129478, 23.0290453], [84.9291873, 23.027726], [84.9264836, 23.0351313], [84.9327278, 23.0340057], [84.9425125, 23.0234012], [84.9370837, 23.0141388], [84.9465251, 23.0093791], [84.9430343, 23.0006587], [84.9538636, 23.0109492], [84.9657833, 23.0106727], [84.9673819, 23.0234506], [84.9803746, 23.0216139], [84.9967789, 23.0452412], [84.996221, 23.0757245], [85.0069928, 23.0743229], [85.012443, 23.081765], [85.0220561, 23.0740267], [85.0269484, 23.0877066], [85.0363469, 23.0904898], [85.0384497, 23.1088652], [85.0540495, 23.1183381], [85.0632763, 23.1155555], [85.0537276, 23.1431421], [85.0596499, 23.1597545], [85.0403595, 23.1808031], [85.0438785, 23.1905076], [85.0990676, 23.2493902], [85.1360607, 23.2517166], [85.1428842, 23.2693405], [85.1508236, 23.271154], [85.1517676, 23.2854248], [85.1588058, 23.2854248], [85.1760577, 23.2682366], [85.2274489, 23.2669356], [85.2309894, 23.2448753], [85.2249813, 23.235648], [85.2367401, 23.2286876], [85.2350235, 23.2171125], [85.2212691, 23.208672], [85.2244448, 23.198318], [85.2911567, 23.2039587], [85.3157043, 23.193624], [85.3125393, 23.171443], [85.318129, 23.1666592], [85.3367972, 23.1887324], [85.3351878, 23.2086129], [85.3580188, 23.1846298], [85.3841113, 23.1956752], [85.4068565, 23.1862077], [85.4035949, 23.1768974], [85.4248809, 23.1718475], [85.4646205, 23.1795801], [85.4590201, 23.1706441], [85.4636121, 23.1487653], [85.4808855, 23.1245346], [85.5383062, 23.1214166], [85.5577254, 23.1065166], [85.5684113, 23.116483], [85.5788827, 23.1108585], [85.5802989, 23.1209627], [85.5925995, 23.1113568], [85.6010913, 23.1190486], [85.6149315, 23.1147859], [85.6191372, 23.0797317], [85.5926417, 23.0753038], [85.581994, 23.0636228], [85.632205, 23.0664657], [85.6370114, 23.0541264], [85.6227635, 23.0464063], [85.6275195, 23.0288563], [85.6352091, 23.0340551], [85.6307673, 23.0273903], [85.6543493, 23.0043426], [85.6328058, 22.9918987], [85.596714, 22.99739], [85.6000524, 22.9596605], [85.5838448, 22.9517199], [85.5844831, 22.9439396], [85.5643129, 22.9510432], [85.5626821, 22.9369542], [85.54852, 22.9300575]]]}}]}