{"type": "FeatureCollection", "features": [{"type": "Feature", "properties": {"slug": "randers", "members": 1, "country": "Denmark", "input_hash": "c434341a0f86a44b"}, "geometry": {"type": "MultiPolygon", "coordinates": [[[[10.1125471, 56.4616218], [10.1124784, 56.4622077], [10.1134702, 56.4616361], [10.1171537, 56.4604524], [10.1125471, 56.4616218]]], [[[10.1135218, 56.461809], [10.1154633, 56.4633306], [10.1176614, 56.4605934], [10.1135218, 56.461809]]], [[[10.1119824, 56.4618158], [10.1108968, 56.4627167], [10.1121123, 56.4625635], [10.1119824, 56.4618158]]], [[[10.105299, 56.464267], [10.1086295, 56.4632654], [10.1108066, 56.4620867], [10.105299, 56.464267]]], [[[10.0925677, 56.4655052], [10.0976553, 56.4651059], [10.0919849, 56.4653302], [10.0925677, 56.4655052]]], [[[10.2155417, 56.4767265], [10.2163578, 56.4744577], [10.2135155, 56.474193], [10.2155417, 56.4767265]]], [[[10.3589, 56.6390438], [10.3424555, 56.6226992], [10.2988019, 56.6094514], [10.283774, 56.6004564], [10.2746874, 56.5912875], [10.282643, 56.5915801], [10.2450349, 56.5793951], [10.2358415, 56.5588784], [10.2195194, 56.553138], [10.2149121, 56.5430548], [10.2276898, 56.5031996], [10.2110785, 56.4747569], [10.1831034, 56.4721819], [10.1319081, 56.4577645], [10.1166383, 56.4663914], [10.0918576, 56.4683632], [10.0395904, 56.4568712], [10.0910708, 56.4646135], [10.1310201, 56.4561066], [10.2197356, 56.4750375], [10.2711561, 56.4686086], [10.2644213, 56.4310063], [10.3060919, 56.4212126], [10.2728277, 56.4138878], [10.2621256, 56.40428], [10.2390506, 56.4074303], [10.1968737, 56.3911354], [10.1413062, 56.3929303], [10.1306373, 56.3744412], [10.1062342, 56.3801342], [10.0950553, 56.3710903], [10.0700788, 56.3833656], [10.0448726, 56.3811861], [10.0397498, 56.3910116], [10.0297678, 56.3910445], [9.9514107, 56.3698775], [9.9379074, 56.3891065], [9.9085008, 56.3942054], [9.9080302, 56.3826399], [9.8818198, 56.3793155], [9.8350599, 56.3953815], [9.8034816, 56.3931844], [9.7993227, 56.4161881], [9.8422263, 56.4158133], [9.849818, 56.433321], [9.8441716, 56.447458], [9.7880446, 56.4437746], [9.7761982, 56.4496965], [9.7863339, 56.4602771], [9.7853963, 56.5208815], [9.7914705, 56.5297042], [9.7806026, 56.5461293], [9.7958237, 56.5616108], [9.8328337, 56.5504326], [9.8759461, 56.5550781], [9.8884738, 56.5742284], [9.9488565, 56.581071], [9.9593754, 56.5966826], [9.9800547, 56.591849], [10.052969, 56.6039843], [10.1160189, 56.62376], [10.1236424, 56.6466896], [10.158705, 56.6520834], [10.1558019, 56.6604509], [10.1663628, 56.6710434], [10.1967963, 56.6785279], [10.1942039, 56.6844208], [10.2054131, 56.6818896], [10.251307, 56.698082], [10.2842426, 56.6933506], [10.3388477, 56.7013455], [10.3522978, 56.6936071], [10.3631313, 56.6620413], [10.3494995, 56.6582413], [10.3589, 56.6390438]]], [[[10.2507378, 56.5785098], [10.2489783, 56.578758], [10.2506842, 56.5785689], [10.2507378, 56.5785098]]], [[[10.2307064, 56.7078121], [10.2399098, 56.707599], [10.2297407, 56.7053425], [10.227132, 56.706133], [10.2263745, 56.7074319], [10.2368127, 56.7093261], [10.2307064, 56.7078121]]], [[[10.2255106, 56.7090381], [10.2257638, 56.7098459], [10.2263285, 56.7095695], [10.2255106, 56.7090381]]], [[[10.2243094, 56.7121272], [10.2243015, 56.7104429], [10.2228143, 56.7116457], [10.2243094, 56.7121272]]], [[[10.2783646, 56.5927074], [10.2777959, 56.592607], [10.2774311, 56.5933808], [10.2783646, 56.5927074]]], [[[10.2823794, 56.597071], [10.2824737, 56.5978912], [10.2829996, 56.5977622], [10.2823794, 56.597071]]], [[[10.2832316, 56.5989555], [10.2832114, 56.5985111], [10.2828707, 56.5984133], [10.2832316, 56.5989555]]], [[[10.3392905, 56.6043493], [10.335357, 56.6049943], [10.340526, 56.6061594], [10.3392905, 56.6043493]]], [[[10.3231158, 56.6061394], [10.3289207, 56.6063694], [10.3293204, 56.6060094], [10.3231158, 56.6061394]]], [[[10.3211445, 56.6063594], [10.3195865, 56.6067243], [10.3187235, 56.6074393], [10.3211445, 56.6063594]]], [[[10.3423247, 56.6079543], [10.3431423, 56.6077543], [10.3410529, 56.6069943], [10.3423247, 56.6079543]]], [[[10.3215931, 56.6098092], [10.3234031, 56.6086226], [10.32048, 56.6093356], [10.3215931, 56.6098092]]], [[[10.3434694, 56.610889], [10.3434966, 56.6085493], [10.3427699, 56.6083193], [10.3434694, 56.610889]]], [[[10.325292, 56.6147266], [10.3310067, 56.6143244], [10.3208639, 56.6142207], [10.325292, 56.6147266]]]]}}]}