{"type":"FeatureCollection","features":[{"type":"Feature","properties":{"slug":"rapid-city","member_count":4,"matched_count":4,"unmatched":[],"source":"Overture Maps division_area (CC-BY 4.0)"},"geometry":{"type":"Polygon","coordinates":[[[-102.8079221,43.6871193],[-102.8120949,43.6685057],[-102.8305965,43.656656],[-102.8464752,43.6653491],[-102.8599935,43.658581],[-102.8634696,43.6687328],[-102.9108785,43.6739128],[-102.9084341,43.6663534],[-102.9195491,43.661231],[-102.9218022,43.6405505],[-102.9329602,43.630425],[-102.9267535,43.627109],[-102.9318658,43.6193347],[-102.9590231,43.6134868],[-102.9774607,43.6184614],[-103.0010253,43.6058941],[-103.000915,43.4769891],[-104.0547939,43.4781169],[-104.0557829,44.5714682],[-104.0247325,44.5830489],[-104.0024334,44.5730479],[-103.9804383,44.5817035],[-103.9335074,44.5794027],[-103.8884409,44.5992721],[-103.8647946,44.5866544],[-103.8522097,44.592446],[-103.8418727,44.5874795],[-103.8263374,44.5929025],[-103.8280483,44.6013614],[-103.8203812,44.6048407],[-102.9661498,44.6044924],[-102.965317,44.689842],[-102.9589,44.68996],[-102.958099,45.038761],[-102.0004405,45.0385504],[-102.001854,44.343811],[-102.008881,44.343731],[-102.0118773,43.9946534],[-102.0191299,43.9946179],[-102.0188659,43.7072581],[-102.0248233,43.7145271],[-102.036935,43.6920383],[-102.0956447,43.6956219],[-102.0957084,43.6868182],[-102.1045372,43.6849397],[-102.1132544,43.6921651],[-102.1072782,43.7021432],[-102.1163507,43.7121458],[-102.1184933,43.7046441],[-102.1383266,43.7007956],[-102.1542991,43.7070588],[-102.1551974,43.6985422],[-102.1787281,43.6873063],[-102.8079221,43.6871193]]]}}]}