{"type": "FeatureCollection", "features": [{"type": "Feature", "properties": {"slug": "rehoboth-nam", "members": 2, "country": "Namibia", "input_hash": "782366a83160a8c2"}, "geometry": {"type": "Polygon", "coordinates": [[[19.017580000014295, -18.79501999999049], [19.028699999995315, -18.934899999992943], [19.0032599999977, -19.00307999999497], [19.003029999992595, -19.18666999999552], [19.01970999999323, -19.255979999987193], [19.008180000004376, -19.48256000000403], [18.69925000000514, -19.46958000000452], [18.629350000002905, -19.603399999992707], [18.562429999990872, -19.568070000008465], [18.522109999990807, -19.628239999990928], [18.54758000001313, -19.641349999990798], [18.522269999986765, -19.68028000000051], [18.483849999989634, -19.7116699999897], [18.48099000001095, -19.726059999986337], [18.461920000001573, -19.711580000002886], [18.43783000000987, -19.73770999998671], [18.448290000000288, -19.767820000008236], [18.493619999993843, -19.8083700000134], [18.399420000001573, -19.934360000013857], [18.273959999991366, -20.047200000000906], [18.237350000010355, -19.994880000012948], [18.165260000008875, -20.038640000013423], [18.062780000007496, -19.921600000001508], [18.09372000000441, -19.906270000006792], [18.025729999993946, -19.81588000000922], [18.00708999999917, -19.82724000001328], [17.960950000007887, -19.767330000002424], [17.951479999988823, -19.77371999999743], [17.88329999998679, -19.661709999985778], [17.901179999986216, -19.65038999999526], [17.885920000000638, -19.61671999999091], [17.856269999989326, -19.632680000009735], [17.8569499999867, -19.59599999999047], [17.827699999994383, -19.532780000008664], [17.857279999996553, -19.534110000007804], [17.95019000000322, -19.483440000010905], [17.896260000008642, -19.412760000006546], [17.89457999999287, -19.35599000001095], [17.906679999985517, -19.357740000006764], [17.908590000006388, -19.330329999997065], [17.952660000009946, -19.325710000004637], [17.951559999986802, -19.282869999995473], [18.013410000014137, -19.27903000000517], [18.017809999990295, -19.154229999985567], [18.03797000000488, -19.15680999998587], [18.020370000012935, -19.03278000000866], [18.088859999988944, -19.0387200000114], [18.102069999993564, -18.970559999987035], [18.180369999987324, -18.96917999998552], [18.18007000000218, -18.842969999997894], [18.18895000001068, -18.828190000000195], [18.200379999994784, -18.74796999999673], [19.017580000014295, -18.79501999999049]]]}}]}