{"type":"FeatureCollection","features":[{"type":"Feature","properties":{"slug":"rennes","member_count":333,"matched_count":333,"unmatched":[],"source":"Overture Maps division_area (CC-BY 4.0)"},"geometry":{"type":"MultiPolygon","coordinates":[[[[-2.0498496,47.6621411],[-2.0509255,47.6500494],[-2.0809785,47.6503351],[-2.0966093,47.6313855],[-2.1022803,47.6341184],[-2.0954733,47.6466126],[-2.1142919,47.6493183],[-2.103721,47.6761105],[-2.1226357,47.6827602],[-2.1177043,47.7092629],[-2.1315641,47.7220983],[-2.1076238,47.737287],[-2.0583086,47.7378071],[-2.0618089,47.7512989],[-2.083787,47.7499856],[-2.0845226,47.7627964],[-2.1284775,47.7619337],[-2.1265358,47.7707388],[-2.073624,47.7891581],[-2.0703216,47.8118057],[-2.049282,47.8170431],[-2.0354802,47.832617],[-2.0515649,47.8405898],[-2.0548567,47.8687117],[-2.0684796,47.8520342],[-2.0876654,47.844547],[-2.109663,47.8488668],[-2.0957358,47.8617175],[-2.1157463,47.8790499],[-2.1157201,47.8901195],[-2.100676,47.8957278],[-2.1058434,47.9022877],[-2.0858594,47.9036197],[-2.0784349,47.9192896],[-2.0978317,47.9331142],[-2.1105345,47.9597076],[-2.1263965,47.9644109],[-2.1439232,47.9839547],[-2.1780362,47.9793501],[-2.1917068,47.9911864],[-2.2366079,47.9994777],[-2.2873322,47.9915009],[-2.2889694,48.0008738],[-2.274404,48.0107678],[-2.2828584,48.0179667],[-2.2792791,48.0266134],[-2.2637211,48.0399418],[-2.2421616,48.0528773],[-2.1886178,48.0525956],[-2.1700344,48.0635956],[-2.1683955,48.0763397],[-2.1808034,48.0828443],[-2.2194541,48.0809135],[-2.2371802,48.0751304],[-2.2344196,48.0632971],[-2.256056,48.0630806],[-2.2577941,48.0731796],[-2.2479325,48.0852638],[-2.2534016,48.1064328],[-2.2877809,48.1350694],[-2.2704592,48.1515275],[-2.2359613,48.1445787],[-2.2490402,48.1564713],[-2.223205,48.1729223],[-2.2181656,48.20431],[-2.2277181,48.2111152],[-2.1839153,48.2103931],[-2.1908839,48.2253886],[-2.1841459,48.2497071],[-2.1525339,48.2621527],[-2.1065089,48.2518027],[-2.1110321,48.2576866],[-2.0959016,48.2663378],[-2.1101556,48.2679076],[-2.1113816,48.2743462],[-2.0812722,48.2766643],[-2.0748514,48.2850894],[-2.0800599,48.2932434],[-2.0532585,48.2982743],[-2.0506885,48.2903854],[-2.0141662,48.2796725],[-2.0021011,48.2807288],[-2.0050149,48.2919731],[-1.9972972,48.2902626],[-1.9935019,48.2989449],[-1.974945,48.3017483],[-1.9629095,48.2907896],[-1.9563692,48.29652],[-1.9684737,48.303159],[-1.9540462,48.3157121],[-1.9669047,48.342995],[-1.929043,48.3470304],[-1.9328923,48.3608117],[-1.9473412,48.3670221],[-1.939966,48.3930891],[-1.9303689,48.394379],[-1.9431407,48.4008724],[-1.936283,48.4198345],[-1.9512447,48.428438],[-1.9518221,48.4396956],[-1.928167,48.4527252],[-1.9287529,48.4765941],[-1.9091373,48.4816089],[-1.9237582,48.5011742],[-1.911726,48.5060105],[-1.9104648,48.5152699],[-1.9318104,48.5508263],[-1.9469217,48.5393688],[-1.9698497,48.5356716],[-1.9605211,48.5503686],[-1.9775858,48.5560759],[-1.9726488,48.5651976],[-1.9871877,48.5846136],[-1.9571802,48.5733084],[-1.9541687,48.5785781],[-1.9658792,48.5846832],[-1.9607194,48.5885623],[-1.9623596,48.592918],[-1.9861178,48.5944222],[-1.9977909,48.5901311],[-1.99719,48.6031354],[-2.0131293,48.5987448],[-2.0011954,48.6152282],[-2.0148931,48.613864],[-2.0139451,48.6274151],[-2.0314472,48.6344855],[-2.0241055,48.6572647],[-1.9946014,48.6624716],[-1.9849958,48.6750088],[-1.9897825,48.6844956],[-1.936994,48.6841564],[-1.9497473,48.6906471],[-1.9601408,48.689588],[-1.9391284,48.6937963],[-1.9366823,48.702526],[-1.9299708,48.6937221],[-1.9058438,48.6903441],[-1.8876251,48.7003094],[-1.8624557,48.700068],[-1.8437278,48.7140007],[-1.8485007,48.6943015],[-1.8353898,48.680163],[-1.861712,48.668118],[-1.8721505,48.6468801],[-1.8383537,48.6137036],[-1.7687588,48.6022966],[-1.5708906,48.6262631],[-1.5659761,48.6143471],[-1.5372285,48.5989565],[-1.5430707,48.5799367],[-1.5279224,48.5788708],[-1.5189819,48.5666978],[-1.5273001,48.5653707],[-1.5329866,48.5461422],[-1.5155725,48.5375142],[-1.5178997,48.5297761],[-1.4956831,48.5089264],[-1.4899386,48.4893307],[-1.4496072,48.4874873],[-1.4348744,48.4778964],[-1.4409514,48.4712473],[-1.4217598,48.4603118],[-1.3803939,48.455801],[-1.3535112,48.4679728],[-1.3447763,48.4728434],[-1.349458,48.4816739],[-1.3411507,48.4899561],[-1.3287399,48.4862437],[-1.3268462,48.4987056],[-1.3008785,48.4989024],[-1.2789222,48.50941],[-1.2696728,48.5239979],[-1.2727509,48.5338931],[-1.2520522,48.5437557],[-1.2173253,48.5367903],[-1.2066032,48.5422598],[-1.1928752,48.5288298],[-1.1699311,48.531221],[-1.1472511,48.5177708],[-1.1172437,48.5217154],[-1.0671487,48.5056102],[-1.0771148,48.502137],[-1.0784708,48.489232],[-1.0698374,48.4858841],[-1.0789792,48.4818321],[-1.0638958,48.467265],[-1.0652504,48.4514579],[-1.0835829,48.433622],[-1.0803413,48.4140971],[-1.0533801,48.3822525],[-1.0656178,48.3674383],[-1.0556404,48.3646299],[-1.0601609,48.3488946],[-1.0450354,48.327997],[-1.0903649,48.2894712],[-1.10202,48.2628348],[-1.0805967,48.219511],[-1.0871281,48.2092237],[-1.0737845,48.2007494],[-1.0809183,48.1756221],[-1.0743302,48.159315],[-1.0643291,48.1608468],[-1.0603197,48.150231],[-1.0497611,48.0900455],[-1.021373,48.068375],[-1.033815,48.052644],[-1.0266013,48.0455966],[-1.035038,48.033764],[-1.01569,48.0033651],[-1.049039,47.98456],[-1.1249244,47.9867877],[-1.1252882,47.9715007],[-1.1553726,47.9653319],[-1.1760617,47.8975372],[-1.196626,47.8891769],[-1.1891364,47.8671729],[-1.2235706,47.8518377],[-1.2146451,47.8472457],[-1.2160843,47.831567],[-1.2203214,47.8202608],[-1.2329929,47.8198916],[-1.2426132,47.8079244],[-1.2363861,47.7983815],[-1.2458278,47.7767325],[-1.3649616,47.7990074],[-1.3616646,47.8035676],[-1.3777365,47.8098422],[-1.3884187,47.8280109],[-1.405413,47.8244081],[-1.4236631,47.8327993],[-1.478635,47.8358108],[-1.4833133,47.8313717],[-1.4671511,47.8097616],[-1.4710931,47.8029939],[-1.5030955,47.8014378],[-1.5293752,47.784519],[-1.5865903,47.7796744],[-1.5987255,47.7698168],[-1.5946576,47.7667644],[-1.6231145,47.7635267],[-1.6366466,47.7425601],[-1.6381713,47.7222786],[-1.6571923,47.709523],[-1.7064184,47.7144934],[-1.7038545,47.7004231],[-1.722156,47.6982933],[-1.7518021,47.7075693],[-1.7707605,47.6982258],[-1.8278378,47.710736],[-1.8575304,47.7083551],[-1.8778609,47.6953269],[-1.9367792,47.6864945],[-1.9570093,47.6711895],[-1.9695669,47.6736796],[-1.9737805,47.6944642],[-2.0127933,47.666132],[-2.0389645,47.6698299],[-2.0498496,47.6621411]]],[[[-2.0065293,48.5659509],[-2.0446457,48.5418144],[-2.0537426,48.5540852],[-2.0447395,48.5642361],[-2.093721,48.5703891],[-2.124454,48.5891205],[-2.123563,48.6070509],[-2.151431,48.6339426],[-2.1412486,48.6318843],[-2.1329744,48.6387242],[-2.1235828,48.6357537],[-2.1127331,48.6454306],[-2.1033179,48.6329196],[-2.1036765,48.6391312],[-2.0912513,48.6338942],[-2.0773914,48.6410417],[-2.0477311,48.6391097],[-2.0544353,48.6265675],[-2.0293433,48.6240114],[-2.0357028,48.6002342],[-2.0182278,48.6050397],[-2.0274776,48.5974337],[-1.9937001,48.5781338],[-2.0137688,48.5715612],[-2.0065293,48.5659509]]],[[[-2.027072,48.607868],[-2.02764,48.6082702],[-2.0275998,48.6083899],[-2.027072,48.607868]]],[[[-2.0231502,48.6185801],[-2.0205616,48.6182803],[-2.0229463,48.6180448],[-2.0231502,48.6185801]]],[[[-2.0271546,48.6280381],[-2.0260428,48.6279131],[-2.0273841,48.6278661],[-2.0271546,48.6280381]]],[[[-2.1546072,48.6304422],[-2.1550012,48.628756],[-2.1553669,48.6290995],[-2.1546072,48.6304422]]],[[[-2.1398804,48.6347609],[-2.139755,48.6342212],[-2.1401842,48.6345748],[-2.1398804,48.6347609]]],[[[-2.1589692,48.637472],[-2.1619838,48.6384575],[-2.1566205,48.6411095],[-2.1589692,48.637472]]],[[[-2.112473,48.6461855],[-2.1127358,48.6467712],[-2.112312,48.6469422],[-2.112473,48.6461855]]],[[[-2.1126446,48.6470167],[-2.1124917,48.6476564],[-2.1122503,48.6473995],[-2.1126446,48.6470167]]],[[[-2.0341015,48.6532294],[-2.0326906,48.6511872],[-2.0345682,48.6523912],[-2.0341015,48.6532294]]],[[[-2.0381771,48.6528661],[-2.0391092,48.6524196],[-2.0393237,48.6528493],[-2.0381771,48.6528661]]],[[[-2.0693803,48.6535378],[-2.0693798,48.6524806],[-2.0698302,48.6534233],[-2.0693803,48.6535378]]],[[[-2.0758122,48.67472],[-2.0762721,48.6753113],[-2.0753859,48.6747368],[-2.0758122,48.67472]]],[[[-2.0705297,48.6755491],[-2.0708034,48.6757026],[-2.0705191,48.6757367],[-2.0705297,48.6755491]]],[[[-2.0676108,48.6772122],[-2.0744663,48.6748441],[-2.0752406,48.6760611],[-2.0676108,48.6772122]]],[[[-2.0689121,48.6788809],[-2.0689153,48.6790586],[-2.0687477,48.6790126],[-2.0689121,48.6788809]]],[[[-2.0582729,48.680269],[-2.0585144,48.6802674],[-2.058548,48.6803901],[-2.0582729,48.680269]]],[[[-2.0450464,48.6835319],[-2.0437067,48.6838392],[-2.0440433,48.6832629],[-2.0450464,48.6835319]]],[[[-2.0462689,48.687637],[-2.046268,48.6875265],[-2.0463381,48.6875847],[-2.0462689,48.687637]]],[[[-2.0493384,48.6875994],[-2.0494037,48.6877775],[-2.0492114,48.6877183],[-2.0493384,48.6875994]]],[[[-2.0468683,48.6878398],[-2.0471884,48.6877613],[-2.047008,48.6879467],[-2.0468683,48.6878398]]],[[[-2.046928,48.6879323],[-2.0469806,48.6880436],[-2.046852,48.6879858],[-2.046928,48.6879323]]],[[[-2.0504712,48.688223],[-2.0504208,48.6879382],[-2.050596,48.6879736],[-2.0504712,48.688223]]],[[[-1.9946107,48.5872443],[-1.9942983,48.5866973],[-1.9946629,48.5868641],[-1.9946107,48.5872443]]],[[[-1.9887364,48.5917249],[-1.9892639,48.5905423],[-1.9902085,48.5911585],[-1.9887364,48.5917249]]],[[[-2.0071363,48.5957272],[-2.0079479,48.5943869],[-2.0085734,48.5948829],[-2.0071363,48.5957272]]],[[[-1.9952411,48.6747887],[-1.9954879,48.674647],[-1.9952615,48.6749024],[-1.9952411,48.6747887]]],[[[-1.9985357,48.6745834],[-1.9981883,48.6753336],[-1.9976825,48.6745571],[-1.9985357,48.6745834]]],[[[-1.9976813,48.675266],[-1.9972775,48.6752547],[-1.9975068,48.6751079],[-1.9976813,48.675266]]],[[[-1.9949611,48.6759014],[-1.9943729,48.6752007],[-1.9948109,48.6747962],[-1.9949611,48.6759014]]],[[[-1.9929363,48.677526],[-1.9945697,48.6776458],[-1.9933333,48.678408],[-1.9929363,48.677526]]],[[[-1.9937128,48.678716],[-1.9937504,48.6786426],[-1.9937838,48.6787347],[-1.9937128,48.678716]]],[[[-1.9921502,48.6833066],[-1.9921872,48.683733],[-1.9912663,48.6836988],[-1.9921502,48.6833066]]],[[[-1.9797825,48.6847256],[-1.9798345,48.6845065],[-1.979961,48.6845502],[-1.9797825,48.6847256]]],[[[-1.9462759,48.687126],[-1.9463259,48.6872072],[-1.9462063,48.6871599],[-1.9462759,48.687126]]],[[[-1.9697791,48.692043],[-1.9711921,48.6919991],[-1.9726135,48.6923426],[-1.9725656,48.6926471],[-1.9697791,48.692043]]],[[[-1.9806878,48.6949117],[-1.9839501,48.6934872],[-1.982461,48.6949736],[-1.9806878,48.6949117]]],[[[-1.9541574,48.6940853],[-1.9542268,48.6947626],[-1.9531609,48.6940926],[-1.9541574,48.6940853]]],[[[-1.9529751,48.6991721],[-1.9539675,48.6975753],[-1.9551696,48.6992309],[-1.9529751,48.6991721]]],[[[-1.8315458,48.6784457],[-1.8321539,48.677871],[-1.8323073,48.6781746],[-1.8315458,48.6784457]]],[[[-1.8311597,48.6797156],[-1.8302798,48.6792092],[-1.8314604,48.6785591],[-1.8311597,48.6797156]]],[[[-1.8260351,48.6816871],[-1.8276527,48.6807977],[-1.8270379,48.6829038],[-1.8260351,48.6816871]]],[[[-1.8268923,48.68294],[-1.8262722,48.6834658],[-1.8263372,48.6830749],[-1.8268923,48.68294]]],[[[-1.8968571,48.6971345],[-1.8956784,48.6971531],[-1.8958401,48.6963491],[-1.8968571,48.6971345]]],[[[-1.8350534,48.7129089],[-1.8379547,48.7123165],[-1.8340765,48.7155537],[-1.8350534,48.7129089]]],[[[-1.82996,48.7204354],[-1.830366,48.7220079],[-1.8293231,48.72138],[-1.82996,48.7204354]]]]}}]}