{"type":"FeatureCollection","features":[{"type":"Feature","properties":{"slug":"reno","member_count":11,"matched_count":11,"unmatched":[],"source":"Overture Maps division_area (CC-BY 4.0)"},"geometry":{"type":"Polygon","coordinates":[[[-119.1571281,38.4144963],[-120.0065184,39.0032856],[-119.9956059,40.3816281],[-119.9994436,41.994895],[-119.324432,41.993599],[-119.328743,41.591808],[-119.322571,41.590534],[-119.322876,41.413025],[-119.302063,41.413319],[-119.302048,41.388809],[-119.30423,41.235363],[-119.33049,41.234989],[-119.328835,40.958645],[-119.3087475,40.9588701],[-119.309105,40.85321],[-119.312698,40.518356],[-119.337494,40.518456],[-119.338013,39.999153],[-119.2250163,39.9993297],[-119.226139,39.899449],[-119.208628,39.899459],[-119.208543,39.809967],[-119.189761,39.809994],[-119.189707,39.788221],[-119.170899,39.788288],[-119.170641,39.680453],[-119.189327,39.68048],[-119.1905963,39.631615],[-119.1784671,39.6525067],[-119.1616897,39.6551629],[-119.1132947,39.688435],[-119.0599004,39.7405407],[-119.0585804,39.7371264],[-119.0586427,39.7298153],[-119.0772876,39.7226087],[-119.0770523,39.6367774],[-119.0890117,39.6367352],[-119.0902423,39.5480046],[-119.1175658,39.5481784],[-119.1178302,39.3886574],[-119.0997814,39.3879673],[-119.099466,39.3738026],[-119.0811128,39.3722162],[-119.080698,39.359331],[-119.0622374,39.3593171],[-119.0622738,39.3447926],[-119.0436829,39.3447273],[-119.0437669,39.3301141],[-119.0249696,39.3301831],[-119.0250215,39.3156174],[-119.0063979,39.3156637],[-119.0065608,39.2999268],[-118.9875743,39.299944],[-118.9875876,39.2854355],[-118.964853,39.2854235],[-118.9649832,39.2706421],[-118.9462258,39.270663],[-118.9462375,39.2561973],[-118.9276691,39.2561806],[-118.927673,39.2416285],[-118.9089786,39.2416525],[-118.9091009,39.2271317],[-118.8903982,39.2270083],[-118.8906268,39.1981315],[-118.8668268,39.1981853],[-118.8668042,39.1853297],[-118.8480495,39.185353],[-118.8486183,39.1710097],[-118.8296221,39.1709216],[-118.8296936,39.1564205],[-118.8110681,39.1564911],[-118.8107746,39.1419172],[-118.7924468,39.141814],[-118.7921722,39.1127535],[-118.7548176,39.1127434],[-118.7549739,39.0736855],[-118.9305492,39.0737097],[-119.0147443,38.9442399],[-119.0144353,38.8519251],[-118.9021893,38.851887],[-118.9061731,38.4153338],[-119.1571281,38.4144963]]]}}]}