{"type": "FeatureCollection", "features": [{"type": "Feature", "properties": {"slug": "rethymno", "members": 1, "country": "Greece", "input_hash": "493df2bae8c56d12"}, "geometry": {"type": "Polygon", "coordinates": [[[24.3318031, 35.291568], [24.2701958, 35.2491972], [24.2859053, 35.239531], [24.3535981, 35.2340321], [24.3576374, 35.2447866], [24.4074383, 35.245621], [24.4220065, 35.2584203], [24.4771965, 35.2522911], [24.4944339, 35.2642865], [24.519519, 35.2619543], [24.577722, 35.2963782], [24.6513465, 35.2813699], [24.6651386, 35.2899729], [24.7071309, 35.2700652], [24.6787638, 35.333336], [24.6551201, 35.3439258], [24.6471022, 35.3603613], [24.6516234, 35.3810032], [24.6437331, 35.4130209], [24.6119301, 35.3924254], [24.5518208, 35.3756682], [24.4890128, 35.367189], [24.4716975, 35.3739662], [24.4571711, 35.3643185], [24.4203404, 35.3697007], [24.4076513, 35.3595858], [24.3754691, 35.3620016], [24.3589852, 35.351555], [24.3175063, 35.3531044], [24.3318031, 35.291568]]]}}]}