{"type":"FeatureCollection","features":[{"type":"Feature","properties":{"slug":"rhine-neckar","member_count":406,"matched_count":404,"unmatched":["Bergstra\u00dfe (DE-HE, type='Rural District')","S\u00fcdliche Weinstra\u00dfe (DE-RP, type='Rural District')"],"source":"Overture Maps division_area (CC-BY 4.0)"},"geometry":{"type":"MultiPolygon","coordinates":[[[[7.5038741,49.641503],[7.4869076,49.6493439],[7.4331261,49.6404585],[7.4264753,49.6517134],[7.4457666,49.6644246],[7.4908223,49.6522493],[7.5287633,49.6607521],[7.5219331,49.6458369],[7.5038741,49.641503]]],[[[7.6770756,49.6812999],[7.680619,49.6718611],[7.6858535,49.6668647],[7.664467,49.6739802],[7.66348,49.6838036],[7.6770756,49.6812999]]],[[[7.3454808,49.8509921],[7.3409678,49.84061],[7.3567136,49.8254513],[7.3512526,49.8219692],[7.3280205,49.8221476],[7.3058189,49.8373229],[7.3454808,49.8509921]]],[[[7.4550346,49.9471366],[7.4562936,49.9574074],[7.4715704,49.9634958],[7.4860028,49.966935],[7.4974207,49.9593566],[7.4550346,49.9471366]]],[[[7.3558796,50.0819086],[7.3773114,50.1005356],[7.3941824,50.1011815],[7.4070933,50.0973949],[7.4036898,50.0871388],[7.4311506,50.0768935],[7.3963652,50.0601768],[7.3769303,50.0643578],[7.3558796,50.0819086]]],[[[7.8357977,50.1097243],[7.8391398,50.1015277],[7.8297601,50.0977925],[7.8373559,50.0839695],[7.8028331,50.0848184],[7.7869822,50.0688635],[7.7734346,50.067073],[7.7722604,50.0776972],[7.7234853,50.1129359],[7.7390048,50.1295429],[7.7247514,50.1486153],[7.6960259,50.1678345],[7.6443384,50.180229],[7.6396606,50.2052098],[7.6068909,50.2313643],[7.5785947,50.2393143],[7.589738,50.2491142],[7.6375011,50.2462226],[7.6522609,50.2559545],[7.6477245,50.2665553],[7.5962319,50.3036721],[7.5903917,50.3255416],[7.6522601,50.3246649],[7.6810029,50.3603264],[7.6978679,50.3516078],[7.724283,50.368473],[7.730631,50.3646543],[7.7450403,50.3972118],[7.7549533,50.401518],[7.751257,50.3837083],[7.7761383,50.3968873],[7.7931457,50.3882928],[7.7679082,50.3668215],[7.8011928,50.3567914],[7.8235875,50.3593932],[7.8312995,50.3514661],[7.8550364,50.3543173],[7.8601243,50.347497],[7.8699439,50.3502692],[7.8665818,50.3583778],[7.8761016,50.3598468],[7.8806493,50.3753137],[7.8523572,50.3878538],[7.8854375,50.3832028],[7.8832546,50.4021025],[7.8974916,50.4011986],[7.8936202,50.3954123],[7.9274011,50.4146839],[7.9369827,50.4150921],[7.9461425,50.3964913],[7.9825226,50.4086191],[7.985656,50.3977185],[8.0243124,50.4009796],[8.0145422,50.3839977],[8.0428342,50.3861244],[8.0454346,50.374969],[8.059653,50.3754337],[8.0766022,50.3479737],[8.0712685,50.3315523],[8.1028863,50.3270385],[8.1024374,50.3099231],[8.1194176,50.2999406],[8.1214539,50.2770088],[8.1030615,50.2596562],[8.0917447,50.2654509],[8.0788657,50.2605184],[8.0826049,50.2657952],[8.0721505,50.2735297],[8.0358503,50.2712134],[8.0358858,50.2642955],[8.0214941,50.2583042],[8.0585441,50.2342381],[8.0404398,50.2268712],[8.0349461,50.2158338],[8.0118233,50.2180765],[7.9893502,50.2386781],[7.9852787,50.2271095],[7.9528103,50.2204383],[7.9471826,50.2100343],[7.9098223,50.2038024],[7.9128753,50.1954042],[7.8827832,50.1814794],[7.8911759,50.1626437],[7.9324598,50.1438804],[7.9222704,50.1345278],[7.9292146,50.1032629],[7.9045184,50.1216295],[7.8844495,50.1142235],[7.8541934,50.1285672],[7.8357977,50.1097243]]],[[[6.7302547,50.1508853],[6.7443183,50.1336569],[6.7077097,50.1192052],[6.6887088,50.1244104],[6.6680872,50.1120238],[6.6551516,50.1172511],[6.7302547,50.1508853]]],[[[7.547049,50.588539],[7.5158166,50.5751377],[7.5016956,50.5944884],[7.5351767,50.5956129],[7.547049,50.588539]]],[[[7.8930032,49.078703],[7.8874442,49.0916265],[7.9099248,49.0926655],[7.9129211,49.1141145],[7.863068,49.1158456],[7.8457277,49.1331388],[7.8625031,49.156058],[7.8873561,49.1422613],[7.8985974,49.1478834],[7.9166484,49.177836],[7.9043871,49.1892157],[7.8883311,49.1907879],[7.9179051,49.2030821],[7.9002566,49.2109252],[7.9094593,49.2192023],[7.9009654,49.2327568],[7.8657894,49.2342785],[7.8826402,49.2445429],[7.8775667,49.2497318],[7.8488027,49.2574449],[7.8252036,49.2486485],[7.8322212,49.2703484],[7.8562866,49.2722693],[7.8725086,49.2840771],[7.87341,49.3035338],[7.8551615,49.3332314],[7.8330087,49.3245534],[7.8275735,49.3296648],[7.8323177,49.3564818],[7.857299,49.3734039],[7.8967815,49.379457],[7.9210998,49.3932288],[7.947805,49.3879265],[7.9650074,49.4002786],[7.951039,49.4174006],[8.0020519,49.438553],[7.981136,49.4367025],[7.9990933,49.4442957],[7.995216,49.4513749],[7.9815749,49.4500998],[7.9871272,49.4445297],[7.9817434,49.4402141],[7.9744378,49.4455618],[7.9652305,49.4408608],[7.9518946,49.4606895],[7.9483705,49.4867376],[8.0063886,49.4985964],[8.0438827,49.5210097],[8.0583495,49.5404046],[8.1014401,49.5538727],[8.0870475,49.5671313],[8.0936445,49.5681498],[8.089524,49.576424],[8.1149917,49.5846687],[8.111638,49.592172],[8.123536,49.597087],[8.11598,49.604708],[8.1459477,49.624711],[8.1915566,49.628057],[8.2190089,49.6100592],[8.2331715,49.5879651],[8.2809869,49.5868664],[8.2816253,49.5427866],[8.2562716,49.5362298],[8.2677536,49.5251948],[8.2714343,49.5085324],[8.26587,49.5027413],[8.2762391,49.4988467],[8.2387269,49.4913395],[8.2530346,49.4908925],[8.247773,49.4860323],[8.2524372,49.477774],[8.2712556,49.478732],[8.283813,49.4468896],[8.2357866,49.4396382],[8.2357497,49.4227932],[8.2578852,49.420945],[8.2719497,49.398646],[8.268453,49.3863502],[8.2794826,49.3889641],[8.298626,49.3687504],[8.2930049,49.3599074],[8.3040824,49.3497985],[8.3240595,49.3005408],[8.3143247,49.2983861],[8.3643067,49.2839285],[8.3681137,49.2687398],[8.3921044,49.2504749],[8.4130244,49.249842],[8.3859604,49.2276634],[8.385159,49.2188974],[8.3958214,49.2252799],[8.4053451,49.2203977],[8.3681413,49.1675551],[8.3725118,49.1503851],[8.358781,49.0989368],[8.311236,49.0533888],[8.2890872,49.0001659],[8.2325779,48.9664472],[8.2228787,48.9758829],[8.1994093,48.9668924],[8.1938851,48.9772258],[8.1398229,48.9783192],[8.0705659,48.9958113],[8.0495522,49.014457],[8.0003605,49.0283161],[7.9750359,49.0265644],[7.9667397,49.0417935],[7.9452909,49.0555975],[7.9315456,49.0580122],[7.9131349,49.0401594],[7.9030339,49.0563536],[7.888939,49.0497463],[7.8822979,49.0570664],[7.8930032,49.078703]]],[[[7.9721447,48.6367688],[7.9918287,48.6423621],[7.9915012,48.6362586],[7.9721447,48.6367688]]],[[[8.0883223,48.5851632],[8.087863,48.5870687],[8.0884193,48.5874576],[8.0883223,48.5851632]]],[[[8.0942708,48.5901358],[8.0933771,48.5905916],[8.0939672,48.5913588],[8.0942708,48.5901358]]],[[[8.0420802,48.5951653],[8.0675852,48.6100723],[8.0991646,48.595004],[8.0818068,48.5864062],[8.0851353,48.599334],[8.0702246,48.5871822],[8.0420802,48.5951653]]],[[[8.3756766,48.8305683],[8.3658888,48.8400116],[8.3850721,48.8354514],[8.3756766,48.8305683]]],[[[8.4124848,48.8742661],[8.3900941,48.8496804],[8.3609809,48.8516887],[8.359693,48.8398382],[8.3309985,48.8578686],[8.3119362,48.8579013],[8.2881442,48.8864221],[8.2965224,48.8946439],[8.2965312,48.9135629],[8.3165497,48.9230815],[8.3486881,48.9233784],[8.3553417,48.9308092],[8.3605138,48.9269808],[8.3487156,48.9099466],[8.381043,48.9035636],[8.3923707,48.8843275],[8.4037565,48.8844314],[8.4124848,48.8742661]]],[[[8.3117925,49.4835615],[8.3093124,49.52075],[8.3131192,49.5331391],[8.3228148,49.5364039],[8.3132612,49.5514416],[8.338187,49.550668],[8.338556,49.557816],[8.356494,49.561214],[8.3575664,49.5710753],[8.3859026,49.5653697],[8.3813468,49.5695367],[8.403822,49.575938],[8.405467,49.5825759],[8.4235032,49.5761667],[8.4097397,49.6043023],[8.3821607,49.627025],[8.3564443,49.6764182],[8.3629595,49.6983818],[8.4302901,49.7183597],[8.4483576,49.7337143],[8.458335,49.7256811],[8.4712978,49.7347066],[8.4863651,49.7247337],[8.5337405,49.7244448],[8.5446405,49.7167083],[8.554976,49.7279468],[8.5841016,49.7266983],[8.5960319,49.7342774],[8.6734352,49.7251028],[8.6863719,49.7302405],[8.6799065,49.7439842],[8.7013488,49.7549726],[8.738634,49.7231054],[8.7760702,49.725203],[8.7975525,49.7383649],[8.7866302,49.7215028],[8.8071486,49.707365],[8.7977972,49.6949314],[8.7844421,49.6933679],[8.8290493,49.67468],[8.8412014,49.6600261],[8.8866657,49.6576348],[8.8642366,49.6419011],[8.8847111,49.6219771],[8.8758688,49.6139548],[8.8911565,49.605807],[8.8729493,49.6068239],[8.882624,49.5991737],[8.8874135,49.5770145],[8.8823134,49.5573266],[8.8917225,49.5321222],[8.9116268,49.523398],[8.8971709,49.4977222],[8.9006521,49.484806],[8.931494,49.4705528],[8.9431611,49.4858079],[8.9542082,49.4818944],[8.9503886,49.4875971],[8.9578897,49.4955529],[8.9516666,49.5053561],[8.9683949,49.5014407],[8.986215,49.5102478],[8.9922425,49.5033768],[9.0411767,49.4984673],[9.050266,49.5200384],[9.0642234,49.530291],[9.0997925,49.5261931],[9.1060171,49.5097972],[9.1262862,49.5167632],[9.1155106,49.5337689],[9.0835439,49.5436021],[9.084681,49.5535794],[9.0708469,49.5640184],[9.0738633,49.5751221],[9.0826663,49.5616662],[9.0982367,49.5604732],[9.1077324,49.579174],[9.1945585,49.573901],[9.2404386,49.5814596],[9.2491449,49.5846632],[9.249361,49.5935953],[9.2592655,49.5932332],[9.2646171,49.6068044],[9.2851194,49.6148066],[9.2704388,49.6264296],[9.2717961,49.6347563],[9.2853834,49.6357887],[9.3040521,49.6549217],[9.3432329,49.6442512],[9.366756,49.6583897],[9.3837451,49.6427809],[9.4061042,49.6454627],[9.4194815,49.6588727],[9.4107906,49.6631864],[9.4198767,49.6636054],[9.4513484,49.6557442],[9.4532691,49.647855],[9.4918861,49.6446083],[9.5018897,49.6373128],[9.5199894,49.6431271],[9.5269015,49.6350416],[9.5392694,49.6398578],[9.5477593,49.633973],[9.5517254,49.6215085],[9.5370532,49.6155272],[9.5440062,49.6009102],[9.5121888,49.6023979],[9.4990682,49.5874191],[9.522054,49.5367531],[9.5421147,49.5327788],[9.5454523,49.5246788],[9.5242696,49.5118041],[9.5172296,49.5159081],[9.5057669,49.5012656],[9.4949511,49.5024825],[9.4906939,49.4888758],[9.517125,49.4726949],[9.5055351,49.4549317],[9.5141841,49.4456939],[9.5109007,49.4390062],[9.5540111,49.4482188],[9.5895554,49.439811],[9.6038524,49.42659],[9.5700341,49.4160245],[9.5757297,49.3989023],[9.5907614,49.4011091],[9.5937864,49.3916524],[9.5686158,49.3758642],[9.5285188,49.3818763],[9.5078949,49.3753611],[9.4744993,49.3846517],[9.4645675,49.3970552],[9.4458958,49.3905006],[9.4514693,49.3749786],[9.4398899,49.3684826],[9.4434622,49.3643531],[9.4175082,49.3580916],[9.3992179,49.3663389],[9.3548603,49.3666129],[9.3381526,49.3850626],[9.3204242,49.3853465],[9.3095256,49.3746614],[9.3153085,49.3572594],[9.2944721,49.3475768],[9.2875018,49.3297448],[9.2691797,49.3303771],[9.2616548,49.306115],[9.2516937,49.2984482],[9.2418712,49.2973894],[9.2264152,49.3113855],[9.2206847,49.3075221],[9.1978406,49.3267196],[9.1623324,49.3285242],[9.1545016,49.2959031],[9.1304318,49.2926574],[9.154166,49.2852848],[9.1505904,49.2739587],[9.0714503,49.2783966],[9.0491896,49.2930158],[9.0214391,49.2987235],[9.0275318,49.2850032],[9.0421503,49.2781887],[9.0181707,49.2652415],[9.0204279,49.2565386],[8.9973392,49.2655668],[9.002927,49.2585012],[8.997022,49.2532203],[9.0103945,49.2491318],[9.005517,49.2419061],[8.9647571,49.2277662],[8.9571742,49.2130341],[8.8866542,49.2025059],[8.8962838,49.1818271],[8.8633927,49.174367],[8.8133599,49.2013314],[8.7833959,49.1979248],[8.7528621,49.2055145],[8.7465954,49.223699],[8.7295254,49.2280871],[8.7241524,49.2376849],[8.7013602,49.2267278],[8.614435,49.2408974],[8.5480461,49.2698584],[8.5433783,49.2627401],[8.5263128,49.2655131],[8.520049,49.2779672],[8.491752,49.2891519],[8.4669735,49.2830644],[8.4045626,49.3046941],[8.399702,49.3196983],[8.4088213,49.3282296],[8.3768474,49.3414653],[8.4193238,49.3760142],[8.4418407,49.3511527],[8.4482811,49.3668932],[8.491464,49.3642691],[8.4679049,49.3576681],[8.4702759,49.3403924],[8.481908,49.3474872],[8.4976861,49.3658764],[8.5005922,49.389],[8.4724731,49.3732915],[8.4635494,49.3844979],[8.4963777,49.4022479],[8.507669,49.4362671],[8.4725117,49.4435045],[8.4769401,49.4409587],[8.39435,49.428202],[8.3621224,49.4561178],[8.3599807,49.471343],[8.3116936,49.4603711],[8.2982215,49.4766263],[8.3117925,49.4835615]],[[8.8538989,49.4473962],[8.8560803,49.4458751],[8.8543291,49.4265986],[8.8703465,49.4197771],[8.8692477,49.4126725],[8.8903251,49.4243495],[8.8719469,49.4400873],[8.8606341,49.4458609],[8.8538989,49.4473962]]],[[[9.8385274,47.9755857],[9.8732283,47.9837034],[9.8637471,47.9807724],[9.8692898,47.9796896],[9.8599321,47.9651506],[9.8396659,47.9539772],[9.8145049,47.9620949],[9.8011118,47.9612407],[9.7915342,47.9507453],[9.7792826,47.9566241],[9.8022019,47.9642627],[9.7995364,47.9701393],[9.8143378,47.9809347],[9.8293948,47.9833724],[9.8385274,47.9755857]]],[[[10.0680567,48.9933168],[10.0722768,48.9873644],[10.0613509,48.986727],[10.0495952,48.9714342],[10.0379824,48.9784574],[10.0290161,48.9683297],[10.0154342,48.9694495],[10.0141929,48.9861111],[10.0008684,48.9912916],[9.9930354,49.0170012],[9.9739113,49.0190427],[9.9799462,49.0279201],[9.9729808,49.0304448],[9.9872113,49.0312307],[9.9751043,49.040475],[9.9891592,49.0440733],[9.9871276,49.0322106],[9.9970022,49.0329106],[10.0199778,49.0523181],[10.0476002,49.0421123],[10.0447444,49.0365972],[10.0723099,49.016914],[10.0691722,49.0112796],[10.1002066,49.0013621],[10.0822188,49.0020467],[10.0680567,48.9933168]]],[[[9.8166072,49.2975595],[9.818612,49.3126105],[9.8356248,49.3141637],[9.8594754,49.3050673],[9.8532309,49.3022641],[9.8600878,49.2899098],[9.8344291,49.2845428],[9.8166072,49.2975595]]]]}}]}