{"type": "FeatureCollection", "features": [{"type": "Feature", "properties": {"slug": "ringsted", "members": 1, "country": "Denmark", "input_hash": "6d329caa55ebec83"}, "geometry": {"type": "Polygon", "coordinates": [[[11.7053083, 55.4053693], [11.7318273, 55.4089908], [11.7313318, 55.4017087], [11.7867615, 55.3682456], [11.8072314, 55.3714418], [11.8646618, 55.3516762], [11.8774216, 55.3695366], [11.9290347, 55.3674124], [11.9686522, 55.3908208], [11.9647707, 55.3976369], [11.9796871, 55.400312], [11.9567156, 55.4055694], [11.9575032, 55.4237734], [11.9352095, 55.4337109], [11.9338102, 55.4487935], [11.9454967, 55.4609233], [11.9380795, 55.4613989], [11.9392821, 55.4699262], [11.9267935, 55.4757214], [11.9164138, 55.4966193], [11.9225678, 55.51221], [11.9110145, 55.5142163], [11.9162941, 55.5229404], [11.9094839, 55.537274], [11.8690115, 55.5464458], [11.8465489, 55.5636313], [11.8255999, 55.561173], [11.8202992, 55.5494341], [11.7896821, 55.5402493], [11.7665686, 55.5390022], [11.7537206, 55.5470479], [11.7391037, 55.5404565], [11.7442559, 55.52493], [11.7381227, 55.5177785], [11.6442335, 55.506616], [11.6407337, 55.4986818], [11.6503224, 55.4918729], [11.636813, 55.4907703], [11.6402431, 55.47958], [11.686659, 55.4583521], [11.6886497, 55.4484119], [11.7108124, 55.4455388], [11.6916552, 55.4185284], [11.7076829, 55.4127448], [11.7053083, 55.4053693]]]}}]}