{"type": "FeatureCollection", "features": [{"type": "Feature", "properties": {"slug": "ringkbing-skjern", "members": 1, "country": "Denmark", "input_hash": "7a54107ee7692b0e"}, "geometry": {"type": "MultiPolygon", "coordinates": [[[[8.1839481, 55.8461567], [8.1788734, 55.8392187], [8.1782699, 55.8310593], [8.1756896, 55.8432594], [8.1839481, 55.8461567]]], [[[8.1816092, 55.8483537], [8.1815797, 55.8518792], [8.1882638, 55.8552261], [8.1816092, 55.8483537]]], [[[8.1982644, 55.8638643], [8.2009761, 55.8629289], [8.1891945, 55.8565155], [8.1982644, 55.8638643]]], [[[8.2062694, 55.8620047], [8.2069172, 55.8627866], [8.2073182, 55.8624841], [8.2062694, 55.8620047]]], [[[8.2505071, 55.8901279], [8.2517597, 55.889463], [8.2503435, 55.8894901], [8.2505071, 55.8901279]]], [[[8.2478517, 55.889909], [8.2485384, 55.889973], [8.2482366, 55.889706], [8.2478517, 55.889909]]], [[[8.2503703, 55.8909514], [8.2514982, 55.89059], [8.2501732, 55.8903949], [8.2503703, 55.8909514]]], [[[8.2490581, 55.8908623], [8.2487503, 55.8906303], [8.2488368, 55.8909049], [8.2490581, 55.8908623]]], [[[8.2496542, 55.8916989], [8.2502617, 55.8919208], [8.2503207, 55.8917019], [8.2496542, 55.8916989]]], [[[8.2323667, 55.8961003], [8.2428849, 55.8977775], [8.2457033, 55.8949088], [8.2400871, 55.8926681], [8.2323667, 55.8961003]]], [[[8.2481533, 55.8971561], [8.2501712, 55.8946073], [8.2466018, 55.8957078], [8.2481533, 55.8971561]]], [[[8.1336607, 55.9981642], [8.1567864, 55.9562719], [8.1718329, 55.9499154], [8.1636773, 55.9459722], [8.1759363, 55.9118017], [8.167415, 55.9064744], [8.174673, 55.9050911], [8.1838435, 55.8826411], [8.1797907, 55.8740318], [8.1970587, 55.8640419], [8.1811827, 55.8525334], [8.1745094, 55.8434853], [8.1759645, 55.8252915], [8.1898836, 55.8175348], [8.1714139, 55.8155588], [8.1433864, 55.9442478], [8.1161857, 55.9991408], [8.1336607, 55.9981642]]], [[[8.1761885, 55.920495], [8.1776369, 55.919255], [8.1763172, 55.9189191], [8.1761885, 55.920495]]], [[[8.1739921, 55.932239], [8.1755313, 55.9310308], [8.1779842, 55.9284029], [8.1739921, 55.932239]]], [[[8.1698866, 55.9423422], [8.1695661, 55.9426527], [8.1701186, 55.9427669], [8.1698866, 55.9423422]]], [[[8.1386054, 56.0003211], [8.1252483, 56.0017497], [8.130543, 56.002638], [8.1386054, 56.0003211]]], [[[8.1585047, 56.1049227], [8.1508684, 56.1023176], [8.1531188, 56.1032653], [8.1585047, 56.1049227]]], [[[8.2570785, 55.8851677], [8.2589199, 55.8848442], [8.2563718, 55.8847939], [8.2570785, 55.8851677]]], [[[8.2531209, 55.8849902], [8.2538854, 55.8854588], [8.2540543, 55.8850011], [8.2531209, 55.8849902]]], [[[8.2520521, 55.8902993], [8.2525845, 55.8906491], [8.2526797, 55.8904535], [8.2520521, 55.8902993]]], [[[8.2650353, 55.8911176], [8.2635507, 55.8910424], [8.2629633, 55.8915312], [8.2650353, 55.8911176]]], [[[8.2628748, 55.8919155], [8.2620017, 55.8917937], [8.2619065, 55.8920095], [8.2628748, 55.8919155]]], [[[8.3724082, 55.9005073], [8.3718744, 55.8996456], [8.3713996, 55.9000637], [8.3724082, 55.9005073]]], [[[8.3679798, 55.9013982], [8.3667447, 55.9056828], [8.3699915, 55.9050325], [8.3679798, 55.9013982]]], [[[8.3615016, 55.9470029], [8.3609229, 55.9477058], [8.3617544, 55.9474775], [8.3615016, 55.9470029]]], [[[8.3657911, 55.9526044], [8.3638103, 55.9532298], [8.3662739, 55.9534243], [8.3657911, 55.9526044]]], [[[8.3649275, 55.9543868], [8.3650173, 55.9535519], [8.3643334, 55.9537111], [8.3649275, 55.9543868]]], [[[8.3531405, 55.9640292], [8.3522098, 55.9641921], [8.3531123, 55.9641966], [8.3531405, 55.9640292]]], [[[8.347064, 55.9643174], [8.3464591, 55.9651731], [8.3483206, 55.9646515], [8.347064, 55.9643174]]], [[[8.3531392, 55.9649007], [8.3514065, 55.9649855], [8.3533122, 55.9651258], [8.3531392, 55.9649007]]], [[[8.2831067, 55.9837658], [8.2780963, 55.9801885], [8.2784383, 55.9842092], [8.2831067, 55.9837658]]], [[[8.2793704, 55.9848672], [8.2886253, 56.0040181], [8.2917608, 56.0037511], [8.2793704, 55.9848672]]], [[[8.2904707, 56.0080168], [8.2920398, 56.0040001], [8.2893831, 56.0057209], [8.2904707, 56.0080168]]], [[[8.2036834, 56.2509807], [8.276823, 56.2271114], [8.2930705, 56.2276879], [8.2944924, 56.2342835], [8.3423165, 56.2340712], [8.3597511, 56.2475301], [8.3865672, 56.2538839], [8.4357461, 56.2451325], [8.4780942, 56.2222689], [8.4697421, 56.2140623], [8.4840537, 56.2054402], [8.4848598, 56.193657], [8.5280062, 56.1933214], [8.5973681, 56.1743525], [8.5804963, 56.1750338], [8.5750096, 56.165452], [8.5850898, 56.1654708], [8.5920453, 56.154981], [8.5788205, 56.1500084], [8.624532, 56.1450368], [8.63708, 56.1249094], [8.6355656, 56.1302443], [8.6535228, 56.1287987], [8.6710877, 56.1450894], [8.7310421, 56.1448243], [8.7424298, 56.1344513], [8.7660886, 56.136431], [8.7598359, 56.1146756], [8.781449, 56.0975545], [8.8300707, 56.0970079], [8.8283873, 56.0719318], [8.8635784, 56.0682125], [8.8623718, 56.0549004], [8.7774037, 56.0493731], [8.8029797, 56.0307564], [8.7992127, 56.0231359], [8.7632066, 56.0049505], [8.7450305, 56.0045627], [8.7631368, 55.9938736], [8.7383559, 55.9716559], [8.7281909, 55.9503978], [8.7525563, 55.9088404], [8.8427268, 55.8879262], [8.8231429, 55.84754], [8.7945246, 55.8378316], [8.8272379, 55.8198668], [8.7445758, 55.806393], [8.7069122, 55.8246587], [8.7079719, 55.8377594], [8.676191, 55.8483183], [8.5926647, 55.8349197], [8.5665946, 55.8498895], [8.5323487, 55.8411702], [8.5464099, 55.8223597], [8.5332906, 55.8178215], [8.5371469, 55.8131512], [8.5127555, 55.8102668], [8.5138971, 55.7875875], [8.5048896, 55.7796529], [8.4622072, 55.780848], [8.4688888, 55.7731069], [8.4145459, 55.7951163], [8.4239763, 55.799055], [8.3742321, 55.8034017], [8.3508128, 55.8222945], [8.3277364, 55.8003553], [8.2710983, 55.7971731], [8.2426557, 55.812409], [8.2257938, 55.8128395], [8.2290903, 55.8252631], [8.179729, 55.8306676], [8.1869951, 55.8467304], [8.1849378, 55.8507372], [8.2088712, 55.8624991], [8.2079203, 55.8716775], [8.1948412, 55.8782223], [8.2121971, 55.8805499], [8.2086244, 55.8968703], [8.2316968, 55.8951893], [8.2228623, 55.8911932], [8.2351166, 55.8903824], [8.2293847, 55.8874162], [8.2435756, 55.8768618], [8.269707, 55.8838066], [8.2531437, 55.8859935], [8.2536647, 55.8927049], [8.2732013, 55.8860319], [8.2794937, 55.8772564], [8.2604434, 55.8663703], [8.2582111, 55.8468863], [8.2714485, 55.8423558], [8.2768317, 55.8515487], [8.3288162, 55.8694022], [8.3568614, 55.8943712], [8.3698393, 55.89645], [8.3835742, 55.9060729], [8.3615586, 55.911867], [8.3793564, 55.9276018], [8.374346, 55.9455359], [8.3619717, 55.9479037], [8.3730465, 55.9546827], [8.3544682, 55.9584576], [8.3618678, 55.9621355], [8.3145019, 55.9925728], [8.3029698, 56.0579956], [8.2284057, 56.0939853], [8.1600818, 56.1049615], [8.1271389, 56.117966], [8.1496721, 56.1017828], [8.1328239, 56.0895667], [8.1236601, 56.0378099], [8.1310751, 56.0083287], [8.1438853, 56.0075838], [8.1083127, 55.9984452], [8.0985498, 56.0630741], [8.1284579, 56.2094364], [8.1297919, 56.2620272], [8.2036834, 56.2509807]]]]}}]}