{"type":"FeatureCollection","features":[{"type":"Feature","properties":{"slug":"rio-de-janeiro","member_count":22,"matched_count":22,"unmatched":[],"source":"Overture Maps division_area (CC-BY 4.0)"},"geometry":{"type":"MultiPolygon","coordinates":[[[[-43.5692392,-23.0815065],[-43.5687905,-23.0814293],[-43.568629,-23.0815642],[-43.5692392,-23.0815065]]],[[[-43.5637045,-23.0820792],[-43.5613807,-23.0787516],[-43.5592771,-23.0808028],[-43.5637045,-23.0820792]]],[[[-43.5731142,-23.0731967],[-43.5741056,-23.0729739],[-43.5731367,-23.0728254],[-43.5731142,-23.0731967]]],[[[-43.5134299,-23.0625666],[-43.5081137,-23.0651248],[-43.5139301,-23.0657611],[-43.5134299,-23.0625666]]],[[[-43.5121129,-23.0612833],[-43.5123879,-23.060744],[-43.5109601,-23.0603327],[-43.5121129,-23.0612833]]],[[[-43.5094213,-23.0542145],[-43.5082814,-23.0526183],[-43.5076953,-23.0534032],[-43.5094213,-23.0542145]]],[[[-43.6821893,-23.0467698],[-43.5991102,-23.0228528],[-43.6231235,-23.008018],[-43.6531515,-23.0027803],[-43.674266,-22.9805253],[-43.6898367,-22.9919951],[-43.695819,-22.9846754],[-43.6990127,-22.9865414],[-43.7002719,-22.9863118],[-43.7110066,-22.9733866],[-43.7201346,-22.9713819],[-43.7309611,-22.95621],[-43.7967855,-22.9165408],[-43.801969,-22.9242557],[-43.8078005,-22.9231235],[-43.8059592,-22.9161221],[-43.8064553,-22.9127774],[-43.8319387,-22.9311411],[-43.8556304,-22.930253],[-43.8543146,-22.9186853],[-43.8444092,-22.9163516],[-43.8370512,-22.9036132],[-43.8674486,-22.9038917],[-43.8806421,-22.9157767],[-43.8873225,-22.8841294],[-43.9132563,-22.8845402],[-43.9279286,-22.8944691],[-43.9375366,-22.8903403],[-43.9395621,-22.8787027],[-43.9124547,-22.8497877],[-43.908255,-22.8315767],[-43.894451,-22.8309934],[-43.8777096,-22.8101255],[-43.8381009,-22.7980186],[-43.8124511,-22.7717825],[-43.8386888,-22.7583319],[-43.8326066,-22.7298366],[-43.785091,-22.6926857],[-43.8154749,-22.6870788],[-43.8176128,-22.6660558],[-43.8408408,-22.6481258],[-43.8026465,-22.6292973],[-43.7891391,-22.612452],[-43.7767927,-22.6111546],[-43.7714719,-22.5955243],[-43.7124421,-22.5495451],[-43.707727,-22.5648332],[-43.6909368,-22.551561],[-43.6817546,-22.5553668],[-43.6916916,-22.5757891],[-43.6673332,-22.5867509],[-43.6590748,-22.5804067],[-43.6753882,-22.5695213],[-43.6643366,-22.557604],[-43.6681717,-22.5476934],[-43.62364,-22.5393366],[-43.5974462,-22.5680737],[-43.6605762,-22.619649],[-43.6227298,-22.6422221],[-43.6288252,-22.6257241],[-43.6217284,-22.6165988],[-43.5805793,-22.5789763],[-43.560517,-22.5792791],[-43.5599813,-22.567146],[-43.5505349,-22.5734415],[-43.541494,-22.5651719],[-43.5100482,-22.5718323],[-43.4912514,-22.5484953],[-43.4457892,-22.5260125],[-43.4195032,-22.5380526],[-43.3891305,-22.5322989],[-43.3749664,-22.5206352],[-43.367383,-22.5268311],[-43.3319659,-22.5192206],[-43.2884898,-22.4601902],[-43.2986661,-22.4511029],[-43.3203465,-22.4590062],[-43.3520545,-22.4484651],[-43.3692074,-22.4530877],[-43.3773012,-22.4424759],[-43.3611782,-22.4197561],[-43.3379925,-22.4147451],[-43.3160521,-22.3813166],[-43.2877033,-22.3706847],[-43.2682299,-22.333687],[-43.2613216,-22.3336583],[-43.2633099,-22.3209589],[-43.2419798,-22.3031374],[-43.2354191,-22.3116604],[-43.2073633,-22.298626],[-43.1816699,-22.3011449],[-43.1738702,-22.3101723],[-43.151071,-22.3086596],[-43.1372056,-22.2946958],[-43.1398439,-22.2847307],[-43.1270074,-22.275873],[-43.1063459,-22.2815437],[-43.1012924,-22.2658729],[-43.0898996,-22.2613579],[-43.0939542,-22.2423264],[-43.076344,-22.2237774],[-43.0311708,-22.2025396],[-43.0183024,-22.2228074],[-42.9967535,-22.226125],[-42.9779814,-22.2552295],[-42.9898182,-22.278437],[-43.0138825,-22.2878841],[-43.0140801,-22.301993],[-43.0363942,-22.3083642],[-43.0461474,-22.3225209],[-43.0302366,-22.3313023],[-43.0311487,-22.3446402],[-43.0214358,-22.3552072],[-43.0353789,-22.3723562],[-43.0283031,-22.3783747],[-43.0346777,-22.3896771],[-43.0284314,-22.3952607],[-43.0380094,-22.4145339],[-43.0329402,-22.432842],[-43.0221842,-22.4411149],[-43.0288431,-22.4612512],[-43.0164912,-22.467102],[-42.999821,-22.4596747],[-42.9705864,-22.4711724],[-42.930178,-22.4479991],[-42.8902484,-22.4587089],[-42.873809,-22.4493774],[-42.8688555,-22.4319263],[-42.8506835,-22.4258415],[-42.8524038,-22.4169173],[-42.8105379,-22.4052316],[-42.8151766,-22.3915003],[-42.8022682,-22.3871269],[-42.8034126,-22.3786874],[-42.7676051,-22.3843888],[-42.7390098,-22.3704956],[-42.7400261,-22.3610029],[-42.728034,-22.3554754],[-42.7105231,-22.3615498],[-42.7109251,-22.3776425],[-42.6935511,-22.3890918],[-42.6841528,-22.3934145],[-42.6590492,-22.3858295],[-42.6519336,-22.3960664],[-42.6161618,-22.3854454],[-42.5846049,-22.3552881],[-42.5647529,-22.3592338],[-42.5562723,-22.3690549],[-42.5510756,-22.3865305],[-42.5582556,-22.4015803],[-42.5562315,-22.4239711],[-42.5756823,-22.4404995],[-42.5712024,-22.4489596],[-42.5523358,-22.4518776],[-42.5512684,-22.4603328],[-42.5633725,-22.4675799],[-42.5657256,-22.4841347],[-42.6033599,-22.5407096],[-42.5645647,-22.6201258],[-42.528002,-22.6316918],[-42.5307824,-22.7170714],[-42.4986634,-22.7256471],[-42.4587268,-22.7186383],[-42.441784,-22.7303105],[-42.4468128,-22.8227507],[-42.4720018,-22.8201836],[-42.4983648,-22.8309175],[-42.5274883,-22.8183358],[-42.5319499,-22.8087681],[-42.5531578,-22.8150612],[-42.5685638,-22.804021],[-42.5999788,-22.8152589],[-42.6342931,-22.8368721],[-42.6378241,-22.8529992],[-42.6599383,-22.8590112],[-42.6771901,-22.8777261],[-42.6738856,-22.9036485],[-42.6793533,-22.9094454],[-42.6524315,-22.9043446],[-42.6341909,-22.9197361],[-42.6411985,-22.9376052],[-42.6802894,-22.9463358],[-42.6896683,-22.9619565],[-42.7239431,-22.955803],[-42.9154945,-22.9751174],[-43.0001718,-22.9698179],[-43.0513027,-22.9820761],[-43.0459381,-22.9727502],[-43.0518012,-22.9638601],[-43.1103729,-22.9536617],[-43.1203577,-22.945454],[-43.1171905,-22.9367744],[-43.1294566,-22.939227],[-43.1353349,-22.9378952],[-43.1258421,-22.9344137],[-43.1225764,-22.922589],[-43.1116685,-22.9352955],[-43.0981113,-22.9307219],[-43.0959535,-22.9154784],[-43.1109696,-22.9154028],[-43.1172703,-22.9044408],[-43.1314136,-22.9111224],[-43.1356868,-22.8977922],[-43.1244003,-22.8925592],[-43.1345136,-22.881584],[-43.1281473,-22.876389],[-43.1144213,-22.8812921],[-43.1163664,-22.8752787],[-43.1251606,-22.8722441],[-43.1140585,-22.8644871],[-43.1116793,-22.8774479],[-43.0971075,-22.828067],[-43.0650796,-22.8029316],[-43.0788329,-22.7991691],[-43.081499,-22.7893821],[-43.068611,-22.7792345],[-43.0687485,-22.7698451],[-43.0291906,-22.7475973],[-43.0262372,-22.7434822],[-43.025457,-22.7253234],[-43.0353307,-22.7115039],[-43.0281585,-22.7060325],[-43.0370324,-22.7007432],[-43.0312774,-22.6925269],[-43.0511981,-22.6926333],[-43.0543323,-22.6830681],[-43.0669977,-22.6888273],[-43.086433,-22.676039],[-43.1067896,-22.6953132],[-43.1129399,-22.6922151],[-43.127525,-22.7150214],[-43.1541866,-22.7081459],[-43.212408,-22.7263089],[-43.219735,-22.7391147],[-43.2632429,-22.7553329],[-43.2574171,-22.7581471],[-43.2791959,-22.7797551],[-43.2668799,-22.8235856],[-43.2432664,-22.8422037],[-43.236921,-22.8611628],[-43.2325771,-22.8680371],[-43.2247153,-22.8752664],[-43.2169553,-22.8758763],[-43.2098947,-22.867048],[-43.2013205,-22.871483],[-43.2159366,-22.8863269],[-43.210834,-22.8976111],[-43.1790403,-22.8923023],[-43.1734084,-22.9021056],[-43.161575,-22.9051932],[-43.1616931,-22.9168359],[-43.1727314,-22.9167086],[-43.1686789,-22.9388303],[-43.1805182,-22.9480274],[-43.1696907,-22.9529357],[-43.1521429,-22.938626],[-43.1501569,-22.9508394],[-43.1643055,-22.9543626],[-43.1594444,-22.9643818],[-43.1836282,-22.9729542],[-43.1896797,-22.9907414],[-43.2250919,-22.9883102],[-43.2408133,-23.0004191],[-43.2755227,-23.002745],[-43.2864398,-23.0164315],[-43.3591027,-23.0109825],[-43.4386175,-23.0210008],[-43.4657988,-23.0292947],[-43.468405,-23.0379433],[-43.4815727,-23.0324827],[-43.5089343,-23.0477223],[-43.5347763,-23.0505451],[-43.5532497,-23.0764257],[-43.5724422,-23.0732376],[-43.5659835,-23.062396],[-43.5761009,-23.0569413],[-43.6100406,-23.0507884],[-43.7929685,-23.0643658],[-43.6821893,-23.0467698]],[[-43.8513792,-22.9277538],[-43.8543317,-22.9264114],[-43.8549409,-22.9276674],[-43.8513792,-22.9277538]]],[[[-43.6604905,-22.9998548],[-43.6609099,-22.9996554],[-43.660522,-22.9995278],[-43.6604905,-22.9998548]]],[[[-43.6607324,-22.9989993],[-43.6613531,-22.9984809],[-43.6599169,-22.9982437],[-43.6607324,-22.9989993]]],[[[-43.6617071,-22.9984512],[-43.6617843,-22.9985238],[-43.6617779,-22.9984518],[-43.6617071,-22.9984512]]],[[[-43.6958637,-22.9862652],[-43.6958161,-22.9864628],[-43.6961654,-22.9867202],[-43.6958637,-22.9862652]]],[[[-43.7033557,-22.9857414],[-43.7072243,-22.9866794],[-43.7028953,-22.9851461],[-43.7033557,-22.9857414]]],[[[-43.7199307,-22.9730352],[-43.7188613,-22.9723378],[-43.7201527,-22.9734936],[-43.7199307,-22.9730352]]],[[[-43.8727208,-22.958441],[-43.8730786,-22.9578224],[-43.8722608,-22.957757],[-43.8727208,-22.958441]]],[[[-43.8642339,-22.9555327],[-43.8639536,-22.955788],[-43.8645763,-22.9556752],[-43.8642339,-22.9555327]]],[[[-43.8635078,-22.947611],[-43.8573926,-22.9548402],[-43.8630971,-22.9558126],[-43.8635078,-22.947611]]],[[[-43.8573153,-22.9458007],[-43.8587462,-22.9461204],[-43.8569469,-22.9455144],[-43.8573153,-22.9458007]]],[[[-43.8660512,-22.9459796],[-43.8657107,-22.9444443],[-43.8641973,-22.9452725],[-43.8660512,-22.9459796]]],[[[-43.8824602,-22.924843],[-43.8677803,-22.9264936],[-43.8799718,-22.9508386],[-43.8824602,-22.924843]]],[[[-43.7864855,-22.9262606],[-43.7839213,-22.9277181],[-43.7858579,-22.9283801],[-43.7864855,-22.9262606]]],[[[-43.8660685,-22.9253881],[-43.8649661,-22.9245578],[-43.8649118,-22.9258091],[-43.8660685,-22.9253881]]],[[[-43.8105269,-22.925471],[-43.8129864,-22.9243336],[-43.8088044,-22.922241],[-43.8105269,-22.925471]]],[[[-43.8758027,-22.9241929],[-43.8764644,-22.9237264],[-43.8758733,-22.9235504],[-43.8758027,-22.9241929]]],[[[-43.2091076,-23.0824058],[-43.2082825,-23.0825429],[-43.2086628,-23.0827051],[-43.2091076,-23.0824058]]],[[[-43.198484,-23.0734929],[-43.1990708,-23.0746853],[-43.2004192,-23.0736022],[-43.198484,-23.0734929]]],[[[-43.1973728,-23.0726379],[-43.194186,-23.0674],[-43.1910642,-23.0716602],[-43.1973728,-23.0726379]]],[[[-43.3103848,-23.0472857],[-43.3106848,-23.0465353],[-43.3100993,-23.0472189],[-43.3103848,-23.0472857]]],[[[-43.3101488,-23.0443669],[-43.3104194,-23.0445342],[-43.3103262,-23.0442347],[-43.3101488,-23.0443669]]],[[[-43.3069846,-23.0389734],[-43.3041309,-23.0365476],[-43.3024526,-23.037946],[-43.3069846,-23.0389734]]],[[[-43.3158141,-23.037553],[-43.3165517,-23.0376003],[-43.3167905,-23.0372513],[-43.3158141,-23.037553]]],[[[-43.2083773,-23.0398283],[-43.196692,-23.0348809],[-43.2057479,-23.0400249],[-43.2083773,-23.0398283]]],[[[-43.3049798,-23.0338547],[-43.3050635,-23.0341109],[-43.3051486,-23.0339412],[-43.3049798,-23.0338547]]],[[[-43.3056579,-23.0338261],[-43.3061293,-23.0330844],[-43.3054093,-23.0336114],[-43.3056579,-23.0338261]]],[[[-43.1951341,-23.0328089],[-43.195637,-23.0338702],[-43.1963291,-23.0340756],[-43.1951341,-23.0328089]]],[[[-43.3011256,-23.0315821],[-43.2983607,-23.0339476],[-43.3012979,-23.0334791],[-43.3011256,-23.0315821]]],[[[-43.1935594,-23.031788],[-43.1930343,-23.0312677],[-43.1929106,-23.0312857],[-43.1935594,-23.031788]]],[[[-43.2762771,-23.0288897],[-43.2760763,-23.0306607],[-43.2784762,-23.0302239],[-43.2762771,-23.0288897]]],[[[-43.1912485,-23.0298625],[-43.1927266,-23.0292873],[-43.1918139,-23.02892],[-43.1912485,-23.0298625]]],[[[-43.1947189,-23.0266501],[-43.1901258,-23.0270031],[-43.1954161,-23.0273633],[-43.1947189,-23.0266501]]],[[[-43.2026353,-23.0254113],[-43.2038678,-23.0272646],[-43.2064488,-23.0259465],[-43.2026353,-23.0254113]]],[[[-43.1823576,-23.02365],[-43.1823081,-23.0233349],[-43.182213,-23.0234213],[-43.1823576,-23.02365]]],[[[-43.1833213,-23.0225934],[-43.1827298,-23.0224098],[-43.1831797,-23.0226733],[-43.1833213,-23.0225934]]],[[[-43.1838493,-23.0217538],[-43.1833903,-23.0223066],[-43.1838776,-23.0224675],[-43.1838493,-23.0217538]]],[[[-43.174696,-22.893174],[-43.1678849,-22.8996771],[-43.1667168,-22.8972748],[-43.1676557,-22.8998139],[-43.174892,-22.8975009],[-43.174696,-22.893174]]],[[[-43.2091655,-22.8919482],[-43.2113206,-22.8885482],[-43.2083964,-22.8866455],[-43.2091655,-22.8919482]]],[[[-43.1969395,-22.8880498],[-43.1964104,-22.8871349],[-43.1956076,-22.8871051],[-43.1969395,-22.8880498]]],[[[-43.1735977,-22.8841448],[-43.1756425,-22.8828244],[-43.1728191,-22.8831905],[-43.1735977,-22.8841448]]],[[[-43.2194048,-22.8621069],[-43.2157507,-22.870515],[-43.2319992,-22.8660991],[-43.2424738,-22.8371003],[-43.2236714,-22.8394976],[-43.2199351,-22.8446218],[-43.2216292,-22.8480712],[-43.224493,-22.8415842],[-43.2320791,-22.8455717],[-43.2285118,-22.8542578],[-43.2082598,-22.8585984],[-43.2194048,-22.8621069]]],[[[-43.2219521,-22.8483501],[-43.2216833,-22.8486088],[-43.2220869,-22.8485695],[-43.2219521,-22.8483501]]],[[[-43.17437,-22.8367654],[-43.1730518,-22.8387608],[-43.1759182,-22.8366645],[-43.17437,-22.8367654]]],[[[-43.2585587,-22.8244864],[-43.2592671,-22.8266609],[-43.2600342,-22.825143],[-43.2585587,-22.8244864]]],[[[-43.2551741,-22.8252154],[-43.2549092,-22.8243723],[-43.2547248,-22.8253192],[-43.2551741,-22.8252154]]],[[[-43.1910055,-22.8204159],[-43.2244527,-22.8195088],[-43.241694,-22.8339202],[-43.2659787,-22.811585],[-43.256827,-22.7974432],[-43.2285055,-22.7835894],[-43.1918371,-22.7964974],[-43.1894533,-22.7832172],[-43.1723261,-22.7757114],[-43.1705077,-22.782954],[-43.1566476,-22.7791837],[-43.1564121,-22.7862542],[-43.1784931,-22.8021919],[-43.1749854,-22.8198531],[-43.1638368,-22.8226069],[-43.1702413,-22.8312554],[-43.1756094,-22.823784],[-43.184874,-22.8335093],[-43.1910055,-22.8204159]]],[[[-43.1422221,-23.065659],[-43.1480063,-23.0607852],[-43.1496837,-23.0597669],[-43.1475842,-23.0602163],[-43.1422221,-23.065659]]],[[[-43.1474224,-22.9617077],[-43.1488895,-22.9657801],[-43.1514088,-22.9667068],[-43.1474224,-22.9617077]]],[[[-43.1466808,-22.9348743],[-43.1471164,-22.9343676],[-43.1461449,-22.9342324],[-43.1466808,-22.9348743]]],[[[-43.1606835,-22.9130478],[-43.1578103,-22.9127165],[-43.1613534,-22.9163717],[-43.1606835,-22.9130478]]],[[[-43.1252831,-22.909598],[-43.1259372,-22.9105298],[-43.1260713,-22.9105866],[-43.1252831,-22.909598]]],[[[-43.1669072,-22.896823],[-43.1658035,-22.8969648],[-43.1667457,-22.8972827],[-43.1669072,-22.896823]]],[[[-43.1184773,-22.8751583],[-43.1238893,-22.8765431],[-43.125061,-22.8746131],[-43.1184773,-22.8751583]]],[[[-43.1375729,-22.8757088],[-43.1363792,-22.8682331],[-43.1390315,-22.8682496],[-43.1391,-22.8644385],[-43.1318132,-22.8717946],[-43.1375729,-22.8757088]]],[[[-43.1263357,-22.8628865],[-43.1313543,-22.8658685],[-43.128061,-22.8613636],[-43.1263357,-22.8628865]]],[[[-43.1194623,-22.8637642],[-43.1216581,-22.85947],[-43.116846,-22.8586201],[-43.1194623,-22.8637642]]],[[[-43.167264,-22.8293222],[-43.167598,-22.829185],[-43.167201,-22.82918],[-43.167264,-22.8293222]]],[[[-43.1628196,-22.8200639],[-43.1629021,-22.8195313],[-43.162705,-22.8195415],[-43.1628196,-22.8200639]]],[[[-43.1651866,-22.8133861],[-43.1615764,-22.8117877],[-43.1614389,-22.8150271],[-43.1651866,-22.8133861]]],[[[-43.1533159,-22.8077052],[-43.1532181,-22.8078706],[-43.1533957,-22.8078285],[-43.1533159,-22.8077052]]],[[[-43.1534971,-22.8073705],[-43.1531342,-22.807599],[-43.1534062,-22.8076691],[-43.1534971,-22.8073705]]],[[[-43.1564178,-22.8071843],[-43.1566499,-22.8070799],[-43.156385,-22.8071341],[-43.1564178,-22.8071843]]],[[[-43.1241949,-22.806017],[-43.1222911,-22.8049575],[-43.1235688,-22.8071166],[-43.1241949,-22.806017]]],[[[-43.1688291,-22.7997774],[-43.1692703,-22.8007074],[-43.1694766,-22.8004932],[-43.1688291,-22.7997774]]],[[[-43.1573758,-22.8001385],[-43.1578813,-22.8003012],[-43.1577325,-22.7998636],[-43.1573758,-22.8001385]]],[[[-43.1229678,-22.7983093],[-43.1238239,-22.799188],[-43.1234553,-22.7978053],[-43.1229678,-22.7983093]]],[[[-43.1208889,-22.7959221],[-43.1221764,-22.7965643],[-43.1223732,-22.7964102],[-43.1208889,-22.7959221]]],[[[-43.1555833,-22.7945727],[-43.1553362,-22.7934282],[-43.1548777,-22.7940357],[-43.1555833,-22.7945727]]],[[[-43.1523701,-22.790302],[-43.1522205,-22.7902923],[-43.152361,-22.7903991],[-43.1523701,-22.790302]]],[[[-43.1519774,-22.7902275],[-43.1512678,-22.7897038],[-43.1518777,-22.7907357],[-43.1519774,-22.7902275]]],[[[-43.1486309,-22.7894686],[-43.1495231,-22.7889189],[-43.1486469,-22.7891136],[-43.1486309,-22.7894686]]],[[[-43.1508619,-22.7881265],[-43.150176,-22.7866751],[-43.1486582,-22.7870421],[-43.1508619,-22.7881265]]],[[[-43.1375209,-22.7833142],[-43.1384249,-22.7828084],[-43.137201,-22.7829489],[-43.1375209,-22.7833142]]],[[[-43.140967,-22.781841],[-43.1405371,-22.7822762],[-43.1409433,-22.782091],[-43.140967,-22.781841]]],[[[-43.1381634,-22.7767402],[-43.1388842,-22.7768039],[-43.1381858,-22.7763675],[-43.1381634,-22.7767402]]],[[[-43.1417013,-22.7761233],[-43.139124,-22.7766629],[-43.1399525,-22.7772416],[-43.1417013,-22.7761233]]],[[[-43.1599052,-22.7754661],[-43.15284,-22.7716895],[-43.1520533,-22.7740435],[-43.1599052,-22.7754661]]],[[[-43.1684489,-22.7687298],[-43.1676756,-22.7685891],[-43.1681069,-22.7690053],[-43.1684489,-22.7687298]]],[[[-43.1260984,-22.7471564],[-43.12724,-22.7460878],[-43.1241587,-22.7482804],[-43.1260984,-22.7471564]]],[[[-43.1023297,-22.9569948],[-43.1039773,-22.9553919],[-43.1021065,-22.9553228],[-43.1023297,-22.9569948]]],[[[-43.1159441,-22.9522218],[-43.1150238,-22.952109],[-43.1151066,-22.952359],[-43.1159441,-22.9522218]]],[[[-43.1165262,-22.9521718],[-43.1165286,-22.9517698],[-43.1161163,-22.9521051],[-43.1165262,-22.9521718]]],[[[-43.1169674,-22.8544538],[-43.1159363,-22.8537916],[-43.1160664,-22.8544874],[-43.1169674,-22.8544538]]],[[[-43.1057632,-22.846297],[-43.103853,-22.8475988],[-43.1060621,-22.848377],[-43.1057632,-22.846297]]],[[[-43.1084103,-22.8470739],[-43.1076371,-22.8469874],[-43.1083093,-22.8474311],[-43.1084103,-22.8470739]]],[[[-43.108241,-22.8405921],[-43.1155404,-22.8335599],[-43.1115127,-22.8303851],[-43.1047395,-22.8347661],[-43.108241,-22.8405921]]],[[[-43.1179154,-22.8024872],[-43.1178698,-22.8043826],[-43.1194764,-22.8038337],[-43.1179154,-22.8024872]]],[[[-43.1118335,-22.8018646],[-43.1081428,-22.8008597],[-43.1119093,-22.8030732],[-43.1118335,-22.8018646]]],[[[-43.1182408,-22.8005926],[-43.1180547,-22.801039],[-43.1183259,-22.8009702],[-43.1182408,-22.8005926]]],[[[-43.1138409,-22.7964181],[-43.1112949,-22.7967908],[-43.1133391,-22.7974472],[-43.1138409,-22.7964181]]],[[[-43.1043351,-22.7919581],[-43.1050469,-22.7909954],[-43.1038824,-22.7907006],[-43.1043351,-22.7919581]]],[[[-43.1048984,-22.7902947],[-43.1061932,-22.7917198],[-43.1066269,-22.7913974],[-43.1048984,-22.7902947]]],[[[-43.1081482,-22.7807944],[-43.1080478,-22.7808882],[-43.1081627,-22.7809255],[-43.1081482,-22.7807944]]],[[[-43.1081297,-22.7804424],[-43.1082946,-22.7805714],[-43.1083447,-22.7805278],[-43.1081297,-22.7804424]]],[[[-43.1075567,-22.7799472],[-43.1076671,-22.7799101],[-43.1075615,-22.7798821],[-43.1075567,-22.7799472]]],[[[-43.105827,-22.776608],[-43.1062383,-22.7777799],[-43.1070575,-22.7769244],[-43.105827,-22.776608]]],[[[-43.118279,-22.7708554],[-43.1183574,-22.7707024],[-43.1181898,-22.7707784],[-43.118279,-22.7708554]]],[[[-43.1162413,-22.7707796],[-43.1160976,-22.7706694],[-43.1160432,-22.7706993],[-43.1162413,-22.7707796]]],[[[-43.1182966,-22.7705091],[-43.1181736,-22.7705616],[-43.1183334,-22.7706296],[-43.1182966,-22.7705091]]],[[[-43.1160476,-22.7703164],[-43.1159499,-22.7702076],[-43.1159796,-22.7703211],[-43.1160476,-22.7703164]]],[[[-43.1156894,-22.7703033],[-43.1159439,-22.7701714],[-43.1159547,-22.7701424],[-43.1156894,-22.7703033]]],[[[-43.115542,-22.7701004],[-43.1156024,-22.7702352],[-43.1156729,-22.7700976],[-43.115542,-22.7701004]]],[[[-43.1160366,-22.7700885],[-43.1161404,-22.7700353],[-43.1160615,-22.7700081],[-43.1160366,-22.7700885]]],[[[-43.1105038,-22.7701657],[-43.1104437,-22.7698175],[-43.1103751,-22.7700154],[-43.1105038,-22.7701657]]],[[[-43.1166229,-22.769897],[-43.1165368,-22.7698674],[-43.1165622,-22.7699673],[-43.1166229,-22.769897]]],[[[-43.1147179,-22.7698388],[-43.1146932,-22.7695249],[-43.1146278,-22.7695252],[-43.1147179,-22.7698388]]],[[[-43.1144886,-22.76962],[-43.1145594,-22.769737],[-43.1145858,-22.7696116],[-43.1144886,-22.76962]]],[[[-43.1167157,-22.7688644],[-43.1168553,-22.7693655],[-43.1171655,-22.7691416],[-43.1167157,-22.7688644]]],[[[-43.1022659,-22.7631856],[-43.1021995,-22.7632045],[-43.1022518,-22.7632267],[-43.1022659,-22.7631856]]],[[[-43.1107897,-22.7695974],[-43.1128004,-22.7540897],[-43.1058263,-22.7488069],[-43.1025029,-22.7651215],[-43.1107897,-22.7695974]]],[[[-43.1193118,-22.7545064],[-43.1146073,-22.7563841],[-43.1205337,-22.7580308],[-43.1193118,-22.7545064]]],[[[-42.9290691,-23.0251218],[-42.9293524,-23.0249637],[-42.9291511,-23.024886],[-42.9290691,-23.0251218]]],[[[-42.9274494,-23.0216996],[-42.9260817,-23.0227163],[-42.9288903,-23.0241754],[-42.9274494,-23.0216996]]],[[[-42.9183637,-23.0145919],[-42.9183403,-23.0148541],[-42.9185061,-23.0148949],[-42.9183637,-23.0145919]]],[[[-42.9211627,-23.0135086],[-42.9127611,-23.0084858],[-42.9233817,-23.0181341],[-42.9211627,-23.0135086]]],[[[-42.907454,-23.0069859],[-42.9076044,-23.0073173],[-42.9078446,-23.0074704],[-42.907454,-23.0069859]]],[[[-42.9077915,-23.0071033],[-42.9086841,-23.0074351],[-42.9080061,-23.0066292],[-42.9077915,-23.0071033]]],[[[-42.9073749,-23.0060483],[-42.9078688,-23.0065976],[-42.9074568,-23.0059972],[-42.9073749,-23.0060483]]],[[[-42.9083065,-23.0058155],[-42.9084267,-23.0053573],[-42.9076242,-23.0051717],[-42.9083065,-23.0058155]]],[[[-43.0886526,-22.9886751],[-43.0813549,-22.985712],[-43.0808189,-22.9865267],[-43.0886526,-22.9886751]]],[[[-43.0677515,-22.986289],[-43.0628352,-22.9811787],[-43.0622555,-22.9825622],[-43.0677515,-22.986289]]],[[[-43.0533874,-22.9801619],[-43.0541622,-22.977557],[-43.0530904,-22.9772214],[-43.0533874,-22.9801619]]],[[[-43.1014462,-22.9311608],[-43.1020372,-22.9310048],[-43.101447,-22.9309754],[-43.1014462,-22.9311608]]],[[[-43.1019599,-22.8296959],[-43.1012859,-22.8243551],[-43.0938192,-22.8199606],[-43.093264,-22.8222524],[-43.1019599,-22.8296959]]],[[[-43.1010788,-22.7912072],[-43.1013448,-22.7913551],[-43.1011095,-22.7910978],[-43.1010788,-22.7912072]]],[[[-43.1008726,-22.7902277],[-43.1010958,-22.7904215],[-43.1011835,-22.7902777],[-43.1008726,-22.7902277]]],[[[-43.1004081,-22.7898031],[-43.1005636,-22.7899926],[-43.1005459,-22.7896835],[-43.1004081,-22.7898031]]],[[[-43.1011637,-22.7893692],[-43.1012401,-22.7898605],[-43.1016633,-22.7899523],[-43.1011637,-22.7893692]]],[[[-43.0990811,-22.7886702],[-43.1003194,-22.7893298],[-43.1006186,-22.7889741],[-43.0995324,-22.7882649],[-43.0990811,-22.7886702]]],[[[-43.0726628,-22.774246],[-43.0726277,-22.7746984],[-43.0728645,-22.7745651],[-43.0726628,-22.774246]]],[[[-43.0737975,-22.7733237],[-43.0731919,-22.7743831],[-43.0743116,-22.7741191],[-43.0737975,-22.7733237]]],[[[-43.1016963,-22.7629981],[-43.1016597,-22.7630261],[-43.1016945,-22.763029],[-43.1016963,-22.7629981]]],[[[-43.1021525,-22.7632772],[-43.1018001,-22.7625065],[-43.1016023,-22.7629038],[-43.1021525,-22.7632772]]],[[[-43.0698784,-22.7606651],[-43.0695747,-22.7603454],[-43.0697383,-22.7607176],[-43.0698784,-22.7606651]]],[[[-43.032602,-22.7421988],[-43.0272553,-22.744022],[-43.0309553,-22.7471055],[-43.032602,-22.7421988]]]]}}]}