{"type": "FeatureCollection", "features": [{"type": "Feature", "properties": {"slug": "riohacha", "members": 1, "country": "Colombia", "input_hash": "d6d47886980aa7dc"}, "geometry": {"type": "Polygon", "coordinates": [[[-72.618153597, 11.320111891636351], [-72.61293001299998, 11.35118365663538], [-72.631124268, 11.381921171634445], [-72.64131242399998, 11.423650785633198], [-72.65615736199999, 11.437525466632778], [-72.69818647699998, 11.445157774632527], [-72.696883721, 11.458548000632133], [-72.70907181299998, 11.4663624516319], [-72.71401965500002, 11.482019880631409], [-72.757472695, 11.478045920631534], [-72.768159616, 11.492199840631114], [-72.785250926, 11.487351944631262], [-72.78604023600002, 11.506188629630685], [-72.80241086199999, 11.502713829630807], [-72.83895154700002, 11.515263770630392], [-72.85490690799998, 11.510052525630552], [-72.86544938999998, 11.524978139630095], [-72.87778495200001, 11.52815344463001], [-72.88574691399998, 11.540087704629682], [-72.879976473, 11.55055321762935], [-72.89059816600002, 11.560287172629064], [-72.99177032400002, 11.512820099630495], [-73.032323481, 11.48922052563121], [-73.09505665299997, 11.425455993633147], [-73.14310667400002, 11.40752517463368], [-73.21681579, 11.329877112636058], [-73.208620725, 11.309040036636679], [-73.197023447, 11.30630269463677], [-73.180353422, 11.279453143637586], [-73.14592410699998, 11.253579548638369], [-73.16382403799997, 11.22740632463917], [-73.16449436800002, 11.187366337640393], [-73.18230066900003, 11.161984421641163], [-73.21117682900001, 11.15544325664136], [-73.21135668900001, 11.13462835264198], [-73.23691205, 11.096667943643139], [-73.32311057599998, 11.042250969644817], [-73.32864010399999, 11.025515606645316], [-73.314254888, 11.00773205664587], [-73.32066191899997, 10.986372468646532], [-73.32944217900001, 10.973371788646926], [-73.36078956199998, 10.96680815764711], [-73.36443635199998, 10.943293294647834], [-73.38465477400001, 10.927465471648327], [-73.38584477199998, 10.916468727648647], [-73.355088394, 10.918457456648593], [-73.34144555300003, 10.910181040648842], [-73.320289436, 10.923869286648438], [-73.297849471, 10.925516044648377], [-73.282074964, 10.939625390647954], [-73.26074782299997, 10.92969979364825], [-73.20580252100001, 10.939120203647976], [-73.19830845899997, 10.932636980648146], [-73.19316977099999, 10.943111763647826], [-73.157403182, 10.950521341647628], [-73.114703507, 10.987094947646492], [-73.078353579, 10.971264114646987], [-73.07604498900002, 10.990837473646375], [-73.030538949, 11.013411437645692], [-73.015145728, 11.007939915645865], [-72.98593366300003, 11.030372069645175], [-72.949547312, 11.029363037645199], [-72.93192542399999, 11.01777840664555], [-72.89718665100003, 11.048208079644626], [-72.88494622000002, 11.069753988643972], [-72.86951302199998, 11.077010206643756], [-72.867510961, 11.095891681643188], [-72.821676906, 11.108427022642793], [-72.78867339499999, 11.134982835641992], [-72.733100761, 11.148201208641566], [-72.70937652100002, 11.16284942564112], [-72.668354728, 11.161690393641184], [-72.660207764, 11.16861979964095], [-72.64726993599999, 11.162829751641135], [-72.64209140999998, 11.183802722640483], [-72.64772398000002, 11.21135651863965], [-72.64345538100002, 11.2167805016395], [-72.62146399800002, 11.209702166639701], [-72.61552925900003, 11.21548755963952], [-72.61878231600002, 11.229931901639066], [-72.602852429, 11.23927600663881], [-72.61542098000001, 11.292173241637188], [-72.60930878599999, 11.303879257636835], [-72.618153597, 11.320111891636351]]]}}]}