{"type": "FeatureCollection", "features": [{"type": "Feature", "properties": {"slug": "riyadh", "members": 4, "country": "Saudi Arabia", "input_hash": "0816c1143b499f3d"}, "geometry": {"type": "Polygon", "coordinates": [[[46.65607, 24.3342999], [46.56347, 24.3532699], [46.54482, 24.3444599], [46.53048, 24.3144499], [46.53166, 24.2651599], [46.55048, 24.2396799], [46.55165, 24.2108599], [46.56847, 24.1887099], [46.56347, 24.1094301], [46.59246, 24.0601201], [46.62793, 24.0209801], [46.66208, 23.9088801], [46.64176, 23.7917901], [46.64391, 23.7195101], [46.61078, 23.6692001], [46.60094, 23.6651801], [46.57978, 23.6730201], [46.5951, 23.6422001], [46.57278, 23.6455401], [46.57145, 23.6537001], [46.5528, 23.6636901], [46.54297, 23.6575301], [46.52498, 23.6730201], [46.501, 23.7638001], [46.48834, 23.7554601], [46.47301, 23.7956101], [46.41555, 23.8402501], [46.39023, 23.8758901], [46.3879, 23.9065401], [46.32611, 23.9072101], [46.20618, 23.8527401], [46.09286, 23.8441601], [46.10528, 23.7774601], [46.12736, 23.7553801], [46.15494, 23.7454501], [46.15605, 23.7377201], [46.14281, 23.6902701], [46.15826, 23.6593701], [46.11632, 23.6560601], [46.08321, 23.6968901], [46.06887, 23.7012901], [46.03465, 23.6935901], [46.02362, 23.7178601], [46.01148, 23.7973101], [45.98283, 23.8044301], [45.95713, 23.8648501], [45.88022, 23.9570101], [45.89288, 23.9928201], [45.9077, 24.0071401], [45.9087, 24.0262901], [45.92136, 24.0376201], [45.9177, 24.0682701], [45.93585, 24.1110801], [45.92902, 24.1978599], [45.93385, 24.2241699], [45.9229, 24.2774599], [45.9251, 24.2844699], [45.94097, 24.2737099], [45.971, 24.3612499], [45.97, 24.3859099], [45.95501, 24.4063899], [45.93419, 24.3982299], [45.9122, 24.4283799], [45.89289, 24.4300199], [45.86156, 24.4188799], [45.85007, 24.4357099], [45.82226, 24.4363699], [45.80743, 24.4460399], [45.80277, 24.4666899], [45.8159, 24.4913799], [45.78128, 24.4931699], [45.77812, 24.4996599], [45.79028, 24.5101599], [45.78728, 24.5236499], [45.80289891063126, 24.55852702209532], [45.78371, 24.5719499], [45.75354, 24.6148399], [45.7106, 24.6412099], [45.71981, 24.6539499], [45.73411, 24.7205199], [45.76353, 24.7559799], [45.8165, 24.7604799], [45.82637, 24.7966799], [45.97428, 24.8259899], [46.00476, 24.8393199], [46.00759, 24.8859499], [46.03424, 24.9047799], [46.03907, 24.9369199], [46.06172, 24.9352599], [46.08163, 24.9442799], [46.07979, 24.9505999], [46.08487, 25.0045499], [46.09919, 25.0238699], [46.16083, 25.0371899], [46.29757, 25.0120399], [46.30624, 25.0235299], [46.33488, 25.0353699], [46.39351, 25.0356899], [46.46406, 25.0169699], [46.4754344, 25.0391454], [46.5053692, 25.0566511], [46.51093, 25.0796999], [46.55091, 25.1001499], [46.54309, 25.1667799], [46.53176, 25.1937599], [46.56441, 25.2167499], [46.54659, 25.2488899], [46.55946, 25.2672799], [46.59646, 25.2024399], [46.65481, 25.1492699], [46.71446, 25.0688599], [46.76115, 25.0286699], [46.78968, 24.9573299], [46.83508, 24.9197199], [46.85064, 24.8613699], [46.84804, 24.8146699], [46.86101, 24.7939199], [46.98941, 24.9236099], [47.0195, 24.9362299], [47.18423, 24.9410699], [47.35196, 24.9640499], [47.35429, 24.9348999], [47.38027, 24.9243999], [47.40542, 24.9279099], [47.47571, 24.9866999], [47.45323, 25.0261799], [47.45323, 25.0378299], [47.46389, 25.0456699], [47.4912, 25.0466699], [47.51069, 25.0341699], [47.56582, 25.0235199], [47.58581, 25.0278499], [47.60684, 25.0177499], [47.64342, 24.9786299], [47.67597, 24.9671199], [47.70143, 24.9350499], [47.70731, 24.9059299], [47.7428, 24.8493799], [47.73913, 24.7918499], [47.72934, 24.7644399], [47.74256, 24.6302899], [47.7357, 24.5992099], [47.72102, 24.5825599], [47.73252, 24.5218499], [47.72762, 24.5157299], [47.69193, 24.5221799], [47.66145, 24.5113499], [47.65112, 24.4750399], [47.65578, 24.4373999], [47.598161, 24.4224723], [47.5697978, 24.4346053], [47.5503833, 24.4592669], [47.5105049, 24.4865521], [47.4779725, 24.5269553], [47.3174094, 24.5180351], [47.2087931, 24.5243317], [47.1841315, 24.4975712], [47.1977741, 24.4550692], [47.1951053, 24.4296567], [47.13611, 24.3980899], [47.12578, 24.3594399], [47.10046, 24.3299699], [47.07481, 24.3134799], [46.98536, 24.3154799], [46.95239, 24.2844899], [46.95089, 24.2716699], [46.97787, 24.2203699], [46.8060881, 24.2470333], [46.7285678, 24.2858313], [46.71637, 24.3023199], [46.65607, 24.3342999]], [[46.10511, 24.9375399], [46.12177516322267, 24.930108401507926], [46.07979, 24.9505999], [46.10511, 24.9375399]], [[46.62829102395327, 24.384479638656284], [46.63553482688037, 24.390006900605396], [46.63076, 24.3870999], [46.62829102395327, 24.384479638656284]], [[46.6226, 24.3784399], [46.62227766048502, 24.375859034950064], [46.62541196504553, 24.381424166825276], [46.6226, 24.3784399]], [[46.27039, 24.7252099], [46.27162473001253, 24.72423434680613], [46.26615, 24.7317499], [46.27039, 24.7252099]], [[46.27463, 24.7218599], [46.2764451509319, 24.7217720862111], [46.27327416810328, 24.72293113510708], [46.27463, 24.7218599]], [[46.43942, 24.7359999], [46.43695, 24.7368799], [46.34793, 24.7359999], [46.43942, 24.7359999]], [[46.439305293504816, 24.73253846282178], [46.43977, 24.7333399], [46.43942, 24.7359999], [46.439305293504816, 24.73253846282178]], [[46.43447, 24.7192099], [46.45037, 24.7031399], [46.45343703912952, 24.701869027432522], [46.43447, 24.7192099]], [[46.436943411002105, 24.686984863098203], [46.43805, 24.6875699], [46.45037, 24.7031399], [46.436943411002105, 24.686984863098203]], [[46.38007, 24.5474999], [46.38741, 24.5436599], [46.37873722444394, 24.54909981298319], [46.38007, 24.5474999]], [[46.656763620415845, 24.407233943653292], [46.65656, 24.4079299], [46.64894, 24.4188099], [46.656763620415845, 24.407233943653292]], [[46.65151680319364, 24.393878911111116], [46.65524, 24.3942599], [46.65757, 24.3952599], [46.65151680319364, 24.393878911111116]], [[46.64139877609645, 24.393576978505248], [46.63995071227697, 24.3926953711705], [46.648669913003346, 24.393587593303653], [46.64139877609645, 24.393576978505248]], [[46.616, 24.3935399], [46.59151, 24.3917099], [46.64106398670319, 24.39357648976161], [46.616, 24.3935399]], [[46.1816981707626, 24.462747178946035], [46.17075191603107, 24.464523207296203], [46.17878, 24.4623299], [46.1816981707626, 24.462747178946035]], [[46.50212, 24.9827399], [46.52633855692089, 24.987219253102467], [46.52491, 24.9875099], [46.50212, 24.9827399]], [[46.55405, 24.9631499], [46.54004064530364, 24.981517921996677], [46.55547, 24.9608399], [46.55405, 24.9631499]], [[46.54626475562015, 24.95261160946783], [46.51643, 24.9452999], [46.53992, 24.9502399], [46.54626475562015, 24.95261160946783]], [[46.44313, 24.9558999], [46.44230232968382, 24.95467132687442], [46.45126, 24.9611899], [46.44313, 24.9558999]], [[46.63336, 24.7545399], [46.6294409859155, 24.749462435211274], [46.6323, 24.7518899], [46.63336, 24.7545399]], [[46.62763750075308, 24.747931174224316], [46.61446, 24.7419999], [46.62647, 24.7469399], [46.62763750075308, 24.747931174224316]], [[46.48376, 24.6969599], [46.47493176360326, 24.697246531051842], [46.47563, 24.6971299], [46.48376, 24.6969599]], [[46.46446171586526, 24.698995412499755], [46.45663417368791, 24.700544247919375], [46.45761, 24.7001399], [46.46446171586526, 24.698995412499755]]]}}]}