{"type": "FeatureCollection", "features": [{"type": "Feature", "properties": {"slug": "rnne", "members": 1, "country": "Denmark", "input_hash": "0e701496db95192c"}, "geometry": {"type": "MultiPolygon", "coordinates": [[[[14.7810525, 55.050786], [14.7801604, 55.0508583], [14.7803068, 55.0511629], [14.7810525, 55.050786]]], [[[14.6969927, 55.0961958], [14.6970591, 55.0962821], [14.6970866, 55.0959142], [14.6969927, 55.0961958]]], [[[14.698291, 55.1888671], [14.7026737, 55.1842625], [14.7005843, 55.1816208], [14.698291, 55.1888671]]], [[[14.7285153, 55.244712], [14.7311653, 55.2452012], [14.7283637, 55.2464665], [14.7285153, 55.244712]]], [[[14.8073863, 55.2725711], [14.8072133, 55.2725612], [14.8073561, 55.2725776], [14.8073863, 55.2725711]]], [[[14.8071825, 55.272751], [14.8071952, 55.2727464], [14.8071496, 55.2727323], [14.8071825, 55.272751]]], [[[14.8072958, 55.2729798], [14.8072596, 55.2729966], [14.8072857, 55.2730031], [14.8072958, 55.2729798]]], [[[14.8077072, 55.2734203], [14.80774, 55.2733901], [14.8077122, 55.2733676], [14.8077072, 55.2734203]]], [[[14.8073722, 55.2737618], [14.8071845, 55.273693], [14.8072824, 55.2738049], [14.8073722, 55.2737618]]], [[[14.8073997, 55.2738057], [14.8072294, 55.2738775], [14.807393, 55.2738531], [14.8073997, 55.2738057]]], [[[14.8062485, 55.2766512], [14.8062691, 55.2766249], [14.8061777, 55.2765839], [14.8062485, 55.2766512]]], [[[14.8061807, 55.2768442], [14.8062116, 55.2768161], [14.8061048, 55.276774], [14.8061807, 55.2768442]]], [[[14.8058457, 55.2776467], [14.805913, 55.2773593], [14.8058441, 55.2775036], [14.8058457, 55.2776467]]], [[[14.8053142, 55.2775452], [14.8047985, 55.2776177], [14.80528, 55.2776659], [14.8053142, 55.2775452]]], [[[14.8049238, 55.2778324], [14.8048352, 55.2777886], [14.8046902, 55.2778931], [14.8049238, 55.2778324]]], [[[14.8014754, 55.2795339], [14.8015384, 55.279501], [14.8014526, 55.27943], [14.8014754, 55.2795339]]], [[[14.7967578, 55.2820027], [14.7968547, 55.2820042], [14.7968469, 55.281984], [14.7967578, 55.2820027]]], [[[14.7968848, 55.2819878], [14.7968678, 55.2820183], [14.7969896, 55.2820333], [14.7968848, 55.2819878]]], [[[14.7967487, 55.2819908], [14.7967068, 55.2819945], [14.7966138, 55.2820497], [14.7967487, 55.2819908]]], [[[14.7967146, 55.282078], [14.7968259, 55.2820854], [14.796729, 55.2820616], [14.7967146, 55.282078]]], [[[14.7964633, 55.2820273], [14.796383, 55.2820407], [14.7965069, 55.2822569], [14.7964633, 55.2820273]]], [[[14.7964567, 55.2823524], [14.796513, 55.2823166], [14.7963271, 55.2823397], [14.7964567, 55.2823524]]], [[[14.7969869, 55.2825902], [14.7972134, 55.2823554], [14.7968744, 55.2823815], [14.7969869, 55.2825902]]], [[[14.7963028, 55.284132], [14.7963926, 55.2841603], [14.7963658, 55.2841034], [14.7963028, 55.284132]]], [[[14.7838908, 55.2889569], [14.784029, 55.2889744], [14.7842395, 55.2889813], [14.7838908, 55.2889569]]], [[[14.7842073, 55.289241], [14.7841054, 55.2892379], [14.7841725, 55.2893196], [14.7842073, 55.289241]]], [[[14.7792386, 55.2949768], [14.7791071, 55.2949608], [14.7791809, 55.2950181], [14.7792386, 55.2949768]]], [[[14.7692983, 55.2977401], [14.7691917, 55.2975534], [14.7690931, 55.2976759], [14.7692983, 55.2977401]]], [[[14.7025394, 55.1147346], [14.7042078, 55.1875646], [14.6998693, 55.1888217], [14.7108757, 55.222878], [14.7524779, 55.2682088], [14.7522528, 55.2881279], [14.7732116, 55.2991212], [14.7782555, 55.2897866], [14.7940376, 55.285532], [14.7948839, 55.2821905], [14.7999586, 55.2813285], [14.8015237, 55.2780028], [14.8055765, 55.2774279], [14.8066588, 55.2729191], [14.8169625, 55.264373], [14.816131, 55.2605903], [14.8249394, 55.25253], [14.8546958, 55.2417202], [14.8723286, 55.2388728], [14.8841357, 55.228272], [14.9394953, 55.2104651], [14.9692771, 55.2151436], [14.9890476, 55.1940581], [15.0210625, 55.1765718], [15.088574, 55.150629], [15.1401485, 55.1388165], [15.1454097, 55.1410471], [15.1441469, 55.1356245], [15.1553017, 55.1319429], [15.151729, 55.1278148], [15.1561654, 55.1233274], [15.1472786, 55.1204481], [15.1433632, 55.1130793], [15.1491111, 55.1072508], [15.1459649, 55.1027005], [15.1510236, 55.0950095], [15.1557416, 55.0924632], [15.1534054, 55.0889266], [15.1563317, 55.0866869], [15.155291, 55.0852846], [15.1569217, 55.08308], [15.135615, 55.0657047], [15.1362007, 55.0573589], [15.1365193, 55.0630331], [15.1412496, 55.064906], [15.1384762, 55.0570204], [15.109849, 55.039288], [15.1230749, 55.0264493], [15.1197823, 55.0143299], [15.0854838, 54.9894585], [14.9623972, 55.0041272], [14.8633969, 55.0380046], [14.7768447, 55.0524497], [14.7250861, 55.0791242], [14.6894466, 55.0866143], [14.6764358, 55.0937654], [14.6897694, 55.0867499], [14.6946725, 55.088001], [14.6869156, 55.0942168], [14.6985175, 55.0954554], [14.6911044, 55.0997613], [14.6807971, 55.0950033], [14.7025394, 55.1147346]]], [[[15.106796, 55.1470562], [15.1072419, 55.147011], [15.1069629, 55.1469665], [15.106796, 55.1470562]]], [[[15.1056647, 55.1487208], [15.1057184, 55.1485001], [15.1055601, 55.14852], [15.1056647, 55.1487208]]], [[[15.0922889, 55.1503985], [15.0922131, 55.1504271], [15.0922818, 55.1504623], [15.0922889, 55.1503985]]], [[[15.0917508, 55.150502], [15.0920579, 55.1504336], [15.0917296, 55.150397], [15.0917508, 55.150502]]], [[[15.0769444, 55.1556709], [15.0774594, 55.1557305], [15.0772081, 55.1555981], [15.0769444, 55.1556709]]], [[[15.0729954, 55.1573737], [15.0730276, 55.1571377], [15.0728452, 55.1570672], [15.0729954, 55.1573737]]], [[[15.0559527, 55.1648818], [15.0562692, 55.1644222], [15.055832, 55.1645923], [15.0559527, 55.1648818]]], [[[15.0322065, 55.1740201], [15.032233, 55.1740656], [15.0322539, 55.1739908], [15.0322065, 55.1740201]]], [[[15.0193365, 55.1794619], [15.0194022, 55.1794994], [15.019716, 55.1793585], [15.0193365, 55.1794619]]], [[[14.9840775, 55.204339], [14.9845308, 55.204215], [14.9837825, 55.2040145], [14.9840775, 55.204339]]], [[[14.9835277, 55.2054364], [14.9837261, 55.2055022], [14.983879, 55.2054594], [14.9835277, 55.2054364]]], [[[14.9619023, 55.2144045], [14.961838, 55.214377], [14.9618715, 55.2144297], [14.9619023, 55.2144045]]], [[[14.9620333, 55.2144884], [14.9622218, 55.2144119], [14.9621118, 55.2143333], [14.9620333, 55.2144884]]], [[[14.9615939, 55.2144948], [14.9616435, 55.2144879], [14.9615107, 55.2144527], [14.9615939, 55.2144948]]], [[[14.9610905, 55.2146443], [14.9613069, 55.2144181], [14.9611981, 55.214345], [14.9610905, 55.2146443]]], [[[14.9649963, 55.2149033], [14.9650767, 55.2148314], [14.9648246, 55.2148789], [14.9649963, 55.2149033]]], [[[14.89304, 55.2262267], [14.8930326, 55.2262757], [14.8931426, 55.2262512], [14.89304, 55.2262267]]], [[[14.8750296, 55.238255], [14.8750645, 55.2381999], [14.8749009, 55.238151], [14.8750296, 55.238255]]], [[[14.8583919, 55.2415367], [14.8583329, 55.2416377], [14.8586923, 55.2418334], [14.8583919, 55.2415367]]], [[[14.8581022, 55.2420475], [14.8584884, 55.242075], [14.8583221, 55.2419955], [14.8581022, 55.2420475]]], [[[14.8489089, 55.2467509], [14.8486208, 55.2466305], [14.8487991, 55.2468683], [14.8489089, 55.2467509]]], [[[14.818266, 55.2593767], [14.818258, 55.259337], [14.8182097, 55.2594027], [14.818266, 55.2593767]]], [[[14.8085759, 55.2722659], [14.8086181, 55.2722464], [14.8085859, 55.2722403], [14.8085759, 55.2722659]]], [[[14.8086731, 55.2722693], [14.8087368, 55.2722575], [14.8087234, 55.2722529], [14.8086731, 55.2722693]]], [[[14.8088515, 55.2723866], [14.8088951, 55.2723706], [14.8088676, 55.2723576], [14.8088515, 55.2723866]]], [[[14.8082151, 55.2732163], [14.808195, 55.2732025], [14.808199, 55.2732232], [14.8082151, 55.2732163]]], [[[14.8081367, 55.2734516], [14.8081166, 55.2734363], [14.8080522, 55.2734493], [14.8081367, 55.2734516]]], [[[15.1234464, 55.0250426], [15.1230307, 55.0245506], [15.12326, 55.0250533], [15.1234464, 55.0250426]]], [[[15.156314, 55.0809824], [15.1561584, 55.081158], [15.1565125, 55.0812174], [15.156314, 55.0809824]]], [[[15.1573525, 55.0832592], [15.1571215, 55.083283], [15.1570182, 55.0833941], [15.1573525, 55.0832592]]], [[[15.1568673, 55.0835616], [15.1568935, 55.0835457], [15.1568442, 55.0835113], [15.1568673, 55.0835616]]], [[[15.1568442, 55.0836568], [15.1571199, 55.0836427], [15.1569859, 55.0834426], [15.1568442, 55.0836568]]], [[[15.1567979, 55.0840633], [15.1568596, 55.0839381], [15.1564606, 55.0838253], [15.1567979, 55.0840633]]], [[[15.1568732, 55.0841512], [15.1566946, 55.0842347], [15.1567928, 55.0844817], [15.1568732, 55.0841512]]], [[[15.1500434, 55.0981597], [15.149673, 55.0985611], [15.1505357, 55.0985187], [15.1500434, 55.0981597]]], [[[15.1504764, 55.120266], [15.15167, 55.1198518], [15.1513562, 55.119792], [15.1504764, 55.120266]]], [[[15.1547069, 55.1278965], [15.1539452, 55.1271454], [15.1543978, 55.1281097], [15.1547069, 55.1278965]]], [[[15.1493263, 55.13442], [15.1500157, 55.134604], [15.1494658, 55.1340826], [15.1493263, 55.13442]]], [[[15.1122301, 55.1463572], [15.112275, 55.1463028], [15.111927, 55.1463523], [15.1122301, 55.1463572]]], [[[15.1124561, 55.1464921], [15.1125526, 55.1463956], [15.1125017, 55.1463634], [15.1124561, 55.1464921]]], [[[15.1121315, 55.1464615], [15.1121543, 55.1464289], [15.1119592, 55.1464285], [15.1121315, 55.1464615]]], [[[15.1126036, 55.1466163], [15.1126197, 55.1466546], [15.1130033, 55.1465059], [15.1126036, 55.1466163]]], [[[15.1122844, 55.1467083], [15.1124078, 55.1466822], [15.1124668, 55.1466086], [15.1122844, 55.1467083]]], [[[15.1070843, 55.1466929], [15.1070608, 55.1467286], [15.1075155, 55.1468056], [15.1070843, 55.1466929]]], [[[15.1129577, 55.1468217], [15.1129577, 55.1468416], [15.1130569, 55.1468324], [15.1129577, 55.1468217]]], [[[15.1081726, 55.1473551], [15.1082866, 55.1471681], [15.1076248, 55.1470106], [15.1081726, 55.1473551]]], [[[15.112381, 55.147293], [15.1123019, 55.147267], [15.1121584, 55.1472838], [15.112381, 55.147293]]], [[[15.1083094, 55.147375], [15.1084489, 55.1473735], [15.1083174, 55.1473536], [15.1083094, 55.147375]]], [[[15.1074732, 55.1474241], [15.1073854, 55.1474543], [15.107437, 55.1474904], [15.1074732, 55.1474241]]], [[[15.1124896, 55.1474754], [15.1124574, 55.1474793], [15.1124883, 55.1475053], [15.1124896, 55.1474754]]], [[[15.1076496, 55.1475544], [15.107663, 55.1475927], [15.1076791, 55.1474976], [15.1076496, 55.1475544]]], [[[15.1124427, 55.1475789], [15.1125526, 55.147536], [15.112047, 55.1475452], [15.1124427, 55.1475789]]], [[[15.1085722, 55.1475896], [15.1082772, 55.1475651], [15.1084971, 55.1476356], [15.1085722, 55.1475896]]], [[[15.1071185, 55.1481567], [15.1072687, 55.1482089], [15.1076335, 55.1481138], [15.1071185, 55.1481567]]]]}}]}