{"type":"FeatureCollection","features":[{"type":"Feature","properties":{"slug":"rochester-mn","member_count":149,"matched_count":149,"unmatched":[],"source":"Overture Maps division_area (CC-BY 4.0)"},"geometry":{"type":"Polygon","coordinates":[[[-91.7305399,43.5007349],[-93.0493589,43.4997072],[-93.0460482,44.196737],[-92.5508518,44.1948492],[-92.5509311,44.3685378],[-92.4307019,44.3683359],[-92.430191,44.4553257],[-92.2437114,44.4557803],[-92.215163,44.438503],[-92.056486,44.402729],[-92.038147,44.388731],[-91.9636,44.362112],[-91.918625,44.322671],[-91.913574,44.310392],[-91.9229809,44.2880031],[-91.896388,44.27469],[-91.88704,44.251772],[-91.892698,44.231105],[-91.8741709,44.1997443],[-91.8583413,44.1929823],[-92.0793558,44.1929891],[-92.079323,43.8472171],[-91.730423,43.8469013],[-91.7305399,43.5007349]]]}}]}