{"type":"FeatureCollection","features":[{"type":"Feature","properties":{"slug":"rocky-mount","member_count":5,"matched_count":4,"unmatched":["Nash (US-NC)"],"source":"Overture Maps division_area (CC-BY 4.0)"},"geometry":{"type":"Polygon","coordinates":[[[-77.502174,35.773052],[-77.823776,35.572868],[-77.82341,35.585571],[-77.999329,35.585953],[-78.057854,35.59782],[-78.0647898,35.585252],[-78.1256175,35.6031126],[-78.157831,35.6855736],[-78.1608381,35.7120348],[-78.1919334,35.7305366],[-77.90004,35.842934],[-77.872887,35.860149],[-77.844574,35.837402],[-77.7708353,36.0088692],[-77.706963,36.1153775],[-77.698148,36.1532035],[-77.7163276,36.1460532],[-77.7209237,36.1339214],[-77.7315857,36.1393029],[-77.7293941,36.1489846],[-77.7503347,36.157393],[-77.7741647,36.1424728],[-77.8043719,36.1496735],[-77.8079278,36.1382343],[-77.8614432,36.1490603],[-77.8875481,36.1438513],[-77.9005856,36.1626438],[-77.9229987,36.16672],[-77.92128,36.186794],[-77.934486,36.183849],[-77.942825,36.191704],[-77.9514194,36.1806262],[-77.972807,36.1942808],[-77.9690618,36.1833941],[-77.9781851,36.1752821],[-77.9832531,36.1869398],[-77.9924498,36.1854814],[-77.9966149,36.1984933],[-78.006317,36.201629],[-77.946877,36.294304],[-77.91748,36.387249],[-77.9015259,36.544663],[-77.1696596,36.5473222],[-77.150995,36.540575],[-77.149016,36.525171],[-77.083138,36.51318],[-77.085771,36.500152],[-77.0663,36.496998],[-77.066269,36.483196],[-77.083187,36.472481],[-77.112098,36.477827],[-77.136812,36.456177],[-77.131429,36.437826],[-77.190464,36.286692],[-77.2285667,36.2144188],[-77.2543483,36.2186019],[-77.2984334,36.2073582],[-77.2932689,36.1970932],[-77.2983172,36.1723318],[-77.2765058,36.1573813],[-77.2630793,36.158685],[-77.2656049,36.1398409],[-77.2508166,36.1345765],[-77.254331,36.1225414],[-77.2397058,36.1202912],[-77.2514723,36.1150591],[-77.2305856,36.1043464],[-77.31387,36.0888378],[-77.409122,35.998704],[-77.342462,35.905346],[-77.350602,35.819214],[-77.390099,35.832825],[-77.397171,35.825264],[-77.412476,35.8256],[-77.426231,35.805019],[-77.472328,35.801018],[-77.502174,35.773052]]]}}]}