{"type": "FeatureCollection", "features": [{"type": "Feature", "properties": {"slug": "roermond", "members": 3, "country": "Netherlands", "input_hash": "aa8f9a76357d948b"}, "geometry": {"type": "Polygon", "coordinates": [[[6.0821902, 51.1716335], [6.0996856, 51.1698327], [6.1651704, 51.1944141], [6.1807243, 51.1863585], [6.1388017, 51.1733392], [6.1754219, 51.158464], [6.1634569, 51.1487421], [6.091996, 51.1350476], [6.0869921, 51.1245949], [6.0602933, 51.1159264], [6.0364631, 51.0965314], [6.0139482, 51.1179255], [5.9267548, 51.113774], [5.914039663596283, 51.13332221694039], [5.8977756, 51.1359546], [5.8722816, 51.1351087], [5.8347113, 51.0994698], [5.8078497, 51.1135931], [5.8557834, 51.144626], [5.8363544, 51.153685], [5.8269599, 51.1705845], [5.8524691, 51.1745799], [5.8480957, 51.1792084], [5.8737333, 51.1909416], [5.8685534, 51.1968225], [5.8822083, 51.212657], [5.8948755, 51.2159997], [5.9086083, 51.21081], [5.9070134, 51.2055495], [5.9513253, 51.201165], [5.945799142145304, 51.19779966830815], [5.9672361, 51.2101327], [5.9843175, 51.2262595], [6.0028403, 51.2347092], [6.0058802, 51.258683], [6.0266378, 51.2457371], [6.0521495, 51.2524813], [6.0726534, 51.2425555], [6.0860218, 51.2226673], [6.0679863, 51.2205478], [6.0731414, 51.1828248], [6.0821902, 51.1716335]], [[5.979040410133117, 51.1735694162604], [5.954511533208232, 51.15915410985706], [5.954692508583865, 51.15852557080295], [5.979040410133117, 51.1735694162604]], [[6.0184651, 51.1644299], [6.0260764, 51.1640227], [6.015616235620453, 51.16575548672231], [6.0184651, 51.1644299]], [[6.0059705, 51.1631607], [6.00921204198411, 51.16462411601074], [5.9988646, 51.1622173], [6.0059705, 51.1631607]], [[5.988923244237009, 51.17357985562221], [5.9889615, 51.173642], [5.988826123952774, 51.17370692650181], [5.988923244237009, 51.17357985562221]], [[5.944020773717776, 51.16034451376953], [5.9408284850659685, 51.16086262866039], [5.9411541, 51.1606698], [5.944020773717776, 51.16034451376953]], [[5.9276134, 51.1687925], [5.927442445726919, 51.16878982045616], [5.932836766272008, 51.1655953121714], [5.9276134, 51.1687925]], [[5.9212473, 51.1789045], [5.9290444425994435, 51.18759635474895], [5.927821, 51.1868513], [5.9212473, 51.1789045]]]}}]}