{"type":"FeatureCollection","features":[{"type":"Feature","properties":{"slug":"roeselare","member_count":9,"matched_count":9,"unmatched":[],"source":"Overture Maps division_area (CC-BY 4.0)"},"geometry":{"type":"Polygon","coordinates":[[[3.1650442,50.9607607],[3.2047824,50.9443468],[3.2648901,50.9455004],[3.2762727,50.9419632],[3.281616,50.9253028],[3.2974889,50.9191235],[3.2876486,50.9152476],[3.2868722,50.9042821],[3.2693006,50.8972003],[3.1889947,50.892471],[3.2088164,50.8657176],[3.1734739,50.8569886],[3.1627665,50.8656582],[3.1263848,50.8412485],[3.0882881,50.8402883],[3.0274779,50.8845902],[3.0304682,50.8946926],[3.0638583,50.9138711],[3.0619215,50.9237006],[3.0422965,50.9288581],[2.9898621,50.9160928],[2.9748447,50.9480707],[2.9590222,50.9530954],[2.9726254,50.9603242],[2.9634772,50.9694208],[2.970574,50.9713123],[2.9600364,50.9761839],[3.015578,50.9953435],[3.0184336,51.0021288],[3.095244,51.0155152],[3.1031435,51.029802],[3.1180585,51.033347],[3.1350813,51.0611691],[3.1587243,51.0691953],[3.1652705,51.0385941],[3.179732,51.0297269],[3.1836138,51.0147568],[3.1657327,50.9932963],[3.1727654,50.9849738],[3.1650442,50.9607607]]]}}]}