{"type": "FeatureCollection", "features": [{"type": "Feature", "properties": {"slug": "rosario", "members": 2, "country": "Argentina", "input_hash": "8cabde6634afcd3c"}, "geometry": {"type": "Polygon", "coordinates": [[[-60.7018353, -32.7956986], [-60.6668164, -32.9119282], [-60.615111, -32.9499741], [-60.5980496, -33.0093347], [-60.5547216, -33.0594286], [-60.5232297, -33.0803437], [-60.5014515, -33.1266441], [-60.4727069, -33.1445647], [-60.4037333, -33.164355], [-60.3719721, -33.1848002], [-60.388567, -33.1888597], [-60.4147133, -33.2218234], [-60.4533389, -33.2508757], [-60.4917466, -33.3153765], [-60.5127428, -33.3176864], [-60.5118699, -33.3243228], [-60.5335164, -33.3392505], [-60.5797979, -33.3620531], [-60.615608, -33.3594864], [-60.6561982, -33.3391451], [-60.6825343, -33.3355588], [-60.7013581, -33.3253106], [-60.7108906, -33.3075323], [-60.7395641, -33.3146665], [-60.7611953, -33.3103303], [-60.8043661, -33.266026], [-60.8278965, -33.268839], [-60.8604209, -33.2876047], [-60.8893119, -33.2904568], [-60.9069389, -33.3062332], [-60.9242873, -33.3395873], [-60.9662987, -33.2858753], [-60.9243957, -33.3403603], [-60.9334357, -33.3563909], [-60.9769446, -33.377869], [-60.9888674, -33.3941997], [-61.0457526, -33.4129705], [-61.0669632, -33.4293055], [-61.1298714, -33.3489549], [-61.0994097, -33.3322156], [-61.1686784, -33.2437823], [-61.1327139, -33.2312487], [-61.1548583, -33.1645642], [-61.1068302, -33.1560108], [-61.062034, -33.0900373], [-61.2072226, -32.9029212], [-61.1983328, -32.8914605], [-61.2035225, -32.8840394], [-61.1611454, -32.8456872], [-61.0628917, -32.8026862], [-61.0523285, -32.7876951], [-61.0543909, -32.7696977], [-61.0340065, -32.7521371], [-60.994477, -32.693702], [-60.8888912, -32.6690214], [-60.8745941, -32.6803773], [-60.8401423, -32.6480935], [-60.8124993, -32.6378394], [-60.8181298, -32.6185872], [-60.8423469, -32.5904532], [-60.8496485, -32.5570005], [-60.8458257, -32.5386597], [-60.8526725, -32.5340499], [-60.8467623, -32.5230378], [-60.8601858, -32.5019511], [-60.8500667, -32.4887147], [-60.8554527, -32.4739047], [-60.8027686, -32.4413477], [-60.7218768, -32.4440341], [-60.7367135, -32.4744328], [-60.7643201, -32.4956284], [-60.7706072, -32.5218668], [-60.7454682, -32.5628013], [-60.7426108, -32.5901761], [-60.7512617, -32.6241955], [-60.7140233, -32.6825498], [-60.7224347, -32.7570179], [-60.7018353, -32.7956986]], [[-60.7323014, -32.8380446], [-60.724809, -32.8374967], [-60.7590679, -32.8379054], [-60.7323014, -32.8380446]]]}}]}