{"type": "FeatureCollection", "features": [{"type": "Feature", "properties": {"slug": "rouen", "members": 218, "country": "France"}, "geometry": {"type": "Polygon", "coordinates": [[[0.6550716, 49.6112448], [0.6427302, 49.6273714], [0.6915494, 49.658816], [0.6833928, 49.6689709], [0.6870519, 49.6838438], [0.671196, 49.698234], [0.689213, 49.7055778], [0.6855721, 49.719933], [0.7106312, 49.722372], [0.7302457, 49.7381112], [0.7534776, 49.7392591], [0.7527098, 49.7500807], [0.7738179, 49.766405], [0.8147803, 49.7713839], [0.8181538, 49.7829244], [0.8548443, 49.7851834], [0.8598079, 49.7700297], [0.8829792, 49.7814108], [0.8812351, 49.7573009], [0.9066907, 49.7553939], [0.9105852, 49.7337483], [0.931008, 49.717172], [0.923647, 49.705957], [0.936732, 49.682198], [0.9537055, 49.686537], [0.999702, 49.660046], [0.985666, 49.645828], [0.9994167, 49.6410456], [1.0029409, 49.6279961], [1.0360068, 49.6178764], [1.0483505, 49.6187935], [1.0475782, 49.6343027], [1.0569484, 49.6357842], [1.0676528, 49.6224623], [1.0748401, 49.6262284], [1.0574754, 49.6380994], [1.0807691, 49.6466943], [1.1617917, 49.6181633], [1.176471, 49.6447059], [1.1708376, 49.6473805], [1.194974, 49.6610291], [1.1847501, 49.6721372], [1.2287611, 49.6800132], [1.2486179, 49.6450221], [1.2376733, 49.6358803], [1.2434294, 49.6330139], [1.2197942, 49.6197102], [1.2346116, 49.6153265], [1.2276724, 49.5999844], [1.239785, 49.5939755], [1.2400233, 49.6033063], [1.2636511, 49.6084748], [1.2769049, 49.5914465], [1.3196419, 49.5954378], [1.3235886, 49.6058671], [1.350859, 49.60324], [1.386341, 49.6130217], [1.400156, 49.621515], [1.3918233, 49.6331175], [1.4034454, 49.6319227], [1.4150893, 49.6197614], [1.4325695, 49.6206711], [1.4173479, 49.6133928], [1.4205163, 49.6052466], [1.4521223, 49.5855709], [1.4400419, 49.5818661], [1.4476148, 49.5754366], [1.4409723, 49.5758185], [1.4392129, 49.5597137], [1.4323702, 49.5584653], [1.4414186, 49.5380113], [1.4124658, 49.5327256], [1.4165385, 49.522582], [1.399529, 49.5017656], [1.3763548, 49.502498], [1.3731341, 49.4959755], [1.3847767, 49.4806358], [1.4097253, 49.4713724], [1.3805581, 49.4497939], [1.4001333, 49.4565716], [1.4762089, 49.4514551], [1.5034365, 49.4382326], [1.5291357, 49.4420674], [1.5360736, 49.4296974], [1.5449454, 49.4409506], [1.5765132, 49.440579], [1.6045266, 49.4118151], [1.6283186, 49.4151329], [1.6599771, 49.3991068], [1.6679829, 49.4072349], [1.680575, 49.4062946], [1.6945538, 49.3951153], [1.7046556, 49.411006], [1.716524, 49.403317], [1.737009, 49.407339], [1.720516, 49.394108], [1.7612002, 49.3661653], [1.7581185, 49.3567367], [1.7744255, 49.3370497], [1.7671175, 49.3173234], [1.7750003, 49.3058894], [1.7722638, 49.2911265], [1.7975911, 49.2884865], [1.7935132, 49.2742782], [1.8028556, 49.2719263], [1.7904428, 49.2467045], [1.7668866, 49.2520596], [1.758872, 49.2723577], [1.7085112, 49.2645824], [1.6986081, 49.2472149], [1.7039401, 49.2288864], [1.6739506, 49.2117864], [1.6701983, 49.1694911], [1.6514288, 49.1385631], [1.6578117, 49.1319663], [1.6184255, 49.0969623], [1.6222077, 49.085245], [1.5729959, 49.0782184], [1.5580364, 49.0691479], [1.5412561, 49.0737922], [1.5229408, 49.0682048], [1.5177586, 49.0792675], [1.5079062, 49.0853968], [1.5144132, 49.0799095], [1.5056242, 49.0816284], [1.5123594, 49.0745657], [1.5026749, 49.0591221], [1.4795178, 49.0519596], [1.4618324, 49.0638982], [1.447346, 49.0535756], [1.4579351, 49.0260026], [1.4769415, 49.0168144], [1.4738718, 49.0096555], [1.4798806, 49.0073184], [1.4716937, 48.9897676], [1.4610683, 48.986187], [1.4709582, 48.9749333], [1.5079319, 48.9839051], [1.5180909, 48.9783974], [1.4918218, 48.9646399], [1.5012442, 48.9514489], [1.5109309, 48.9536051], [1.4922902, 48.9362289], [1.4610742, 48.9376016], [1.4542359, 48.925463], [1.400378, 48.9167125], [1.4007644, 48.9308245], [1.4162356, 48.9332751], [1.4127496, 48.9437308], [1.3980446, 48.9486176], [1.3844759, 48.9395302], [1.3665413, 48.9404631], [1.3508272, 48.9567489], [1.3264316, 48.9491103], [1.3114996, 48.9653702], [1.2713761, 48.981626], [1.2755119, 48.9994467], [1.2889394, 49.0024729], [1.3169837, 49.0308199], [1.2840095, 49.0319769], [1.3314112, 49.0590278], [1.2634438, 49.0901831], [1.2447956, 49.0823862], [1.2425523, 49.0934321], [1.2196308, 49.0920864], [1.2226442, 49.1035191], [1.2116557, 49.1107628], [1.1776458, 49.1101902], [1.1625374, 49.1258357], [1.1526305, 49.1262559], [1.15687, 49.1153174], [1.1363759, 49.1047277], [1.1256152, 49.1143239], [1.1252347, 49.1272333], [1.1187157, 49.116999], [1.1072563, 49.1221773], [1.1296612, 49.1400653], [1.14597, 49.14153], [1.1304927, 49.1608137], [1.0888001, 49.1736791], [1.074838, 49.1708153], [1.0492468, 49.1858634], [1.0370452, 49.2028359], [1.0095965, 49.2043676], [1.0074019, 49.2147244], [0.9947774, 49.2186333], [0.9853053, 49.2329468], [0.9567263, 49.2401229], [0.9796007, 49.2440893], [0.9699703, 49.2533952], [0.986142, 49.2694878], [0.9743112, 49.2732214], [0.9730803, 49.28097], [0.9569566, 49.2707698], [0.9493961, 49.2791214], [0.9705764, 49.2851426], [0.9499834, 49.296674], [0.9399529, 49.3228646], [0.9070932, 49.307381], [0.9100716, 49.2984422], [0.9006975, 49.2968922], [0.8922332, 49.3025375], [0.8992856, 49.3188206], [0.8917416, 49.3139859], [0.8621505, 49.3288645], [0.8444614, 49.3247424], [0.8602869, 49.3467219], [0.9294543, 49.3422369], [0.9208915, 49.3531844], [0.9176609, 49.3854074], [0.8787953, 49.3725279], [0.8853405, 49.3874838], [0.8735385, 49.3906625], [0.8782297, 49.3960302], [0.8220468, 49.3966041], [0.8098772, 49.4060751], [0.8029907, 49.4274013], [0.8049685, 49.4115664], [0.7981897, 49.4175599], [0.7833885, 49.4107519], [0.7667746, 49.4198818], [0.7388351, 49.4083738], [0.7078159, 49.4107662], [0.7048687, 49.4023875], [0.6616585, 49.4021807], [0.649439, 49.4090522], [0.6598854, 49.4155328], [0.6523519, 49.4219483], [0.64467, 49.4149916], [0.6393338, 49.4184917], [0.6454651, 49.4262039], [0.6299739, 49.4222235], [0.6362855, 49.4368877], [0.6491722, 49.4379285], [0.6430656, 49.4443899], [0.6641732, 49.4589163], [0.6673303, 49.4856851], [0.6516897, 49.5025999], [0.6288539, 49.4991149], [0.6275897, 49.5167996], [0.6342359, 49.5172966], [0.6131087, 49.5412913], [0.6184241, 49.5566805], [0.6001584, 49.5566998], [0.6002506, 49.5644123], [0.6154896, 49.5811546], [0.6281831, 49.5828664], [0.6243351, 49.5909867], [0.6475001, 49.5995056], [0.6417694, 49.6064089], [0.6550716, 49.6112448]]]}}]}