{"type": "FeatureCollection", "features": [{"type": "Feature", "properties": {"slug": "rouissat", "members": 1, "country": "Algeria", "input_hash": "6cae20b516c1954c"}, "geometry": {"type": "Polygon", "coordinates": [[[4.6380525, 32.0687158], [4.469903, 32.2139256], [4.4656164, 32.2086286], [4.428971, 31.999411], [4.409047, 31.552183], [4.2499746, 31.2181008], [4.5281353, 31.0804283], [5.1303292, 31.3493077], [5.3260826, 31.6423249], [5.383911, 31.8700814], [5.3814561, 31.938854], [5.3322625, 31.9438614], [5.3139308, 31.9320185], [5.3292387, 31.8738183], [5.3395813, 31.8672446], [5.301187, 31.8644686], [5.1269777, 31.9021312], [4.8338234, 32.0092577], [4.7054214, 32.029859], [4.6380525, 32.0687158]]]}}]}