{"type":"FeatureCollection","features":[{"type":"Feature","properties":{"slug":"rouyn-noranda","member_count":2,"matched_count":2,"unmatched":[],"source":"Overture Maps division_area (CC-BY 4.0)"},"geometry":{"type":"Polygon","coordinates":[[[-79.0823538,48.4299939],[-79.0824065,48.5610401],[-79.0270707,48.5611012],[-79.0271799,48.5749233],[-78.864859,48.574921],[-78.8646756,48.5615759],[-78.7099817,48.5542089],[-78.709953,48.5701687],[-78.6470512,48.5749312],[-78.647264,48.4301477],[-78.5408642,48.4302859],[-78.5410301,48.2412132],[-78.4298573,48.2413278],[-78.4297984,48.2874984],[-78.3698494,48.3063606],[-78.3236907,48.3468288],[-78.2985545,48.3437097],[-78.2989236,48.2092544],[-78.3059259,48.2092415],[-78.3059225,48.1961934],[-78.2989237,48.1962013],[-78.2897433,48.0375123],[-78.3054041,47.9957841],[-78.2211767,47.9955647],[-78.2211937,47.7026557],[-78.6546769,47.702987],[-78.6530375,47.8801742],[-79.1506968,47.8810343],[-79.1489943,47.8510371],[-79.3887238,47.8514689],[-79.3888782,47.9091472],[-79.5176302,47.9094706],[-79.5174874,48.4304977],[-79.0823538,48.4299939]]]}}]}