{"type": "FeatureCollection", "features": [{"type": "Feature", "properties": {"slug": "russellville", "members": 2, "country": "United States", "input_hash": "6ee2ffb44dca33fd"}, "geometry": {"type": "Polygon", "coordinates": [[[-92.8550362, 35.1738784], [-92.926498, 35.166607], [-92.955978, 35.140495], [-92.9788091, 35.1315697], [-92.981544, 35.11668], [-93.0192252, 35.1182832], [-93.0393818, 35.1100138], [-93.0254637, 35.0901706], [-93.0511998, 35.0768773], [-93.0514403, 35.0622921], [-93.0691468, 35.0625281], [-93.0693732, 35.0480673], [-93.0872033, 35.0482527], [-93.0872033, 35.0338737], [-93.1056098, 35.0342277], [-93.1058568, 35.0180926], [-93.1237486, 35.0186153], [-93.1240163, 35.0040962], [-93.1417845, 35.0046021], [-93.1421757, 34.9901142], [-93.1601293, 34.9904178], [-93.1601911, 34.975843], [-93.1813153, 34.9762985], [-93.1817065, 34.96189], [-93.1999689, 34.9622949], [-93.2004424, 34.9476139], [-93.2172842, 34.9477658], [-93.2174283, 34.9326602], [-93.2350113, 34.9325589], [-93.2349701, 34.918092], [-93.2522442, 34.9181933], [-93.2525531, 34.9037914], [-93.2703419, 34.9036563], [-93.2706713, 34.8890661], [-93.2881719, 34.8888635], [-93.2883572, 34.8752672], [-93.3057549, 34.8754192], [-93.305899, 34.8609761], [-93.2883778, 34.8608071], [-93.2877464, 34.773266], [-93.394638, 34.772373], [-93.3943723, 34.7433549], [-93.7099594, 34.7457671], [-93.7069148, 35.1349091], [-93.663223, 35.133995], [-93.6630822, 35.1481964], [-93.5297013, 35.1453891], [-93.5291863, 35.1601263], [-93.5111619, 35.1595649], [-93.511078, 35.174183], [-93.484207, 35.180878], [-93.484039, 35.201767], [-93.457733, 35.209358], [-93.457314, 35.216629], [-93.279922, 35.21188], [-93.278215, 35.312436], [-93.253375, 35.286114], [-93.2830099, 35.318575], [-93.299957, 35.331051], [-93.294991, 35.470459], [-93.223808, 35.468941], [-93.221375, 35.599224], [-93.168182, 35.597946], [-93.165092, 35.728672], [-92.810318, 35.722095], [-92.814117, 35.548264], [-92.849174, 35.548927], [-92.8550362, 35.1738784]], [[-92.92229722145696, 35.17595751402264], [-92.925336, 35.176742], [-92.93238384618392, 35.176629326829165], [-92.92229722145696, 35.17595751402264]], [[-92.93960086056842, 35.176513949184226], [-92.943038, 35.176459], [-92.94385225300859, 35.17615538253041], [-92.93960086056842, 35.176513949184226]], [[-92.978561, 35.171994], [-93.001417, 35.168632], [-93.0096421745434, 35.166451021070976], [-92.978561, 35.171994]], [[-93.01664973548654, 35.16459290332767], [-93.017645, 35.164329], [-93.025591, 35.161465], [-93.01664973548654, 35.16459290332767]], [[-93.046383, 35.118526], [-93.04530520917429, 35.11906827139501], [-93.04745408793775, 35.11841962885537], [-93.046383, 35.118526]], [[-93.056402, 35.117531], [-93.05015190084288, 35.11815170552564], [-93.05894006538432, 35.11787632455473], [-93.056402, 35.117531]], [[-93.067265, 35.119009], [-93.06594619263895, 35.11882956547181], [-93.06829124813558, 35.119530972861604], [-93.067265, 35.119009]]]}}]}