{"type":"FeatureCollection","features":[{"type":"Feature","properties":{"slug":"rzeszow","member_count":16,"matched_count":16,"unmatched":[],"source":"Overture Maps division_area (CC-BY 4.0)"},"geometry":{"type":"MultiPolygon","coordinates":[[[[22.0949085,49.8356277],[22.0483764,49.824543],[21.9632318,49.8639839],[21.9017543,49.9224452],[21.90122,49.9324762],[21.916425,49.9471994],[21.8957375,49.9573418],[21.8670041,49.9505248],[21.84026,49.9675889],[21.7923045,49.972865],[21.7481983,49.9688652],[21.7467041,49.9708937],[21.7757406,49.9798537],[21.7737084,49.989532],[21.7828523,49.9974425],[21.7995763,49.9984803],[21.8217013,50.031013],[21.7970269,50.0436605],[21.802975,50.0450119],[21.7954855,50.0602885],[21.7985225,50.0722788],[21.8223157,50.0866046],[21.8123741,50.0974635],[21.7886015,50.0974496],[21.7789119,50.1145039],[21.793043,50.1207804],[21.8033695,50.1514351],[21.8593754,50.1509838],[21.8647571,50.1774017],[21.8881666,50.18558],[21.9155774,50.1823461],[21.9346513,50.20096],[21.9200771,50.2357117],[21.9484881,50.2479332],[21.975879,50.2483876],[22.0009064,50.232327],[22.0499989,50.2317505],[22.0455633,50.2456704],[22.0616366,50.246995],[22.0603246,50.2533672],[22.0965885,50.2731528],[22.0961944,50.280239],[22.0801599,50.2830207],[22.0859778,50.3076126],[22.0081755,50.3026205],[22.0161408,50.3102766],[22.0055648,50.3089105],[21.9988893,50.32381],[22.0699851,50.3313439],[22.1017602,50.3539044],[22.0864877,50.3585612],[22.0862922,50.369128],[22.1018991,50.3704768],[22.1241215,50.3554918],[22.1525334,50.3537328],[22.1527617,50.3476546],[22.1707085,50.3423531],[22.1976154,50.352153],[22.199881,50.3433379],[22.1881052,50.3381285],[22.1941182,50.3350235],[22.1888683,50.3184442],[22.2075507,50.3120088],[22.2028112,50.3045892],[22.2119904,50.2998965],[22.1962634,50.2733892],[22.2110016,50.277274],[22.2403954,50.261982],[22.2522565,50.2638961],[22.2269326,50.2362049],[22.185225,50.2283277],[22.1994573,50.2152951],[22.1792113,50.1969472],[22.1896898,50.1976664],[22.1759653,50.1874163],[22.1835574,50.1758983],[22.1399305,50.1852048],[22.1260719,50.1828773],[22.1223178,50.1746044],[22.0857226,50.1710753],[22.0992498,50.1694296],[22.0966497,50.1569035],[22.1110636,50.1531525],[22.1019388,50.1499187],[22.1036144,50.1414191],[22.1246499,50.132038],[22.133879,50.1098445],[22.1539455,50.1149193],[22.1762159,50.1008383],[22.1673789,50.0945541],[22.1681492,50.0821742],[22.1540582,50.080244],[22.147339,50.0605784],[22.1230417,50.0474522],[22.1326187,50.0174391],[22.1484625,50.0032885],[22.1837376,50.0008537],[22.2105996,49.9711997],[22.2304284,49.9667116],[22.2242383,49.9440386],[22.2106833,49.9383365],[22.2357018,49.9313122],[22.2323871,49.9172418],[22.2457213,49.9065536],[22.2383672,49.9004968],[22.2668602,49.8728322],[22.3102449,49.8698208],[22.3041789,49.8571743],[22.3102059,49.8521016],[22.3002467,49.8451937],[22.3087283,49.8329027],[22.3028616,49.823874],[22.3217458,49.8134884],[22.2953109,49.7960483],[22.3364118,49.7665947],[22.3272823,49.7490978],[22.3125824,49.7530505],[22.2944708,49.7445821],[22.2470634,49.7692707],[22.2197193,49.771231],[22.2351352,49.7899211],[22.2062093,49.7956361],[22.171201,49.7814455],[22.1549209,49.7833309],[22.1229335,49.8030488],[22.0949085,49.8356277]],[[21.8590942,50.042368],[21.8688977,50.0352645],[21.9485517,50.0286062],[21.9351052,49.9991203],[21.9654078,49.9920029],[21.9552163,49.983442],[21.9582573,49.9576112],[21.9819404,49.9325814],[21.9952228,49.9629856],[22.019625,49.9634458],[22.0163148,49.9749262],[22.0333776,49.9703],[22.043376,49.989987],[22.0660007,49.9848789],[22.0941494,50.0134805],[22.0534788,50.0485876],[22.0769252,50.0672583],[22.0664521,50.0675174],[22.0702487,50.0751263],[22.0414557,50.0675565],[21.9900152,50.077844],[21.9826978,50.093464],[21.9634194,50.0871963],[21.9636178,50.0757563],[21.9345486,50.0721031],[21.926639,50.0579437],[21.8889863,50.0556272],[21.8590942,50.042368]]],[[[22.7161187,50.241789],[22.7007271,50.2434024],[22.7099883,50.2702947],[22.7493021,50.2613544],[22.745233,50.2457679],[22.7563009,50.2472104],[22.7161187,50.241789]]]]}}]}