{"type": "FeatureCollection", "features": [{"type": "Feature", "properties": {"slug": "rzhev", "members": 1, "country": "Russia", "input_hash": "d97951c8aaf2a30e"}, "geometry": {"type": "Polygon", "coordinates": [[[34.388613, 56.2867384], [34.3783696, 56.3008165], [34.3394119, 56.2873597], [34.3044446, 56.2947922], [34.2840784, 56.2868805], [34.2601469, 56.2676486], [34.2865798, 56.2579792], [34.2802358, 56.2375445], [34.2697831, 56.2322536], [34.313496, 56.2290682], [34.3745954, 56.2426107], [34.3960583, 56.2371255], [34.4010353, 56.2487225], [34.4500075, 56.2650077], [34.4478258, 56.2717627], [34.3874908, 56.2734221], [34.388613, 56.2867384]]]}}]}