{"type": "FeatureCollection", "features": [{"type": "Feature", "properties": {"slug": "sachkhere", "members": 1, "country": "Georgia", "input_hash": "6708e7e1d0c6ae6d"}, "geometry": {"type": "Polygon", "coordinates": [[[43.4997987, 42.1013642], [43.4992281, 42.0892373], [43.5257623, 42.0897939], [43.57408, 42.1246365], [43.5984942, 42.1702253], [43.6319358, 42.2024335], [43.6097427, 42.2150392], [43.5983447, 42.2131358], [43.61183, 42.236268], [43.6054704, 42.2575806], [43.6106013, 42.2737392], [43.6375854, 42.2830786], [43.6695227, 42.3066584], [43.6726603, 42.3251444], [43.661603, 42.334325], [43.625215, 42.337089], [43.594698, 42.354478], [43.6242943, 42.3862964], [43.5903288, 42.4074603], [43.5882197, 42.4365647], [43.5360342, 42.4400005], [43.5254308, 42.4603316], [43.5096835, 42.4582599], [43.4871813, 42.4388304], [43.4412629, 42.4501211], [43.4132187, 42.4465471], [43.3948684, 42.456922], [43.3180604, 42.4611186], [43.2914607, 42.458616], [43.2619827, 42.4447785], [43.2642729, 42.4346081], [43.2950997, 42.4091328], [43.3417636, 42.3802648], [43.3522134, 42.3644698], [43.349821, 42.3104963], [43.384399, 42.2943409], [43.3985601, 42.2779557], [43.3623727, 42.2602229], [43.3861389, 42.2373849], [43.4056791, 42.2340438], [43.4147018, 42.2050405], [43.4536985, 42.177295], [43.4295768, 42.1586825], [43.4374272, 42.1415672], [43.4654395, 42.1172815], [43.4997987, 42.1013642]]]}}]}