{"type": "FeatureCollection", "features": [{"type": "Feature", "properties": {"slug": "sagarejo", "members": 1, "country": "Georgia", "input_hash": "b6e6bf5f901d3505"}, "geometry": {"type": "Polygon", "coordinates": [[[45.2777967, 41.876601], [45.1962266, 41.9106736], [45.1402248, 41.8919679], [45.1221816, 41.9093541], [45.0861816, 41.9237509], [45.0258475, 41.8988645], [45.0310606, 41.888281], [45.0660798, 41.876013], [45.0481747, 41.847895], [45.0771786, 41.8420232], [45.099939, 41.7823275], [45.1198207, 41.7693958], [45.1171682, 41.7589533], [45.1430387, 41.7513639], [45.1696301, 41.7634569], [45.1670882, 41.7405712], [45.1882359, 41.7360832], [45.1941705, 41.7294813], [45.1891233, 41.7229955], [45.2012515, 41.716669], [45.1958227, 41.7117196], [45.2084704, 41.7067514], [45.2003419, 41.7029391], [45.2055501, 41.697115], [45.1957133, 41.7016047], [45.1894203, 41.6945089], [45.2121011, 41.6554837], [45.2088531, 41.6362986], [45.1900577, 41.6200138], [45.1533761, 41.6135551], [45.1503268, 41.5975525], [45.158614, 41.5900345], [45.1209889, 41.5650825], [45.1253128, 41.5559948], [45.1328122, 41.5442802], [45.1513516, 41.5482268], [45.1745152, 41.5678117], [45.2179025, 41.5239534], [45.2099311, 41.5166192], [45.2998798, 41.4875796], [45.3073804, 41.4720164], [45.3639732, 41.453662], [45.388534, 41.428332], [45.4276479, 41.4301871], [45.439608, 41.4460188], [45.4611039, 41.4558505], [45.516659, 41.420549], [45.5504599, 41.4112396], [45.5628363, 41.4347404], [45.5600897, 41.4443597], [45.5875341, 41.456599], [45.5918256, 41.5110445], [45.6374913, 41.5302323], [45.6306839, 41.5631919], [45.5869478, 41.5875671], [45.589279, 41.5985789], [45.6215781, 41.6233456], [45.6159631, 41.6416935], [45.6295556, 41.6414074], [45.6391728, 41.6794275], [45.6261321, 41.680943], [45.6216571, 41.6947879], [45.5839413, 41.6928947], [45.5670719, 41.701932], [45.5551622, 41.7298978], [45.564532, 41.7385202], [45.5234704, 41.7767282], [45.5381345, 41.7994565], [45.5039191, 41.8145873], [45.4697975, 41.8154803], [45.4023644, 41.7999412], [45.3677725, 41.8133495], [45.3171349, 41.8143577], [45.2831577, 41.8436653], [45.2777967, 41.876601]]]}}]}