{"type":"FeatureCollection","features":[{"type":"Feature","properties":{"slug":"saint-nazaire","member_count":56,"matched_count":56,"unmatched":[],"source":"Overture Maps division_area (CC-BY 4.0)"},"geometry":{"type":"MultiPolygon","coordinates":[[[[-2.1159083,47.1073451],[-2.2483077,47.1335308],[-2.2144114,47.160847],[-2.1796555,47.1559066],[-2.1691311,47.1652243],[-2.1590133,47.2085209],[-2.1724863,47.2210064],[-2.1828307,47.2335944],[-2.1748936,47.2439306],[-2.1770049,47.2369349],[-2.1713225,47.2400214],[-2.1707278,47.2686506],[-2.1150961,47.2758722],[-2.1153421,47.2811293],[-2.0623541,47.2819053],[-2.0444039,47.2920269],[-2.0060909,47.2869755],[-2.0058339,47.2944031],[-2.101561,47.3057416],[-2.1717718,47.2880536],[-2.1852394,47.3067565],[-2.2112118,47.2875238],[-2.2468568,47.3198801],[-2.257512,47.32019],[-2.2927479,47.3067844],[-2.3106603,47.282611],[-2.2879081,47.2779655],[-2.2933942,47.2649691],[-2.2872888,47.2604184],[-2.2959558,47.2591171],[-2.2978733,47.240352],[-2.3063534,47.2371304],[-2.3428495,47.2584313],[-2.3499735,47.2554926],[-2.3426561,47.2585293],[-2.3470963,47.2658043],[-2.3760408,47.2786255],[-2.4178771,47.276793],[-2.4243981,47.2704783],[-2.4167112,47.2584824],[-2.4313522,47.2578016],[-2.498347,47.2804388],[-2.5474173,47.2897894],[-2.5435737,47.2999493],[-2.5207892,47.3015428],[-2.5235965,47.3082655],[-2.5020472,47.2878005],[-2.4746455,47.2848012],[-2.480398,47.2931988],[-2.4692603,47.2949453],[-2.4731258,47.2999097],[-2.4982846,47.3046056],[-2.4737362,47.3051636],[-2.4681553,47.3104144],[-2.4841491,47.3177048],[-2.5036439,47.3121355],[-2.5115032,47.3005202],[-2.5035522,47.3211183],[-2.5085183,47.3439853],[-2.5173759,47.3453266],[-2.5268018,47.3626519],[-2.5589398,47.3755467],[-2.4674192,47.4220017],[-2.4629982,47.4113454],[-2.4339105,47.4122269],[-2.4407126,47.4216354],[-2.4583704,47.4235606],[-2.4459944,47.4366679],[-2.4580471,47.4488493],[-2.4531721,47.4624541],[-2.4296123,47.4757273],[-2.4184651,47.4727037],[-2.4231017,47.4686048],[-2.4168924,47.460265],[-2.3998491,47.4559181],[-2.3683749,47.4644044],[-2.3529052,47.454403],[-2.316971,47.4613139],[-2.2985209,47.5159243],[-2.2550975,47.5116181],[-2.2656185,47.5017572],[-2.2441668,47.4936237],[-2.2152172,47.5084353],[-2.184501,47.5121835],[-2.1836345,47.5015735],[-2.1920339,47.496583],[-2.164041,47.4891156],[-2.1542216,47.4964694],[-2.1560617,47.5220065],[-2.0987857,47.533709],[-2.1049949,47.5488486],[-2.0966374,47.5727194],[-2.0842714,47.5783897],[-2.031295,47.5686284],[-2.0052751,47.5576875],[-1.9940441,47.5432117],[-1.9671923,47.543047],[-1.9626404,47.5255233],[-1.9456659,47.5235004],[-1.9442587,47.5073018],[-1.8797651,47.5108522],[-1.8509538,47.4854233],[-1.8790291,47.4648306],[-1.9075115,47.4632301],[-1.911191,47.4415513],[-1.9237007,47.4385463],[-1.9125913,47.4260406],[-1.9192451,47.4136863],[-1.9099994,47.3969211],[-1.9183406,47.3836406],[-1.88001,47.3732476],[-1.8391844,47.3818921],[-1.8401324,47.3620855],[-1.7944267,47.332138],[-1.8207111,47.3317332],[-1.8466881,47.3129522],[-1.8751059,47.3074548],[-1.8996702,47.2804525],[-1.9197277,47.2846744],[-1.9207736,47.278062],[-1.8628058,47.2346753],[-1.8786324,47.22703],[-1.8788234,47.2097995],[-1.9113165,47.2130954],[-1.9355276,47.1958015],[-1.9394946,47.1805605],[-1.924831,47.1657177],[-1.8960716,47.1748229],[-1.8641571,47.1639434],[-1.8636371,47.1559019],[-1.8461838,47.1463564],[-1.8480646,47.1379304],[-1.8333918,47.1308486],[-1.8110566,47.1332576],[-1.8771224,47.0516668],[-1.8725031,47.0456852],[-1.8453573,47.0520384],[-1.8192457,47.0444745],[-1.8350734,47.011137],[-1.8939547,46.9975371],[-1.9121133,47.0015641],[-1.9161886,46.992167],[-1.9410175,46.9937433],[-1.9675827,47.0268478],[-1.9843226,47.0297321],[-2.0037197,47.0604641],[-2.0380513,47.0759722],[-2.0537876,47.0950125],[-2.1078918,47.108503],[-2.0989284,47.1152973],[-2.1159083,47.1073451]]],[[[-2.4788812,47.2716964],[-2.4786664,47.2717522],[-2.4787475,47.2715385],[-2.4788812,47.2716964]]],[[[-2.6282269,47.412006],[-2.6170759,47.410757],[-2.6251531,47.4087206],[-2.6282269,47.412006]]],[[[2.9915131,42.6775488],[3.0170555,42.6592946],[2.967302,42.6459321],[2.9625133,42.6732187],[2.9915131,42.6775488]]]]}}]}