{"type": "FeatureCollection", "features": [{"type": "Feature", "properties": {"slug": "saipan", "members": 1, "country": "Northern Mariana Islands", "input_hash": "3b9bdd3f6f3eead2"}, "geometry": {"type": "Polygon", "coordinates": [[[145.7081552, 15.1058929], [145.74071, 15.1052006], [145.7492363, 15.0919707], [145.756956, 15.120957], [145.743639, 15.13179], [145.751253, 15.160274], [145.7654689, 15.1627269], [145.7745586, 15.1515397], [145.788872, 15.150295], [145.797638, 15.166701], [145.778068, 15.189317], [145.7784568, 15.2098398], [145.80945, 15.240068], [145.8106904, 15.2582384], [145.829088, 15.263691], [145.8299945, 15.2731719], [145.8118271, 15.2899123], [145.7771361, 15.2530062], [145.7544501, 15.2430715], [145.7294666, 15.2186711], [145.7157732, 15.2170645], [145.7128869, 15.1785228], [145.6895872, 15.1200101], [145.7081552, 15.1058929]]]}}]}