{"type": "FeatureCollection", "features": [{"type": "Feature", "properties": {"slug": "sakhnin", "members": 2, "country": "Israel", "input_hash": "c9fe81d8fce9ce62"}, "geometry": {"type": "Polygon", "coordinates": [[[35.3395964, 32.8720016], [35.3617818, 32.852717], [35.3401271, 32.8368564], [35.3203193, 32.8389964], [35.2792581, 32.8654128], [35.2831401, 32.8761247], [35.2999838, 32.8785447], [35.3395964, 32.8720016]], [[35.3253551, 32.8591612], [35.3276508, 32.8634713], [35.32305290988048, 32.8572612486039], [35.3253551, 32.8591612]], [[35.319773196699934, 32.85283156740531], [35.3195879, 32.8525813], [35.319639850412564, 32.85251251828447], [35.319773196699934, 32.85283156740531]], [[35.3234662, 32.8431516], [35.3233017, 32.846573], [35.32273865688961, 32.842823930509965], [35.3234662, 32.8431516]]]}}]}