{"type":"FeatureCollection","features":[{"type":"Feature","properties":{"slug":"salavat","member_count":1,"matched_count":1,"unmatched":["[recovered via metro-name fallback: Salavat]"],"source":"Overture Maps division_area (CC-BY 4.0)"},"geometry":{"type":"Polygon","coordinates":[[[55.9682879,53.344677],[55.9737166,53.4106547],[55.957376,53.4264992],[55.9182372,53.4171544],[55.9151291,53.4510935],[55.897243,53.4373605],[55.8926204,53.4437828],[55.8628421,53.4377184],[55.8539844,53.4255633],[55.8641381,53.418203],[55.8423457,53.4120029],[55.8506799,53.3944924],[55.8153691,53.3704971],[55.8409724,53.3593728],[55.8583016,53.3111804],[55.8658977,53.3226351],[55.895612,53.3262842],[55.8987247,53.3335833],[55.9507295,53.3361769],[55.9782511,53.3144612],[55.9913884,53.3235474],[55.9682879,53.344677]]]}}]}