{"type":"FeatureCollection","features":[{"type":"Feature","properties":{"slug":"salsk","member_count":1,"matched_count":1,"unmatched":["[recovered via metro-name fallback: Salsk]"],"source":"Overture Maps division_area (CC-BY 4.0)"},"geometry":{"type":"Polygon","coordinates":[[[41.5694432,46.480101],[41.6003001,46.5096858],[41.5701324,46.5241952],[41.5561107,46.5178384],[41.5600543,46.509309],[41.5514662,46.5054524],[41.5438202,46.511976],[41.5271872,46.5027103],[41.4740177,46.4765364],[41.4733063,46.4757891],[41.4640172,46.4788069],[41.4971539,46.4662379],[41.4930435,46.4598002],[41.4835995,46.4613747],[41.4576817,46.4618519],[41.4513368,46.452514],[41.4641946,46.4524981],[41.4576659,46.4602771],[41.4844737,46.4611053],[41.5033464,46.4571177],[41.5077497,46.4478708],[41.5301844,46.4542886],[41.5435285,46.4464576],[41.6009932,46.4469048],[41.6008851,46.4575076],[41.5808983,46.4559197],[41.5817964,46.4721933],[41.5694432,46.480101]]]}}]}