{"type":"FeatureCollection","features":[{"type":"Feature","properties":{"slug":"salt-lake-city-provo","member_count":146,"matched_count":14,"unmatched":["Brigham City city (US-UT, type='City')","Tremonton city (US-UT, type='City')","Balance of Box Elder County (US-UT, type='Balance')","Perry city (US-UT, type='City')","Garland city (US-UT, type='City')","Willard city (US-UT, type='City')","Honeyville city (US-UT, type='City')","Mantua town (US-UT, type='Town')","Elwood town (US-UT, type='Town')","Bear River City city (US-UT, type='City')","Corinne city (US-UT, type='City')","Fielding town (US-UT, type='Town')","Plymouth town (US-UT, type='Town')","Deweyville town (US-UT, type='Town')","Portage town (US-UT, type='Town')","Howell town (US-UT, type='Town')","Snowville town (US-UT, type='Town')","Layton city (US-UT, type='City')","Bountiful city (US-UT, type='City')","Syracuse city (US-UT, type='City')","Clearfield city (US-UT, type='City')","Kaysville city (US-UT, type='City')","Farmington city (US-UT, type='City')","Clinton city (US-UT, type='City')","North Salt Lake city (US-UT, type='City')","Centerville city (US-UT, type='City')","West Point city (US-UT, type='City')","Woods Cross city (US-UT, type='City')","South Weber city (US-UT, type='City')","Fruit Heights city (US-UT, type='City')","West Bountiful city (US-UT, type='City')","Sunset city (US-UT, type='City')","Balance of Davis County (US-UT, type='Balance')","Nephi city (US-UT, type='City')","Mona city (US-UT, type='City')","Balance of Juab County (US-UT, type='Balance')","Rocky Ridge town (US-UT, type='Town')","Levan town (US-UT, type='Town')","Eureka city (US-UT, type='City')","Santaquin city (US-UT, type='City')","Balance of Morgan County (US-UT, type='Balance')","Salt Lake City city (US-UT, type='City')","West Valley City city (US-UT, type='City')","West Jordan city (US-UT, type='City')","Sandy city (US-UT, type='City')","South Jordan city (US-UT, type='City')","Millcreek city (US-UT, type='City')","Herriman city (US-UT, type='City')","Taylorsville city (US-UT, type='City')","Riverton city (US-UT, type='City')","Draper city (US-UT, type='City')","Kearns metro township (US-UT, type='Township')","Midvale city (US-UT, type='City')","Cottonwood Heights city (US-UT, type='City')","Magna metro township (US-UT, type='Township')","Holladay city (US-UT, type='City')","South Salt Lake city (US-UT, type='City')","Bluffdale city (US-UT, type='City')","Balance of Salt Lake County (US-UT, type='Balance')","White City metro township (US-UT, type='Township')","Emigration Canyon metro township (US-UT, type='Township')","Copperton metro township (US-UT, type='Township')","Brighton town (US-UT, type='Town')","Alta town (US-UT, type='Town')","Balance of Summit County (US-UT, type='Balance')","Park City city (US-UT, type='City')","Kamas city (US-UT, type='City')","Francis town (US-UT, type='Town')","Oakley city (US-UT, type='City')","Coalville city (US-UT, type='City')","Henefer town (US-UT, type='Town')","Hideout town (US-UT, type='Town')","Balance of Tooele County (US-UT, type='Balance')","Grantsville city (US-UT, type='City')","Erda city (US-UT, type='City')","Lake Point city (US-UT, type='City')","Wendover city (US-UT, type='City')","Stockton town (US-UT, type='Town')","Rush Valley town (US-UT, type='Town')","Vernon town (US-UT, type='Town')","Provo city (US-UT, type='City')","Orem city (US-UT, type='City')","Lehi city (US-UT, type='City')","Eagle Mountain city (US-UT, type='City')","Saratoga Springs city (US-UT, type='City')","Spanish Fork city (US-UT, type='City')","American Fork city (US-UT, type='City')","Pleasant Grove city (US-UT, type='City')","Springville city (US-UT, type='City')","Payson city (US-UT, type='City')","Santaquin city (US-UT, type='City')","Vineyard town (US-UT, type='Town')","Mapleton city (US-UT, type='City')","Lindon city (US-UT, type='City')","Salem city (US-UT, type='City')","Alpine city (US-UT, type='City')","Cedar Hills city (US-UT, type='City')","Balance of Utah County (US-UT, type='Balance')","Elk Ridge city (US-UT, type='City')","Draper city (US-UT, type='City')","Genola town (US-UT, type='Town')","Woodland Hills city (US-UT, type='City')","Goshen town (US-UT, type='Town')","Cedar Fort town (US-UT, type='Town')","Fairfield town (US-UT, type='Town')","Bluffdale city (US-UT, type='City')","Heber city (US-UT, type='City')","Balance of Wasatch County (US-UT, type='Balance')","Midway city (US-UT, type='City')","Hideout town (US-UT, type='Town')","Daniel town (US-UT, type='Town')","Charleston town (US-UT, type='Town')","Wallsburg town (US-UT, type='Town')","Interlaken town (US-UT, type='Town')","Independence town (US-UT, type='Town')","Park City city (US-UT, type='City')","Ogden city (US-UT, type='City')","Roy city (US-UT, type='City')","West Haven city (US-UT, type='City')","North Ogden city (US-UT, type='City')","South Ogden city (US-UT, type='City')","Balance of Weber County (US-UT, type='Balance')","Pleasant View city (US-UT, type='City')","Hooper city (US-UT, type='City')","Riverdale city (US-UT, type='City')","Washington Terrace city (US-UT, type='City')","Plain City city (US-UT, type='City')","Farr West city (US-UT, type='City')","Harrisville city (US-UT, type='City')","Marriott-Slaterville city (US-UT, type='City')","Uintah town (US-UT, type='Town')","Huntsville town (US-UT, type='Town')"],"source":"Overture Maps division_area (CC-BY 4.0)"},"geometry":{"type":"MultiPolygon","coordinates":[[[[-111.641944,39.812869],[-111.6420951,39.7983469],[-111.6221611,39.7985159],[-111.6220655,39.7840567],[-111.5847065,39.7842695],[-111.5847921,39.7401739],[-111.6425571,39.7397259],[-111.6426571,39.7251949],[-111.6613487,39.725058],[-111.6614001,39.7176879],[-111.6896341,39.7103929],[-111.6895191,39.6952639],[-111.7175201,39.6945929],[-111.7132621,39.460327],[-111.7477741,39.46011],[-111.7470821,39.3827831],[-111.9224271,39.3816241],[-111.9217361,39.3668951],[-111.9588111,39.3661661],[-111.9581441,39.3368791],[-112.0158501,39.3368961],[-112.016003,39.314561],[-112.072218,39.3149231],[-112.072108,39.3296951],[-112.188922,39.3293921],[-112.193277,39.4898341],[-112.202626,39.4898581],[-112.202633,39.5043231],[-112.211961,39.5115791],[-112.211973,39.5260421],[-112.193242,39.5260231],[-112.193292,39.5404511],[-112.202666,39.5404341],[-112.212045,39.5539871],[-113.815743,39.5526441],[-113.815766,39.5440901],[-114.047649,39.5427421],[-114.0413718,41.9937386],[-113.8032534,41.9888339],[-112.159184,41.998382],[-112.166108,41.996007],[-112.150709,41.970282],[-112.134179,41.958981],[-112.121924,41.928171],[-112.085494,41.903311],[-112.063982,41.867952],[-112.052692,41.866061],[-112.046154,41.842036],[-112.028495,41.820111],[-112.029718,41.8085],[-112.008696,41.794902],[-112.014096,41.780907],[-112.033171,41.766824],[-112.043975,41.735254],[-112.042792,41.710433],[-112.051869,41.699906],[-112.015894,41.658411],[-112.015432,41.641161],[-112.004528,41.629444],[-112.006717,41.591729],[-111.983825,41.535832],[-111.937288,41.551155],[-111.927425,41.53726],[-111.916352,41.538406],[-111.905169,41.49685],[-111.8756,41.489771],[-111.878505,41.474097],[-111.913181,41.469729],[-111.916754,41.46068],[-111.881564,41.441188],[-111.885443,41.426374],[-111.872417,41.42171],[-111.880128,41.414495],[-111.869231,41.399074],[-111.83695,41.387829],[-111.792702,41.391265],[-111.766545,41.370023],[-111.746299,41.369785],[-111.726181,41.375986],[-111.726887,41.385051],[-111.706517,41.404844],[-111.706781,41.413077],[-111.718179,41.416276],[-111.721301,41.42739],[-111.696239,41.417027],[-111.666576,41.42883],[-111.647519,41.405456],[-111.618536,41.422347],[-111.58473,41.418111],[-111.575166,41.428898],[-111.554231,41.42377],[-111.541874,41.405059],[-111.510839,41.4231],[-111.5078137,41.4138329],[-111.4755577,41.3999179],[-111.4773768,41.3841698],[-111.4338199,41.3621877],[-111.4046483,41.3622689],[-111.4036886,41.3693303],[-111.3841039,41.3740222],[-111.367044,41.361703],[-111.3319258,41.3575246],[-111.3272134,41.345562],[-111.2950087,41.3301452],[-111.2924091,41.3094795],[-111.2596684,41.2931215],[-111.2772782,41.2774172],[-111.2739104,41.2649983],[-111.2808815,41.2613451],[-111.2693732,41.2376893],[-111.2821322,41.2257302],[-111.2540208,41.229142],[-111.2522459,41.2147049],[-111.2217809,41.2150459],[-111.2315784,41.2025719],[-111.2257436,41.1913013],[-111.235693,41.1840706],[-111.2331797,41.176983],[-111.2624522,41.1410458],[-111.2324538,41.1430225],[-111.1996751,41.1653808],[-111.1587816,41.1769375],[-111.1295667,41.1975406],[-111.1332276,41.2068564],[-111.1103347,41.2146706],[-111.1015719,41.2077141],[-111.0741308,41.2449248],[-111.0467299,41.2517051],[-111.0468088,40.9978699],[-110.0006947,40.9974507],[-110.000986,40.813592],[-110.042697,40.820671],[-110.05203,40.812293],[-110.102859,40.807917],[-110.126745,40.814969],[-110.139501,40.810993],[-110.158795,40.821016],[-110.175309,40.817569],[-110.188097,40.826371],[-110.202294,40.821745],[-110.229623,40.830849],[-110.293546,40.833366],[-110.320321,40.82051],[-110.342735,40.823356],[-110.354989,40.800255],[-110.379164,40.787136],[-110.411001,40.784299],[-110.424303,40.792005],[-110.432782,40.778278],[-110.457195,40.78321],[-110.472616,40.771845],[-110.487114,40.780289],[-110.497808,40.768647],[-110.523512,40.761504],[-110.547031,40.773733],[-110.568489,40.756995],[-110.583176,40.762717],[-110.607022,40.757265],[-110.625471,40.769528],[-110.656482,40.740275],[-110.689623,40.741212],[-110.713185,40.752884],[-110.721656,40.745473],[-110.750733,40.747706],[-110.80641,40.711599],[-110.823406,40.710476],[-110.847477,40.725267],[-110.892525,40.726818],[-110.885434,40.715636],[-110.89777,40.713358],[-110.904347,40.701499],[-110.893768,40.679748],[-110.901974,40.678162],[-110.9029,40.4602965],[-110.9027974,40.4312916],[-110.8965126,40.4312867],[-110.891655,39.899654],[-110.857647,39.899707],[-110.8577795,39.8130149],[-111.6218336,39.8131615],[-111.641944,39.812869]]],[[[-81.8866963,27.9633329],[-81.8742938,27.9676236],[-81.8693907,27.9527731],[-81.8864917,27.9528255],[-81.8866963,27.9633329]]],[[[-82.1637804,39.5042857],[-82.173869,39.5146573],[-82.1629346,39.5140717],[-82.1637804,39.5042857]]]]}}]}