{"type":"FeatureCollection","features":[{"type":"Feature","properties":{"slug":"salvador","member_count":13,"matched_count":13,"unmatched":[],"source":"Overture Maps division_area (CC-BY 4.0)"},"geometry":{"type":"Polygon","coordinates":[[[-38.6438365,-13.0164407],[-38.6553918,-13.0336217],[-38.7119324,-13.0615754],[-38.7326294,-13.0876633],[-38.7470616,-13.0938046],[-38.7618741,-13.1188772],[-38.7960007,-13.1389961],[-38.8047739,-13.1208687],[-38.8001252,-13.0572087],[-38.7871173,-13.0403722],[-38.7776214,-13.0005011],[-38.7325024,-12.9479731],[-38.7031353,-12.8839683],[-38.7214004,-12.8494604],[-38.6985645,-12.8005534],[-38.6834883,-12.6972988],[-38.7179923,-12.6413809],[-38.717532,-12.6132019],[-38.7100307,-12.5952804],[-38.6960623,-12.5912379],[-38.687,-12.555],[-38.653,-12.552],[-38.6400654,-12.475551],[-38.612,-12.498],[-38.5631073,-12.4223982],[-38.5409528,-12.4121855],[-38.5379072,-12.4214768],[-38.5162206,-12.413332],[-38.5032558,-12.4279238],[-38.4900215,-12.4123622],[-38.4602117,-12.417949],[-38.4427988,-12.432429],[-38.4123396,-12.4223183],[-38.3869325,-12.4306309],[-38.3751337,-12.4086493],[-38.3899488,-12.4028577],[-38.3138538,-12.3375812],[-38.295332,-12.3459987],[-38.282315,-12.3415746],[-38.2724019,-12.3219676],[-38.2764136,-12.2809205],[-38.1741532,-12.261192],[-38.161248,-12.2696527],[-38.1619724,-12.2816161],[-38.1371658,-12.292766],[-38.1585347,-12.3020421],[-38.1500711,-12.3068952],[-38.1629929,-12.3275489],[-38.1541864,-12.358469],[-38.1256252,-12.3792098],[-38.1216037,-12.3962872],[-38.1031914,-12.3951077],[-38.1052954,-12.4116371],[-38.0882602,-12.4239479],[-38.0979679,-12.4363931],[-38.0753522,-12.4567828],[-38.0650235,-12.4506555],[-38.0595478,-12.4589664],[-38.051323,-12.4543308],[-38.0399418,-12.4618299],[-37.9867552,-12.413707],[-37.9513552,-12.4030257],[-37.9432587,-12.3740201],[-37.9314261,-12.3715574],[-37.9256808,-12.3761409],[-37.9274618,-12.3805999],[-37.9235847,-12.3839874],[-37.8945431,-12.3806065],[-37.8926642,-12.4076931],[-37.9516294,-12.4864569],[-38.0015325,-12.5781008],[-38.0304294,-12.5970854],[-38.0476226,-12.6364444],[-38.1223057,-12.7084637],[-38.2428133,-12.852304],[-38.2799308,-12.8803783],[-38.3328641,-12.944489],[-38.359829,-12.9609547],[-38.3648537,-12.9512184],[-38.3903147,-12.958957],[-38.4682161,-13.0162244],[-38.5264466,-13.0100287],[-38.6438365,-13.0164407]]]}}]}