{"type":"FeatureCollection","features":[{"type":"Feature","properties":{"slug":"salzburg","member_count":125,"matched_count":124,"unmatched":["Salzburg-Umgebung (AT-5, type='District')"],"source":"Overture Maps division_area (CC-BY 4.0)"},"geometry":{"type":"Polygon","coordinates":[[[13.017883,47.0414656],[12.9568551,47.0432291],[12.9375308,47.0761693],[12.9193325,47.0816058],[12.8464561,47.0811685],[12.8202871,47.0976656],[12.7848791,47.092453],[12.772776,47.1009425],[12.7388567,47.100318],[12.7309039,47.1309943],[12.7039322,47.121495],[12.6661442,47.1228334],[12.6729552,47.1092706],[12.6568369,47.0995206],[12.5875469,47.1320638],[12.5663644,47.1360258],[12.5451506,47.128876],[12.5279254,47.1376395],[12.5215652,47.1506218],[12.4835197,47.157844],[12.4655646,47.1443567],[12.4346377,47.1504929],[12.4178089,47.1423331],[12.3995162,47.1528157],[12.3632609,47.1413935],[12.3586876,47.1167753],[12.3131168,47.1028943],[12.3086363,47.0931414],[12.2837771,47.0925558],[12.2614091,47.0727075],[12.240755,47.0691709],[12.226962,47.0821156],[12.1859695,47.0921485],[12.1360243,47.0806701],[12.125198,47.0925595],[12.129397,47.1053197],[12.1146216,47.1216924],[12.1117992,47.1385147],[12.0932574,47.146045],[12.0818523,47.1918577],[12.0901057,47.2071373],[12.0861657,47.2153923],[12.1109965,47.2425261],[12.1016409,47.2576705],[12.0760956,47.2695893],[12.1145474,47.3064538],[12.1440884,47.2881302],[12.1646062,47.3015398],[12.1970023,47.2984558],[12.2256833,47.3129995],[12.2372947,47.3014499],[12.2546844,47.3079634],[12.2641095,47.3022067],[12.2966018,47.3326052],[12.3352625,47.328533],[12.3745876,47.3113098],[12.4103331,47.313623],[12.4418885,47.3286169],[12.4697888,47.3237713],[12.4952177,47.3374285],[12.4985966,47.349176],[12.4861919,47.3524487],[12.4793214,47.3709761],[12.5060893,47.3941259],[12.5236453,47.3906982],[12.562663,47.3995479],[12.5786159,47.3924989],[12.6011143,47.4131803],[12.6223368,47.4183789],[12.6375328,47.4365724],[12.6313772,47.4645487],[12.6652253,47.4648058],[12.6995919,47.47789],[12.6971712,47.4881194],[12.660944,47.510697],[12.6541201,47.5367735],[12.6281755,47.5495427],[12.6665796,47.5787001],[12.6456293,47.5916321],[12.5782656,47.6037269],[12.5701653,47.6117199],[12.5828802,47.6473246],[12.6073437,47.6737269],[12.648313,47.6701181],[12.6782362,47.6824604],[12.7321173,47.6796706],[12.7572069,47.6630364],[12.7811652,47.6738182],[12.7784548,47.660917],[12.7585755,47.6515501],[12.8244836,47.6121071],[12.7928837,47.6005732],[12.7953337,47.5931666],[12.7791497,47.5791416],[12.7943155,47.5570041],[12.8177288,47.544902],[12.8476923,47.5459785],[12.8517108,47.5307857],[12.8828416,47.5206153],[12.9087264,47.4969431],[12.9681513,47.474451],[12.9780077,47.4846889],[13.0066207,47.4643842],[13.0268945,47.4866965],[13.0476465,47.4921627],[13.0472929,47.521496],[13.0309363,47.5325623],[13.0574986,47.5621479],[13.0426632,47.573717],[13.0436523,47.5833636],[13.0706416,47.586978],[13.062619,47.6014623],[13.0985187,47.6368564],[13.0780811,47.6668746],[13.0807484,47.6870338],[13.0459299,47.712702],[13.0105247,47.7229239],[12.9871975,47.707412],[12.9282243,47.7097721],[12.9052586,47.7234349],[12.9448157,47.7644088],[12.9296018,47.7729835],[12.9641876,47.7999998],[13.0039559,47.8478992],[12.945895,47.9227613],[12.9383268,47.9431355],[12.92261,47.9393554],[12.9173263,47.9549968],[12.8748231,47.9632726],[12.8601772,47.99663],[12.8923371,47.9911212],[12.9103564,48.0220071],[12.940395,48.03668],[12.977426,48.0235426],[13.0149035,48.0370142],[13.029015,48.0325066],[13.042152,48.0414691],[13.0485753,48.0347345],[13.0441066,48.0281185],[13.0587474,48.0296898],[13.0632838,48.0190674],[13.0576634,48.0132918],[13.0730857,48.0158261],[13.0750959,48.0040427],[13.0897591,48.0035804],[13.094041,47.9958268],[13.1242514,47.996181],[13.1215568,47.9891225],[13.1496836,47.9948319],[13.1401034,47.984951],[13.1462307,47.9700119],[13.1986794,47.9741725],[13.2254895,47.9882133],[13.2824247,47.9969632],[13.2833772,48.0068658],[13.30038,48.0103892],[13.3011429,47.9953715],[13.3709874,47.9771388],[13.3734292,47.9658088],[13.3608118,47.9555673],[13.3582259,47.9396554],[13.3075379,47.9640147],[13.2802893,47.9547157],[13.2811908,47.8972166],[13.2701151,47.8914259],[13.2956378,47.856995],[13.2874219,47.8555639],[13.2916063,47.8485027],[13.2840045,47.8442402],[13.2897115,47.8243721],[13.3096183,47.8213718],[13.3122053,47.812829],[13.348019,47.8139163],[13.389297,47.7942763],[13.4671299,47.8039878],[13.4825084,47.801663],[13.4901964,47.7891633],[13.5294742,47.7970255],[13.5384534,47.7831177],[13.5152415,47.7720122],[13.4652714,47.7861463],[13.446312,47.7720025],[13.4360932,47.7394932],[13.4829703,47.7227474],[13.5508672,47.7141175],[13.532634,47.6827284],[13.5000366,47.6689918],[13.5003944,47.6589211],[13.4840987,47.6415472],[13.4898641,47.6303315],[13.5131276,47.6326591],[13.5232992,47.6183336],[13.5063216,47.6007543],[13.5052684,47.5819881],[13.4783282,47.5681322],[13.4847631,47.5528289],[13.4762071,47.532381],[13.5161752,47.4965062],[13.591085,47.47128],[13.5926543,47.4605365],[13.563348,47.420462],[13.603478,47.330099],[13.595471,47.317485],[13.602846,47.310863],[13.5979092,47.2932532],[13.631437,47.2739997],[13.67484,47.274585],[13.695824,47.260087],[13.711866,47.259502],[13.725328,47.278261],[13.747722,47.277814],[13.760642,47.266271],[13.783932,47.275248],[13.789334,47.289019],[13.823196,47.294161],[13.827246,47.274219],[13.821333,47.27017],[13.864182,47.252169],[13.868127,47.241045],[13.850121,47.229644],[13.903216,47.194739],[13.894308,47.185487],[13.9089435,47.1856357],[13.917258,47.170173],[13.952248,47.164369],[13.993587,47.142061],[13.996125,47.132811],[13.959923,47.123736],[13.9394894,47.1364191],[13.881176,47.107976],[13.8779902,47.0947114],[13.906776,47.070112],[13.863945,47.019953],[13.8648012,46.9963284],[13.844964,46.989054],[13.8318172,46.9654494],[13.8129989,46.9518264],[13.784669,46.943858],[13.7755727,46.948254],[13.7717422,46.9770848],[13.7583877,46.9891821],[13.7223714,46.991229],[13.6936667,47.0061206],[13.6874879,47.0291152],[13.6955004,47.0333357],[13.6933405,47.0402103],[13.6489945,47.0391778],[13.6376386,47.0555017],[13.577109,47.0524081],[13.457962,47.0803093],[13.4275779,47.0813765],[13.4027986,47.0695071],[13.3819925,47.0801723],[13.3801862,47.0926201],[13.3629757,47.0987863],[13.3100625,47.0861006],[13.2773075,47.0951555],[13.2498105,47.0875093],[13.2393877,47.0715287],[13.2481308,47.0505774],[13.1332112,47.034806],[13.1236436,47.0265785],[13.0803416,47.0268111],[13.0730306,47.0134127],[13.0198626,47.0301764],[13.017883,47.0414656]]]}}]}