{"type": "FeatureCollection", "features": [{"type": "Feature", "properties": {"slug": "samos", "members": 2, "country": "Greece", "input_hash": "095ff95697608092"}, "geometry": {"type": "MultiPolygon", "coordinates": [[[[26.7887097, 37.6260396], [26.7891723, 37.6362711], [26.8038143, 37.6237239], [26.7887097, 37.6260396]]], [[[27.0170077, 37.7049175], [27.0174303, 37.7050341], [27.0157713, 37.7028598], [27.0170077, 37.7049175]]], [[[27.048706, 37.705752], [26.9800938, 37.7067154], [26.9530173, 37.6874156], [26.9130001, 37.6840794], [26.887083, 37.6701077], [26.883388, 37.6449371], [26.8699363, 37.6373491], [26.8172099, 37.6370254], [26.7845284, 37.6506609], [26.7679374, 37.6767397], [26.7782509, 37.6829056], [26.7674903, 37.6768777], [26.7527616, 37.6966414], [26.7227383, 37.7097911], [26.6409284, 37.7022217], [26.6334491, 37.6888831], [26.6204565, 37.6858915], [26.6233879, 37.6801241], [26.6006708, 37.6829115], [26.5914092, 37.6754079], [26.577967, 37.6917296], [26.5853405, 37.7053352], [26.566185, 37.7313492], [26.6103626, 37.7692132], [26.6433719, 37.7724016], [26.6729823, 37.796342], [26.7530694, 37.8127705], [26.8482492, 37.8061916], [26.8823537, 37.7784859], [26.9282387, 37.7717737], [26.9657303, 37.7473096], [26.9767633, 37.7543012], [26.9490034, 37.7822543], [26.952105, 37.7871674], [26.981764, 37.7788516], [26.9779765, 37.7931334], [26.9912189, 37.7959741], [26.9870113, 37.7841404], [26.9986604, 37.7771538], [27.0305464, 37.7734564], [27.0664297, 37.7790625], [27.029837, 37.7629897], [27.0243375, 37.751331], [27.0412677, 37.7377857], [27.0365316, 37.7283914], [27.0628849, 37.7285856], [27.0698552, 37.7166519], [27.048706, 37.705752]], [[26.786883468366806, 37.6898232743768], [26.7860211, 37.6892744], [26.7860817, 37.6848115], [26.786883468366806, 37.6898232743768]], [[26.7943871, 37.6955988], [26.79375813922178, 37.696601539258296], [26.793744930329854, 37.69517243444132], [26.7943871, 37.6955988]], [[26.787424, 37.7792945], [26.78684554842228, 37.77951276802727], [26.787514007291204, 37.778268805468834], [26.787424, 37.7792945]]], [[[26.5864253, 37.7519164], [26.586613, 37.7519546], [26.5865809, 37.751857], [26.5864253, 37.7519164]]], [[[27.0350514, 37.7744875], [27.0348452, 37.7746401], [27.0353059, 37.7746922], [27.0350514, 37.7744875]]]]}}]}