{"type": "FeatureCollection", "features": [{"type": "Feature", "properties": {"slug": "san-rafael", "members": 1, "country": "Argentina", "input_hash": "d094dae213f4ca44"}, "geometry": {"type": "Polygon", "coordinates": [[[-68.3485176, -34.1750882], [-68.3915012, -34.2096972], [-68.4225352, -34.2120946], [-68.4394407, -34.2242785], [-68.4540287, -34.2128814], [-68.4774232, -34.2099764], [-68.488044, -34.2184934], [-68.5049141, -34.2133584], [-68.5564876, -34.2205857], [-68.5775848, -34.233664], [-68.6144989, -34.2413647], [-68.6886627, -34.2412381], [-68.715148, -34.2632461], [-68.7508107, -34.2587061], [-68.8100853, -34.3701705], [-69.0040298, -34.3211613], [-69.0532926, -34.5813502], [-69.080432, -34.5823789], [-69.1107575, -34.6112558], [-69.1298488, -34.6100769], [-69.1352477, -34.6210324], [-69.1857808, -34.6439537], [-69.2126255, -34.6380616], [-69.2343415, -34.6542188], [-69.2509535, -34.6503144], [-69.2794313, -34.6626776], [-69.3135076, -34.6647341], [-69.3710915, -34.6974918], [-69.3939749, -34.692148], [-69.4420437, -34.7021674], [-69.5019981, -34.6744486], [-69.4992814, -34.6649749], [-69.5307426, -34.6435206], [-69.530791, -34.632492], [-69.5413403, -34.6282713], [-69.5487442, -34.6095542], [-69.581118, -34.5925459], [-69.5856687, -34.5806985], [-69.5923448, -34.5832236], [-69.6044446, -34.5580652], [-69.6371552, -34.5505478], [-69.644559, -34.5300591], [-69.6707439, -34.5177975], [-69.6822075, -34.4964053], [-69.7183102, -34.4794981], [-69.7571915, -34.4798163], [-69.7779357, -34.465762], [-69.7821672, -34.4243908], [-69.8047062, -34.4034195], [-69.8370808, -34.3946836], [-69.8711508, -34.3557483], [-69.9131283, -34.3408755], [-69.9235486, -34.3228413], [-69.9537752, -34.3041743], [-69.9600882, -34.2684039], [-69.9786535, -34.2524721], [-70.0106616, -34.2658293], [-70.0307835, -34.2880091], [-70.0150244, -34.3348711], [-70.0201742, -34.3779521], [-70.0096881, -34.3936382], [-70.0108897, -34.4138919], [-70.0452447, -34.4276822], [-70.0538278, -34.4481664], [-70.0824362, -34.472564], [-70.1017427, -34.4820496], [-70.1154166, -34.4759338], [-70.1294339, -34.4856003], [-70.1444274, -34.5328816], [-70.1744789, -34.5704453], [-70.1945847, -34.5797607], [-70.1905507, -34.5893047], [-70.2050453, -34.5958007], [-70.1997614, -34.6018855], [-70.2169812, -34.610725], [-70.22425, -34.6409054], [-70.2144009, -34.6605077], [-70.21586, -34.6834315], [-70.2423978, -34.6896334], [-70.1820803, -34.7070457], [-70.1397852, -34.7478333], [-70.0849712, -34.7542997], [-70.0746348, -34.7703487], [-70.0536132, -34.7742548], [-70.0501584, -34.7897276], [-70.0288602, -34.7950773], [-70.0132887, -34.8107472], [-69.9363734, -34.8365338], [-69.8943735, -34.8723035], [-69.8782849, -34.8691608], [-69.7355412, -34.9533912], [-69.7089913, -34.9541178], [-69.6624256, -34.9770924], [-69.6316156, -35.0195488], [-69.6280545, -35.0525438], [-69.6098177, -35.0816507], [-69.5692014, -35.1051486], [-69.5670712, -35.1240724], [-69.540998, -35.1715183], [-69.5019959, -35.2214276], [-69.4639527, -35.2520905], [-69.4135307, -35.2536656], [-69.3491795, -35.2742924], [-69.314293, -35.2607008], [-69.2932582, -35.2651684], [-69.2717474, -35.2578959], [-69.2627804, -35.2663587], [-68.747894, -35.371931], [-68.4880562, -35.5785356], [-68.2965035, -35.9993972], [-67.1850807, -36.0000433], [-67.208162, -35.9801327], [-67.2046512, -35.9705], [-67.2379239, -35.9227198], [-67.2332429, -35.9122945], [-67.2520287, -35.8996975], [-67.269829, -35.8608089], [-67.2855814, -35.8502881], [-67.2847037, -35.833412], [-67.3003959, -35.8356493], [-67.3220435, -35.814506], [-67.3361328, -35.8119836], [-67.3389353, -35.7948496], [-67.3700088, -35.7792609], [-67.3657897, -35.7702535], [-67.3944458, -35.747262], [-67.3862693, -35.7428378], [-67.3991422, -35.7342763], [-67.3939838, -35.7307764], [-67.4142176, -35.7241654], [-67.4085259, -35.7165698], [-67.4156928, -35.7016641], [-67.4072879, -35.6893539], [-67.4146174, -35.6845013], [-67.4037463, -35.6827628], [-67.4114454, -35.6582196], [-67.4288146, -35.653215], [-67.4261776, -35.6362192], [-67.4364316, -35.6342218], [-67.4374116, -35.6252658], [-67.4788737, -35.5898564], [-67.4713391, -35.5886876], [-67.4837516, -35.5709414], [-67.479527, -35.5613759], [-67.5015429, -35.5491163], [-67.5287188, -35.5161945], [-67.5459448, -35.4778067], [-67.5675809, -35.4738557], [-67.5771727, -35.4593016], [-67.585623, -35.4624955], [-67.5961246, -35.4548321], [-67.5989826, -35.4333562], [-67.6061488, -35.4346856], [-67.6059949, -35.4264299], [-67.6268649, -35.4140376], [-67.6206231, -35.4113842], [-67.6294155, -35.4064269], [-67.6264899, -35.3962352], [-67.6530658, -35.3792348], [-67.6567351, -35.3719549], [-67.6472951, -35.3639818], [-67.6541438, -35.3548534], [-67.6451501, -35.3498182], [-67.6564956, -35.3376684], [-67.6453679, -35.3241131], [-67.6656493, -35.3013812], [-67.663304, -35.2923511], [-67.682004, -35.2667242], [-67.6815962, -35.2544505], [-67.7124738, -35.2337979], [-67.7241698, -35.2080098], [-67.7264642, -35.1485206], [-67.7122271, -35.098717], [-67.6982811, -35.0841901], [-67.7067859, -35.0587683], [-67.7081446, -34.9970486], [-67.7235621, -34.979008], [-67.7249408, -34.9522752], [-67.6809511, -34.7626719], [-67.6852227, -34.7310323], [-67.6716615, -34.6862987], [-67.6658249, -34.623744], [-67.6340676, -34.5666198], [-67.637779, -34.5481965], [-67.608254, -34.5227345], [-67.602177, -34.5294364], [-67.5586653, -34.5231234], [-67.5400186, -34.5389092], [-67.5272298, -34.5355861], [-67.5123141, -34.5434217], [-67.5099349, -34.5375658], [-67.4773836, -34.5539674], [-67.4611509, -34.5545418], [-67.4467206, -34.5441498], [-67.4296296, -34.5549482], [-67.3899436, -34.5403232], [-67.362095, -34.5500184], [-67.350601, -34.5427005], [-67.2869253, -34.5369825], [-67.2502757, -34.5425503], [-67.2463918, -34.552695], [-67.213583, -34.5541971], [-67.1964598, -34.5656657], [-67.1612692, -34.5568833], [-67.1211809, -34.5699184], [-67.1034562, -34.5700795], [-67.1009052, -34.5636938], [-67.075476, -34.5745258], [-67.0627854, -34.5564217], [-67.0187859, -34.5569294], [-66.9930103, -34.5404737], [-66.9632923, -34.5435001], [-66.9385056, -34.5356816], [-66.9207609, -34.5119715], [-66.9039455, -34.5160548], [-66.8897438, -34.50374], [-66.8689319, -34.5124603], [-66.8665471, -34.5016082], [-66.8479647, -34.4982929], [-66.8474489, -34.4921983], [-66.8090371, -34.4887719], [-66.7722328, -34.5110313], [-66.7563385, -34.511869], [-66.764265, -34.4982776], [-66.7519279, -34.4572861], [-66.7571888, -34.4350052], [-66.7950991, -34.4114269], [-66.7750045, -34.4099575], [-66.7757743, -34.392722], [-66.7651319, -34.3895192], [-66.7640225, -34.3793392], [-66.7864393, -34.3782531], [-66.7954387, -34.3554475], [-66.8121081, -34.3441362], [-66.7991635, -34.3353535], [-66.8023462, -34.3051359], [-66.7757806, -34.297703], [-67.1550369, -34.2958663], [-67.1513754, -34.1105112], [-67.5642199, -34.102414], [-67.6481643, -34.2009938], [-68.0059253, -34.2032315], [-68.06944, -34.1972685], [-68.0951463, -34.2106138], [-68.1271183, -34.2016343], [-68.1687783, -34.2128407], [-68.1976269, -34.1913409], [-68.2109053, -34.19365], [-68.2615589, -34.1718004], [-68.2911537, -34.1735061], [-68.3000783, -34.1667954], [-68.3485176, -34.1750882]]]}}]}