{"type": "FeatureCollection", "features": [{"type": "Feature", "properties": {"slug": "san-pedro-sula", "members": 7, "country": "Honduras", "input_hash": "1781ddfcd164af05"}, "geometry": {"type": "Polygon", "coordinates": [[[-87.9966435, 15.3001714], [-88.0188204, 15.2871977], [-88.0097053, 15.271928], [-88.0161874, 15.2405377], [-88.0072125, 15.2344107], [-88.0220296, 15.2359357], [-88.028491, 15.2228569], [-88.0628765, 15.2101439], [-88.1042706, 15.2189485], [-88.1260644, 15.2674145], [-88.1307283, 15.3699754], [-88.14606208566885, 15.377730364338673], [-88.1652594, 15.37346], [-88.1860094, 15.3876162], [-88.1926142, 15.4023082], [-88.229793, 15.4146903], [-88.2419013, 15.4348243], [-88.23644, 15.4605306], [-88.2469149, 15.5012023], [-88.4107325, 15.5472873], [-88.1570023, 15.6167432], [-88.0925177, 15.6131546], [-88.0711292, 15.6846939], [-87.9911566, 15.7098102], [-87.9829382, 15.7482006], [-87.9635641, 15.7628325], [-87.9671298, 15.7733437], [-87.9475964, 15.7731691], [-87.96607824987015, 15.801649424132556], [-87.9261512, 15.8281718], [-87.936171, 15.8403274], [-87.96348, 15.8444275], [-87.9519081, 15.8642395], [-87.9041326, 15.8639918], [-87.8716779, 15.8880261], [-87.832574, 15.8986853], [-87.7552103, 15.8946601], [-87.7305412, 15.9195567], [-87.7217903289863, 15.916322963939841], [-87.7285731, 15.9083978], [-87.7298458, 15.8780659], [-87.7451063, 15.8739742], [-87.7480835, 15.880393], [-87.7729101, 15.8556095], [-87.7653408, 15.8445403], [-87.7724326, 15.8401589], [-87.7692247, 15.8202427], [-87.7836451, 15.8277981], [-87.779181, 15.8082477], [-87.7960128, 15.8121622], [-87.7936709, 15.7963849], [-87.8021971, 15.7895237], [-87.7913913, 15.7894722], [-87.7806668, 15.7759738], [-87.7864568, 15.7591185], [-87.7731459, 15.7743786], [-87.7555797, 15.7357768], [-87.77555, 15.7327352], [-87.7721087, 15.7184295], [-87.7803699, 15.7098212], [-87.7729739, 15.7088935], [-87.7599583, 15.6223789], [-87.7414358, 15.6074999], [-87.7451342, 15.5897461], [-87.7645474, 15.5637203], [-87.7379376, 15.5336533], [-87.7059838, 15.5268142], [-87.6860204, 15.4995388], [-87.6869646, 15.4598759], [-87.7322188, 15.4351396], [-87.7668515, 15.3433042], [-87.7797476, 15.2693969], [-87.8056684, 15.2377646], [-87.8373614, 15.2255286], [-87.9183296, 15.2239885], [-87.9265746, 15.2331387], [-87.9214744, 15.2451286], [-87.936283, 15.2346375], [-87.9382247, 15.2464525], [-87.9318056, 15.2698685], [-87.9102403, 15.2740003], [-87.9118772, 15.2899814], [-87.9284853, 15.2967498], [-87.9234015, 15.3034739], [-87.9866845, 15.2923984], [-87.9966435, 15.3001714]], [[-88.0138382, 15.4178111], [-88.0135447131067, 15.417882244456774], [-88.01406840325437, 15.418222576594625], [-88.0138382, 15.4178111]], [[-87.99291278571154, 15.431455580615795], [-87.9940425, 15.4309038], [-87.9972718, 15.4221353], [-87.99291278571154, 15.431455580615795]], [[-87.98937538412227, 15.432230521261195], [-87.9903449, 15.4327098], [-87.99158420561686, 15.43210449224793], [-87.98937538412227, 15.432230521261195]], [[-87.9867212, 15.4268879], [-87.9874607, 15.431284], [-87.98827877253295, 15.431688412945524], [-87.9867212, 15.4268879]], [[-87.9594549, 15.430146], [-87.95706160027513, 15.429824612096125], [-87.9642393, 15.4339217], [-87.9594549, 15.430146]], [[-87.9571111, 15.4261503], [-87.9564002, 15.4278147], [-87.95675221386641, 15.428884425784382], [-87.9571111, 15.4261503]], [[-87.9553679, 15.4229924], [-87.95489761828485, 15.423325234912317], [-87.9612027, 15.4252054], [-87.9553679, 15.4229924]], [[-87.9377201, 15.4130569], [-87.93743527104097, 15.413245654270346], [-87.9491362, 15.4108122], [-87.9377201, 15.4130569]], [[-87.9163703, 15.4335753], [-87.9162215296978, 15.435197224808883], [-87.9194511, 15.4315361], [-87.9163703, 15.4335753]], [[-87.9115748, 15.4360763], [-87.915624, 15.4358746], [-87.91579126287121, 15.435684986463173], [-87.9115748, 15.4360763]], [[-87.906818, 15.4312369], [-87.9069203, 15.4340345], [-87.90702209548328, 15.434079154853963], [-87.906818, 15.4312369]], [[-87.9027466, 15.4242794], [-87.90214898051686, 15.42461039304783], [-87.90366162555996, 15.42444430347936], [-87.9027466, 15.4242794]], [[-87.8047117, 15.5252109], [-87.8066643, 15.528891], [-87.80503319032697, 15.524350797817343], [-87.8047117, 15.5252109]], [[-87.80545445623223, 15.577977246459929], [-87.8060742, 15.5770521], [-87.8059025, 15.5739104], [-87.80545445623223, 15.577977246459929]], [[-87.7948303, 15.5832529], [-87.7982636, 15.5835629], [-87.8003546918742, 15.582510401974071], [-87.7948303, 15.5832529]], [[-87.7715293, 15.5745821], [-87.7777199, 15.5781115], [-87.77153688731649, 15.573759608920769], [-87.7715293, 15.5745821]], [[-87.82101209869649, 15.402667577459356], [-87.825434, 15.4005166], [-87.8214858, 15.4020645], [-87.82101209869649, 15.402667577459356]], [[-87.81914526271794, 15.40647730279236], [-87.820337821428, 15.403526011706765], [-87.8193197, 15.4048222], [-87.81914526271794, 15.40647730279236]], [[-87.8476695, 15.5329263], [-87.8421769, 15.5405414], [-87.8547428, 15.5249753], [-87.8476695, 15.5329263]], [[-87.90885561615373, 15.456497820074588], [-87.90937459361626, 15.454675351548827], [-87.9089426, 15.4545484], [-87.90885561615373, 15.456497820074588]], [[-87.86096616382451, 15.752141694522322], [-87.8620194, 15.7491798], [-87.8607105, 15.7521416], [-87.86096616382451, 15.752141694522322]]]}}]}