{"type": "FeatureCollection", "features": [{"type": "Feature", "properties": {"slug": "san-miguel-de-allende", "members": 1, "country": "Mexico", "input_hash": "39fbe8923f2b08be"}, "geometry": {"type": "Polygon", "coordinates": [[[-101.0022976, 20.7823361], [-100.988946, 20.7887102], [-100.9886085, 20.8114147], [-100.9747132, 20.8142556], [-100.9546046, 20.79941], [-100.9137792, 20.8080664], [-100.8896755, 20.79347], [-100.8241236, 20.8059063], [-100.8126645, 20.7966992], [-100.8071879, 20.8087063], [-100.80095, 20.7927213], [-100.7861574, 20.7822263], [-100.7413632, 20.807894], [-100.7182481, 20.8312668], [-100.695634, 20.8195036], [-100.6744928, 20.7939674], [-100.631829, 20.7923019], [-100.6338545, 20.7698452], [-100.6155139, 20.7629952], [-100.6257476, 20.7470912], [-100.6352571, 20.7476718], [-100.6219445, 20.7438282], [-100.6185602, 20.7160881], [-100.5489146, 20.7363834], [-100.548121, 20.7495608], [-100.5640773, 20.7746968], [-100.5583282, 20.8045711], [-100.5733644, 20.8036741], [-100.5775889, 20.8166697], [-100.5020486, 20.8529204], [-100.5090235, 20.8707067], [-100.4853667, 20.9087997], [-100.4699582, 20.9070393], [-100.4844867, 20.9541424], [-100.4955543, 20.9567639], [-100.5021431, 20.9768255], [-100.5105394, 20.970128], [-100.5289636, 20.9923252], [-100.529563, 20.999175], [-100.513524, 21.0032322], [-100.5344782, 21.0485157], [-100.5276888, 21.052968], [-100.5287677, 21.0744112], [-100.5580986, 21.0993247], [-100.6441095, 21.1088251], [-100.7876426, 21.0923041], [-100.8154242, 21.0588556], [-100.8319504, 21.0702258], [-100.8532425, 21.0676725], [-100.8386941, 21.0191391], [-100.8681138, 21.0114212], [-100.8891174, 21.0253528], [-100.8833199, 21.0101976], [-100.9100627, 21.0058594], [-100.910369, 20.9920887], [-100.897767, 20.981989], [-100.901602, 20.9751766], [-100.9236825, 20.9925228], [-100.9224445, 20.9622588], [-100.9348607, 20.9594448], [-100.9413496, 20.9444501], [-100.9612995, 20.9519013], [-100.9623163, 20.9433715], [-100.9721877, 20.9423265], [-100.9648776, 20.9350579], [-100.9696041, 20.9275929], [-100.9824832, 20.9280095], [-100.9847933, 20.917624], [-100.9936744, 20.9213922], [-101.0407981, 20.8785437], [-101.0866808, 20.8600482], [-101.0721178, 20.8430815], [-101.0670747, 20.8139222], [-101.0341014, 20.8002187], [-101.0330986, 20.7847825], [-101.0022976, 20.7823361]]]}}]}