{"type": "FeatureCollection", "features": [{"type": "Feature", "properties": {"slug": "san-andres", "members": 1, "country": "Colombia", "input_hash": "616f74c64643bc5d"}, "geometry": {"type": "MultiPolygon", "coordinates": [[[[-81.68706066300001, 12.581356987598316], [-81.68795534100002, 12.58045398259835], [-81.696492256, 12.579761020598417], [-81.70309331300001, 12.575196371598517], [-81.70220774799998, 12.56788505759874], [-81.707570358, 12.572062258598615], [-81.70526520800001, 12.56761751359875], [-81.70009002699999, 12.5664118545988], [-81.70739332900001, 12.563106080598882], [-81.70353411399998, 12.54379219059948], [-81.73013978, 12.480312472601382], [-81.735533159, 12.490965245601016], [-81.72730716, 12.525952820599972], [-81.735609651, 12.530809579599824], [-81.73228197600002, 12.555267113599122], [-81.708417526, 12.593409035598], [-81.70389465599999, 12.594897440597933], [-81.69855833399998, 12.587199685598177], [-81.68706066300001, 12.581356987598316]]], [[[-81.69084920199998, 12.579567145598377], [-81.69092149699998, 12.579475723598408], [-81.69089145100003, 12.579575158598391], [-81.69084920199998, 12.579567145598377]]], [[[-81.690819579, 12.579717989598398], [-81.69084188599999, 12.579713358598367], [-81.69108016000001, 12.579855601598393], [-81.690819579, 12.579717989598398]]]]}}]}