{"type": "FeatureCollection", "features": [{"type": "Feature", "properties": {"slug": "san-marino", "members": 9, "country": "San Marino", "input_hash": "3c3dc9c105c85953"}, "geometry": {"type": "Polygon", "coordinates": [[[12.4496945, 43.8969874], [12.4428837, 43.905923], [12.4341884, 43.9023414], [12.4156775, 43.9002402], [12.4088073, 43.9021828], [12.414356620961785, 43.937009210333414], [12.402433, 43.9532795], [12.4392088, 43.9562082], [12.4717857, 43.9784852], [12.5144765, 43.9907204], [12.5063687, 43.9580802], [12.5169591, 43.9408539], [12.4942328, 43.9201925], [12.4874043, 43.8964693], [12.4496945, 43.8969874]], [[12.4333753, 43.9425882], [12.4329829, 43.944516], [12.4326188, 43.9401294], [12.4333753, 43.9425882]], [[12.440944708069779, 43.940152212947474], [12.4401268, 43.941345], [12.43871644759705, 43.94086931177623], [12.440944708069779, 43.940152212947474]], [[12.44635206835749, 43.9384120161543], [12.4440336, 43.939536], [12.443278559684849, 43.939401132775224], [12.44635206835749, 43.9384120161543]], [[12.4528215, 43.9323851], [12.453362330286465, 43.93322066806366], [12.45038529112732, 43.93645672648009], [12.4528215, 43.9323851]], [[12.4549635, 43.925594], [12.4545955, 43.9314943], [12.454186059683336, 43.93206749335604], [12.4549635, 43.925594]], [[12.45619014857414, 43.925131205954024], [12.4562219, 43.9254858], [12.4549635, 43.925594], [12.45619014857414, 43.925131205954024]], [[12.455167980686317, 43.91984465022022], [12.455691204228208, 43.919559087866354], [12.455794218693077, 43.920709534339345], [12.455167980686317, 43.91984465022022]], [[12.4575326, 43.9185541], [12.464096465679573, 43.91992915423057], [12.456307387872126, 43.91922279020831], [12.4575326, 43.9185541]], [[12.4744389403954, 43.92015579964667], [12.476226029137694, 43.9195532493789], [12.4779988, 43.9208916], [12.4744389403954, 43.92015579964667]], [[12.4798289, 43.9166806], [12.4828734, 43.9160072], [12.4782982, 43.9175679], [12.4798289, 43.9166806]], [[12.43805782990197, 43.907483017832924], [12.435683776762684, 43.904328425485595], [12.4382886, 43.9072168], [12.43805782990197, 43.907483017832924]], [[12.431372430981964, 43.91440997873635], [12.436389651978576, 43.90940743835138], [12.431938823434498, 43.91454194208401], [12.431372430981964, 43.91440997873635]], [[12.4354358, 43.9153567], [12.432432296069573, 43.91465691589874], [12.441923, 43.9141607], [12.4354358, 43.9153567]], [[12.4494026, 43.9153983], [12.454573054884072, 43.919023010727145], [12.447824847014376, 43.915866818460145], [12.4494026, 43.9153983]], [[12.4268579, 43.9189113], [12.427370745484938, 43.918399955123746], [12.4281535, 43.9202485], [12.4268579, 43.9189113]], [[12.4271131, 43.9236862], [12.427244148482469, 43.92325318830432], [12.4293673, 43.9238221], [12.4271131, 43.9236862]], [[12.4830543, 43.9454554], [12.4801856, 43.9384365], [12.483405813858006, 43.94557407261076], [12.4830543, 43.9454554]], [[12.4979995, 43.9470879], [12.497271276595956, 43.947172085329186], [12.500020424222209, 43.94606834839118], [12.4979995, 43.9470879]], [[12.51232156389073, 43.941824954412944], [12.508811187881664, 43.94253900334197], [12.5094304, 43.9422904], [12.51232156389073, 43.941824954412944]], [[12.461173804931494, 43.956424292962545], [12.4669029, 43.9621343], [12.461054, 43.9564526], [12.461173804931494, 43.956424292962545]], [[12.462706312301949, 43.9561025866454], [12.462495850877184, 43.956111925152335], [12.4625696, 43.9560945], [12.462706312301949, 43.9561025866454]], [[12.4612904, 43.9493471], [12.461418528886663, 43.95002294181509], [12.4587932, 43.9466508], [12.4612904, 43.9493471]], [[12.474072455099279, 43.937475929100685], [12.4715862, 43.9385905], [12.4739971, 43.9374571], [12.474072455099279, 43.937475929100685]], [[12.479193780244001, 43.93628594142589], [12.4798275, 43.9364031], [12.479497288131785, 43.93707480531717], [12.479193780244001, 43.93628594142589]], [[12.482976041578299, 43.95972736939809], [12.4830992, 43.9599138], [12.4775248, 43.9576671], [12.482976041578299, 43.95972736939809]], [[12.472374354665899, 43.959809853127844], [12.4721713, 43.9598045], [12.4701181, 43.956541], [12.472374354665899, 43.959809853127844]]]}}]}