{"type": "FeatureCollection", "features": [{"type": "Feature", "properties": {"slug": "san-jose-el-peten", "members": 1, "country": "Guatemala", "input_hash": "29495985c1dbded5"}, "geometry": {"type": "Polygon", "coordinates": [[[-89.6955458, 17.1168374], [-89.7277008, 17.1168352], [-89.7276517, 17.3342293], [-89.7004511, 17.3342101], [-89.6999759, 17.8154997], [-89.9166758, 17.8159276], [-89.9166666, 17.0000002], [-89.9115428, 16.9802226], [-89.8977105, 16.9661454], [-89.8597485, 16.9916581], [-89.7205816, 16.9898205], [-89.7029452, 16.9965413], [-89.69475, 17.0109577], [-89.7027253, 17.0642556], [-89.6940439, 17.069001], [-89.7100577, 17.0793849], [-89.7011248, 17.0831741], [-89.7043209, 17.0948505], [-89.6955458, 17.1168374]]]}}]}