{"type": "FeatureCollection", "features": [{"type": "Feature", "properties": {"slug": "san-fernando-tt", "members": 2, "country": "Trinidad & Tobago", "input_hash": "dc86847d7ea44525"}, "geometry": {"type": "MultiPolygon", "coordinates": [[[[-61.4849363, 10.2756661], [-61.484781, 10.2757545], [-61.4848499, 10.2755374], [-61.4849363, 10.2756661]]], [[[-61.438345, 10.27085], [-61.5018035, 10.245889], [-61.4722127, 10.2701874], [-61.4559491, 10.3008195], [-61.4652884, 10.3089646], [-61.4375747, 10.3146186], [-61.438345, 10.27085]]]]}}]}