{"type": "FeatureCollection", "features": [{"type": "Feature", "properties": {"slug": "san-jose", "members": 30, "country": "Costa Rica", "input_hash": "f8562db7763c0ca2"}, "geometry": {"type": "Polygon", "coordinates": [[[-84.09543999760768, 9.75184147298913], [-84.0917439, 9.7090529], [-84.118228, 9.7056687], [-84.1498069, 9.6781648], [-84.1573232, 9.6553625], [-84.1466229, 9.6481161], [-84.1488952, 9.6297591], [-84.1909136, 9.6174673], [-84.2182615, 9.6209521], [-84.22533, 9.6280433], [-84.2102963, 9.6487165], [-84.2044178, 9.680673], [-84.1764816, 9.6961438], [-84.1686335, 9.7128699], [-84.1575881, 9.7096309], [-84.1504964, 9.7214607], [-84.1332765, 9.728424], [-84.1628989, 9.7675001], [-84.1620557, 9.7764471], [-84.1443713, 9.7818497], [-84.1504816, 9.7856006], [-84.1324169, 9.8020483], [-84.1415271, 9.8158378], [-84.1352829, 9.8324351], [-84.14334227521945, 9.860164444719185], [-84.1668881, 9.8604487], [-84.1920418, 9.8397214], [-84.2149116, 9.8478267], [-84.2247601, 9.8107964], [-84.2633266, 9.8087748], [-84.2539832, 9.8441915], [-84.270316, 9.8421178], [-84.2997605, 9.8815132], [-84.3240721, 9.8897152], [-84.3298013, 9.899756], [-84.3671054, 9.8794204], [-84.3757207, 9.9001153], [-84.3965047, 9.9047839], [-84.4131056861843, 9.924171188455848], [-84.4614547, 9.9212159], [-84.4684069, 9.9511971], [-84.4525712, 9.9685694], [-84.45218682461257, 9.99765924978066], [-84.494865, 9.9797331], [-84.4957877, 10.0116635], [-84.5081795, 10.0146958], [-84.5328022, 10.0103016], [-84.5542499, 9.9931734], [-84.5632676, 10.0291765], [-84.5735021, 10.020024], [-84.6038979, 10.0449687], [-84.6264901, 10.048736], [-84.6304839, 10.0708504], [-84.6441095, 10.0813504], [-84.6710667, 10.1282241], [-84.6639971, 10.1698355], [-84.6834897, 10.1758294], [-84.6614975, 10.1992911], [-84.6565794, 10.2342729], [-84.673835, 10.2792181], [-84.6870396, 10.2835108], [-84.7022041, 10.2630226], [-84.722495, 10.2685137], [-84.731682, 10.2504438], [-84.7551031, 10.2551943], [-84.7657872, 10.2625797], [-84.7668408, 10.2795226], [-84.7820124, 10.2912134], [-84.793334, 10.3172393], [-84.7663659, 10.3546465], [-84.7813767, 10.3847477], [-84.7641885, 10.4317937], [-84.747532, 10.4321782], [-84.7537343, 10.4124496], [-84.7472641, 10.3991766], [-84.727262, 10.3917944], [-84.7211724, 10.3764847], [-84.6882932, 10.4429152], [-84.6687572, 10.411198], [-84.6435784, 10.4541043], [-84.6258855, 10.4565191], [-84.5832019, 10.4382548], [-84.571483, 10.4387699], [-84.5629195, 10.4495306], [-84.5491926, 10.4415367], [-84.5460885, 10.4367046], [-84.5580545, 10.4253297], [-84.5554962, 10.3912975], [-84.5781659, 10.3714761], [-84.6357099, 10.3618441], [-84.6354711, 10.3252655], [-84.6235835, 10.311227], [-84.5965254, 10.3106992], [-84.5804717, 10.3305832], [-84.5343045, 10.3574808], [-84.5320607, 10.3724465], [-84.5224349, 10.3654458], [-84.5253767, 10.301265], [-84.5173824, 10.2358702], [-84.4794157, 10.2169839], [-84.4689615, 10.1876098], [-84.4320058, 10.1686052], [-84.4145938, 10.1299373], [-84.4346155, 10.1228781], [-84.4438852, 10.1019861], [-84.4336743, 10.085797], [-84.4466913, 10.0798064], [-84.4692225, 10.0288536], [-84.4698946, 10.015956], [-84.4559156, 10.0036994], [-84.3906727, 10.0387114], [-84.3662741, 10.0341301], [-84.36106423576032, 10.01856937049621], [-84.3571874, 10.114629], [-84.3144007, 10.2050258], [-84.352272, 10.2449385], [-84.3407083, 10.258586], [-84.2822963, 10.2619059], [-84.2645741, 10.276686], [-84.2579747, 10.2495157], [-84.242046, 10.2418995], [-84.2156032, 10.2513902], [-84.2010481, 10.2771074], [-84.2049782, 10.2869811], [-84.1931674, 10.2994232], [-84.1978425, 10.3109833], [-84.1846544, 10.338427], [-84.1785385, 10.3878242], [-84.1618762, 10.4137132], [-84.1612296, 10.0829754], [-84.1611912, 10.2984939], [-84.1129306, 10.2604758], [-84.102821, 10.2245148], [-84.1044548, 10.1999426], [-84.0962933, 10.1918104], [-84.0584443, 10.2083847], [-84.0345404, 10.1822817], [-84.002497, 10.1901528], [-83.9758301, 10.1867883], [-83.9494334, 10.2004923], [-83.9225463, 10.1962581], [-83.93340879975128, 10.187839976787517], [-83.9475041, 10.1471836], [-83.9318852, 10.0841939], [-83.881537, 10.04485], [-83.8591585, 9.979203], [-83.8829343, 9.9404174], [-83.8935426, 9.8963147], [-83.907422, 9.8846444], [-83.9090946, 9.8582732], [-83.8651044, 9.8185383], [-83.8742246, 9.8024084], [-83.8708871, 9.7724991], [-83.7653182, 9.603885], [-83.7865159, 9.6065802], [-83.943127, 9.7984529], [-83.9463972, 9.8278308], [-83.9377567, 9.8399116], [-83.9251784, 9.8388494], [-83.9292502, 9.8525785], [-83.9991851, 9.8354119], [-83.9994179, 9.8424101], [-84.0109706, 9.8395872], [-84.0110791, 9.8293295], [-84.0264053, 9.8201933], [-84.0118338, 9.803731], [-84.0299559, 9.7895514], [-84.0297861, 9.7781605], [-84.020956, 9.77893], [-84.0195148, 9.7700402], [-83.9917254, 9.783366], [-83.9817649, 9.7701723], [-83.9794088, 9.7449792], [-83.9510534, 9.7395189], [-83.9489438, 9.7140731], [-83.9676674, 9.7386187], [-84.0807055, 9.7408756], [-84.09543999760768, 9.75184147298913]], [[-84.0698118, 9.8508699], [-84.06977545942482, 9.85074755368645], [-84.0600877, 9.8618888], [-84.0698118, 9.8508699]], [[-84.06283759931992, 9.831627427314977], [-84.0661747, 9.8306968], [-84.0625753, 9.8312129], [-84.06283759931992, 9.831627427314977]], [[-84.0788127, 9.8319865], [-84.0716428, 9.8315337], [-84.07161186441128, 9.831601567204064], [-84.0788127, 9.8319865]], [[-84.0825565, 9.8302186], [-84.08254893913907, 9.829746798562638], [-84.079296, 9.8296578], [-84.0825565, 9.8302186]], [[-84.0825158, 9.8276789], [-84.08207205055304, 9.827625296262882], [-84.08253645180675, 9.828967582889963], [-84.0825158, 9.8276789]], [[-84.0974313, 9.7840976], [-84.09842257781597, 9.781587597907729], [-84.0950247, 9.7852904], [-84.0974313, 9.7840976]], [[-84.0990098, 9.7801007], [-84.09840206476662, 9.778808308649433], [-84.09880495101191, 9.780619395546733], [-84.0990098, 9.7801007]], [[-84.1044673, 9.770937], [-84.0972402, 9.7735854], [-84.09744706774647, 9.774515328657257], [-84.1044673, 9.770937]], [[-84.09545455274392, 9.751858532016582], [-84.0956901, 9.7521346], [-84.0970208, 9.750851], [-84.09545455274392, 9.751858532016582]], [[-84.4525711, 10.0002922], [-84.45342282824227, 10.001159895759328], [-84.45220209411163, 9.997763872226423], [-84.4525711, 10.0002922]], [[-84.1311951, 10.1370195], [-84.12900761060463, 10.135797973497695], [-84.1408766, 10.14942], [-84.1311951, 10.1370195]], [[-84.1249775, 10.1335475], [-84.1196164, 10.1357917], [-84.12609366938389, 10.134170785528323], [-84.1249775, 10.1335475]], [[-84.10197245634726, 10.131181977515036], [-84.1027086, 10.1316025], [-84.1060633, 10.130178], [-84.10197245634726, 10.131181977515036]], [[-84.08573425430428, 10.08765915022512], [-84.0853479, 10.0885535], [-84.08557406736561, 10.08973185139903], [-84.08573425430428, 10.08765915022512]], [[-84.1045934404146, 10.019503540797533], [-84.1045406, 10.0195341], [-84.1076844, 10.0260523], [-84.1045934404146, 10.019503540797533]], [[-84.119341, 10.0115532], [-84.1224969, 10.0164059], [-84.1169561, 10.0060838], [-84.10610696520963, 10.018628223845447], [-84.119341, 10.0115532]], [[-84.1275526, 10.0159966], [-84.12850721034957, 10.015066618247316], [-84.1224969, 10.0164059], [-84.1275526, 10.0159966]], [[-84.1087892, 9.9910254], [-84.10877905312074, 9.999172260395117], [-84.10914655262583, 9.99874397125535], [-84.1087892, 9.9910254]], [[-84.1141221, 9.9705287], [-84.11303222239917, 9.966874470198574], [-84.11400914890157, 9.970812682414122], [-84.1141221, 9.9705287]], [[-84.11244602828467, 9.964909031142843], [-84.10974461993767, 9.96161511133449], [-84.10907506026614, 9.961986093937048], [-84.11244602828467, 9.964909031142843]], [[-84.1337907, 9.9673409], [-84.1376838, 9.9636669], [-84.13328875233336, 9.96718735041349], [-84.1337907, 9.9673409]], [[-84.1461686, 9.9639991], [-84.145545, 9.9620264], [-84.14528669137648, 9.962127577992577], [-84.1461686, 9.9639991]], [[-84.155494, 9.9688043], [-84.15601014589139, 9.968494036208721], [-84.15543530014311, 9.968735751911614], [-84.155494, 9.9688043]], [[-84.16778007458657, 9.96568878835865], [-84.1618582, 9.966035], [-84.16061258694545, 9.96655876526385], [-84.16778007458657, 9.96568878835865]], [[-84.1728945, 9.9719723], [-84.1731440426759, 9.971881464445179], [-84.16827804367838, 9.965659675500197], [-84.1728945, 9.9719723]], [[-84.1828723, 9.9683403], [-84.1745408, 9.9680397], [-84.1800327, 9.9685554], [-84.1745559484809, 9.97136751929858], [-84.1828723, 9.9683403]], [[-84.1833113, 9.9729147], [-84.18378994697574, 9.97303034303946], [-84.1828723, 9.9683403], [-84.1833113, 9.9729147]], [[-84.1230868, 9.9344519], [-84.1231022, 9.9365815], [-84.12326108580676, 9.936606379563194], [-84.1230868, 9.9344519]], [[-84.12132739075119, 9.92868875068858], [-84.1212412384161, 9.929940104970704], [-84.1224327, 9.9310861], [-84.12132739075119, 9.92868875068858]], [[-84.1103894, 9.914655], [-84.1175633, 9.9295918], [-84.1190939, 9.9316103], [-84.1103894, 9.914655]], [[-84.0984410603078, 9.905780147840856], [-84.0983758, 9.9077296], [-84.1003699, 9.909343], [-84.0984410603078, 9.905780147840856]], [[-84.098296, 9.9055122], [-84.0962139, 9.9061389], [-84.09838016680106, 9.905667668528618], [-84.098296, 9.9055122]], [[-84.0945679, 9.9022644], [-84.094202105049, 9.902165613822122], [-84.09463997750743, 9.902434062395216], [-84.0945679, 9.9022644]], [[-84.0918419, 9.8980821], [-84.09145369480939, 9.900480632743935], [-84.09145369480939, 9.900480632743937], [-84.0918419, 9.8980821]], [[-84.0928452, 9.8828618], [-84.0841731, 9.885765], [-84.08419588793926, 9.885852456358453], [-84.0928452, 9.8828618]], [[-84.1066007034921, 9.873937549219761], [-84.10257925651084, 9.875128753124429], [-84.0928452, 9.8828618], [-84.1066007034921, 9.873937549219761]], [[-84.10131639962151, 9.874965761196197], [-84.1017831, 9.8752353], [-84.10185784972074, 9.875225296503093], [-84.10131639962151, 9.874965761196197]], [[-84.0919466, 9.8704745], [-84.084415, 9.8717267], [-84.09205472685446, 9.8705263288507], [-84.0919466, 9.8704745]], [[-84.35780828407816, 10.012831529423554], [-84.3578536, 10.0135109], [-84.3623313, 10.0161795], [-84.35780828407816, 10.012831529423554]], [[-84.3574303056633, 10.00716492476886], [-84.35750941333474, 10.008350896987164], [-84.3575382, 10.0074356], [-84.3574303056633, 10.00716492476886]], [[-84.3457383, 9.9968734], [-84.35122947074252, 9.996043809044416], [-84.3509333, 9.9958051], [-84.3457383, 9.9968734]], [[-84.34183393724936, 9.99157086376556], [-84.3420712, 9.9929735], [-84.3457383, 9.9968734], [-84.34183393724936, 9.99157086376556]], [[-84.3423997, 9.9836975], [-84.3442972, 9.9858907], [-84.34245218961546, 9.98348825085729], [-84.3423997, 9.9836975]], [[-84.3428585, 9.9818685], [-84.34265989649752, 9.982660230178832], [-84.34382967836135, 9.980014072226453], [-84.3428585, 9.9818685]], [[-84.3459732, 9.9759211], [-84.34560852302202, 9.976617436680517], [-84.3520477, 9.9716932], [-84.3459732, 9.9759211]], [[-84.36744205857953, 9.929548833592039], [-84.3679369, 9.9299447], [-84.3682069556013, 9.92972847527675], [-84.36744205857953, 9.929548833592039]], [[-84.25203576467582, 9.928007323907156], [-84.2588534, 9.930236], [-84.2522906, 9.927669], [-84.25203576467582, 9.928007323907156]], [[-84.2491137, 9.9321336], [-84.2496517079022, 9.931172440066568], [-84.24895071980858, 9.932103084322728], [-84.2491137, 9.9321336]], [[-84.2383668, 9.9325242], [-84.2392155, 9.9385452], [-84.245952, 9.9349001], [-84.2467744, 9.9316956], [-84.2383668, 9.9325242]], [[-84.23354271320103, 9.933014130474128], [-84.2337334, 9.9331115], [-84.2383668, 9.9325242], [-84.23354271320103, 9.933014130474128]], [[-84.2316948, 9.9482055], [-84.2338138, 9.9457737], [-84.23147491798967, 9.948216991572215], [-84.2316948, 9.9482055]], [[-84.11395307611551, 9.871698703666999], [-84.1142038, 9.8716355], [-84.1220914, 9.8613064], [-84.11395307611551, 9.871698703666999]], [[-84.1307963, 9.8559692], [-84.13206715235934, 9.854334256478138], [-84.1220914, 9.8613064], [-84.1307963, 9.8559692]], [[-84.13257399013652, 9.853682212883667], [-84.133729, 9.8521963], [-84.1347004, 9.8474663], [-84.13257399013652, 9.853682212883667]], [[-84.41282515623529, 9.928332849797414], [-84.41236743483275, 9.928629286598998], [-84.4127955, 9.9287728], [-84.41282515623529, 9.928332849797414]], [[-84.40659576318319, 9.927300965299498], [-84.4059161, 9.9271047], [-84.3995344, 9.9313735], [-84.40659576318319, 9.927300965299498]], [[-84.39390901824622, 9.935639624094994], [-84.3891308, 9.9362692], [-84.3938826, 9.9360391], [-84.39390901824622, 9.935639624094994]], [[-84.3806485, 9.9294508], [-84.3735414, 9.9259402], [-84.37323311868755, 9.926178396373317], [-84.3806485, 9.9294508]], [[-84.23290045061647, 9.932686174875316], [-84.22805009689392, 9.929123312066576], [-84.2286136, 9.9304972], [-84.23290045061647, 9.932686174875316]], [[-84.1637504, 9.8675172], [-84.1513264, 9.8633526], [-84.1505035453492, 9.863590016859499], [-84.1637504, 9.8675172]], [[-84.14926808442205, 9.863946482309462], [-84.1485038, 9.864167], [-84.1479291989598, 9.866214423461583], [-84.14926808442205, 9.863946482309462]], [[-84.1858002, 9.9717064], [-84.1841117, 9.9658022], [-84.18499236178933, 9.971811322868472], [-84.1858002, 9.9717064]], [[-84.1751287, 9.9537044], [-84.1665847, 9.9476477], [-84.17544975540913, 9.954391853025951], [-84.1751287, 9.9537044]], [[-84.14744899509307, 9.870693066718696], [-84.14725680493885, 9.868610303729136], [-84.1469518, 9.8696971], [-84.14744899509307, 9.870693066718696]], [[-84.1737273, 10.0050392], [-84.1724534, 10.007007], [-84.1765642, 10.0051206], [-84.1737273, 10.0050392]], [[-84.1656667, 9.9926362], [-84.1624137, 9.9809875], [-84.1713264, 10.0041998], [-84.1656667, 9.9926362]], [[-84.1998742, 9.9751246], [-84.1998561, 9.9680929], [-84.19888771855108, 9.975514690077603], [-84.1998742, 9.9751246]], [[-84.1362097, 10.0071735], [-84.13349798079489, 10.010204607848912], [-84.13627413286987, 10.007235106004657], [-84.1362097, 10.0071735]], [[-84.14380821801397, 10.023099783452338], [-84.1629079, 10.0139531], [-84.1456020192913, 10.020888059036313], [-84.14380821801397, 10.023099783452338]], [[-84.1415512, 10.0079404], [-84.154551, 9.994613], [-84.14147220702293, 10.007951346010291], [-84.1415512, 10.0079404]], [[-84.141499, 10.0248903], [-84.14260834873708, 10.041217662868876], [-84.14248467402449, 10.024126030173255], [-84.141499, 10.0248903]], [[-84.141233, 10.0454272], [-84.14225483922395, 10.042299651299633], [-84.1329062, 10.0593832], [-84.141233, 10.0454272]], [[-84.32212184123684, 9.994901728252445], [-84.3220151, 9.9947819], [-84.3183104, 9.9977779], [-84.32212184123684, 9.994901728252445]], [[-84.3327666, 10.0012855], [-84.33308163195112, 10.00134339954297], [-84.3295605, 9.9964525], [-84.3327666, 10.0012855]], [[-84.3366912, 10.0020068], [-84.33746455595546, 10.001555781342368], [-84.3343954686462, 10.001584868841286], [-84.3366912, 10.0020068]], [[-84.3391312, 10.0005838], [-84.33926242963354, 9.999592667439664], [-84.33874670015733, 10.000808039047588], [-84.3391312, 10.0005838]], [[-84.3102497, 10.1483896], [-84.3140265, 10.1422498], [-84.3172283, 10.1364914], [-84.3102497, 10.1483896]], [[-84.2703147, 10.1883296], [-84.2765708, 10.1842522], [-84.27689363752599, 10.183631632293828], [-84.2703147, 10.1883296]], [[-84.2450897, 10.1799803], [-84.2431585, 10.1804027], [-84.2492096, 10.1797691], [-84.2450897, 10.1799803]], [[-84.2136076, 10.1700232], [-84.21053055492561, 10.16814374739844], [-84.21362223387966, 10.17146072343445], [-84.2136076, 10.1700232]], [[-84.19725399958301, 10.149664814419156], [-84.1980293, 10.1547315], [-84.1985216824302, 10.15525976336298], [-84.19725399958301, 10.149664814419156]], [[-84.19646526347601, 10.13874054331095], [-84.1957119, 10.139587], [-84.19591888041076, 10.140939642975157], [-84.19646526347601, 10.13874054331095]], [[-84.199703, 10.1257092], [-84.1970852, 10.1333558], [-84.19740121527232, 10.134973495223567], [-84.199703, 10.1257092]], [[-84.2420605, 10.0679948], [-84.24441884113398, 10.064835088606673], [-84.2406014, 10.0679736], [-84.2420605, 10.0679948]], [[-84.2467597, 10.0616988], [-84.2483047, 10.0555928], [-84.2451956556553, 10.063794310553767], [-84.2467597, 10.0616988]], [[-84.2527679, 10.0503953], [-84.25429, 10.0472471], [-84.25215286711553, 10.050837846271124], [-84.2527679, 10.0503953]], [[-84.25988687979938, 10.032399380993493], [-84.2582704, 10.0344323], [-84.25816883754028, 10.035004641013673], [-84.25988687979938, 10.032399380993493]], [[-84.2621971, 10.0320241], [-84.2609472, 10.0310659], [-84.26067226735131, 10.031411661083586], [-84.2621971, 10.0320241]], [[-84.2990848, 10.0152395], [-84.29938943198903, 10.014963527540631], [-84.296188, 10.014521], [-84.2990848, 10.0152395]], [[-84.29767397969144, 10.020128336870718], [-84.2990875, 10.0180354], [-84.2990848, 10.0152395], [-84.29767397969144, 10.020128336870718]], [[-84.2301305, 10.1646435], [-84.23019872776679, 10.165116313218585], [-84.2365169, 10.1596844], [-84.2301305, 10.1646435]], [[-84.2304844, 10.167096], [-84.230776042554, 10.167152037751672], [-84.23034070421919, 10.166100199201965], [-84.2304844, 10.167096]], [[-84.2324151, 10.1711175], [-84.23616320263608, 10.173708488026652], [-84.2354305, 10.1724761], [-84.2324151, 10.1711175]], [[-84.23710887712103, 10.175299089527194], [-84.238062, 10.1815997], [-84.2375948, 10.1761164], [-84.23710887712103, 10.175299089527194]], [[-84.29565622495616, 10.023115936876124], [-84.29454713595099, 10.024645417295794], [-84.2947012, 10.02453], [-84.29565622495616, 10.023115936876124]], [[-84.2900967, 10.0271637], [-84.28963566595918, 10.02832485184559], [-84.29314917887189, 10.025692698778643], [-84.2900967, 10.0271637]], [[-84.28634945192283, 10.035894041141075], [-84.2809128, 10.0399682], [-84.2861056, 10.0365241], [-84.28634945192283, 10.035894041141075]], [[-84.2717075, 10.0818855], [-84.27345898517903, 10.084454408335601], [-84.2737352, 10.0836153], [-84.2717075, 10.0818855]], [[-84.2720139, 10.0865625], [-84.2705702, 10.0932302], [-84.27312937825573, 10.085455715636332], [-84.2720139, 10.0865625]], [[-84.2500781, 10.1284869], [-84.24521262302669, 10.132942355323053], [-84.246838, 10.1325003], [-84.2500781, 10.1284869]], [[-84.1048408, 9.9569617], [-84.1070303, 9.9602131], [-84.10802125748437, 9.961072350661675], [-84.1048408, 9.9569617]], [[-84.0983817, 9.9569844], [-84.1036355513664, 9.95690668524986], [-84.09830570332868, 9.956663399134529], [-84.0983817, 9.9569844]], [[-84.0853057, 9.9440309], [-84.0881898283407, 9.945881809778218], [-84.0881733, 9.9457819], [-84.0853057, 9.9440309]], [[-84.078543, 9.9401909], [-84.0772166, 9.9511416], [-84.07900095528473, 9.941599100683595], [-84.078543, 9.9401909]], [[-84.0682802, 9.9526969], [-84.0663812, 9.9540865], [-84.0732784, 9.9522285], [-84.0682802, 9.9526969]], [[-84.0635774, 9.9557608], [-84.06361238916975, 9.955746766649025], [-84.057502, 9.9528312], [-84.0635774, 9.9557608]], [[-84.02456278355064, 9.966970816410644], [-84.02473052528299, 9.966921876683179], [-84.0198959, 9.966522], [-84.02456278355064, 9.966970816410644]], [[-84.0111966, 9.9703005], [-84.01156222136518, 9.97014169408133], [-83.9928236, 9.9671309], [-84.0111966, 9.9703005]], [[-83.88656166092385, 9.969984767140573], [-83.8870106, 9.9699127], [-83.8912264, 9.9678363], [-83.88656166092385, 9.969984767140573]], [[-83.8809537, 9.970885], [-83.88373442159553, 9.970438617261745], [-83.872336, 9.9696196], [-83.8809537, 9.970885]], [[-84.09033959778205, 9.900023345911144], [-84.0902675, 9.899922], [-84.0880617, 9.902467], [-84.09033959778205, 9.900023345911144]], [[-84.0867227, 9.9014693], [-84.08587243188856, 9.902273121236105], [-84.0880617, 9.902467], [-84.0867227, 9.9014693]], [[-84.08464823886258, 9.903430441307437], [-84.08447210057453, 9.903596957838554], [-84.084577, 9.9036761], [-84.08464823886258, 9.903430441307437]], [[-84.0830571, 9.9025294], [-84.08305779173055, 9.90398835853058], [-84.0832052, 9.9039728], [-84.0830571, 9.9025294]], [[-84.08301478595904, 9.903992897669486], [-84.0791719, 9.9028402], [-84.0806111, 9.9042466], [-84.08301478595904, 9.903992897669486]], [[-84.05779367313464, 9.90047942924734], [-84.0577775, 9.9003249], [-84.05500286121433, 9.902521309383589], [-84.05779367313464, 9.90047942924734]], [[-84.0547414423914, 9.902712574835013], [-84.0542461883478, 9.902432965578697], [-84.0547261, 9.9027238], [-84.0547414423914, 9.902712574835013]], [[-84.05080759353271, 9.900491612546933], [-84.0506223, 9.900387], [-84.0483907, 9.9016299], [-84.05080759353271, 9.900491612546933]], [[-84.04881453756758, 9.903038959323371], [-84.0490259, 9.9030927], [-84.0483907, 9.9016299], [-84.04881453756758, 9.903038959323371]], [[-84.04720674770698, 9.904197117336937], [-84.04750594730709, 9.90296544927021], [-84.0332578, 9.9002258], [-84.04720674770698, 9.904197117336937]], [[-84.0302564, 9.8962117], [-84.03016874471486, 9.89685502051109], [-84.0341763, 9.8939566], [-84.0302564, 9.8962117]], [[-84.0415904, 9.8970039], [-84.04137414484309, 9.896643975645349], [-84.0341763, 9.8939566], [-84.0415904, 9.8970039]], [[-84.02675081960255, 9.894125466617309], [-84.0260001, 9.8936787], [-84.0155626, 9.8992007], [-84.02675081960255, 9.894125466617309]], [[-84.0078963, 9.9380332], [-84.0051007, 9.9302299], [-84.0084963, 9.9397803], [-84.0078963, 9.9380332]], [[-83.9689493, 9.9434194], [-84.0056564, 9.9408107], [-84.0084963, 9.9397803], [-83.9689493, 9.9434194]], [[-83.95337430484476, 9.952651441144598], [-83.9514858691863, 9.953668607099406], [-83.9522544, 9.9537399], [-83.95337430484476, 9.952651441144598]], [[-83.90352121729131, 9.966019348703432], [-83.8991342, 9.968584], [-83.9034415, 9.9662838], [-83.90352121729131, 9.966019348703432]], [[-84.08701162870878, 9.772411047431001], [-84.0877587, 9.771655], [-84.08768706846308, 9.770626575791455], [-84.08701162870878, 9.772411047431001]], [[-84.08398486054062, 9.784915486400374], [-84.0849592, 9.7837144], [-84.08419914720584, 9.781146376856478], [-84.08398486054062, 9.784915486400374]], [[-83.99755345514629, 9.875995415931914], [-83.99845818527324, 9.876145941758802], [-83.9999103, 9.8727306], [-83.99755345514629, 9.875995415931914]], [[-83.99411645876177, 9.880244228097352], [-83.9945004, 9.8801407], [-83.994564610431, 9.880044256581877], [-83.99411645876177, 9.880244228097352]], [[-83.9757383, 9.8823689], [-83.9747791983446, 9.882910551560482], [-83.97620158403795, 9.882554242110801], [-83.9757383, 9.8823689]], [[-83.971878, 9.884549], [-83.9705189, 9.8894999], [-83.97327687100486, 9.883758989203516], [-83.971878, 9.884549]], [[-83.96296275940507, 9.896794127906876], [-83.9634808, 9.8949431], [-83.96335735729559, 9.894878868018733], [-83.96296275940507, 9.896794127906876]], [[-83.9599282, 9.8963277], [-83.9624163, 9.8987467], [-83.96263132965043, 9.897978370475906], [-83.9599282, 9.8963277]], [[-83.9482631, 9.9380732], [-83.94835348767937, 9.938226285113124], [-83.9510944, 9.9320006], [-83.9482631, 9.9380732]], [[-84.00485443220835, 9.877825565189914], [-84.0128562, 9.8823671], [-84.0070331, 9.8783056], [-84.00485443220835, 9.877825565189914]], [[-84.0638218, 9.9390986], [-84.069373, 9.9409995], [-84.06943211855797, 9.94091435329854], [-84.0638218, 9.9390986]], [[-84.06251220253691, 9.940419213773303], [-84.0625571, 9.9405543], [-84.0638218, 9.9390986], [-84.06251220253691, 9.940419213773303]], [[-84.06087453925085, 9.939322398404338], [-84.06075173944298, 9.940596490477928], [-84.06157971420713, 9.939916288885618], [-84.06087453925085, 9.939322398404338]], [[-84.0655604, 9.927373], [-84.06554210167327, 9.927374979005016], [-84.06555749947539, 9.927376327482415], [-84.0655604, 9.927373]], [[-84.05359833773586, 9.925982863755216], [-84.0541705, 9.9263791], [-84.0554433698683, 9.926490572808701], [-84.05359833773586, 9.925982863755216]], [[-84.0523009493082, 9.922515828206862], [-84.051542, 9.9245588], [-84.0521649027353, 9.924990175251692], [-84.0523009493082, 9.922515828206862]], [[-84.0523245, 9.9220875], [-84.05213989326964, 9.922181921058366], [-84.05232016064299, 9.922166422055417], [-84.0523245, 9.9220875]], [[-84.0505968, 9.9192433], [-84.04673724420512, 9.924930624305178], [-84.04682117739428, 9.924879254777975], [-84.0505968, 9.9192433]], [[-84.0511671, 9.9084998], [-84.04975229664467, 9.90696270192937], [-84.0525016, 9.9138696], [-84.0511671, 9.9084998]], [[-84.0400617, 9.9520488], [-84.04018181272147, 9.951914842182084], [-84.0371062, 9.9491216], [-84.0400617, 9.9520488]], [[-84.04306224948573, 9.949771168408057], [-84.04425056235067, 9.949971376031378], [-84.0434707, 9.9494493], [-84.04306224948573, 9.949771168408057]], [[-84.0464747, 9.9503461], [-84.0461729, 9.9477209], [-84.045854649375, 9.950241633520141], [-84.0464747, 9.9503461]], [[-84.0606552, 9.9406758], [-84.06074377148214, 9.940603036353332], [-84.0577735, 9.9397015], [-84.0606552, 9.9406758]], [[-84.09311143057693, 10.005908810592679], [-84.0925434637419, 10.006120613879032], [-84.0931109, 10.0059148], [-84.09311143057693, 10.005908810592679]], [[-84.075126941158, 10.012437732359052], [-84.0732611, 10.0042316], [-84.075126941158, 10.012437732359054], [-84.075126941158, 10.012437732359052]], [[-84.0759195, 9.9963121], [-84.07618657030622, 9.996241573190188], [-84.0483281, 10.0016209], [-84.0759195, 9.9963121]], [[-84.037489, 10.0120429], [-84.034299, 10.0117573], [-84.03330854463266, 10.012233169579588], [-84.037489, 10.0120429]], [[-84.02770851437066, 10.014923734075804], [-84.02681389987211, 10.015353556397287], [-84.0273537, 10.0157706], [-84.02770851437066, 10.014923734075804]], [[-84.0244048821977, 10.013492376012168], [-84.0243175, 10.0133549], [-84.02426387206175, 10.013383433142259], [-84.0244048821977, 10.013492376012168]], [[-84.0188491, 10.0181197], [-84.01657670877619, 10.019899125632202], [-84.017765, 10.0201837], [-84.0188491, 10.0181197]], [[-84.01619384268535, 10.020198933926029], [-84.01519877537318, 10.020978134383453], [-84.0163831, 10.020953], [-84.01619384268535, 10.020198933926029]], [[-84.01226255408501, 10.023277380819199], [-84.0105241, 10.0246387], [-84.01051289825085, 10.025068785126614], [-84.01226255408501, 10.023277380819199]], [[-84.029274, 9.9673738], [-84.02545266936413, 9.968367249255259], [-84.0254661, 9.9683937], [-84.029274, 9.9673738]], [[-84.1022728, 9.9741656], [-84.10074280261756, 9.974915284667828], [-84.10244698832238, 9.974297501761498], [-84.1022728, 9.9741656]], [[-84.1000948, 9.9752328], [-84.1004211, 9.9816467], [-84.10026505015637, 9.975149378986737], [-84.1000948, 9.9752328]], [[-84.09670375712423, 9.984632171537731], [-84.0988074, 9.9840453], [-84.1004211, 9.9816467], [-84.09670375712423, 9.984632171537731]], [[-84.0920038, 9.9884068], [-84.0900711, 9.9924194], [-84.09449165061808, 9.98640875799564], [-84.0920038, 9.9884068]], [[-84.0832502, 9.9925624], [-84.08100867269157, 9.994914131003519], [-84.0900711, 9.9924194], [-84.0832502, 9.9925624]], [[-84.0275481, 9.9925658], [-84.02810486597059, 9.992386704286181], [-84.02750984101178, 9.992545360006101], [-84.0275481, 9.9925658]], [[-84.0541216, 9.9763763], [-84.05198, 9.9738947], [-84.05395506114465, 9.97637428037736], [-84.0541216, 9.9763763]], [[-84.05315678187473, 9.972285974404583], [-84.0529241, 9.9722568], [-84.05198, 9.9738947], [-84.05315678187473, 9.972285974404583]], [[-84.0828944, 9.9703508], [-84.0861262, 9.966529], [-84.0824806148533, 9.970194271287296], [-84.0828944, 9.9703508]], [[-84.0645783, 9.9697478], [-84.06837232707451, 9.967155644403663], [-84.0674861, 9.9669063], [-84.0645783, 9.9697478]], [[-84.0700202, 9.9686102], [-84.07533888655722, 9.969115720629901], [-84.06916254798624, 9.967377976995008], [-84.0700202, 9.9686102]], [[-84.0760236, 9.9691808], [-84.0764094, 9.9667261], [-84.07572039398248, 9.969151981438252], [-84.0760236, 9.9691808]], [[-84.0769168, 9.9681742], [-84.07824913568241, 9.967850885279892], [-84.0764094, 9.9667261], [-84.0769168, 9.9681742]], [[-84.079074, 9.9689056], [-84.08143525128074, 9.96979882593208], [-84.07911371749773, 9.968379476918598], [-84.079074, 9.9689056]], [[-84.07956022324844, 10.118392034705058], [-84.0796392, 10.1187042], [-84.0831142, 10.1208385], [-84.07956022324844, 10.118392034705058]], [[-84.04605054664225, 10.066784589476265], [-84.0461553, 10.0670274], [-84.0505739, 10.0675747], [-84.04605054664225, 10.066784589476265]], [[-84.0589998, 10.0235363], [-84.063662, 10.0224135], [-84.0568336, 10.0227613], [-84.0589998, 10.0235363]], [[-84.0722317, 10.0196402], [-84.07230268131097, 10.019413051948256], [-84.07155896026148, 10.019680778129189], [-84.0722317, 10.0196402]], [[-84.07248134335889, 10.018841313619602], [-84.07405936028105, 10.013791484804615], [-84.0726478, 10.0153117], [-84.07248134335889, 10.018841313619602]], [[-83.94338017223191, 10.18332385117357], [-83.9563138, 10.1776692], [-83.9482966, 10.1804543], [-83.94338017223191, 10.18332385117357]], [[-83.972771, 10.1688652], [-83.97354767475166, 10.167639766800445], [-83.97238825440591, 10.168982098438718], [-83.972771, 10.1688652]], [[-83.9750595, 10.1594446], [-83.97456124188959, 10.16604056608206], [-83.97643112678573, 10.156539604377047], [-83.9750595, 10.1594446]]]}}]}