{"type": "FeatureCollection", "features": [{"type": "Feature", "properties": {"slug": "sangmelima", "members": 1, "country": "Cameroon", "input_hash": "cd1927d3e77da8d2"}, "geometry": {"type": "Polygon", "coordinates": [[[11.7116535, 3.0692036], [11.7072809, 3.0802136], [11.6830294, 3.0839813], [11.6894197, 3.0712926], [11.6813094, 3.0618684], [11.6090851, 3.0477], [11.5922838, 3.0343499], [11.6175882, 3.0228109], [11.6365667, 3.002081], [11.6541762, 3.0059836], [11.6622708, 2.9993496], [11.6595185, 2.9685636], [11.8247836, 2.7208796], [11.9999527, 2.6557929], [12.0336014, 2.6534923], [12.0412549, 2.7488359], [12.0552785, 2.7961743], [12.1150414, 2.8886616], [12.1090667, 2.9048156], [12.1131348, 2.9249762], [12.1474023, 2.9672531], [12.1549056, 3.0020678], [12.119478, 3.0399374], [12.0273449, 3.1007215], [11.9307457, 3.148341], [11.9206708, 3.1432346], [11.8766456, 3.1763488], [11.8614664, 3.1494979], [11.861762, 3.1270244], [11.8477041, 3.1174997], [11.8374863, 3.1197967], [11.8332571, 3.0945854], [11.8124299, 3.0891445], [11.7887977, 3.10152], [11.7558852, 3.06646], [11.7116535, 3.0692036]]]}}]}