{"type": "FeatureCollection", "features": [{"type": "Feature", "properties": {"slug": "santa-ana-el-sal", "members": 1, "country": "El Salvador", "input_hash": "d01e929caa279356"}, "geometry": {"type": "Polygon", "coordinates": [[[-89.55141880599996, 14.116665179000051], [-89.56242416799995, 14.117072785000062], [-89.58138309699996, 14.080429293000066], [-89.61684458899998, 14.059005495000065], [-89.62180004699997, 14.046283938000045], [-89.61692213899994, 14.025378619000037], [-89.63225270699996, 14.005170144000033], [-89.63225270699996, 13.989142732000062], [-89.607166324, 13.970327945000065], [-89.60786316799994, 13.958481598000049], [-89.65048326599998, 13.920333693000032], [-89.63504008299998, 13.861620285000072], [-89.63645969999999, 13.842852900000025], [-89.65277709999998, 13.821928200000059], [-89.64734419999996, 13.818248100000062], [-89.63705129999994, 13.822712900000056], [-89.61391329999998, 13.811594200000059], [-89.59917359999997, 13.814203100000043], [-89.59653789999999, 13.829843200000028], [-89.57091232299996, 13.834340148000024], [-89.566052529, 13.84001812200006], [-89.57371781299997, 13.870679257000063], [-89.55838724599994, 13.895068796000032], [-89.53817876999994, 13.895068796000032], [-89.54514720999998, 13.918064647000051], [-89.53608823899998, 13.929214151000053], [-89.53957245799995, 13.945938406000039], [-89.52493873499998, 13.946635250000043], [-89.51100185599995, 13.976599541000041], [-89.49149022399996, 13.994717484000034], [-89.46082908999995, 13.994717484000034], [-89.45386064999997, 14.000989080000068], [-89.43086479899995, 13.98705220000005], [-89.39902087299998, 13.984431167000025], [-89.38393598299996, 14.021946741000022], [-89.42877426699994, 14.035831278000046], [-89.43225149999995, 14.070636400000069], [-89.44201430199996, 14.072067165000021], [-89.44967958599995, 14.06300819300003], [-89.47825018899994, 14.069279789000063], [-89.51518291899998, 14.053252378000025], [-89.53539139499998, 14.059523973000069], [-89.53469455099997, 14.072764009000025], [-89.55002511799995, 14.071370321000074], [-89.55141880599996, 14.090185108000071], [-89.53190717499996, 14.097850392000055], [-89.54863142999994, 14.104818832000035], [-89.55141880599996, 14.116665179000051]]]}}]}