{"type": "FeatureCollection", "features": [{"type": "Feature", "properties": {"slug": "santiago-de-los-caballeros", "members": 9, "country": "Dominican Republic", "input_hash": "e7fc76e1abacca80"}, "geometry": {"type": "MultiPolygon", "coordinates": [[[[-70.9419959, 19.0964043], [-70.9536682, 19.0871842], [-70.9483489, 19.0741804], [-70.9601962, 19.0447119], [-70.9983438, 19.0216518], [-71.0057771, 19.0307807], [-71.0466804, 19.022087], [-71.0570172, 19.0467972], [-71.0878096, 19.0604659], [-71.099522, 19.0562908], [-71.1207857, 19.0696508], [-71.1335242, 19.0833712], [-71.1323493, 19.1171895], [-71.1492638, 19.1252619], [-71.1574768, 19.1405278], [-71.1883062, 19.1524856], [-71.1885125, 19.1645639], [-71.2034062, 19.1777263], [-71.2170493, 19.177991], [-71.2298163, 19.2121788], [-71.2269405, 19.2309437], [-71.23745, 19.2353648], [-71.2379261, 19.2443594], [-71.2496293, 19.2453093], [-71.2580256, 19.2606619], [-71.2440808, 19.2665305], [-71.2498266, 19.279213], [-71.2413555, 19.3080003], [-71.2526337, 19.3284412], [-71.2387679, 19.3435767], [-71.2357086, 19.3370662], [-71.2230232, 19.3404512], [-71.2286085, 19.3608248], [-71.2214825, 19.3615276], [-71.2182851, 19.374056], [-71.1777957, 19.3882401], [-71.1719453, 19.3749522], [-71.1516462, 19.3737453], [-71.1501726, 19.3861277], [-71.1417699, 19.386637], [-71.1447546, 19.3943873], [-71.1213942, 19.3952033], [-71.1106227, 19.4129685], [-71.0723986, 19.4224415], [-71.0900884, 19.4282953], [-71.0856952, 19.4401081], [-71.0909736, 19.4508931], [-71.0967885, 19.4482201], [-71.0782341, 19.4642543], [-71.0831664, 19.4726995], [-71.038784, 19.4436629], [-71.0085207, 19.4566805], [-70.9926115, 19.4336323], [-70.9752296, 19.4569781], [-70.967137, 19.4472712], [-70.9532869, 19.4509087], [-70.9628715, 19.4514349], [-70.9631095, 19.4586505], [-70.9481639, 19.458041], [-70.9105837, 19.4396794], [-70.9020225, 19.4555842], [-70.8859556, 19.4490631], [-70.8881487, 19.4673322], [-70.8761519, 19.4659561], [-70.8124853, 19.4289783], [-70.8004512, 19.4025934], [-70.7804842, 19.4074078], [-70.7704359, 19.400288], [-70.7597209, 19.3792958], [-70.7199286, 19.4001506], [-70.6983831, 19.3942441], [-70.68241, 19.4015529], [-70.6743777, 19.3891009], [-70.6787216, 19.4275612], [-70.6561831, 19.4265178], [-70.6474981, 19.4490313], [-70.6271904, 19.4410448], [-70.61915784239474, 19.464375167448896], [-70.6511195, 19.4621292], [-70.643384, 19.4757872], [-70.644161, 19.5006997], [-70.6174217, 19.5262738], [-70.61720328707527, 19.5453285800009], [-70.6267814, 19.5506731], [-70.6346758, 19.5719795], [-70.6309277, 19.6083107], [-70.646468, 19.6210719], [-70.6823663, 19.6280896], [-70.6883643, 19.6465604], [-70.7061258, 19.6494106], [-70.7364627, 19.6938499], [-70.7757762, 19.720889], [-70.7608105, 19.7413488], [-70.764438, 19.7630886], [-70.7883642, 19.7607079], [-70.8011177, 19.7755213], [-70.8108933, 19.7683246], [-70.8304484, 19.7715898], [-70.8347046, 19.7808313], [-70.8598214, 19.788832], [-70.8435077, 19.8213925], [-70.8835771, 19.8226511], [-70.872602, 19.8526449], [-70.8556857, 19.8679376], [-70.875275, 19.8872629], [-70.8891205, 19.8888762], [-70.8755587, 19.9047178], [-70.8627377, 19.9013109], [-70.8489123, 19.9081252], [-70.8390471, 19.905399], [-70.8351338, 19.8894014], [-70.804739, 19.8756055], [-70.7996776, 19.8681565], [-70.8051808, 19.8645209], [-70.7969821, 19.8656718], [-70.8011936, 19.8604609], [-70.7780145, 19.8422007], [-70.7830691, 19.8307848], [-70.7454075, 19.8377004], [-70.702403, 19.8069268], [-70.7046134, 19.7999623], [-70.6958844, 19.8054197], [-70.6380799, 19.771849], [-70.6310882, 19.7638721], [-70.6447801, 19.7548598], [-70.6491399, 19.7334998], [-70.6218653, 19.7158151], [-70.62559, 19.7051157], [-70.621755, 19.6967979], [-70.6241347, 19.7066785], [-70.6140078, 19.7152144], [-70.6000617, 19.7022118], [-70.6075425, 19.692095], [-70.5982344, 19.6737378], [-70.5881476, 19.6710259], [-70.599477, 19.6559979], [-70.5392728, 19.6346484], [-70.5073285, 19.5940603], [-70.5366086, 19.5625081], [-70.5359717, 19.512403], [-70.5667719, 19.530908], [-70.5455854, 19.5170914], [-70.5508077, 19.4937662], [-70.5826132, 19.4841345], [-70.5788705, 19.4563502], [-70.5959984, 19.4329637], [-70.5869918, 19.3918914], [-70.5794239, 19.3863588], [-70.6027628, 19.3894944], [-70.6127512, 19.3752447], [-70.6604115, 19.3653511], [-70.6653216, 19.3502568], [-70.6824068, 19.3463465], [-70.6939884, 19.378644], [-70.71486003194366, 19.377596483023158], [-70.7232375, 19.3501837], [-70.7116894, 19.3494987], [-70.7186784, 19.333043], [-70.7068754, 19.3314983], [-70.7198248, 19.3048667], [-70.7145858, 19.291143], [-70.72444310356084, 19.28539458971144], [-70.6795267, 19.2649818], [-70.6856821, 19.2551613], [-70.6768067, 19.2450001], [-70.6839192, 19.2384898], [-70.6761567, 19.2376295], [-70.684527, 19.2217944], [-70.676886, 19.221756], [-70.6826424, 19.2076386], [-70.6714911, 19.2016356], [-70.6746555, 19.190972], [-70.6919268, 19.179373], [-70.7296146, 19.2086343], [-70.7342682, 19.2012136], [-70.7274996, 19.1944557], [-70.7374265, 19.1719654], [-70.7321881, 19.1650387], [-70.7656886, 19.1553236], [-70.7814093, 19.1383885], [-70.8080573, 19.1400053], [-70.8478011, 19.0958785], [-70.8780514, 19.0982442], [-70.8907094, 19.0899098], [-70.9419959, 19.0964043]], [[-70.5972779, 19.4480777], [-70.596788, 19.4521233], [-70.59682143018638, 19.452133777340364], [-70.5972779, 19.4480777]], [[-70.76603503661815, 19.348680087265407], [-70.7706085, 19.351998], [-70.7764387, 19.353978], [-70.76603503661815, 19.348680087265407]], [[-70.7657923, 19.3469114], [-70.76602086372287, 19.348576817228963], [-70.7669036, 19.3448626], [-70.7657923, 19.3469114]], [[-70.77129611964848, 19.327819685288638], [-70.7684268, 19.3308234], [-70.7713515, 19.3279636], [-70.77129611964848, 19.327819685288638]], [[-70.7671287, 19.3196921], [-70.77124700325112, 19.327692048465142], [-70.76710507614901, 19.316928587649887], [-70.7671287, 19.3196921]], [[-70.7625473, 19.3151758], [-70.76704908846011, 19.31678309467504], [-70.7670078, 19.3166758], [-70.7625473, 19.3151758]], [[-70.7528132, 19.313719], [-70.75437770118424, 19.312362693728094], [-70.75252292999004, 19.31281153585959], [-70.7528132, 19.313719]], [[-70.7488635, 19.3094685], [-70.7518629, 19.3107481], [-70.74904701118608, 19.308789181757756], [-70.7488635, 19.3094685]], [[-70.7497169, 19.3063094], [-70.74942776770982, 19.307379704450295], [-70.7532129, 19.3037508], [-70.7497169, 19.3063094]], [[-70.7530198, 19.3013067], [-70.75265314634794, 19.300830258495708], [-70.7532129, 19.3037508], [-70.7530198, 19.3013067]], [[-70.74442208193281, 19.29344175418609], [-70.7478958604144, 19.294648488714433], [-70.746963, 19.2934363], [-70.74442208193281, 19.29344175418609]], [[-70.7293104, 19.2881922], [-70.74003759411758, 19.291918653947043], [-70.72602402117846, 19.28630326487592], [-70.7293104, 19.2881922]], [[-70.8790806, 19.1423086], [-70.87746767372883, 19.131270219543666], [-70.8772491, 19.1316072], [-70.8790806, 19.1423086]], [[-70.71975109105308, 19.38702086974785], [-70.7197244, 19.3867961], [-70.71908072821492, 19.38572917433152], [-70.71975109105308, 19.38702086974785]], [[-70.72008572442415, 19.39080798315601], [-70.720195, 19.3907591], [-70.72006009397013, 19.389623034134356], [-70.72008572442415, 19.39080798315601]], [[-70.62753982949528, 19.40898774425852], [-70.6275815, 19.4097885], [-70.62913362516403, 19.409676163270653], [-70.62753982949528, 19.40898774425852]], [[-70.6342671, 19.4118935], [-70.6329741515109, 19.411335027958028], [-70.63564218382857, 19.41378508770641], [-70.6342671, 19.4118935]], [[-70.6349382, 19.4160576], [-70.6356869, 19.4138466], [-70.6356773100302, 19.413833407881388], [-70.6349382, 19.4160576]], [[-70.63799271705099, 19.418512267113], [-70.6378968, 19.4192935], [-70.6435828, 19.422875], [-70.63799271705099, 19.418512267113]]], [[[-70.8163542, 19.6300644], [-70.8157331, 19.6363834], [-70.7869185, 19.6225831], [-70.7731646, 19.6004284], [-70.7557145, 19.5972297], [-70.7355837, 19.5658053], [-70.733688, 19.5300677], [-70.7555949, 19.5348662], [-70.7682672, 19.5236105], [-70.7550082, 19.5023816], [-70.7694648, 19.503848], [-70.768004, 19.4975208], [-70.7784915, 19.4925774], [-70.7880254, 19.5070541], [-70.7967629, 19.5064481], [-70.796854, 19.5152276], [-70.8034373, 19.509638], [-70.8107938, 19.5176365], [-70.82274, 19.5136935], [-70.8203272, 19.5296287], [-70.8237136, 19.5130972], [-70.8375027, 19.5270836], [-70.8462347, 19.5225604], [-70.8653551, 19.5308529], [-70.8678261, 19.5390496], [-70.8946261, 19.5399528], [-70.9084252, 19.5510048], [-70.9113678, 19.5433355], [-70.9163978, 19.5539324], [-70.9253734, 19.5488909], [-70.9373456, 19.5561471], [-70.9232, 19.5748341], [-70.9307119, 19.5768838], [-70.9297752, 19.5919953], [-70.8931504, 19.5634147], [-70.8811208, 19.5957323], [-70.8845358, 19.6204899], [-70.8744793, 19.6282941], [-70.8757762, 19.6416615], [-70.8863914, 19.64525], [-70.88005, 19.6523083], [-70.8163542, 19.6300644]], [[-70.8207832, 19.5438042], [-70.82029476038808, 19.536754720900124], [-70.8202071, 19.5370298], [-70.8207832, 19.5438042]], [[-70.8302864, 19.5875603], [-70.83020803499129, 19.587263989848108], [-70.8281134, 19.5947234], [-70.8302864, 19.5875603]]], [[[-70.7410822, 19.8354941], [-70.7408692, 19.8365079], [-70.7394156, 19.8355329], [-70.7410822, 19.8354941]]]]}}]}