{"type": "FeatureCollection", "features": [{"type": "Feature", "properties": {"slug": "santo-domingo-de-los-tsachilas", "members": 1, "country": "Ecuador", "input_hash": "68008330e28d3933"}, "geometry": {"type": "Polygon", "coordinates": [[[-79.0975929, -0.5501396], [-79.0283651, -0.4813672], [-79.0113611, -0.4181562], [-78.9681883, -0.4062261], [-78.9620514, -0.3704355], [-78.9340277, -0.3639983], [-78.9348809, -0.3468707], [-78.952246, -0.3142469], [-78.9300639, -0.3135259], [-78.8989945, -0.3358482], [-78.8673627, -0.3317498], [-78.8563603, -0.3494199], [-78.8326342, -0.3421384], [-78.82267, -0.3463147], [-78.7746957, -0.2991044], [-78.7727223, -0.2795683], [-78.7460946, -0.2772193], [-78.7575738, -0.2381559], [-78.7783974, -0.2248063], [-78.7839479, -0.2118839], [-78.7951703, -0.2136983], [-78.8344197, -0.1859805], [-78.8297475, -0.1785342], [-78.8428688, -0.1666955], [-78.833247, -0.1598715], [-78.8393658, -0.1317812], [-78.8556959, -0.1350602], [-78.8679583, -0.1185307], [-78.8916563, -0.1068567], [-78.9099919, -0.1081013], [-78.9286869, -0.1211207], [-78.9652561, -0.1007038], [-79.0241843, -0.1173441], [-79.0451269, -0.1015406], [-79.0945922, -0.0913697], [-79.1017845, -0.0828068], [-79.1169029, -0.091595], [-79.1231605, -0.0850863], [-79.1360431, -0.0936227], [-79.1489557, -0.0916282], [-79.1276702, -0.0497134], [-79.1041312, -0.0284354], [-79.1423441, -0.0137194], [-79.1837401, -0.0142746], [-79.197988, 0.000338], [-79.284988, 0.0182552], [-79.2957963, 0.0169285], [-79.304329, -0.001165], [-79.3115381, 0.0020629], [-79.3061044, -0.0116019], [-79.3301255, -0.0198331], [-79.3309807, -0.0377572], [-79.3169003, -0.0445479], [-79.341437, -0.0831403], [-79.3623125, -0.0876436], [-79.3458945, -0.0975996], [-79.3494469, -0.1108234], [-79.4137645, -0.1004526], [-79.4195572, -0.1075645], [-79.4338548, -0.1015026], [-79.4327, -0.1137792], [-79.4622381, -0.1142843], [-79.4709303, -0.107226], [-79.4775849, -0.1121752], [-79.4874458, -0.0962111], [-79.5262528, -0.0908946], [-79.5279465, -0.1007466], [-79.5483732, -0.1003306], [-79.5406723, -0.1317536], [-79.5267553, -0.1376136], [-79.519449, -0.1639208], [-79.4739972, -0.1754341], [-79.4620747, -0.171709], [-79.4495495, -0.180113], [-79.4296667, -0.1755841], [-79.4116373, -0.1866629], [-79.4191361, -0.1955434], [-79.4098664, -0.2091904], [-79.4133623, -0.2283639], [-79.4069153, -0.2424258], [-79.4105907, -0.4103318], [-79.4290319, -0.4385253], [-79.4575555, -0.4561656], [-79.4564755, -0.4675473], [-79.4643402, -0.4722551], [-79.4495161, -0.4800718], [-79.4612558, -0.4968212], [-79.4667729, -0.530684], [-79.4842513, -0.5436837], [-79.4620477, -0.5481474], [-79.4575453, -0.5643276], [-79.4505843, -0.5488954], [-79.4166843, -0.5388853], [-79.4169469, -0.5454559], [-79.3696357, -0.538915], [-79.3459775, -0.5444733], [-79.3454758, -0.5561946], [-79.3551627, -0.5584449], [-79.3496029, -0.5714259], [-79.3667914, -0.5792367], [-79.356506, -0.588839], [-79.3479843, -0.6342267], [-79.3601907, -0.6393699], [-79.3621256, -0.6551519], [-79.3696357, -0.6524779], [-79.3491047, -0.6896479], [-79.285809, -0.6965673], [-79.2627345, -0.661424], [-79.201805, -0.62861], [-79.1960769, -0.6076086], [-79.1599207, -0.58601], [-79.1366853, -0.5493823], [-79.1198712, -0.5412458], [-79.0975929, -0.5501396]]]}}]}