{"type":"FeatureCollection","features":[{"type":"Feature","properties":{"slug":"sao-luis","member_count":13,"matched_count":13,"unmatched":[],"source":"Overture Maps division_area (CC-BY 4.0)"},"geometry":{"type":"MultiPolygon","coordinates":[[[[-44.1178235,-3.2290951],[-44.1028597,-3.243549],[-44.1025452,-3.2534794],[-44.1699157,-3.2671957],[-44.2090868,-3.2532436],[-44.2444282,-3.3079528],[-44.2620487,-3.2895817],[-44.2930537,-3.287618],[-44.2963316,-3.2680265],[-44.3331824,-3.2644087],[-44.3369626,-3.2545883],[-44.3559468,-3.2507163],[-44.3556964,-3.236452],[-44.3646692,-3.238788],[-44.3703772,-3.2222598],[-44.3846995,-3.2228584],[-44.4006799,-3.2067935],[-44.4109227,-3.2132028],[-44.4223866,-3.2044825],[-44.4364118,-3.2171561],[-44.4442177,-3.2081459],[-44.4390976,-3.1964688],[-44.4669283,-3.1930887],[-44.4710499,-3.1770579],[-44.5493801,-3.0862753],[-44.5412143,-3.0642117],[-44.5774513,-3.0481368],[-44.532422,-3.0440453],[-44.495506,-3.0260144],[-44.4542579,-2.9883589],[-44.4251931,-2.9443544],[-44.4064665,-2.8826349],[-44.4110534,-2.8004242],[-44.403057,-2.7695457],[-44.38627,-2.7486589],[-44.3917063,-2.7205383],[-44.3804292,-2.668178],[-44.3681729,-2.654061],[-44.3540919,-2.6031972],[-44.3779965,-2.5668188],[-44.3579431,-2.5542692],[-44.3489264,-2.526942],[-44.3058785,-2.5259251],[-44.3115511,-2.5052526],[-44.3227324,-2.5013083],[-44.3003155,-2.486215],[-44.2259255,-2.4769518],[-44.1744079,-2.4583778],[-44.1519536,-2.4343493],[-44.0946029,-2.4066045],[-44.0308375,-2.4070153],[-44.0238281,-2.4487252],[-44.0457712,-2.4535207],[-44.0526525,-2.4688077],[-44.0238605,-2.5082929],[-44.0360635,-2.5565441],[-44.0490314,-2.5546337],[-44.0537689,-2.5647388],[-44.0814512,-2.5625512],[-44.0928115,-2.574744],[-44.0924092,-2.5888714],[-44.1056653,-2.6033728],[-44.1056932,-2.6292448],[-44.1317911,-2.6563219],[-44.1375868,-2.681636],[-44.1533272,-2.684828],[-44.1647833,-2.6995888],[-44.1946156,-2.7051436],[-44.2222595,-2.726325],[-44.2495717,-2.7303218],[-44.2660385,-2.757982],[-44.2609835,-2.7748003],[-44.2459537,-2.7806579],[-44.1853624,-2.7642991],[-44.136183,-2.7664187],[-44.1155651,-2.7484948],[-44.0949143,-2.7532505],[-44.0788214,-2.7438092],[-44.0225752,-2.6526069],[-44.003944,-2.6381525],[-43.9565437,-2.621532],[-43.9312195,-2.5616223],[-43.9158944,-2.554427],[-43.89368,-2.5564613],[-43.8911662,-2.5354441],[-43.8763226,-2.5183053],[-43.8501502,-2.510037],[-43.8421589,-2.4486542],[-43.8314935,-2.4401569],[-43.8394783,-2.4185865],[-43.7997169,-2.3903178],[-43.791631,-2.394262],[-43.8084173,-2.4383975],[-43.7983976,-2.4395976],[-43.7619386,-2.4187407],[-43.7412236,-2.4351198],[-43.760094,-2.4658732],[-43.776929,-2.4747579],[-43.7678236,-2.4939081],[-43.7466075,-2.4935863],[-43.7228824,-2.4746882],[-43.7096595,-2.4873877],[-43.6954534,-2.4843487],[-43.7032525,-2.5073726],[-43.6969864,-2.5157322],[-43.7127758,-2.5249263],[-43.7049302,-2.5284707],[-43.708132,-2.5388042],[-43.7001293,-2.5512758],[-43.7062885,-2.5656709],[-43.6879327,-2.5687985],[-43.683,-2.584],[-43.692,-2.605],[-43.745,-2.637],[-43.598,-2.963],[-43.542,-3.129],[-43.7841373,-3.2925677],[-43.7992414,-3.2926052],[-43.8003928,-3.2836763],[-43.7895513,-3.2584618],[-43.7746328,-3.2481894],[-43.783924,-3.2139439],[-43.759,-3.182],[-44.0296921,-3.2904887],[-44.047,-3.29],[-44.064,-3.187],[-44.1178235,-3.2290951]]],[[[-44.3664745,-2.5431862],[-44.3638234,-2.5441743],[-44.3647991,-2.5452848],[-44.3664745,-2.5431862]]],[[[-44.3655205,-2.5400154],[-44.365702,-2.5385884],[-44.3651216,-2.5397546],[-44.3655205,-2.5400154]]],[[[-44.3626077,-2.5275607],[-44.3725878,-2.5216259],[-44.3644957,-2.5190032],[-44.3626077,-2.5275607]]],[[[-44.3598442,-2.5228764],[-44.359532,-2.5236508],[-44.3602856,-2.5232959],[-44.3598442,-2.5228764]]],[[[-44.4209563,-2.4265503],[-44.4265709,-2.4245744],[-44.4255158,-2.4148951],[-44.4199875,-2.4165949],[-44.4209563,-2.4265503]]],[[[-44.4907579,-2.147639],[-44.472586,-2.1520603],[-44.4637777,-2.1442979],[-44.4479556,-2.155341],[-44.3984631,-2.2143858],[-44.4042856,-2.2187585],[-44.3957733,-2.2231078],[-44.3844785,-2.2676585],[-44.3911636,-2.2757346],[-44.3770483,-2.2814934],[-44.357905,-2.336858],[-44.380139,-2.3572919],[-44.3751274,-2.3900723],[-44.3866317,-2.4078215],[-44.4042639,-2.4170329],[-44.4117684,-2.4166087],[-44.4074505,-2.4091128],[-44.4132857,-2.4140803],[-44.437596,-2.4087531],[-44.4406526,-2.4157336],[-44.4786221,-2.4114913],[-44.4958815,-2.4227414],[-44.4967796,-2.4352605],[-44.4726618,-2.4280629],[-44.4490308,-2.4393753],[-44.4429414,-2.4575159],[-44.4603721,-2.4807485],[-44.4648668,-2.4762688],[-44.4759972,-2.4850476],[-44.4902258,-2.5217285],[-44.5121871,-2.5351872],[-44.5235465,-2.5256634],[-44.5345819,-2.527683],[-44.5553007,-2.5964537],[-44.585,-2.578],[-44.611,-2.582],[-44.625,-2.597],[-44.651,-2.606],[-44.651,-2.623],[-44.662,-2.62],[-44.673,-2.628],[-44.679,-2.62],[-44.706,-2.638],[-44.7106283,-2.6273202],[-44.6845494,-2.5462658],[-44.6956161,-2.5146938],[-44.7191767,-2.5085885],[-44.7205302,-2.4897651],[-44.701,-2.46],[-44.659,-2.436],[-44.667,-2.421],[-44.647,-2.377],[-44.667,-2.34],[-44.665,-2.324],[-44.6444111,-2.2962791],[-44.627593,-2.2908973],[-44.6232252,-2.2673457],[-44.5896271,-2.2431365],[-44.5882142,-2.2286082],[-44.5429628,-2.1955583],[-44.5301359,-2.1598641],[-44.4907579,-2.147639]]],[[[-44.451,-2.134],[-44.458,-2.134],[-44.449,-2.131],[-44.451,-2.134]]],[[[-44.463,-2.101],[-44.467,-2.121],[-44.473,-2.125],[-44.472,-2.118],[-44.486,-2.112],[-44.474,-2.111],[-44.48,-2.106],[-44.476,-2.096],[-44.463,-2.101]]],[[[-43.8537434,-2.4693306],[-43.852937,-2.4722209],[-43.8538105,-2.4731962],[-43.8537434,-2.4693306]]],[[[-43.8519389,-2.4663824],[-43.8508691,-2.4635873],[-43.8517001,-2.4682037],[-43.8519389,-2.4663824]]],[[[-43.8552852,-2.4498894],[-43.856499,-2.4485287],[-43.8546612,-2.448375],[-43.8552852,-2.4498894]]],[[[-43.8460296,-2.4275241],[-43.858031,-2.4442097],[-43.8702753,-2.4455008],[-43.8505359,-2.4268712],[-43.8527624,-2.4204432],[-43.8460296,-2.4275241]]],[[[-44.016,-2.407],[-44.0,-2.39],[-43.997,-2.4],[-44.016,-2.407]]],[[[-43.7699048,-2.3984066],[-43.788745,-2.4144454],[-43.7805559,-2.3933286],[-43.7876098,-2.3783268],[-43.7628019,-2.3700296],[-43.7537358,-2.3781748],[-43.7620373,-2.3779989],[-43.7699048,-2.3984066]]]]}}]}