{"type":"FeatureCollection","features":[{"type":"Feature","properties":{"slug":"saratov","member_count":3,"matched_count":1,"unmatched":["Engelssky Raion (RU-SAR, type='District')","Saratovsky Raion (RU-SAR, type='District')"],"source":"Overture Maps division_area (CC-BY 4.0)"},"geometry":{"type":"Polygon","coordinates":[[[45.982667,51.4063457],[45.981335,51.4489708],[46.0223296,51.4997729],[46.0775131,51.5148353],[46.1220593,51.5126988],[46.1877416,51.5341573],[46.2316378,51.6077221],[46.2377196,51.6338183],[46.2798329,51.6700171],[46.2857901,51.7357054],[46.2985258,51.7602713],[46.273902,51.7688888],[46.2743843,51.783839],[46.2481002,51.7796414],[46.2568746,51.7920014],[46.2503517,51.8029508],[46.2569798,51.8111092],[46.2291737,51.8198949],[46.2288066,51.8263235],[46.2040373,51.8150718],[46.2070733,51.8247358],[46.2006232,51.8267396],[46.1933032,51.8204625],[46.1467424,51.8202374],[46.1386413,51.824778],[46.1432001,51.8294978],[46.1156287,51.8447829],[46.0961475,51.847883],[46.106142,51.8682855],[46.0316916,51.897343],[45.9898516,51.8647267],[45.9984147,51.8598943],[45.9951382,51.8539703],[45.9618605,51.8682643],[45.9428112,51.8411389],[45.9518815,51.8356958],[45.9455011,51.7916029],[45.9612222,51.7760487],[45.9435193,51.753135],[45.9508305,51.7510615],[45.9333645,51.7171062],[45.9127469,51.7170219],[45.9129666,51.735427],[45.8697402,51.7467918],[45.8776688,51.7197644],[45.81311,51.7254933],[45.816959,51.7120331],[45.856324,51.7141834],[45.8595215,51.6847855],[45.893139,51.6815494],[45.893172,51.6754819],[45.866745,51.6622714],[45.7911418,51.6554898],[45.6994423,51.6613416],[45.6788124,51.6754506],[45.6191691,51.6677003],[45.6163242,51.6451491],[45.606749,51.63515],[45.592563,51.627137],[45.5767272,51.6369748],[45.5641433,51.6166926],[45.5447005,51.621914],[45.5349447,51.6078878],[45.5591152,51.587838],[45.5433366,51.5558686],[45.5529923,51.5442749],[45.5508632,51.5218952],[45.5116462,51.509821],[45.4513139,51.5216204],[45.413394,51.5041639],[45.3987363,51.5070858],[45.3893339,51.4901135],[45.3732954,51.4855873],[45.3790502,51.4795556],[45.3580861,51.4866235],[45.3191136,51.4821866],[45.3099271,51.4520815],[45.3701108,51.4395846],[45.4091662,51.4426097],[45.4172981,51.4097366],[45.4368754,51.407417],[45.4247232,51.3966183],[45.4378622,51.3881749],[45.4219059,51.3872829],[45.4294475,51.376856],[45.4274997,51.3567287],[45.3888049,51.352712],[45.3915145,51.3459939],[45.3755243,51.3400048],[45.3870642,51.3168135],[45.344004,51.3289189],[45.3417435,51.3061362],[45.3888224,51.2740837],[45.3192472,51.2412321],[45.3631711,51.2273935],[45.3673124,51.2185643],[45.4077587,51.2358292],[45.4525308,51.1934789],[45.4767501,51.1984923],[45.4922175,51.1934649],[45.5015516,51.2014788],[45.4886829,51.2083117],[45.4950416,51.2086092],[45.5000495,51.2247734],[45.5374456,51.2278115],[45.6012685,51.2118593],[45.6283832,51.1949276],[45.673695,51.1897874],[45.7365363,51.2097871],[45.8391783,51.2103874],[45.8721042,51.3226872],[45.9141451,51.3458901],[45.982667,51.4063457]]]}}]}