{"type": "FeatureCollection", "features": [{"type": "Feature", "properties": {"slug": "sarapul", "members": 1, "country": "Russia", "input_hash": "87c0e20b703c7da2"}, "geometry": {"type": "Polygon", "coordinates": [[[53.7125155, 56.4824698], [53.6858003, 56.4925059], [53.6858057, 56.4787451], [53.7046768, 56.4609008], [53.6810311, 56.4591823], [53.6590925, 56.4338708], [53.6602275, 56.425678], [53.7763096, 56.4277844], [53.7951613, 56.4388959], [53.8196223, 56.432589], [53.8178534, 56.4401081], [53.8619923, 56.4274878], [53.8322455, 56.4774751], [53.8750775, 56.4816399], [53.8760888, 56.4952766], [53.8644213, 56.4954351], [53.8648778, 56.5053979], [53.8421542, 56.5059039], [53.8440208, 56.526752], [53.8132557, 56.5352811], [53.8134114, 56.5194202], [53.766518, 56.5073126], [53.756929, 56.484612], [53.7413581, 56.4912969], [53.7430538, 56.4973425], [53.7284237, 56.4891137], [53.7008609, 56.4918687], [53.7449682, 56.4680118], [53.7479338, 56.4590845], [53.7323271, 56.4612855], [53.7295484, 56.4664786], [53.7377048, 56.470111], [53.7296937, 56.4750813], [53.7100295, 56.4717078], [53.6998454, 56.4788839], [53.7125155, 56.4824698]]]}}]}