{"type":"FeatureCollection","features":[{"type":"Feature","properties":{"slug":"savannah","member_count":7,"matched_count":7,"unmatched":[],"source":"Overture Maps division_area (CC-BY 4.0)"},"geometry":{"type":"Polygon","coordinates":[[[-81.663913,31.538451],[-81.6642945,31.5296154],[-81.652252,31.528551],[-81.657051,31.507894],[-81.612028,31.468909],[-81.6648314,31.3997739],[-81.6920496,31.4004873],[-81.704778,31.374917],[-81.6988592,31.3627524],[-81.7250302,31.3271157],[-81.801163,31.363232],[-81.923042,31.345177],[-82.032097,31.366198],[-82.0575549,31.4089948],[-82.0526949,31.4546154],[-82.0583026,31.4612645],[-82.0959765,31.4810639],[-82.1325705,31.471439],[-82.1328341,31.5573422],[-82.1477985,31.5573575],[-82.1478874,31.5690919],[-82.1329714,31.569169],[-82.1328832,31.7732675],[-82.0892208,31.7729522],[-82.0891514,31.7859841],[-82.1066532,31.786172],[-82.1063953,31.7998561],[-82.0870766,31.7995751],[-82.0868943,31.8223961],[-82.074506,31.8293514],[-82.0476431,31.8267399],[-82.0245823,31.8144611],[-82.0166908,31.8249953],[-82.006992,31.8003629],[-81.9725585,31.7840033],[-81.969177,31.789631],[-81.98101,31.791563],[-81.980309,31.804329],[-81.955994,31.809124],[-81.945412,31.835022],[-81.923103,31.850317],[-81.912369,31.886702],[-81.892288,31.895626],[-81.894882,31.902948],[-81.882271,31.917418],[-81.889389,31.948954],[-81.875618,31.968882],[-81.859856,31.976019],[-81.824405,32.014882],[-81.761735,32.0479],[-81.718658,32.089351],[-81.727134,32.098961],[-81.756806,32.104781],[-81.754074,32.111748],[-81.77729,32.131939],[-81.7807887,32.1752842],[-81.8034523,32.1990029],[-81.8036911,32.2197387],[-81.816566,32.237705],[-81.84198,32.241615],[-81.8563582,32.2571534],[-81.8922684,32.2747622],[-81.968964,32.268368],[-81.957352,32.28603],[-81.9186882,32.4154368],[-81.9366484,32.4227974],[-81.9413701,32.4373105],[-81.9741581,32.4700312],[-81.979881,32.5013887],[-81.9709642,32.5132769],[-82.0302906,32.5386809],[-82.0016382,32.6067626],[-81.8343822,32.6534793],[-81.8017866,32.6430083],[-81.8010503,32.6297078],[-81.7844719,32.6219302],[-81.7796211,32.6109148],[-81.7543833,32.6020408],[-81.7323685,32.5759804],[-81.7081659,32.5659413],[-81.6895813,32.5461436],[-81.6659006,32.5442656],[-81.6476236,32.5274074],[-81.6391634,32.5324562],[-81.6173332,32.5251542],[-81.6161418,32.5154512],[-81.5960594,32.5064886],[-81.5780358,32.5124125],[-81.5476816,32.4892521],[-81.538624,32.5091087],[-81.3892083,32.5954223],[-81.369757,32.591231],[-81.366964,32.577059],[-81.3570769,32.5820522],[-81.357721,32.5727893],[-81.328753,32.561228],[-81.297955,32.563026],[-81.296747,32.553428],[-81.2900495,32.5622501],[-81.2898961,32.5518241],[-81.28127,32.556471],[-81.2746804,32.5443139],[-81.2799945,32.5366239],[-81.252882,32.51833],[-81.2339359,32.5183908],[-81.2388326,32.507442],[-81.2335577,32.4986702],[-81.1872603,32.4642256],[-81.1977166,32.4482376],[-81.2047294,32.4525475],[-81.1994939,32.4419574],[-81.2083123,32.4361417],[-81.1782259,32.3930342],[-81.1817053,32.3791977],[-81.167555,32.368364],[-81.1740765,32.3628337],[-81.1545457,32.3497912],[-81.1602764,32.3404553],[-81.1441479,32.3513963],[-81.1284994,32.3408199],[-81.1378691,32.3271475],[-81.1307493,32.3254286],[-81.1334815,32.3080513],[-81.122933,32.307295],[-81.119557,32.2864693],[-81.1269708,32.2831025],[-81.1231364,32.2754084],[-81.1418759,32.2716818],[-81.1378075,32.2647756],[-81.1463349,32.2633343],[-81.14577,32.2511198],[-81.1565459,32.2426244],[-81.1436632,32.2291323],[-81.152064,32.222042],[-81.138925,32.219768],[-81.121885,32.195538],[-81.114032,32.195701],[-81.121795,32.191794],[-81.120439,32.1787],[-81.111132,32.172703],[-81.121149,32.174902],[-81.129756,32.165839],[-81.112236,32.150804],[-81.119995,32.134265],[-81.113343,32.1132],[-81.091575,32.110909],[-81.050317,32.085324],[-81.032633,32.085476],[-81.002318,32.100056],[-80.983192,32.079659],[-80.954483,32.068616],[-80.918003,32.037579],[-80.751429,32.033468],[-80.780693,32.01137],[-80.796272,31.953459],[-80.855339,31.910809],[-80.928589,31.816982],[-80.970726,31.798353],[-81.013812,31.728643],[-81.056623,31.714875],[-81.049789,31.688633],[-81.066635,31.657328],[-81.065826,31.625227],[-81.087067,31.529158],[-81.095383,31.520981],[-81.187591,31.546539],[-81.194922,31.558845],[-81.190894,31.60034],[-81.237321,31.63942],[-81.268841,31.652197],[-81.298358,31.649337],[-81.318016,31.659854],[-81.338079,31.647112],[-81.355573,31.65467],[-81.374403,31.64717],[-81.372715,31.650345],[-81.377776,31.655106],[-81.391576,31.643561],[-81.417587,31.652094],[-81.433563,31.64089],[-81.467712,31.678547],[-81.460892,31.683477],[-81.464754,31.693329],[-81.491798,31.699575],[-81.566009,31.576467],[-81.663913,31.538451]]]}}]}