{"type":"FeatureCollection","features":[{"type":"Feature","properties":{"slug":"sayre-pa","member_count":52,"matched_count":52,"unmatched":[],"source":"Overture Maps division_area (CC-BY 4.0)"},"geometry":{"type":"MultiPolygon","coordinates":[[[[-78.340108,40.9703796],[-78.340985,40.98475],[-78.395262,40.985218],[-78.397076,41.014121],[-78.3796846,41.0218212],[-78.3891249,41.0388752],[-78.3682064,41.0359527],[-78.3816506,41.04776],[-78.3766524,41.0603102],[-78.3606717,41.0687891],[-78.3383136,41.0527191],[-78.3342948,41.0566854],[-78.3470604,41.0696086],[-78.338655,41.0773835],[-78.3161971,41.0571057],[-78.3088161,41.0574997],[-78.3054015,41.0685054],[-78.2884551,41.0716399],[-78.2625204,41.0562994],[-78.25658,41.026937],[-78.267771,41.026958],[-78.268939,40.983564],[-78.2828871,40.9836405],[-78.2830772,40.9693898],[-78.340108,40.9703796]]],[[[-76.1456852,41.9988654],[-76.1151712,41.6518136],[-76.1979987,41.64782],[-76.2200749,41.5412863],[-76.8746879,41.5966797],[-76.9268708,42.001476],[-76.1456852,41.9988654]]]]}}]}