{"type":"FeatureCollection","features":[{"type":"Feature","properties":{"slug":"sedan","member_count":228,"matched_count":228,"unmatched":[],"source":"Overture Maps division_area (CC-BY 4.0)"},"geometry":{"type":"MultiPolygon","coordinates":[[[[3.6730652,48.9287012],[3.6833644,48.9088043],[3.6486961,48.9020447],[3.6434187,48.923229],[3.6290705,48.9346614],[3.6648175,48.9417938],[3.6615288,48.9345744],[3.6730652,48.9287012]]],[[[4.3978267,49.6654953],[4.3723892,49.6501541],[4.346583,49.6647845],[4.3514725,49.672122],[4.3278625,49.6663854],[4.3336346,49.6880133],[4.3462279,49.6945081],[4.3377703,49.7014235],[4.3461981,49.7171213],[4.3314022,49.7202285],[4.3231039,49.7375574],[4.2945333,49.7400511],[4.2623728,49.720211],[4.2484977,49.7310091],[4.2245681,49.7279536],[4.2324572,49.7306179],[4.2256962,49.7326803],[4.2294753,49.7463931],[4.2495809,49.7570406],[4.2427809,49.7671446],[4.2058851,49.7781867],[4.2267507,49.7933763],[4.2142086,49.8061166],[4.2325338,49.8480884],[4.248726,49.8567841],[4.2557496,49.9040039],[4.234935,49.9039778],[4.2168626,49.9140942],[4.233012,49.957656],[4.309527,49.969556],[4.3509827,49.9522263],[4.3812166,49.954441],[4.4455089,49.9372154],[4.5235754,49.9502646],[4.5410646,49.9695228],[4.5645211,49.9704567],[4.58179,49.983575],[4.6939852,49.9955639],[4.6849878,50.0065975],[4.6847467,50.0272762],[4.70004,50.053005],[4.679764,50.06805],[4.7021057,50.0955571],[4.751785,50.1119912],[4.7481925,50.1223228],[4.7561025,50.1215935],[4.7621672,50.1364474],[4.8064561,50.1526527],[4.8241825,50.1693225],[4.8324337,50.1531657],[4.877572,50.1537301],[4.8814073,50.1412081],[4.8971111,50.1379186],[4.8670574,50.1188107],[4.8724173,50.0877837],[4.8496841,50.101159],[4.8374127,50.0932051],[4.8469612,50.083562],[4.8405912,50.0829959],[4.838133,50.06724],[4.819384,50.065927],[4.841489,50.039665],[4.820032,50.025882],[4.819173,49.995216],[4.793253,49.981861],[4.790334,49.969829],[4.7911711,49.9580026],[4.8489664,49.9482408],[4.8901307,49.9089349],[4.877741,49.9046458],[4.8876211,49.8985711],[4.8778571,49.8945289],[4.8625027,49.8668986],[4.8475351,49.868087],[4.8568037,49.8413795],[4.8671678,49.8420571],[4.8691772,49.8230435],[4.8763929,49.8192569],[4.8519966,49.7930478],[4.9056416,49.7855463],[4.9428737,49.790493],[4.956807,49.8018539],[4.9976901,49.8000035],[5.0144468,49.7799932],[5.0005549,49.7606723],[5.0370517,49.7600823],[5.0108779,49.7430461],[5.0208431,49.7317846],[5.0306846,49.7335194],[5.0240244,49.7501845],[5.0482885,49.7626623],[5.0482121,49.770343],[5.0717402,49.7608945],[5.0893539,49.7658452],[5.1188568,49.7385478],[5.1258231,49.7124948],[5.143717,49.7091976],[5.1589499,49.7169035],[5.1660359,49.7117506],[5.1662837,49.6930304],[5.2057406,49.6963129],[5.2427526,49.6853674],[5.2685113,49.6965705],[5.3321686,49.6544918],[5.3050086,49.6302947],[5.3121068,49.6116529],[5.3401862,49.6145334],[5.3784381,49.6080329],[5.3822443,49.6013362],[5.3747314,49.5916843],[5.3519233,49.5885926],[5.3402561,49.5948493],[5.3083672,49.562702],[5.3123995,49.559276],[5.2848915,49.5530925],[5.2752435,49.5419668],[5.2601918,49.5429407],[5.2545144,49.5556806],[5.2349237,49.5618926],[5.2359061,49.5691746],[5.2174583,49.5734241],[5.1626645,49.5617889],[5.1444245,49.5909211],[5.1132337,49.5923273],[5.1048096,49.5756697],[5.1137983,49.5619222],[5.0907927,49.549085],[5.0889527,49.5359194],[5.1010424,49.5364468],[5.0797193,49.509966],[5.0135582,49.4980929],[5.0078877,49.5042982],[5.0191726,49.5083162],[4.9762804,49.5338141],[4.9419569,49.5414252],[4.9120114,49.5347238],[4.8987393,49.546511],[4.9017915,49.5563039],[4.8867984,49.5505155],[4.8705138,49.5657531],[4.839333,49.5761717],[4.8227069,49.5634918],[4.8030405,49.5622528],[4.7724769,49.5707186],[4.7557318,49.5620483],[4.7307157,49.5716588],[4.7254187,49.5599387],[4.6904331,49.5598888],[4.681624,49.5468377],[4.6684007,49.5591721],[4.6757919,49.5764412],[4.6404027,49.5778367],[4.6360572,49.588688],[4.6226549,49.5940231],[4.5937468,49.5861845],[4.5910653,49.6011981],[4.6021032,49.6101552],[4.600812,49.6234083],[4.5754062,49.6416608],[4.5365039,49.6464859],[4.5283882,49.6380628],[4.4966655,49.6634537],[4.4636275,49.6700468],[4.4292162,49.6596229],[4.4187088,49.6680811],[4.4107747,49.6611386],[4.3978267,49.6654953]],[[4.9942457,49.6217104],[4.9895148,49.6292241],[4.9819358,49.6182013],[4.955999,49.6430851],[4.9360468,49.6379482],[4.9244841,49.615133],[4.9140384,49.613813],[4.9287993,49.6080328],[4.9501347,49.6171326],[4.9810744,49.6101069],[4.9942457,49.6217104]],[[5.147036,49.5931901],[5.1833107,49.5849237],[5.1805178,49.5790138],[5.1871049,49.5767872],[5.2012405,49.5842408],[5.2088896,49.5937717],[5.1948171,49.5953137],[5.1947816,49.601191],[5.2051542,49.6087998],[5.1849644,49.6077168],[5.1751758,49.6193953],[5.1433514,49.6137138],[5.147036,49.5931901]]],[[[6.7503923,48.4308628],[6.7926793,48.4258985],[6.8058349,48.4150761],[6.7666179,48.3991894],[6.7650071,48.4118547],[6.7394992,48.4117616],[6.7503923,48.4308628]]],[[[5.2297361,48.4456155],[5.2941146,48.4458472],[5.3026729,48.4253829],[5.2685846,48.4177368],[5.2526461,48.4236628],[5.250187,48.4394462],[5.2297361,48.4456155]]],[[[6.3239549,48.6644581],[6.3365136,48.6690723],[6.3276809,48.6585994],[6.3239549,48.6644581]]],[[[6.3407898,48.6677522],[6.3352172,48.6705514],[6.3670906,48.683081],[6.357622,48.6876547],[6.3672158,48.6934017],[6.3684946,48.6769641],[6.3939015,48.6569756],[6.3527977,48.6401191],[6.330797,48.6592024],[6.3407898,48.6677522]]]]}}]}