{"type": "FeatureCollection", "features": [{"type": "Feature", "properties": {"slug": "segovia", "members": 209, "country": "Spain", "input_hash": "031c505965cfca4a"}, "geometry": {"type": "Polygon", "coordinates": [[[-3.7661888, 41.5379294], [-3.7697523, 41.460152], [-3.7441378, 41.4610591], [-3.7394831, 41.4507842], [-3.7290982, 41.457622], [-3.7324061, 41.4698897], [-3.7237189, 41.4792045], [-3.7283047, 41.5176382], [-3.6915469, 41.5345369], [-3.6717232, 41.5604326], [-3.6168364, 41.577158], [-3.6088025, 41.5661231], [-3.5726223, 41.5653993], [-3.5665138, 41.579957], [-3.5464225, 41.5800885], [-3.5383303, 41.5520162], [-3.5019401, 41.5291833], [-3.4796783, 41.5209098], [-3.4580609, 41.5368488], [-3.4236751, 41.5162816], [-3.424032, 41.4827291], [-3.4133054, 41.4761202], [-3.3810939, 41.4647994], [-3.3650767, 41.4677599], [-3.3483115, 41.4564979], [-3.3303745, 41.4607206], [-3.3399266, 41.4510913], [-3.3492144, 41.3945866], [-3.3292183, 41.3762683], [-3.2721274, 41.3527347], [-3.2693317, 41.3415444], [-3.2362918, 41.3302844], [-3.2368591, 41.3185282], [-3.2073512, 41.3042357], [-3.238935, 41.2879429], [-3.2542643, 41.2583832], [-3.2742654, 41.2602654], [-3.2757591, 41.2750345], [-3.2901677, 41.2579298], [-3.3236213, 41.261742], [-3.3363502, 41.2530315], [-3.4097793, 41.2606234], [-3.4151465, 41.2731972], [-3.4115227, 41.2607073], [-3.3995004, 41.2545429], [-3.3979882, 41.2432523], [-3.4063103, 41.2341706], [-3.4011854, 41.2135645], [-3.4441537, 41.2153405], [-3.4659946, 41.1832892], [-3.5006749, 41.1790964], [-3.5162221, 41.1623004], [-3.5509833, 41.1654454], [-3.600277, 41.1552452], [-3.6319068, 41.1339342], [-3.6764225, 41.0866323], [-3.7016782, 41.0802207], [-3.7384128, 41.0547817], [-3.7813662, 41.0003151], [-3.8901987, 40.9692275], [-3.9217665, 40.9299264], [-3.9381863, 40.9264165], [-3.937054, 40.9156681], [-3.9522994, 40.8936484], [-3.9425065, 40.8887103], [-3.94697, 40.8641185], [-3.9654998, 40.8379956], [-3.9621021, 40.822097], [-3.9799611, 40.799379], [-3.9797234, 40.784168], [-4.0029606, 40.7888495], [-4.0323928, 40.7816125], [-4.0700565, 40.7937977], [-4.0962706, 40.7652504], [-4.0969962, 40.7477655], [-4.1160207, 40.7421073], [-4.1462495, 40.6944246], [-4.1602545, 40.6898436], [-4.1833118, 40.6980504], [-4.252903, 40.689533], [-4.3161979, 40.6667447], [-4.3241394, 40.6579739], [-4.3194882, 40.6476699], [-4.33312, 40.6370855], [-4.4196226, 40.6334277], [-4.4222781, 40.6761631], [-4.4379834, 40.7145408], [-4.4268867, 40.7296182], [-4.4311271, 40.7423843], [-4.473838, 40.7746545], [-4.4726546, 40.7827769], [-4.4815604, 40.7883651], [-4.473228, 40.8000168], [-4.4937726, 40.8335183], [-4.5463881, 40.8255465], [-4.5567082, 40.8363345], [-4.5498578, 40.8533528], [-4.5315674, 40.8586416], [-4.5353133, 40.872374], [-4.5599488, 40.8861018], [-4.55245, 40.907465], [-4.566352, 40.956199], [-4.606748, 40.9708034], [-4.6172479, 41.0036522], [-4.6382892, 41.0313062], [-4.6815591, 41.0521728], [-4.7010017, 41.0516713], [-4.7127198, 41.0621023], [-4.7163465, 41.0714819], [-4.7071498, 41.0887756], [-4.717885, 41.0900032], [-4.7100293, 41.0992718], [-4.7245611, 41.122655], [-4.7167215, 41.1326444], [-4.7213366, 41.1569679], [-4.6805613, 41.1857365], [-4.6436944, 41.1681009], [-4.6280957, 41.1706339], [-4.6363516, 41.1906069], [-4.6506251, 41.2001041], [-4.6508629, 41.2214211], [-4.6151707, 41.2413651], [-4.5986738, 41.2641676], [-4.5738832, 41.2752012], [-4.5765262, 41.2848654], [-4.6019795, 41.3026545], [-4.6051514, 41.3131403], [-4.59709, 41.3201404], [-4.5595398, 41.3021656], [-4.5286284, 41.3210992], [-4.5053794, 41.3112906], [-4.5000644, 41.3009116], [-4.467786, 41.2958873], [-4.4705506, 41.3184604], [-4.4939101, 41.3264102], [-4.504473, 41.3471963], [-4.4966875, 41.3496128], [-4.4959036, 41.3639265], [-4.4840021, 41.3668007], [-4.5152781, 41.39409], [-4.5149578, 41.4096586], [-4.4681594, 41.4130763], [-4.4106155, 41.4416474], [-4.3649147, 41.4360024], [-4.3623926, 41.4499306], [-4.3278572, 41.4447864], [-4.3134965, 41.4551117], [-4.2701316, 41.4612737], [-4.2608428, 41.4509934], [-4.2482351, 41.46209], [-4.2336802, 41.4561171], [-4.1583179, 41.4820998], [-4.142335, 41.4702664], [-4.0652771, 41.4947452], [-4.0273992, 41.517797], [-3.9991223, 41.5166861], [-3.9938633, 41.5560124], [-3.9799472, 41.5841894], [-3.9638275, 41.5860824], [-3.9530478, 41.5734361], [-3.8945541, 41.5521534], [-3.8857818, 41.5323056], [-3.8679469, 41.5324773], [-3.8238777, 41.4811343], [-3.7876414, 41.4858648], [-3.7982214, 41.491926], [-3.8037882, 41.5245756], [-3.7661888, 41.5379294]]]}}]}