{"type": "FeatureCollection", "features": [{"type": "Feature", "properties": {"slug": "semarang", "members": 6, "country": "Indonesia", "input_hash": "f2aaab5a38edce2c"}, "geometry": {"type": "MultiPolygon", "coordinates": [[[[110.5785845, -7.453568], [110.5761353, -7.452014], [110.5802249, -7.4511106], [110.5785845, -7.453568]]], [[[110.6239787, -7.2340262], [110.6363449, -7.2639227], [110.6210204, -7.268511], [110.621675, -7.2892788], [110.6010742, -7.2916336], [110.5994493, -7.316061], [110.6127793, -7.3335809], [110.6408096, -7.3257688], [110.6465797, -7.3325775], [110.6247911, -7.3823262], [110.6381328, -7.4029907], [110.6357904, -7.4296589], [110.6187856, -7.4464548], [110.6235428, -7.455359], [110.648809, -7.4479454], [110.6292368, -7.4643648], [110.6614835, -7.4746623], [110.6541519, -7.4844761], [110.6591263, -7.4969473], [110.6020614, -7.4904025], [110.5773647, -7.462189], [110.5891351, -7.464817], [110.5810901, -7.4470224], [110.5974817, -7.4540727], [110.599778, -7.4478461], [110.5891094, -7.4459223], [110.5797513, -7.4252814], [110.5732267, -7.4224774], [110.5714363, -7.4404214], [110.5698094, -7.4251716], [110.5588472, -7.4314304], [110.5553498, -7.4517102], [110.544545, -7.4330676], [110.5175894, -7.4387284], [110.5172789, -7.416361], [110.5089409, -7.4072415], [110.4975686, -7.4108224], [110.4835221, -7.4024097], [110.4652938, -7.4082047], [110.4382186, -7.4522754], [110.4143448, -7.4166426], [110.403566, -7.3653318], [110.3907089, -7.3530178], [110.3815384, -7.3540549], [110.3791428, -7.3345523], [110.3140311, -7.3097818], [110.3271561, -7.29604], [110.2830887, -7.2537155], [110.2710877, -7.252026], [110.2736893, -7.2358126], [110.266696, -7.2323047], [110.2665615, -7.2176706], [110.2546325, -7.2117043], [110.251734, -7.1973816], [110.2599932, -7.1992766], [110.2521386, -7.1888298], [110.2135239, -7.185625], [110.1923712, -7.172216], [110.184929, -7.1516669], [110.1689518, -7.1434298], [110.1523083, -7.1472808], [110.1397261, -7.1361452], [110.1447781, -7.1253476], [110.1595587, -7.1257933], [110.1660959, -7.1128192], [110.1933794, -7.1057177], [110.187693, -7.1020472], [110.193442, -7.0806125], [110.1771686, -7.0823897], [110.1753374, -7.1012082], [110.1204248, -7.0928802], [110.0765915, -7.1209049], [110.0598566, -7.1190203], [109.9603963, -7.1930998], [109.934074, -7.2023203], [109.9226761, -7.1867904], [109.9633627, -7.0951075], [109.9775607, -7.0829941], [109.9742025, -7.0338677], [110.0134735, -7.0185713], [110.0252018, -6.9971809], [110.0509796, -6.9802007], [110.0509567, -6.9415369], [110.0403532, -6.9429691], [110.0307694, -6.9301233], [110.0451889, -6.9214711], [110.0264857, -6.9118194], [110.140041, -6.8760378], [110.1735109, -6.8510736], [110.172485, -6.8358061], [110.1804578, -6.8486929], [110.2191219, -6.861779], [110.2295476, -6.8861075], [110.2539772, -6.9086561], [110.2879276, -6.9178959], [110.3402498, -6.9509369], [110.4073405, -6.9493409], [110.4189813, -6.9427964], [110.4188365, -6.9515242], [110.4239273, -6.9550972], [110.4232836, -6.935533], [110.4364237, -6.9512766], [110.4427242, -6.9378121], [110.5069189, -6.8979851], [110.5157447, -6.8594489], [110.5292094, -6.847348], [110.5220459, -6.835424], [110.5591428, -6.8046383], [110.5754005, -6.7695469], [110.5647111, -6.7629396], [110.5529845, -6.775016], [110.5385246, -6.7491503], [110.5490792, -6.7461084], [110.5551624, -6.7550448], [110.5611672, -6.7499933], [110.557158, -6.7390098], [110.5454421, -6.7375021], [110.5638421, -6.7242208], [110.5741954, -6.7371239], [110.5856001, -6.7339061], [110.6163635, -6.7154727], [110.6180649, -6.70612], [110.6691666, -6.7200145], [110.6669235, -6.7645287], [110.6950967, -6.7685471], [110.7047501, -6.7947569], [110.7129364, -6.7889237], [110.7419128, -6.7963586], [110.758505, -6.7912201], [110.7834088, -6.8069143], [110.799836, -6.8382612], [110.8131469, -6.835707], [110.8208114, -6.8497043], [110.8389485, -6.8473191], [110.7859802, -6.911261], [110.7771083, -6.9336224], [110.7848209, -6.9419079], [110.7719327, -6.945608], [110.8022419, -6.9699237], [110.8037796, -6.9889989], [110.8150559, -7.0036692], [110.8355071, -6.9910642], [110.8452759, -6.9902105], [110.8515091, -6.9988084], [110.8675308, -6.9754324], [110.8857624, -6.9691318], [110.8869828, -6.9848145], [110.9003773, -6.9883326], [110.9150925, -6.9615884], [110.9255909, -6.9721454], [110.9454624, -6.9749046], [110.9489512, -6.9672404], [110.9701863, -6.9643871], [110.9851936, -6.9710861], [111.069721, -6.9690564], [111.0911997, -6.9538726], [111.0801272, -6.9463248], [111.0894269, -6.9320365], [111.1185415, -6.9095066], [111.1065445, -6.9620537], [111.1112918, -6.9780384], [111.16511, -6.98137], [111.2180252, -7.030528], [111.2137459, -7.0771131], [111.2404632, -7.1385231], [111.2442856, -7.2075166], [111.2343513, -7.2440251], [111.1993103, -7.2454981], [111.1997375, -7.2558379], [111.1776657, -7.2643866], [111.1557007, -7.257914], [111.1463013, -7.2645082], [111.1271742, -7.2577332], [111.123436, -7.2488217], [111.1071167, -7.2472424], [111.0802002, -7.2542686], [111.0792541, -7.2620444], [111.0578461, -7.2706117], [111.0319824, -7.2644973], [111.0298691, -7.2567338], [110.9548264, -7.28267], [110.9288483, -7.2776494], [110.9222412, -7.2695865], [110.9197006, -7.280487], [110.9044723, -7.2832074], [110.8950501, -7.2738414], [110.8743515, -7.276205], [110.8674927, -7.265151], [110.8485424, -7.2705245], [110.8303785, -7.2608609], [110.8274689, -7.2442834], [110.8430374, -7.2164009], [110.8586586, -7.2153194], [110.8492508, -7.201468], [110.8326569, -7.1982093], [110.7935791, -7.2404265], [110.7667923, -7.2444443], [110.7855072, -7.1938729], [110.7776516, -7.186182], [110.7602386, -7.1863522], [110.7694351, -7.1774228], [110.7438355, -7.1642804], [110.7499619, -7.1487751], [110.7426148, -7.1391854], [110.7040863, -7.1851182], [110.6901779, -7.1893544], [110.6928177, -7.2052941], [110.7058334, -7.2150969], [110.6943665, -7.2241077], [110.6925073, -7.2404188], [110.6440735, -7.2190485], [110.62724343927053, -7.2187423677095275], [110.6239787, -7.2340262]], [[110.4764930291339, -7.083676819243736], [110.4763548, -7.0834556], [110.4683761, -7.0796994], [110.4764930291339, -7.083676819243736]], [[110.47770864010839, -7.086161854900881], [110.4776155, -7.0854732], [110.47742705868427, -7.0851716221475245], [110.47770864010839, -7.086161854900881]], [[110.4847555, -7.0813049], [110.48790949631422, -7.0783105633243], [110.4776155, -7.0854732], [110.4847555, -7.0813049]], [[110.4781723, -7.0877924], [110.4822312, -7.0906496], [110.47810749040113, -7.08756448515182], [110.4781723, -7.0877924]], [[110.5163421, -7.1307006], [110.51664319399832, -7.130867324133719], [110.5133972, -7.1282558], [110.5163421, -7.1307006]], [[110.55140602934102, -7.137299493638187], [110.5513153, -7.1372585], [110.5488502, -7.1381414], [110.55140602934102, -7.137299493638187]], [[110.5601413928213, -7.141221965686326], [110.55893437321454, -7.139469490893573], [110.55662503827362, -7.139629915542507], [110.5601413928213, -7.141221965686326]], [[110.5574451, -7.1467036], [110.5612254, -7.1421202], [110.56093241962806, -7.141877429446004], [110.5574451, -7.1467036]], [[110.55371126152018, -7.167825532855502], [110.5539403, -7.1678079], [110.5538892, -7.1601039], [110.55371126152018, -7.167825532855502]], [[110.55292900762552, -7.167885755792284], [110.5478471, -7.1678456], [110.54756249180089, -7.168298904701423], [110.55292900762552, -7.167885755792284]], [[110.5419662, -7.1772123], [110.5453133, -7.1735684], [110.54684868715258, -7.169435804495574], [110.5419662, -7.1772123]], [[110.5416029, -7.1816655], [110.545166, -7.1829371], [110.54164192408734, -7.181187156851681], [110.5416029, -7.1816655]], [[110.5460053, -7.1949277], [110.54619740169694, -7.194896699129065], [110.5440445, -7.1885528], [110.5460053, -7.1949277]], [[110.55575426577707, -7.18750247042177], [110.5555077, -7.1871677], [110.5542094, -7.1891085], [110.55575426577707, -7.18750247042177]], [[110.60131, -7.19976], [110.60082752957521, -7.198130431524447], [110.60082074679293, -7.199751516488583], [110.60131, -7.19976]], [[110.60138238095239, -7.19515], [110.60084, -7.19515], [110.60083718208809, -7.195823480950021], [110.60138238095239, -7.19515]], [[110.6086066375571, -7.196266724744619], [110.60706, -7.19515], [110.60682484382922, -7.19515], [110.6086066375571, -7.196266724744619]], [[110.61292039405163, -7.19978421796815], [110.61296, -7.19941], [110.61281024945863, -7.1993018750328455], [110.61292039405163, -7.19978421796815]], [[110.61159, -7.20506], [110.6116, -7.21226], [110.61249328898639, -7.203819732738898], [110.61159, -7.20506]], [[110.6132297, -7.2151777], [110.61610489589572, -7.217426704680817], [110.6116, -7.21226], [110.6132297, -7.2151777]], [[110.616745, -7.2179274], [110.6180682943575, -7.217576241976161], [110.61647209642791, -7.217713932315262], [110.616745, -7.2179274]], [[110.62710837244975, -7.218269313339266], [110.6241074, -7.2170553], [110.62204455149593, -7.217233244291729], [110.62710837244975, -7.218269313339266]], [[110.341325, -7.1992922], [110.34266038095242, -7.195580404230248], [110.340376, -7.2002732], [110.341325, -7.1992922]], [[110.34783, -7.18642], [110.3485699, -7.1834405], [110.34432811345881, -7.192154387198035], [110.34783, -7.18642]], [[110.3488996360648, -7.112402495306676], [110.3488379, -7.1125854], [110.3499369, -7.116266], [110.3488996360648, -7.112402495306676]], [[110.36332094462901, -7.10480845546918], [110.3563232, -7.1065497], [110.3550251, -7.107831], [110.36332094462901, -7.10480845546918]], [[110.48796868678788, -7.291440644350321], [110.4899549, -7.2917621], [110.49052135447953, -7.291274764052618], [110.48796868678788, -7.291440644350321]], [[110.48651342939512, -7.289970011327989], [110.4872665, -7.291327], [110.48741687382123, -7.2913513370218785], [110.48651342939512, -7.289970011327989]], [[110.4687583, -7.2958321], [110.4840191818928, -7.286156419631305], [110.4839554, -7.2860589], [110.4687583, -7.2958321]], [[110.53515606070536, -7.354666940136348], [110.5333645, -7.3602726], [110.5352261, -7.3548644], [110.53515606070536, -7.354666940136348]], [[110.53409876928235, -7.353561649501199], [110.53511109816566, -7.354540178480548], [110.5346927, -7.3533606], [110.53409876928235, -7.353561649501199]], [[110.58116368105523, -7.131212111979149], [110.56768552814046, -7.136535497155054], [110.5800857, -7.1323781], [110.58116368105523, -7.131212111979149]], [[110.59369931527621, -7.12251904046488], [110.5872192, -7.1288204], [110.5934525, -7.1234054], [110.59369931527621, -7.12251904046488]], [[110.59427427067229, -7.119544520817432], [110.593987019641, -7.121485840612184], [110.5944214, -7.1199259], [110.59427427067229, -7.119544520817432]], [[110.5950622, -7.0558352], [110.59386705400449, -7.067808040555299], [110.5939636, -7.0678425], [110.5950622, -7.0558352]], [[110.6190837, -6.9846072], [110.621645, -6.9857128], [110.61912743274324, -6.984353807340672], [110.6190837, -6.9846072]], [[110.6194305, -6.9825978], [110.61922073493204, -6.9838132034820255], [110.61985940210681, -6.9824221181247745], [110.6194305, -6.9825978]], [[110.6509171, -6.9741506], [110.65058338180306, -6.974403135987755], [110.6526566, -6.9750757], [110.6509171, -6.9741506]], [[110.6581039, -6.9733991], [110.65778940918818, -6.973495895714406], [110.6632462, -6.975861], [110.6581039, -6.9733991]], [[110.4874662, -6.9463908], [110.4795241, -6.9449744], [110.48748436714605, -6.946478023029636], [110.4874662, -6.9463908]], [[110.490251273891, -6.9546860812083295], [110.4915109, -6.9474878], [110.4895985, -6.9548203], [110.490251273891, -6.9546860812083295]], [[110.5069095, -6.951407], [110.5013229, -6.9558238], [110.50696911928563, -6.9515646025743445], [110.5069095, -6.951407]], [[110.5088836, -6.9566255], [110.50727097032102, -6.952362540686988], [110.50830733467552, -6.956743891334591], [110.5088836, -6.9566255]], [[110.5016436, -6.967078], [110.5010335080587, -6.961867808087476], [110.5004458, -6.9628003], [110.5016436, -6.967078]], [[110.50575262141591, -6.969685124944513], [110.5057669, -6.9685265], [110.5016436, -6.967078], [110.50575262141591, -6.969685124944513]], [[110.5020685627912, -6.979423032732117], [110.5039778, -6.9796579], [110.5020941, -6.9793037], [110.5020685627912, -6.979423032732117]], [[110.5014255, -6.9929457], [110.50143209959637, -6.992912831511684], [110.4992893, -6.9922671], [110.5014255, -6.9929457]], [[110.5042434, -7.0102391], [110.50136292109117, -7.008961389731366], [110.50418984851125, -7.011105336885247], [110.5042434, -7.0102391]], [[110.503947, -7.0150336], [110.504064658512, -7.013130382267883], [110.50135135817112, -7.017368480969327], [110.503947, -7.0150336]], [[110.49803196015756, -7.024206429749047], [110.4996564113432, -7.020015940169564], [110.4989433, -7.0211298], [110.49803196015756, -7.024206429749047]], [[110.499233, -7.0261825], [110.49788164657684, -7.024713879563741], [110.4978543, -7.0248062], [110.499233, -7.0261825]], [[110.3519632, -7.1015816], [110.35277212641171, -7.102503349382112], [110.35189727707683, -7.101072446391802], [110.3519632, -7.1015816]], [[110.3482556, -7.0930188], [110.35121977431318, -7.096361665527635], [110.3512133, -7.0962627], [110.3482556, -7.0930188]], [[110.34641647666318, -7.083856602075318], [110.3460957, -7.0844204], [110.3482556, -7.0930188], [110.34641647666318, -7.083856602075318]], [[110.34547351821922, -7.083211447365886], [110.34623367251, -7.082945903048545], [110.3460653, -7.0821071], [110.34547351821922, -7.083211447365886]], [[110.3454606, -7.0994314], [110.34534139277783, -7.099126804183949], [110.34448434332626, -7.099935533598376], [110.3454606, -7.0994314]], [[110.3363478, -7.1041372], [110.34234014626317, -7.101042785215826], [110.3392339, -7.1015288], [110.3363478, -7.1041372]], [[110.3036195, -7.0976188], [110.3075355, -7.1022514], [110.30363561480434, -7.097556840175697], [110.3036195, -7.0976188]], [[110.29410678316952, -7.053817011134891], [110.2918714, -7.055451], [110.2944088, -7.0543117], [110.29410678316952, -7.053817011134891]], [[110.287435, -7.0504998], [110.29385861867107, -7.053410529767903], [110.2933037, -7.0525016], [110.287435, -7.0504998]], [[110.2713203, -7.0356567], [110.27173864350011, -7.035783714620157], [110.2741098, -7.0346504], [110.2713203, -7.0356567]]]]}}]}