{"type": "FeatureCollection", "features": [{"type": "Feature", "properties": {"slug": "semera", "members": 1, "country": "Ethiopia", "input_hash": "b5fe48318a9b6015"}, "geometry": {"type": "Polygon", "coordinates": [[[40.016159039475724, 11.646362622618096], [39.99832404711732, 11.613039060235895], [39.99418689532491, 11.58461274772002], [40.06178831527569, 11.47495631828656], [40.07106071572427, 11.37449764770594], [40.06582998458983, 11.338595818090088], [40.07210811447671, 11.326483236773543], [40.10345198153931, 11.317753149373807], [40.14649491234453, 11.256469045832006], [40.1737516857773, 11.240824319091708], [40.21640333297496, 11.249809986625447], [40.351026896512614, 11.240909932152745], [40.44290920171407, 11.21651150690232], [40.517851017408454, 11.188243535485592], [40.56672187242923, 11.118399416691773], [40.72864634711982, 11.14433608672029], [40.80891383935617, 11.198930723146944], [40.90832121932995, 11.160763468734366], [40.97285269860493, 11.126526091935537], [41.01058345784758, 11.09071902840356], [41.04240379587251, 11.01534552918066], [41.093004896238064, 10.980418304782859], [41.118285246472944, 10.932942374599124], [41.16732553880703, 10.780595636635491], [41.19177628412353, 10.797293990687669], [41.22095729478687, 10.835340408210305], [41.24164841074198, 10.922232531186708], [41.26905937175082, 10.958719102434936], [41.39312266950375, 10.967177537836216], [41.41098308515767, 10.959338119970475], [41.484975073381136, 10.967766877511917], [41.58313759455367, 10.962936664612142], [41.74045171944461, 10.969195057797657], [41.76136234961684, 10.982803698996447], [41.777804897914564, 11.286466463814456], [41.7713139, 11.4937864], [41.804298332368795, 11.667752288446026], [41.8360588, 11.7328259], [41.94307313317383, 11.825107273786614], [41.98111446821505, 11.87089292234242], [42.09057880800218, 12.065164823866715], [42.20001277953224, 12.20781131893583], [42.230213793736745, 12.235788601320214], [42.320247359575156, 12.388044371019626], [42.33794794838169, 12.403522854734344], [42.355718752743456, 12.445648974734787], [42.24330719659443, 12.616284722950494], [42.09689015573361, 12.788574545552176], [42.0573019, 12.8010406], [42.0301815, 12.8680964], [41.9663637, 12.9233163], [41.9287351, 13.0110176], [41.88527187768325, 13.080767735477318], [41.8999579527624, 12.838414721157513], [41.80664661610588, 12.794879586043493], [41.607582733566915, 12.745125789223662], [41.46681192796205, 12.733264396198814], [41.38985676027929, 12.714030306441586], [41.277883551780846, 12.720250479871797], [41.20007746661355, 12.70981321500415], [41.14309237323802, 12.721587626164848], [41.078545449151726, 12.765780862089755], [41.09318727991486, 12.873125467711331], [41.07843429050129, 12.998013067023996], [40.910784908627235, 12.987142403245558], [40.70901283170958, 12.993319183344138], [40.62281944402152, 12.943660151183321], [40.627705651125204, 12.8428370512913], [40.6138446347492, 12.75791458400594], [40.62220454431653, 12.715818213551321], [40.64642479542377, 12.661602791054612], [40.67316540730371, 12.645993964432755], [40.6833546300114, 12.50409634065914], [40.70883506576463, 12.469179226387338], [40.74985602833311, 12.449160691463591], [40.7259048838463, 12.382386730277466], [40.72687470548799, 12.354629165404873], [40.716074138163854, 12.316572594484208], [40.7266525230221, 12.052805743281011], [40.710201493523165, 11.970823089768993], [40.68907073607957, 11.94452554840268], [40.597397960118, 11.900740036620236], [40.51011547363778, 11.881592317940857], [40.32574036454016, 11.863325159679283], [40.15767554853546, 11.826489512639066], [40.09160352253147, 11.792092969756109], [40.05067219216317, 11.760186040089707], [40.0160109734217, 11.71816996015833], [39.99498633185207, 11.681964826926643], [40.016159039475724, 11.646362622618096]]]}}]}