{"type": "FeatureCollection", "features": [{"type": "Feature", "properties": {"slug": "semey", "members": 1, "country": "Kazakhstan", "input_hash": "d7f1e79e2fbe2a5d"}, "geometry": {"type": "Polygon", "coordinates": [[[80.2212173, 50.4642636], [80.1474938, 50.478952], [80.1274108, 50.4722011], [80.1232909, 50.4653722], [80.136423, 50.4585969], [80.1401996, 50.4333452], [80.1109634, 50.4306116], [80.1079969, 50.409493], [80.1091289, 50.3954423], [80.1374839, 50.3848293], [80.1385688, 50.3676385], [80.1619147, 50.3612874], [80.2005532, 50.3350193], [80.2508353, 50.3362576], [80.266714, 50.3513756], [80.2929782, 50.3329157], [80.3119039, 50.3511565], [80.3220748, 50.3462273], [80.3260132, 50.3623582], [80.343275, 50.3684597], [80.3967475, 50.3759047], [80.450993, 50.3655158], [80.4604285, 50.3745827], [80.4582739, 50.3808885], [80.4272033, 50.3776032], [80.4302289, 50.3830316], [80.3984641, 50.3942385], [80.3892596, 50.4076145], [80.3674993, 50.4128796], [80.3565787, 50.4378281], [80.3037435, 50.4689894], [80.2212173, 50.4642636]]]}}]}