{"type":"FeatureCollection","features":[{"type":"Feature","properties":{"slug":"sept-iles","member_count":1,"matched_count":1,"unmatched":["[recovered via metro-name fallback: Sept-\u00celes]"],"source":"Overture Maps division_area (CC-BY 4.0)"},"geometry":{"type":"MultiPolygon","coordinates":[[[[-66.4226369,50.1108636],[-66.3815375,50.1035711],[-66.3940547,50.0939756],[-66.4226369,50.1108636]]],[[[-66.366529,50.1386743],[-66.3485725,50.1322624],[-66.345535,50.1262635],[-66.366529,50.1386743]]],[[[-66.2830645,50.156157],[-66.2734267,50.1372283],[-66.3080653,50.1254466],[-66.29245,50.1575248],[-66.2830645,50.156157]]],[[[-66.3612712,50.1715797],[-66.3510213,50.1523395],[-66.3596889,50.1451136],[-66.3774676,50.1528702],[-66.3721307,50.1754516],[-66.3612712,50.1715797]]],[[[-66.3028188,50.1593282],[-66.3114435,50.1644601],[-66.3061684,50.1718487],[-66.2900109,50.1650837],[-66.3028188,50.1593282]]],[[[-65.9540707,50.2813497],[-65.9543121,50.2818091],[-65.9536254,50.2817611],[-65.9540707,50.2813497]]],[[[-65.9549558,50.281905],[-65.9547198,50.2816582],[-65.9549934,50.2816925],[-65.9549558,50.281905]]],[[[-65.9503846,50.2869046],[-65.9523004,50.2811303],[-65.9542584,50.2832899],[-65.9503846,50.2869046]]],[[[-66.2093556,50.2094012],[-66.3170153,50.2032803],[-66.364703,50.1850972],[-66.4054009,50.2156522],[-66.3866144,50.2287472],[-66.3936833,50.2284194],[-66.4100697,50.2575543],[-66.4084583,50.2619198],[-66.4045036,50.2614789],[-66.4032476,50.2622538],[-66.403496,50.2635241],[-66.4597929,50.27102],[-66.4715613,50.2560558],[-66.528911,50.2304326],[-66.5409969,50.2110638],[-66.5330709,50.1844113],[-66.5141226,50.1600796],[-66.4263134,50.163939],[-66.424164,50.1500284],[-66.4476999,50.147512],[-66.4580727,50.1336014],[-66.4523256,50.1269798],[-66.4719591,50.1274838],[-66.5044708,50.1462289],[-66.5238886,50.1419113],[-66.5217869,50.148207],[-66.534321,50.1512731],[-66.5960216,50.1420219],[-66.5827282,50.146673],[-66.5966935,50.152671],[-66.6185134,50.1326482],[-66.6811087,50.117436],[-66.7240265,50.0782762],[-66.7253004,50.2121001],[-66.6641586,50.2120428],[-66.4176766,50.3441291],[-66.2492547,50.2577952],[-66.2492544,50.3439345],[-66.31198,50.3438799],[-66.31206,50.4936123],[-65.5463794,50.4937749],[-65.5488236,50.4703291],[-65.5270981,50.44456],[-65.5314792,50.4160167],[-65.5131903,50.376823],[-65.5148012,50.3678966],[-65.5435644,50.3592815],[-65.5435349,50.2719349],[-65.591341,50.2760358],[-65.6142477,50.2709364],[-65.6105073,50.2672602],[-65.6219954,50.2715015],[-65.6218079,50.2652363],[-65.6869995,50.2604511],[-65.6873657,50.2534178],[-65.7032046,50.2548181],[-65.7030569,50.2595404],[-65.7045361,50.2631569],[-65.7038506,50.2581695],[-65.7397462,50.2569777],[-65.7444001,50.2642216],[-65.738525,50.2706359],[-65.7471322,50.272367],[-65.7501285,50.2557089],[-65.8061083,50.2608771],[-65.7967945,50.2759923],[-65.8091354,50.2620677],[-65.8226282,50.2679722],[-65.8103923,50.2539325],[-65.8256781,50.2492437],[-65.8456102,50.2531043],[-65.8446766,50.2621559],[-65.8604318,50.2601179],[-65.8596907,50.2677391],[-65.8735206,50.2680004],[-65.8692976,50.2708152],[-65.8701313,50.2752882],[-65.8790601,50.2665781],[-65.9159572,50.2846448],[-65.9328309,50.2856817],[-65.9445134,50.2806322],[-65.9503478,50.29107],[-65.9550919,50.2828406],[-65.9750101,50.281462],[-66.0009393,50.265978],[-66.0586034,50.1999019],[-66.064384,50.2011441],[-66.0499999,50.2140584],[-66.0844879,50.21508],[-66.0955956,50.2250155],[-66.03466,50.25],[-66.0769627,50.245603],[-66.1046759,50.2324541],[-66.1126255,50.2215569],[-66.1103164,50.2058391],[-66.0932226,50.1942693],[-66.0695519,50.1987784],[-66.0785761,50.1910802],[-66.1547373,50.1906094],[-66.1758964,50.2044475],[-66.1759273,50.2157108],[-66.2096726,50.2279589],[-66.2093556,50.2094012]],[[-66.3767353,50.2421144],[-66.388408,50.2530529],[-66.400855,50.2505303],[-66.3837966,50.2357783],[-66.3767353,50.2421144]]],[[[-65.9466088,50.2803762],[-65.9464532,50.2792003],[-65.9471077,50.2792757],[-65.9466088,50.2803762]]],[[[-65.9506428,50.2801328],[-65.9507608,50.2812709],[-65.9496236,50.2805716],[-65.9506428,50.2801328]]],[[[-65.9457344,50.2806298],[-65.9452784,50.2811166],[-65.9451389,50.2807875],[-65.9457344,50.2806298]]],[[[-65.9430093,50.2809246],[-65.9426016,50.2812297],[-65.9424084,50.2809315],[-65.9430093,50.2809246]]],[[[-65.9279684,50.2829385],[-65.9279469,50.2827637],[-65.9281186,50.2828151],[-65.9279684,50.2829385]]],[[[-65.9284919,50.2822132],[-65.9311292,50.283014],[-65.9313375,50.2836433],[-65.9284919,50.2822132]]],[[[-65.9288624,50.2833944],[-65.9283553,50.2832877],[-65.928552,50.2828187],[-65.9288624,50.2833944]]],[[[-65.9344367,50.2833716],[-65.9346451,50.283407],[-65.9343875,50.283497],[-65.9344367,50.2833716]]],[[[-65.9350879,50.2835465],[-65.9350041,50.2833691],[-65.9351308,50.2834292],[-65.9350879,50.2835465]]]]}}]}