{"type": "FeatureCollection", "features": [{"type": "Feature", "properties": {"slug": "sete-lagoas", "members": 1, "country": "Brazil", "input_hash": "cc6529b648086697"}, "geometry": {"type": "Polygon", "coordinates": [[[-44.4575221, -19.405735], [-44.44655, -19.421161], [-44.4362948, -19.4167596], [-44.4209089, -19.4310748], [-44.4138497, -19.4251917], [-44.4091576, -19.4346695], [-44.3934169, -19.4321828], [-44.3809582, -19.4588107], [-44.358743, -19.4663628], [-44.3587491, -19.4793286], [-44.345732, -19.477031], [-44.34, -19.497], [-44.327, -19.494], [-44.307, -19.525], [-44.313, -19.533], [-44.307, -19.568], [-44.3150027, -19.5923032], [-44.294, -19.582], [-44.272, -19.585], [-44.243, -19.577], [-44.223, -19.6], [-44.214, -19.598], [-44.222, -19.58], [-44.207, -19.529], [-44.181, -19.525], [-44.183, -19.514], [-44.166, -19.501], [-44.163, -19.478], [-44.17, -19.469], [-44.162, -19.454], [-44.148, -19.449], [-44.149, -19.427], [-44.128099, -19.432517], [-44.137616, -19.386547], [-44.153475, -19.370871], [-44.152596, -19.339708], [-44.163307, -19.338504], [-44.156137, -19.311787], [-44.145964, -19.309755], [-44.161, -19.292], [-44.234, -19.307], [-44.251, -19.315], [-44.272, -19.34], [-44.281, -19.318], [-44.294, -19.318], [-44.309, -19.33], [-44.298, -19.365], [-44.2996949, -19.403888], [-44.337712, -19.401786], [-44.351644, -19.385679], [-44.3685712, -19.4039], [-44.3991179, -19.413948], [-44.412417, -19.402219], [-44.4441931, -19.398238], [-44.4575221, -19.405735]]]}}]}