{"type": "FeatureCollection", "features": [{"type": "Feature", "properties": {"slug": "sfantu-gheorghe", "members": 1, "country": "Romania", "input_hash": "9b0ba92885d7d8cf"}, "geometry": {"type": "Polygon", "coordinates": [[[25.700131, 45.8577149], [25.7879703, 45.8311446], [25.79177, 45.8247323], [25.7811421, 45.8151019], [25.7901982, 45.810283], [25.7890532, 45.7994839], [25.8242112, 45.797227], [25.8149619, 45.8176175], [25.8258405, 45.8227247], [25.8238579, 45.8316651], [25.8504743, 45.8359679], [25.8586112, 45.8660834], [25.8292465, 45.8673219], [25.8296289, 45.8796794], [25.8074995, 45.8866], [25.7981427, 45.8812773], [25.7770611, 45.8890005], [25.7718313, 45.8832972], [25.7454245, 45.885542], [25.7206011, 45.893635], [25.7178378, 45.9024937], [25.6748388, 45.8946558], [25.700504, 45.881894], [25.700131, 45.8577149]]]}}]}