{"type": "FeatureCollection", "features": [{"type": "Feature", "properties": {"slug": "shahr-e-babak", "members": 1, "country": "Iran", "input_hash": "8ffdc82d468a1356"}, "geometry": {"type": "Polygon", "coordinates": [[[55.7572978, 30.1951307], [55.6667392, 30.3229097], [55.5464576, 30.297077], [55.5000649, 30.294298], [55.4383958, 30.3165215], [55.3953398, 30.3223504], [55.3306141, 30.3181818], [55.3139443, 30.3254092], [55.4933985, 30.5237484], [55.3139445, 30.568193], [55.2792217, 30.5968007], [55.2692217, 30.6120793], [55.2628319, 30.6512466], [55.2747785, 30.6993044], [55.1697733, 30.7479142], [55.0708781, 30.8273655], [54.9917092, 30.8784785], [54.9455966, 30.965147], [54.9480966, 31.0290358], [54.9153171, 31.0284762], [54.7116966, 31.0659818], [54.5267527, 31.0183671], [54.5529555, 30.7027299], [54.5645818, 30.6536253], [54.5630785, 30.5968009], [54.5285794, 30.5318068], [54.3703076, 30.3933113], [54.3976017, 30.3429544], [54.433479, 30.3118387], [54.480686, 30.2787857], [54.4987105, 30.2778963], [54.5301245, 30.2587708], [54.5346499, 30.0800877], [54.5519335, 29.9720507], [54.5422453, 29.9109498], [54.5672034, 29.8461532], [54.5882766, 29.6134398], [54.6339164, 29.595708], [54.7033308, 29.6127149], [54.7350874, 29.6128698], [54.8046432, 29.5905904], [54.8713788, 29.52631], [54.9748991, 29.3963843], [55.0866766, 29.4280284], [55.1458101, 29.472112], [55.1688004, 29.5252434], [55.1594058, 29.5768641], [55.1813586, 29.6220952], [55.2584133, 29.6724219], [55.238385, 29.7101176], [55.2822777, 29.7345592], [55.4283957, 29.7909479], [55.5028411, 29.8348376], [55.5895133, 29.9101195], [55.6797954, 29.952065], [55.6722956, 30.0453961], [55.8314701, 30.102899], [55.8323033, 30.1154032], [55.7572978, 30.1951307]]]}}]}