{"type":"FeatureCollection","features":[{"type":"Feature","properties":{"slug":"shangrao","member_count":12,"matched_count":12,"unmatched":[],"source":"Overture Maps division_area (CC-BY 4.0)"},"geometry":{"type":"MultiPolygon","coordinates":[[[[117.9911443,27.9953262],[117.9670269,27.9671566],[117.9365703,27.9786069],[117.8942067,27.9483931],[117.8619718,27.9411283],[117.8496605,27.9487532],[117.8091859,27.9234027],[117.7804327,27.8967803],[117.7825999,27.8580676],[117.7354359,27.8036644],[117.7126303,27.8168236],[117.6991725,27.8371882],[117.6719256,27.8281802],[117.645185,27.8562085],[117.5989437,27.8714793],[117.5987291,27.8894599],[117.5811767,27.9089925],[117.5788808,27.9430808],[117.5723362,27.9477439],[117.5608134,27.939934],[117.5579595,27.9625468],[117.5278759,27.9767793],[117.5233698,27.9863297],[117.5063109,27.9778594],[117.5000446,27.9572179],[117.4719202,27.9334904],[117.4564139,27.9463484],[117.4425241,27.9357277],[117.427722,27.9386079],[117.4281889,27.9486184],[117.4425775,27.9601159],[117.447714,28.0026101],[117.4675286,28.0234511],[117.4578189,28.0646055],[117.4420893,28.0900143],[117.4446414,28.1031174],[117.4117922,28.1212874],[117.4025499,28.1155028],[117.3657123,28.1208916],[117.3698642,28.1278028],[117.3538478,28.1398436],[117.3200865,28.1315399],[117.3210839,28.1479808],[117.3139026,28.1519891],[117.2850982,28.1478267],[117.2667092,28.1569715],[117.2676386,28.1701401],[117.281391,28.1777465],[117.2700461,28.186884],[117.2778649,28.225237],[117.2921254,28.2325939],[117.2973025,28.2483304],[117.28259,28.278356],[117.2551489,28.2830681],[117.2517987,28.309772],[117.2779393,28.3112766],[117.282486,28.333874],[117.3214078,28.3497986],[117.3168643,28.3591781],[117.3245265,28.3868414],[117.3045329,28.4002714],[117.3295921,28.445271],[117.3151233,28.4630459],[117.3232336,28.4651932],[117.3241972,28.4803072],[117.3106544,28.493572],[117.3185741,28.4958029],[117.302305,28.5362014],[117.3103004,28.5412898],[117.2985617,28.5468477],[117.285453,28.5758655],[117.276792,28.5778461],[117.2720554,28.6067522],[117.2351534,28.6274853],[117.2259358,28.6242279],[117.2333245,28.6298057],[117.2216036,28.6294415],[117.2127204,28.598857],[117.2050329,28.5954104],[117.2017446,28.6021708],[117.1986688,28.5931258],[117.1481028,28.5655687],[117.1229098,28.5726255],[117.1234432,28.5819227],[117.0839018,28.5923295],[117.0772223,28.602237],[117.0759948,28.5958776],[117.0725039,28.6067426],[117.0523931,28.610608],[117.0350074,28.5961379],[117.0484998,28.5742946],[117.0490676,28.5519976],[117.0286578,28.5295875],[117.0056464,28.5187335],[116.9990841,28.4997137],[116.9969253,28.5097174],[116.9845096,28.5097285],[116.9697456,28.5426137],[116.9535141,28.5235053],[116.9503374,28.5307088],[116.9298581,28.5252416],[116.9204281,28.5304038],[116.9141456,28.5198119],[116.9130342,28.5243748],[116.9107833,28.5193317],[116.91068,28.5239508],[116.9061629,28.5251047],[116.9090169,28.5150296],[116.9049805,28.5215445],[116.901195,28.5111036],[116.874383,28.5088963],[116.8960239,28.466024],[116.8819945,28.4409983],[116.8575205,28.4257342],[116.8733208,28.4046308],[116.8690144,28.3846503],[116.8232027,28.3840629],[116.8064778,28.3728591],[116.8032115,28.360231],[116.7906938,28.3616058],[116.7850964,28.3497825],[116.7721114,28.372389],[116.7538728,28.3738237],[116.742316,28.4033835],[116.7294452,28.4134905],[116.7125363,28.3892514],[116.688975,28.3821411],[116.6708908,28.3870789],[116.6443319,28.3765111],[116.6280028,28.3910599],[116.6015995,28.3961646],[116.5719368,28.3823024],[116.5633528,28.4038464],[116.5845146,28.4233056],[116.5952536,28.4207227],[116.5800432,28.4324095],[116.5852258,28.4693084],[116.5742517,28.4914764],[116.5540514,28.4944469],[116.5587994,28.5026929],[116.5507623,28.5037019],[116.5482284,28.5147047],[116.5410334,28.5134824],[116.5099934,28.5509921],[116.4737077,28.5752074],[116.454808,28.6241296],[116.4376708,28.6401952],[116.4443373,28.6567008],[116.4352752,28.6733485],[116.4402261,28.7054116],[116.4245472,28.7208789],[116.3831282,28.7337158],[116.3762444,28.7542916],[116.3679653,28.7524644],[116.3655862,28.7612717],[116.3672502,28.7500254],[116.3588523,28.7435567],[116.3475181,28.7581826],[116.3190214,28.7444172],[116.3157621,28.7676542],[116.3015934,28.7858483],[116.2748569,28.7892104],[116.2716063,28.808195],[116.2541779,28.8025709],[116.2373374,28.8079822],[116.2435476,28.8342913],[116.2246609,28.8608833],[116.2439949,28.8764631],[116.2512259,28.869685],[116.2977348,28.8686216],[116.3403715,28.8828022],[116.3683792,28.9393994],[116.3992368,28.9569608],[116.4031443,29.0038411],[116.3972299,29.0188325],[116.4046512,29.0339588],[116.3976996,29.0558549],[116.4235588,29.0417461],[116.462336,28.9958843],[116.4860441,29.003071],[116.48522,28.9676781],[116.4980324,28.9421373],[116.4812541,28.9239344],[116.486735,28.9165078],[116.5116495,28.9199639],[116.5649164,28.9019565],[116.5864914,28.9145402],[116.6118268,28.9041061],[116.62722,28.9112455],[116.6416924,28.8975676],[116.6576585,28.896568],[116.6788226,28.8760785],[116.6820058,28.8813041],[116.6907283,28.8732992],[116.7117016,28.8750069],[116.7251386,28.8649549],[116.7226936,28.8539654],[116.7301754,28.8467694],[116.7207896,28.8355171],[116.7289122,28.8193637],[116.7451152,28.8183981],[116.7530331,28.8077179],[116.7509931,28.7901875],[116.7738025,28.7822192],[116.7842603,28.7914173],[116.7815834,28.8077341],[116.7763424,28.7988826],[116.7730594,28.8036023],[116.7755758,28.81257],[116.7846979,28.8079639],[116.7863316,28.7978476],[116.8103474,28.8127212],[116.8340891,28.8119972],[116.8381367,28.8233565],[116.8175917,28.846736],[116.8151433,28.8579174],[116.8243861,28.8644258],[116.810562,28.8789133],[116.8078113,28.9019383],[116.8296008,28.8919085],[116.8527173,28.8922263],[116.8585248,28.8639391],[116.8723902,28.8572928],[116.8881768,28.8572097],[116.8977534,28.8722483],[116.9127679,28.8764764],[116.95369,28.8502558],[116.9675082,28.8626607],[116.9526421,28.8812995],[116.9589101,28.8896989],[116.9693668,28.8782224],[116.9741668,28.8850083],[116.9741789,28.8707844],[116.9858001,28.8650059],[116.9914955,28.8730247],[116.9935669,28.8620833],[117.0067157,28.8602628],[117.0090616,28.8489965],[117.0058268,28.8506927],[117.0036542,28.8489237],[117.0292666,28.8343523],[117.0400625,28.8062581],[117.0594245,28.8126022],[117.0554266,28.8179845],[117.0791786,28.8163231],[117.0840173,28.8029937],[117.1152718,28.8010676],[117.1177581,28.7827854],[117.1374826,28.8038565],[117.130881,28.7878985],[117.1384082,28.7905647],[117.1444323,28.7778455],[117.1529399,28.7865901],[117.168668,28.7765868],[117.1659661,28.7618457],[117.1714787,28.7654252],[117.1683957,28.7551813],[117.1800335,28.7450318],[117.1897249,28.7510405],[117.1993971,28.7438118],[117.2173048,28.7530141],[117.2317475,28.7501971],[117.227078,28.7455733],[117.2373916,28.7423728],[117.2355158,28.7297471],[117.2431253,28.7223282],[117.2596877,28.7302674],[117.2686644,28.7260853],[117.2759642,28.7412767],[117.2916567,28.7446508],[117.2995068,28.7634871],[117.3193022,28.7661375],[117.3243767,28.7763576],[117.3454794,28.7785303],[117.3647342,28.7687069],[117.3784786,28.7758063],[117.3803225,28.7861594],[117.3968422,28.786555],[117.3936734,28.8029813],[117.3998008,28.8079787],[117.3863263,28.8176382],[117.389525,28.8326633],[117.4130738,28.8271422],[117.4208111,28.8359484],[117.4525184,28.8441392],[117.468436,28.8305125],[117.5065263,28.8297028],[117.512516,28.8102099],[117.5324219,28.8161355],[117.5415666,28.8091219],[117.5455884,28.8187765],[117.5394347,28.8168265],[117.5338745,28.8503618],[117.5557944,28.8984433],[117.5227679,28.909246],[117.5301949,28.9166098],[117.510749,28.9219344],[117.5074929,28.9330409],[117.4884088,28.9466267],[117.4824826,28.9655516],[117.4668186,28.9621155],[117.4514693,28.9731592],[117.4907126,28.9884299],[117.4886342,29.0038344],[117.4781841,29.0072557],[117.4755675,29.0179568],[117.4907883,29.0285359],[117.4836777,29.0348478],[117.4915791,29.0367669],[117.4894488,29.0446477],[117.5181174,29.0576232],[117.4968393,29.0737563],[117.4939827,29.0844199],[117.5093019,29.0968778],[117.5079527,29.1076832],[117.4875755,29.1071918],[117.4771517,29.1249639],[117.4900667,29.1428162],[117.4910067,29.1631698],[117.473738,29.1646148],[117.4584392,29.1523759],[117.4378496,29.1586766],[117.4328058,29.138023],[117.4153356,29.1385862],[117.3804166,29.1592359],[117.3808143,29.1792681],[117.3698995,29.1952195],[117.3835642,29.2191053],[117.3790564,29.2324046],[117.401131,29.2523249],[117.4225884,29.2554333],[117.448344,29.2799621],[117.4241396,29.304959],[117.4283189,29.3182049],[117.487558,29.3494519],[117.4794713,29.401788],[117.5109375,29.410635],[117.5027123,29.427699],[117.5066243,29.4404536],[117.520517,29.4475466],[117.5177384,29.4384707],[117.5296551,29.4330107],[117.5463477,29.4554658],[117.5730113,29.4641431],[117.5661,29.4708938],[117.5725859,29.4905705],[117.5916416,29.4727224],[117.6091364,29.4948068],[117.6106567,29.5039737],[117.5978754,29.5040971],[117.604456,29.5107548],[117.6107023,29.506196],[117.6179141,29.5152463],[117.6238329,29.5076557],[117.6337702,29.5093459],[117.650876,29.5380329],[117.6604104,29.5299719],[117.6785901,29.5307551],[117.7103661,29.5629708],[117.7249781,29.5494722],[117.7505069,29.563222],[117.7812548,29.5611866],[117.8067555,29.5786589],[117.8377346,29.5573569],[117.8527815,29.5610805],[117.8884288,29.5461103],[117.9287022,29.561032],[117.9405816,29.552147],[117.9540787,29.5715352],[117.9713401,29.5699587],[117.9793006,29.5602858],[117.9954734,29.577628],[118.0134711,29.5771043],[118.0323337,29.5695831],[118.051823,29.541496],[118.0964242,29.5397773],[118.1381064,29.4938041],[118.121316,29.4773744],[118.1345554,29.4418061],[118.1275172,29.4276548],[118.1449945,29.4148858],[118.1860957,29.4080061],[118.1856211,29.3932952],[118.2031799,29.3799132],[118.198235,29.3704043],[118.203979,29.3504463],[118.1616561,29.3166413],[118.174123,29.3017755],[118.1620963,29.2942952],[118.1648868,29.2844945],[118.1089413,29.2957138],[118.0972308,29.2864268],[118.0666268,29.290661],[118.079198,29.2226775],[118.0430594,29.2202192],[118.0361139,29.2129733],[118.022407,29.1709614],[118.0384611,29.1603494],[118.0332087,29.1282887],[118.0484658,29.1156032],[118.0355322,29.1111134],[118.0321151,29.0970614],[118.0703728,29.0776412],[118.0723368,29.066076],[118.0604179,29.0525378],[118.0676758,29.0390477],[118.0825782,29.0335556],[118.0911988,29.0015627],[118.1024683,29.0140427],[118.1053555,29.0062825],[118.094589,28.993128],[118.1049031,28.9942635],[118.1082416,29.0120483],[118.1224115,29.018647],[118.1272035,29.0110861],[118.1201559,28.9977107],[118.1285386,28.9863681],[118.1399637,28.9791731],[118.149989,28.9903421],[118.1752646,28.9839342],[118.1940401,28.957371],[118.2228161,28.9476505],[118.188719,28.9165028],[118.1897936,28.9067307],[118.2506653,28.9266185],[118.2643354,28.9219036],[118.2827032,28.8664553],[118.3000463,28.8436963],[118.2898379,28.8381985],[118.2952237,28.8284614],[118.3286709,28.8171112],[118.3525425,28.818211],[118.3692312,28.806841],[118.3784419,28.7902937],[118.3734691,28.7877056],[118.3801639,28.7582681],[118.3912522,28.7579013],[118.382256,28.7491726],[118.3955008,28.7378185],[118.3863437,28.7353067],[118.3968633,28.717332],[118.3871967,28.7135306],[118.3856249,28.7034761],[118.406986,28.7010199],[118.4142548,28.6948887],[118.4126508,28.6828416],[118.4278643,28.679392],[118.4274673,28.6545633],[118.4168243,28.649465],[118.4287977,28.6289282],[118.4178972,28.61175],[118.4080481,28.6113544],[118.4083378,28.5985865],[118.415848,28.6003763],[118.4205097,28.5893028],[118.4103978,28.5863777],[118.4126509,28.576033],[118.4038693,28.5671949],[118.410548,28.5544546],[118.4231865,28.5506756],[118.4152579,28.547575],[118.4237981,28.5191329],[118.4338135,28.5250529],[118.4405834,28.5156449],[118.4339073,28.5056833],[118.4093544,28.5008477],[118.4328506,28.4962276],[118.4473828,28.4748911],[118.4521195,28.4856112],[118.4674242,28.4860037],[118.4773269,28.4731216],[118.4613919,28.4627163],[118.4648681,28.4542082],[118.4578514,28.4587807],[118.4614348,28.4522085],[118.4448803,28.4214054],[118.4521759,28.4192729],[118.4349454,28.415265],[118.4251821,28.4014612],[118.430906,28.4048657],[118.4529698,28.3831887],[118.4693635,28.3453878],[118.4667993,28.336096],[118.4730756,28.3371348],[118.4646535,28.3305385],[118.4751892,28.330614],[118.473419,28.3370592],[118.4764123,28.3383293],[118.4821093,28.3317945],[118.4562039,28.3043918],[118.3680296,28.2688385],[118.3601546,28.2574232],[118.3453703,28.2535485],[118.3388471,28.2378215],[118.3096855,28.2255396],[118.3344698,28.1975862],[118.3705186,28.1897189],[118.374381,28.1698967],[118.3541405,28.1539509],[118.3634102,28.1324569],[118.3517372,28.1276126],[118.3471023,28.0896832],[118.3041012,28.0926362],[118.2696831,28.0858971],[118.2495129,28.0720577],[118.2381677,28.0790422],[118.2212872,28.0630906],[118.1948528,28.0533139],[118.1489762,28.0652055],[118.1325397,28.0610777],[118.115631,28.0450951],[118.1241712,28.0201698],[118.100439,28.0203213],[118.0887709,28.0045565],[118.0898604,27.969392],[118.069261,27.9708702],[118.0629739,27.9836994],[118.0394885,27.9818921],[118.0289528,27.9914989],[118.001444,27.9837159],[117.9911443,27.9953262]],[[116.7442041,28.7840397],[116.7157888,28.8048573],[116.7019028,28.8021971],[116.6939556,28.7884037],[116.7095173,28.7842794],[116.7285979,28.7655772],[116.7431124,28.773357],[116.7442041,28.7840397]]],[[[116.650182,29.0198777],[116.6632283,29.0231801],[116.6548169,29.0264823],[116.6609967,29.0480194],[116.6838706,29.0703397],[116.6854584,29.04937],[116.7028284,29.0372514],[116.7211103,29.0416038],[116.7194366,29.0501954],[116.7313349,29.0536844],[116.7407548,29.0379456],[116.7497671,29.0380206],[116.7528141,29.0525401],[116.7706454,29.0594294],[116.7709458,29.0695708],[116.7771041,29.0679954],[116.784668,29.0816387],[116.8142527,29.0587535],[116.7971134,29.0553632],[116.7969632,29.0354223],[116.7741537,29.0143704],[116.7538689,29.0209609],[116.7184794,28.9985952],[116.6938541,28.972554],[116.68594,28.9495555],[116.669981,28.9491403],[116.6365475,28.9796869],[116.6381606,28.9981957],[116.6438396,28.9863623],[116.6627866,28.9824617],[116.6460407,28.9893916],[116.6399251,29.0011853],[116.6489116,29.0031672],[116.650182,29.0198777]]],[[[118.1840564,29.3011892],[118.1794367,29.2969083],[118.1795532,29.3023245],[118.1840564,29.3011892]]]]}}]}