{"type":"FeatureCollection","features":[{"type":"Feature","properties":{"slug":"shanghai","member_count":38,"matched_count":37,"unmatched":["Ji\u0101ngy\u012bn Sh\u00ec (CN-JS, type='County-level City')"],"source":"Overture Maps division_area (CC-BY 4.0)"},"geometry":{"type":"MultiPolygon","coordinates":[[[[118.6013576,30.8854686],[118.613449,30.9018427],[118.6052066,30.9133907],[118.6187947,30.9310415],[118.6443588,30.906358],[118.6323897,30.8904303],[118.638481,30.8726199],[118.6192533,30.8845847],[118.6013576,30.8854686]]],[[[119.2504254,31.0218233],[119.2752761,31.037211],[119.2990565,31.0286291],[119.304496,31.037142],[119.3022762,31.0511355],[119.2858547,31.0633701],[119.2897546,31.0730286],[119.3005854,31.0711586],[119.2920077,31.066435],[119.3207395,31.0455347],[119.3009126,31.0269742],[119.3102306,31.0245654],[119.3008482,31.0202119],[119.3032998,31.0146629],[119.271639,31.0234989],[119.2675486,31.0115986],[119.2504254,31.0218233]]],[[[119.2785725,31.0764608],[119.2760164,31.0805659],[119.2796481,31.0871034],[119.2695844,31.09243],[119.2764401,31.0968215],[119.2875337,31.0869082],[119.2793101,31.0768054],[119.2899585,31.0767273],[119.3023717,31.0893521],[119.3162119,31.0832421],[119.3025327,31.0768605],[119.2785725,31.0764608]]],[[[119.2526221,31.1101877],[119.2485774,31.11983],[119.2561412,31.1211733],[119.243288,31.1297422],[119.2470056,31.1433425],[119.2611408,31.1359687],[119.2526221,31.1101877]]],[[[119.2991745,31.1568606],[119.3000731,31.1648686],[119.3121162,31.1545928],[119.2991745,31.1568606]]],[[[119.2579302,31.165564],[119.2424646,31.1620731],[119.2294103,31.1704731],[119.2482233,31.1724514],[119.2579302,31.165564]]],[[[119.2832529,31.1838657],[119.2643863,31.1695964],[119.2662102,31.1790146],[119.2466301,31.1835123],[119.2652392,31.1832966],[119.2622405,31.1964487],[119.2657033,31.1977703],[119.2752197,31.1828583],[119.2832529,31.1838657]]],[[[119.2129952,31.2678495],[119.2091381,31.2664694],[119.2087465,31.2692939],[119.2129952,31.2678495]]],[[[119.9138966,31.1727497],[119.8788482,31.1632345],[119.8218567,31.1775965],[119.8078233,31.1662824],[119.8271137,31.1632115],[119.8029014,31.1502269],[119.7936103,31.1603173],[119.7835144,31.1565439],[119.7889218,31.1691306],[119.7754571,31.182404],[119.7605762,31.1825784],[119.7608283,31.1757813],[119.7460869,31.1713475],[119.709861,31.1723068],[119.6982095,31.153413],[119.6690726,31.168986],[119.6365052,31.1501971],[119.633351,31.1364049],[119.6462792,31.1437695],[119.6477061,31.1332458],[119.629097,31.1351606],[119.6225014,31.1244498],[119.6186471,31.1322586],[119.6091789,31.1314275],[119.5987719,31.1175131],[119.6060783,31.1051217],[119.5867342,31.1140687],[119.5854038,31.1054248],[119.5794708,31.1170447],[119.5705229,31.1124888],[119.5659351,31.1306791],[119.528321,31.1605399],[119.5035803,31.1574459],[119.48547,31.166746],[119.478786,31.1533877],[119.4708037,31.1605032],[119.4550216,31.1584375],[119.4461703,31.1750171],[119.4253564,31.1785144],[119.4230872,31.1875325],[119.413324,31.1750125],[119.4047892,31.1841227],[119.3943018,31.1826128],[119.381926,31.1703079],[119.3895757,31.1950583],[119.402461,31.1937689],[119.4029224,31.1971738],[119.3901819,31.2009731],[119.3744194,31.189707],[119.3578345,31.2000324],[119.3625498,31.2246375],[119.3561447,31.2384352],[119.3759716,31.2670425],[119.3646634,31.2720679],[119.356606,31.3020217],[119.3486506,31.304593],[119.3424493,31.3019942],[119.3468374,31.2858403],[119.3355989,31.2772488],[119.3426585,31.25977],[119.336704,31.2674369],[119.3323266,31.2619046],[119.2980427,31.2715635],[119.2686295,31.256161],[119.2475635,31.2670746],[119.2357457,31.2554869],[119.2063057,31.2772763],[119.2001581,31.2685419],[119.1940856,31.2675744],[119.1954803,31.2962256],[119.1805807,31.303454],[119.2130354,31.3570315],[119.2001769,31.3603617],[119.1916823,31.3761914],[119.1812164,31.3843938],[119.1673788,31.3838785],[119.1616523,31.3989488],[119.1669202,31.4138907],[119.1580582,31.4279353],[119.1658848,31.4355793],[119.1610569,31.4445637],[119.1486704,31.4392798],[119.1348516,31.4490166],[119.1508447,31.4718609],[119.1514706,31.482391],[119.1417718,31.4883701],[119.180004,31.5034143],[119.1941607,31.5265318],[119.1935706,31.5328601],[119.173041,31.5306105],[119.1797626,31.5520892],[119.1927552,31.5533418],[119.2092347,31.571543],[119.2304349,31.6270432],[119.2452621,31.6350501],[119.2589736,31.6297153],[119.2576625,31.6372923],[119.2960578,31.6567285],[119.3116951,31.6745854],[119.3258191,31.70715],[119.3150012,31.7201014],[119.3262544,31.7293317],[119.3004969,31.737644],[119.3079267,31.7442272],[119.2994103,31.7604165],[119.3023589,31.7784859],[119.314853,31.7874183],[119.3096526,31.8151816],[119.3256698,31.838337],[119.323394,31.849269],[119.3319508,31.8590557],[119.3579552,31.8612578],[119.3648166,31.847242],[119.381351,31.8491516],[119.3941933,31.8354083],[119.4351979,31.8281345],[119.428832,31.8528072],[119.4106446,31.8586215],[119.4212104,31.8693759],[119.417661,31.8736277],[119.4475173,31.8895393],[119.5025335,31.8540401],[119.5458536,31.8558785],[119.5540732,31.8666104],[119.5549628,31.8571668],[119.5672722,31.8574247],[119.5712864,31.8482867],[119.5842098,31.8507705],[119.5850529,31.8345636],[119.6024583,31.8237902],[119.5974232,31.8149874],[119.6045926,31.8006307],[119.6391517,31.8002374],[119.6503163,31.775583],[119.6818694,31.7723897],[119.6903828,31.7566458],[119.7021028,31.7521367],[119.7017602,31.740945],[119.7388059,31.7323932],[119.729299,31.7429997],[119.7352151,31.773436],[119.7539085,31.7879293],[119.7593918,31.8100411],[119.7863765,31.8113413],[119.7809983,31.8204886],[119.8066871,31.8543309],[119.7655067,31.8499493],[119.7598237,31.8757867],[119.7485714,31.8856808],[119.7781187,31.9044736],[119.7770202,31.9228585],[119.7871137,31.9284963],[119.7631638,31.956682],[119.7799142,32.0136033],[119.7716229,32.0186611],[119.7947564,32.0572489],[119.8274339,32.0541729],[119.8392273,32.0620891],[119.8546748,32.0536395],[119.8658116,32.0611029],[119.877554,32.0417123],[119.8931807,32.0489309],[119.9102022,32.0073975],[119.9495202,32.0036809],[119.9648153,32.0164068],[120.0143275,31.973056],[120.0018116,31.9382011],[120.0147022,31.9189913],[119.9983971,31.911198],[119.9939152,31.8967244],[120.0107487,31.8807279],[119.9972168,31.8570592],[119.9861853,31.8558923],[120.0009113,31.8386135],[120.0013135,31.8270569],[120.0145327,31.8241523],[120.0214464,31.8340744],[120.0403791,31.8241369],[120.080249,31.8550804],[120.1403949,31.8595912],[120.1478868,31.8719041],[120.171405,31.8710778],[120.1806546,31.8631191],[120.1792494,31.8542481],[120.1584591,31.8329633],[120.1665669,31.8181177],[120.1768886,31.8155564],[120.1622056,31.8054998],[120.1921538,31.7772984],[120.202363,31.7276696],[120.2714987,31.7259629],[120.2773169,31.7035665],[120.3268284,31.7009013],[120.3588293,31.6831086],[120.3624964,31.6941325],[120.4084984,31.7092253],[120.4155183,31.7018004],[120.4574594,31.7185894],[120.4981605,31.7141143],[120.4994394,31.7292376],[120.5122947,31.7376111],[120.533055,31.7248042],[120.5759285,31.7276986],[120.5955718,31.7466214],[120.591924,31.7630972],[120.5794906,31.7648301],[120.5842687,31.7753723],[120.5698223,31.7938196],[120.5337311,31.7895837],[120.5188126,31.8005582],[120.5267573,31.8327949],[120.5124872,31.8345737],[120.5043286,31.8472916],[120.4989253,31.842644],[120.4960623,31.8431266],[120.4865941,31.8758948],[120.4622461,31.8788455],[120.4594129,31.8929114],[120.4398596,31.8907894],[120.3744939,31.915473],[120.3866604,31.9316045],[120.3787891,31.9428581],[120.3668909,31.9442191],[120.3653115,31.9927112],[120.3958654,32.0176099],[120.4525938,32.0439117],[120.4884073,32.0444257],[120.5431387,32.014969],[120.5938078,32.0027025],[120.6478429,31.9970124],[120.740776,32.0061837],[120.7801415,31.9994077],[120.8034587,31.9730133],[120.867609,31.8565142],[120.9015123,31.8153581],[120.9559433,31.7913209],[121.0551095,31.7843811],[121.0959542,31.7655101],[121.2203973,31.8481077],[121.2811657,31.8702691],[121.3055416,31.8714353],[121.3709448,31.849128],[121.4090395,31.8047066],[121.4062215,31.7973397],[121.4179763,31.7796469],[121.4468572,31.7630682],[121.4948928,31.7551539],[121.5958025,31.7049619],[121.8740838,31.6340915],[121.9228356,31.682018],[122.0196526,31.7018827],[122.3844852,31.7018827],[122.4463927,31.5361284],[123.225706,30.9493475],[122.7783959,30.9493475],[122.6815789,30.9240222],[122.4247735,30.8774768],[122.1720879,30.8656896],[121.9599145,30.7772393],[121.8431847,30.7140949],[121.3506882,30.6693672],[121.2743559,30.6800638],[121.2609285,30.7070865],[121.2669316,30.7356319],[121.2281174,30.7580176],[121.214379,30.7882971],[121.1950207,30.7854178],[121.1925383,30.7755526],[121.1863347,30.783206],[121.1700676,30.7745597],[121.1225684,30.7808669],[121.1234778,30.8121549],[121.1329901,30.826979],[121.1329801,30.8326851],[121.1137892,30.8369816],[121.1193249,30.8495751],[121.1085532,30.8563049],[121.0611432,30.850254],[121.0446587,30.828045],[121.0360382,30.8294474],[121.0367015,30.8171735],[121.0071568,30.8375048],[120.9997326,30.8285268],[120.9852005,30.8304891],[120.9934938,30.8467528],[121.0104749,30.8565415],[121.0169591,30.8806035],[120.9862156,30.8981476],[121.0006835,30.9108859],[120.9945412,30.9140385],[120.9965958,30.9399876],[120.9875044,30.9705558],[120.9981984,30.9807825],[120.9864932,30.996639],[120.9869538,31.0157185],[120.959014,31.0187707],[120.9503934,31.0323318],[120.9442672,31.0315642],[120.9457505,31.0197798],[120.9317977,31.0193339],[120.935542,31.0114998],[120.8930142,31.0197373],[120.8850575,30.9990624],[120.8808155,31.0034616],[120.8614836,30.9920337],[120.8031173,31.0083722],[120.7695472,31.0035491],[120.7623826,30.993035],[120.7655208,30.9803698],[120.7414466,30.96525],[120.7247954,30.973419],[120.704298,30.9739204],[120.6983042,30.9667835],[120.6923981,30.9719516],[120.6783862,30.9580116],[120.6929174,30.9522246],[120.7063294,30.932122],[120.7087354,30.8879222],[120.6944396,30.8842857],[120.6971459,30.8709186],[120.6867061,30.8726407],[120.6801779,30.8869934],[120.6630815,30.8645434],[120.6547425,30.8678473],[120.6511071,30.8494055],[120.6405443,30.8580171],[120.6045892,30.8508284],[120.581831,30.8572828],[120.5532236,30.8362939],[120.5458502,30.816412],[120.4994927,30.7603818],[120.4835482,30.7659996],[120.4745843,30.7797194],[120.4721756,30.8082943],[120.4613445,30.8081005],[120.4538531,30.8178079],[120.4520238,30.8499223],[120.4355729,30.8605432],[120.4486258,30.8705434],[120.4286548,30.8919545],[120.4316324,30.9258529],[120.4131037,30.9277028],[120.4195439,30.9028461],[120.3750069,30.8928629],[120.3608529,30.8822849],[120.3491504,30.9118579],[120.3654171,30.9506246],[120.2458575,30.9286521],[120.1311368,30.9446541],[120.1044153,30.9583948],[120.1015305,30.9678995],[120.0483249,31.0081285],[119.9898943,31.0347496],[119.9813462,31.0610817],[119.943409,31.1068119],[119.9364027,31.1444557],[119.9138966,31.1727497]],[[119.4400978,31.1771031],[119.4406745,31.1773876],[119.4401622,31.1778443],[119.4400978,31.1771031]],[[119.4259143,31.1891157],[119.4249004,31.1888541],[119.4270784,31.189079],[119.4259143,31.1891157]],[[120.6507879,31.2791102],[120.6676268,31.2617418],[120.6667683,31.2785749],[120.6761536,31.2909629],[120.6824186,31.2725014],[120.733661,31.2312711],[120.7424845,31.2417232],[120.7615095,31.2424669],[120.7728231,31.2687666],[120.8001199,31.2701444],[120.7941413,31.2813384],[120.8042479,31.295632],[120.8420133,31.2851527],[120.8598127,31.3126809],[120.8465409,31.3672875],[120.8342028,31.3692571],[120.8382475,31.376086],[120.8268911,31.3710319],[120.8188605,31.376686],[120.816307,31.39929],[120.8256841,31.4376894],[120.7539616,31.4213117],[120.7217538,31.3884741],[120.7036261,31.3908793],[120.645901,31.3484144],[120.6453645,31.3382524],[120.6353599,31.3382318],[120.6507879,31.2791102]]],[[[119.1935062,31.3711625],[119.1925031,31.3692021],[119.1906792,31.3702327],[119.1922992,31.3715197],[119.1935062,31.3711625]]],[[[120.670175,32.9730976],[120.6690766,32.9852545],[120.6860389,32.985214],[120.6861167,32.9945223],[120.6886279,32.9852421],[120.6979224,32.985151],[120.7044281,33.003878],[120.6840936,33.0039849],[120.6797766,33.0123269],[120.7006811,33.021742],[120.7013476,33.0113491],[120.711312,33.0129168],[120.7200024,33.0038207],[120.7184641,32.9756144],[120.7275018,32.9942693],[120.7522666,32.99415],[120.7412987,32.9661963],[120.7131547,32.9568792],[120.7130366,32.943055],[120.6949171,32.9329479],[120.6922898,32.9548153],[120.6883295,32.9477216],[120.6781344,32.9522946],[120.6871842,32.9663851],[120.670175,32.9730976]]],[[[120.5695373,33.3691136],[120.5996601,33.4100395],[120.6583857,33.3930025],[120.6636502,33.3313858],[120.6831989,33.2887887],[120.7164253,33.2764407],[120.7318914,33.2568189],[120.6237813,33.2465519],[120.6448141,33.2088824],[120.5834748,33.2056058],[120.577076,33.2885844],[120.5347925,33.2860311],[120.5340549,33.2952606],[120.5244158,33.2925317],[120.5235918,33.303307],[120.5333538,33.3039427],[120.5321406,33.3171604],[120.499677,33.327082],[120.4977372,33.3334071],[120.515693,33.3411515],[120.4969819,33.3422127],[120.501119,33.34907],[120.488972,33.3481912],[120.4885223,33.3526242],[120.5001947,33.3554978],[120.4873104,33.3588928],[120.5055141,33.357963],[120.5081239,33.3650724],[120.4996991,33.3648585],[120.5165606,33.3658918],[120.5120866,33.3812626],[120.5251778,33.3985953],[120.5352463,33.3991937],[120.53314,33.4237379],[120.5514605,33.4248136],[120.5459851,33.4339127],[120.564603,33.4431436],[120.5695373,33.3691136]]]]}}]}