{"type": "FeatureCollection", "features": [{"type": "Feature", "properties": {"slug": "shchyokino", "members": 1, "country": "Russia", "input_hash": "f35c977dd24ae4bc"}, "geometry": {"type": "Polygon", "coordinates": [[[37.6858513, 53.8041849], [37.6691746, 53.8248167], [37.6943159, 53.8332059], [37.6962424, 53.8440685], [37.684692, 53.8473555], [37.6984356, 53.8549929], [37.6902197, 53.8691156], [37.6957882, 53.8787314], [37.6748045, 53.8846493], [37.6791595, 53.89167], [37.7077622, 53.8909013], [37.7207428, 53.8999838], [37.6689847, 53.9127604], [37.6735423, 53.9224964], [37.6584171, 53.9287377], [37.6631618, 53.943329], [37.6452725, 53.9617507], [37.686999, 53.9896286], [37.7041324, 53.9882165], [37.7177276, 54.0040624], [37.694006, 54.008456], [37.6868952, 54.0211188], [37.681689, 54.013889], [37.6553928, 54.0238142], [37.6310054, 54.0218547], [37.6057984, 54.0499836], [37.5508567, 54.0695252], [37.535606, 54.0836784], [37.5077454, 54.0871768], [37.4598219, 54.0745247], [37.4569167, 54.0568146], [37.446395, 54.0532963], [37.4234933, 54.0574599], [37.4169499, 54.0521593], [37.3835527, 54.0891418], [37.3236157, 54.0540338], [37.245305, 54.069257], [37.1462549, 54.0680432], [37.1452566, 54.0605071], [37.1094601, 54.0520006], [37.0640495, 54.0555041], [37.0122219, 54.0331242], [37.0147449, 54.0203081], [36.9786619, 54.0093014], [37.0004564, 54.0035213], [37.0034588, 53.9924129], [37.0016823, 53.9757593], [36.9879407, 53.972748], [36.99576, 53.964146], [36.9870616, 53.9489379], [36.9911667, 53.9440721], [37.0486866, 53.9362069], [37.0508534, 53.9241746], [37.039367, 53.9175414], [37.0405629, 53.9035082], [37.0733049, 53.910182], [37.1102761, 53.8825051], [37.1009706, 53.859643], [37.0820207, 53.858036], [37.0712028, 53.8394574], [37.0617581, 53.8383778], [37.0687284, 53.8328805], [37.0923211, 53.817442], [37.0977562, 53.8243916], [37.1193044, 53.8237795], [37.1649742, 53.8090738], [37.2296534, 53.8170834], [37.2303575, 53.8259713], [37.2648744, 53.8324038], [37.2698907, 53.8194209], [37.3393312, 53.8072902], [37.3502315, 53.7911108], [37.3327479, 53.7747965], [37.3195674, 53.772936], [37.3499944, 53.757428], [37.3393978, 53.729499], [37.3454471, 53.7371947], [37.3743171, 53.7388256], [37.3793689, 53.7243861], [37.4146185, 53.7295963], [37.4514097, 53.7203081], [37.4387119, 53.7127408], [37.4837914, 53.7082881], [37.4787862, 53.6949008], [37.5569747, 53.6970291], [37.5619407, 53.7049395], [37.5543637, 53.7195441], [37.5608656, 53.7273897], [37.5895354, 53.7302368], [37.6217378, 53.7488591], [37.669082, 53.737768], [37.6828147, 53.7507361], [37.7099487, 53.7496463], [37.7226308, 53.7931824], [37.7074957, 53.8029877], [37.6858513, 53.8041849]]]}}]}