{"type":"FeatureCollection","features":[{"type":"Feature","properties":{"slug":"shijiazhuang","member_count":22,"matched_count":21,"unmatched":["J\u012dngx\u00edngku\u00e0ng Q\u016b [J\u012dngx\u00edng Mining District] (CN-HE, type='District')"],"source":"Overture Maps division_area (CC-BY 4.0)"},"geometry":{"type":"MultiPolygon","coordinates":[[[[113.9016808,22.559343],[113.8913554,22.5441233],[113.8830955,22.5433398],[113.9016808,22.559343]]],[[[106.5179777,29.6591278],[106.5240494,29.6667007],[106.5295553,29.6651053],[106.5251048,29.650933],[106.5179777,29.6591278]]],[[[114.4551531,37.5743407],[114.4596577,37.5704134],[114.4300398,37.5515772],[114.4042508,37.5477379],[114.3676507,37.5292533],[114.3613442,37.5120146],[114.3469294,37.5180888],[114.3230549,37.4999542],[114.3039102,37.4989714],[114.2945631,37.5074587],[114.2785101,37.500855],[114.2795852,37.4922702],[114.2084121,37.50996],[114.1780059,37.5306822],[114.1441085,37.534433],[114.1582981,37.5255022],[114.1483879,37.5219296],[114.1546944,37.5139799],[114.1443338,37.512372],[114.148951,37.5047786],[114.124626,37.4976312],[114.1193598,37.4831342],[114.0952099,37.4975733],[114.0615973,37.4445246],[114.0257632,37.4466741],[114.0229171,37.4736573],[114.0301124,37.4862581],[114.0482975,37.5097231],[114.0616129,37.5113284],[114.0723565,37.5391065],[114.0886651,37.5459298],[114.0839859,37.5682205],[114.0993392,37.5696544],[114.1223384,37.6023139],[114.1181653,37.6112998],[114.0992772,37.6158706],[114.1112771,37.6357673],[114.1323845,37.6466293],[114.1330316,37.6763797],[114.1251693,37.6937669],[114.1103456,37.7082086],[114.0962193,37.7078757],[114.0939799,37.7163947],[114.064393,37.7147703],[114.0364593,37.7287967],[114.0260675,37.7255543],[114.0236841,37.7133373],[114.0111949,37.7198985],[113.9923149,37.7095108],[113.9860133,37.7131757],[113.9942625,37.7429519],[114.0366912,37.7516983],[114.0365993,37.7873491],[114.0042043,37.8033586],[114.0095043,37.8133101],[113.9671039,37.816802],[113.9594435,37.825616],[113.9631369,37.8474437],[113.9559459,37.8567109],[113.9701509,37.8630639],[113.9562588,37.9024568],[113.945947,37.916056],[113.9253696,37.9209577],[113.9154134,37.937224],[113.9210772,37.9488255],[113.9002496,37.966893],[113.9024098,37.9778304],[113.8554596,37.9997729],[113.8694715,38.0026135],[113.8747287,38.0284279],[113.8656191,38.0457389],[113.872384,38.0553249],[113.8495314,38.0653783],[113.8534238,38.0705529],[113.8276546,38.1001927],[113.8055415,38.1093953],[113.8161771,38.1311044],[113.8149115,38.15136],[113.8296912,38.1481739],[113.8219355,38.1545476],[113.828055,38.1656138],[113.7892923,38.1596856],[113.7458379,38.1711078],[113.722829,38.1677865],[113.7171495,38.1731889],[113.7348228,38.1854969],[113.7256582,38.1943314],[113.7119823,38.1933942],[113.7064045,38.2115963],[113.6781453,38.2047984],[113.644546,38.2345331],[113.6211218,38.228904],[113.613422,38.2368845],[113.6094307,38.231839],[113.5679507,38.2389909],[113.5589422,38.23208],[113.5572706,38.2467834],[113.5349205,38.2648612],[113.5372771,38.3040148],[113.546055,38.3244368],[113.5572048,38.3289046],[113.5564876,38.3394637],[113.5407089,38.3556727],[113.5303753,38.3553882],[113.5178952,38.3825947],[113.5265119,38.3927323],[113.527444,38.4196653],[113.5576155,38.4233929],[113.562737,38.4500483],[113.5847604,38.460274],[113.548509,38.4889703],[113.551203,38.505676],[113.5406101,38.5160664],[113.5548371,38.5308739],[113.548319,38.5552484],[113.6036207,38.5938957],[113.5945922,38.6169605],[113.614957,38.6504955],[113.661858,38.6520771],[113.6686869,38.6441195],[113.701099,38.6539449],[113.7133111,38.6705557],[113.7040076,38.7129949],[113.7160114,38.7159983],[113.7463869,38.6986043],[113.7544237,38.7063156],[113.7634285,38.7020085],[113.766445,38.7267552],[113.7941324,38.763587],[113.8387355,38.7564382],[113.8545868,38.7455664],[113.8776357,38.7462017],[113.9259614,38.7136965],[113.9231256,38.7019741],[113.9601481,38.6978824],[113.9880482,38.6759412],[114.0060243,38.6859147],[114.0169847,38.6806484],[114.0469046,38.6853443],[114.0607265,38.6697304],[114.0723362,38.6705142],[114.0802984,38.6571059],[114.119008,38.6573241],[114.1216631,38.6676904],[114.1389916,38.6777279],[114.1759318,38.6715352],[114.1818011,38.6832085],[114.2124054,38.6928076],[114.249997,38.6922622],[114.258242,38.70186],[114.3057755,38.7009107],[114.3092409,38.7102629],[114.3262787,38.7069954],[114.3329206,38.6926844],[114.3386961,38.6956145],[114.3537125,38.6822028],[114.3860555,38.6884018],[114.3909647,38.7027136],[114.4066278,38.7026101],[114.4179725,38.6926783],[114.4530773,38.6995111],[114.487667,38.6791782],[114.500686,38.6544663],[114.5284581,38.649422],[114.5338953,38.6249179],[114.5489117,38.6057388],[114.5454464,38.5952445],[114.5245101,38.5827171],[114.5758581,38.5903088],[114.6243838,38.5136026],[114.6868004,38.4506549],[114.6857612,38.4362759],[114.6500827,38.4161948],[114.6466188,38.4043198],[114.6568374,38.3892528],[114.6428951,38.3781202],[114.6297322,38.3851801],[114.599596,38.3661032],[114.5728372,38.3787991],[114.5649568,38.3587698],[114.5296247,38.3591772],[114.5136906,38.3709238],[114.4990556,38.3606712],[114.4992288,38.3523865],[114.5135811,38.3555913],[114.5216994,38.3447244],[114.5385923,38.3443897],[114.5352431,38.3257184],[114.5245666,38.3187249],[114.5410785,38.3026166],[114.5660683,38.3081226],[114.5737029,38.2804814],[114.5912067,38.2783226],[114.5995288,38.2685689],[114.6042688,38.2830838],[114.6325549,38.2809863],[114.6335925,38.2940255],[114.6410949,38.2946782],[114.6312446,38.313341],[114.644524,38.3215861],[114.6579956,38.3025594],[114.6807747,38.2941016],[114.6844487,38.3015984],[114.6982577,38.298566],[114.7116845,38.3081575],[114.7364586,38.3055171],[114.7547479,38.3125291],[114.7576542,38.30323],[114.7807032,38.3010901],[114.8666149,38.2546683],[114.8801664,38.2638987],[114.90598,38.2574279],[114.9222254,38.2796242],[114.984148,38.269438],[114.9859414,38.251795],[115.0301417,38.2633089],[115.0382644,38.251795],[115.0586239,38.2613211],[115.0578855,38.2771399],[115.0499738,38.2836817],[115.0545098,38.2972604],[115.0643204,38.29428],[115.0697004,38.2778024],[115.0861568,38.2860002],[115.0852074,38.262315],[115.0934356,38.2583391],[115.1242387,38.2614039],[115.1376359,38.2462444],[115.1470245,38.2562682],[115.1601053,38.2569309],[115.1908029,38.2336505],[115.2006134,38.2322419],[115.2109514,38.2446703],[115.216807,38.2782648],[115.2425955,38.2854517],[115.2581159,38.2851095],[115.2609498,38.2697937],[115.2533201,38.2691947],[115.2541921,38.2616639],[115.2655275,38.2548171],[115.2660725,38.2373547],[115.295719,38.232646],[115.3182446,38.2475592],[115.3156651,38.2187749],[115.3452026,38.2048155],[115.3334312,38.184514],[115.3457476,38.1767174],[115.337464,38.1461227],[115.3400798,38.1384934],[115.3588269,38.1366074],[115.3618788,38.1191167],[115.2764606,38.1258029],[115.2769636,38.1337168],[115.2669029,38.1352995],[115.2608665,38.1261986],[115.2197852,38.1321341],[115.2110659,38.1222414],[115.1919505,38.1338487],[115.1839019,38.1272538],[115.1599239,38.1338487],[115.0834624,38.1226371],[115.0801088,38.1509925],[115.0863129,38.1517837],[115.0896832,38.1685123],[115.0841917,38.1706215],[115.0776523,38.1616569],[115.0570711,38.1617079],[115.0573177,38.1508549],[115.0353035,38.1421327],[115.0217532,38.1165431],[114.9748286,38.0869132],[114.980647,38.0544231],[114.9663182,38.0085059],[114.9770955,37.9956709],[114.9719518,37.979262],[114.9779527,37.9699942],[114.9707271,37.957925],[114.975136,37.9526139],[114.9628891,37.9488476],[114.9755034,37.9202563],[114.9590926,37.9047969],[114.9752584,37.8808284],[114.9965679,37.8774451],[114.9958331,37.8522106],[115.0153965,37.8443581],[115.0134995,37.8237567],[115.0236962,37.8205723],[115.0270161,37.8029621],[115.0672194,37.7872654],[115.0659807,37.7432868],[115.0368132,37.7321544],[115.0280292,37.7440882],[115.0043799,37.7536161],[115.0089971,37.7410604],[115.0003257,37.734292],[114.9844469,37.7347373],[114.9827577,37.741951],[114.9569687,37.7192388],[114.9350086,37.7201296],[114.9282517,37.7322435],[114.8999851,37.7277901],[114.8931156,37.7113992],[114.877462,37.7144283],[114.8573038,37.6956285],[114.8440151,37.6952721],[114.8373708,37.6752197],[114.8283615,37.6770915],[114.804487,37.6593521],[114.7928876,37.626715],[114.7763331,37.6291231],[114.7629318,37.6176168],[114.7213766,37.6211848],[114.7000923,37.6127997],[114.6922092,37.5840689],[114.6994166,37.5719308],[114.6882676,37.5713952],[114.6857901,37.563183],[114.6375905,37.5501487],[114.5965403,37.5591688],[114.5985148,37.5446614],[114.5886675,37.5432418],[114.5079699,37.5832657],[114.4551531,37.5743407]],[[113.9869814,38.0175312],[114.0077448,38.0025527],[114.0054528,38.0171594],[114.0187332,38.0173718],[114.0207556,38.0266655],[113.9868466,38.0276213],[113.9869814,38.0175312]],[[114.0736675,38.0799134],[114.0915185,38.1034119],[114.083557,38.1173396],[114.0747729,38.1194184],[114.0676948,38.1107194],[114.0324428,38.119099],[113.9930992,38.0967076],[113.9817404,38.0641627],[114.0005661,38.055767],[114.0094898,38.0385113],[114.0444446,38.0225556],[114.0638846,38.0299139],[114.073263,38.0522616],[114.0685474,38.0707076],[114.102451,38.0766901],[114.0736675,38.0799134]],[[114.1040128,38.1369253],[114.088408,38.1332704],[114.0877665,38.1188526],[114.0964397,38.1227561],[114.1040128,38.1369253]]],[[[117.7855114,33.1114489],[117.7659968,33.0982654],[117.7658277,33.0875569],[117.8187007,33.0803169],[117.8232627,33.0686097],[117.8420229,33.0670637],[117.8404745,33.0605915],[117.8013502,33.0480195],[117.7924275,33.038115],[117.7656054,33.0488533],[117.7311152,33.0039155],[117.7352315,33.0215705],[117.7157598,33.0437355],[117.6725722,33.0442753],[117.6736932,33.0616279],[117.704471,33.0768815],[117.6978286,33.0900617],[117.6834564,33.0913453],[117.6964743,33.1275315],[117.7236398,33.1231766],[117.7557271,33.1346297],[117.7762853,33.1317516],[117.7863233,33.1271478],[117.7855114,33.1114489]]],[[[114.6000235,38.2911589],[114.6075745,38.2989884],[114.6081972,38.2914096],[114.6000235,38.2911589]]],[[[114.5650579,38.3139066],[114.5606629,38.3247557],[114.5755407,38.3255877],[114.5750046,38.3201196],[114.5650579,38.3139066]]]]}}]}