{"type": "FeatureCollection", "features": [{"type": "Feature", "properties": {"slug": "shillong", "members": 1, "country": "India", "input_hash": "2db3c9ea5526d111"}, "geometry": {"type": "Polygon", "coordinates": [[[92.0982593, 25.4902336], [92.1147618, 25.5437549], [92.1080716, 25.5629334], [92.1218979, 25.58345], [92.122344, 25.6048585], [92.1406304, 25.6271591], [92.1343863, 25.6423235], [92.1571328, 25.6490136], [92.1504771, 25.6704793], [92.138536, 25.6735566], [92.1138167, 25.6469427], [92.0928311, 25.6402303], [92.0651722, 25.6518946], [92.0546148, 25.6816016], [92.027664, 25.6825298], [92.0046615, 25.6491866], [91.9461249, 25.6469429], [91.9252994, 25.6371198], [91.9374055, 25.663929], [91.9287872, 25.6685283], [91.8844986, 25.6421841], [91.863985, 25.6621459], [91.8503379, 25.6592447], [91.8388366, 25.673634], [91.8271636, 25.669534], [91.8051655, 25.6281793], [91.804676, 25.6080171], [91.7691421, 25.5836723], [91.7456674, 25.5796854], [91.7051553, 25.546662], [91.7013788, 25.5298952], [91.6833972, 25.5254805], [91.6703939, 25.5315604], [91.6654157, 25.554638], [91.6471961, 25.552056], [91.6315781, 25.5393556], [91.6071961, 25.5376154], [91.5722465, 25.5135521], [91.5648022, 25.5014167], [91.57907, 25.4870189], [91.5692424, 25.4642382], [91.5712211, 25.4182583], [91.5552527, 25.3944817], [91.5395207, 25.3864982], [91.540299, 25.3742706], [91.5250318, 25.3536898], [91.5269341, 25.3438958], [91.5469873, 25.3359777], [91.5509666, 25.326115], [91.5506004, 25.29311], [91.5435818, 25.2812888], [91.5332128, 25.2775122], [91.4952143, 25.2871871], [91.4816737, 25.263672], [91.4439917, 25.2745175], [91.4228263, 25.2621891], [91.4022099, 25.2643466], [91.3857803, 25.2398647], [91.3734511, 25.2455601], [91.3541071, 25.2335695], [91.3555843, 25.2183777], [91.3868618, 25.1687239], [91.4108126, 25.163878], [91.4144743, 25.1712163], [91.4405445, 25.1497687], [91.4694657, 25.1528975], [91.4720205, 25.1406968], [91.4657588, 25.1357919], [91.471075, 25.1349615], [91.4991202, 25.1366758], [91.4993321, 25.1447662], [91.5101266, 25.1497108], [91.5560668, 25.1511724], [91.5769768, 25.1721183], [91.6112351, 25.1764953], [91.6146066, 25.1697081], [91.5988648, 25.1594246], [91.6016779, 25.143311], [91.6213735, 25.1436043], [91.6230679, 25.1280987], [91.6375288, 25.1227164], [91.6641255, 25.130255], [91.6639271, 25.1366368], [91.6920353, 25.1375774], [91.7040223, 25.1600563], [91.7417082, 25.1431053], [91.7521903, 25.1756664], [91.7753944, 25.1630461], [91.8231131, 25.1766152], [91.879828, 25.1739941], [91.914971, 25.1823904], [91.9781399, 25.1686206], [92.0159277, 25.1836337], [92.0228834, 25.2030022], [92.0095031, 25.2096924], [91.9836344, 25.2569696], [91.9876485, 25.2761481], [92.0041509, 25.2939885], [92.0496441, 25.3207492], [92.1147618, 25.3087069], [92.1218979, 25.3301155], [92.1143158, 25.3390357], [92.1134237, 25.3800688], [92.1033239, 25.4018405], [92.1143158, 25.4117356], [92.0982593, 25.4518766], [92.1116397, 25.4715011], [92.0982593, 25.4902336]]]}}]}