{"type": "FeatureCollection", "features": [{"type": "Feature", "properties": {"slug": "siauliai", "members": 2, "country": "Lithuania", "input_hash": "23f636deedff0825"}, "geometry": {"type": "Polygon", "coordinates": [[[23.3594389, 55.9231817], [23.4185001, 55.8981124], [23.4290094, 55.8861841], [23.4210953, 55.8730298], [23.3855894, 55.8723407], [23.3642397, 55.8805033], [23.3649919, 55.8689417], [23.3430617, 55.870167], [23.3379122, 55.8527559], [23.321343, 55.8414293], [23.2653201, 55.8641022], [23.2710425, 55.8728047], [23.3176561, 55.8909651], [23.3083016, 55.8982472], [23.2954106, 55.9036502], [23.2655467, 55.8821923], [23.2280031, 55.9075864], [23.2379464, 55.9171222], [23.267653, 55.9221275], [23.2581572, 55.9273688], [23.2857468, 55.947742], [23.2718554, 55.9546296], [23.3131026, 55.9700938], [23.3466687, 55.9609968], [23.3592895, 55.9680431], [23.3421873, 55.9562834], [23.3499062, 55.9325705], [23.3671929, 55.9310915], [23.3685079, 55.9233442], [23.3594389, 55.9231817]]]}}]}