{"type": "FeatureCollection", "features": [{"type": "Feature", "properties": {"slug": "siena", "members": 35, "country": "Italy", "input_hash": "5d7adc7a6b9563ad"}, "geometry": {"type": "Polygon", "coordinates": [[[11.5960321, 42.9503906], [11.569872, 42.9708153], [11.5271166, 42.9650868], [11.5286458, 42.9749878], [11.5150052, 42.9811932], [11.4874898, 42.9642902], [11.4562412, 42.9573026], [11.3595964, 42.9655306], [11.3498421, 42.9712736], [11.3775614, 42.9851677], [11.3653331, 42.9939304], [11.3806932, 42.9959448], [11.3705528, 42.998568], [11.3731192, 43.0078704], [11.3621165, 43.0066664], [11.3631791, 43.0222346], [11.3517952, 43.0271499], [11.3642687, 43.0324559], [11.3537776, 43.0402665], [11.3635752, 43.0465773], [11.3592278, 43.0545666], [11.3680996, 43.056921], [11.3667622, 43.0723117], [11.3614584, 43.0832356], [11.3534977, 43.0795784], [11.335027, 43.0903389], [11.3219509, 43.0841196], [11.3089856, 43.088968], [11.2977236, 43.0770194], [11.2419714, 43.0841378], [11.2307942, 43.0920871], [11.2181621, 43.0865202], [11.1749138, 43.0899501], [11.1668972, 43.0783982], [11.1233863, 43.091453], [11.0827962, 43.082994], [11.0612726, 43.1130278], [11.0713445, 43.1229763], [11.0578688, 43.1312331], [11.0605603, 43.1415822], [11.0502412, 43.1445985], [11.0613911, 43.1545504], [11.0591962, 43.1843315], [11.0454368, 43.1805474], [11.0218013, 43.1891437], [11.0124416, 43.177315], [10.9749644, 43.1757712], [10.9424257, 43.1603547], [10.9087977, 43.1639283], [10.9111942, 43.1808166], [10.9414104, 43.2040072], [10.9388526, 43.2276846], [10.927067, 43.2312504], [10.939709, 43.2456591], [10.9895608, 43.2307395], [10.9967218, 43.2394628], [10.9972483, 43.2652499], [10.9897926, 43.2678175], [10.9859984, 43.2873682], [10.9518956, 43.3021527], [10.9540707, 43.3182257], [10.9700514, 43.3136856], [10.9724081, 43.3447084], [10.9971777, 43.3436138], [11.0140065, 43.3652627], [11.0019681, 43.4011716], [10.9789967, 43.4069017], [10.9742653, 43.4262221], [10.9508255, 43.4500615], [10.9611827, 43.4820268], [10.9540931, 43.4952692], [10.9656079, 43.5139505], [11.0342122, 43.5468437], [11.0371363, 43.536936], [11.0720937, 43.527413], [11.0817197, 43.5132631], [11.1112966, 43.4982172], [11.1214399, 43.488233], [11.1197578, 43.4757809], [11.1435865, 43.4800428], [11.1610962, 43.5098468], [11.1833678, 43.5230231], [11.1875111, 43.51525], [11.1966283, 43.5168914], [11.1742012, 43.4894639], [11.2091409, 43.4803188], [11.2464529, 43.498248], [11.2432227, 43.5081964], [11.2530659, 43.5085749], [11.272763, 43.5299047], [11.2696017, 43.5459966], [11.2902381, 43.5334959], [11.2927041, 43.5196621], [11.3072252, 43.5182921], [11.3369753, 43.5288855], [11.3642513, 43.5262261], [11.3826637, 43.5343026], [11.3860957, 43.5471218], [11.4030226, 43.54846], [11.4358871, 43.5119486], [11.4613367, 43.5102501], [11.4595295, 43.499776], [11.5014532, 43.4605427], [11.513514, 43.4686942], [11.5289405, 43.456548], [11.5516899, 43.4589534], [11.5322886, 43.3906629], [11.5646081, 43.3744431], [11.5666644, 43.3621502], [11.6246482, 43.3433437], [11.6580243, 43.3217013], [11.6767236, 43.2860604], [11.7100433, 43.279832], [11.7186376, 43.2547863], [11.7494262, 43.233715], [11.7748326, 43.2380759], [11.7880029, 43.234553], [11.7958575, 43.2220796], [11.8338218, 43.2243783], [11.8482381, 43.1887306], [11.8878478, 43.1563413], [11.9034459, 43.1745975], [11.9192806, 43.1676993], [11.9303796, 43.1766764], [11.9615158, 43.1670678], [11.9284119, 43.152533], [11.9123518, 43.1284024], [11.9306861, 43.0934814], [11.922504, 43.0815106], [11.936341, 43.0561478], [11.9485319, 43.0557636], [11.9562523, 43.0687663], [11.9713085, 43.0642781], [11.9827957, 43.049902], [11.9489837, 42.9783101], [11.9566736, 42.953854], [11.9349717, 42.9270894], [11.9332247, 42.9048162], [11.9566551, 42.9005511], [11.9593484, 42.868682], [11.9292765, 42.8686403], [11.9131233, 42.8502088], [11.8920337, 42.8434469], [11.895013, 42.834662], [11.8494174, 42.8385895], [11.815297, 42.8236335], [11.8067739, 42.794484], [11.790119, 42.8135765], [11.7697921, 42.8204794], [11.7460488, 42.7857809], [11.7030123, 42.7994219], [11.6612309, 42.7882148], [11.6401276, 42.7994799], [11.6238596, 42.7986282], [11.6224851, 42.805021], [11.6318098, 42.8081934], [11.6371473, 42.8517714], [11.6197002, 42.8812182], [11.6271843, 42.9145401], [11.6213984, 42.9136638], [11.6240423, 42.928114], [11.610546, 42.9509039], [11.5960321, 42.9503906]]]}}]}