{"type": "FeatureCollection", "features": [{"type": "Feature", "properties": {"slug": "singapore", "members": 55, "country": "Singapore", "input_hash": "d67db242e708dbab"}, "geometry": {"type": "MultiPolygon", "coordinates": [[[[103.741222, 1.1597542], [103.7412661, 1.1599761], [103.741322, 1.1599727], [103.741222, 1.1597542]]], [[[103.7412563, 1.1611195], [103.7406955, 1.1586877], [103.7410921, 1.1611159], [103.7412563, 1.1611195]]], [[[103.7426362, 1.1642523], [103.7423463, 1.1636988], [103.7417424, 1.16534], [103.7426362, 1.1642523]]], [[[103.7285044, 1.1729129], [103.7329479, 1.1759657], [103.7414524, 1.1738893], [103.7396477, 1.1671464], [103.7285044, 1.1729129]]], [[[103.7309479, 1.1890898], [103.7193665, 1.1800243], [103.7173757, 1.1872173], [103.7309479, 1.1890898]]], [[[103.7309313, 1.2073569], [103.7317038, 1.2062692], [103.7311213, 1.207018], [103.7309313, 1.2073569]]], [[[103.7215121, 1.213545], [103.7336516, 1.203474], [103.7070763, 1.2048363], [103.7136853, 1.2111756], [103.7215121, 1.213545]]], [[[103.7272345, 1.2119341], [103.7258494, 1.2123642], [103.7272594, 1.2120221], [103.7272345, 1.2119341]]], [[[103.7075877, 1.216333], [103.707309, 1.2162071], [103.7061855, 1.2171977], [103.7075877, 1.216333]]], [[[103.7522795, 1.2244108], [103.7529125, 1.2257194], [103.7539163, 1.2240274], [103.7512802, 1.2233538], [103.7522795, 1.2244108]]], [[[103.7468722, 1.2242499], [103.7503329, 1.2261143], [103.7504311, 1.2234504], [103.7468722, 1.2242499]]], [[[103.7422926, 1.2313665], [103.7574249, 1.2365875], [103.7590487, 1.2318833], [103.7707981, 1.2274011], [103.7422926, 1.2313665]]], [[[103.7100255, 1.2695463], [103.7048543, 1.2655439], [103.7141163, 1.2590508], [103.6964001, 1.2509091], [103.684963, 1.26839], [103.680145, 1.2630694], [103.6904409, 1.2400858], [103.6715981, 1.2232104], [103.6766937, 1.2287411], [103.6538729, 1.2728714], [103.6955119, 1.2906441], [103.6840829, 1.2763658], [103.6884616, 1.2723096], [103.7113394, 1.2966262], [103.7401867, 1.2736803], [103.7259616, 1.2713171], [103.7336126, 1.2661056], [103.7237324, 1.2691989], [103.7321586, 1.2651403], [103.7230887, 1.2597874], [103.7100255, 1.2695463]]], [[[103.6404044, 1.2790737], [103.6433615, 1.2608616], [103.6173641, 1.2608642], [103.6173833, 1.2539959], [103.6443543, 1.2539721], [103.644321, 1.2479939], [103.6173517, 1.2450108], [103.6173766, 1.2381028], [103.6498592, 1.238064], [103.6498525, 1.2292158], [103.6190563, 1.2291768], [103.6202607, 1.2186628], [103.6396582, 1.2211168], [103.6422446, 1.2101324], [103.6065438, 1.2203722], [103.6057265, 1.2436668], [103.6124575, 1.2463765], [103.6060202, 1.2463953], [103.611983, 1.2556697], [103.6057198, 1.2611211], [103.6103279, 1.2786412], [103.6197228, 1.2837063], [103.6266004, 1.3184628], [103.6225074, 1.3141228], [103.621345, 1.3196569], [103.6615174, 1.3887099], [103.6743687, 1.4250127], [103.7213442, 1.4512338], [103.7229097, 1.448042], [103.7302619, 1.4493738], [103.7374178, 1.4373576], [103.7439571, 1.4463098], [103.7684174, 1.4405105], [103.76897, 1.4525596], [103.8053927, 1.4697255], [103.8182771, 1.471563], [103.8184541, 1.4639199], [103.8275713, 1.4685888], [103.832939, 1.4599834], [103.8371265, 1.4648127], [103.858317, 1.4547017], [103.8550357, 1.4524889], [103.8587501, 1.4424001], [103.8653459, 1.4334788], [103.8546307, 1.4277895], [103.863794, 1.4238229], [103.8757932, 1.4319291], [103.8998362, 1.417597], [103.9131429, 1.4205574], [103.9312676, 1.4031566], [103.92689055102255, 1.398595239943671], [103.9343222, 1.4011806], [103.9492407, 1.3829896], [103.9671295, 1.3810682], [103.9728687, 1.387487], [103.97835232049549, 1.3783757014608657], [103.9762886, 1.392127], [103.9990392, 1.389038], [104.0062057, 1.3699826], [104.0334565, 1.3605488], [104.041388, 1.3548362], [104.0436413, 1.3499992], [104.0326495720317, 1.3585275406781248], [104.02221316186045, 1.332385564969799], [104.0324743, 1.3159048], [104.0229163, 1.3199628], [104.0131983, 1.3098044], [103.9704033, 1.3159948], [103.8818282, 1.2848138], [103.875476, 1.2912795], [103.8811029, 1.2848113], [103.8608496, 1.2647333], [103.851581976456, 1.269232904216167], [103.8512672, 1.2607513], [103.839443, 1.2676396], [103.8066972, 1.2662112], [103.8051087, 1.2622595], [103.795236, 1.2715192], [103.7854677, 1.2550021], [103.7785256, 1.2591831], [103.7865584, 1.2727904], [103.7768424, 1.2786755], [103.770638, 1.2682079], [103.750146, 1.280484], [103.7722997, 1.2836751], [103.75870738052943, 1.299148207828401], [103.7279367, 1.3001075], [103.7127174, 1.3088684], [103.7219279, 1.2994621], [103.7113395, 1.2971629], [103.7098121, 1.3140907], [103.7086886, 1.302048], [103.695124, 1.3078075], [103.6838606, 1.2990801], [103.6811037, 1.3106235], [103.6784339, 1.2965888], [103.6687381, 1.3062925], [103.6743803, 1.2952635], [103.664496, 1.2869247], [103.649821, 1.3016827], [103.6582036, 1.3123173], [103.6447302, 1.3009721], [103.6502577, 1.2835014], [103.6404044, 1.2790737]], [[103.77150924023377, 1.414772412450001], [103.7712663, 1.4215076], [103.7684174, 1.4405105], [103.77150924023377, 1.414772412450001]], [[103.8105272, 1.4404289], [103.81073678139813, 1.441116529224537], [103.7949692, 1.4225662], [103.8105272, 1.4404289]], [[103.8117003, 1.4442778], [103.8165855, 1.4419101], [103.80892373377463, 1.445845604655168], [103.8117003, 1.4442778]], [[103.8231697, 1.4354784], [103.82339766147395, 1.4354687182709789], [103.82107555781582, 1.437664431941828], [103.8231697, 1.4354784]], [[103.8258408569147, 1.4353649535611224], [103.82682289097426, 1.4363979971804122], [103.82419952175256, 1.435434662543071], [103.8258408569147, 1.4353649535611224]], [[103.8024354, 1.416214], [103.8057766, 1.414355], [103.80591312418423, 1.4143861115584575], [103.8024354, 1.416214]], [[103.8145305, 1.3966693], [103.81526786034408, 1.3962692837313297], [103.8057766, 1.414355], [103.8145305, 1.3966693]], [[103.8188225, 1.3943409], [103.8273721, 1.3929478], [103.81719858329858, 1.3952218710269282], [103.8188225, 1.3943409]], [[103.84747842818484, 1.3965317828058077], [103.8426813, 1.3964371], [103.8273721, 1.3929478], [103.84747842818484, 1.3965317828058077]], [[103.8177748, 1.3803085], [103.81783685678086, 1.3802963283802854], [103.8194521, 1.3853498], [103.8177748, 1.3803085]], [[103.8271714983156, 1.3784654614651817], [103.827282, 1.3790936], [103.81859926109522, 1.3801467928218063], [103.8271714983156, 1.3784654614651817]], [[103.8263006, 1.376191], [103.82656699912864, 1.3750292311882109], [103.82694521321555, 1.3771791607905597], [103.8263006, 1.376191]], [[103.82825648928764, 1.3676613505778152], [103.8278269, 1.3722522], [103.82705818291637, 1.372887174611853], [103.82825648928764, 1.3676613505778152]], [[103.8329716, 1.3404207], [103.8359882, 1.3416837], [103.83629567684532, 1.3418962772429934], [103.8329716, 1.3404207]], [[103.8222827, 1.3403824], [103.82195075649744, 1.3399661457647434], [103.82295837529688, 1.3403848210502363], [103.8222827, 1.3403824]], [[103.8140143, 1.3284696], [103.81398329543497, 1.3282723129204743], [103.8147040259923, 1.3295658570027709], [103.8140143, 1.3284696]], [[103.81317125356033, 1.3231051586732092], [103.8133564, 1.3232948], [103.81391556878978, 1.3278413572847303], [103.81317125356033, 1.3231051586732092]], [[103.83525127502168, 1.3173928626107223], [103.8351085, 1.3175482], [103.8133564, 1.3232948], [103.83525127502168, 1.3173928626107223]], [[103.827916, 1.3119978], [103.827901757255, 1.3118456183141318], [103.82798785026554, 1.312049784448162], [103.827916, 1.3119978]], [[103.8235867, 1.3006211], [103.8239076016729, 1.30054923880344], [103.822664, 1.3050544], [103.8235867, 1.3006211]], [[103.8353429, 1.2840691], [103.83506930683004, 1.2872931844563895], [103.8334278, 1.2923695], [103.8353429, 1.2840691]], [[103.84076140326518, 1.276056598632793], [103.8392417, 1.280792], [103.83866383458971, 1.2812777193844433], [103.84076140326518, 1.276056598632793]], [[103.8421545, 1.272589], [103.84157899371797, 1.2742439137680168], [103.8415028330505, 1.2742110836404736], [103.8421545, 1.272589]], [[103.77865006474256, 1.3719181942261192], [103.77285114050193, 1.403601736097491], [103.7744503, 1.3902895], [103.77865006474256, 1.3719181942261192]], [[103.7551295, 1.3888659], [103.7649562, 1.3907663], [103.7533208, 1.3889994], [103.7551295, 1.3888659]], [[103.7618887, 1.3784175], [103.76134389732344, 1.3792596582858436], [103.7632769, 1.3716125], [103.7618887, 1.3784175]], [[103.76744592658864, 1.3646842871276592], [103.7674457, 1.3647956], [103.7632769, 1.3716125], [103.76744592658864, 1.3646842871276592]], [[103.7655639, 1.335369], [103.7641471, 1.3393557], [103.7652677856419, 1.3341782388449637], [103.7655639, 1.335369]], [[103.7372641, 1.346003], [103.7494151, 1.341267], [103.7648578636235, 1.3325298242958652], [103.76493494716769, 1.3328397994375594], [103.7440085, 1.3442978], [103.7372641, 1.346003]], [[103.7521783, 1.3228986], [103.7500709062387, 1.326921299350383], [103.750089, 1.3265255], [103.7521783, 1.3228986]], [[103.74779592733935, 1.3095955022972274], [103.7476252, 1.3137499], [103.7477592, 1.3096102], [103.74779592733935, 1.3095955022972274]], [[103.6519593, 1.3387641], [103.65240902941729, 1.3383128854673194], [103.6517108, 1.3434667], [103.6519593, 1.3387641]], [[103.66700203676561, 1.3271712133167257], [103.66961313477859, 1.3287911836636765], [103.6677215, 1.3279879], [103.66700203676561, 1.3271712133167257]], [[103.6779164, 1.338408], [103.67241955876179, 1.3299829330248936], [103.6794534, 1.3302034], [103.6779164, 1.338408]], [[103.7277232, 1.3538338], [103.7149227, 1.3569535], [103.72793190948191, 1.353662499366836], [103.7277232, 1.3538338]], [[103.7066963, 1.3277666], [103.6793442, 1.3277734], [103.6965083, 1.327763], [103.7066963, 1.3277666]], [[103.6896494173251, 1.3146690010231574], [103.6958747, 1.3152222], [103.6899705, 1.314821], [103.6896494173251, 1.3146690010231574]], [[103.7191817, 1.3258319], [103.7195989, 1.3235886], [103.7210618, 1.3316535], [103.7191817, 1.3258319]], [[103.7382632, 1.3488126], [103.7365165, 1.3544661], [103.73819819659303, 1.3486298019094742], [103.7382632, 1.3488126]], [[103.73749885734671, 1.3573546868802187], [103.7372355, 1.3570743], [103.7365165, 1.3544661], [103.73749885734671, 1.3573546868802187]], [[103.73991854484719, 1.3599308391609486], [103.7512837, 1.3717285], [103.7538098, 1.3762785], [103.7484861, 1.3690524], [103.73991854484719, 1.3599308391609486]], [[103.72806682593267, 1.411347528471481], [103.7185614, 1.411068], [103.7278887, 1.4111746], [103.72806682593267, 1.411347528471481]], [[103.7393286, 1.4222807], [103.74328886353312, 1.4273915316530832], [103.73087479619616, 1.414073566159166], [103.7393286, 1.4222807]], [[103.74228945590663, 1.4079865365514215], [103.74188884749051, 1.4084009219178069], [103.7418838, 1.4082584], [103.74228945590663, 1.4079865365514215]], [[103.7460176, 1.405488], [103.75250520642089, 1.4035620560729198], [103.7524902, 1.40383], [103.7460176, 1.405488]], [[103.73267837218677, 1.3789236394157773], [103.7380424, 1.3740245], [103.73267837218677, 1.3789236394157793], [103.73267837218677, 1.3789236394157773]], [[103.7229999, 1.3708406], [103.7071896, 1.365106], [103.70666920716324, 1.3645126051709113], [103.7229999, 1.3708406]], [[103.74332570723365, 1.4286140027916525], [103.7433876, 1.4306676], [103.7407857, 1.438285], [103.74332570723365, 1.4286140027916525]], [[103.8031164, 1.2787302], [103.80310350844528, 1.2787649437823938], [103.8022091, 1.2726942], [103.8031164, 1.2787302]], [[103.80137322990386, 1.28342818436627], [103.8012621, 1.2832127], [103.80254963688385, 1.2802576724279056], [103.80137322990386, 1.28342818436627]], [[103.8090335, 1.2924669], [103.8030171, 1.2866157], [103.80155973275296, 1.2837898192355108], [103.8090335, 1.2924669]], [[103.8153638, 1.2915227], [103.81677340893263, 1.293900030255746], [103.8165982, 1.2967674], [103.8153638, 1.2915227]], [[103.77892759190064, 1.3130080423060333], [103.77126949932266, 1.3186822202874453], [103.7786825, 1.3130936], [103.77892759190064, 1.3130080423060333]], [[103.78485046599023, 1.3112330474967007], [103.77964366370388, 1.3127580730004775], [103.7847478, 1.3109763], [103.78485046599023, 1.3112330474967007]], [[103.7847912, 1.3150118], [103.78520212689978, 1.312112482429427], [103.7858053, 1.3136209], [103.7847912, 1.3150118]], [[103.8049395, 1.3149034], [103.8048159795958, 1.3145470397964076], [103.806197027747, 1.3159616163025358], [103.8049395, 1.3149034]], [[103.7711869304281, 1.3191876092017436], [103.7711132783617, 1.3215511437235772], [103.7708475, 1.3212652], [103.7711869304281, 1.3191876092017436]], [[103.77210747158145, 1.3112712076011677], [103.7722546, 1.3121231], [103.77222963488978, 1.3122797344428392], [103.77210747158145, 1.3112712076011677]], [[103.76878485464536, 1.2936487997187065], [103.7691022, 1.2938703], [103.76915407393886, 1.2941706567539448], [103.76878485464536, 1.2936487997187065]], [[103.7623143, 1.3013439], [103.7667325, 1.2922163], [103.76698347287305, 1.292391473706383], [103.7623143, 1.3013439]], [[103.79551401345513, 1.348957313343253], [103.8042131, 1.3413525], [103.7964377, 1.3488824], [103.79551401345513, 1.348957313343253]], [[103.78129067156085, 1.3603672150019885], [103.7815813, 1.3590959], [103.7916561, 1.3492702], [103.78129067156085, 1.3603672150019885]], [[103.7893967, 1.3479049], [103.79402382493842, 1.3490781714465618], [103.7916561, 1.3492702], [103.7893967, 1.3479049]], [[103.7892688, 1.3491182], [103.78820896123236, 1.3489321677536699], [103.7893967, 1.3479049], [103.7892688, 1.3491182]], [[103.7873741, 1.3447125], [103.788306, 1.3456928], [103.78724024727624, 1.3446724555188163], [103.7873741, 1.3447125]], [[103.83689990526256, 1.4454510381102676], [103.8330639, 1.4513853], [103.8366941, 1.4456161], [103.83689990526256, 1.4454510381102676]], [[103.8290502, 1.4379738], [103.8303147, 1.4416265], [103.82850230073679, 1.4375861657768914], [103.8290502, 1.4379738]], [[103.8004968, 1.456671], [103.8039949, 1.4486287], [103.80442778560543, 1.4483842685648183], [103.8004968, 1.456671]], [[103.8616705, 1.3305283], [103.8405777, 1.3288461], [103.86197536878, 1.3304115242266923], [103.8616705, 1.3305283]], [[103.84442432707272, 1.310467680302091], [103.8443244, 1.3105562], [103.8395296, 1.3127381], [103.84442432707272, 1.310467680302091]], [[103.8470405, 1.3081412], [103.8487639, 1.3066235], [103.84665015228785, 1.3084959486152934], [103.8470405, 1.3081412]], [[103.86219974509179, 1.301671987292806], [103.8544726, 1.3106179], [103.86219974509179, 1.3016719872928055], [103.86219974509179, 1.301671987292806]], [[103.8688847, 1.3037651], [103.8661532, 1.304364], [103.86867171293409, 1.3034201729637995], [103.8688847, 1.3037651]], [[103.8654334, 1.2980022], [103.86712061372043, 1.2943174330039486], [103.86555595078829, 1.2981797825330565], [103.8654334, 1.2980022]], [[103.8647276, 1.2888499], [103.864706200266, 1.2892509255778464], [103.861608, 1.2885574], [103.8647276, 1.2888499]], [[103.86078994982883, 1.282494152585762], [103.8613095, 1.2834726], [103.861608, 1.2885574], [103.86078994982883, 1.282494152585762]], [[103.8584262, 1.2780426], [103.8587051967689, 1.2785680231106995], [103.85779676900998, 1.2771285324203647], [103.8584262, 1.2780426]], [[103.8387694, 1.2909669], [103.84825222205481, 1.290092514846189], [103.84201610194168, 1.2945338933323518], [103.8387694, 1.2909669]], [[103.8558538, 1.3006323], [103.8523062, 1.296384], [103.84844189955537, 1.2903555076246276], [103.8558538, 1.3006323]], [[103.8594234, 1.2997815], [103.8542219, 1.303052], [103.85447167124576, 1.3026816516432482], [103.8594234, 1.2997815]], [[103.8447689, 1.2813404], [103.84472869696775, 1.2804055632366604], [103.8475825, 1.2795277], [103.8447689, 1.2813404]], [[103.8491879, 1.2818142], [103.84933349379321, 1.2840098836867861], [103.8475825, 1.2795277], [103.8491879, 1.2818142]], [[103.8388948258664, 1.2886490507764359], [103.84022211690416, 1.2891194782394508], [103.8400868, 1.2891911], [103.8388948258664, 1.2886490507764359]], [[103.84133733730101, 1.2885292042547252], [103.84831048654273, 1.284687917604381], [103.8471833, 1.285435], [103.84133733730101, 1.2885292042547252]], [[103.8442691, 1.2995946], [103.84544530374244, 1.3015135301476035], [103.8458523, 1.3047126], [103.8442691, 1.2995946]], [[103.84288858609168, 1.301056261479022], [103.84284079718346, 1.2996807250119], [103.8442691, 1.2995946], [103.84288858609168, 1.301056261479022]], [[103.8348508, 1.3094881], [103.83447621873536, 1.3092389235400579], [103.8358743, 1.3068021], [103.8348508, 1.3094881]], [[103.8336811, 1.3060181], [103.8340933551962, 1.3053126402769653], [103.8358743, 1.3068021], [103.8336811, 1.3060181]], [[103.83561844586602, 1.3046100874638356], [103.8342449005008, 1.3050533127788648], [103.8345714, 1.3044946], [103.83561844586602, 1.3046100874638356]], [[103.8412477, 1.3027936], [103.8392142, 1.3016398], [103.84210323654503, 1.301887774419961], [103.8412477, 1.3027936]], [[103.8421092, 1.2987727], [103.84196605321772, 1.2991300858224901], [103.84023699251347, 1.2986386394253655], [103.8421092, 1.2987727]], [[103.8298277, 1.3044157], [103.837752, 1.2984607], [103.83843937191236, 1.2985099196907781], [103.8298277, 1.3044157]], [[103.8483877, 1.3037726], [103.8486696, 1.3054068], [103.84825378113675, 1.3038248100101522], [103.8483877, 1.3037726]], [[103.8489037, 1.3629438], [103.83994225167861, 1.3649131378232826], [103.84951590242184, 1.3623721869863805], [103.8489037, 1.3629438]], [[103.8609245, 1.3689047], [103.8568629, 1.3555123], [103.8570024897167, 1.3550393759294388], [103.8609245, 1.3689047]], [[103.8412026, 1.3450706], [103.8543041, 1.3432055], [103.85813930764954, 1.343602559458403], [103.8412026, 1.3450706]], [[103.86252171478446, 1.4191405119697125], [103.8620585, 1.4185859], [103.862009467803, 1.4182179411219367], [103.86252171478446, 1.4191405119697125]], [[103.86151524366642, 1.4145090687900101], [103.86092381672384, 1.4100707444319995], [103.8612789, 1.410456], [103.86151524366642, 1.4145090687900101]], [[103.85987635689631, 1.4089342793887292], [103.8550566, 1.4048734], [103.85508954261307, 1.4037407178233632], [103.85987635689631, 1.4089342793887292]], [[103.8567078616469, 1.4012011150468042], [103.85511105177936, 1.4030011575087695], [103.85517942949826, 1.4006500925428764], [103.8567078616469, 1.4012011150468042]], [[103.85293263100272, 1.397782466326289], [103.85230567241344, 1.397392246245757], [103.85267903603997, 1.3974587988656844], [103.85293263100272, 1.397782466326289]], [[103.85646951303252, 1.3966215489610516], [103.85725153356763, 1.3962718106741483], [103.8572073, 1.3965373], [103.85646951303252, 1.3966215489610516]], [[103.85757937938563, 1.3943040841291099], [103.8583558, 1.3776633], [103.8581129, 1.3911019], [103.85757937938563, 1.3943040841291099]], [[103.8472354, 1.4342844], [103.84771018822323, 1.4338674186698237], [103.8471837414554, 1.43438155462806], [103.8472354, 1.4342844]], [[103.84546872908243, 1.4376069917841585], [103.844833, 1.4389548], [103.84469249297545, 1.4390668650893514], [103.84546872908243, 1.4376069917841585]], [[103.8770006, 1.3443101], [103.88461288219783, 1.3410527790084357], [103.88461288219783, 1.341052779008438], [103.8770006, 1.3443101]], [[103.89820641993909, 1.3410368249224915], [103.8958673879922, 1.3376180651902922], [103.8979397, 1.3403567], [103.89820641993909, 1.3410368249224915]], [[103.9158955, 1.3422751], [103.9249705, 1.3485851], [103.92506729303562, 1.3487642199319374], [103.9158955, 1.3422751]], [[103.93044147741152, 1.3587093935020447], [103.9308258, 1.3594206], [103.93040538241976, 1.3707937478096637], [103.93044147741152, 1.3587093935020447]], [[103.93180186175543, 1.3755527100037164], [103.93040481952755, 1.3709822002428806], [103.9318161901097, 1.375547384752968], [103.93180186175543, 1.3755527100037164]], [[103.9347694, 1.3744498], [103.93296832712295, 1.3751191835529009], [103.94508606536603, 1.36783212893712], [103.9347694, 1.3744498]], [[103.95673951260882, 1.3638861603387442], [103.95846539901568, 1.3627956154466079], [103.9577851, 1.3635472], [103.95673951260882, 1.3638861603387442]], [[103.96019957238993, 1.360879725682072], [103.96371568528542, 1.3542479550188966], [103.9620061, 1.3588839], [103.96019957238993, 1.360879725682072]], [[103.96737249002938, 1.3473508242547032], [103.9702559, 1.3419124], [103.97061929936498, 1.3417233444280876], [103.96737249002938, 1.3473508242547032]], [[103.8855185, 1.3012015], [103.88433388024534, 1.303502292667927], [103.8853291, 1.2957765], [103.8855185, 1.3012015]], [[103.8837999, 1.3045394], [103.8760042, 1.3087889], [103.88401244400472, 1.3041265926955805], [103.8837999, 1.3045394]], [[103.9099833, 1.3055473], [103.9050876, 1.3176022], [103.9067062, 1.3133235], [103.9099833, 1.3055473]], [[103.9054706, 1.3284908], [103.90483017246397, 1.3291320543920306], [103.9050876, 1.3176022], [103.9054706, 1.3284908]], [[103.8687432, 1.3278192], [103.86475508732582, 1.3293467914496084], [103.86920000902762, 1.3273261273947632], [103.8687432, 1.3278192]], [[103.89453798714501, 1.4001189325770098], [103.8868209, 1.4012064], [103.87056972468093, 1.400804577499635], [103.89453798714501, 1.4001189325770098]], [[103.89791856065312, 1.399264939629177], [103.8965763, 1.3998317], [103.89588597744438, 1.399928978063147], [103.89791856065312, 1.399264939629177]], [[103.90465158147313, 1.395784513692116], [103.9035834, 1.396873], [103.90241385872238, 1.397366830797063], [103.90465158147313, 1.395784513692116]], [[103.9209379361843, 1.3949524757747678], [103.9199, 1.3943173], [103.91916952676165, 1.3932177111988073], [103.9209379361843, 1.3949524757747678]], [[103.9793348, 1.3723124], [103.97985370559611, 1.3705967902183134], [103.9799457, 1.3706822], [103.9793348, 1.3723124]], [[103.92098433395633, 1.3795731332103855], [103.9211422, 1.3794467], [103.92335628755403, 1.3786915771407864], [103.92098433395633, 1.3795731332103855]], [[103.8764933, 1.3524312], [103.88359960801093, 1.342835316438774], [103.878655, 1.3515338], [103.8764933, 1.3524312]], [[103.87632836835695, 1.370479552006828], [103.8732694, 1.3621848], [103.8760791, 1.368547], [103.87632836835695, 1.370479552006828]], [[103.87664707033154, 1.3729504157302896], [103.8767035, 1.3839304], [103.87660508631444, 1.3840236353150484], [103.87664707033154, 1.3729504157302896]], [[103.87294351794009, 1.3873768405435334], [103.8731097, 1.3873351], [103.8800778, 1.3884449], [103.87294351794009, 1.3873768405435334]], [[103.8908942, 1.3802998], [103.8912094320335, 1.3803024014614433], [103.8800778, 1.3884449], [103.8908942, 1.3802998]], [[103.9050614, 1.380352], [103.90485427286968, 1.3803483566202315], [103.90548257609711, 1.379972063481405], [103.9050614, 1.380352]], [[103.91460622981596, 1.3856501612639822], [103.9174985, 1.3823649], [103.91986711094292, 1.3804679050625395], [103.91460622981596, 1.3856501612639822]], [[103.8991607, 1.3434702], [103.8989661761376, 1.3444372607907613], [103.89875043223694, 1.3424240340046734], [103.8991607, 1.3434702]], [[103.8876759, 1.4041843], [103.8876423388572, 1.404067409091044], [103.8945664, 1.4096824], [103.8876759, 1.4041843]]], [[[103.695506, 1.2996246], [103.6980438, 1.3052837], [103.6994016, 1.3004024], [103.695506, 1.2996246]]], [[[103.6612854, 1.3991159], [103.6619888, 1.3978122], [103.6603133, 1.3970893], [103.6612854, 1.3991159]]], [[[103.6841251, 1.4342327], [103.6852875, 1.4350736], [103.6853554, 1.4334473], [103.6841251, 1.4342327]]], [[[103.7280213, 1.4504978], [103.7231721, 1.4485335], [103.724223, 1.4511258], [103.7280213, 1.4504978]]], [[[103.7808441, 1.2002205], [103.7659175, 1.1897215], [103.7588576, 1.217267], [103.7634618, 1.2080504], [103.7801101, 1.2107239], [103.7808441, 1.2002205]]], [[[103.7937214, 1.2043589], [103.7924481, 1.2108042], [103.8014416, 1.2007823], [103.7937214, 1.2043589]]], [[[103.7888073, 1.2139414], [103.7888502, 1.2131155], [103.7885391, 1.2133515], [103.7888073, 1.2139414]]], [[[103.7859856, 1.2152929], [103.7865006, 1.2158507], [103.7873374, 1.2149282], [103.7859856, 1.2152929]]], [[[103.8325541, 1.2147514], [103.8319226, 1.2169655], [103.8336342, 1.2163165], [103.8325541, 1.2147514]]], [[[103.7697851, 1.2248984], [103.7702357, 1.2254294], [103.7703054, 1.2245981], [103.7697851, 1.2248984]]], [[[103.8253585, 1.2263826], [103.8254041, 1.226457], [103.8253813, 1.2263645], [103.8253585, 1.2263826]]], [[[103.7783051, 1.2272815], [103.760673, 1.2324175], [103.7600265, 1.2399121], [103.7642004, 1.2404758], [103.7783051, 1.2272815]]], [[[103.8282479, 1.2413533], [103.8291733, 1.2407754], [103.8281836, 1.2410147], [103.8282479, 1.2413533]]], [[[103.8221802, 1.247214], [103.8213153, 1.2484652], [103.8226245, 1.2472642], [103.8221802, 1.247214]]], [[[103.81084, 1.2561849], [103.8065464, 1.2598247], [103.848244, 1.2512187], [103.8324734, 1.2378969], [103.8236479, 1.2476865], [103.81084, 1.2561849]]], [[[103.8146585, 1.2496172], [103.8157676, 1.2490608], [103.81481, 1.2493362], [103.8146585, 1.2496172]]], [[[103.8146804, 1.2519076], [103.8148402, 1.2520351], [103.8150187, 1.2520379], [103.8146804, 1.2519076]]], [[[103.8143688, 1.2526841], [103.8142454, 1.2526192], [103.8143138, 1.2527117], [103.8143688, 1.2526841]]], [[[103.8125008, 1.2536598], [103.8129408, 1.2538074], [103.8129707, 1.2529196], [103.8125008, 1.2536598]]], [[[103.8111813, 1.2548371], [103.8115018, 1.2549073], [103.811688, 1.2540619], [103.8111813, 1.2548371]]], [[[103.8109527, 1.2552754], [103.8104728, 1.2547341], [103.8104728, 1.2552947], [103.8109527, 1.2552754]]], [[[103.813476, 1.2630386], [103.8094557, 1.2641033], [103.8119371, 1.2649917], [103.813476, 1.2630386]]], [[[103.8366369, 1.2135254], [103.8364607, 1.2131115], [103.8365386, 1.2135176], [103.8366369, 1.2135254]]], [[[103.8366367, 1.2140415], [103.8333929, 1.2135292], [103.8348416, 1.215533], [103.8366367, 1.2140415]]], [[[103.8516157, 1.2216364], [103.8520055, 1.214113], [103.8433443, 1.2223823], [103.8516157, 1.2216364]]], [[[103.8593172, 1.2196908], [103.8590811, 1.2206883], [103.8594191, 1.2201413], [103.8593172, 1.2196908]]], [[[103.8469297, 1.2229062], [103.8471439, 1.2227666], [103.8467778, 1.2229232], [103.8469297, 1.2229062]]], [[[103.8580135, 1.2247965], [103.8619563, 1.2239974], [103.8619188, 1.220758], [103.8580135, 1.2247965]]], [[[103.8540587, 1.2291662], [103.8582645, 1.2215096], [103.8581047, 1.2179105], [103.8456586, 1.2323809], [103.8581709, 1.2322028], [103.8540587, 1.2291662]]], [[[103.8598535, 1.2254455], [103.8604597, 1.2252202], [103.8595316, 1.2254347], [103.8598535, 1.2254455]]], [[[103.8368544, 1.2313338], [103.8365295, 1.2333888], [103.839684, 1.2286323], [103.8368544, 1.2313338]]], [[[103.8454442, 1.2321289], [103.8454573, 1.2321553], [103.8454692, 1.2321164], [103.8454442, 1.2321289]]], [[[103.8455026, 1.2379966], [103.8461477, 1.2377244], [103.845571, 1.2379269], [103.8455026, 1.2379966]]], [[[103.845052, 1.2383975], [103.8450359, 1.2384618], [103.8451338, 1.2384176], [103.845052, 1.2383975]]], [[[103.8450131, 1.2385383], [103.8446148, 1.2386361], [103.8448575, 1.2386791], [103.8450131, 1.2385383]]], [[[103.8263996, 1.2578295], [103.8361342, 1.2638392], [103.8424912, 1.2578976], [103.8363807, 1.2547801], [103.8263996, 1.2578295]]], [[[103.8607976, 1.221836], [103.8613931, 1.2212139], [103.8607601, 1.2217931], [103.8607976, 1.221836]]], [[[104.042501, 1.327532], [104.0332504, 1.3281047], [104.0336312, 1.3345566], [104.044851, 1.33799], [104.042501, 1.327532]]], [[[104.0270406, 1.4117999], [104.0139386, 1.4088895], [104.0103372, 1.4250694], [104.0377455, 1.4406786], [104.0815944, 1.4180712], [104.088229, 1.3981047], [104.0745771, 1.3615437], [104.0839005, 1.3385883], [104.023617, 1.3863805], [104.0156082, 1.4016237], [104.0288269, 1.4029269], [104.0270406, 1.4117999]]], [[[103.9531125, 1.4030523], [103.9499878, 1.4021158], [103.9455914, 1.407637], [103.9531125, 1.4030523]]], [[[103.9877155, 1.4050888], [103.987588, 1.405471], [103.9905644, 1.404925], [103.9877155, 1.4050888]]], [[[103.9341981, 1.4178389], [103.9262291, 1.4223085], [103.9342966, 1.4276505], [103.9590472, 1.4165605], [103.9857025, 1.4191236], [103.992163, 1.4079186], [103.9581645, 1.3993755], [103.9341981, 1.4178389]]], [[[103.9276842, 1.4239395], [103.9277454, 1.4239446], [103.927711, 1.4238821], [103.9276842, 1.4239395]]], [[[103.8722888, 1.4401551], [103.8652445, 1.4363217], [103.8576336, 1.4513857], [103.8623656, 1.4518307], [103.8722888, 1.4401551]]]]}}]}