{"type":"FeatureCollection","features":[{"type":"Feature","properties":{"slug":"sioux-city","member_count":82,"matched_count":7,"unmatched":["Le Mars city (US-IA, type='City')","Balance of Plymouth County (US-IA, type='Balance')","Remsen city (US-IA, type='City')","Akron city (US-IA, type='City')","Kingsley city (US-IA, type='City')","Hinton city (US-IA, type='City')","Merrill city (US-IA, type='City')","Brunsville city (US-IA, type='City')","Westfield city (US-IA, type='City')","Oyens city (US-IA, type='City')","Craig city (US-IA, type='City')","Struble city (US-IA, type='City')","Sioux City city (US-IA, type='City')","Sioux City city (US-IA, type='City')","Balance of Woodbury County (US-IA, type='Balance')","Sergeant Bluff city (US-IA, type='City')","Moville city (US-IA, type='City')","Sloan city (US-IA, type='City')","Lawton city (US-IA, type='City')","Correctionville city (US-IA, type='City')","Anthon city (US-IA, type='City')","Pierson city (US-IA, type='City')","Danbury city (US-IA, type='City')","Salix city (US-IA, type='City')","Bronson city (US-IA, type='City')","Hornick city (US-IA, type='City')","Cushing city (US-IA, type='City')","Smithland city (US-IA, type='City')","Oto city (US-IA, type='City')","South Sioux City city (US-NE, type='City')","Balance of Dakota County (US-NE, type='Balance')","Dakota City city (US-NE, type='City')","Homer village (US-NE, type='Village')","Emerson village (US-NE, type='Village')","Jackson village (US-NE, type='Village')","Hubbard village (US-NE, type='Village')","Wakefield city (US-NE, type='City')","Emerson village (US-NE, type='Village')","Ponca township (US-NE, type='Township')","Allen village (US-NE, type='Village')","Newcastle village (US-NE, type='Village')","Balance of Wakefield township (US-NE, type='Balance')","Logan township (US-NE, type='Township')","Balance of Springbank township (US-NE, type='Balance')","Balance of Newcastle township (US-NE, type='Balance')","Balance of Galena township (US-NE, type='Balance')","Balance of Ottercreek township (US-NE, type='Balance')","Silvercreek township (US-NE, type='Township')","Balance of Concord township (US-NE, type='Balance')","Clark township (US-NE, type='Township')","Concord village (US-NE, type='Village')","Balance of Hooker township (US-NE, type='Balance')","Balance of Emerson township (US-NE, type='Balance')","Dixon village (US-NE, type='Village')","Martinsburg village (US-NE, type='Village')","Waterbury village (US-NE, type='Village')","Maskell village (US-NE, type='Village')","Daily township (US-NE, type='Township')","Big Sioux township (US-SD, type='Township')","North Sioux City city (US-SD, type='City')","Elk Point city (US-SD, type='City')","Beresford city (US-SD, type='City')","Jefferson township (US-SD, type='Township')","Alcester city (US-SD, type='City')","Civil Bend township (US-SD, type='Township')","Alcester township (US-SD, type='Township')","Elk Point township (US-SD, type='Township')","Big Springs township (US-SD, type='Township')","Virginia township (US-SD, type='Township')","Brule township (US-SD, type='Township')","Prairie township (US-SD, type='Township')","Sioux Valley township (US-SD, type='Township')","Emmet township (US-SD, type='Township')","Richland UT (US-SD, type='Township')","Spink township (US-SD, type='Township')"],"source":"Overture Maps division_area (CC-BY 4.0)"},"geometry":{"type":"MultiPolygon","coordinates":[[[[-96.995739,36.696959],[-96.995954,36.68953],[-96.995518,36.688165],[-96.996062,36.689538],[-96.995739,36.696959]]],[[[-97.020869,36.713357],[-97.013641,36.707892],[-97.031536,36.709339],[-97.020869,36.713357]]],[[[-97.037219,36.699434],[-97.0695847,36.6735785],[-97.067732,36.680478],[-97.085223,36.680717],[-97.0818134,36.6951264],[-97.112232,36.692137],[-97.1122791,36.709747],[-97.141228,36.710041],[-97.130285,36.717119],[-97.1346648,36.7099749],[-97.1122737,36.7098717],[-97.103087,36.767377],[-97.0624289,36.7673724],[-97.0645204,36.7745725],[-97.0594022,36.7673645],[-96.99582,36.767151],[-96.995668,36.696976],[-96.996263,36.76702],[-97.0311,36.766906],[-97.031113,36.752756],[-97.031429,36.766907],[-97.0624457,36.7671333],[-97.066233,36.760595],[-97.0675348,36.7672077],[-97.07226,36.753088],[-97.040358,36.752835],[-97.013507,36.724321],[-97.009664,36.734655],[-97.001432,36.732863],[-97.013879,36.713149],[-97.031423,36.720292],[-97.031529,36.709456],[-97.06402,36.701949],[-97.070278,36.681364],[-97.045517,36.695608],[-97.053167,36.694865],[-97.049251,36.702199],[-97.044941,36.695827],[-97.036978,36.699818],[-97.022022,36.692751],[-97.015898,36.694205],[-97.007765,36.689554],[-97.002705,36.690698],[-96.994159,36.68707],[-96.990576,36.688155],[-96.990638,36.686882],[-96.9954,36.686901],[-97.002552,36.690044],[-97.007941,36.689123],[-97.016041,36.693477],[-97.020569,36.692489],[-97.023635,36.692775],[-97.037219,36.699434]],[[-97.07173,36.76689],[-97.102981,36.767258],[-97.10288,36.753224],[-97.074013,36.753101],[-97.07173,36.76689]]],[[[-92.141486,38.580667],[-92.144372,38.572248],[-92.098186,38.560062],[-92.037483,38.562348],[-92.037398,38.546299],[-92.085384,38.532981],[-92.132839,38.546054],[-92.165659,38.545285],[-92.164289,38.524916],[-92.181579,38.525481],[-92.195121,38.539804],[-92.204405,38.536944],[-92.195573,38.530572],[-92.210096,38.529214],[-92.218532,38.555403],[-92.231279,38.549286],[-92.2323166,38.567346],[-92.274689,38.564181],[-92.276116,38.55655],[-92.266519,38.55409],[-92.275495,38.546794],[-92.287547,38.562932],[-92.280409,38.575884],[-92.270994,38.572779],[-92.270806,38.594303],[-92.235069,38.598092],[-92.234006,38.6176948],[-92.185817,38.591436],[-92.173474,38.611919],[-92.165231,38.611384],[-92.143085,38.597142],[-92.14348,38.589529],[-92.13012,38.590113],[-92.129666,38.577622],[-92.141486,38.580667]]],[[[-95.8599254,42.5606243],[-95.7415459,42.5613056],[-95.7418346,42.4749412],[-95.6692483,42.4748538],[-95.6708097,42.2112894],[-96.3540659,42.2148556],[-96.335353,42.2192151],[-96.322868,42.233637],[-96.331331,42.25943],[-96.3566903,42.2765186],[-96.726661,42.278005],[-96.726188,42.264104],[-97.017728,42.2644519],[-97.015849,42.761338],[-96.9985781,42.753639],[-96.96519,42.7537336],[-96.9473801,42.7170745],[-96.9079409,42.7326801],[-96.8771706,42.7317975],[-96.84638,42.7184746],[-96.8348132,42.7040511],[-96.8064214,42.7019758],[-96.805682,43.08367],[-96.4539898,43.0834348],[-96.461248,43.0639928],[-96.5103432,43.0501251],[-96.5217186,43.0393836],[-96.510777,43.0398021],[-96.5123709,43.0267413],[-96.4919222,43.009703],[-96.5209351,42.9795804],[-96.5049943,42.9709652],[-96.499029,42.9575476],[-96.5198,42.9402158],[-96.5171169,42.9320612],[-96.5250572,42.9358016],[-96.5410539,42.9244976],[-96.5391382,42.9090842],[-95.8593603,42.9090936],[-95.8599254,42.5606243]]]]}}]}