{"type": "FeatureCollection", "features": [{"type": "Feature", "properties": {"slug": "sisak", "members": 1, "country": "Croatia", "input_hash": "bc6a4fbaf123688d"}, "geometry": {"type": "Polygon", "coordinates": [[[16.7802714, 45.3619961], [16.7569776, 45.3713887], [16.7625336, 45.388607], [16.7438912, 45.4048894], [16.7461946, 45.4145442], [16.7078943, 45.4122573], [16.7092188, 45.4221131], [16.6879422, 45.4266683], [16.6943199, 45.4308858], [16.6939005, 45.4460122], [16.6843022, 45.4487887], [16.6876229, 45.4662988], [16.6572513, 45.4609494], [16.6166444, 45.4796074], [16.5644181, 45.487589], [16.5552827, 45.5035168], [16.5409623, 45.4946328], [16.532, 45.5193255], [16.4943969, 45.5214272], [16.4841258, 45.510007], [16.4498693, 45.5323924], [16.431958, 45.5292832], [16.4291065, 45.5373311], [16.4018634, 45.5270717], [16.4013045, 45.5167363], [16.4252561, 45.5191575], [16.4129064, 45.4930049], [16.3998085, 45.4921934], [16.3952402, 45.4976864], [16.4093035, 45.5070272], [16.3602604, 45.513153], [16.3565322, 45.5259139], [16.3420255, 45.5317635], [16.3460987, 45.5496879], [16.3385757, 45.5546955], [16.3455835, 45.5610013], [16.3293149, 45.5664939], [16.3382171, 45.5709613], [16.3223615, 45.574062], [16.3130718, 45.5656433], [16.2973785, 45.5759136], [16.283987, 45.5695842], [16.2900419, 45.55184], [16.26806, 45.5490519], [16.2444617, 45.531341], [16.2571868, 45.4978831], [16.2740442, 45.4820537], [16.272877, 45.4619835], [16.3125021, 45.4640096], [16.3265313, 45.4732555], [16.3494823, 45.4467726], [16.3650908, 45.446924], [16.3600979, 45.4185959], [16.3654299, 45.3938912], [16.3783936, 45.3909939], [16.387026, 45.3992295], [16.3956842, 45.3938553], [16.3829685, 45.3800499], [16.3874249, 45.3729473], [16.3753645, 45.3669099], [16.3937017, 45.3503423], [16.3896832, 45.3366346], [16.4547825, 45.3623263], [16.4584856, 45.3703139], [16.448851, 45.3783908], [16.4421448, 45.3684257], [16.4186198, 45.3754769], [16.4147263, 45.3953369], [16.4298497, 45.4051949], [16.47632, 45.4010496], [16.5006853, 45.4144002], [16.5347733, 45.3997647], [16.5819717, 45.4212811], [16.5946723, 45.4166413], [16.6017454, 45.4010926], [16.6224521, 45.4084227], [16.6252071, 45.3924301], [16.6401197, 45.3909067], [16.6370826, 45.3821291], [16.6462694, 45.3910824], [16.6642967, 45.3904388], [16.6637757, 45.3813189], [16.6795376, 45.3749945], [16.6699808, 45.3651422], [16.6904477, 45.3519953], [16.7213928, 45.3621636], [16.7094495, 45.3513617], [16.7136292, 45.3463946], [16.7244718, 45.3525127], [16.7224616, 45.3621861], [16.7425372, 45.3642988], [16.7576315, 45.3618106], [16.754774, 45.3483898], [16.7731835, 45.348024], [16.7802714, 45.3619961]]]}}]}