{"type": "FeatureCollection", "features": [{"type": "Feature", "properties": {"slug": "sliven", "members": 4, "country": "Bulgaria", "input_hash": "9f6810f700bec90d"}, "geometry": {"type": "Polygon", "coordinates": [[[26.232345, 42.454342], [26.235313, 42.417235], [26.242362, 42.414796], [26.235245, 42.407223], [26.225263, 42.401673], [26.179053, 42.4151], [26.188126, 42.389778], [26.186106, 42.361325], [26.219049, 42.36626], [26.218924, 42.378628], [26.227042, 42.381191], [26.259891, 42.366278], [26.231064, 42.344423], [26.22543, 42.317085], [26.215082, 42.317433], [26.204448, 42.303284], [26.204287, 42.285403], [26.189518, 42.285425], [26.175719, 42.261456], [26.13728, 42.265959], [26.135335, 42.247035], [26.105533, 42.247904], [26.089389, 42.257788], [26.094237, 42.261989], [26.056357, 42.269254], [26.049857, 42.285244], [25.991598, 42.283292], [25.985858, 42.31946], [25.930446, 42.322275], [25.937722, 42.344428], [25.931893, 42.34487], [25.93348, 42.356717], [25.9096, 42.366567], [25.898326, 42.420009], [25.883494, 42.420699], [25.873702, 42.445755], [25.882713, 42.447245], [25.879423, 42.456996], [25.911117, 42.464832], [25.907073, 42.470654], [25.914373, 42.472557], [25.844788, 42.556874], [25.885641, 42.560053], [25.899049, 42.571913], [25.895368, 42.576987], [25.911745, 42.582457], [25.899708, 42.59247], [25.88458, 42.587614], [25.884195, 42.597528], [25.865826, 42.611302], [25.867392, 42.622172], [25.855314, 42.640035], [25.867755, 42.656767], [25.842012, 42.691644], [25.836129, 42.726582], [25.819975, 42.73566], [25.822069, 42.747201], [25.80792, 42.763737], [25.846021, 42.769315], [25.837501, 42.777232], [25.878553, 42.78231], [25.881917, 42.790594], [25.927494, 42.792697], [25.964428, 42.782042], [26.058097, 42.825762], [26.065741, 42.84815], [26.036362, 42.868708], [26.05035, 42.866528], [26.090818, 42.880624], [26.113255, 42.897438], [26.150015, 42.901045], [26.174173, 42.930969], [26.167976, 42.931156], [26.17196, 42.938824], [26.165152, 42.95143], [26.17843728856694, 42.951590273665914], [26.1889048, 42.9729789], [26.2356652, 42.9677305], [26.2472512, 42.9801852], [26.2458, 43.0089598], [26.2808565, 43.0175812], [26.2782798, 43.0299459], [26.2990919, 43.0233309], [26.3261864, 43.0387185], [26.3603811, 43.0343214], [26.3602141, 43.0245101], [26.3499153, 43.019488], [26.3549623, 43.0166245], [26.3820609, 43.0290432], [26.397022, 43.0207866], [26.4054832, 43.0241969], [26.4057168, 43.0128882], [26.4443563, 42.9958919], [26.4874646, 43.003982], [26.4811155, 43.0104485], [26.4864302, 43.016593], [26.4874901, 43.0071415], [26.5001648, 43.0129596], [26.5035745, 43.006859], [26.5034983, 43.0145621], [26.5161596, 43.0168465], [26.517643, 43.0110902], [26.5070446, 43.013517], [26.5146009, 43.0113646], [26.5105388, 43.0078442], [26.5353668, 43.0116789], [26.5804455, 42.9896937], [26.550748, 42.948261], [26.556754, 42.923556], [26.564741, 42.927579], [26.603251, 42.913102], [26.598489, 42.886686], [26.588469, 42.885668], [26.583668, 42.874784], [26.597745, 42.848147], [26.591173, 42.834143], [26.603082, 42.827711], [26.578649, 42.814867], [26.600683, 42.807969], [26.594463, 42.800826], [26.611635, 42.789834], [26.609533, 42.779802], [26.597828, 42.779316], [26.631072, 42.77112], [26.653082, 42.756364], [26.666025, 42.759302], [26.66832, 42.744374], [26.686832, 42.743973], [26.686653, 42.725493], [26.698432, 42.718369], [26.710428, 42.723058], [26.714391, 42.703714], [26.706285, 42.705273], [26.706358, 42.694664], [26.715256, 42.684964], [26.673145, 42.697421], [26.64961, 42.694803], [26.653002, 42.691076], [26.634302, 42.695672], [26.642985, 42.680024], [26.671589, 42.670747], [26.672494, 42.637425], [26.656922, 42.631818], [26.659873, 42.617284], [26.618376, 42.613638], [26.634889, 42.624334], [26.614106, 42.624006], [26.611025, 42.603172], [26.574929, 42.593691], [26.583771, 42.583024], [26.552043, 42.56821], [26.513525, 42.577918], [26.517169, 42.573672], [26.501895, 42.569279], [26.496619, 42.557449], [26.461531, 42.550292], [26.426244, 42.57423], [26.422308, 42.560938], [26.409552, 42.556848], [26.412779, 42.54844], [26.391584, 42.539683], [26.397718, 42.51798], [26.410134, 42.508325], [26.404646, 42.497458], [26.377835, 42.495408], [26.36945, 42.478349], [26.358338, 42.477549], [26.361376, 42.462292], [26.338562, 42.464805], [26.33379, 42.458685], [26.340706, 42.454142], [26.302619, 42.448659], [26.300808, 42.457654], [26.285708, 42.459858], [26.287197, 42.45175], [26.271854, 42.45232], [26.271774, 42.46113], [26.246944, 42.472436], [26.232429, 42.469777], [26.223585, 42.454394], [26.232345, 42.454342]], [[25.887825, 42.596153], [25.887926566794746, 42.597724124526245], [25.88687751014873, 42.59570950146692], [25.887825, 42.596153]], [[26.078292, 42.594691], [26.07838304295609, 42.59477517429147], [26.074328, 42.596158], [26.078292, 42.594691]], [[26.083811874652305, 42.59806424212528], [26.08438, 42.602051], [26.0838118746523, 42.59806424212528], [26.083811874652305, 42.59806424212528]], [[26.07239518693023, 42.65325214498104], [26.072318, 42.653173], [26.074121, 42.647562], [26.07239518693023, 42.65325214498104]], [[26.087849, 42.656482], [26.088047889339776, 42.6566010421541], [26.081411, 42.657542], [26.087849, 42.656482]], [[26.091807, 42.658851], [26.0927157536404, 42.66041142565885], [26.08894703709292, 42.65713921320695], [26.091807, 42.658851]], [[26.093479, 42.661722], [26.092808016272908, 42.66217480706644], [26.093244951925275, 42.66132011481906], [26.093479, 42.661722]], [[26.092267, 42.664721], [26.089121, 42.669387], [26.09188729802272, 42.663975829130436], [26.092267, 42.664721]], [[26.103148, 42.689595], [26.103131412538847, 42.689604780575664], [26.10062, 42.683695], [26.103148, 42.689595]], [[26.09617184592236, 42.7035900528028], [26.095477, 42.703422], [26.09741, 42.702562], [26.09617184592236, 42.7035900528028]], [[26.103802, 42.705349], [26.10379781977543, 42.70543444195277], [26.102146259359472, 42.70503500180645], [26.103802, 42.705349]], [[26.166344, 42.720272], [26.164864933299526, 42.721332114531336], [26.166186080730352, 42.71995754976198], [26.166344, 42.720272]], [[26.164021, 42.721937], [26.151898, 42.720657], [26.164106777536567, 42.721875519329146], [26.164021, 42.721937]], [[26.096787, 42.822183], [26.096277166830124, 42.82203617304544], [26.091151, 42.80795], [26.096787, 42.822183]], [[26.090259, 42.820303], [26.089046845734927, 42.81936625654489], [26.09418763343986, 42.821434407914666], [26.090259, 42.820303]], [[26.044554, 42.816058], [26.041213090015862, 42.81697711854781], [26.04472670501218, 42.81586599833842], [26.044554, 42.816058]], [[26.513643246548572, 42.768217084590766], [26.513605, 42.768542], [26.506491, 42.782548], [26.513643246548572, 42.768217084590766]], [[26.516749, 42.75655448817312], [26.516749, 42.756619], [26.514772, 42.758628], [26.516749, 42.75655448817312]], [[26.505449, 42.746305], [26.5011055, 42.7431528], [26.50760366152154, 42.74701908915028], [26.505449, 42.746305]], [[26.500646, 42.731626], [26.507825, 42.723592], [26.50060447284146, 42.73186815400927], [26.500646, 42.731626]], [[26.509768, 42.710371], [26.518618, 42.710217], [26.509787653435538, 42.710437783415614], [26.509768, 42.710371]], [[26.530347, 42.701665], [26.531131743796223, 42.701753508646824], [26.521695, 42.70429], [26.530347, 42.701665]], [[26.629984, 42.686429], [26.63003002265353, 42.686447957120556], [26.613512, 42.689344], [26.629984, 42.686429]], [[26.634485, 42.688283], [26.634497196667713, 42.68832033826496], [26.631756350598582, 42.68715904621412], [26.634485, 42.688283]], [[26.635137, 42.690279], [26.63486215280901, 42.6908861610634], [26.63453364047705, 42.68843190550949], [26.635137, 42.690279]], [[26.185626575058972, 42.44453256106066], [26.18196790508998, 42.44439244314036], [26.184874, 42.44355], [26.185626575058972, 42.44453256106066]], [[26.181880969074857, 42.444417644880794], [26.182477, 42.450168], [26.181828, 42.444433], [26.181880969074857, 42.444417644880794]], [[26.161612894924183, 42.556155850992866], [26.15841790924119, 42.55574610395521], [26.1593, 42.55547], [26.161612894924183, 42.556155850992866]], [[26.125978779628866, 42.563680752747665], [26.125192, 42.565345], [26.125839, 42.563709], [26.125978779628866, 42.563680752747665]]]}}]}