{"type": "FeatureCollection", "features": [{"type": "Feature", "properties": {"slug": "slobozia", "members": 1, "country": "Romania", "input_hash": "dec20503d82dcc67"}, "geometry": {"type": "Polygon", "coordinates": [[[27.3575986, 44.6048479], [27.302711, 44.6010397], [27.3037201, 44.580397], [27.3167371, 44.5803785], [27.3052138, 44.534734], [27.3374994, 44.5400501], [27.3389409, 44.5468624], [27.3535277, 44.5453542], [27.3568537, 44.5516711], [27.3725691, 44.5393025], [27.3697517, 44.5061506], [27.3901046, 44.5059181], [27.3884998, 44.4962336], [27.4185546, 44.4972708], [27.4183517, 44.5488769], [27.4107763, 44.5556385], [27.4513728, 44.5651558], [27.4436722, 44.578203], [27.4294306, 44.5733947], [27.4208496, 44.5801285], [27.4263389, 44.5840827], [27.4155209, 44.602154], [27.4171939, 44.6497496], [27.407199, 44.6499244], [27.4184073, 44.6720388], [27.4218537, 44.720604], [27.4033542, 44.7180804], [27.4028669, 44.6997069], [27.3857697, 44.6998559], [27.3853063, 44.6777777], [27.3549381, 44.6782543], [27.3545596, 44.6610114], [27.3848861, 44.6606899], [27.3814893, 44.6447598], [27.3544123, 44.6451372], [27.3575986, 44.6048479]]]}}]}