{"type": "FeatureCollection", "features": [{"type": "Feature", "properties": {"slug": "snezhinsk", "members": 1, "country": "Russia", "input_hash": "1f0afef1bfc1b360"}, "geometry": {"type": "Polygon", "coordinates": [[[60.5117138, 56.069348], [60.5313062, 56.0526208], [60.5783166, 56.0513164], [60.5776439, 56.0420447], [60.6466374, 56.0399509], [60.6455534, 56.0297988], [60.7141776, 56.0268988], [60.7137987, 56.001657], [60.6845664, 55.9871763], [60.7235108, 55.9404342], [60.7517361, 55.9481249], [60.7720058, 55.9726765], [60.8264057, 55.9882192], [60.8402299, 56.0060365], [60.8258457, 56.0145549], [60.8191055, 56.0094162], [60.816788, 56.0227139], [60.8269846, 56.0243602], [60.8062532, 56.027229], [60.8066143, 56.0332274], [60.794058, 56.0224767], [60.7863663, 56.0468088], [60.791718, 56.0817513], [60.7019398, 56.1431517], [60.7198682, 56.1458627], [60.7299158, 56.1354209], [60.7445856, 56.1359619], [60.7483979, 56.1238458], [60.7607049, 56.1239818], [60.7695623, 56.1373429], [60.7165667, 56.1520018], [60.6962306, 56.1909673], [60.6991994, 56.2201662], [60.6549918, 56.2145444], [60.6774898, 56.3093427], [60.574761, 56.3168849], [60.5529715, 56.2223389], [60.577295, 56.2151527], [60.5935537, 56.1981039], [60.5910138, 56.1696368], [60.5656245, 56.1618542], [60.5110692, 56.1212378], [60.5164184, 56.1182155], [60.5117138, 56.069348]]]}}]}