{"type": "FeatureCollection", "features": [{"type": "Feature", "properties": {"slug": "sochi", "members": 1, "country": "Russia", "input_hash": "69fb3cc4924e3830"}, "geometry": {"type": "Polygon", "coordinates": [[[39.8825258, 43.4950469], [39.9220465, 43.4163222], [39.9361022, 43.4287523], [39.9448795, 43.4186066], [39.9990763, 43.4061016], [40.0089228, 43.3949798], [40.0155557, 43.4171737], [40.0101474, 43.4243519], [40.0420695, 43.4535193], [40.0443855, 43.4750713], [40.0634995, 43.5052932], [40.0950577, 43.5293754], [40.0906936, 43.555579], [40.109009, 43.569605], [40.130665, 43.5650393], [40.1572621, 43.5745557], [40.2136217, 43.5746703], [40.2596042, 43.5861871], [40.2942022, 43.5714649], [40.3141042, 43.5783749], [40.3287022, 43.5661935], [40.388219, 43.5544625], [40.4331131, 43.5576831], [40.4629811, 43.5465449], [40.4795997, 43.5487093], [40.5054097, 43.5248753], [40.5402066, 43.5193242], [40.5662982, 43.5191571], [40.5952939, 43.5316556], [40.6088781, 43.5473149], [40.6617756, 43.5630484], [40.6540779, 43.5845307], [40.6050482, 43.5876081], [40.6002356, 43.5990655], [40.5530358, 43.6233094], [40.4611012, 43.6550749], [40.449406, 43.6715906], [40.4550036, 43.705017], [40.4651831, 43.7120576], [40.4518558, 43.7252723], [40.3699719, 43.728051], [40.3864409, 43.7459492], [40.3871535, 43.7701183], [40.3063388, 43.7824822], [40.2839198, 43.7642075], [40.2616982, 43.7601459], [40.2168648, 43.7791163], [40.2054823, 43.801507], [40.2081179, 43.8187816], [40.1888365, 43.8458073], [40.197142, 43.860907], [40.1890617, 43.8729207], [40.1684415, 43.8716607], [40.1509014, 43.8576949], [40.1045782, 43.8668715], [40.0990525, 43.8495015], [40.087885, 43.8461417], [40.0434752, 43.880652], [40.0124249, 43.8845766], [39.9534839, 43.9332953], [39.9421327, 43.9563263], [39.9281061, 43.9613032], [39.9229854, 43.9725405], [39.9089201, 43.9738829], [39.9031283, 43.9537626], [39.9126762, 43.9394982], [39.8514575, 43.92423], [39.8014697, 43.9402642], [39.7535843, 43.9322305], [39.6771708, 43.9648023], [39.6895641, 43.9877354], [39.6519383, 44.0068806], [39.5858932, 44.0241795], [39.5783146, 44.0455208], [39.5292045, 44.0683861], [39.5080404, 44.0705042], [39.4300641, 44.1273375], [39.4135285, 44.1167008], [39.4062629, 44.1002021], [39.3857838, 44.099523], [39.3775749, 44.0584327], [39.3689918, 44.0508301], [39.3098759, 44.0547164], [39.2453313, 44.0744058], [39.2031884, 44.0471749], [39.1701436, 44.0471245], [39.1506095, 44.0261383], [39.2952072, 43.942217], [39.3305801, 43.9008654], [39.4021623, 43.8543214], [39.4630711, 43.7871724], [39.5829785, 43.7023573], [39.6073028, 43.6670968], [39.6889199, 43.6323826], [39.7031337, 43.6128025], [39.7130921, 43.5848655], [39.7088962, 43.5801106], [39.708855, 43.5761079], [39.7112492, 43.5730311], [39.7170399, 43.5838426], [39.7311127, 43.5687747], [39.8250093, 43.5301706], [39.8501482, 43.511911], [39.8616128, 43.5125979], [39.8825258, 43.4950469]]]}}]}