{"type": "FeatureCollection", "features": [{"type": "Feature", "properties": {"slug": "soderhamn", "members": 1, "country": "Sweden", "input_hash": "a497546569fbb616"}, "geometry": {"type": "MultiPolygon", "coordinates": [[[[16.6711874, 61.1465516], [16.668624, 61.1477282], [16.6749417, 61.1480611], [16.6711874, 61.1465516]]], [[[16.6783189, 61.1493228], [16.6749756, 61.145916], [16.6755399, 61.1515843], [16.6783189, 61.1493228]]], [[[16.6807484, 61.152897], [16.678479, 61.1534411], [16.6811161, 61.1534331], [16.6807484, 61.152897]]], [[[17.187949, 61.157974], [17.1803253, 61.1542094], [17.1737539, 61.1601693], [17.1810726, 61.1645823], [17.187949, 61.157974]]], [[[17.18981, 61.16465], [17.186535, 61.1672902], [17.1936811, 61.1667383], [17.18981, 61.16465]]], [[[17.1467227, 61.2077973], [17.1430593, 61.2045697], [17.1363884, 61.2046064], [17.1467227, 61.2077973]]], [[[17.1865044, 61.2155182], [17.1902965, 61.2172273], [17.1980516, 61.2127432], [17.1865044, 61.2155182]]], [[[16.8187658, 61.0394798], [16.7412977, 61.0766663], [16.7065695, 61.0732083], [16.712522, 61.0776145], [16.7070682, 61.0843044], [16.5509261, 61.0885173], [16.6872091, 61.1464831], [16.6861828, 61.1626441], [16.7124356, 61.1782663], [16.7311333, 61.2032958], [16.7148602, 61.2131074], [16.7314435, 61.2202108], [16.733056, 61.231059], [16.7473657, 61.2420172], [16.7232044, 61.2779821], [16.6303087, 61.317401], [16.7001261, 61.3250634], [16.7360062, 61.3864321], [16.7030581, 61.4370799], [16.7139629, 61.450864], [16.6974562, 61.4663638], [16.7081913, 61.5226602], [16.6756851, 61.5208071], [16.7173254, 61.5357417], [16.9063561, 61.4573012], [17.0420047, 61.4488761], [17.090697903421614, 61.420379780488254], [17.0853602, 61.4116204], [17.1011175, 61.4079389], [17.0888226, 61.3986844], [17.1077818, 61.386891], [17.1052861, 61.3799046], [17.1171428, 61.3822353], [17.1037266, 61.3748742], [17.1384685, 61.3733617], [17.1242841, 61.3692144], [17.135583, 61.3674811], [17.1308845, 61.3629749], [17.1190756, 61.3638548], [17.124283, 61.3613588], [17.13599, 61.36362], [17.1330165, 61.3576943], [17.1425822, 61.3559575], [17.1350125, 61.35297], [17.1480657, 61.3534548], [17.1466529, 61.3464201], [17.1880011, 61.3398836], [17.2103268, 61.3437842], [17.2056229, 61.340862], [17.21315, 61.335], [17.1913912, 61.3378761], [17.1902871, 61.3270565], [17.2301123, 61.3234347], [17.2410592, 61.309631], [17.2580877, 61.3050005], [17.2385966, 61.2975636], [17.2153968, 61.3082851], [17.196392, 61.3088443], [17.1961812, 61.302986], [17.1838039, 61.3111447], [17.162287, 61.3086879], [17.1461464, 61.3274781], [17.134433, 61.3139012], [17.1408495, 61.3097101], [17.1624024, 61.3032004], [17.1753623, 61.3085569], [17.1699582, 61.3022253], [17.2233669, 61.2908458], [17.2341187, 61.280496], [17.1834228, 61.2753083], [17.1209765, 61.3088494], [17.0879906, 61.3145896], [17.0766222, 61.3096831], [17.104235, 61.3088804], [17.1271612, 61.2987504], [17.1676529, 61.2665013], [17.1552721, 61.2632572], [17.2140761, 61.2476907], [17.1754897, 61.2510652], [17.2008949, 61.236011], [17.1918425, 61.2312188], [17.2189044, 61.2288911], [17.2013743, 61.2201839], [17.1931337, 61.2245381], [17.1848868, 61.2171209], [17.1878893, 61.2234559], [17.1703063, 61.2267545], [17.160653, 61.219676], [17.1690888, 61.2189769], [17.1586896, 61.2177854], [17.1637821, 61.2105025], [17.1131446, 61.2076318], [17.1871041, 61.1872394], [17.1916311, 61.1776833], [17.1747873, 61.1789236], [17.1680636, 61.1692749], [17.1738837, 61.1567106], [17.1625326, 61.1590374], [17.1687233, 61.1523379], [17.1484238, 61.1565106], [17.186742, 61.1251387], [17.1781736, 61.1198501], [17.1851012, 61.1169625], [17.1538159, 61.1110239], [17.183242, 61.1017465], [17.172716, 61.0979055], [17.189277, 61.0993252], [17.2051543, 61.083598], [17.1941729, 61.086573], [17.1998839, 61.0811507], [17.1829926, 61.0832628], [17.1745311, 61.0808623], [17.177714, 61.0768142], [17.1627848, 61.0854806], [17.1690581, 61.0784079], [17.1901854, 61.0733689], [17.1751393, 61.0610236], [16.8187658, 61.0394798]], [[16.9824553, 61.276728], [16.9832565, 61.2777083], [16.9794211, 61.2773645], [16.9824553, 61.276728]], [[16.9581696, 61.4392449], [16.9548341, 61.4372269], [16.960194, 61.4379803], [16.9581696, 61.4392449]], [[16.9513865, 61.4438972], [16.9574118, 61.445381], [16.9473301, 61.4472877], [16.9513865, 61.4438972]]], [[[17.1804877, 61.3432108], [17.1721136, 61.3437491], [17.1757078, 61.3438006], [17.1804877, 61.3432108]]], [[[17.1739564, 61.3471067], [17.1758147, 61.3449017], [17.1705767, 61.3445685], [17.1739564, 61.3471067]]], [[[17.1673878, 61.357123], [17.1592644, 61.35915], [17.1645677, 61.3600807], [17.1673878, 61.357123]]], [[[17.1380803, 61.3700324], [17.1431568, 61.3719874], [17.1470709, 61.3713135], [17.1380803, 61.3700324]]], [[[17.1646704, 61.3705232], [17.1499309, 61.3738328], [17.1573815, 61.3734497], [17.1646704, 61.3705232]]], [[[17.1961138, 61.387842], [17.1953402, 61.3897367], [17.1999, 61.3869418], [17.1961138, 61.387842]]], [[[17.2195375, 61.0790876], [17.2236107, 61.0769678], [17.219833, 61.0743702], [17.2195375, 61.0790876]]], [[[17.2465718, 61.0964693], [17.2532666, 61.0935392], [17.2429347, 61.0954269], [17.2465718, 61.0964693]]], [[[17.2109359, 61.2196823], [17.207868, 61.2159555], [17.2053355, 61.2173348], [17.2109359, 61.2196823]]], [[[17.24015, 61.2287236], [17.2567537, 61.2271762], [17.2471264, 61.2237493], [17.2507479, 61.2276484], [17.24015, 61.2287236]]], [[[17.2335968, 61.2250677], [17.2249303, 61.2271183], [17.2425637, 61.2338828], [17.2335968, 61.2250677]]], [[[17.2151118, 61.2421041], [17.2317967, 61.2430665], [17.2303548, 61.2375418], [17.2151118, 61.2421041]]], [[[17.222601, 61.260596], [17.2170099, 61.2646324], [17.218859, 61.264738], [17.222601, 61.260596]]], [[[17.2391838, 61.2689512], [17.2333199, 61.2701196], [17.2437218, 61.2697575], [17.2391838, 61.2689512]]], [[[17.2389861, 61.3504445], [17.2477358, 61.3541378], [17.2515061, 61.3512265], [17.2389861, 61.3504445]]], [[[17.2358856, 61.3570359], [17.2402415, 61.3557553], [17.2352955, 61.3539706], [17.2358856, 61.3570359]]], [[[17.2351882, 61.3593399], [17.2437498, 61.3596227], [17.2433099, 61.3582033], [17.2351882, 61.3593399]]], [[[17.2121534, 61.3710728], [17.2187087, 61.3722397], [17.2335896, 61.3647544], [17.2259721, 61.3573188], [17.2121534, 61.3710728]]], [[[17.2430202, 61.3667596], [17.2451124, 61.3636644], [17.2346088, 61.3666105], [17.2430202, 61.3667596]]], [[[17.1970783, 61.3814232], [17.1998045, 61.3830891], [17.2027217, 61.3819371], [17.1970783, 61.3814232]]], [[[17.2731629, 61.0998036], [17.2780159, 61.0975559], [17.2597468, 61.0998657], [17.2731629, 61.0998036]]], [[[17.3008111, 61.1083189], [17.2891704, 61.1063983], [17.2863379, 61.1091613], [17.2920564, 61.1107189], [17.3008111, 61.1083189]]], [[[17.3025359, 61.1641955], [17.3257147, 61.1728961], [17.3368094, 61.1691613], [17.3263287, 61.1462659], [17.3172564, 61.1423402], [17.3025359, 61.1641955]]], [[[17.25722, 61.21807], [17.2534918, 61.22136], [17.25666, 61.2214], [17.25722, 61.21807]]], [[[17.2571643, 61.2221758], [17.2534309, 61.225546], [17.2597129, 61.2266597], [17.2571643, 61.2221758]]], [[[17.2668883, 61.2344105], [17.2701445, 61.2344181], [17.2728654, 61.2330572], [17.2668883, 61.2344105]]], [[[17.29186, 61.23822], [17.2764884, 61.2417699], [17.2773467, 61.2353971], [17.2627142, 61.234728], [17.2609622, 61.2408539], [17.278871, 61.2443463], [17.29186, 61.23822]]], [[[17.2598531, 61.24055], [17.2419214, 61.2438499], [17.2458004, 61.2453911], [17.2598531, 61.24055]]], [[[17.2947462, 61.2464096], [17.2905315, 61.2477822], [17.2998936, 61.248371], [17.2947462, 61.2464096]]], [[[17.2943141, 61.2578035], [17.2955219, 61.2579528], [17.3015174, 61.2524909], [17.2943141, 61.2578035]]], [[[17.2830873, 61.2592896], [17.2908265, 61.2564137], [17.2800011, 61.2528659], [17.2830873, 61.2592896]]], [[[17.2805, 61.27578], [17.2716072, 61.2788548], [17.224732, 61.2896895], [17.2738453, 61.2802687], [17.2805, 61.27578]]], [[[17.3439453, 61.3436915], [17.3307285, 61.3445003], [17.3238728, 61.3491098], [17.3337326, 61.3510799], [17.3439453, 61.3436915]]]]}}]}