{"type": "FeatureCollection", "features": [{"type": "Feature", "properties": {"slug": "sogndal", "members": 1, "country": "Norway", "input_hash": "83c5d1df91c532d5"}, "geometry": {"type": "Polygon", "coordinates": [[[6.371731, 61.1193563], [6.3405929, 61.0971581], [6.3699233, 61.0897294], [6.4840425, 61.0987296], [6.5682419, 61.1258703], [6.5842984, 61.1490623], [6.5887781, 61.187765], [6.6544306, 61.1907149], [6.710153, 61.1665199], [6.8772306, 61.1566712], [6.9056418, 61.1346609], [6.917447, 61.1020621], [6.9988112, 61.0917956], [7.0366529, 61.118665], [7.2011123, 61.1320009], [7.2119719, 61.153428], [7.2497418, 61.1593097], [7.3325961, 61.1389836], [7.4153748, 61.1698797], [7.4298011, 61.1826195], [7.3597134, 61.1829989], [7.3227263, 61.2047982], [7.303897, 61.2482083], [7.2141239, 61.2838603], [7.1816663, 61.2720758], [7.1864775, 61.2798377], [7.1770713, 61.2864073], [7.0822119, 61.2939532], [7.0674878, 61.3079484], [7.0425334, 61.3124828], [7.0159528, 61.3510573], [6.9468204, 61.3715581], [6.9435223, 61.3893777], [6.9572951, 61.4080872], [6.8739253, 61.4134116], [6.8835469, 61.4258954], [6.8994174, 61.4299248], [6.8907266, 61.479115], [6.8987408, 61.4831873], [6.867878, 61.5100537], [6.8697313, 61.5331213], [6.8202639, 61.5434711], [6.8087352, 61.5702471], [6.7648289, 61.55541], [6.7330959, 61.535169], [6.7123799, 61.4991508], [6.6420972, 61.4604638], [6.6297808, 61.4462567], [6.5288607, 61.4137135], [6.4749642, 61.3804819], [6.4794995, 61.3746535], [6.4636776, 61.3631045], [6.4130515, 61.3399128], [6.40814, 61.320901], [6.3357112, 61.2973674], [6.3357926, 61.2840302], [6.3464589, 61.2839478], [6.3424216, 61.2765791], [6.410912, 61.2557358], [6.3883161, 61.2387202], [6.3249768, 61.2419059], [6.2519839, 61.2309603], [6.2562392, 61.2204106], [6.284094, 61.2208099], [6.4111167, 61.1941665], [6.3651295, 61.1533124], [6.3828273, 61.147906], [6.371731, 61.1193563]]]}}]}