{"type":"FeatureCollection","features":[{"type":"Feature","properties":{"slug":"solikamsk","member_count":1,"matched_count":1,"unmatched":[],"source":"Overture Maps division_area (CC-BY 4.0)"},"geometry":{"type":"Polygon","coordinates":[[[56.697956,59.7111042],[56.7111873,59.7229734],[56.7058793,59.7364884],[56.6581265,59.745567],[56.6679102,59.6931369],[56.6103206,59.6731235],[56.6224877,59.6554007],[56.6763429,59.6392484],[56.6952503,59.6202865],[56.7002544,59.6091377],[56.6891688,59.5899724],[56.6959333,59.583376],[56.6809904,59.565392],[56.7190385,59.557386],[56.7485087,59.5650658],[56.801162,59.5603862],[56.8248337,59.6166133],[56.837232,59.6145556],[56.8490492,59.6248183],[56.8431406,59.6626089],[56.8081009,59.6665471],[56.8243979,59.6844342],[56.7377889,59.6899707],[56.7341469,59.7038705],[56.7050711,59.7059465],[56.697956,59.7111042]]]}}]}