{"type":"FeatureCollection","features":[{"type":"Feature","properties":{"slug":"solothurn","member_count":46,"matched_count":40,"unmatched":["Bezirk Wasseramt (CH-SO, type='District')","Bezirk Lebern (CH-SO, type='District')","Bezirk Solothurn (CH-SO, type='District')","Bezirk Bucheggberg (CH-SO, type='District')","Oekingen (CH-SO, type='Commune')","Halten (CH-SO, type='Commune')"],"source":"Overture Maps division_area (CC-BY 4.0)"},"geometry":{"type":"MultiPolygon","coordinates":[[[[7.4619487,47.1059124],[7.4749313,47.086371],[7.4404479,47.074504],[7.4340002,47.1005003],[7.3901067,47.0922486],[7.3697041,47.1159539],[7.3867427,47.1258974],[7.4037482,47.117676],[7.4401788,47.1237276],[7.4217922,47.1358605],[7.447783,47.1550805],[7.4728074,47.1525609],[7.4970383,47.1700873],[7.4804964,47.171738],[7.4708545,47.181324],[7.4757226,47.1906485],[7.4488131,47.1893922],[7.4432457,47.1792492],[7.4332849,47.1847269],[7.4134392,47.1631726],[7.3869324,47.1595176],[7.3821749,47.1651186],[7.391911,47.1662739],[7.3795245,47.1854922],[7.3654609,47.1944525],[7.3544799,47.1915316],[7.3404127,47.2175697],[7.443952,47.2506211],[7.493329,47.2518408],[7.5299612,47.2696915],[7.5801066,47.2763483],[7.5936981,47.2662199],[7.5959384,47.245569],[7.6261802,47.2263143],[7.6405558,47.2297944],[7.6484666,47.2189525],[7.6472258,47.2017823],[7.6623299,47.2009599],[7.6778397,47.1826401],[7.6728612,47.1683945],[7.6600808,47.1684026],[7.6451021,47.1489207],[7.6155322,47.1565739],[7.5861404,47.1475453],[7.5810534,47.16013],[7.5634674,47.1683541],[7.5257686,47.162205],[7.5203336,47.1588879],[7.5297508,47.1487369],[7.5097234,47.1255457],[7.4619487,47.1059124]],[[7.519287109212769,47.21591186524046],[7.5144923,47.217891],[7.5156616852749725,47.214546315350994],[7.519287109212769,47.21591186524046]],[[7.5107936,47.2093493],[7.5113134,47.1983366],[7.5134996,47.1963274],[7.5469149,47.2031896],[7.512211800034606,47.20067977884878],[7.5107936,47.2093493]],[[7.548596859157783,47.210235595396455],[7.5497465,47.2076199],[7.5523051,47.2118872],[7.548596859157783,47.210235595396455]]],[[[7.6752655,47.1532389],[7.6885064,47.1667279],[7.7007985,47.1617746],[7.6901531,47.1525567],[7.6752655,47.1532389]]]]}}]}