{"type": "FeatureCollection", "features": [{"type": "Feature", "properties": {"slug": "songkhla", "members": 1, "country": "Thailand", "input_hash": "828e7f69f5d977ad"}, "geometry": {"type": "MultiPolygon", "coordinates": [[[[101.0626525, 6.8512923], [101.043547, 6.8474169], [101.0431819, 6.8384972], [101.0505294, 6.8361755], [101.0427325, 6.8122305], [101.0543715, 6.8014921], [101.0285698, 6.7795299], [101.0318459, 6.7423929], [101.0173905, 6.7257958], [101.0395775, 6.7191278], [101.0392905, 6.7063645], [101.057395, 6.7125404], [101.0636906, 6.6847845], [101.0488707, 6.6633599], [101.0689186, 6.6441763], [101.0973019, 6.6395552], [101.1051551, 6.6295405], [101.0908241, 6.6146572], [101.0807375, 6.5547711], [101.0692492, 6.5440159], [101.0431419, 6.5416336], [101.0444244, 6.5250986], [101.0351426, 6.5153364], [101.0443711, 6.4868567], [100.9992674, 6.4790561], [100.9769294, 6.4863312], [100.9603595, 6.4508066], [100.9526656, 6.4513879], [100.9489709, 6.4424097], [100.9328605, 6.4445078], [100.9171907, 6.3989219], [100.9275524, 6.3669736], [100.9201461, 6.3447177], [100.9299522, 6.3211621], [100.917229, 6.3180138], [100.9123621, 6.3034985], [100.8884435, 6.2956007], [100.8649946, 6.2974549], [100.8498179, 6.2901172], [100.8443228, 6.2952965], [100.841834, 6.306339], [100.849133, 6.314646], [100.821814, 6.356482], [100.823924, 6.40687], [100.81258, 6.442185], [100.791534, 6.448327], [100.776497, 6.463048], [100.768964, 6.455309], [100.753164, 6.457799], [100.7437, 6.470871], [100.73864, 6.510354], [100.709385, 6.470872], [100.6985828, 6.4714136], [100.686466, 6.464903], [100.684742, 6.453657], [100.652058, 6.442584], [100.642557, 6.450006], [100.646324, 6.458397], [100.617838, 6.459833], [100.608093, 6.472083], [100.602264, 6.468363], [100.57316, 6.482603], [100.562516, 6.495959], [100.548347, 6.484471], [100.542107, 6.491184], [100.5188248, 6.4885621], [100.4938158, 6.5086384], [100.4902091, 6.5254729], [100.4704711, 6.5204181], [100.4567545, 6.5318369], [100.4182323, 6.5187127], [100.402119, 6.5363502], [100.3881997, 6.5349547], [100.3732974, 6.5451115], [100.3659471, 6.5400544], [100.3515122, 6.5729442], [100.3252336, 6.585796], [100.3158202, 6.6041633], [100.3051751, 6.6052288], [100.3260294, 6.621392], [100.3161734, 6.6365988], [100.3276121, 6.6638558], [100.3089227, 6.6666342], [100.3022396, 6.6795177], [100.2942563, 6.6797509], [100.2930349, 6.7078481], [100.2649948, 6.6989218], [100.2574953, 6.7113679], [100.24062, 6.6921091], [100.218579, 6.702358], [100.21473, 6.71884], [100.204335, 6.723553], [100.2155892, 6.7594905], [100.199095, 6.7766985], [100.1909779, 6.8030216], [100.2187026, 6.8795444], [100.1985994, 6.9074987], [100.1677972, 6.9117704], [100.1461697, 6.9251803], [100.1217455, 6.9238646], [100.1199403, 6.9360413], [100.1017644, 6.9486985], [100.0948184, 6.965088], [100.0790306, 6.9632498], [100.0830108, 6.9980259], [100.0632065, 7.018408], [100.0656537, 7.031342], [100.0790354, 7.0419995], [100.0637477, 7.0569637], [100.0545568, 7.0951429], [100.0572198, 7.1075797], [100.0677259, 7.1119246], [100.0623447, 7.1371476], [100.1152115, 7.1668031], [100.1562307, 7.1487029], [100.1752103, 7.1753598], [100.2239584, 7.1938229], [100.2578083, 7.1969319], [100.2799837, 7.2109098], [100.3046092, 7.2086083], [100.3144253, 7.2295813], [100.3407236, 7.2481798], [100.3415755, 7.2753363], [100.3614415, 7.2807134], [100.3587562, 7.3006396], [100.3739172, 7.304336], [100.3784977, 7.3132513], [100.3834276, 7.2785801], [100.4021486, 7.2625164], [100.4273572, 7.2826597], [100.4286995, 7.30894], [100.4106635, 7.3397219], [100.3988961, 7.4002091], [100.3825835, 7.424992], [100.386468, 7.5118469], [100.3556819, 7.5278199], [100.2960136, 7.4954155], [100.2606375, 7.4965981], [100.237177, 7.5385913], [100.2168162, 7.7282659], [100.1774952, 7.8764791], [100.2355005, 7.8830472], [100.2664268, 7.9047342], [100.2659802, 7.9146684], [100.3082797, 7.9138391], [100.3121412, 7.9362644], [100.33920146396012, 7.931962164513302], [100.3639537, 7.8004277], [100.4336204, 7.5178686], [100.4670271, 7.4121285], [100.5079985, 7.3181707], [100.5423901, 7.2627208], [100.5584744, 7.2503519], [100.553546, 7.2505865], [100.5650469, 7.2291859], [100.5751082, 7.2301299], [100.5689689, 7.2268549], [100.5745221, 7.2223806], [100.5809021, 7.2312231], [100.5967995, 7.2150549], [100.6902774, 7.0780361], [100.7720418, 6.9795538], [100.8099726, 6.954232], [100.819747, 6.959039], [100.8316478, 6.9532047], [100.8488859, 6.9621675], [100.9267401, 6.8951358], [101.0069039, 6.8561024], [101.0626525, 6.8512923]]], [[[100.5642395, 7.2366636], [100.558069, 7.2476278], [100.5592459, 7.253754], [100.5639148, 7.2386069], [100.5791283, 7.2352301], [100.5642395, 7.2366636]]]]}}]}