{"type": "FeatureCollection", "features": [{"type": "Feature", "properties": {"slug": "sopron", "members": 1, "country": "Hungary", "input_hash": "4f15c004f642e0e9"}, "geometry": {"type": "Polygon", "coordinates": [[[16.7490282, 47.6814296], [16.7215112, 47.7226116], [16.7209415, 47.7353349], [16.6700437, 47.7407639], [16.6639348, 47.72666], [16.6704517, 47.6938974], [16.6388786, 47.6936292], [16.6278446, 47.7250108], [16.5925622, 47.7591037], [16.54798, 47.751544], [16.5487785, 47.7431786], [16.5375661, 47.7399922], [16.5522184, 47.7225134], [16.5279487, 47.7011692], [16.5382581, 47.6979646], [16.5289657, 47.6798638], [16.5068284, 47.6709976], [16.4819734, 47.6750653], [16.4848889, 47.6688782], [16.4807013, 47.6631794], [16.4808255, 47.6693762], [16.4633218, 47.6727002], [16.4653904, 47.6651265], [16.450294, 47.6625008], [16.4433599, 47.6657736], [16.4607249, 47.6742714], [16.4782583, 47.6704194], [16.487561, 47.6846656], [16.4772371, 47.6907619], [16.4747791, 47.6813355], [16.4662938, 47.6808382], [16.4479157, 47.6965046], [16.443356, 47.6741131], [16.4215432, 47.6652971], [16.4800082, 47.6498788], [16.4873199, 47.6417648], [16.5064854, 47.6383877], [16.5144416, 47.6461448], [16.5513725, 47.6323963], [16.5992349, 47.6482278], [16.6193272, 47.6328561], [16.6180668, 47.6432931], [16.6367308, 47.6454987], [16.6309492, 47.6534779], [16.6398274, 47.655132], [16.6817553, 47.6279124], [16.7024969, 47.6709373], [16.7490282, 47.6814296]]]}}]}