{"type": "FeatureCollection", "features": [{"type": "Feature", "properties": {"slug": "southampton", "members": 48, "country": "United Kingdom"}, "geometry": {"type": "Polygon", "coordinates": [[[-1.387973631753458, 50.90691377868843], [-1.39326310422327, 50.883037954707206], [-1.399029953640668, 50.89457665632068], [-1.442620609544607, 50.91120830257833], [-1.447063649320199, 50.90380074210874], [-1.466771148092359, 50.910946772167016], [-1.477085808751592, 50.92870574380462], [-1.449554734504392, 50.94991939325627], [-1.423672039558231, 50.947241665648626], [-1.406149529633116, 50.956135579206176], [-1.379901964992304, 50.94752657529746], [-1.3547007, 50.9410307], [-1.379902, 50.9475266], [-1.3740445, 50.9539842], [-1.3964779, 50.9685096], [-1.3914362, 50.9868175], [-1.3996532, 50.9946779], [-1.3929866, 51.0043686], [-1.3534793, 50.9981663], [-1.3427777, 50.990895], [-1.3466463, 50.9813501], [-1.327684, 50.9801304], [-1.3224319, 50.9876601], [-1.2905864, 50.9828766], [-1.2934398, 50.9741524], [-1.2581669, 50.978349], [-1.2924916, 50.9487079], [-1.2646864, 50.9262834], [-1.2688087, 50.9097251], [-1.2600471, 50.9014169], [-1.2881783, 50.8956341], [-1.3029044, 50.8835749], [-1.3129117, 50.8420165], [-1.3762214, 50.8715095], [-1.3651370599449515, 50.880037422979555], [-1.384325999447392, 50.89156149985706], [-1.384883708954502, 50.90400511350397], [-1.371713130039822, 50.912139758087875], [-1.387973631753458, 50.90691377868843]], [[-1.3548690663442096, 50.94049635438611], [-1.3545366, 50.9405958], [-1.3547407174115742, 50.94090360981393], [-1.3548690663442096, 50.94049635438611]], [[-1.356206503025826, 50.93625262335722], [-1.357942938723319, 50.93074285519368], [-1.3527827, 50.9353692], [-1.356206503025826, 50.93625262335722]], [[-1.3394972, 50.9237235], [-1.3380927579514204, 50.9219778138809], [-1.3377457, 50.9224896], [-1.3394972, 50.9237235]], [[-1.3359210527400205, 50.92101917242392], [-1.3333566, 50.9198856], [-1.3351224, 50.9209357], [-1.3359210527400205, 50.92101917242392]], [[-1.3304315015780113, 50.91500829075161], [-1.3246432, 50.9084446], [-1.3320996188295464, 50.917783137708184], [-1.3304315015780113, 50.91500829075161]], [[-1.3512162, 50.8867734], [-1.3509728181476908, 50.88690645538926], [-1.3512832499433447, 50.88675590966321], [-1.3512162, 50.8867734]], [[-1.3646467, 50.8801577], [-1.364420045582484, 50.88038514331394], [-1.3649742406016154, 50.880116383178226], [-1.3646467, 50.8801577]], [[-1.3231044, 50.9028528], [-1.3240665252746475, 50.90442040485341], [-1.3219862, 50.9009666], [-1.3231044, 50.9028528]]]}}]}