{"type":"FeatureCollection","features":[{"type":"Feature","properties":{"slug":"spencer-spirit-lake-ia","member_count":24,"matched_count":4,"unmatched":["Spencer city (US-IA, type='City')","Balance of Clay County (US-IA, type='Balance')","Everly city (US-IA, type='City')","Peterson city (US-IA, type='City')","Fostoria city (US-IA, type='City')","Dickens city (US-IA, type='City')","Greenville city (US-IA, type='City')","Rossie city (US-IA, type='City')","Gillett Grove city (US-IA, type='City')","Spirit Lake city (US-IA, type='City')","Balance of Dickinson County (US-IA, type='Balance')","Milford city (US-IA, type='City')","Arnolds Park city (US-IA, type='City')","Lake Park city (US-IA, type='City')","Okoboji city (US-IA, type='City')","Orleans city (US-IA, type='City')","Wahpeton city (US-IA, type='City')","West Okoboji city (US-IA, type='City')","Terril city (US-IA, type='City')","Superior city (US-IA, type='City')"],"source":"Overture Maps division_area (CC-BY 4.0)"},"geometry":{"type":"MultiPolygon","coordinates":[[[[-94.452223,37.13059],[-94.4530657,37.1123727],[-94.474634,37.109986],[-94.4767184,37.1017868],[-94.4761481,37.1166214],[-94.461998,37.120471],[-94.4934979,37.1240667],[-94.491487,37.172856],[-94.4457661,37.1699035],[-94.452025,37.134259],[-94.438672,37.130492],[-94.452223,37.13059]]],[[[-94.9148247,43.500903],[-94.9138748,42.9097058],[-95.3881327,42.9098022],[-95.3877991,43.5002167],[-94.9148247,43.500903]]],[[[-119.559777,46.889293],[-119.565062,46.882534],[-119.565078,46.889768],[-119.559777,46.889293]]],[[[-119.578549,46.885185],[-119.56932,46.891176],[-119.569126,46.883131],[-119.578549,46.885185]]],[[[-119.626182,46.913802],[-119.618318,46.913766],[-119.620064,46.901908],[-119.609222,46.897082],[-119.64591,46.899847],[-119.645405,46.907476],[-119.629174,46.904173],[-119.626182,46.913802]]]]}}]}