{"type": "FeatureCollection", "features": [{"type": "Feature", "properties": {"slug": "split", "members": 54, "country": "Croatia", "input_hash": "379f16cdf17e53c0"}, "geometry": {"type": "MultiPolygon", "coordinates": [[[[15.9966169, 42.9535671], [15.9958942, 42.9530799], [15.9957944, 42.9534242], [15.9966169, 42.9535671]]], [[[16.0040262, 42.9554746], [16.0043396, 42.9551183], [16.0041215, 42.9549934], [16.0040262, 42.9554746]]], [[[16.0052431, 42.994361], [16.0209902, 42.9883848], [16.0192496, 42.978142], [16.0250931, 42.9761595], [16.0196115, 42.9599329], [15.9957091, 42.9534249], [16.0052431, 42.994361]]], [[[16.0239728, 42.9822976], [16.0230558, 42.981527], [16.022844, 42.9815998], [16.0239728, 42.9822976]]], [[[16.0047822, 42.9944559], [16.0047336, 42.994555], [16.0049766, 42.9944147], [16.0047822, 42.9944559]]], [[[15.8026975, 43.004058], [15.8026118, 43.0041966], [15.8027403, 43.0041009], [15.8026975, 43.004058]]], [[[15.8026972, 43.0045149], [15.8028428, 43.0044458], [15.802748, 43.0043534], [15.8026972, 43.0045149]]], [[[15.8013354, 43.0072282], [15.8028622, 43.005115], [15.7990556, 43.0065459], [15.8013354, 43.0072282]]], [[[16.1389241, 43.0119072], [16.1390833, 43.011862], [16.1389064, 43.0118318], [16.1389241, 43.0119072]]], [[[15.7417139, 43.0158473], [15.7422738, 43.0158882], [15.7422794, 43.0158294], [15.7417139, 43.0158473]]], [[[16.0806216, 43.0176402], [16.0804969, 43.0178033], [16.080708, 43.0177651], [16.0806216, 43.0176402]]], [[[15.7121259, 43.0202478], [15.7089915, 43.0193485], [15.710996, 43.020317], [15.7121259, 43.0202478]]], [[[15.7567962, 43.0206868], [15.7573114, 43.0206463], [15.7569842, 43.0204741], [15.7567962, 43.0206868]]], [[[16.0886868, 43.0207524], [16.0888477, 43.0207039], [16.0884214, 43.0205951], [16.0886868, 43.0207524]]], [[[15.7436922, 43.0181438], [15.725228, 43.0231811], [15.7512283, 43.0343157], [15.7692197, 43.0316091], [15.7436922, 43.0181438]]], [[[16.0929641, 43.0286808], [16.092995, 43.0287178], [16.0929975, 43.0286717], [16.0929641, 43.0286808]]], [[[16.0929212, 43.0288008], [16.0929088, 43.0287429], [16.092894, 43.0287538], [16.0929212, 43.0288008]]], [[[16.0923403, 43.0357293], [16.0924585, 43.0357931], [16.0924529, 43.0357459], [16.0923403, 43.0357293]]], [[[16.1521516, 43.0145501], [16.1344007, 43.0134954], [16.102411, 43.0055037], [16.0667061, 43.0059993], [16.0711558, 43.0133883], [16.0883193, 43.0201418], [16.0930033, 43.0240658], [16.0930244, 43.0365251], [16.084622, 43.0479715], [16.0642225, 43.0406609], [16.0489278, 43.0538583], [16.0801921, 43.0700239], [16.1234836, 43.0785184], [16.131685087371984, 43.073540120215526], [16.1855836, 43.0815876], [16.1778742, 43.078193], [16.198673, 43.0752883], [16.1840193, 43.0619428], [16.1957743, 43.0575744], [16.2184265, 43.0740181], [16.2432187, 43.0767961], [16.2372151, 43.0722846], [16.2429731, 43.0724279], [16.2413512, 43.0648303], [16.2553558, 43.0735061], [16.248809, 43.0658422], [16.2575625, 43.0653834], [16.2514654, 43.0497709], [16.2306342, 43.0403493], [16.2223255, 43.0229469], [16.2124097, 43.0247447], [16.2155215, 43.01664], [16.1968277, 43.0239341], [16.1931085, 43.0175275], [16.1716335, 43.0213515], [16.1721399, 43.0151169], [16.156173, 43.01388], [16.1470797, 43.0207756], [16.1521516, 43.0145501]]], [[[16.0879951, 43.0425951], [16.0880312, 43.0424571], [16.0877629, 43.0424711], [16.0879951, 43.0425951]]], [[[16.039634, 43.0523332], [16.0399996, 43.0530697], [16.04025, 43.0527144], [16.039634, 43.0523332]]], [[[16.0457801, 43.0540401], [16.0440146, 43.0538833], [16.0445994, 43.055044], [16.0457801, 43.0540401]]], [[[16.0574368, 43.0594089], [16.058207, 43.0598252], [16.0586062, 43.0596107], [16.0574368, 43.0594089]]], [[[16.1160855, 43.0783565], [16.1167825, 43.0784317], [16.116768, 43.0778893], [16.1160855, 43.0783565]]], [[[15.4610462, 43.0921951], [15.4587612, 43.0914089], [15.4586235, 43.0917007], [15.4610462, 43.0921951]]], [[[16.1342165, 43.4135448], [16.1359774, 43.4136439], [16.1359194, 43.4122923], [16.1342165, 43.4135448]]], [[[16.121043, 43.4170477], [16.118981, 43.4205753], [16.130248, 43.4151134], [16.121043, 43.4170477]]], [[[16.1086148, 43.4299194], [16.1246647, 43.4516054], [16.1454681, 43.4485624], [16.1346867, 43.4593212], [16.166731, 43.4563892], [16.1764854, 43.4421722], [16.1680355, 43.4318721], [16.1533555, 43.4388269], [16.1443315, 43.4293728], [16.1086148, 43.4299194]]], [[[16.0547347, 43.4454092], [16.0866422, 43.4555451], [16.0981983, 43.4464679], [16.083843, 43.435789], [16.0828679, 43.4441176], [16.0547347, 43.4454092]]], [[[16.1121058, 43.4536559], [16.1122127, 43.4544717], [16.1125331, 43.4542109], [16.1121058, 43.4536559]]], [[[16.0565961, 43.4664639], [16.0566055, 43.4674332], [16.0572825, 43.4671097], [16.0565961, 43.4664639]]], [[[16.0404224, 43.4735942], [16.0429349, 43.4728116], [16.0419389, 43.4713915], [16.0404224, 43.4735942]]], [[[16.0328495, 43.4762005], [16.0272529, 43.4702989], [16.0189575, 43.4736741], [16.0328495, 43.4762005]]], [[[16.0099958, 43.4749305], [16.0113665, 43.473463], [16.0094987, 43.4746011], [16.0099958, 43.4749305]]], [[[16.0397857, 43.4742549], [16.0390736, 43.4752838], [16.0400486, 43.4748103], [16.0397857, 43.4742549]]], [[[16.1349477, 43.4757154], [16.1343598, 43.475532], [16.1336656, 43.4762532], [16.1349477, 43.4757154]]], [[[16.1657327, 43.4760405], [16.1657008, 43.4760734], [16.1657327, 43.476077], [16.1657327, 43.4760405]]], [[[16.1664786, 43.4781072], [16.170107, 43.4751922], [16.1666436, 43.4753712], [16.1664786, 43.4781072]]], [[[16.1630014, 43.4767805], [16.1630178, 43.4765263], [16.1629294, 43.4767758], [16.1630014, 43.4767805]]], [[[16.1654655, 43.4784993], [16.1655342, 43.4785135], [16.1655539, 43.4784921], [16.1654655, 43.4784993]]], [[[16.1666544, 43.4786993], [16.1668204, 43.4784677], [16.1664551, 43.4786219], [16.1666544, 43.4786993]]], [[[16.166385, 43.4786493], [16.1657139, 43.4785448], [16.1654477, 43.4786608], [16.166385, 43.4786493]]], [[[16.0028365, 43.4788745], [16.0022607, 43.4788428], [16.0027628, 43.4790483], [16.0028365, 43.4788745]]], [[[16.0348505, 43.4797032], [16.0332391, 43.4802436], [16.0340094, 43.4810648], [16.0348505, 43.4797032]]], [[[16.0227989, 43.4872441], [16.0230625, 43.4874427], [16.0231595, 43.4871561], [16.0227989, 43.4872441]]], [[[16.1857804, 43.5118337], [16.1314313, 43.5202256], [16.1100022, 43.5136566], [16.1769449, 43.4950784], [16.1590231, 43.4830063], [16.1326899, 43.4809586], [16.1125752, 43.4892277], [16.1288855, 43.4780546], [16.1213472, 43.4723436], [16.0923158, 43.472651], [16.0669644, 43.4855886], [16.0594305, 43.4753299], [16.0375299, 43.4778286], [16.0434336, 43.4900326], [16.026626, 43.4928054], [16.0144628, 43.4849418], [16.0176061, 43.5066012], [16.0708019, 43.5147554], [16.0371346, 43.5293602], [16.0399836, 43.5352222], [16.0603746, 43.5392268], [16.0821761, 43.5319186], [16.0914133, 43.5377256], [16.0538671, 43.5672115], [16.0459509, 43.5942663], [16.0759238, 43.6155899], [16.1021596, 43.6106047], [16.1085837, 43.6302691], [16.1203297, 43.6351524], [16.1157931, 43.6525495], [16.1344121, 43.6571782], [16.1538703, 43.6957298], [16.264507270564955, 43.65880277220452], [16.23124, 43.670897], [16.2479019, 43.6961982], [16.2813525, 43.687449], [16.2884244, 43.6941968], [16.3327114, 43.6895748], [16.3529776, 43.7131419], [16.3337385, 43.734125], [16.3608755, 43.7499011], [16.3389592, 43.7682043], [16.3870454, 43.7855885], [16.4198348, 43.8084235], [16.4396897, 43.813649], [16.447606, 43.8050797], [16.429362, 43.8259165], [16.3983318, 43.8499623], [16.4038902, 43.8504319], [16.3432703, 43.8781529], [16.3359516, 43.8955035], [16.3545909, 43.9244508], [16.3720855, 43.9157865], [16.4073721, 43.9167297], [16.4127151, 43.9230397], [16.3984726, 43.9319298], [16.4138529, 43.9480756], [16.4383409, 43.9454342], [16.4562318, 43.9621633], [16.4862766, 43.9727368], [16.5444441, 43.973994], [16.5501921, 43.9535514], [16.5879572, 43.9427775], [16.626711, 43.9016472], [16.7099738, 43.8549713], [16.7246702, 43.7960952], [16.752895, 43.7694671], [16.800058, 43.7629156], [16.8250501, 43.7311748], [16.770544, 43.7222033], [16.7402619, 43.7266034], [16.7276931, 43.7380963], [16.7403745, 43.7608354], [16.7013001, 43.7306078], [16.7142203, 43.7081093], [16.7133567, 43.6642849], [16.7235355, 43.6452219], [16.7564819, 43.6660675], [16.8073473, 43.6580838], [16.8854348, 43.685667], [16.9082701, 43.6748054], [16.9318, 43.6437588], [16.9709992, 43.6180452], [17.0079839, 43.5757585], [17.0826083, 43.5428674], [17.1493277, 43.4956884], [17.1751362, 43.4900372], [17.2232553, 43.4986278], [17.2687134, 43.4794095], [17.2863382, 43.4631755], [17.2823793, 43.4311656], [17.2507166, 43.4030221], [17.2817141, 43.3435087], [17.3114222, 43.2972531], [17.3277409, 43.2850859], [17.3422426, 43.2531594], [17.3971889, 43.2453664], [17.4222942, 43.2297314], [17.4324503, 43.2050821], [17.4297849, 43.181343], [17.450849, 43.1769776], [17.4359291, 43.1529933], [17.4145435, 43.1471316], [17.3451574, 43.1578638], [17.3494798, 43.1632091], [17.3452191, 43.1582609], [17.3428794, 43.1481769], [17.3768633, 43.1429223], [17.4070327, 43.1077796], [17.391891, 43.1093265], [17.3561449, 43.0841435], [17.3358678, 43.1121253], [17.2891431, 43.1279678], [17.2604381, 43.1510313], [17.201873078534234, 43.17172073372261], [17.1867893, 43.1690861], [17.1530538, 43.1927371], [17.1117218, 43.2081923], [17.1052245, 43.2275766], [17.0772961, 43.2335933], [17.0538222, 43.2693922], [17.0083651, 43.2947209], [17.0130856, 43.2992996], [16.9858826, 43.3222209], [17.0027041, 43.3300361], [16.9854963, 43.3228435], [16.9861478, 43.3213146], [16.981553, 43.3230537], [16.9479617, 43.3579281], [16.88922, 43.3995053], [16.7500812, 43.4072842], [16.7103461, 43.4201988], [16.6950497, 43.4419872], [16.6394107, 43.4369944], [16.6396732, 43.4440668], [16.6231844, 43.4529825], [16.5819013, 43.4631156], [16.5361796, 43.4915562], [16.53087789459914, 43.505464184690624], [16.5238464, 43.4977104], [16.4974494, 43.5022873], [16.4652464, 43.502086], [16.4624976, 43.4994509], [16.4577261, 43.4987179], [16.462899, 43.500521], [16.435997, 43.5010064], [16.442516, 43.5036503], [16.4368905, 43.5079711], [16.4290965, 43.5006068], [16.4183676, 43.5038615], [16.3999105, 43.5048916], [16.3992879, 43.5078113], [16.3878248, 43.5082464], [16.4258835, 43.5162237], [16.42085, 43.5225284], [16.432796, 43.5274704], [16.4271289, 43.5286087], [16.4419881, 43.5297882], [16.444127, 43.523647], [16.446604, 43.5304452], [16.4774192, 43.5321732], [16.4281103, 43.5456604], [16.3478171, 43.5510502], [16.3098372, 43.5391395], [16.2946979, 43.5243773], [16.2795651, 43.5267739], [16.1816607, 43.5072954], [16.1857804, 43.5118337]], [[17.25214, 43.4108932], [17.251566129716938, 43.410738305340814], [17.2548115, 43.4100826], [17.25214, 43.4108932]], [[16.2747542, 43.6185316], [16.2721256, 43.6143916], [16.27511329712671, 43.61871765579471], [16.2747542, 43.6185316]], [[16.2880176, 43.587612], [16.2990591, 43.5837797], [16.262067, 43.5984114], [16.2880176, 43.587612]], [[16.2531448, 43.5553829], [16.253113183152813, 43.5553564268554], [16.2608237, 43.5557079], [16.2531448, 43.5553829]], [[16.2356865, 43.5481231], [16.235760967209977, 43.54742745500427], [16.23605916444525, 43.54819009334833], [16.2356865, 43.5481231]], [[16.131662055393125, 43.5823487593099], [16.1345857, 43.5832889], [16.1320813, 43.5827529], [16.131662055393125, 43.5823487593099]], [[16.1176585, 43.5670085], [16.120445890779884, 43.57153667387638], [16.1190409, 43.5701823], [16.1176585, 43.5670085]], [[16.160595795819525, 43.61747440184436], [16.1519627, 43.6226794], [16.138949711718507, 43.62781046574891], [16.160595795819525, 43.61747440184436]], [[16.2121456, 43.6113391], [16.216250843144998, 43.613670708287046], [16.210170205046627, 43.611509692636574], [16.2121456, 43.6113391]], [[16.2257605, 43.6190718], [16.2289525, 43.6223969], [16.217724257585836, 43.61450754673953], [16.2257605, 43.6190718]], [[16.146063796057806, 43.655588741191714], [16.1545698, 43.6544284], [16.2021413, 43.6544905], [16.146063796057806, 43.655588741191714]], [[16.3665716, 43.6982471], [16.3695344, 43.7007979], [16.3510363, 43.6875727], [16.3665716, 43.6982471]], [[16.3758773, 43.5971907], [16.3719291, 43.5983328], [16.3466803, 43.5993204], [16.3758773, 43.5971907]], [[16.3443629, 43.5980695], [16.343932483520067, 43.5959953499723], [16.3466803, 43.5993204], [16.3443629, 43.5980695]], [[16.402914738360117, 43.57050861537935], [16.3745429, 43.5758479], [16.3977588, 43.5706662], [16.402914738360117, 43.57050861537935]], [[16.4134992, 43.5710831], [16.407229098235682, 43.57037675252204], [16.4305166, 43.569665], [16.4134992, 43.5710831]], [[16.2839423, 43.5546806], [16.2640218, 43.5519446], [16.284036098550327, 43.554367083853045], [16.2839423, 43.5546806]], [[16.29491207044406, 43.53605468237449], [16.2910926, 43.5396493], [16.2919589, 43.5374836], [16.29491207044406, 43.53605468237449]], [[16.2971483, 43.5339501], [16.29621533298182, 43.534828143104846], [16.2980457, 43.5298515], [16.2971483, 43.5339501]], [[16.4834082, 43.529446], [16.47349490444103, 43.5272583383497], [16.4744763, 43.5271275], [16.4834082, 43.529446]], [[16.484346, 43.7906277], [16.4641717, 43.7964158], [16.4945195, 43.7868215], [16.484346, 43.7906277]], [[16.5294671, 43.7586626], [16.5141921, 43.7582906], [16.5195831, 43.7572344], [16.5294671, 43.7586626]], [[16.5253063, 43.643186], [16.526924, 43.6334815], [16.5274749, 43.6374696], [16.5253063, 43.643186]], [[16.5302498, 43.520148], [16.511571730042505, 43.52346148908575], [16.5159456, 43.5222222], [16.5302498, 43.520148]], [[16.51088135479076, 43.52365709950006], [16.504206, 43.5281774], [16.5106043, 43.5237356], [16.51088135479076, 43.52365709950006]], [[16.3730669, 43.691122], [16.4160852, 43.6799537], [16.3969557, 43.6859512], [16.3730669, 43.691122]], [[17.077041181616362, 43.25903941973219], [17.0785689, 43.2594091], [17.079423669523095, 43.25974375084933], [17.077041181616362, 43.25903941973219]], [[17.09119326466477, 43.26435166550237], [17.1050755, 43.2697867], [17.0960998, 43.2671438], [17.09119326466477, 43.26435166550237]], [[17.1275952, 43.2945496], [17.1300315, 43.2931499], [17.1160719, 43.3022181], [17.1275952, 43.2945496]], [[17.2194943, 43.1878123], [17.2402805, 43.2071756], [17.218386776385678, 43.1873206607497], [17.2194943, 43.1878123]], [[16.8899774, 43.435439], [16.8946552, 43.4407677], [16.888733780979805, 43.4353052276696], [16.8899774, 43.435439]], [[16.8914684, 43.4435411], [16.8854499, 43.4474979], [16.8946552, 43.4407677], [16.8914684, 43.4435411]], [[16.9473981, 43.418484], [16.9539846, 43.4135622], [16.94688122533773, 43.419606625632156], [16.9473981, 43.418484]], [[16.9720978, 43.3887642], [16.9772166, 43.381936], [16.9705566, 43.39181], [16.9720978, 43.3887642]], [[17.0994258, 43.4170189], [17.1021937, 43.4327902], [17.0983314, 43.4120935], [17.0994258, 43.4170189]], [[17.1382642, 43.4324161], [17.140127135135973, 43.43247635048489], [17.136120754993215, 43.4329880692334], [17.1382642, 43.4324161]], [[17.174996310855576, 43.442410409403415], [17.1750748, 43.4477939], [17.1749139, 43.4427696], [17.174996310855576, 43.442410409403415]], [[17.175976, 43.4381404], [17.1801925, 43.435812], [17.17575390367374, 43.43910841460646], [17.175976, 43.4381404]], [[17.1915704, 43.4307722], [17.1987855, 43.4312786], [17.19036410357961, 43.43154718486831], [17.1915704, 43.4307722]], [[17.2063494, 43.4310293], [17.2039461, 43.4296268], [17.1941051, 43.4189507], [17.2063494, 43.4310293]], [[17.238729, 43.4104567], [17.2392268883216, 43.41014783205051], [17.240231, 43.4108231], [17.238729, 43.4104567]], [[17.240110235769027, 43.40959984226458], [17.2412074, 43.4105347], [17.23945962118224, 43.4100034548512], [17.240110235769027, 43.40959984226458]], [[16.9425112, 43.3657547], [16.94163057792884, 43.36399409935207], [16.9457317, 43.3680906], [16.9425112, 43.3657547]], [[17.07828470751566, 43.31283394255521], [17.0672207, 43.326575], [17.0771, 43.3136897], [17.07828470751566, 43.31283394255521]], [[17.066101, 43.296039], [17.0489324, 43.2800997], [17.047544028828813, 43.27784112943869], [17.066101, 43.296039]], [[17.107532216133198, 43.41366991059483], [17.10995973591473, 43.41180379189016], [17.1097364, 43.4127593], [17.107532216133198, 43.41366991059483]], [[17.189116174570156, 43.3833531222123], [17.1900757, 43.3856341], [17.1902278, 43.3895628], [17.189116174570156, 43.3833531222123]], [[16.6053762, 43.4722309], [16.590297924607146, 43.476816898047595], [16.61048750423069, 43.46973647335838], [16.6053762, 43.4722309]], [[16.768755851596158, 43.52948835050647], [16.7586504, 43.5226994], [16.7688274, 43.5293846], [16.768755851596158, 43.52948835050647]], [[16.8649532, 43.5161495], [16.940927593958822, 43.50018250948762], [16.8419757, 43.5185171], [16.8649532, 43.5161495]], [[16.618711919058946, 43.466852195880094], [16.677275, 43.4463143], [16.6264343, 43.4650366], [16.618711919058946, 43.466852195880094]], [[17.0731466, 43.5065573], [17.0707245, 43.5094441], [17.0712302, 43.5079764], [17.0731466, 43.5065573]], [[16.637175055773817, 43.5825850571826], [16.6378379, 43.5823823], [16.638104079158236, 43.582598909615605], [16.637175055773817, 43.5825850571826]], [[16.646680734290705, 43.589578366548864], [16.6498201, 43.5921331], [16.6476344, 43.5916126], [16.646680734290705, 43.589578366548864]], [[16.6657501, 43.5636202], [16.66585434086665, 43.5608989155833], [16.6659647, 43.5610119], [16.6657501, 43.5636202]], [[16.5433217, 43.5187598], [16.544306162407757, 43.51873519117474], [16.5439703, 43.5190429], [16.5433217, 43.5187598]], [[16.536793152903595, 43.50864217654503], [16.53652233961318, 43.50838464325078], [16.5367738, 43.5085123], [16.536793152903595, 43.50864217654503]], [[16.53097, 43.5055966], [16.53093702578947, 43.505549194633446], [16.531105675411702, 43.50563481154832], [16.53097, 43.5055966]], [[16.6314615, 43.6441201], [16.631480640572114, 43.643296819943615], [16.6431498, 43.6561052], [16.6314615, 43.6441201]], [[16.6477632, 43.7445609], [16.6271587, 43.7355944], [16.6354339, 43.7382784], [16.6477632, 43.7445609]]], [[[16.2669598, 42.3912511], [16.2594133, 42.3909421], [16.2496409, 42.3938088], [16.2545763, 42.3944743], [16.2669598, 42.3912511]]], [[[16.2472501, 42.3934482], [16.2474479, 42.3934545], [16.2472315, 42.3934248], [16.2472501, 42.3934482]]], [[[16.2471386, 42.3936768], [16.2470737, 42.3937834], [16.2473089, 42.3937334], [16.2471386, 42.3936768]]], [[[16.2475208, 42.3938041], [16.2478578, 42.3936682], [16.2474833, 42.3937412], [16.2475208, 42.3938041]]], [[[16.2458738, 42.3943651], [16.2458667, 42.3942471], [16.2456915, 42.394463], [16.2458738, 42.3943651]]], [[[16.1848784, 43.0177442], [16.1848201, 43.0174295], [16.1844889, 43.0175229], [16.1848784, 43.0177442]]], [[[16.2221724, 43.0170424], [16.2304986, 43.0217452], [16.2277449, 43.014342], [16.2221724, 43.0170424]]], [[[16.2365154, 43.0252987], [16.2385273, 43.0245447], [16.2364153, 43.0246128], [16.2365154, 43.0252987]]], [[[16.2419099, 43.0301137], [16.2486417, 43.0274149], [16.2486058, 43.0250433], [16.2407077, 43.02279], [16.2419099, 43.0301137]]], [[[16.2384342, 43.0267173], [16.2380697, 43.0271037], [16.2385994, 43.0268646], [16.2384342, 43.0267173]]], [[[16.2547831, 43.0362742], [16.2583534, 43.0363604], [16.2540433, 43.0341928], [16.2547831, 43.0362742]]], [[[16.2518044, 43.0390279], [16.2517718, 43.037842], [16.2510191, 43.0390825], [16.2518044, 43.0390279]]], [[[16.2425077, 43.0395858], [16.2424806, 43.0403028], [16.2426962, 43.0403395], [16.2425077, 43.0395858]]], [[[16.2591979, 43.0652204], [16.260112, 43.0659829], [16.2602889, 43.0657706], [16.2591979, 43.0652204]]], [[[16.2011815, 43.0751125], [16.2048699, 43.0767196], [16.2054346, 43.0765992], [16.2011815, 43.0751125]]], [[[16.2189639, 43.0780416], [16.2189508, 43.0778876], [16.2185311, 43.0777821], [16.2189639, 43.0780416]]], [[[16.1911842, 43.0842009], [16.1911239, 43.0842851], [16.191313, 43.0843282], [16.1911842, 43.0842009]]], [[[16.1930805, 43.0858307], [16.1931583, 43.0858797], [16.1933219, 43.0856583], [16.1930805, 43.0858307]]], [[[16.2385172, 43.380018], [16.2380812, 43.3802598], [16.2388885, 43.3800213], [16.2385172, 43.380018]]], [[[16.1964826, 43.3844936], [16.196718, 43.3847047], [16.1971802, 43.3843451], [16.1964826, 43.3844936]]], [[[16.1828764, 43.393072], [16.1826006, 43.390828], [16.1801292, 43.3931238], [16.1828764, 43.393072]]], [[[16.1959629, 43.3901143], [16.1929458, 43.3943914], [16.1983059, 43.3936553], [16.1959629, 43.3901143]]], [[[16.1857257, 43.3955304], [16.183537, 43.3973269], [16.1860027, 43.3967674], [16.1857257, 43.3955304]]], [[[16.1998986, 43.3990384], [16.198283, 43.3991232], [16.1996295, 43.3994744], [16.1998986, 43.3990384]]], [[[16.1958003, 43.4002193], [16.1931662, 43.4018433], [16.1959748, 43.4022878], [16.1958003, 43.4002193]]], [[[16.1696957, 43.407436], [16.1816335, 43.4004959], [16.1706538, 43.4013837], [16.1696957, 43.407436]]], [[[16.1793319, 43.4366269], [16.176296, 43.4361845], [16.1755132, 43.4390973], [16.1793319, 43.4366269]]], [[[16.1780912, 43.4404501], [16.1798652, 43.4415536], [16.1801333, 43.4404107], [16.1780912, 43.4404501]]], [[[16.1860569, 43.4722201], [16.1870005, 43.4724899], [16.1872967, 43.4724176], [16.1860569, 43.4722201]]], [[[16.1800352, 43.4725731], [16.1776954, 43.4729029], [16.1807912, 43.4727318], [16.1800352, 43.4725731]]], [[[16.1729463, 43.4737536], [16.1768367, 43.4728759], [16.1725739, 43.4734749], [16.1729463, 43.4737536]]], [[[16.1978375, 43.4740388], [16.198134, 43.4740793], [16.198193, 43.4740323], [16.1978375, 43.4740388]]], [[[16.194887, 43.4739589], [16.195233, 43.4742731], [16.1954406, 43.4741598], [16.194887, 43.4739589]]], [[[16.1890785, 43.4762591], [16.1906445, 43.4752086], [16.188574, 43.4757218], [16.1890785, 43.4762591]]], [[[16.1696057, 43.4775793], [16.1695757, 43.4776231], [16.1696412, 43.4776556], [16.1696057, 43.4775793]]], [[[16.2202918, 43.4777026], [16.215917, 43.4786195], [16.2214081, 43.4779768], [16.2202918, 43.4777026]]], [[[16.2253195, 43.4775231], [16.2373372, 43.4800493], [16.2391977, 43.4774483], [16.2372494, 43.4767824], [16.2253195, 43.4775231]]], [[[16.2098374, 43.4789029], [16.2097279, 43.4792257], [16.2103947, 43.4789481], [16.2098374, 43.4789029]]], [[[16.2556856, 43.4924971], [16.258911862484247, 43.506079629148324], [16.2374683, 43.5119983], [16.3003283, 43.514149], [16.3131742, 43.5106525], [16.3261089, 43.5031058], [16.3385096, 43.5011169], [16.3523912, 43.4926726], [16.3921626, 43.4883291], [16.3187709, 43.4822455], [16.272557, 43.4936216], [16.2711015, 43.4861015], [16.2460521, 43.478997], [16.2093732, 43.4883409], [16.2031059, 43.4966537], [16.2556856, 43.4924971]], [[16.3061804, 43.5010177], [16.305940416543976, 43.49785006670494], [16.3097399, 43.5114762], [16.3061804, 43.5010177]], [[16.2637961, 43.5046479], [16.2633356, 43.5057093], [16.261910510679428, 43.50522581995524], [16.2637961, 43.5046479]]], [[[16.1942951, 43.5010072], [16.1945499, 43.5012014], [16.194566, 43.5009111], [16.1942951, 43.5010072]]], [[[16.193656, 43.5013123], [16.1935031, 43.5008407], [16.1933797, 43.5011531], [16.193656, 43.5013123]]], [[[16.2493473, 43.5179717], [16.2467345, 43.5149865], [16.245963, 43.516092], [16.2493473, 43.5179717]]], [[[16.3393082, 42.3778308], [16.3382777, 42.3780045], [16.339563, 42.3779196], [16.3393082, 42.3778308]]], [[[16.271558, 42.3863263], [16.2717196, 42.3862061], [16.2715235, 42.3862317], [16.271558, 42.3863263]]], [[[16.2739804, 42.3875219], [16.2737152, 42.3872758], [16.273227, 42.3876443], [16.2739804, 42.3875219]]], [[[16.2674054, 42.3885089], [16.2676104, 42.3884082], [16.267588, 42.388307], [16.2674054, 42.3885089]]], [[[16.2730962, 42.3888559], [16.2712298, 42.3877981], [16.2689517, 42.389046], [16.2730962, 42.3888559]]], [[[16.2706232, 42.3893208], [16.2702423, 42.3893208], [16.2704539, 42.3894639], [16.2706232, 42.3893208]]], [[[16.2743464, 42.3898529], [16.2750944, 42.3890575], [16.27412, 42.3898189], [16.2743464, 42.3898529]]], [[[16.263046, 43.0436018], [16.2631023, 43.0433882], [16.2630218, 43.0434097], [16.263046, 43.0436018]]], [[[16.2637299, 43.0462168], [16.2634349, 43.0458874], [16.2633866, 43.0462716], [16.2637299, 43.0462168]]], [[[16.2643731, 43.0489759], [16.2678402, 43.051985], [16.2646863, 43.0477377], [16.2643731, 43.0489759]]], [[[16.3801316, 43.1462466], [16.3815394, 43.144912], [16.3784112, 43.1447391], [16.3801316, 43.1462466]]], [[[16.3848228, 43.1455339], [16.3854325, 43.1463033], [16.3856573, 43.1462515], [16.3848228, 43.1455339]]], [[[16.3856237, 43.1465816], [16.3861515, 43.1466748], [16.3856735, 43.1464367], [16.3856237, 43.1465816]]], [[[16.3630285, 43.1564428], [16.361272, 43.149421], [16.355319, 43.1541912], [16.3630285, 43.1564428]]], [[[16.4120404, 43.1568462], [16.4108391, 43.1564708], [16.4109648, 43.1570467], [16.4120404, 43.1568462]]], [[[16.4206356, 43.1537164], [16.4120283, 43.1545642], [16.4222741, 43.1648017], [16.4295059, 43.1571389], [16.4209502, 43.1598324], [16.4206356, 43.1537164]]], [[[16.4322774, 43.1615917], [16.4382249, 43.1580148], [16.4311705, 43.1567252], [16.4322774, 43.1615917]]], [[[16.4125785, 43.1600065], [16.4057953, 43.1573234], [16.4052128, 43.1605767], [16.406856, 43.1614797], [16.4125785, 43.1600065]]], [[[16.4162343, 43.1637889], [16.4158008, 43.159562], [16.4134541, 43.1602573], [16.4162343, 43.1637889]]], [[[16.3540767, 43.1696487], [16.3931534, 43.1613842], [16.4016118, 43.1672573], [16.4035668, 43.1561943], [16.376619, 43.1544688], [16.3726216, 43.16197], [16.366582, 43.1531247], [16.3642528, 43.1635854], [16.3304341, 43.1673879], [16.3516326, 43.1771376], [16.3540767, 43.1696487]]], [[[16.4049777, 43.1664627], [16.4055754, 43.1681035], [16.4064196, 43.1674656], [16.4049777, 43.1664627]]], [[[16.3951351, 43.1682155], [16.3949404, 43.1683321], [16.3951348, 43.1683835], [16.3951351, 43.1682155]]], [[[16.3653695, 43.169905], [16.3642971, 43.1683727], [16.3639636, 43.1685976], [16.3653695, 43.169905]]], [[[16.317226, 43.1700336], [16.314508, 43.1753246], [16.3183738, 43.1708044], [16.317226, 43.1700336]]], [[[16.3275547, 43.1721201], [16.3249991, 43.1728629], [16.3282935, 43.1733821], [16.3275547, 43.1721201]]], [[[16.3322589, 43.1727122], [16.333182, 43.1733902], [16.3338283, 43.171576], [16.3322589, 43.1727122]]], [[[16.3106661, 43.174617], [16.3110213, 43.1754917], [16.3118164, 43.1750061], [16.3106661, 43.174617]]], [[[16.3171357, 43.1762717], [16.3185391, 43.1754935], [16.3168404, 43.176124], [16.3171357, 43.1762717]]], [[[16.3250091, 43.1758723], [16.325425, 43.1763464], [16.3254692, 43.1761703], [16.3250091, 43.1758723]]], [[[16.3142518, 43.1764236], [16.3145738, 43.1763919], [16.3145414, 43.1761704], [16.3142518, 43.1764236]]], [[[16.4059191, 43.1973015], [16.4066149, 43.196922], [16.4047991, 43.1960907], [16.4059191, 43.1973015]]], [[[16.3599004, 43.3340954], [16.3600868, 43.3341211], [16.3599882, 43.3340629], [16.3599004, 43.3340954]]], [[[16.3596958, 43.3344088], [16.3596259, 43.334466], [16.3597418, 43.3344416], [16.3596958, 43.3344088]]], [[[16.4092432, 43.3382082], [16.4104948, 43.339048], [16.4103376, 43.33793], [16.4092432, 43.3382082]]], [[[16.2811273, 43.367074], [16.2808201, 43.3670809], [16.2808226, 43.3672179], [16.2811273, 43.367074]]], [[[16.2850475, 43.3689113], [16.2852934, 43.3694298], [16.2854686, 43.3692361], [16.2850475, 43.3689113]]], [[[16.3127811, 43.3797939], [16.3294713, 43.3948945], [16.3527081, 43.3696214], [16.3603863, 43.3726858], [16.3689073, 43.3593096], [16.3635098, 43.3565299], [16.3922841, 43.3412281], [16.3988279, 43.3294878], [16.3886072, 43.3363228], [16.3815753, 43.3253788], [16.3758223, 43.3346017], [16.3665925, 43.3309863], [16.3662546, 43.3409218], [16.3576329, 43.3340881], [16.3171155, 43.3481801], [16.3060549, 43.3548399], [16.3091183, 43.3619433], [16.2875003, 43.3642879], [16.2852479, 43.3729497], [16.2780607, 43.3672484], [16.2310067, 43.3857614], [16.2097251, 43.3827341], [16.2061261, 43.3886529], [16.2165815, 43.3939727], [16.204852, 43.3929396], [16.2082947, 43.403891], [16.2002389, 43.4099643], [16.2756102, 43.4107231], [16.2965142, 43.4031055], [16.3008919, 43.3925039], [16.3055577, 43.399685], [16.3181066, 43.3956401], [16.3127811, 43.3797939]]], [[[16.4177574, 43.5032502], [16.4173382, 43.503526], [16.4178822, 43.5032657], [16.4177574, 43.5032502]]], [[[16.4155532, 43.5223783], [16.4153944, 43.5225383], [16.4157033, 43.5224279], [16.4155532, 43.5223783]]], [[[16.2749974, 43.5240572], [16.2737278, 43.5247704], [16.2764886, 43.5250871], [16.2749974, 43.5240572]]], [[[16.4187969, 43.5322835], [16.4189592, 43.5321557], [16.4184715, 43.5322296], [16.4187969, 43.5322835]]], [[[16.4519583, 43.1563159], [16.4534347, 43.1570628], [16.4534045, 43.1559802], [16.4519583, 43.1563159]]], [[[16.4387379, 43.1664573], [16.4375564, 43.1655142], [16.4368537, 43.1659685], [16.4387379, 43.1664573]]], [[[16.5983586, 43.1343985], [16.5448519, 43.1388978], [16.4819058, 43.1633364], [16.4673739, 43.1569682], [16.4487948, 43.1615924], [16.4246705, 43.1793069], [16.3663315, 43.1951194], [16.391857, 43.1979482], [16.4173334, 43.1883671], [16.4129971, 43.1980233], [16.4213067, 43.192455], [16.4253681, 43.1988], [16.4285041, 43.1899475], [16.43471, 43.1911706], [16.4303279, 43.2002223], [16.4392441, 43.1941734], [16.4390808, 43.2024721], [16.4485639, 43.1976231], [16.4497681, 43.2053044], [16.4679576, 43.2033686], [16.4693992, 43.2099404], [16.5266939, 43.2030835], [16.5665924536506, 43.1768795305253], [16.5990576, 43.184653], [16.5750514, 43.1896258], [16.5694372, 43.1976306], [16.5749426, 43.2016693], [16.5635066, 43.2010748], [16.5556955, 43.2104876], [16.5615229, 43.2136417], [16.557759, 43.2197551], [16.5392355, 43.2104413], [16.5196074, 43.2255385], [16.5293423, 43.2300523], [16.5492107, 43.223166], [16.5451521, 43.2330962], [16.5611708, 43.2357043], [16.5657529, 43.2290184], [16.5741073, 43.2324321], [16.5665864, 43.2184705], [16.5699214, 43.2120855], [16.5824446, 43.2136232], [16.5800944, 43.2049065], [16.6062427, 43.2206623], [16.6156889, 43.2110641], [16.640222, 43.2120772], [16.6427619, 43.2189831], [16.6445121, 43.2119368], [16.650488, 43.2185471], [16.6665563, 43.2126015], [16.6521534, 43.1864295], [16.6600108, 43.1994862], [16.66858, 43.1987971], [16.6772096, 43.1931989], [16.6727851, 43.1889433], [16.6811655, 43.1912452], [16.6998947, 43.1791481], [16.6856997, 43.1773102], [16.6729767, 43.1818226], [16.6694985, 43.1823468], [16.6672484, 43.1817625], [16.6958648, 43.1698274], [16.6926248, 43.1616525], [16.7027057, 43.1666063], [16.7191711, 43.1567725], [16.7475358, 43.1642996], [16.7486437, 43.1583245], [16.7571972, 43.1643432], [16.7786574, 43.1567536], [16.8233908, 43.1615937], [16.8403969, 43.1550944], [16.877828, 43.1614155], [16.873311, 43.1570163], [16.8841852, 43.159984], [16.8851485, 43.1478931], [16.8942602, 43.1563434], [16.898347, 43.150788], [16.9689193, 43.1506787], [17.0633958, 43.1350681], [17.1446994, 43.1394787], [17.1967194, 43.1247943], [17.114912, 43.1137796], [16.9806141, 43.1188983], [16.9348463, 43.1121777], [16.784041, 43.1273085], [16.6585339, 43.1216183], [16.5983586, 43.1343985]], [[16.5869315, 43.1492007], [16.586655794707106, 43.149205082787724], [16.6056622, 43.1415403], [16.5869315, 43.1492007]], [[16.6224507, 43.1384929], [16.621778605069334, 43.138614896729415], [16.621517, 43.1370122], [16.6224507, 43.1384929]], [[16.9757589, 43.1224498], [16.97679649629991, 43.12082137013947], [16.9750953, 43.1253504], [16.9757589, 43.1224498]]], [[[16.4780632, 43.2949347], [16.4691144, 43.296799], [16.4656274, 43.3080247], [16.464208, 43.2982315], [16.4539786, 43.2986521], [16.4588927, 43.3072862], [16.4518208, 43.3116073], [16.4429862, 43.3105256], [16.446013, 43.3037108], [16.4337213, 43.3071489], [16.4352491, 43.3158754], [16.4293788, 43.3090203], [16.4089006, 43.3172675], [16.4089217, 43.3334801], [16.4243795, 43.3227352], [16.4492914, 43.3252724], [16.4344414, 43.3303087], [16.4324533, 43.3426064], [16.4469305, 43.3517163], [16.4639167, 43.3496193], [16.4451664, 43.3577328], [16.4504672, 43.3682739], [16.4340149, 43.3761986], [16.4328995, 43.3916861], [16.509258, 43.3841051], [16.5486033, 43.3883122], [16.6056553, 43.3757866], [16.6061515, 43.3809901], [16.6794051, 43.371621], [16.7201946, 43.3589463], [16.7358412, 43.36199], [16.7346873, 43.3469714], [16.7435826, 43.3466926], [16.7427248, 43.3619164], [16.7814515, 43.3573139], [16.7820812, 43.3490591], [16.798517, 43.3545579], [16.8194986, 43.3462748], [16.7912411, 43.3398787], [16.7994764, 43.3352594], [16.823133, 43.3400689], [16.8296444, 43.330479], [16.8367187, 43.3324642], [16.8312724, 43.3404374], [16.8402858, 43.3429705], [16.8662507, 43.3298479], [16.8636837, 43.325243], [16.8993803, 43.3144056], [16.8854397, 43.3078002], [16.8945101, 43.2988082], [16.8804834, 43.2956855], [16.8794806, 43.2817846], [16.8606021, 43.2883027], [16.8666221, 43.2810746], [16.8550737, 43.2712161], [16.7822296, 43.2617363], [16.6585157, 43.2620038], [16.6340184, 43.2553196], [16.5294009, 43.2699315], [16.5065023, 43.2785293], [16.5087632, 43.2831758], [16.4996914, 43.2782608], [16.4971717, 43.2929013], [16.4898493, 43.2847375], [16.4803054, 43.2930023], [16.4889243, 43.3088864], [16.4780632, 43.2949347]], [[16.5840835, 43.2681863], [16.585739, 43.269254], [16.5848433, 43.2651836], [16.5840835, 43.2681863]], [[16.5152095, 43.3587562], [16.514832138361832, 43.35878342487685], [16.515198287693284, 43.358575127184764], [16.5152095, 43.3587562]], [[16.5195027, 43.3547447], [16.515131011213754, 43.35748864767132], [16.514298043739597, 43.353853178407554], [16.5195027, 43.3547447]], [[16.5184708, 43.3476499], [16.51143669453914, 43.352614232926385], [16.511371487131825, 43.352604247096515], [16.5184708, 43.3476499]], [[16.5883804, 43.2674549], [16.59644512833907, 43.26692458316274], [16.5965677, 43.2670906], [16.5883804, 43.2674549]], [[16.609554, 43.2768299], [16.6342109, 43.2857864], [16.6218805, 43.2815189], [16.609554, 43.2768299]], [[16.5388801, 43.3680807], [16.5374662, 43.3661587], [16.539168218754163, 43.367511731853334], [16.5388801, 43.3680807]], [[16.604483754287333, 43.34139887861498], [16.6042912, 43.3407844], [16.6060604, 43.3366692], [16.604483754287333, 43.34139887861498]], [[16.6014672, 43.3212468], [16.6023011, 43.317594], [16.6008482, 43.3282047], [16.6014672, 43.3212468]]], [[[16.452914, 43.4995443], [16.4529999, 43.4995598], [16.4530079, 43.499519], [16.452914, 43.4995443]]], [[[16.4527045, 43.4996421], [16.45257, 43.4995924], [16.4524803, 43.4996604], [16.4527045, 43.4996421]]], [[[16.4520894, 43.4997125], [16.4520816, 43.4997511], [16.4521435, 43.4997318], [16.4520894, 43.4997125]]], [[[16.4524122, 43.4997778], [16.452347, 43.499773], [16.4522873, 43.4997939], [16.4524122, 43.4997778]]], [[[16.450069, 43.5002094], [16.4501953, 43.5001278], [16.4496315, 43.5001982], [16.450069, 43.5002094]]], [[[16.4447711, 43.5002448], [16.4448077, 43.5002957], [16.4448321, 43.5002544], [16.4447711, 43.5002448]]], [[[16.4444591, 43.5003554], [16.4445099, 43.5002949], [16.44445, 43.5003222], [16.4444591, 43.5003554]]], [[[16.4711066, 43.5009344], [16.4710711, 43.5010625], [16.4714224, 43.5011025], [16.4711066, 43.5009344]]], [[[16.4420403, 43.5299463], [16.4417914, 43.5300286], [16.4421374, 43.5299873], [16.4420403, 43.5299463]]], [[[16.442191, 43.5299793], [16.4419039, 43.5300945], [16.4424051, 43.5300579], [16.442191, 43.5299793]]], [[[16.4712365, 43.5323771], [16.4709947, 43.532327], [16.4709603, 43.5323799], [16.4712365, 43.5323771]]], [[[16.4459047, 43.5349914], [16.4458772, 43.535], [16.4459054, 43.5349973], [16.4459047, 43.5349914]]], [[[16.4455555, 43.5350444], [16.4455356, 43.5350588], [16.4455601, 43.5350529], [16.4455555, 43.5350444]]], [[[16.4451912, 43.535091], [16.4452332, 43.5350707], [16.445183, 43.5350859], [16.4451912, 43.535091]]], [[[16.4449204, 43.5351248], [16.4449227, 43.535135], [16.4449916, 43.5351147], [16.4449204, 43.5351248]]], [[[16.4448391, 43.5351472], [16.4447844, 43.5351394], [16.4447851, 43.5351528], [16.4448391, 43.5351472]]], [[[16.444648, 43.5351846], [16.4446943, 43.5351495], [16.4445417, 43.5351891], [16.444648, 43.5351846]]], [[[16.444799, 43.5351818], [16.4447736, 43.5351735], [16.444769, 43.5351807], [16.444799, 43.5351818]]], [[[16.4442591, 43.5352285], [16.4443261, 43.5352583], [16.4443161, 43.5352205], [16.4442591, 43.5352285]]], [[[16.4507436, 43.5353303], [16.450757, 43.535324], [16.4507438, 43.5353222], [16.4507436, 43.5353303]]], [[[16.450028, 43.5354358], [16.4500369, 43.5353956], [16.4500138, 43.5354375], [16.450028, 43.5354358]]], [[[16.4496685, 43.5354595], [16.4496712, 43.5354936], [16.4498053, 43.5354663], [16.4496685, 43.5354595]]], [[[16.4493567, 43.5354668], [16.449311, 43.5354742], [16.4493405, 43.5354911], [16.4493567, 43.5354668]]], [[[16.4497976, 43.5355015], [16.4497783, 43.535496], [16.4497777, 43.5355015], [16.4497976, 43.5355015]]], [[[16.450086, 43.5354996], [16.4500884, 43.5355271], [16.4501257, 43.5354941], [16.450086, 43.5354996]]], [[[16.4498102, 43.5355176], [16.4498364, 43.5355234], [16.4498371, 43.5355103], [16.4498102, 43.5355176]]], [[[16.4497633, 43.5355249], [16.44977, 43.5355128], [16.4497465, 43.5355225], [16.4497633, 43.5355249]]], [[[16.4495559, 43.5355091], [16.4494885, 43.5356173], [16.4496417, 43.5355363], [16.4495559, 43.5355091]]], [[[16.4488451, 43.5355896], [16.4490167, 43.5355503], [16.4487136, 43.5355406], [16.4488451, 43.5355896]]], [[[16.4498646, 43.5355761], [16.4499581, 43.5355575], [16.4497338, 43.5356243], [16.4498646, 43.5355761]]], [[[16.448721, 43.5356433], [16.4486212, 43.535693], [16.448716, 43.5357033], [16.448721, 43.5356433]]], [[[16.4493039, 43.5356701], [16.449311, 43.5356834], [16.4493455, 43.5356694], [16.4493039, 43.5356701]]], [[[16.4483125, 43.535736], [16.448041, 43.5357127], [16.448165, 43.5357762], [16.4483125, 43.535736]]], [[[16.4493018, 43.5357622], [16.4493151, 43.5357703], [16.4493201, 43.5357622], [16.4493018, 43.5357622]]], [[[16.4478226, 43.5357828], [16.4477721, 43.5358982], [16.4479153, 43.5358172], [16.4478226, 43.5357828]]], [[[16.4458278, 43.5357263], [16.445778, 43.5364336], [16.4469757, 43.5361179], [16.4458278, 43.5357263]]], [[[16.4438208, 43.53624], [16.4438947, 43.536418], [16.4439576, 43.5363544], [16.4438208, 43.53624]]], [[[16.5823926, 43.0826611], [16.5804668, 43.0829496], [16.5822279, 43.0833893], [16.5823926, 43.0826611]]], [[[16.5730159, 43.08756], [16.5754414, 43.0869062], [16.5724258, 43.0868211], [16.5730159, 43.08756]]], [[[16.7405411, 43.089161], [16.7066667, 43.0799368], [16.6604172, 43.0889589], [16.6948894, 43.0986381], [16.7001455, 43.0897889], [16.7020475, 43.0975129], [16.7303195, 43.0951322], [16.7405411, 43.089161]]], [[[16.6124158, 43.130297], [16.6125251, 43.1303649], [16.6125276, 43.1303123], [16.6124158, 43.130297]]], [[[16.6123957, 43.1305803], [16.6123791, 43.1305211], [16.6123677, 43.1306003], [16.6123957, 43.1305803]]], [[[16.5846096, 43.1347199], [16.584566, 43.134501], [16.5844881, 43.1345145], [16.5846096, 43.1347199]]], [[[16.5152128, 43.1502427], [16.5152519, 43.1501042], [16.5152013, 43.1501245], [16.5152128, 43.1502427]]], [[[16.5137075, 43.1502874], [16.5136397, 43.1502868], [16.5136944, 43.150349], [16.5137075, 43.1502874]]], [[[16.6950843, 43.1888557], [16.6948062, 43.1915821], [16.6976492, 43.1900935], [16.6950843, 43.1888557]]]]}}]}