{"type": "FeatureCollection", "features": [{"type": "Feature", "properties": {"slug": "spokane", "members": 4, "country": "United States", "input_hash": "012d80eab704de24"}, "geometry": {"type": "Polygon", "coordinates": [[[-117.823695, 47.260378], [-117.82078040319692, 47.82463872200281], [-117.840041, 47.837946], [-117.880313, 47.847633], [-117.886897, 47.838137], [-117.913184, 47.835276], [-117.935133, 47.823201], [-117.990151, 47.834665], [-118.013855, 47.804858], [-118.033866, 47.803218], [-118.046385, 47.792254], [-118.078212, 47.800161], [-118.097057, 47.828377], [-118.121321, 47.833701], [-118.123549, 47.858354], [-118.142016, 47.884021], [-118.160627, 47.885053], [-118.160413, 47.897524], [-118.17858, 47.902205], [-118.176649, 47.911005], [-118.210435, 47.945241], [-118.249031, 47.943119], [-118.315509, 47.910027], [-118.3203, 47.896709], [-118.340925, 47.894395], [-118.339012, 47.904747], [-118.355652, 47.931721], [-118.351608, 47.972664], [-118.374687, 47.989143], [-118.377495, 48.006695], [-118.399124, 48.026836], [-118.349777, 48.048206], [-118.267616, 48.039543], [-118.262901, 48.058823], [-118.235909, 48.057465], [-118.231873, 48.095657], [-118.246933, 48.10973], [-118.250465, 48.125], [-118.246132, 48.132767], [-118.217712, 48.132767], [-118.191521, 48.146172], [-118.18705, 48.157623], [-118.194839, 48.185879], [-118.184937, 48.197708], [-118.190521, 48.212093], [-118.148849, 48.239994], [-118.137871, 48.262413], [-118.181923, 48.33881], [-118.180923, 48.366478], [-118.203781, 48.41116], [-118.202003, 48.442059], [-118.212517, 48.452385], [-118.20369, 48.471169], [-118.185646, 48.481026], [-118.173286, 48.521915], [-118.152214, 48.521099], [-118.14167, 48.530159], [-118.137077, 48.562408], [-118.127243, 48.570557], [-118.12883, 48.601528], [-118.10508, 48.635307], [-118.102325, 48.654198], [-118.1190671, 48.6795584], [-118.1193642, 48.7184115], [-118.1266396, 48.7263375], [-118.1172069, 48.7360186], [-118.127389, 48.7378217], [-118.1299887, 48.7448678], [-118.1217604, 48.7477132], [-118.1338379, 48.7577922], [-118.1252577, 48.7638743], [-118.1343548, 48.7750872], [-118.1224859, 48.7804048], [-118.1273864, 48.7855833], [-118.1439482, 48.7796373], [-118.1605429, 48.7933641], [-118.1709757, 48.827877], [-118.1957058, 48.8406548], [-118.1984613, 48.867288], [-118.2141018, 48.8790341], [-118.2100187, 48.8993133], [-118.1959863, 48.913324], [-118.221817, 48.9371652], [-118.2072163, 48.9625579], [-118.2217828, 48.9701318], [-118.2157889, 48.9855233], [-118.2062268, 48.9883062], [-118.2202024, 48.9971822], [-117.0323503, 48.9991971], [-117.0415497383314, 47.976898850965185], [-116.6332168, 47.9770538], [-116.6333305, 47.9915469], [-116.5036339, 47.9908877], [-116.5050244, 47.8904532], [-116.3235449, 47.8887254], [-116.324951, 47.41367], [-116.587982, 47.414543], [-116.587524, 47.400291], [-116.630341, 47.400101], [-116.630081, 47.371597], [-116.7357115, 47.3713724], [-116.7351109, 47.3859038], [-116.7681226, 47.3858195], [-116.7681218, 47.380675], [-116.8107777, 47.3806503], [-116.8107916, 47.3663096], [-117.0396807, 47.3660605], [-117.04047015720705, 47.47077942693733], [-117.040019, 47.259272], [-117.823695, 47.260378]], [[-117.7938105, 47.8110589], [-117.7910869, 47.8112042], [-117.806595, 47.815308], [-117.7938105, 47.8110589]], [[-117.7880554, 47.8138859], [-117.7802148, 47.82622], [-117.7910869, 47.8112042], [-117.7880554, 47.8138859]], [[-117.67702863279288, 47.8886593345356], [-117.6801515, 47.8889768], [-117.68137640895738, 47.88859111823863], [-117.67702863279288, 47.8886593345356]], [[-117.66495578343897, 47.88012540920132], [-117.6651407, 47.8814558], [-117.6733015797284, 47.88828044854607], [-117.66495578343897, 47.88012540920132]], [[-117.6676175, 47.8680303], [-117.6646236, 47.8777355], [-117.66474622468613, 47.87861772900758], [-117.6676175, 47.8680303]]]}}]}