{"type":"FeatureCollection","features":[{"type":"Feature","properties":{"slug":"springfield","member_count":72,"matched_count":3,"unmatched":["Greenfield city (US-MA, type='City')","Montague town (US-MA, type='Town')","Orange town (US-MA, type='Town')","Deerfield town (US-MA, type='Town')","Sunderland town (US-MA, type='Town')","Northfield town (US-MA, type='Town')","Bernardston town (US-MA, type='Town')","Shelburne town (US-MA, type='Town')","Leverett town (US-MA, type='Town')","Buckland town (US-MA, type='Town')","Conway town (US-MA, type='Town')","Shutesbury town (US-MA, type='Town')","Ashfield town (US-MA, type='Town')","Erving town (US-MA, type='Town')","Colrain town (US-MA, type='Town')","Whately town (US-MA, type='Town')","Gill town (US-MA, type='Town')","Charlemont town (US-MA, type='Town')","New Salem town (US-MA, type='Town')","Wendell town (US-MA, type='Town')","Warwick town (US-MA, type='Town')","Leyden town (US-MA, type='Town')","Heath town (US-MA, type='Town')","Rowe town (US-MA, type='Town')","Hawley town (US-MA, type='Town')","Monroe town (US-MA, type='Town')","Springfield city (US-MA, type='City')","Chicopee city (US-MA, type='City')","Westfield city (US-MA, type='City')","Holyoke city (US-MA, type='City')","West Springfield Town city (US-MA, type='City')","Agawam Town city (US-MA, type='City')","Ludlow town (US-MA, type='Town')","East Longmeadow town (US-MA, type='Town')","Longmeadow town (US-MA, type='Town')","Wilbraham town (US-MA, type='Town')","Palmer Town city (US-MA, type='City')","Southwick town (US-MA, type='Town')","Monson town (US-MA, type='Town')","Hampden town (US-MA, type='Town')","Brimfield town (US-MA, type='Town')","Holland town (US-MA, type='Town')","Wales town (US-MA, type='Town')","Russell town (US-MA, type='Town')","Granville town (US-MA, type='Town')","Chester town (US-MA, type='Town')","Blandford town (US-MA, type='Town')","Montgomery town (US-MA, type='Town')","Tolland town (US-MA, type='Town')","Amherst Town city (US-MA, type='City')","Northampton city (US-MA, type='City')","South Hadley town (US-MA, type='Town')","Easthampton city (US-MA, type='City')","Belchertown town (US-MA, type='Town')","Ware town (US-MA, type='Town')","Southampton town (US-MA, type='Town')","Granby town (US-MA, type='Town')","Hadley town (US-MA, type='Town')","Hatfield town (US-MA, type='Town')","Williamsburg town (US-MA, type='Town')","Huntington town (US-MA, type='Town')","Westhampton town (US-MA, type='Town')","Pelham town (US-MA, type='Town')","Worthington town (US-MA, type='Town')","Chesterfield town (US-MA, type='Town')","Goshen town (US-MA, type='Town')","Cummington town (US-MA, type='Town')","Plainfield town (US-MA, type='Town')","Middlefield town (US-MA, type='Town')"],"source":"Overture Maps division_area (CC-BY 4.0)"},"geometry":{"type":"Polygon","coordinates":[[[-72.2180683,42.2486052],[-72.2627921,42.2025339],[-72.2639243,42.1838306],[-72.2006259,42.1612872],[-72.1993483,42.1537068],[-72.1350106,42.1617837],[-72.1357152,42.0302219],[-72.53156,42.0345758],[-72.5821627,42.0247409],[-72.7558941,42.0363492],[-72.7520155,42.028947],[-72.7651168,42.0224491],[-72.7589428,42.0154362],[-72.766733,42.0032657],[-72.8170238,41.9976982],[-72.8137839,42.0367437],[-73.053259,42.0398159],[-73.0540404,42.0575634],[-73.0730817,42.0941845],[-73.0729338,42.1112469],[-73.0610935,42.1187005],[-73.0721027,42.1436322],[-73.0349204,42.1436528],[-73.00185,42.2510165],[-73.0002779,42.3126621],[-73.0064778,42.3048039],[-73.0294105,42.3085734],[-73.0627114,42.3289514],[-73.0685085,42.3807197],[-73.0657721,42.3891113],[-73.0116826,42.3796831],[-72.9685826,42.5400116],[-72.9790357,42.5416175],[-72.9510392,42.6410058],[-72.9550085,42.6657451],[-72.9757688,42.6608694],[-72.9957566,42.6735391],[-72.9757986,42.6794073],[-72.9740416,42.6881872],[-72.9541602,42.6904349],[-72.9490476,42.7043448],[-73.0237094,42.7026898],[-73.0230122,42.7411379],[-72.2830393,42.7215898],[-72.2718838,42.6744178],[-72.2294672,42.662667],[-72.2253144,42.6304261],[-72.2292054,42.6145962],[-72.2547454,42.6116138],[-72.2533177,42.605336],[-72.2670636,42.6008127],[-72.261331,42.5759204],[-72.2764344,42.5773742],[-72.2691112,42.533425],[-72.2448681,42.5134394],[-72.2912878,42.4795253],[-72.2832593,42.4411885],[-72.313726,42.4064342],[-72.3145086,42.3465379],[-72.2842159,42.3520098],[-72.2746585,42.3019686],[-72.2107959,42.311381],[-72.2167452,42.2940563],[-72.2032814,42.2911819],[-72.217818,42.27018],[-72.2104599,42.247205],[-72.2180683,42.2486052]]]}}]}