{"type": "FeatureCollection", "features": [{"type": "Feature", "properties": {"slug": "st-gallen", "members": 9, "country": "Switzerland", "input_hash": "9ad57d789747a69a"}, "geometry": {"type": "MultiPolygon", "coordinates": [[[[9.179009437335708, 47.386734008567714], [9.207819938539387, 47.3412590024011], [9.224582671952817, 47.3433799743064], [9.236445426715136, 47.33386230430193], [9.210362434378908, 47.3211517334658], [9.223999023636054, 47.29272460965308], [9.207076072402856, 47.27694320656377], [9.2345457078182, 47.26572418202545], [9.273615836801469, 47.26939010646828], [9.31039905547209, 47.260364532896915], [9.323554038887835, 47.247253418410594], [9.342880249324082, 47.24935531659463], [9.380764007952678, 47.23536682172147], [9.407177924721509, 47.23713684039291], [9.390419006232207, 47.22588729826026], [9.392937660144923, 47.20845794687682], [9.376622200054555, 47.189563750966386], [9.334329605027278, 47.176410675012676], [9.316769600136979, 47.152568817496956], [9.222330093259245, 47.14495468131355], [9.2214412689994, 47.16113281222954], [9.236349105726674, 47.17225265503606], [9.229348183072261, 47.18151474041298], [9.211437224948043, 47.17734909058811], [9.166511535479003, 47.18642044055093], [9.129020690652396, 47.180068969607305], [9.107058525030936, 47.21168518022694], [9.103731155768287, 47.23440933242483], [9.044575691415048, 47.2657928470623], [9.04876899719153, 47.28408813495952], [9.003977775254157, 47.304237365362155], [8.981767654853456, 47.328117370320456], [8.974601745274356, 47.35456848125045], [8.944244384970432, 47.38069915744023], [8.971097946113389, 47.39481353761471], [8.977417946181333, 47.41324615468636], [8.989543914520084, 47.41583633437938], [8.990690231768838, 47.43261718733339], [9.021830558933175, 47.44489288290026], [9.055253982385409, 47.44556045505101], [9.0834693905, 47.422492981266146], [9.080527305191026, 47.41195297275152], [9.104076385716667, 47.41429519676598], [9.107777595959362, 47.40664291403931], [9.145926475626425, 47.4015007020958], [9.16529941573549, 47.38541412396273], [9.179009437335708, 47.386734008567714]]], [[[9.242914199830523, 47.44493103034284], [9.237915, 47.4817564], [9.300482750178844, 47.47878646832089], [9.320426201516185, 47.49152197578012], [9.317247, 47.5005128], [9.308228, 47.4979315], [9.31544366989609, 47.50945183777063], [9.305049474937771, 47.51479023311304], [9.29156, 47.5066644], [9.2683646, 47.5108752], [9.321089744496135, 47.532955169445586], [9.342697143758244, 47.530956267917475], [9.344808578353252, 47.5227470395443], [9.358194351188388, 47.52001190172791], [9.337457904891473, 47.50409372379688], [9.375370025406369, 47.50185775792926], [9.36858272591212, 47.48702621428839], [9.381477355595507, 47.48775482162779], [9.39460372887902, 47.476020812910235], [9.412322998307786, 47.47798538191989], [9.404291153114286, 47.45445632929619], [9.427344322282693, 47.45369339033772], [9.430459022565913, 47.44242477448381], [9.497741427969583, 47.45311113381117], [9.523271560534113, 47.46816253687166], [9.530488013810839, 47.467651367616554], [9.53165817298634, 47.45529174821564], [9.4513898, 47.4310679], [9.435982087454198, 47.4343211523711], [9.433348655815848, 47.41366958608256], [9.404795646701757, 47.402355193837195], [9.376704216426504, 47.408283233384566], [9.303572654354582, 47.396652221322995], [9.220717429865545, 47.404277801379465], [9.215158462193301, 47.43891906696143], [9.223054885674458, 47.44290161122041], [9.220830917113176, 47.449619293295825], [9.242914199830523, 47.44493103034284]]], [[[9.3546048, 47.5093815], [9.3590917, 47.5105357], [9.358528, 47.5085599], [9.3546048, 47.5093815]]]]}}]}