{"type": "FeatureCollection", "features": [{"type": "Feature", "properties": {"slug": "st-moritz", "members": 12, "country": "Switzerland", "input_hash": "f6e78cd8eac5596d"}, "geometry": {"type": "Polygon", "coordinates": [[[9.597391128597735, 46.41908264165062], [9.637832641862985, 46.41204833975911], [9.687666893112691, 46.440193176274136], [9.72283554092752, 46.447887420468135], [9.732313156027374, 46.46411132777558], [9.726540565194966, 46.47145080561023], [9.73312759376347, 46.48942184474237], [9.72503757502409, 46.50675582841882], [9.729549408078753, 46.51336288488926], [9.702157020829873, 46.51765823404031], [9.694314002689111, 46.54859924356032], [9.716545105172543, 46.5476493832125], [9.740172386246684, 46.562179565834356], [9.830305099201041, 46.57832717915602], [9.824378967115706, 46.5927581791467], [9.829582214247864, 46.6008415222185], [9.86387062093246, 46.6080856323461], [9.867397308738873, 46.620330810318706], [9.88612174951919, 46.626548767012025], [9.865073204265002, 46.6593856814041], [9.881258964129927, 46.68572235090585], [9.893118858148853, 46.68377685561745], [9.927212715394546, 46.69858932463768], [9.953399658567434, 46.696949005292424], [9.96229457863194, 46.68128967258036], [10.034438132913579, 46.65105438265368], [10.061900138480667, 46.63631820671992], [10.06100845347737, 46.62950515783683], [10.091688155983661, 46.626258849866076], [10.100374221992809, 46.61459732021024], [10.09491443605242, 46.58173751807203], [10.078391075187994, 46.57906723036842], [10.079764366032691, 46.56677246108029], [10.04249668077722, 46.544666290616874], [10.049576759060244, 46.51982498143781], [10.039633751096801, 46.51142120362567], [10.041344642940942, 46.4852294922473], [10.049839973535995, 46.46686553931323], [10.038529396214699, 46.45410919208558], [10.03779029828371, 46.436939239354444], [10.019837379591422, 46.4331283567883], [10.015547752826592, 46.416000366423816], [9.980061531014883, 46.40393829311779], [9.965374946396707, 46.3849449154755], [9.930504798857442, 46.37930679307408], [9.922919273705588, 46.37157058741275], [9.902399063066355, 46.38555908228585], [9.868761062273279, 46.368141173876154], [9.830698013002973, 46.36671447769106], [9.820617675865094, 46.35600662240773], [9.777596473498477, 46.34059143045022], [9.73915290847998, 46.35585784936029], [9.72608661620444, 46.347274780007126], [9.7172757, 46.3239658], [9.724764824137367, 46.318874358864605], [9.712154388314445, 46.299480438471505], [9.689977646251407, 46.30070495626876], [9.678673744597688, 46.30995178194922], [9.642942428750132, 46.29513168308074], [9.620726585063892, 46.295028686424814], [9.560363769172682, 46.31369400037789], [9.549275398141162, 46.31031036413208], [9.518486976592726, 46.334339142137765], [9.497580527819139, 46.370944976729334], [9.465367317547702, 46.38281249969714], [9.468717575455798, 46.39498519860808], [9.455859183954203, 46.421249389947434], [9.507411002715628, 46.441627502307426], [9.518037795807686, 46.43644714382066], [9.531738280996933, 46.39686965960715], [9.552159309004935, 46.38973236105966], [9.571752547941799, 46.40977096585743], [9.597391128597735, 46.41908264165062]]]}}]}