{"type":"FeatureCollection","features":[{"type":"Feature","properties":{"slug":"st-marys-pa","member_count":13,"matched_count":13,"unmatched":[],"source":"Overture Maps division_area (CC-BY 4.0)"},"geometry":{"type":"MultiPolygon","coordinates":[[[[-79.4391569,41.3151106],[-79.441133,41.2055224],[-79.4716644,41.2066386],[-79.4954746,41.2333338],[-79.5090815,41.2333309],[-79.5092348,41.2489118],[-79.5283764,41.2497669],[-79.5238602,41.3358236],[-79.4782015,41.3355307],[-79.4782098,41.3152557],[-79.4391569,41.3151106]],[[-79.4660817,41.2481508],[-79.4577492,41.2487471],[-79.4574878,41.2562638],[-79.4673008,41.2575224],[-79.4660817,41.2481508]]],[[[-78.95946,41.371487],[-78.972766,41.376444],[-79.017425,41.350092],[-79.028572,41.357523],[-79.06333,41.350107],[-79.076706,41.354249],[-79.095096,41.340658],[-79.0935241,41.4232442],[-79.0650863,41.4231541],[-79.0635048,41.4531661],[-78.9765956,41.4518286],[-78.9765682,41.4370078],[-78.958957,41.437061],[-78.956056,41.623863],[-78.483409,41.629898],[-78.482836,41.602354],[-78.419118,41.602188],[-78.420029,41.4050234],[-78.253959,41.404721],[-78.2541702,41.323548],[-78.234675,41.323413],[-78.236817,41.230475],[-78.646666,41.253778],[-78.647947,41.21746],[-78.710248,41.201859],[-78.7099998,41.2310344],[-78.7391509,41.2307876],[-78.7352852,41.2629164],[-78.959257,41.362161],[-78.95946,41.371487]]]]}}]}