{"type":"FeatureCollection","features":[{"type":"Feature","properties":{"slug":"st-petersburg","member_count":20,"matched_count":1,"unmatched":["Vsevolozhsky Raion (RU-LEN, type='District')","Tosnensky Raion (RU-LEN, type='District')","Primorsky Raion (RU-SPE, type='Administrative District')","Kalininsky Raion (RU-SPE, type='Administrative District')","Nevsky Raion (RU-SPE, type='Administrative District')","Vyborgsky Raion (RU-SPE, type='Administrative District')","Krasnoselsky Raion (RU-SPE, type='Administrative District')","Frunzensky Raion (RU-SPE, type='Administrative District')","Krasnogvardeysky Raion (RU-SPE, type='Administrative District')","Moskovsky Raion (RU-SPE, type='Administrative District')","Kirovsky Raion (RU-SPE, type='Administrative District')","Pushkinsky Raion (RU-SPE, type='Administrative District')","Vasilyevsky Island (RU-SPE, type='Administrative District')","Tsentralny Raion (RU-SPE, type='Administrative District')","Kolpinsky Raion (RU-SPE, type='Administrative District')","Admiralteysky Raion (RU-SPE, type='Administrative District')","Petrodvortsovy Raion (RU-SPE, type='Administrative District')","Petrogradsky Raion (RU-SPE, type='Administrative District')","Kurortny Raion (RU-SPE, type='Administrative District')"],"source":"Overture Maps division_area (CC-BY 4.0)"},"geometry":{"type":"MultiPolygon","coordinates":[[[[29.7056432,59.9500531],[29.7028296,59.9484998],[29.7024018,59.9491398],[29.7031656,59.9501931],[29.7056432,59.9500531]]],[[[29.7038609,59.9568017],[29.7053951,59.9585729],[29.7058269,59.9581821],[29.7038609,59.9568017]]],[[[29.6952852,59.9732321],[29.6959182,59.9715667],[29.6945817,59.9721742],[29.6952852,59.9732321]]],[[[29.7169393,59.9750474],[29.7169527,59.9737844],[29.715333,59.9743625],[29.7169393,59.9750474]]],[[[29.7184333,59.9890997],[29.7168267,59.9896437],[29.7186841,59.9897383],[29.7184333,59.9890997]]],[[[29.7361694,59.9886795],[29.7316888,59.990242],[29.7372309,59.989249],[29.7361694,59.9886795]]],[[[29.5418725,60.0430888],[29.5429698,60.0422042],[29.5415682,60.0424834],[29.5418725,60.0430888]]],[[[29.7152376,60.0568605],[29.7194132,60.0595757],[29.7291241,60.0604423],[29.7152376,60.0568605]]],[[[29.7491406,59.9807258],[29.7477165,59.9782712],[29.7442601,59.9788929],[29.7491406,59.9807258]]],[[[29.9497533,60.0364989],[29.7669836,60.0205426],[29.748632,60.0106935],[29.804372,59.9846392],[29.7913773,59.9843025],[29.793382,59.978067],[29.7848542,59.9783228],[29.7924502,59.9730447],[29.7844236,59.9702282],[29.7525953,59.9830669],[29.7495979,59.9928042],[29.7367358,59.9906762],[29.7382897,59.999762],[29.7128532,60.0055893],[29.6898404,59.9806377],[29.6730352,59.9373629],[29.6870862,59.9906461],[29.6991999,60.0002768],[29.6760113,60.0226549],[29.6341154,60.031521],[29.7263023,60.0186503],[29.7442535,60.0213784],[29.7460838,60.0260105],[29.7473026,60.0270825],[29.7573951,60.0305322],[29.7452688,60.0214708],[29.9497533,60.0364989]]],[[[29.8506287,60.0215915],[29.8471928,60.0208315],[29.844996,60.0215888],[29.8506287,60.0215915]]],[[[29.8773247,60.0222066],[29.8719871,60.0213676],[29.8712213,60.0216342],[29.8738968,60.0228151],[29.8773247,60.0222066]]],[[[29.8968458,60.0267228],[29.8933992,60.0269707],[29.8988602,60.0279449],[29.8968458,60.0267228]]],[[[29.7883051,60.0289309],[29.7917611,60.0270421],[29.7882718,60.028279],[29.7883051,60.0289309]]],[[[29.8530252,60.0875218],[29.8453353,60.0846098],[29.8486606,60.0871089],[29.8517163,60.0880589],[29.8530252,60.0875218]]]]}}]}