{"type":"FeatureCollection","features":[{"type":"Feature","properties":{"slug":"state-college","member_count":2,"matched_count":2,"unmatched":[],"source":"Overture Maps division_area (CC-BY 4.0)"},"geometry":{"type":"Polygon","coordinates":[[[-78.0375926,41.1538769],[-78.0034584,41.144763],[-77.9997013,41.1625993],[-77.9713241,41.1747529],[-77.9716284,41.2062531],[-77.9566608,41.2178898],[-77.9372051,41.2104164],[-77.9387084,41.2240516],[-77.922913,41.2265259],[-77.8983033,41.2528765],[-77.892724,41.178259],[-77.79856,41.18195],[-77.790009,41.177142],[-77.789563,41.142127],[-77.776813,41.145147],[-77.741852,41.107547],[-77.728725,41.111467],[-77.716364,41.105083],[-77.706619,41.113887],[-77.691,41.106267],[-77.66331,41.108845],[-77.65897,41.100955],[-77.568401,41.066049],[-77.561889,41.057554],[-77.579952,41.046982],[-77.5088621,40.9627264],[-77.3398202,40.9880663],[-77.1434612,41.042971],[-77.2030837,40.9937125],[-77.2792231,40.9097168],[-77.3641712,40.8469393],[-77.6525257,40.7449129],[-77.710529,40.7145462],[-77.7185779,40.7273398],[-77.7686906,40.7190797],[-77.8249024,40.743445],[-77.9442446,40.6915814],[-78.1321763,40.7436637],[-78.359912,40.732592],[-78.35043,40.724827],[-78.802288,40.7246255],[-78.806309,40.7297032],[-78.804532,41.132186],[-78.7665068,41.2023831],[-78.710248,41.201859],[-78.647947,41.21746],[-78.646666,41.253778],[-78.236817,41.230475],[-78.09337,41.2171777],[-78.0375926,41.1538769]]]}}]}