{"type":"FeatureCollection","features":[{"type":"Feature","properties":{"slug":"storm-lake-ia","member_count":12,"matched_count":3,"unmatched":["Storm Lake city (US-IA, type='City')","Balance of Buena Vista County (US-IA, type='Balance')","Alta city (US-IA, type='City')","Newell city (US-IA, type='City')","Sioux Rapids city (US-IA, type='City')","Albert City city (US-IA, type='City')","Rembrandt city (US-IA, type='City')","Linn Grove city (US-IA, type='City')","Truesdale city (US-IA, type='City')"],"source":"Overture Maps division_area (CC-BY 4.0)"},"geometry":{"type":"MultiPolygon","coordinates":[[[[-98.5369732,33.8365282],[-98.524311,33.832168],[-98.527253,33.829357],[-98.536928,33.829284],[-98.537062,33.824309],[-98.540925,33.819599],[-98.552644,33.830454],[-98.5489913,33.8354921],[-98.537515,33.824982],[-98.5369732,33.8365282]]],[[[-95.3879864,42.5617873],[-95.3881327,42.9098022],[-94.9138748,42.9097058],[-94.9146437,42.5603101],[-95.3879864,42.5617873]]],[[[-89.8224281,44.9439765],[-89.8222398,44.9306382],[-89.829908,44.927429],[-89.822822,44.923355],[-89.839172,44.923276],[-89.844846,44.91601],[-89.844734,44.926724],[-89.858,44.931532],[-89.8597203,44.9479292],[-89.879994,44.9551489],[-89.8495546,44.9515707],[-89.8495669,44.944319],[-89.8289163,44.9533163],[-89.8287907,44.9442666],[-89.8224281,44.9439765]],[[-89.8291439,44.9375246],[-89.8311274,44.9395903],[-89.8342817,44.9375827],[-89.8291439,44.9375246]]]]}}]}