{"type": "FeatureCollection", "features": [{"type": "Feature", "properties": {"slug": "streni", "members": 3, "country": "Moldova", "input_hash": "67f6f1f6cd3c8a9b"}, "geometry": {"type": "MultiPolygon", "coordinates": [[[[28.6635328, 47.1312457], [28.7033541, 47.1018629], [28.7159114, 47.082813], [28.660545, 47.083142], [28.6474903, 47.0685491], [28.6311073, 47.0662703], [28.6027354, 47.0904406], [28.5651638, 47.0900242], [28.5286785, 47.1221201], [28.5476932, 47.1331966], [28.5414152, 47.1467535], [28.5581539, 47.1634968], [28.5815205, 47.1738315], [28.6199952, 47.168587], [28.6663146, 47.1385182], [28.6132318, 47.0950631], [28.6635328, 47.1312457]]], [[[28.7098727, 47.1681318], [28.7584161, 47.151926], [28.747289, 47.1439376], [28.766505, 47.1257081], [28.7449672, 47.1128787], [28.7356883, 47.0938965], [28.6903063, 47.1243555], [28.6927373, 47.1664892], [28.7098727, 47.1681318]]]]}}]}