{"type":"FeatureCollection","features":[{"type":"Feature","properties":{"slug":"stuttgart","member_count":488,"matched_count":485,"unmatched":["Esslingen (DE-BW, type='Rural District')","Heidenheim (DE-BW, type='Rural District')","Heilbronn Stadt (DE-BW, type='Urban District')"],"source":"Overture Maps division_area (CC-BY 4.0)"},"geometry":{"type":"MultiPolygon","coordinates":[[[[8.4072843,47.767508],[8.3745792,47.7654921],[8.3550338,47.7842395],[8.390401,47.7875794],[8.4072843,47.767508]]],[[[8.6441062,48.0338345],[8.6834573,48.0263737],[8.6999871,47.9972217],[8.6583254,47.9994333],[8.6301872,48.0148582],[8.6441062,48.0338345]]],[[[7.7910578,48.0395658],[7.7963391,48.0609551],[7.8149535,48.0710579],[7.8347762,48.0586342],[7.8311681,48.0363643],[7.8106034,48.0326007],[7.7910578,48.0395658]]],[[[7.8803935,48.0956523],[7.876459,48.0949757],[7.8780452,48.0969104],[7.8803935,48.0956523]]],[[[8.3995664,48.1343275],[8.4745543,48.1397501],[8.4767712,48.1290771],[8.4591386,48.1187475],[8.4027408,48.1282803],[8.3995664,48.1343275]]],[[[8.8139656,48.1825137],[8.7679192,48.1813485],[8.7641594,48.1630966],[8.7549991,48.1598156],[8.7258082,48.1705288],[8.7194175,48.1817144],[8.7442917,48.200952],[8.7128757,48.2093063],[8.7028612,48.2235914],[8.7103821,48.2313],[8.6979565,48.2453702],[8.7102209,48.2523238],[8.7056111,48.2590678],[8.6660202,48.2687799],[8.683616,48.2809189],[8.6487384,48.2889858],[8.6673916,48.3051378],[8.7186469,48.3148193],[8.7193629,48.3211723],[8.6932349,48.3284536],[8.7448718,48.3488303],[8.7449642,48.3581353],[8.7318987,48.3661439],[8.7375389,48.3802672],[8.6897819,48.3867288],[8.6895093,48.3952325],[8.6758908,48.4009077],[8.6546499,48.3946558],[8.6398561,48.4023183],[8.6004533,48.397181],[8.5956897,48.4109673],[8.5564698,48.3986814],[8.5457961,48.4054068],[8.5107272,48.4041242],[8.524217,48.3955129],[8.5211657,48.3881712],[8.483584,48.3822381],[8.4857208,48.3683019],[8.500184,48.3563988],[8.4705337,48.3470384],[8.4853375,48.3425385],[8.4874136,48.3324213],[8.5022409,48.3306855],[8.4993883,48.3208381],[8.4942926,48.314367],[8.4587893,48.3126367],[8.4446585,48.3005216],[8.4335224,48.3110156],[8.4334005,48.3224018],[8.3951041,48.3229948],[8.360079,48.3382668],[8.3599974,48.3762917],[8.345217,48.3844917],[8.3282435,48.3871011],[8.3152305,48.368631],[8.3201825,48.3583989],[8.3039639,48.34905],[8.2601756,48.366776],[8.2541296,48.3621333],[8.2516199,48.3696627],[8.2639633,48.3792046],[8.2509364,48.3823023],[8.2473458,48.3951225],[8.2328416,48.4013812],[8.2594427,48.4224589],[8.2540299,48.433537],[8.264386,48.4355222],[8.264317,48.4629936],[8.2749572,48.4790913],[8.2665696,48.4906691],[8.2419354,48.4916972],[8.2191162,48.5071605],[8.2227843,48.5153173],[8.2115783,48.521826],[8.2201357,48.5376984],[8.2126337,48.5581625],[8.2370334,48.5773184],[8.2064719,48.6021863],[8.2331697,48.6023244],[8.2609291,48.5890038],[8.3184707,48.5884463],[8.357505,48.6003001],[8.3495664,48.6099056],[8.3829271,48.6197736],[8.3882887,48.6370908],[8.429974,48.6444497],[8.4362045,48.6548445],[8.4305582,48.6600876],[8.4456492,48.6591943],[8.4480162,48.6862248],[8.4391614,48.6951374],[8.4670475,48.7003308],[8.4583288,48.7170862],[8.4757754,48.7242449],[8.4733325,48.7352712],[8.4852376,48.7559137],[8.4635967,48.7642925],[8.4219462,48.743704],[8.4210597,48.7547365],[8.4344449,48.7695771],[8.4256923,48.7921714],[8.3901086,48.8036707],[8.4088298,48.8121763],[8.403039,48.8229767],[8.3789632,48.8309079],[8.4173151,48.8305402],[8.4167593,48.8359576],[8.4385869,48.8121947],[8.4454015,48.8208933],[8.4930858,48.8201233],[8.4755549,48.8287444],[8.4760501,48.8403846],[8.4680139,48.8455523],[8.5190316,48.8674967],[8.5265584,48.8799846],[8.5161395,48.887469],[8.5180335,48.8996322],[8.5538553,48.9202128],[8.5540244,48.9276948],[8.5342825,48.9283651],[8.5434186,48.9356839],[8.5380723,48.953724],[8.5587972,48.9608215],[8.5572992,48.9702869],[8.574564,48.9881023],[8.6482031,48.9898625],[8.647557,49.0023988],[8.6607877,49.0075516],[8.6722083,48.9934783],[8.72478,48.990273],[8.7383005,49.0017745],[8.732288,49.026797],[8.7553443,49.0452755],[8.7971759,49.0455179],[8.8121877,49.0337018],[8.8389298,49.0381369],[8.8337241,49.0461822],[8.842115,49.0594414],[8.8356136,49.0615169],[8.8794827,49.0598554],[8.876316,49.0696516],[8.8649261,49.0714737],[8.8917562,49.0817101],[8.890901,49.112945],[8.8712384,49.132097],[8.8263503,49.1265345],[8.8421955,49.1502507],[8.8307868,49.1620448],[8.8179254,49.1571676],[8.8258167,49.1871398],[8.8172857,49.1941254],[8.8633927,49.174367],[8.8962838,49.1818271],[8.8866542,49.2025059],[8.9571742,49.2130341],[8.9647571,49.2277662],[9.005517,49.2419061],[9.0103945,49.2491318],[8.997022,49.2532203],[9.002927,49.2585012],[8.9973392,49.2655668],[9.0204279,49.2565386],[9.0181707,49.2652415],[9.0421503,49.2781887],[9.0227049,49.2905899],[9.0239338,49.2994759],[9.0689215,49.2789014],[9.1505904,49.2739587],[9.154166,49.2852848],[9.1304318,49.2926574],[9.1545016,49.2959031],[9.1623324,49.3285242],[9.1978406,49.3267196],[9.2206847,49.3075221],[9.2264152,49.3113855],[9.2418712,49.2973894],[9.2516937,49.2984482],[9.2616548,49.306115],[9.2691797,49.3303771],[9.2875018,49.3297448],[9.2944721,49.3475768],[9.3153085,49.3572594],[9.3104927,49.3770852],[9.3289194,49.3875107],[9.3548603,49.3666129],[9.3992179,49.3663389],[9.4240191,49.358162],[9.4434622,49.3643531],[9.4398899,49.3684826],[9.4514693,49.3749786],[9.4458958,49.3905006],[9.4645675,49.3970552],[9.4744993,49.3846517],[9.5078949,49.3753611],[9.5285188,49.3818763],[9.5721573,49.376397],[9.5747161,49.3844695],[9.5937864,49.3916524],[9.5907614,49.4011091],[9.5757297,49.3989023],[9.5700341,49.4160245],[9.6038524,49.42659],[9.6008463,49.4313018],[9.5437057,49.4491019],[9.5109007,49.4390062],[9.5141841,49.4456939],[9.5055351,49.4549317],[9.517125,49.4726949],[9.4906939,49.4888758],[9.4949511,49.5024825],[9.5057669,49.5012656],[9.5172296,49.5159081],[9.5242696,49.5118041],[9.5454523,49.5246788],[9.5421147,49.5327788],[9.522054,49.5367531],[9.4990682,49.5874191],[9.5121888,49.6023979],[9.5440062,49.6009102],[9.5370532,49.6155272],[9.5517254,49.6215085],[9.5477593,49.633973],[9.5392694,49.6398578],[9.5269015,49.6350416],[9.5199894,49.6431271],[9.5018897,49.6373128],[9.4918861,49.6446083],[9.4763307,49.6425476],[9.4065487,49.6653047],[9.3969649,49.6718961],[9.4121645,49.6754906],[9.4062818,49.6794253],[9.4207119,49.6909118],[9.4186951,49.7117778],[9.401477,49.7206486],[9.399843,49.7296522],[9.3856787,49.7319234],[9.3806713,49.7054203],[9.357625,49.7041604],[9.3442726,49.7186997],[9.3739958,49.7280384],[9.2960637,49.7386511],[9.322903,49.7435879],[9.3141088,49.7669358],[9.3525989,49.7694492],[9.3700531,49.7791715],[9.391869,49.7704896],[9.4240935,49.7896056],[9.4585434,49.769509],[9.4797603,49.7873063],[9.5009007,49.7888029],[9.5122436,49.7825859],[9.5155664,49.7627575],[9.5445229,49.7669311],[9.5547333,49.7470755],[9.5640815,49.7442513],[9.5690122,49.7502389],[9.557777,49.7653502],[9.5606629,49.7801531],[9.648822,49.7912772],[9.6519902,49.7806102],[9.6448802,49.7751324],[9.65073,49.76582],[9.6375794,49.7549266],[9.645494,49.7468794],[9.6387614,49.741017],[9.6469452,49.739156],[9.6255119,49.7316317],[9.6420332,49.7234499],[9.6257895,49.7049787],[9.6322749,49.6931902],[9.6532653,49.6870997],[9.6761252,49.6933846],[9.677039,49.7163248],[9.7008292,49.7169206],[9.71049,49.72705],[9.727814,49.6881229],[9.7394169,49.6882036],[9.7510275,49.6967864],[9.7528671,49.7101144],[9.7999073,49.730973],[9.7963051,49.7211336],[9.8327297,49.7022474],[9.8295311,49.6884249],[9.8406623,49.6835884],[9.8232995,49.6721968],[9.833859,49.6562537],[9.8304006,49.6506108],[9.8554802,49.6415296],[9.8728281,49.6100355],[9.8414667,49.594765],[9.8487845,49.5776702],[9.8100844,49.5572561],[9.8593252,49.5459197],[9.8751375,49.5785386],[9.9122295,49.5857217],[9.8978667,49.5625783],[9.9251105,49.5600796],[9.9206426,49.5545003],[9.9275189,49.5495338],[9.9200684,49.5449747],[9.92709,49.5360086],[9.9168842,49.5191514],[9.9251323,49.5086598],[9.9137362,49.4939579],[9.9266985,49.4846447],[10.020093,49.4850304],[10.0281632,49.5039989],[10.0526411,49.5098349],[10.0571711,49.5193338],[10.0397758,49.528906],[10.0613546,49.5374492],[10.0616718,49.5451492],[10.087446,49.5422595],[10.0897201,49.5303698],[10.0788393,49.5272981],[10.0825041,49.5111732],[10.1212506,49.511018],[10.1002771,49.4913714],[10.12217,49.4637897],[10.1050445,49.4630764],[10.0948792,49.4480655],[10.1331224,49.437935],[10.1524869,49.411628],[10.1521996,49.4012448],[10.1441684,49.4035575],[10.1388983,49.4030881],[10.1610052,49.3903803],[10.1445654,49.3835544],[10.1118546,49.38505],[10.1130648,49.3602621],[10.1245916,49.3569031],[10.1237873,49.350546],[10.106759,49.3529282],[10.1032198,49.3414498],[10.1230663,49.3246094],[10.1049744,49.3171279],[10.0958664,49.301972],[10.0416955,49.2869188],[10.0436524,49.2628473],[10.078493,49.2401463],[10.1236854,49.2462947],[10.1266345,49.2246273],[10.1405208,49.208792],[10.1257383,49.2108184],[10.1248429,49.2098833],[10.1290626,49.1955897],[10.1350913,49.2002392],[10.156987,49.1925956],[10.1680876,49.1782176],[10.1813356,49.1825656],[10.1772678,49.1732429],[10.195246,49.169925],[10.1968289,49.1557628],[10.2181176,49.1634809],[10.2481538,49.1492601],[10.25711,49.1290247],[10.2250872,49.1201883],[10.2293507,49.1111702],[10.2154262,49.1133531],[10.2107806,49.0968817],[10.2039944,49.0973769],[10.2117023,49.0942917],[10.2228037,49.0980597],[10.2280313,49.0891618],[10.2334981,49.0920489],[10.244034,49.0905891],[10.2476375,49.0929938],[10.2504695,49.092333],[10.2470955,49.0798275],[10.2340183,49.0763071],[10.2655266,49.0617425],[10.2565243,49.0615419],[10.250337,49.0404228],[10.2657925,49.0453093],[10.2847172,49.0365497],[10.2951931,49.0425048],[10.3042932,49.0382542],[10.3024939,49.0314438],[10.3211339,49.0254386],[10.3329125,49.0320398],[10.3501379,49.0283424],[10.345457,49.0174036],[10.3576174,49.0115269],[10.3540692,49.0047239],[10.3820157,48.9992305],[10.3815622,48.9883785],[10.3946939,48.9902432],[10.4119956,48.9785819],[10.4015009,48.9743299],[10.403842,48.9668668],[10.4105746,48.969709],[10.4202402,48.9683655],[10.4308088,48.9463044],[10.4514721,48.9386996],[10.4379249,48.9331792],[10.4569049,48.9170578],[10.4212612,48.906051],[10.4533478,48.8901737],[10.4446013,48.8803654],[10.4538565,48.8603268],[10.4499488,48.8508696],[10.4274056,48.8428688],[10.4264462,48.837],[10.4492878,48.8303664],[10.450678,48.8113395],[10.4209892,48.7991276],[10.4343855,48.7895099],[10.4267659,48.7816568],[10.4343505,48.7763761],[10.4304776,48.7700945],[10.4167036,48.776252],[10.4121401,48.7713718],[10.4282908,48.7559205],[10.4158902,48.748285],[10.4396194,48.7389093],[10.4479584,48.7274739],[10.4500913,48.7350049],[10.463965,48.7362708],[10.4549224,48.7293733],[10.4831888,48.7085328],[10.4716601,48.7028445],[10.4952642,48.6871931],[10.4819171,48.6865529],[10.4490745,48.6651888],[10.410505,48.660995],[10.4085063,48.667773],[10.4261105,48.6732514],[10.4187519,48.6825842],[10.42275,48.6905271],[10.4299497,48.6860896],[10.4394824,48.6934996],[10.406221,48.6982386],[10.3920039,48.6870822],[10.3892871,48.667152],[10.3684422,48.6637755],[10.3610564,48.6528483],[10.3510934,48.6546502],[10.3472898,48.6793776],[10.3375833,48.6888514],[10.3173587,48.6886267],[10.3163179,48.6824827],[10.2687178,48.7036749],[10.2727329,48.6857075],[10.256072,48.6804912],[10.264801,48.6720092],[10.2543358,48.6645242],[10.2660557,48.659441],[10.2594512,48.6564903],[10.2682707,48.6466171],[10.2802666,48.6467627],[10.2833053,48.6368554],[10.3230487,48.60903],[10.2952883,48.6003847],[10.2931128,48.5897433],[10.3097838,48.5791933],[10.3160545,48.5557236],[10.3016273,48.5436755],[10.303228,48.5299236],[10.3145315,48.5264909],[10.2963232,48.5168773],[10.2570939,48.5193514],[10.2477157,48.5099442],[10.2170406,48.5138672],[10.2098105,48.5320554],[10.2153851,48.5310182],[10.2149296,48.5331721],[10.1909389,48.5412102],[10.1870588,48.5582114],[10.1715866,48.5492703],[10.1604572,48.5572035],[10.1530164,48.5512728],[10.11365,48.5560052],[10.109735,48.5698421],[10.0579088,48.585216],[10.0608815,48.5895376],[10.0403025,48.6069219],[10.0277389,48.6063649],[10.023902,48.5984892],[10.0214842,48.6051244],[9.9984651,48.6071154],[9.9928823,48.5968119],[9.964336,48.5949428],[9.9612481,48.6035854],[9.9693502,48.6150854],[9.944008,48.6319722],[9.891717,48.6223259],[9.8877742,48.6157427],[9.8991395,48.6149947],[9.869279,48.5874098],[9.8388287,48.5858238],[9.8287995,48.5654103],[9.815496,48.5584292],[9.7700419,48.5662101],[9.7687916,48.5598067],[9.7260613,48.5620032],[9.7194707,48.5571781],[9.7230967,48.5468064],[9.6940703,48.54102],[9.681824,48.524465],[9.6881276,48.5178129],[9.6674895,48.5247903],[9.6505748,48.5203763],[9.6324861,48.5371946],[9.5876339,48.5399418],[9.5823111,48.5293835],[9.5914842,48.5124076],[9.5800585,48.50361],[9.5895574,48.4990483],[9.5818252,48.4890634],[9.5928666,48.4765717],[9.4776633,48.4730606],[9.4692772,48.4600408],[9.4739129,48.4571165],[9.4676341,48.4501118],[9.5067831,48.4368274],[9.5152587,48.4302691],[9.5107046,48.4248512],[9.5261996,48.4177081],[9.5350831,48.4228197],[9.5746973,48.4093259],[9.6061022,48.4167934],[9.6274764,48.4173248],[9.6288284,48.4166125],[9.6209819,48.3958417],[9.5812111,48.3947971],[9.590618,48.3834869],[9.5823049,48.3772818],[9.6050139,48.3734586],[9.5880347,48.3660825],[9.5916066,48.349842],[9.5799885,48.3270668],[9.5579351,48.3320372],[9.5499004,48.319873],[9.5341981,48.3184061],[9.5554899,48.3062671],[9.5514315,48.3001527],[9.5582955,48.293426],[9.5076275,48.2808532],[9.5066137,48.2688662],[9.5252067,48.268861],[9.5196353,48.2616529],[9.5304737,48.2605586],[9.4904273,48.2423901],[9.500162,48.2123895],[9.4678879,48.1963849],[9.464329,48.209305],[9.4395455,48.2041837],[9.4380082,48.1949436],[9.4239881,48.1953897],[9.4225371,48.2028184],[9.3866283,48.1981113],[9.3506416,48.241034],[9.30094,48.267468],[9.2916049,48.2859167],[9.2692846,48.2887959],[9.2713745,48.2802059],[9.2614958,48.2718868],[9.2250711,48.2666905],[9.2167618,48.2838968],[9.2011163,48.2880617],[9.1842093,48.2702571],[9.1090682,48.2520873],[9.1117931,48.236339],[9.1855905,48.2084423],[9.1750659,48.1983008],[9.1860631,48.1833128],[9.1734874,48.183287],[9.1885668,48.1715772],[9.1558696,48.1428107],[9.1573699,48.1337896],[9.1211061,48.1449524],[9.1121429,48.1574527],[9.0732584,48.1501307],[9.0327166,48.1649009],[9.007512,48.1570809],[8.9838421,48.1245162],[8.9528516,48.1180955],[8.9537842,48.1073023],[8.886557,48.1054599],[8.8600864,48.1436148],[8.8317495,48.149462],[8.8327139,48.1647873],[8.8139656,48.1825137]],[[9.2920967,48.5952203],[9.2704474,48.6022726],[9.2582035,48.5897897],[9.2827022,48.582148],[9.2920967,48.5952203]],[[8.9838153,48.6479556],[8.9766597,48.6314913],[8.9895989,48.6066105],[8.9772696,48.5971037],[8.9795615,48.5891678],[9.0058712,48.5884587],[9.0350575,48.5759963],[9.043374,48.5879291],[9.0244252,48.5981533],[9.0235397,48.6073618],[9.0135795,48.6129598],[9.0086234,48.6325429],[8.9838153,48.6479556]],[[8.806443,48.5383848],[8.7874281,48.5296557],[8.7848626,48.5210663],[8.8035759,48.506278],[8.8361588,48.504223],[8.839865,48.4976065],[8.8441883,48.5075379],[8.8659295,48.5147889],[8.8558199,48.5189673],[8.8607917,48.5273489],[8.8512048,48.5399193],[8.806443,48.5383848]],[[8.6767023,48.5598658],[8.6927802,48.5583627],[8.7031479,48.5680064],[8.6967369,48.5776705],[8.6728054,48.5773893],[8.6767023,48.5598658]],[[8.5868206,48.7841534],[8.6102966,48.7675471],[8.6519854,48.7689837],[8.6926929,48.7799792],[8.6976376,48.7907574],[8.7250978,48.795271],[8.7035721,48.820792],[8.6909982,48.8054316],[8.6641113,48.8023007],[8.6170127,48.8284267],[8.6078294,48.8211006],[8.6088585,48.8102758],[8.5966601,48.807755],[8.6085732,48.8037763],[8.5868206,48.7841534]],[[9.2488506,49.0848209],[9.17587,49.1045337],[9.1762501,49.0943958],[9.1613438,49.0928882],[9.1781315,49.0883352],[9.1734411,49.0787237],[9.1865971,49.0695982],[9.2164797,49.0710521],[9.2316693,49.0768295],[9.2244374,49.0833894],[9.2488506,49.0848209]],[[9.6266183,48.7196788],[9.6228233,48.7359781],[9.6316862,48.7400436],[9.6183546,48.7469025],[9.5679584,48.7452796],[9.5975186,48.7186184],[9.6266183,48.7196788]],[[9.6276011,48.6550654],[9.6233358,48.6313396],[9.6295425,48.6239083],[9.6481419,48.6238092],[9.6437479,48.6540104],[9.6276011,48.6550654]],[[9.4933721,48.7004124],[9.454714,48.7055552],[9.441477,48.6937173],[9.4671442,48.6793918],[9.4893616,48.6885852],[9.4933721,48.7004124]],[[9.4097525,48.5568085],[9.4329865,48.5633242],[9.421581,48.5709894],[9.4198766,48.5900597],[9.402646,48.5977451],[9.4112602,48.6051266],[9.4118274,48.6070445],[9.4108954,48.6076335],[9.3928452,48.6010877],[9.4009314,48.5968823],[9.3911416,48.5815676],[9.3732594,48.5709436],[9.4097525,48.5568085]],[[9.9427049,49.2279634],[9.993432,49.2284954],[10.0061208,49.2341743],[10.007114,49.2428827],[9.9993245,49.2591741],[9.9637609,49.2596918],[9.9576011,49.2539519],[9.9657201,49.2496317],[9.957556,49.2491774],[9.9580062,49.2427183],[9.9374015,49.2382496],[9.9427049,49.2279634]]],[[[8.7289417,49.3668968],[8.7053298,49.3702666],[8.7004237,49.375542],[8.7154571,49.3838247],[8.7289417,49.3668968]]],[[[9.0745428,48.0112612],[9.0444633,48.0318747],[9.087754,48.0433235],[9.1233468,48.0321952],[9.1316642,48.021142],[9.11418,48.0076173],[9.0745428,48.0112612]]],[[[9.021388,48.6047932],[9.0146292,48.5961387],[9.0045853,48.6005435],[9.0104501,48.6059138],[9.0175869,48.6063543],[9.021388,48.6047932]],[[9.0164172,48.6059717],[9.0173986,48.605138],[9.0183464,48.6059266],[9.0164172,48.6059717]]],[[[9.174639,48.0288611],[9.2033722,48.0305411],[9.2022937,48.020214],[9.2191376,48.0133309],[9.2101763,47.9798432],[9.1893796,47.9812892],[9.174639,48.0288611]]],[[[9.362691,48.0794099],[9.3640847,48.0928955],[9.3799316,48.0924333],[9.3862954,48.0860895],[9.3839316,48.0682083],[9.3729486,48.0667478],[9.362691,48.0794099]]],[[[9.5274082,48.0338182],[9.5482646,48.0232258],[9.550187,48.0167934],[9.5390506,48.015759],[9.5469271,48.0125572],[9.5438765,48.0053455],[9.5346841,48.0045314],[9.5029301,48.0301773],[9.5264262,48.0252715],[9.5274082,48.0338182]]],[[[9.5615184,48.0447503],[9.5344103,48.057831],[9.542892,48.0766041],[9.5715008,48.0678765],[9.5788219,48.0545566],[9.5615184,48.0447503]]],[[[9.655446,47.9424371],[9.6728216,47.9561109],[9.6606159,47.9580096],[9.6615423,47.9657299],[9.6768373,47.9720675],[9.6847522,47.9672322],[9.6910217,47.9826786],[9.7014109,47.9828646],[9.7094478,47.9625489],[9.6887349,47.9606488],[9.6885119,47.9552383],[9.7298498,47.9297979],[9.7145092,47.9206956],[9.6954254,47.9282012],[9.679558,47.9240204],[9.6656449,47.9417153],[9.655446,47.9424371]]],[[[9.953505,48.0062775],[9.949684,47.9961441],[9.952364,48.0015022],[9.9549091,48.0015235],[9.9625864,47.9977882],[9.9598915,47.9911632],[9.9708229,47.9905785],[9.9624684,47.9774914],[9.9802548,47.9737598],[9.9796246,47.9676385],[9.9560581,47.9584391],[9.9254226,47.9659397],[9.9127102,47.9832479],[9.9232426,47.996447],[9.953505,48.0062775]]],[[[10.2409674,48.5060336],[10.2374495,48.5001693],[10.2344613,48.5056766],[10.2409674,48.5060336]]]]}}]}