{"type": "FeatureCollection", "features": [{"type": "Feature", "properties": {"slug": "suez", "members": 6, "country": "Egypt", "input_hash": "d3a1e8f676a772fb"}, "geometry": {"type": "MultiPolygon", "coordinates": [[[[32.48486660900005, 29.941678773000035], [32.47246710600007, 29.89376324500006], [32.48510335700007, 29.869665419000057], [32.49350240700005, 29.876240808000034], [32.50004170600005, 29.865686548000042], [32.51799998400003, 29.869306822000055], [32.517576639000026, 29.86098675200003], [32.477349110000034, 29.810681007000028], [32.428018628000075, 29.77685527400007], [32.368649797000046, 29.68132083200004], [32.37021626100005, 29.64847410400006], [32.34982345200007, 29.606601709000074], [32.38257971500008, 29.530584858000054], [32.44905024800005, 29.487217888000032], [32.50692718300007, 29.429182488000038], [32.568588764000026, 29.388888399000052], [32.59996102000002, 29.340424875000053], [32.609041571000034, 29.280883394000057], [32.63058334700003, 29.248906100000056], [32.629103721000035, 29.20827536300004], [32.648514265000074, 29.168750061000026], [32.50833988100004, 29.121558141000037], [32.41418611700004, 29.06703484700006], [32.37688716500003, 29.065531090000036], [32.159259881000025, 28.998778824000055], [31.96388193100006, 28.976379227000052], [31.834595971000056, 28.993675757000062], [31.906967811000072, 29.870601945000033], [31.89959612000007, 30.047167752000064], [31.839787881000063, 30.27145751100005], [32.20867808400004, 30.248156669000025], [32.317439808000074, 30.256470514000057], [32.44586411000006, 30.23594453900006], [32.48681443400005, 30.217882450000047], [32.46814282400004, 30.201828414000033], [32.50745243000006, 30.176030452000077], [32.51918151600006, 30.182307499000046], [32.54431419000008, 30.178977001000078], [32.54976609300007, 30.157468322000057], [32.561901430000034, 30.150450102000036], [32.565320421000024, 30.04665808900006], [32.58448919600005, 29.974212283000043], [32.56666535700003, 29.93655380900003], [32.55751967400005, 29.93594584400006], [32.55356873100004, 29.94347710200003], [32.564187925000056, 29.953754460000027], [32.55340232100008, 29.960280356000055], [32.48486660900005, 29.941678773000035]], [[32.47453621400007, 29.94525234100007], [32.52287062200003, 29.988149484000076], [32.540607772000044, 30.01335716500006], [32.52517214000005, 29.99142123400003], [32.47453621400007, 29.94525234100007]]], [[[32.87269184000007, 29.280374813000037], [32.82463838000007, 29.326748119000058], [32.83006894300007, 29.341620256000056], [32.81622476700005, 29.356448942000043], [32.82564313700004, 29.385979538000072], [32.81463401900004, 29.40778379300008], [32.74554312500004, 29.44539153000005], [32.75256198200003, 29.450725231000035], [32.73896115800005, 29.477366964000055], [32.72975484300002, 29.453338857000062], [32.718863526000064, 29.453550969000048], [32.73485849600007, 29.485784006000074], [32.71910477700004, 29.508770750000053], [32.72730980000006, 29.54819217200003], [32.71037897700006, 29.584157942000047], [32.68016419400004, 29.59704649100007], [32.69189754900003, 29.611870990000057], [32.68034621400005, 29.660646951000047], [32.696201174000066, 29.72537346200005], [32.68164974900003, 29.75408379600003], [32.66894744000007, 29.76016025200005], [32.637535214000025, 29.806454562000056], [32.61013170100006, 29.811216141000045], [32.63112650800008, 29.843242340000074], [32.63297169800006, 29.86802278600004], [32.56265455000005, 29.930011213000057], [32.58349722000003, 29.94821825200006], [32.58819617100005, 29.97201516800004], [32.57437644000004, 30.046058240000036], [32.573285310000074, 30.21029172200008], [32.53417292000006, 30.269548058000055], [32.56727544700004, 30.28547306400003], [32.795108363000054, 30.24561489000007], [32.82623718200006, 30.150635279000028], [32.830085161000056, 30.071005771000046], [32.854928597000026, 29.94297334500004], [33.383192792000045, 29.897776554000075], [33.64483286900003, 29.851178540000035], [33.84686694900006, 29.807902349000074], [33.990762062000044, 29.73663952000004], [33.86110909800004, 29.255325827000036], [33.10013232400007, 29.25307946500004], [32.87269184000007, 29.280374813000037]]]]}}]}