{"type":"FeatureCollection","features":[{"type":"Feature","properties":{"slug":"sunshine-coast","member_count":2,"matched_count":1,"unmatched":["Noosa (AU-QLD, type='Shire')"],"source":"Overture Maps division_area (CC-BY 4.0)"},"geometry":{"type":"MultiPolygon","coordinates":[[[[152.846207,-26.89184],[152.853319,-26.886219],[152.853117,-26.892643],[152.846207,-26.89184]]],[[[153.086786,-26.95341],[153.077503,-26.976336],[153.066338,-26.983708],[153.042762,-26.969459],[153.018454,-26.966355],[153.0179429,-26.9783759],[153.002964,-26.984787],[152.975588,-26.98468],[152.975011,-26.97438],[152.966633,-26.978805],[152.917262,-26.954706],[152.891159,-26.960751],[152.8580548,-26.9562049],[152.86073,-26.936],[152.87264,-26.930333],[152.875446,-26.913522],[152.859462,-26.911304],[152.861176,-26.902754],[152.855331,-26.901904],[152.855488,-26.887382],[152.866782,-26.888922],[152.869477,-26.872877],[152.851701,-26.865196],[152.854036,-26.855867],[152.83206,-26.856426],[152.812802,-26.828166],[152.792088,-26.827092],[152.789368,-26.809628],[152.777134,-26.80956],[152.776456,-26.795544],[152.761096,-26.792363],[152.759183,-26.803051],[152.753075,-26.797353],[152.74948,-26.816297],[152.739172,-26.808027],[152.72907,-26.816629],[152.722228,-26.806815],[152.696447,-26.809128],[152.698792,-26.802982],[152.6716,-26.793584],[152.667312,-26.772998],[152.654263,-26.768198],[152.64433,-26.773747],[152.639082,-26.761777],[152.602456,-26.75788],[152.583307,-26.740432],[152.579365,-26.7162],[152.551312,-26.707041],[152.558042,-26.689754],[152.552195,-26.680852],[152.583203,-26.645384],[152.587784,-26.613991],[152.584142,-26.596691],[152.574012,-26.595474],[152.575723,-26.5839413],[152.602707,-26.577938],[152.606317,-26.584297],[152.625629,-26.581981],[152.680487,-26.597709],[152.681268,-26.582509],[152.708437,-26.559901],[152.712249,-26.546233],[152.728448,-26.536977],[152.75378,-26.549856],[152.758494,-26.536387],[152.767573,-26.536891],[152.768249,-26.528166],[152.759695,-26.524992],[152.762079,-26.510649],[152.743309,-26.507198],[152.765551,-26.482507],[152.756464,-26.473736],[152.765466,-26.463611],[152.768006,-26.470265],[152.804283,-26.471505],[152.813477,-26.497264],[152.826966,-26.499405],[152.835067,-26.488172],[152.869335,-26.474209],[152.870852,-26.465476],[152.885435,-26.469829],[152.892406,-26.455008],[152.912964,-26.447473],[152.920206,-26.452459],[152.921845,-26.443056],[152.995595,-26.432369],[153.024511,-26.445214],[153.048159,-26.442362],[153.050131,-26.431058],[153.060817,-26.432569],[153.0546061,-26.4522375],[153.080079,-26.458053],[153.069154,-26.480041],[153.082979,-26.482575],[153.082093,-26.495592],[153.095813,-26.498607],[153.104432,-26.657861],[153.12229,-26.681387],[153.138983,-26.679579],[153.136569,-26.773942],[153.150795,-26.801745],[153.131813,-26.809613],[153.128631,-26.842894],[153.146952,-26.937333],[153.086786,-26.95341]]],[[[153.115082,-26.615673],[153.113904,-26.613635],[153.11635,-26.614954],[153.115082,-26.615673]]]]}}]}