{"type": "FeatureCollection", "features": [{"type": "Feature", "properties": {"slug": "sunzha", "members": 1, "country": "Russia", "input_hash": "916b2574a06ecd1c"}, "geometry": {"type": "Polygon", "coordinates": [[[45.1365201, 43.4212666], [45.1147903, 43.4531526], [45.0653025, 43.4538308], [45.0643855, 43.4628997], [44.9988419, 43.4638983], [45.0005583, 43.3595016], [44.9939634, 43.3544754], [45.0064549, 43.3363811], [44.9995401, 43.3289079], [45.0189344, 43.3085298], [45.0169237, 43.2843312], [45.069735, 43.3014605], [45.0995639, 43.2885881], [45.0981202, 43.3053442], [45.1087063, 43.3069383], [45.1101308, 43.3203381], [45.1255225, 43.3268292], [45.1365201, 43.4212666]]]}}]}