{"type": "FeatureCollection", "features": [{"type": "Feature", "properties": {"slug": "surabaya", "members": 7, "country": "Indonesia", "input_hash": "268ed7bbafe3c711"}, "geometry": {"type": "MultiPolygon", "coordinates": [[[[112.6599502, -7.5723193], [112.66613, -7.5924271], [112.6210868, -7.6156459], [112.6291732, -7.6502646], [112.6236343, -7.6666425], [112.5748672, -7.732704], [112.533077, -7.724147], [112.5004806, -7.7615923], [112.4647445, -7.7680868], [112.4558334, -7.7791313], [112.4303151, -7.6992028], [112.4116422, -7.673557], [112.4038925, -7.6228513], [112.3708434, -7.5840249], [112.3752774, -7.5630683], [112.3637523, -7.5526419], [112.3688371, -7.5245655], [112.3739737, -7.5254526], [112.3714364, -7.5065114], [112.3781593, -7.5019029], [112.3716964, -7.4889792], [112.3900371, -7.480387], [112.4032221, -7.4579409], [112.3416671, -7.4596948], [112.332756, -7.4535636], [112.347882, -7.4369477], [112.3413925, -7.4274925], [112.349266, -7.420802], [112.346939, -7.3961252], [112.3352584, -7.370386], [112.34536015534677, -7.345020716226622], [112.2526474, -7.363417], [112.2272567, -7.3504294], [112.1865573, -7.3518745], [112.1066131, -7.3837742], [112.081527, -7.3824857], [112.088979, -7.3584639], [112.0725631, -7.3332538], [112.0771255, -7.3132877], [112.0900268, -7.3039965], [112.0851091, -7.2892342], [112.0944737, -7.2692092], [112.0843429, -7.2595796], [112.0870819, -7.2296623], [112.1095275, -7.2223619], [112.1396103, -7.1579947], [112.1513854, -7.1581524], [112.1657791, -7.1171488], [112.1535286, -7.1123599], [112.1661834, -7.097813], [112.1783447, -7.0977544], [112.1789427, -7.0754191], [112.1898345, -7.084381], [112.218811, -7.0686764], [112.2157592, -7.0429429], [112.222557, -7.0373329], [112.203331, -7.0294165], [112.214569, -7.0094441], [112.2031716, -6.9218049], [112.1803164, -6.9131472], [112.1789555, -6.9049675], [112.1719904, -6.9025989], [112.1700577, -6.8936957], [112.2232658, -6.8728037], [112.2675088, -6.8776901], [112.2659504, -6.870684], [112.2699094, -6.8782813], [112.2868751, -6.8653873], [112.2986479, -6.8740952], [112.3332444, -6.8611266], [112.3426844, -6.8700509], [112.3638618, -6.8631624], [112.3733246, -6.8744281], [112.3885851, -6.8760325], [112.4141532, -6.8629134], [112.430563, -6.8655272], [112.4413375, -6.8786772], [112.4512441, -6.8762721], [112.4786268, -6.9002684], [112.5199717, -6.9058922], [112.5411451, -6.8797965], [112.5216401, -6.8714136], [112.5226486, -6.8641597], [112.5563747, -6.8472495], [112.5665349, -6.8555049], [112.573058, -6.8480271], [112.5784653, -6.8530017], [112.5802034, -6.8852075], [112.6069879, -6.8766649], [112.6163113, -6.8870502], [112.6194066, -6.913457], [112.6060116, -6.9262564], [112.59583, -6.9178105], [112.5947142, -6.9355862], [112.6159066, -6.9922498], [112.62932, -7.0089453], [112.6503351, -7.0185782], [112.6452684, -7.0315891], [112.6529235, -7.0422637], [112.6383805, -7.0677594], [112.6343894, -7.0980713], [112.6265237, -7.0983197], [112.6224468, -7.1109166], [112.647125, -7.1081516], [112.6226184, -7.1113425], [112.6264393, -7.1203541], [112.647635, -7.1236125], [112.6255539, -7.1288446], [112.6311243, -7.1349766], [112.6478219, -7.128147], [112.6629996, -7.1519158], [112.6601823, -7.162682], [112.6690594, -7.1621977], [112.6628083, -7.1633088], [112.6762666, -7.1821395], [112.6653965, -7.1841148], [112.660178, -7.20789], [112.6707923, -7.2205442], [112.7087671, -7.2233089], [112.7182379, -7.1985537], [112.7256864, -7.2096635], [112.7244513, -7.2032784], [112.7287053, -7.2092776], [112.7325824, -7.2028938], [112.7235876, -7.1980654], [112.7371126, -7.1956877], [112.7382901, -7.2037267], [112.7445987, -7.2019917], [112.7392986, -7.1952459], [112.7643102, -7.195999], [112.7819256, -7.2106893], [112.8040177, -7.250069], [112.8166289, -7.2456778], [112.8334308, -7.2595253], [112.8466755, -7.2869244], [112.8453378, -7.3081843], [112.8269988, -7.3428456], [112.8190045, -7.3435236], [112.8279, -7.3439575], [112.8411046, -7.3309037], [112.8335541, -7.4046619], [112.8416169, -7.4812507], [112.8353298, -7.4849951], [112.8252929, -7.4732725], [112.8138641, -7.4776871], [112.8701073, -7.5337277], [112.8675484, -7.5475705], [112.8800251, -7.5619986], [112.8688902, -7.5639504], [112.8697924, -7.5716667], [112.8455544, -7.5774563], [112.8308868, -7.5524786], [112.7533874, -7.5752738], [112.7243423, -7.5692189], [112.7061843, -7.5449327], [112.682022, -7.5481275], [112.6599502, -7.5723193]], [[112.44825124452011, -6.883955702766416], [112.4475479, -6.8823742], [112.4413375, -6.8786772], [112.44825124452011, -6.883955702766416]], [[112.6277467, -7.1959154], [112.62708321129925, -7.196415984359237], [112.6397738, -7.1924241], [112.6277467, -7.1959154]], [[112.63191135874575, -7.261460596610586], [112.6319204, -7.2610094], [112.6293029, -7.2597226], [112.63191135874575, -7.261460596610586]], [[112.6742099, -7.3513443], [112.67613136952089, -7.3505939641051405], [112.66630566143233, -7.351313363226071], [112.6742099, -7.3513443]], [[112.34747929113648, -7.34299927717231], [112.34672174435389, -7.343868880059582], [112.3474655, -7.3432397], [112.34747929113648, -7.34299927717231]], [[112.36621375184366, -7.326265700632578], [112.3585052, -7.3264274], [112.3661117, -7.3263277], [112.36621375184366, -7.326265700632578]], [[112.3682556, -7.3247298], [112.3727569, -7.3204593], [112.36667749409533, -7.325983964161954], [112.3682556, -7.3247298]], [[112.390419, -7.3143825], [112.38683551901697, -7.320064972042142], [112.3870773, -7.3200582], [112.390419, -7.3143825]], [[112.40106540887723, -7.314015406241564], [112.3950347, -7.3141483], [112.4009704, -7.3141216], [112.40106540887723, -7.314015406241564]], [[112.41083163916471, -7.3015204399072156], [112.40160498200319, -7.313412312090033], [112.41053, -7.3034366], [112.41083163916471, -7.3015204399072156]], [[112.4077148, -7.2696098], [112.41214427310881, -7.274360030104428], [112.4121399, -7.2737278], [112.4077148, -7.2696098]], [[112.3997039, -7.2605862], [112.39969323249456, -7.260721360446106], [112.4003829, -7.2586669], [112.3997039, -7.2605862]], [[112.4194641, -7.2318114], [112.41893334940535, -7.232337431079656], [112.42360835004784, -7.233322974627482], [112.4194641, -7.2318114]], [[112.42503223909975, -7.232929541324851], [112.42399148910756, -7.233403744718675], [112.4240112, -7.2334079], [112.42503223909975, -7.232929541324851]], [[112.4286575, -7.2312311], [112.4307708, -7.2267283], [112.42854858860181, -7.231282125188119], [112.4286575, -7.2312311]], [[112.4324035, -7.2268227], [112.43119396017612, -7.226752766417974], [112.4340057, -7.2296623], [112.4324035, -7.2268227]], [[112.45244164563289, -7.208410873806773], [112.4470062, -7.2161397], [112.4508514, -7.2123765], [112.45244164563289, -7.208410873806773]], [[112.4525756, -7.2082204], [112.4525581204754, -7.208245254670009], [112.4573745, -7.2064565], [112.4525756, -7.2082204]], [[112.4983978, -7.0231856], [112.49794472925466, -7.023818274863246], [112.5099868, -7.0194105], [112.4983978, -7.0231856]], [[112.5123672, -7.0153526], [112.51213144682059, -7.013674587944938], [112.5099868, -7.0194105], [112.5123672, -7.0153526]], [[112.49959127536424, -7.009930134039679], [112.51205997858898, -7.0131659010440535], [112.5120315, -7.0129632], [112.49959127536424, -7.009930134039679]], [[112.4958572, -7.0089611], [112.49631232710578, -7.009079210540057], [112.4908517343489, -7.0060219277008375], [112.4958572, -7.0089611]], [[112.4846877, -7.0113348], [112.4901075393391, -7.005605266958359], [112.4900817, -7.0055908], [112.4846877, -7.0113348]], [[112.4666213, -7.0068153], [112.48232964991693, -7.00294733377462], [112.482376, -7.0028495], [112.4666213, -7.0068153]], [[112.4582672, -7.0144724], [112.459114, -7.0093449], [112.45816303854384, -7.014495504304152], [112.4582672, -7.0144724]], [[112.4499435, -7.0163187], [112.45507749342032, -7.015179916520065], [112.44987191505498, -7.016243673167466], [112.4499435, -7.0163187]], [[112.45307504095297, -7.001268617616351], [112.45302913916463, -7.001678270345936], [112.4531783, -7.001264], [112.45307504095297, -7.001268617616351]], [[112.3775568, -6.9588191], [112.3841734, -6.9594744], [112.3811056, -6.9588998], [112.3775568, -6.9588191]], [[112.44847010386596, -6.884447818153718], [112.4461517, -6.8892077], [112.4485626, -6.8846558], [112.44847010386596, -6.884447818153718]], [[112.37635663498612, -7.323493226140155], [112.3761901, -7.3277787], [112.3764495, -7.3234876], [112.37635663498612, -7.323493226140155]], [[112.39130878819368, -7.333431405842379], [112.3913269, -7.3334378], [112.3948745, -7.3307699], [112.39130878819368, -7.333431405842379]], [[112.40971350268138, -7.3136569285169974], [112.4139784, -7.3141563], [112.4097848, -7.3134801], [112.40971350268138, -7.3136569285169974]], [[112.42280619096091, -7.312337321216912], [112.42168554266613, -7.314050574231228], [112.4228515, -7.3123378], [112.42280619096091, -7.312337321216912]], [[112.42111735357628, -7.3149192247038375], [112.4210967, -7.3149508], [112.4215698, -7.3171271], [112.42111735357628, -7.3149192247038375]], [[112.4660567, -7.312692], [112.47159130469052, -7.308274648659908], [112.4714126, -7.3082918], [112.4660567, -7.312692]], [[112.47410337739964, -7.308033550268778], [112.47999993773847, -7.30765937898336], [112.4800033, -7.3074673], [112.47410337739964, -7.308033550268778]], [[112.49674917422597, -7.407934348806038], [112.49472809102937, -7.407652964385637], [112.4924239, -7.4102238], [112.49674917422597, -7.407934348806038]], [[112.54783091599104, -7.4038998174218795], [112.5484466, -7.4037961], [112.5523452, -7.4003895], [112.54783091599104, -7.4038998174218795]], [[112.6249999, -7.3668064], [112.6289367, -7.36808], [112.62968653769197, -7.3676842839405445], [112.6249999, -7.3668064]], [[112.6541671, -7.3588975], [112.66133029657465, -7.352837763393468], [112.6585998, -7.3540157], [112.6541671, -7.3588975]], [[112.6625442, -7.5566042], [112.66405797134537, -7.5570272857324525], [112.66108475176935, -7.555285237692786], [112.6625442, -7.5566042]], [[112.4841689, -7.4097565], [112.4828706, -7.4110835], [112.4844182844153, -7.409770617181983], [112.4841689, -7.4097565]], [[112.4063491, -7.477147], [112.4055153, -7.4790911], [112.4139633, -7.4735149], [112.4063491, -7.477147]]], [[[112.6755868, -7.1972857], [112.6676314, -7.2046076], [112.6772967, -7.1900994], [112.6889402, -7.2015048], [112.6848726, -7.2057598], [112.6755868, -7.1972857]]], [[[112.689932, -7.1883122], [112.6853025, -7.1858049], [112.6843941, -7.1842308], [112.689932, -7.1883122]]], [[[112.648659, -7.090629], [112.647693, -7.097805], [112.639453, -7.097635], [112.648659, -7.090629]]], [[[112.638992, -7.0809938], [112.6485193, -7.0808448], [112.6394896, -7.0930873], [112.638992, -7.0809938]]], [[[112.7417099, -5.7883564], [112.7280283, -5.8162155], [112.7338779, -5.8310993], [112.7212125, -5.8324495], [112.699728, -5.8525816], [112.6703605, -5.8553486], [112.6328085, -5.8445879], [112.6207888, -5.87135], [112.6208184, -5.8555119], [112.5913989, -5.8554927], [112.5762453, -5.8449314], [112.5847524, -5.8318731], [112.5745708, -5.8269474], [112.5807506, -5.8146675], [112.5695014, -5.8093093], [112.5824135, -5.8051839], [112.5792646, -5.7891943], [112.5892049, -5.7869367], [112.5899285, -5.7758825], [112.597579, -5.7688002], [112.6104748, -5.7716164], [112.6137757, -5.7504893], [112.6464862, -5.7302221], [112.6702183, -5.7371663], [112.6811832, -5.7176999], [112.6875991, -5.7162534], [112.7044916, -5.7354316], [112.7262872, -5.7369367], [112.7245331, -5.7606216], [112.7361926, -5.7663272], [112.7320808, -5.7764946], [112.7417099, -5.7883564]]], [[[112.5818583, -5.7750562], [112.5809303, -5.7754912], [112.5803934, -5.7749961], [112.5818583, -5.7750562]]], [[[112.5879067, -5.7696977], [112.5808847, -5.7686249], [112.5882339, -5.7671411], [112.5879067, -5.7696977]]], [[[112.6063228, -5.7390691], [112.6056383, -5.737132], [112.6076263, -5.7376066], [112.6063228, -5.7390691]]], [[[112.8809978, -7.5633709], [112.8816086, -7.5781795], [112.8710574, -7.5763512], [112.8695079, -7.5644022], [112.8809978, -7.5633709]]], [[[112.8650872, -7.162826], [112.776375, -7.1595642], [112.7549493, -7.171853], [112.7225414, -7.1757249], [112.7060172, -7.1674673], [112.6913916, -7.1539777], [112.7058159, -7.098893], [112.7016227, -7.0929633], [112.6861045, -7.0955696], [112.6724836, -7.0740748], [112.6748563, -7.0422491], [112.6883014, -7.0301247], [112.7111894, -7.040731], [112.7234411, -7.0384799], [112.7709208, -7.0011271], [112.8284653, -6.9299759], [112.8234225, -6.9103056], [112.8306941, -6.906005], [112.8410895, -6.9146684], [112.8468464, -6.8990552], [112.8582566, -6.8934217], [112.8753352, -6.8981768], [112.8775939, -6.8913503], [112.9213058, -6.8940325], [113.040669, -6.8798391], [113.1244948, -6.8927977], [113.1275481, -6.9047191], [113.1187667, -6.9051039], [113.1156234, -6.9364226], [113.1015166, -6.9318798], [113.0951003, -6.9457972], [113.108261, -6.953398], [113.1039275, -6.985975], [113.112686, -6.988838], [113.1342849, -6.9773056], [113.1478118, -6.9846456], [113.1462707, -6.9977672], [113.1334762, -7.0355394], [113.1152266, -7.0317356], [113.1160888, -7.0495246], [113.110649, -7.0471632], [113.1198424, -7.066993], [113.1202086, -7.079932], [113.1080092, -7.0776327], [113.1155394, -7.1161654], [113.1072768, -7.107961], [113.1038283, -7.1254723], [113.0923842, -7.1332061], [113.0971145, -7.1572144], [113.077011, -7.1510084], [113.0701903, -7.1625078], [113.0575942, -7.1636703], [113.04821, -7.1843245], [113.0609511, -7.1961043], [113.0449294, -7.2015269], [113.0403283, -7.2128753], [112.9982894, -7.2090402], [112.8908107, -7.1779333], [112.8650872, -7.162826]]], [[[112.729559, -6.9284888], [112.7317667, -6.9267918], [112.7312567, -6.9293985], [112.729559, -6.9284888]]], [[[112.7267161, -6.926668], [112.7286488, -6.9279671], [112.7280246, -6.9288177], [112.7267161, -6.926668]]], [[[112.7332372, -6.927473], [112.7330178, -6.9275828], [112.7331429, -6.9267485], [112.7332372, -6.927473]]], [[[112.7294528, -6.926485], [112.7295981, -6.926472], [112.7298833, -6.9266966], [112.7294528, -6.926485]]], [[[112.8462328, -6.8975328], [112.8469674, -6.8981379], [112.8465454, -6.8981379], [112.8462328, -6.8975328]]], [[[112.7042636, -5.8709841], [112.7045479, -5.8719446], [112.7040812, -5.8717258], [112.7042636, -5.8709841]]], [[[112.690233, -5.862494], [112.6843564, -5.866964], [112.6862757, -5.8585401], [112.690233, -5.862494]]], [[[112.7678945, -5.8120508], [112.7696763, -5.8097905], [112.7677529, -5.8133134], [112.7678945, -5.8120508]]], [[[112.7779871, -5.8025284], [112.7778899, -5.8030214], [112.7774101, -5.8030118], [112.7779871, -5.8025284]]], [[[112.7710103, -5.7956507], [112.7759722, -5.8032708], [112.7750087, -5.8045247], [112.7702441, -5.8035691], [112.7710103, -5.7956507]]]]}}]}