{"type":"FeatureCollection","features":[{"type":"Feature","properties":{"slug":"sydney","member_count":33,"matched_count":1,"unmatched":["[recovered via metro-name fallback: Sydney]"],"source":"Overture Maps division_area (CC-BY 4.0)"},"geometry":{"type":"Polygon","coordinates":[[[151.312174,-33.6667583],[151.3031156,-33.6655496],[151.2847763,-33.6441935],[151.2804623,-33.6530074],[151.2769707,-33.6516541],[151.2747186,-33.6563354],[151.267286,-33.6568436],[151.2826525,-33.6367635],[151.2704009,-33.6315437],[151.2904036,-33.6285038],[151.2828838,-33.6218413],[151.3028596,-33.6205246],[151.3044208,-33.603204],[151.2939173,-33.6064161],[151.2855082,-33.6062421],[151.2837714,-33.6048454],[151.3030429,-33.5947233],[151.309,-33.5761178],[151.2795332,-33.571777],[151.254921,-33.5797782],[151.2408056,-33.5603691],[151.2475638,-33.5345303],[151.1964909,-33.5376954],[151.1791017,-33.5039076],[151.1620096,-33.5231123],[151.1587674,-33.4988792],[151.1497038,-33.4896055],[151.1630601,-33.4673041],[151.1593952,-33.4613152],[151.1404173,-33.4737344],[151.1174335,-33.4647242],[151.1048025,-33.4814618],[151.0936543,-33.4809976],[151.0803817,-33.4478081],[151.0760068,-33.4599513],[151.0670922,-33.4603115],[151.0639595,-33.4440763],[151.0317896,-33.4265308],[151.0316691,-33.4054113],[150.9940774,-33.3982697],[150.9937259,-33.3647216],[150.9753958,-33.3645235],[150.9793484,-33.3699943],[150.9656639,-33.3730884],[150.9622822,-33.3838083],[150.9715634,-33.3815566],[150.9800439,-33.3914199],[150.9684997,-33.4067122],[150.9526531,-33.4125084],[150.9284762,-33.4050994],[150.9352362,-33.4157685],[150.9306723,-33.4298945],[150.9223657,-33.4311744],[150.9221527,-33.4174153],[150.9005766,-33.4206508],[150.8933348,-33.4292368],[150.8983827,-33.4358847],[150.8871328,-33.4372229],[150.8765374,-33.4512569],[150.8977269,-33.4511576],[150.9054025,-33.4670878],[150.9002507,-33.4741601],[150.876259,-33.4703439],[150.8659867,-33.4851672],[150.84558,-33.481644],[150.8458395,-33.4641476],[150.837137,-33.462703],[150.8379,-33.455204],[150.8562991,-33.4438275],[150.816991,-33.432124],[150.8045439,-33.4599221],[150.783849,-33.460305],[150.766946,-33.472649],[150.751421,-33.459991],[150.744352,-33.464313],[150.737556,-33.453981],[150.702486,-33.460513],[150.679201,-33.502616],[150.643715,-33.494337],[150.6405546,-33.5095889],[150.628243,-33.5079003],[150.6330024,-33.4878265],[150.6149172,-33.4886851],[150.6004042,-33.496887],[150.5960938,-33.5161592],[150.576945,-33.5077784],[150.5732558,-33.5193155],[150.5793966,-33.5228799],[150.6203496,-33.5259678],[150.616334,-33.547456],[150.5982938,-33.5455101],[150.5954206,-33.5625821],[150.6088626,-33.5828801],[150.6074943,-33.6003931],[150.646587,-33.6193352],[150.6432898,-33.6372123],[150.6535028,-33.6461932],[150.651058,-33.6610442],[150.6154197,-33.6650687],[150.605226,-33.657797],[150.588313,-33.655425],[150.586754,-33.662658],[150.582362,-33.65513],[150.571354,-33.65604],[150.56036,-33.677554],[150.550109,-33.666929],[150.534913,-33.676143],[150.528558,-33.699977],[150.513634,-33.701519],[150.514208,-33.710148],[150.499322,-33.715506],[150.495897,-33.692812],[150.486051,-33.691324],[150.4752067,-33.7109092],[150.4853875,-33.7013513],[150.4880839,-33.7032536],[150.4864553,-33.710673],[150.4884662,-33.7138239],[150.491572,-33.7023595],[150.4854914,-33.698852],[150.491049,-33.698409],[150.493934,-33.719578],[150.483219,-33.725065],[150.489877,-33.727388],[150.487209,-33.731958],[150.476086,-33.730325],[150.4774628,-33.7227376],[150.46609,-33.715334],[150.474681,-33.698657],[150.447852,-33.699211],[150.435921,-33.709751],[150.399116,-33.717168],[150.377959,-33.705655],[150.395131,-33.70725],[150.408499,-33.697891],[150.405465,-33.691021],[150.391341,-33.686919],[150.378441,-33.699504],[150.361255,-33.686845],[150.354591,-33.699989],[150.3439845,-33.6984709],[150.349227,-33.684356],[150.3269398,-33.6856278],[150.330085,-33.677743],[150.308672,-33.674749],[150.309526,-33.667135],[150.289042,-33.677867],[150.284429,-33.669497],[150.2709279,-33.6720239],[150.271195,-33.685806],[150.27953,-33.682556],[150.276826,-33.698821],[150.268091,-33.697643],[150.260825,-33.71567],[150.285353,-33.709373],[150.2821768,-33.7323216],[150.300061,-33.736068],[150.302707,-33.726459],[150.312137,-33.732908],[150.317527,-33.720402],[150.331078,-33.726508],[150.336614,-33.720006],[150.338595,-33.73788],[150.347556,-33.7227],[150.357548,-33.724573],[150.348086,-33.719999],[150.359629,-33.711537],[150.363756,-33.72199],[150.381187,-33.726412],[150.379172,-33.736876],[150.370514,-33.735739],[150.379205,-33.74281],[150.370916,-33.744061],[150.368422,-33.757693],[150.370978,-33.7702],[150.381843,-33.771612],[150.384071,-33.759728],[150.399883,-33.761783],[150.401359,-33.753846],[150.379686,-33.752555],[150.379578,-33.741524],[150.391967,-33.743703],[150.401249,-33.728551],[150.458269,-33.757456],[150.4744042,-33.7483294],[150.4860924,-33.7535922],[150.493752,-33.728265],[150.505758,-33.719125],[150.510533,-33.729046],[150.523466,-33.73079],[150.5267626,-33.7147157],[150.540715,-33.715964],[150.539851,-33.708133],[150.55167,-33.711207],[150.556951,-33.722052],[150.565405,-33.717705],[150.568933,-33.724315],[150.572854,-33.717672],[150.570797,-33.728125],[150.597128,-33.725217],[150.592234,-33.750518],[150.616282,-33.768229],[150.607213,-33.767888],[150.609212,-33.775605],[150.6414418,-33.7812553],[150.5880569,-33.8445592],[150.593711,-33.856522],[150.6109551,-33.8576859],[150.6119444,-33.8720715],[150.5574858,-33.9046398],[150.5691289,-33.921329],[150.5350192,-33.9328686],[150.5484142,-33.9359355],[150.5562829,-33.9484902],[150.5460017,-33.9581883],[150.599113,-33.9651637],[150.603129,-33.9717974],[150.6050798,-33.9620955],[150.6296158,-33.9570742],[150.628594,-33.9724354],[150.6507695,-33.9852237],[150.6692231,-33.9856863],[150.6500721,-34.008806],[150.6602438,-34.0264027],[150.6723127,-34.0289765],[150.658049,-34.055899],[150.6620467,-34.0671343],[150.648948,-34.0820728],[150.7090763,-34.0933845],[150.7157829,-34.0848544],[150.7068033,-34.0776524],[150.7403609,-34.0782456],[150.7372858,-34.11315],[150.7566859,-34.1218899],[150.7498749,-34.1317055],[150.7562038,-34.1409925],[150.7519607,-34.1637823],[150.8166343,-34.1732416],[150.816662,-34.1652071],[150.8351566,-34.1659542],[150.8475771,-34.1541299],[150.8535772,-34.1266719],[150.8507824,-34.1179742],[150.8139933,-34.1110662],[150.8243356,-34.1111736],[150.8459788,-34.0813888],[150.8641818,-34.0824803],[150.8740457,-34.0597967],[150.8946351,-34.0492112],[150.886776,-34.0321321],[150.9480842,-34.0410771],[150.951694,-34.023481],[150.9682485,-34.0259483],[150.9605579,-34.03559],[150.962374,-34.0486439],[150.9968925,-34.0619652],[150.9851078,-34.0671655],[150.9738616,-34.0992196],[150.9639329,-34.0956872],[150.9607519,-34.1058973],[150.9367071,-34.1134659],[150.9527869,-34.1210767],[150.9540713,-34.13463],[150.9956329,-34.1477144],[150.9946564,-34.1038236],[151.019559,-34.0863894],[151.0132063,-34.0704611],[151.0580171,-34.0408971],[151.0749139,-34.0493974],[151.07223,-34.0631871],[151.0894581,-34.0674163],[151.096462,-34.0558061],[151.1092864,-34.0732568],[151.1245124,-34.0714666],[151.1235933,-34.0839487],[151.1333975,-34.0808018],[151.132176,-34.0706963],[151.1563696,-34.0950255],[151.1628191,-34.0725013],[151.155337,-34.054741],[151.163876,-34.042367],[151.185191,-34.035115],[151.198502,-34.041584],[151.222292,-34.038237],[151.2317634,-34.0156905],[151.252223,-33.995788],[151.251615,-33.979137],[151.259623,-33.976117],[151.252149,-33.964466],[151.266352,-33.967569],[151.257387,-33.951853],[151.265742,-33.941487],[151.258217,-33.922031],[151.271282,-33.915241],[151.27494,-33.893234],[151.285919,-33.891886],[151.287754,-33.849873],[151.281072,-33.832971],[151.301533,-33.823438],[151.307459,-33.807465],[151.293208,-33.800295],[151.299064,-33.796194],[151.288987,-33.787091],[151.302309,-33.768219],[151.297428,-33.752727],[151.317479,-33.741794],[151.302073,-33.731196],[151.300385,-33.717777],[151.31539,-33.696426],[151.309277,-33.688944],[151.326231,-33.662943],[151.324172,-33.652134],[151.343898,-33.624432],[151.325337,-33.5983],[151.3355,-33.582409],[151.329244,-33.578011],[151.322542,-33.579525],[151.316018,-33.6016235],[151.3282395,-33.6209736],[151.3162247,-33.6143043],[151.3150125,-33.6309478],[151.3045869,-33.6354314],[151.3095687,-33.6393541],[151.301018,-33.6505268],[151.312174,-33.6667583]]]}}]}