{"type":"FeatureCollection","features":[{"type":"Feature","properties":{"slug":"syracuse","member_count":137,"matched_count":7,"unmatched":["Auburn city (US-NY, type='City')","Owasco town (US-NY, type='Town')","Sennett town (US-NY, type='Town')","Balance of Brutus town (US-NY, type='Balance')","Fleming town (US-NY, type='Town')","Balance of Sterling town (US-NY, type='Balance')","Balance of Aurelius town (US-NY, type='Balance')","Balance of Moravia town (US-NY, type='Balance')","Balance of Cato town (US-NY, type='Balance')","Locke town (US-NY, type='Town')","Throop town (US-NY, type='Town')","Balance of Ira town (US-NY, type='Balance')","Genoa town (US-NY, type='Town')","Weedsport village (US-NY, type='Village')","Conquest town (US-NY, type='Town')","Victory town (US-NY, type='Town')","Scipio town (US-NY, type='Town')","Moravia village (US-NY, type='Village')","Venice town (US-NY, type='Town')","Port Byron village (US-NY, type='Village')","Montezuma town (US-NY, type='Town')","Niles town (US-NY, type='Town')","Balance of Springport town (US-NY, type='Balance')","Summerhill town (US-NY, type='Town')","Union Springs village (US-NY, type='Village')","Balance of Ledyard town (US-NY, type='Balance')","Balance of Mentz town (US-NY, type='Balance')","Sempronius town (US-NY, type='Town')","Fair Haven village (US-NY, type='Village')","Aurora village (US-NY, type='Village')","Cayuga village (US-NY, type='Village')","Cato village (US-NY, type='Village')","Meridian village (US-NY, type='Village')","Cato village (US-NY, type='Village')","Balance of Sullivan town (US-NY, type='Balance')","Chittenango village (US-NY, type='Village')","Canastota village (US-NY, type='Village')","Hamilton village (US-NY, type='Village')","Balance of Cazenovia town (US-NY, type='Balance')","Balance of Lenox town (US-NY, type='Balance')","Cazenovia village (US-NY, type='Village')","Balance of Eaton town (US-NY, type='Balance')","Balance of Madison town (US-NY, type='Balance')","Brookfield town (US-NY, type='Town')","Nelson town (US-NY, type='Town')","Lincoln town (US-NY, type='Town')","Balance of Hamilton town (US-NY, type='Balance')","Morrisville village (US-NY, type='Village')","Fenner town (US-NY, type='Town')","Balance of Stockbridge town (US-NY, type='Balance')","Lebanon town (US-NY, type='Town')","Smithfield town (US-NY, type='Town')","Balance of DeRuyter town (US-NY, type='Balance')","Georgetown town (US-NY, type='Town')","Wampsville village (US-NY, type='Village')","Earlville village (US-NY, type='Village')","Munnsville village (US-NY, type='Village')","DeRuyter village (US-NY, type='Village')","Madison village (US-NY, type='Village')","Hamilton village (US-NY, type='Village')","Hamilton village (US-NY, type='Village')","Syracuse city (US-NY, type='City')","Balance of Clay town (US-NY, type='Balance')","Balance of Salina town (US-NY, type='Balance')","Balance of Cicero town (US-NY, type='Balance')","Balance of Camillus town (US-NY, type='Balance')","Onondaga town (US-NY, type='Town')","Balance of De Witt town (US-NY, type='Balance')","Balance of Manlius town (US-NY, type='Balance')","Balance of Lysander town (US-NY, type='Balance')","Balance of Van Buren town (US-NY, type='Balance')","Balance of Geddes town (US-NY, type='Balance')","Pompey town (US-NY, type='Town')","Solvay village (US-NY, type='Village')","LaFayette town (US-NY, type='Town')","North Syracuse village (US-NY, type='Village')","Manlius village (US-NY, type='Village')","Balance of Skaneateles town (US-NY, type='Balance')","Baldwinsville village (US-NY, type='Village')","Balance of Marcellus town (US-NY, type='Balance')","Fayetteville village (US-NY, type='Village')","Minoa village (US-NY, type='Village')","Balance of Elbridge town (US-NY, type='Balance')","Baldwinsville village (US-NY, type='Village')","East Syracuse village (US-NY, type='Village')","Skaneateles village (US-NY, type='Village')","Otisco town (US-NY, type='Town')","Liverpool village (US-NY, type='Village')","North Syracuse village (US-NY, type='Village')","Marcellus village (US-NY, type='Village')","Balance of Tully town (US-NY, type='Balance')","Balance of Fabius town (US-NY, type='Balance')","Spafford town (US-NY, type='Town')","Camillus village (US-NY, type='Village')","Jordan village (US-NY, type='Village')","Elbridge village (US-NY, type='Village')","Tully village (US-NY, type='Village')","Onondaga Nation Reservation (US-NY, type='Reservation')","Fabius village (US-NY, type='Village')","Oswego town (US-NY, type='Town')","Balance of Hastings town (US-NY, type='Balance')","Scriba town (US-NY, type='Town')","Granby town (US-NY, type='Town')","Balance of Schroeppel town (US-NY, type='Balance')","Volney town (US-NY, type='Town')","Balance of Constantia town (US-NY, type='Balance')","West Monroe town (US-NY, type='Town')","Balance of Hannibal town (US-NY, type='Balance')","Balance of Mexico town (US-NY, type='Balance')","Balance of Richland town (US-NY, type='Balance')","Palermo town (US-NY, type='Town')","New Haven town (US-NY, type='Town')","Balance of Sandy Creek town (US-NY, type='Balance')","Pulaski village (US-NY, type='Village')","Phoenix village (US-NY, type='Village')","Albion town (US-NY, type='Town')","Balance of Parish town (US-NY, type='Balance')","Central Square village (US-NY, type='Village')","Minetto town (US-NY, type='Town')","Mexico village (US-NY, type='Village')","Williamstown town (US-NY, type='Town')","Amboy town (US-NY, type='Town')","Orwell town (US-NY, type='Town')","Cleveland village (US-NY, type='Village')","Lacona village (US-NY, type='Village')","Sandy Creek village (US-NY, type='Village')","Hannibal village (US-NY, type='Village')","Boylston town (US-NY, type='Town')","Redfield town (US-NY, type='Town')","Parish village (US-NY, type='Village')"],"source":"Overture Maps division_area (CC-BY 4.0)"},"geometry":{"type":"MultiPolygon","coordinates":[[[[-75.248208,42.871751],[-75.247813,42.845014],[-75.239541,42.83428],[-75.250303,42.824377],[-75.24204,42.817598],[-75.249133,42.811716],[-75.25099,42.784939],[-75.27284,42.77281],[-75.280172,42.754312],[-75.295889,42.744083],[-75.42788,42.737582],[-75.428419,42.745347],[-75.889877,42.724088],[-75.895824,42.791036],[-76.274601,42.771287],[-76.265537,42.623505],[-76.666636,42.623442],[-76.68787,42.675011],[-76.7286524,42.7120017],[-76.739818,42.773155],[-76.73952,42.791942],[-76.717118,42.83694],[-76.722009,42.872445],[-76.738535,42.907116],[-76.739224,42.954625],[-76.721786,43.007644],[-76.711183,43.018331],[-76.71861,43.033116],[-76.717692,43.062731],[-76.702307,43.080154],[-76.746962,43.6959602],[-76.6484322,43.8239591],[-76.1999047,43.6805403],[-76.021987,43.668017],[-76.02512,43.706959],[-75.77382,43.689431],[-75.756429,43.470533],[-75.533381,43.419843],[-75.110645,43.61508],[-75.076924,43.3311],[-75.091632,43.328745],[-75.120097,43.30408],[-75.149384,43.304827],[-75.148014,43.289815],[-75.162606,43.260188],[-75.152514,43.258503],[-75.150754,43.246625],[-75.143486,43.255094],[-75.122488,43.240853],[-75.092685,43.230708],[-75.073113,43.234762],[-75.068993,43.227314],[-75.185703,43.088399],[-75.178408,43.082187],[-75.182556,43.075547],[-75.19561,43.077761],[-75.21894,43.052416],[-75.201609,42.880643],[-75.248208,42.871751]]],[[[-74.534238,43.228228],[-74.32645,43.241708],[-74.322363,43.214674],[-74.303339,43.215915],[-74.220858,43.221378],[-74.224253,43.248411],[-74.140024,43.253687],[-74.097504,42.982942],[-74.542151,42.985315],[-74.761535,43.049247],[-74.774029,43.078422],[-74.765815,43.090132],[-74.770057,43.113137],[-74.728691,43.125083],[-74.734997,43.143435],[-74.708088,43.14967],[-74.718012,43.164734],[-74.695985,43.174176],[-74.714599,43.289595],[-74.534238,43.228228]]]]}}]}