{"type": "FeatureCollection", "features": [{"type": "Feature", "properties": {"slug": "szeged", "members": 5, "country": "Hungary", "input_hash": "9f14ec1f977c7706"}, "geometry": {"type": "MultiPolygon", "coordinates": [[[[19.9435286, 46.2365254], [19.9676519, 46.2028171], [19.9598677, 46.1964097], [19.9652889, 46.192938], [19.9421792, 46.1877938], [19.9465033, 46.1843317], [19.9218436, 46.1669527], [19.8780254, 46.1528441], [19.8646949, 46.175814], [19.8440669, 46.1896722], [19.8382295, 46.2030454], [19.8434249, 46.2069303], [19.8241835, 46.2176096], [19.8198781, 46.2237319], [19.8254073, 46.226359], [19.8058965, 46.2436298], [19.8147034, 46.2454791], [19.8254058, 46.2648243], [19.8415885, 46.2452926], [19.9514311, 46.2497945], [19.9435286, 46.2365254]]], [[[20.1223616, 46.2056351], [20.0637374, 46.1436661], [20.0344381, 46.1457582], [20.0230898, 46.1749352], [20.0526563, 46.173528], [20.0743309, 46.1893299], [20.0585678, 46.196328], [20.0686811, 46.2091848], [20.0505868, 46.2097257], [20.0566915, 46.213483], [20.0463305, 46.2166189], [20.0554667, 46.2359628], [20.0752544, 46.2380648], [20.076577, 46.2498605], [20.007488, 46.2688793], [19.9724302, 46.290371], [19.9973339, 46.3008248], [20.0185934, 46.3219719], [20.0296895, 46.3275844], [20.0703907, 46.2998072], [20.0631071, 46.3219577], [20.0834537, 46.3221569], [20.0779221, 46.3492448], [20.1268231, 46.3472626], [20.1347952, 46.3361163], [20.1640283, 46.338142], [20.1743813, 46.3071893], [20.1846828, 46.3092342], [20.187827, 46.2933492], [20.2048555, 46.2935537], [20.2051411, 46.2809803], [20.2223641, 46.2903228], [20.2287141, 46.3043519], [20.2468466, 46.3041604], [20.2493294, 46.2923257], [20.2403326, 46.2829004], [20.2517434, 46.2774482], [20.2515572, 46.2690698], [20.2951477, 46.2781164], [20.2965438, 46.2841656], [20.3023057, 46.2791836], [20.3078862, 46.2593168], [20.3026283, 46.2456642], [20.3085507, 46.2406454], [20.2491866, 46.2363422], [20.2207958, 46.2431191], [20.2052139, 46.2333753], [20.2045149, 46.2006299], [20.2169119, 46.1902247], [20.2783228, 46.1903256], [20.2554676, 46.1490622], [20.2602363, 46.1417773], [20.2539395, 46.1296589], [20.2621215, 46.124936], [20.2549185, 46.1157964], [20.2482128, 46.1298279], [20.233185, 46.1238099], [20.2174448, 46.1388033], [20.1917285, 46.1923867], [20.1586845, 46.2125069], [20.1326932, 46.2013458], [20.1223616, 46.2056351]]], [[[20.5789759, 46.371357], [20.5716718, 46.3657466], [20.6218607, 46.351345], [20.6823538, 46.3512471], [20.6709631, 46.3197958], [20.5844262, 46.2726378], [20.6018571, 46.2293589], [20.5976589, 46.2168514], [20.5327361, 46.2101086], [20.5072283, 46.1877237], [20.3798972, 46.2181157], [20.3697588, 46.2300438], [20.3536645, 46.2226136], [20.4161017, 46.2614814], [20.4429723, 46.2603892], [20.4839051, 46.2716771], [20.5163731, 46.3146817], [20.5048776, 46.3369176], [20.4958337, 46.3480806], [20.4545028, 46.3447976], [20.3692521, 46.2993634], [20.2956128, 46.2983], [20.3140191, 46.3102812], [20.2538774, 46.3238897], [20.2065265, 46.3716067], [20.2044055, 46.4009537], [20.1868922, 46.4057063], [20.1867462, 46.4251277], [20.2067652, 46.45958], [20.1945725, 46.4821741], [20.2139992, 46.4884528], [20.2287079, 46.4802978], [20.2213514, 46.4461026], [20.2358214, 46.4276717], [20.2484584, 46.4263913], [20.2482161, 46.4404895], [20.2635991, 46.4388001], [20.2654204, 46.4460143], [20.2875422, 46.449964], [20.2763932, 46.4683655], [20.2841457, 46.5181738], [20.2958576, 46.5233761], [20.3116944, 46.5167288], [20.3142024, 46.5056567], [20.3241793, 46.508208], [20.3191446, 46.5284477], [20.3767329, 46.5144586], [20.4332663, 46.5248267], [20.4439049, 46.5094591], [20.4544775, 46.5131342], [20.4705669, 46.4957992], [20.4816951, 46.4994648], [20.4945215, 46.4840645], [20.5153547, 46.4799898], [20.5210022, 46.4646793], [20.5448916, 46.4518], [20.5473672, 46.441483], [20.5826534, 46.4425341], [20.5827816, 46.4082516], [20.560132, 46.4055073], [20.5539071, 46.3994969], [20.5435694, 46.3840191], [20.5487323, 46.3915691], [20.5789759, 46.371357]]], [[[19.9645329, 46.4400987], [19.8880452, 46.5157169], [19.9019298, 46.5217058], [19.8948525, 46.5278519], [19.9060631, 46.5388126], [19.8941698, 46.5541313], [19.9114932, 46.5677109], [19.9437478, 46.5484191], [19.9810637, 46.5043265], [20.0366225, 46.4665277], [20.0243389, 46.4578763], [20.0129352, 46.4671168], [19.9645329, 46.4400987]]]]}}]}