{"type": "FeatureCollection", "features": [{"type": "Feature", "properties": {"slug": "taganrog", "members": 1, "country": "Russia", "input_hash": "a55c1f55ee8c449b"}, "geometry": {"type": "Polygon", "coordinates": [[[38.9549392, 47.2009595], [38.9361039, 47.2244812], [38.9380112, 47.250711], [38.9620667, 47.2721888], [38.9568933, 47.2749678], [38.9435761, 47.2706486], [38.9416984, 47.2729397], [38.9701473, 47.2778138], [38.9656447, 47.2899427], [38.9365204, 47.2773342], [38.9226954, 47.2851283], [38.8833664, 47.2853744], [38.8782271, 47.2702267], [38.8377031, 47.2639047], [38.8551164, 47.2749606], [38.8503532, 47.2796925], [38.8414165, 47.2681357], [38.8270456, 47.2702809], [38.8035817, 47.2474706], [38.8117079, 47.2430587], [38.807624, 47.232808], [38.7929772, 47.2305217], [38.798337, 47.2165668], [38.8139139, 47.2190354], [38.8096187, 47.2295644], [38.8147592, 47.2304116], [38.8260835, 47.2143861], [38.8452315, 47.2177537], [38.8415622, 47.2122807], [38.8551337, 47.2014847], [38.8264453, 47.2002731], [38.8748047, 47.1884682], [38.8899285, 47.1984521], [38.9549392, 47.2009595]]]}}]}