{"type":"FeatureCollection","features":[{"type":"Feature","properties":{"slug":"taian","member_count":6,"matched_count":4,"unmatched":["X\u012bnt\u00e0i Sh\u00ec (CN-SD, type='County-level City')","F\u00e9ich\u00e9ng Sh\u00ec (CN-SD, type='County-level City')"],"source":"Overture Maps division_area (CC-BY 4.0)"},"geometry":{"type":"MultiPolygon","coordinates":[[[[117.300182,35.800015],[117.259591,35.766432],[117.208886,35.779765],[117.169004,35.779489],[117.120618,35.7651],[117.134296,35.778167],[117.131372,35.784371],[117.094129,35.786123],[117.097609,35.794962],[117.090918,35.803562],[117.078287,35.804753],[117.065745,35.790053],[117.050896,35.799418],[117.019877,35.796416],[117.013997,35.805511],[116.998008,35.808787],[116.988465,35.801262],[116.991287,35.783113],[116.975337,35.769735],[116.973593,35.757842],[116.939068,35.747433],[116.9370956,35.7371043],[116.943036,35.736477],[116.945011,35.729519],[116.949158,35.729956],[116.949181,35.725537],[116.949993,35.728208],[116.94981,35.725507],[116.952032,35.724498],[116.95215,35.721383],[116.904255,35.700204],[116.878408,35.700115],[116.87343,35.685711],[116.858295,35.679165],[116.808162,35.705978],[116.805206,35.684053],[116.776545,35.677411],[116.767399,35.689311],[116.769357,35.702963],[116.754443,35.706247],[116.745423,35.692306],[116.693854,35.704324],[116.693858,35.72445],[116.631149,35.705215],[116.609428,35.703587],[116.604251,35.70996],[116.615104,35.755281],[116.636589,35.763022],[116.661366,35.756854],[116.688021,35.78753],[116.67027,35.80665],[116.678761,35.820723],[116.658065,35.821676],[116.658554,35.831199],[116.632721,35.830814],[116.60455,35.853286],[116.617644,35.879009],[116.634674,35.878192],[116.64698,35.894688],[116.665084,35.899116],[116.653075,35.907749],[116.664956,35.925782],[116.72945,35.917823],[116.735152,35.894453],[116.750097,35.885025],[116.7848074,35.9010441],[116.829783,35.890933],[116.844755,35.899108],[116.852087,35.916046],[116.889604,35.928403],[116.901015,35.943565],[116.960443,35.949607],[116.95618,35.968826],[116.963604,35.98656],[116.943594,35.986974],[116.986745,36.032668],[116.954924,36.054912],[116.928527,36.046892],[116.911795,36.065216],[116.898077,36.057994],[116.863819,36.057891],[116.869105,36.070302],[116.893941,36.077286],[116.893988,36.091057],[116.879246,36.110909],[116.878729,36.131148],[116.859381,36.125664],[116.878977,36.132062],[116.88127,36.139995],[116.856006,36.137063],[116.858339,36.151976],[116.84999,36.160249],[116.857929,36.168204],[116.851045,36.167044],[116.850781,36.18157],[116.837329,36.181577],[116.85109,36.206858],[116.86507,36.207149],[116.881336,36.222535],[116.891181,36.2438],[116.885632,36.255567],[116.9182028,36.2728154],[116.9270457,36.261361],[116.950919,36.2599837],[116.9698106,36.2426564],[117.0005434,36.25236],[116.9972092,36.2648676],[117.0222883,36.2697766],[117.0248008,36.2823192],[117.0308304,36.2774758],[117.0669222,36.2876638],[117.0834719,36.3468753],[117.1272504,36.3348531],[117.1352018,36.3463819],[117.1759126,36.3532983],[117.2019929,36.404512],[117.2369788,36.4167983],[117.2490648,36.4390622],[117.2955006,36.477689],[117.3139477,36.4674586],[117.3384378,36.4718067],[117.3498732,36.4616589],[117.3309502,36.4346725],[117.3405836,36.4180628],[117.3387487,36.4003418],[117.352052,36.3940646],[117.3447122,36.3896333],[117.345171,36.3770768],[117.3855395,36.3342215],[117.3742138,36.3166103],[117.3797628,36.2898228],[117.3929727,36.2844524],[117.3889116,36.2660541],[117.4089665,36.2678109],[117.4126286,36.243859],[117.3874401,36.2374747],[117.3885654,36.2280202],[117.379735,36.2274086],[117.4066862,36.2107112],[117.4226949,36.221957],[117.4421921,36.2180187],[117.4470683,36.2038452],[117.4352444,36.1914095],[117.4575692,36.1699966],[117.4776933,36.1685694],[117.4827932,36.1560692],[117.4542702,36.150673],[117.4406579,36.1201475],[117.4587787,36.1142923],[117.4497908,36.1113645],[117.4502725,36.0978544],[117.4421428,36.0914041],[117.462148,36.0603548],[117.4113766,36.0251213],[117.392676,36.035438],[117.3383138,36.0313349],[117.3303407,36.0248868],[117.3326601,36.0112855],[117.312075,35.9913482],[117.3217877,35.9770372],[117.3146844,35.9621369],[117.3230924,35.9393705],[117.2894603,35.9034471],[117.2817771,35.8789018],[117.2551034,35.8852444],[117.244929,35.87652],[117.244614,35.866983],[117.273765,35.85242],[117.264382,35.826247],[117.282349,35.814227],[117.286401,35.801328],[117.300182,35.800015]]],[[[116.432524,36.041306],[116.4483,36.059677],[116.511071,36.072964],[116.555197,36.063009],[116.571332,36.047423],[116.5682044,36.0265931],[116.606907,36.031091],[116.61232,36.039858],[116.6642956,36.0284863],[116.62959,35.987001],[116.6366315,35.9753016],[116.6222444,35.958473],[116.6406109,35.9498211],[116.6398716,35.9403684],[116.6132426,35.9355647],[116.5903894,35.906079],[116.5511617,35.8908348],[116.5391753,35.8506606],[116.5218505,35.843498],[116.5176837,35.850774],[116.511273,35.8390706],[116.5003784,35.8449442],[116.4897243,35.8366148],[116.4718282,35.8392034],[116.4718714,35.8305364],[116.461656,35.83573],[116.456841,35.830465],[116.4672583,35.824324],[116.453207,35.827629],[116.453706,35.814227],[116.424646,35.809147],[116.424143,35.803502],[116.428533,35.799974],[116.429415,35.795727],[116.420163,35.796572],[116.416094,35.81048],[116.407565,35.788714],[116.381409,35.790756],[116.387533,35.799677],[116.375354,35.804945],[116.37388,35.796086],[116.355535,35.795356],[116.354736,35.811095],[116.34773,35.811847],[116.336382,35.793794],[116.323845,35.797179],[116.32668,35.781712],[116.316332,35.786401],[116.298911,35.776216],[116.2918732,35.792911],[116.3023553,35.8078692],[116.2661455,35.8045541],[116.2287233,35.8466571],[116.2247107,35.8595097],[116.2276182,35.8632051],[116.2290934,35.8929359],[116.2270979,35.8966123],[116.2120185,35.8887638],[116.2143788,35.8774373],[116.2076089,35.8800452],[116.2091646,35.8899807],[116.197674,35.8862866],[116.1610029,35.9064154],[116.1480854,35.8835571],[116.1346636,35.89437],[116.1166821,35.8876426],[116.098604,35.9035389],[116.10149,35.9089789],[116.0917965,35.9034694],[116.0777364,35.9093309],[116.0808156,35.9229944],[116.0695396,35.9271777],[116.0669754,35.9401084],[116.0419986,35.9417588],[116.0418002,35.9538317],[116.0554633,35.9535321],[116.0650871,35.9642182],[116.0539398,35.9808719],[116.0447881,35.981523],[116.0474551,35.9995222],[116.0572979,36.0287294],[116.0705613,36.0311173],[116.0699129,36.0566887],[116.0860705,36.0579966],[116.0743868,36.0586142],[116.0843287,36.0661312],[116.0820065,36.080668],[116.0927568,36.1087091],[116.109134,36.1208558],[116.1120355,36.133419],[116.1469952,36.1383003],[116.1507669,36.158876],[116.1631849,36.1620252],[116.1662286,36.1722903],[116.223079,36.170082],[116.239769,36.160596],[116.233915,36.161638],[116.245768,36.138213],[116.266703,36.119795],[116.255723,36.100985],[116.255867,36.066734],[116.267895,36.052445],[116.256554,36.046039],[116.298257,36.028549],[116.300788,36.052509],[116.335375,36.059752],[116.357334,36.088208],[116.382306,36.089452],[116.393302,36.085259],[116.399495,36.069826],[116.425137,36.066144],[116.423944,36.051695],[116.432524,36.041306]]]]}}]}