{"type":"FeatureCollection","features":[{"type":"Feature","properties":{"slug":"taiyuan","member_count":10,"matched_count":9,"unmatched":["G\u016dji\u0101o Sh\u00ec (CN-SX, type='County-level City')"],"source":"Overture Maps division_area (CC-BY 4.0)"},"geometry":{"type":"MultiPolygon","coordinates":[[[[112.5775734,37.60427],[112.5937173,37.5983128],[112.6033849,37.5710992],[112.597381,37.547862],[112.6201709,37.5318774],[112.6166392,37.5223544],[112.5861487,37.5221676],[112.5795562,37.5147911],[112.5843829,37.5035849],[112.5623685,37.5045188],[112.5444745,37.5168454],[112.5221069,37.5058263],[112.5020939,37.5106824],[112.5068028,37.5000359],[112.4974115,37.4763548],[112.4571957,37.4656521],[112.4498068,37.4768012],[112.4379543,37.4783803],[112.4205633,37.4581277],[112.3869836,37.4605509],[112.3794322,37.4701154],[112.3825972,37.4817804],[112.3512846,37.4840647],[112.3456661,37.4622802],[112.3235259,37.4583603],[112.303436,37.4414184],[112.2990396,37.4473144],[112.3094545,37.4533246],[112.3157319,37.4740278],[112.2828851,37.4873252],[112.3082,37.4948749],[112.3086781,37.5062319],[112.292068,37.5077514],[112.2895934,37.5207807],[112.2672246,37.5235333],[112.2875368,37.5482289],[112.2855547,37.5649787],[112.2605658,37.5594314],[112.2292124,37.5652729],[112.2209503,37.5917965],[112.1629277,37.6398435],[112.1723178,37.6689829],[112.189422,37.6778894],[112.1879975,37.6841409],[112.2527437,37.7038142],[112.2471755,37.7125222],[112.2642685,37.7374109],[112.3238192,37.7813563],[112.3213041,37.7926803],[112.3368702,37.8164098],[112.2991455,37.8308752],[112.2766205,37.8751219],[112.2979531,37.8723826],[112.2960107,37.8826037],[112.2803421,37.8818883],[112.2566228,37.9262113],[112.2663581,37.9224453],[112.2848542,37.9305699],[112.2729882,37.9357137],[112.2843328,37.9395138],[112.2957869,37.9361435],[112.2934372,37.9225393],[112.3071059,37.928641],[112.3057326,37.945429],[112.316322,37.9342515],[112.3332425,37.9623994],[112.3157406,37.9767379],[112.3296526,37.9802009],[112.3127836,37.9968491],[112.3088265,38.0182177],[112.2749497,38.0507024],[112.2754175,38.0600875],[112.2516579,38.0519603],[112.2461927,38.0588514],[112.2533236,38.0670829],[112.2243296,38.0710154],[112.228909,38.0845157],[112.2398723,38.0829578],[112.2373378,38.0906037],[112.1972306,38.1189738],[112.2102466,38.1294524],[112.2052146,38.1435245],[112.231143,38.1409026],[112.2501002,38.1532177],[112.2606487,38.1782571],[112.2428331,38.2237179],[112.2135503,38.2520155],[112.230128,38.2636818],[112.2624437,38.2679048],[112.2418149,38.2904944],[112.2664653,38.3115056],[112.2953276,38.3045719],[112.3130619,38.3105581],[112.3372237,38.298998],[112.3605435,38.2746556],[112.4006569,38.265763],[112.426075,38.2797193],[112.4378753,38.2784256],[112.4500995,38.2509001],[112.466873,38.2404687],[112.4963594,38.2367821],[112.5026274,38.248643],[112.5186886,38.2505267],[112.5236043,38.2683547],[112.5581565,38.2380097],[112.5516996,38.2226251],[112.5642994,38.2083389],[112.6104081,38.2063742],[112.6447706,38.228124],[112.6357244,38.2471189],[112.6607286,38.2443731],[112.6730394,38.2346961],[112.7024301,38.2445588],[112.7252697,38.2374094],[112.7303418,38.2449565],[112.7390443,38.2404252],[112.7876846,38.2506685],[112.8203572,38.2917463],[112.8440027,38.3069547],[112.9410118,38.3335904],[112.9656817,38.3570001],[112.9724821,38.341518],[112.9961003,38.3412562],[113.0332893,38.3810561],[113.076941,38.3930844],[113.0719919,38.4112186],[113.1333689,38.4179327],[113.1405307,38.4116917],[113.1334724,38.4042183],[113.1367208,38.3918229],[113.1469715,38.3786941],[113.1356006,38.358197],[113.1512828,38.3406004],[113.1445284,38.3263841],[113.1038228,38.3062372],[113.0694849,38.3058768],[113.0458674,38.2736004],[113.0291453,38.2694183],[113.0278013,38.2579236],[112.9653171,38.2303603],[112.9511038,38.216867],[112.9546774,38.2018366],[112.9309731,38.1790491],[112.9301148,38.1575783],[112.914634,38.1593738],[112.9157859,38.1442361],[112.9288199,38.1355418],[112.954615,38.1392758],[112.9568659,38.1185861],[112.98936,38.0897585],[113.0078103,38.0789089],[113.0138408,38.0840718],[113.0379816,38.0790652],[113.0448646,38.0650823],[113.0602477,38.0642793],[113.0620328,38.0547309],[113.0456528,38.0457303],[113.0098378,38.0466122],[113.0037265,38.0388372],[113.0164946,38.026227],[113.0007241,38.0174398],[112.9939589,38.0007765],[112.9598439,38.0177566],[112.9374415,37.9883152],[112.9149511,37.997041],[112.8465705,37.9892723],[112.821367,38.004586],[112.8094557,37.9985195],[112.8139423,37.9852096],[112.7907526,37.9749608],[112.7618832,37.9380432],[112.7726248,37.9258176],[112.7584247,37.9123582],[112.7729,37.8860464],[112.7632078,37.8776866],[112.7692014,37.8691444],[112.7395667,37.8780809],[112.7163775,37.8487857],[112.7015455,37.8511124],[112.7017119,37.8409894],[112.688726,37.8415152],[112.6709595,37.8233539],[112.6759541,37.7970474],[112.6696276,37.7857328],[112.6448211,37.7733636],[112.6611336,37.7406816],[112.6476513,37.730582],[112.6437943,37.709426],[112.6073615,37.6980514],[112.6210135,37.6854041],[112.5981281,37.6605642],[112.6148534,37.6457355],[112.6066956,37.6334748],[112.5809246,37.6406443],[112.5709717,37.6314398],[112.5775734,37.60427]]],[[[112.0398619,38.1711883],[111.9924698,38.1196594],[112.0120468,38.0908244],[112.0111693,38.0256194],[112.0323488,38.0078619],[112.0367696,37.9748095],[112.0063632,37.9664311],[112.0464761,37.9490255],[112.0327613,37.9355924],[111.998913,37.9308867],[111.9510803,37.9082834],[111.9418333,37.8893279],[111.9304503,37.8854334],[111.9100038,37.8919599],[111.8578873,37.8891714],[111.839576,37.9000452],[111.8137426,37.8967041],[111.7647282,37.9069344],[111.7467193,37.9049032],[111.7273096,37.882271],[111.7291281,37.873482],[111.6951853,37.8772835],[111.6751853,37.8617641],[111.5876686,37.8564854],[111.5694023,37.847282],[111.557628,37.8794273],[111.5413741,37.8847364],[111.5733724,37.9015712],[111.5715598,37.9232113],[111.5500793,37.9394109],[111.5376937,37.9590504],[111.5306477,37.9963473],[111.5129365,38.0111158],[111.5106228,38.0235892],[111.5221756,38.0382183],[111.5089168,38.051456],[111.5161277,38.0651275],[111.5380944,38.0716004],[111.5421733,38.0839371],[111.5592423,38.0943834],[111.6093063,38.1018104],[111.6731873,38.1274489],[111.6865233,38.1508024],[111.7139968,38.1639784],[111.7192993,38.1817664],[111.7839744,38.1886984],[111.799643,38.1951694],[111.8117916,38.2137759],[111.8432911,38.2145951],[111.8349466,38.2223856],[111.8404222,38.2295252],[111.8627553,38.2197266],[111.8613832,38.1959549],[111.8912051,38.197668],[111.9086212,38.1804483],[111.9295308,38.1785066],[111.9445046,38.1674201],[112.0001941,38.1886391],[112.0398619,38.1711883]]]]}}]}