{"type": "FeatureCollection", "features": [{"type": "Feature", "properties": {"slug": "talca", "members": 1, "country": "Chile", "input_hash": "6415677db3d396fa"}, "geometry": {"type": "Polygon", "coordinates": [[[-72.0368184, -35.6744328], [-72.0848501, -35.6739971], [-72.0776618, -35.6660393], [-72.0915397, -35.6457216], [-72.1270736, -35.6465586], [-72.1390899, -35.6655279], [-72.1492179, -35.6356771], [-72.1881851, -35.616003], [-72.1703323, -35.5850169], [-72.1794303, -35.5749647], [-72.1877884, -35.5770993], [-72.1254802, -35.4879303], [-72.1290314, -35.4753847], [-72.1084808, -35.4387583], [-72.0935463, -35.4423247], [-72.0739769, -35.4177768], [-72.0595228, -35.4326307], [-72.0391296, -35.4364506], [-72.0315765, -35.449317], [-71.999812, -35.4502076], [-71.9633324, -35.4706811], [-71.9233353, -35.4633411], [-71.9046652, -35.4702508], [-71.8838705, -35.4628697], [-71.8494351, -35.4983573], [-71.7939026, -35.5169426], [-71.7834429, -35.5400827], [-71.7690117, -35.547117], [-71.7672951, -35.5626887], [-71.7538762, -35.5709651], [-71.6923571, -35.5518511], [-71.6577888, -35.5572803], [-71.6018272, -35.5846649], [-71.5567446, -35.5903711], [-71.51649, -35.6052714], [-71.4854622, -35.6001247], [-71.4388561, -35.6153023], [-71.403451, -35.6094409], [-71.3693762, -35.627233], [-71.336546, -35.6789821], [-71.270628, -35.6800279], [-71.1982942, -35.7271615], [-71.1444309, -35.7277114], [-71.1101256, -35.7046819], [-71.0795698, -35.7094213], [-71.0670386, -35.7151359], [-71.0436926, -35.7531767], [-71.0333929, -35.777413], [-71.0347662, -35.8097166], [-71.0157118, -35.8325439], [-70.9987173, -35.835884], [-71.0016356, -35.8659381], [-70.977834, -35.8730476], [-70.9566603, -35.9123881], [-70.9411776, -35.9222987], [-70.9349954, -35.9420721], [-70.8893788, -35.9587727], [-70.8730602, -35.9911066], [-70.8533202, -35.9936794], [-70.8362281, -35.9844134], [-70.833149, -35.9744637], [-70.7838875, -35.9663103], [-70.7422552, -35.9824287], [-70.6826887, -35.9884016], [-70.6527377, -35.9831295], [-70.6172848, -35.9993095], [-70.6094098, -35.9924608], [-70.5860434, -36.0213133], [-70.6104193, -36.0211745], [-70.6105578, -36.03213], [-70.6222639, -36.0406096], [-70.5997217, -36.0588614], [-70.6095171, -36.0881934], [-70.6236416, -36.0909852], [-70.6244087, -36.1062945], [-70.6078649, -36.1164875], [-70.5821103, -36.1153998], [-70.5703273, -36.1330917], [-70.527817, -36.1437838], [-70.4906684, -36.1789342], [-70.4486919, -36.1728936], [-70.4211295, -36.1561506], [-70.4149658, -36.1063075], [-70.4263169, -36.0981461], [-70.4127717, -36.0614113], [-70.3697705, -36.0400467], [-70.3807622, -36.0247114], [-70.3782356, -35.9898913], [-70.4231089, -35.9722779], [-70.4178411, -35.9605964], [-70.3913677, -35.9517337], [-70.367008, -35.923641], [-70.4115073, -35.9240694], [-70.4241371, -35.9147418], [-70.4209056, -35.8742248], [-70.3824534, -35.8674087], [-70.3694072, -35.8418083], [-70.3460612, -35.8367986], [-70.307611, -35.8128805], [-70.3228406, -35.8105666], [-70.3361049, -35.7968485], [-70.3584208, -35.8001901], [-70.3793635, -35.7872408], [-70.3743853, -35.7577142], [-70.3582492, -35.7489376], [-70.3697001, -35.737252], [-70.3756929, -35.7015334], [-70.4052079, -35.6779015], [-70.3970245, -35.6648124], [-70.4237734, -35.6400741], [-70.4162693, -35.6293173], [-70.4295087, -35.6098073], [-70.4285216, -35.5987289], [-70.4648602, -35.5990778], [-70.4993105, -35.5672474], [-70.491811, -35.5552902], [-70.4946005, -35.5154522], [-70.5085373, -35.4991464], [-70.5279458, -35.4961416], [-70.5398279, -35.4646766], [-70.5549165, -35.4758025], [-70.5720826, -35.4686727], [-70.5902787, -35.478179], [-70.6191178, -35.5072501], [-70.6184312, -35.5149354], [-70.6670114, -35.5290465], [-70.6949922, -35.519686], [-70.7425424, -35.552513], [-70.7514688, -35.5832324], [-70.766575, -35.5694101], [-70.7713815, -35.5312817], [-70.7892343, -35.5182888], [-70.7861444, -35.504595], [-70.8185884, -35.508927], [-70.8435693, -35.4910599], [-70.9329384, -35.5001006], [-70.9552695, -35.484687], [-71.0349854, -35.4593504], [-71.0568184, -35.4137027], [-71.0856897, -35.4044512], [-71.1131791, -35.371567], [-71.1182356, -35.3022024], [-71.136539, -35.2906919], [-71.1618269, -35.253912], [-71.206786, -35.2201656], [-71.2287533, -35.18135], [-71.2566269, -35.175115], [-71.262914, -35.1629067], [-71.2937057, -35.150907], [-71.3104481, -35.1350803], [-71.3360417, -35.1311275], [-71.3432676, -35.1397611], [-71.359688, -35.1409937], [-71.3778627, -35.1599705], [-71.3847855, -35.180438], [-71.4098936, -35.2035765], [-71.4384699, -35.2168393], [-71.4811356, -35.2215694], [-71.5073998, -35.2452832], [-71.5595663, -35.2262175], [-71.5790284, -35.20643], [-71.5985012, -35.2240615], [-71.6256237, -35.2275672], [-71.6386378, -35.2138415], [-71.6649556, -35.2095638], [-71.6793323, -35.1663536], [-71.6714358, -35.1491087], [-71.6858125, -35.1276044], [-71.6849488, -35.1098686], [-71.7212069, -35.0888676], [-71.7320323, -35.0556631], [-71.7561936, -35.0345954], [-71.7674375, -34.9968294], [-71.7982185, -34.9945047], [-71.8123591, -34.9867787], [-71.8178496, -34.9709289], [-71.8479681, -34.9799047], [-71.8534291, -34.9910154], [-71.903565, -34.9959901], [-71.9113112, -35.0034076], [-71.9406318, -34.997367], [-71.9626347, -35.0089714], [-71.9797388, -35.0037979], [-72.0009828, -34.9811705], [-72.0287472, -34.9956923], [-72.0629856, -35.0361605], [-72.0936361, -35.0492727], [-72.1222177, -35.0357805], [-72.1298566, -35.0531373], [-72.1414438, -35.0592499], [-72.1599832, -35.0554559], [-72.1703687, -35.042808], [-72.1856368, -35.0004284], [-72.1891022, -35.0716633], [-72.207014, -35.1157027], [-72.3209542, -35.177987], [-72.3820301, -35.2210299], [-72.4018496, -35.2537061], [-72.4079691, -35.3185328], [-72.435043, -35.3275898], [-72.4396759, -35.3488838], [-72.4714369, -35.3615505], [-72.4988483, -35.3912803], [-72.487514, -35.4350131], [-72.4885785, -35.4636149], [-72.5099051, -35.4765162], [-72.5356409, -35.5088237], [-72.5600383, -35.5131272], [-72.5772044, -35.5346927], [-72.6196879, -35.5610901], [-72.5867075, -35.5725664], [-72.5606847, -35.5685215], [-72.527774, -35.5782036], [-72.5165731, -35.5609265], [-72.495448, -35.5581575], [-72.4875301, -35.5482809], [-72.4539274, -35.5571625], [-72.4365038, -35.5410135], [-72.4419166, -35.5790063], [-72.4330976, -35.6059997], [-72.4509287, -35.6171296], [-72.4435902, -35.6347587], [-72.4553382, -35.6350181], [-72.4588763, -35.6436097], [-72.4385315, -35.6484258], [-72.4219126, -35.671282], [-72.3726779, -35.6932212], [-72.3240602, -35.6734479], [-72.3114646, -35.6936264], [-72.2757112, -35.6925235], [-72.2398551, -35.7339752], [-72.2017463, -35.7166947], [-72.1470505, -35.710232], [-72.1380388, -35.6993546], [-72.1029523, -35.7196578], [-72.0723136, -35.7109104], [-72.062704, -35.7151569], [-72.0605895, -35.705443], [-72.0425771, -35.6955553], [-72.0368184, -35.6744328]]]}}]}