{"type": "FeatureCollection", "features": [{"type": "Feature", "properties": {"slug": "tandil", "members": 1, "country": "Argentina", "input_hash": "4ef7248d01bf13db"}, "geometry": {"type": "Polygon", "coordinates": [[[-59.1107231, -37.8261295], [-58.6116096, -37.4104103], [-58.9817115, -37.1317367], [-58.9893445, -37.1366328], [-59.0634045, -37.0836726], [-59.2189432, -36.964431], [-59.2143485, -36.9538495], [-59.3596116, -36.844813], [-59.3654227, -36.8501444], [-59.3561567, -36.8772446], [-59.36013, -36.8964156], [-59.3950085, -36.9476983], [-59.4004418, -36.9705577], [-59.4339656, -36.9992474], [-59.4373519, -37.0204047], [-59.4833283, -37.0377097], [-59.5213202, -37.0823019], [-59.5418297, -37.080403], [-59.5523428, -37.0940515], [-59.5681586, -37.0979944], [-59.5836, -37.1139397], [-59.5868484, -37.1320215], [-59.6252869, -37.1524471], [-59.642614, -37.1731895], [-59.669273, -37.1812292], [-59.7005202, -37.216035], [-59.7800242, -37.2372285], [-59.2255948, -37.6510292], [-59.1847923, -37.6163562], [-59.1669851, -37.6254688], [-59.1522225, -37.6573483], [-59.1702846, -37.700433], [-59.166062, -37.7368076], [-59.1326083, -37.7604625], [-59.1302655, -37.7807842], [-59.1151, -37.7896542], [-59.1107231, -37.8261295]]]}}]}