{"type": "FeatureCollection", "features": [{"type": "Feature", "properties": {"slug": "tanta", "members": 3, "country": "Egypt", "input_hash": "a1474614f90a99f9"}, "geometry": {"type": "Polygon", "coordinates": [[[30.87538134500005, 30.89441932400007], [30.963840008000034, 30.900397644000066], [30.96865032900007, 30.89004756500003], [30.977967576000026, 30.904333602000065], [30.992043455000044, 30.892733410000062], [31.016039292000073, 30.91539423000006], [31.03323731100005, 30.913040934000037], [31.052795098000047, 30.89528826700007], [31.100095976000034, 30.894882102000054], [31.094652216000043, 30.878137847000062], [31.111017794000077, 30.872331385000052], [31.111525533000076, 30.86543987700003], [31.090019788000063, 30.862539747000028], [31.061973263000027, 30.834624401000042], [31.049184180000054, 30.790114179000057], [31.063893265000047, 30.77536418400007], [31.07516621900004, 30.774864485000023], [31.077276330000075, 30.765671652000037], [31.056334444000072, 30.76413930600006], [31.049028075000024, 30.748086993000072], [31.04206281100005, 30.751326608000056], [31.041156430000058, 30.723311339000077], [31.03241905200008, 30.707358339000052], [31.02110112200006, 30.70376502000005], [31.000936959000057, 30.71369495400006], [30.98603347900007, 30.70343542100005], [30.975884412000028, 30.711482157000034], [30.97953407600005, 30.724026337000055], [30.97083321300005, 30.727677108000023], [30.96258116000007, 30.718217882000033], [30.96672393600005, 30.729507174000048], [30.94969347700004, 30.74656827800004], [30.89571760900003, 30.73944115000006], [30.89533013600004, 30.78963733300003], [30.884322891000068, 30.791268985000045], [30.875491905000047, 30.808056188000023], [30.88198741100007, 30.833537491000072], [30.871530734000032, 30.845963226000038], [30.885519, 30.853970462000063], [30.884197891000042, 30.86545910800004], [30.873176959000034, 30.86433353800004], [30.872034460000066, 30.885774539000067], [30.87538134500005, 30.89441932400007]], [[30.98617359800005, 30.773354718000064], [30.994210615000043, 30.768046450000043], [30.995873098377597, 30.767914171201113], [30.98617359800005, 30.773354718000064]], [[30.99158287700004, 30.805170129000032], [31.000003502000027, 30.799429857000064], [30.986825012000054, 30.811027169000056], [30.99158287700004, 30.805170129000032]], [[30.989984558231555, 30.80430689067717], [30.983844539000074, 30.802077206000035], [30.974426968000046, 30.795904369000027], [30.989984558231555, 30.80430689067717]], [[31.000919046000035, 30.767335906000028], [31.001693019880694, 30.767565480051207], [30.998527880616198, 30.76758917359964], [31.000919046000035, 30.767335906000028]]]}}]}