{"type": "FeatureCollection", "features": [{"type": "Feature", "properties": {"slug": "tarakan", "members": 1, "country": "Indonesia", "input_hash": "5b90b83cf375327a"}, "geometry": {"type": "MultiPolygon", "coordinates": [[[[117.5947832, 3.2797167], [117.5417324, 3.3259645], [117.5149453, 3.3804845], [117.5200279, 3.4159911], [117.5500645, 3.4423503], [117.6133847, 3.4410705], [117.6657951, 3.4151746], [117.656815, 3.2515261], [117.6472664, 3.2400111], [117.6307225, 3.2421963], [117.6128077, 3.2614101], [117.6116236, 3.2807625], [117.5947832, 3.2797167]]], [[[117.5260158, 3.3424203], [117.5210577, 3.3474757], [117.5258589, 3.3487743], [117.5260158, 3.3424203]]], [[[117.52287, 3.3498233], [117.5232831, 3.3493466], [117.5225374, 3.3498929], [117.52287, 3.3498233]]]]}}]}