{"type": "FeatureCollection", "features": [{"type": "Feature", "properties": {"slug": "tasikmalaya", "members": 4, "country": "Indonesia", "input_hash": "9ae0d8af5876b0cf"}, "geometry": {"type": "Polygon", "coordinates": [[[107.9858809, -7.2502627], [108.0185761, -7.2310421], [108.0648771, -7.2186151], [108.0786284, -7.1708925], [108.0876995, -7.1626748], [108.0679745, -7.1302091], [108.099381, -7.1028823], [108.1133572, -7.1026313], [108.1225057, -7.1147653], [108.1260023, -7.1021499], [108.1179863, -7.0780604], [108.1363508, -7.06037], [108.1255218, -7.0384763], [108.1378481, -7.0387908], [108.1558305, -7.0667072], [108.1938655, -7.0708358], [108.208833, -7.0879729], [108.2196421, -7.0879447], [108.2199465, -7.1233272], [108.2014051, -7.137452], [108.2033479, -7.152059], [108.1925779, -7.1695901], [108.19921, -7.2310034], [108.1883682, -7.2632804], [108.2021498, -7.2865111], [108.249509, -7.3129868], [108.2524886, -7.3213735], [108.2699394, -7.3188526], [108.2780351, -7.3345021], [108.3238285, -7.3394324], [108.342444, -7.3558661], [108.3627393, -7.3522611], [108.3736853, -7.3598194], [108.4059204, -7.3605722], [108.4149387, -7.3770301], [108.4001911, -7.3892562], [108.3960798, -7.4087868], [108.4048837, -7.4219272], [108.420615, -7.4230766], [108.4254274, -7.4862797], [108.4425697, -7.4883384], [108.4277144, -7.5007905], [108.4167311, -7.4891307], [108.4104505, -7.4979216], [108.399887, -7.4793987], [108.3750712, -7.478776], [108.3520281, -7.498018], [108.3396918, -7.4948177], [108.3343014, -7.5074882], [108.3331851, -7.5486264], [108.353844, -7.5622015], [108.3588887, -7.6081149], [108.3616366, -7.6050448], [108.3673616, -7.6087074], [108.3592769, -7.6137618], [108.3647784, -7.622578], [108.3575213, -7.6222997], [108.3546485, -7.637569], [108.3664029, -7.6587492], [108.3544295, -7.6722822], [108.3555731, -7.6833549], [108.3403583, -7.6817014], [108.329931, -7.6908905], [108.3237174, -7.6828594], [108.3248002, -7.6929944], [108.3144506, -7.6902258], [108.3243051, -7.714739], [108.3320076, -7.7121639], [108.324482, -7.7200072], [108.3197297, -7.7146049], [108.3205022, -7.725984], [108.3129337, -7.7245896], [108.3241747, -7.7572338], [108.3251313, -7.7789758], [108.3180967, -7.7866202], [108.3434921, -7.8031382], [108.3406341, -7.8171423], [108.1412601, -7.7851314], [108.0025631, -7.7462772], [107.9097056, -7.7320691], [107.9312343, -7.6860922], [107.9236122, -7.6763835], [107.9302649, -7.6574299], [107.9232506, -7.6521102], [107.9251742, -7.6180167], [107.9170061, -7.5971043], [107.9424827, -7.5735499], [107.9351612, -7.5573185], [107.9461685, -7.5450053], [107.9432725, -7.503937], [107.9533704, -7.4603485], [107.9455851, -7.4509511], [107.9517325, -7.4242456], [107.9403918, -7.4075611], [107.9436015, -7.3981802], [107.9045071, -7.36094], [107.9291118, -7.3497937], [107.9379034, -7.3309988], [107.947053, -7.3308618], [107.940271, -7.3162136], [107.9285375, -7.3127034], [107.9243368, -7.2856232], [107.9735586, -7.27032], [107.9858809, -7.2502627]], [[108.1791719, -7.2715849], [108.1785044, -7.2734664], [108.17980668336841, -7.271538374357553], [108.1791719, -7.2715849]], [[108.1534911, -7.2951339], [108.15374557082852, -7.2956435246217906], [108.15383037800943, -7.2945000812573015], [108.1534911, -7.2951339]], [[108.1590428, -7.3062522], [108.156114, -7.2990096], [108.15511193450557, -7.298379919108257], [108.1590428, -7.3062522]], [[108.17424366940942, -7.392135191805521], [108.1749646, -7.3900662], [108.17402461214941, -7.388962456814893], [108.17424366940942, -7.392135191805521]], [[108.1743098, -7.393093], [108.17678690716014, -7.392953280550437], [108.17429001546579, -7.392806448967758], [108.1743098, -7.393093]], [[108.18438804471073, -7.394694518155904], [108.1839396, -7.3933739], [108.18382790434943, -7.393367331653768], [108.18438804471073, -7.394694518155904]], [[108.1814496, -7.3995922], [108.1846708, -7.3955272], [108.18459996668525, -7.395318604025345], [108.1814496, -7.3995922]], [[108.18824049091317, -7.434455772304098], [108.1884435, -7.4342785], [108.1853152, -7.4293302], [108.18824049091317, -7.434455772304098]], [[108.1862175, -7.4417825], [108.1863698389041, -7.441486879420927], [108.1837844, -7.4411889], [108.1862175, -7.4417825]], [[108.18906876487269, -7.438255013137951], [108.1882679, -7.4382226], [108.18818907192008, -7.438382881979546], [108.18906876487269, -7.438255013137951]], [[108.19328520202022, -7.440341935786475], [108.1934047, -7.4384305], [108.1924565798436, -7.438392127047867], [108.19328520202022, -7.440341935786475]], [[108.1886985, -7.4446031], [108.1881163491501, -7.445495667862125], [108.1930677, -7.443821], [108.1886985, -7.4446031]], [[108.187475, -7.446479], [108.1923928, -7.4501322], [108.18780849655214, -7.4459676749635175], [108.187475, -7.446479]], [[108.1996917, -7.4505039], [108.20001662500934, -7.449899147407553], [108.19885806638467, -7.450194616300909], [108.1996917, -7.4505039]], [[108.22166677039824, -7.435443855954737], [108.2136833, -7.4345069], [108.21350896180877, -7.434720738732017], [108.22166677039824, -7.435443855954737]], [[108.2303427, -7.4362129], [108.23038257340097, -7.435964397217715], [108.22988733965167, -7.436172536352483], [108.2303427, -7.4362129]], [[108.2575216, -7.4283059], [108.26089897287528, -7.427417234903176], [108.2484645, -7.4284376], [108.2575216, -7.4283059]], [[108.276144, -7.4173273], [108.27618587817445, -7.417052990810973], [108.2713819, -7.4203031], [108.276144, -7.4173273]], [[108.2779039, -7.4049775], [108.2766807, -7.4006426], [108.27779069297935, -7.404977149905523], [108.2779039, -7.4049775]], [[108.275581, -7.3947637], [108.27519762684575, -7.3946382665965364], [108.2738907, -7.3966519], [108.275581, -7.3947637]], [[108.28600265611394, -7.349223132953735], [108.2848764, -7.3518966], [108.2844279, -7.3637348], [108.28600265611394, -7.349223132953735]], [[108.28702993659952, -7.34716473737486], [108.2868699, -7.3471645], [108.28668706902207, -7.347598497727957], [108.28702993659952, -7.34716473737486]], [[108.3017502, -7.3438504], [108.3019976044405, -7.343553869452574], [108.3004525, -7.3423486], [108.3017502, -7.3438504]]]}}]}