{"type": "FeatureCollection", "features": [{"type": "Feature", "properties": {"slug": "tebessa", "members": 1, "country": "Algeria", "input_hash": "538e549ce3c2a9f3"}, "geometry": {"type": "Polygon", "coordinates": [[[7.9688169, 35.3527453], [7.9594469, 35.3423203], [7.9812779, 35.3194563], [8.0106999, 35.3280493], [8.0320619, 35.3581883], [8.0507409, 35.3591613], [8.0707029, 35.3797913], [8.0730129, 35.3419773], [8.0797059, 35.3339563], [8.1325679, 35.3435793], [8.1624669, 35.3303433], [8.1826459, 35.3408873], [8.1951709, 35.3689623], [8.1671669, 35.4116228], [8.0382791, 35.477636], [8.0192029, 35.4476823], [7.9954129, 35.4416623], [8.0219539, 35.4094103], [7.9875749, 35.3945153], [7.9904569, 35.3719373], [7.9719079, 35.3747853], [7.9688169, 35.3527453]]]}}]}