{"type": "FeatureCollection", "features": [{"type": "Feature", "properties": {"slug": "tecoman", "members": 2, "country": "Mexico", "input_hash": "be1e5c61f6e56adc"}, "geometry": {"type": "Polygon", "coordinates": [[[-103.8986592, 19.0973531], [-103.8842811, 19.1214031], [-103.8838422, 19.1123182], [-103.8678467, 19.1010902], [-103.8484098, 19.1078688], [-103.8524085, 19.0842123], [-103.8611736, 19.0867667], [-103.8573393, 19.0456066], [-103.7835412, 19.059278], [-103.7907177, 19.074198], [-103.7730161, 19.0786992], [-103.7699449, 19.0001042], [-103.7807161, 18.9999094], [-103.7839789, 18.9561127], [-103.7698647, 18.9483325], [-103.7763447, 18.9429545], [-103.7514671, 18.9449266], [-103.7753499, 18.9160645], [-103.7669596, 18.9226642], [-103.7692206, 18.9110103], [-103.7479717, 18.9090405], [-103.7407831, 18.9175682], [-103.7411031, 18.9008066], [-103.7279626, 18.903912], [-103.7288431, 18.9128686], [-103.686714, 18.8816077], [-103.6941717, 18.8654636], [-103.6522233, 18.8488895], [-103.6206914, 18.8203518], [-103.6197574, 18.8022807], [-103.6379782, 18.7832075], [-103.679017, 18.773211], [-103.6854384, 18.7572928], [-103.7003027, 18.7543558], [-103.7183724, 18.710777], [-103.7389425, 18.6937737], [-103.7377599, 18.6841747], [-103.8034189, 18.7489102], [-103.971062, 18.8643523], [-104.1199655, 18.9441984], [-104.0998665, 18.987097], [-104.0779697, 18.9874086], [-104.0604608, 19.013637], [-104.0301408, 19.0125975], [-104.0368142, 19.0217724], [-104.0230763, 19.0388043], [-104.0295984, 19.0671325], [-104.067874, 19.1019365], [-104.0625312, 19.1186995], [-104.0694043, 19.1323097], [-104.060851, 19.1516616], [-104.0367805, 19.1519674], [-103.9603994, 19.1171236], [-103.9370561, 19.1189287], [-103.8986592, 19.0973531]], [[-103.92226735371588, 18.96803440078104], [-103.9212418, 18.9720895], [-103.9218018, 18.9768811], [-103.92226735371588, 18.96803440078104]], [[-103.94245946502222, 18.948107200463177], [-103.9422, 18.9484871], [-103.9461408, 18.9563721], [-103.94245946502222, 18.948107200463177]]]}}]}