{"type": "FeatureCollection", "features": [{"type": "Feature", "properties": {"slug": "tehuacan", "members": 2, "country": "Mexico", "input_hash": "7a2f527451407af8"}, "geometry": {"type": "Polygon", "coordinates": [[[-97.3302419, 18.58598], [-97.3146005, 18.5909545], [-97.3192274, 18.5781437], [-97.3124145, 18.5727689], [-97.3011713, 18.5873058], [-97.2916167, 18.5845812], [-97.2781119, 18.5967944], [-97.2547008, 18.586757], [-97.237376, 18.6076771], [-97.2077563, 18.6002652], [-97.2251598, 18.5931162], [-97.2363629, 18.5668638], [-97.266321, 18.5653807], [-97.27231, 18.5477368], [-97.2961878, 18.5229884], [-97.3184875, 18.5256013], [-97.310636, 18.51196], [-97.3223808, 18.4996519], [-97.3099712, 18.4651831], [-97.3144214, 18.4617935], [-97.3077469, 18.4619694], [-97.3239985, 18.4415205], [-97.3152058, 18.439116], [-97.3225387, 18.4241522], [-97.2971004, 18.3984661], [-97.3088256, 18.3914479], [-97.339047, 18.4017756], [-97.3272534, 18.3617099], [-97.3457238, 18.3562251], [-97.3591614, 18.3736104], [-97.3534133, 18.3649009], [-97.3666779, 18.3577109], [-97.4004081, 18.3716363], [-97.4027796, 18.3837477], [-97.4284684, 18.3831105], [-97.4262439, 18.4005464], [-97.413712, 18.4083157], [-97.4449812, 18.4206722], [-97.4908165, 18.4099902], [-97.4926634, 18.390122], [-97.5102996, 18.3799231], [-97.5219623, 18.3504417], [-97.5256592, 18.3553901], [-97.5547452, 18.3425537], [-97.5596622, 18.3250007], [-97.5906579, 18.3336176], [-97.5929305, 18.3424858], [-97.5852886, 18.348534], [-97.6259233, 18.4280867], [-97.6015191, 18.4448855], [-97.587716, 18.4726839], [-97.621343, 18.4715434], [-97.620345, 18.4824187], [-97.6347797, 18.4856519], [-97.6376347, 18.5025304], [-97.6200912, 18.5122372], [-97.6112006, 18.5059554], [-97.5939535, 18.5123158], [-97.5747468, 18.5338175], [-97.5443683, 18.5443904], [-97.5186726, 18.5229047], [-97.5504226, 18.5088833], [-97.5418165, 18.4988631], [-97.5521985, 18.4699109], [-97.5311224, 18.4462851], [-97.5168479, 18.441742], [-97.5021726, 18.4551422], [-97.4988113, 18.4481843], [-97.4680134, 18.4925222], [-97.4565053, 18.484014], [-97.4627404, 18.4997523], [-97.4987456, 18.5270259], [-97.4953494, 18.5356212], [-97.5064619, 18.5487955], [-97.4829422, 18.5716048], [-97.4915469, 18.5937906], [-97.4640485, 18.5927928], [-97.4327305, 18.6084093], [-97.4243873, 18.5985453], [-97.430665, 18.5853846], [-97.4013117, 18.5766811], [-97.4140949, 18.5720326], [-97.414807, 18.5606025], [-97.4246432, 18.5553455], [-97.4195963, 18.5408765], [-97.4099167, 18.5607315], [-97.3895798, 18.574819], [-97.3550331, 18.5915219], [-97.3302419, 18.58598]]]}}]}