{"type":"FeatureCollection","features":[{"type":"Feature","properties":{"slug":"teixeira-de-freitas","member_count":1,"matched_count":1,"unmatched":[],"source":"Overture Maps division_area (CC-BY 4.0)"},"geometry":{"type":"Polygon","coordinates":[[[-39.768,-17.626],[-39.6046309,-17.557961],[-39.6073048,-17.4110582],[-39.6294061,-17.3526389],[-39.632216,-17.3132645],[-39.6481919,-17.3108129],[-39.6617509,-17.2844266],[-39.675309,-17.2786728],[-39.685,-17.286],[-39.6924448,-17.2720198],[-39.7191848,-17.2805886],[-39.776,-17.277],[-39.81,-17.259],[-39.836,-17.26],[-39.829,-17.304],[-39.839,-17.331],[-39.859,-17.336],[-39.86,-17.363],[-39.889,-17.364],[-39.927,-17.342],[-39.941,-17.349],[-39.95,-17.291],[-39.939,-17.271],[-39.992,-17.243],[-40.0,-17.25],[-40.007,-17.233],[-40.018,-17.241],[-40.037,-17.238],[-40.036,-17.254],[-40.05,-17.257],[-40.048,-17.266],[-40.069,-17.262],[-40.068,-17.289],[-40.054,-17.294],[-40.03,-17.324],[-40.015,-17.327],[-39.997,-17.369],[-39.973,-17.38],[-39.94,-17.42],[-39.934,-17.475],[-39.768,-17.626]]]}}]}