{"type":"FeatureCollection","features":[{"type":"Feature","properties":{"slug":"telford","member_count":24,"matched_count":4,"unmatched":["Hadley & Horton (GB-ENG, type='MSOA')","Ironbridge, Admaston & Higher Ercall (GB-ENG, type='MSOA')","Oakengates & Ketley (GB-ENG, type='MSOA')","Hollinswood & Randlay (GB-ENG, type='MSOA')","Lawley, Horsehay & Lightmoor (GB-ENG, type='MSOA')","Town Centre, Overdale & Dawley Bank (GB-ENG, type='MSOA')","Malinslee (GB-ENG, type='MSOA')","Priorslee (GB-ENG, type='MSOA')","Dothill & Shawbirch (GB-ENG, type='MSOA')","Dawley & Aqueduct (GB-ENG, type='MSOA')","Wellington West (GB-ENG, type='MSOA')","Wellington East (GB-ENG, type='MSOA')","Brookside (GB-ENG, type='MSOA')","Newport South (GB-ENG, type='MSOA')","Wrockwardine Wood & Trench (GB-ENG, type='MSOA')","Edgmond & Church Aston (GB-ENG, type='MSOA')","Muxton & Lilleshall (GB-ENG, type='MSOA')","Apley & Leegomery (GB-ENG, type='MSOA')","Newport North (GB-ENG, type='MSOA')","Sutton Hill (GB-ENG, type='MSOA')"],"source":"Overture Maps division_area (CC-BY 4.0)"},"geometry":{"type":"MultiPolygon","coordinates":[[[[-0.7930611,50.8308824],[-0.7742061,50.8132216],[-0.7971703,50.7949666],[-0.8147432,50.7926716],[-0.7951735,50.8137457],[-0.7997441,50.8183477],[-0.7930611,50.8308824]]],[[[-2.8938462,51.3594272],[-2.9072577,51.3600731],[-2.9064056,51.3711255],[-2.8908947,51.3694753],[-2.8938462,51.3594272]]],[[[-2.4854925,52.6356154],[-2.4261208,52.6544429],[-2.41758,52.6503335],[-2.4182968,52.6337601],[-2.4366365,52.6270792],[-2.4340489,52.6182014],[-2.4854925,52.6356154]]],[[[-7.6640735,54.6692425],[-7.6717395,54.6636082],[-7.6795832,54.6721776],[-7.671227,54.6788591],[-7.6640735,54.6692425]]]]}}]}