{"type": "FeatureCollection", "features": [{"type": "Feature", "properties": {"slug": "teofilo-otoni", "members": 1, "country": "Brazil", "input_hash": "05e5ab4298edffd5"}, "geometry": {"type": "Polygon", "coordinates": [[[-41.3427388, -17.3413776], [-41.3563022, -17.3594861], [-41.3487893, -17.3675551], [-41.3482561, -17.3890382], [-41.3606393, -17.3975141], [-41.3525198, -17.4150589], [-41.3710668, -17.4092789], [-41.3868798, -17.4162539], [-41.3921358, -17.4060218], [-41.4441668, -17.3960838], [-41.4499908, -17.4099629], [-41.4670328, -17.4116989], [-41.4705088, -17.4233029], [-41.4634028, -17.4300939], [-41.482507, -17.443552], [-41.480406, -17.464912], [-41.474359, -17.466523], [-41.47888, -17.472369], [-41.505925, -17.459493], [-41.50793, -17.484502], [-41.521034, -17.487161], [-41.529466, -17.499316], [-41.550228, -17.487718], [-41.565565, -17.492109], [-41.564737, -17.502042], [-41.578062, -17.509439], [-41.577559, -17.521319], [-41.596394, -17.541019], [-41.599591, -17.556747], [-41.641549, -17.558777], [-41.633722, -17.566008], [-41.650732, -17.601211], [-41.6341925, -17.6150189], [-41.6397125, -17.629176], [-41.629989, -17.660627], [-41.633018, -17.678424], [-41.616318, -17.678996], [-41.63281, -17.686984], [-41.645766, -17.71606], [-41.672358, -17.73854], [-41.649633, -17.793682], [-41.627136, -17.792312], [-41.609106, -17.77759], [-41.612335, -17.798582], [-41.60166, -17.806127], [-41.614292, -17.839667], [-41.625962, -17.833394], [-41.635531, -17.844737], [-41.643011, -17.870995], [-41.634483, -17.881775], [-41.646164, -17.888385], [-41.644405, -17.897775], [-41.662803, -17.902762], [-41.665677, -17.915308], [-41.643729, -17.952747], [-41.593933, -17.969551], [-41.587534, -18.017983], [-41.533636, -18.009382], [-41.524814, -18.021456], [-41.508398, -18.02298], [-41.503629, -18.037812], [-41.493293, -18.041814], [-41.489037, -18.026043], [-41.462134, -18.007212], [-41.449083, -18.01267], [-41.434356, -17.999596], [-41.414731, -18.00966], [-41.412464, -18.001374], [-41.393554, -18.002109], [-41.362214, -18.032983], [-41.343873, -18.024321], [-41.344446, -18.011241], [-41.332086, -17.994537], [-41.304297, -17.991322], [-41.295149, -17.976334], [-41.287998, -17.984732], [-41.276113, -17.981804], [-41.267683, -17.969923], [-41.277439, -17.957754], [-41.273788, -17.949741], [-41.252793, -17.954562], [-41.215523, -17.931798], [-41.187319, -17.929238], [-41.183366, -17.944822], [-41.144558, -17.943233], [-41.142005, -17.949426], [-41.137648, -17.940355], [-41.150436, -17.930837], [-41.153348, -17.904945], [-41.147301, -17.891783], [-41.137786, -17.88277], [-41.12279, -17.888941], [-41.103168, -17.871634], [-41.099326, -17.844893], [-41.079796, -17.856906], [-41.087684, -17.835], [-41.115306, -17.804587], [-41.1315329, -17.8048252], [-41.1493535, -17.7818298], [-41.1393703, -17.7549947], [-41.121711, -17.7375747], [-41.132058, -17.733124], [-41.126812, -17.709724], [-41.144423, -17.682051], [-41.164467, -17.680372], [-41.171357, -17.672652], [-41.181072, -17.642111], [-41.216029, -17.626035], [-41.198372, -17.607997], [-41.155696, -17.648538], [-41.134275, -17.649493], [-41.1058934, -17.6145983], [-41.089554, -17.614979], [-41.086581, -17.60372], [-41.058299, -17.619056], [-41.048, -17.604], [-41.0534416, -17.5910694], [-41.041082, -17.5828466], [-41.0638486, -17.5689979], [-41.0883256, -17.5775454], [-41.086337, -17.5678512], [-41.0977619, -17.559903], [-41.1219084, -17.5752529], [-41.1247114, -17.5421425], [-41.0954558, -17.5495873], [-41.0946974, -17.5357465], [-41.1176644, -17.5365789], [-41.1256443, -17.5214884], [-41.1376919, -17.5362755], [-41.1634115, -17.5408914], [-41.168227, -17.5309962], [-41.1728515, -17.5383126], [-41.1886271, -17.5339775], [-41.1917692, -17.5216314], [-41.20389, -17.5172371], [-41.2028002, -17.4992217], [-41.2203357, -17.5086748], [-41.2384889, -17.4968586], [-41.238018, -17.4871484], [-41.2558966, -17.4855967], [-41.2542146, -17.462601], [-41.2432927, -17.4573199], [-41.2288203, -17.4285264], [-41.2391996, -17.4184138], [-41.2338725, -17.4093947], [-41.2409109, -17.4094922], [-41.2378532, -17.3947754], [-41.2544078, -17.3682463], [-41.2508082, -17.3585593], [-41.2761618, -17.3502428], [-41.2795305, -17.3326905], [-41.2993968, -17.3504617], [-41.323172, -17.3361792], [-41.3286319, -17.3473621], [-41.3427388, -17.3413776]]]}}]}