{"type": "FeatureCollection", "features": [{"type": "Feature", "properties": {"slug": "tepatitlan", "members": 1, "country": "Mexico", "input_hash": "d713ec3bdfb278da"}, "geometry": {"type": "Polygon", "coordinates": [[[-102.6540678, 20.6067578], [-102.6091882, 20.6218328], [-102.6005228, 20.6293666], [-102.6035246, 20.6401502], [-102.5793553, 20.6562894], [-102.5694628, 20.6579199], [-102.5677683, 20.6374744], [-102.5590494, 20.637244], [-102.55609, 20.6582321], [-102.5446402, 20.6644227], [-102.5449033, 20.6864789], [-102.5501104, 20.6858651], [-102.5435136, 20.7032579], [-102.5803332, 20.730991], [-102.5899431, 20.7826242], [-102.5686174, 20.808996], [-102.5531505, 20.8099708], [-102.5314275, 20.8252245], [-102.5333588, 20.8347786], [-102.5076339, 20.8435699], [-102.5048753, 20.8598329], [-102.4831999, 20.8651604], [-102.4949434, 20.8811007], [-102.4933349, 20.9083062], [-102.5559443, 20.9403559], [-102.5684395, 20.9722107], [-102.583124, 20.9509708], [-102.6160039, 20.9424105], [-102.6443312, 20.9476138], [-102.6568123, 20.9602317], [-102.6437134, 20.973255], [-102.6489031, 20.9819944], [-102.6691234, 20.9620315], [-102.6902233, 20.981895], [-102.6858388, 21.0035382], [-102.7262185, 21.0029078], [-102.7305324, 21.0242137], [-102.7250414, 21.033725], [-102.7309169, 21.0394488], [-102.7377564, 21.0315106], [-102.7576443, 21.0314931], [-102.7643656, 21.0425342], [-102.7800063, 21.0259804], [-102.7904956, 21.0313675], [-102.8052521, 21.0118408], [-102.8357364, 20.9997302], [-102.8347094, 20.9875738], [-102.8435009, 20.9834472], [-102.8713739, 21.0140292], [-102.8867805, 20.9889087], [-102.9056472, 20.975315], [-102.9014146, 20.9643651], [-102.9125834, 20.9366009], [-102.9312086, 20.9285943], [-102.9428172, 20.9048226], [-102.9324961, 20.8917826], [-102.9424417, 20.8721153], [-102.9131871, 20.8506821], [-102.8891342, 20.855693], [-102.8720396, 20.8738194], [-102.8533983, 20.8713988], [-102.8424544, 20.852128], [-102.8257458, 20.846471], [-102.8274697, 20.8301675], [-102.8097406, 20.8323662], [-102.8147096, 20.8191948], [-102.8046993, 20.793178], [-102.8160395, 20.7893681], [-102.8044863, 20.7800014], [-102.8140331, 20.778153], [-102.8127901, 20.7499675], [-102.8188589, 20.7501442], [-102.8255313, 20.7242844], [-102.8142393, 20.7194674], [-102.816635, 20.7061194], [-102.9087802, 20.6927217], [-102.8964561, 20.6750401], [-102.9068722, 20.6619762], [-102.8944245, 20.6545594], [-102.8934486, 20.6444727], [-102.9152016, 20.6450011], [-102.9206015, 20.6193219], [-102.8860201, 20.6101027], [-102.8997217, 20.5923154], [-102.8925198, 20.5919562], [-102.8266923, 20.6066018], [-102.8147799, 20.6361969], [-102.7960334, 20.6209533], [-102.7432643, 20.6122102], [-102.732608, 20.627927], [-102.7360412, 20.6358967], [-102.7079495, 20.6494328], [-102.713141, 20.637469], [-102.7068276, 20.6263894], [-102.7301145, 20.6206197], [-102.7287016, 20.6128605], [-102.6985151, 20.6196624], [-102.6913105, 20.6282651], [-102.6540678, 20.6067578]]]}}]}