{"type": "FeatureCollection", "features": [{"type": "Feature", "properties": {"slug": "teplice", "members": 1, "country": "Czech Republic", "input_hash": "b18d139ad577a988"}, "geometry": {"type": "Polygon", "coordinates": [[[13.9232106, 50.6213665], [13.9033871, 50.6618316], [13.9169322, 50.6754927], [13.899027, 50.6969843], [13.9196908, 50.7108168], [13.9162305, 50.7166883], [13.9281412, 50.7294611], [13.9114358, 50.727611], [13.8942131, 50.7383227], [13.8619932, 50.742797], [13.8575627, 50.7282084], [13.8444934, 50.7252065], [13.7583077, 50.7358251], [13.7405625, 50.7272743], [13.7281324, 50.7336588], [13.7082792, 50.7253933], [13.7123083, 50.7195305], [13.7067115, 50.7166867], [13.6646726, 50.7320842], [13.6249425, 50.7230157], [13.6204734, 50.7140549], [13.5866874, 50.7129631], [13.5916691, 50.7014049], [13.6111754, 50.7007246], [13.6183741, 50.6973342], [13.610987, 50.6895783], [13.6328271, 50.6842421], [13.618881, 50.6774278], [13.6350176, 50.6699222], [13.6257257, 50.6688535], [13.6150079, 50.6532269], [13.6475358, 50.6421864], [13.6609283, 50.6214509], [13.6737347, 50.6203363], [13.6578786, 50.6135562], [13.6604937, 50.6052469], [13.6845728, 50.6008242], [13.6847479, 50.5845784], [13.7092407, 50.5779247], [13.6826288, 50.5535963], [13.7322256, 50.5418824], [13.742307, 50.5470051], [13.7465201, 50.5373631], [13.7555185, 50.5371916], [13.7511945, 50.5280547], [13.7600339, 50.5289289], [13.7610095, 50.5114211], [13.7511432, 50.5076723], [13.7830007, 50.4941376], [13.7698251, 50.481047], [13.7819155, 50.4695729], [13.80342, 50.4735898], [13.8168432, 50.4672896], [13.8207333, 50.4737093], [13.8312925, 50.4682603], [13.8386841, 50.4818042], [13.8784457, 50.5026247], [13.8951561, 50.4980937], [13.8810487, 50.5160676], [13.8998092, 50.5158705], [13.8999461, 50.5428492], [13.9113223, 50.5507213], [13.8998046, 50.5586459], [13.9352701, 50.5581125], [13.9887197, 50.5776205], [13.9798878, 50.5916286], [13.9353322, 50.5956458], [13.9209194, 50.6039343], [13.938878, 50.6107431], [13.9232106, 50.6213665]]]}}]}