{"type": "FeatureCollection", "features": [{"type": "Feature", "properties": {"slug": "terni", "members": 33, "country": "Italy", "input_hash": "d24e3d79bbeee6d6"}, "geometry": {"type": "MultiPolygon", "coordinates": [[[[11.9517762, 42.9132089], [11.9984602, 42.9093328], [11.9582856, 42.873961], [11.9520828, 42.9009046], [11.9576771, 42.9115978], [11.9517762, 42.9132089]]], [[[12.4005365, 42.6995222], [12.4147013, 42.7005995], [12.4171026, 42.6804349], [12.4625267, 42.7047041], [12.493215, 42.7347227], [12.5119253, 42.7324841], [12.5160658, 42.7177973], [12.5324299, 42.7110488], [12.5433563, 42.7172703], [12.5737009, 42.7138952], [12.5805, 42.7192967], [12.5769504, 42.7398874], [12.5838942, 42.7455704], [12.5995326, 42.7414242], [12.6097079, 42.7209535], [12.6272988, 42.7203041], [12.6166951, 42.7071688], [12.5787705, 42.7074123], [12.5833577, 42.6874191], [12.6135276, 42.6957365], [12.6215596, 42.673396], [12.6393801, 42.6748353], [12.670706, 42.6473836], [12.698776, 42.6369643], [12.7209968, 42.5968383], [12.7361925, 42.6107668], [12.7338173, 42.6241433], [12.7574028, 42.6362473], [12.7750254, 42.635588], [12.7924247, 42.663186], [12.807633, 42.656652], [12.8279798, 42.6721194], [12.8601962, 42.6671155], [12.8953274, 42.6341499], [12.8843112, 42.6249173], [12.8961982, 42.6164525], [12.8806474, 42.6094927], [12.8785877, 42.6], [12.8937284, 42.5672842], [12.8476508, 42.5528765], [12.8169949, 42.5329124], [12.7730475, 42.5311036], [12.7715902, 42.5122052], [12.7279904, 42.5088174], [12.7113607, 42.5003273], [12.7419281, 42.4703543], [12.725046, 42.4604843], [12.7032832, 42.4613239], [12.6749415, 42.442101], [12.6488047, 42.4424746], [12.6404412, 42.4682643], [12.6139227, 42.4649788], [12.6200692, 42.4512092], [12.6072735, 42.4023497], [12.5690744, 42.3828406], [12.5463429, 42.3817439], [12.5237964, 42.3653977], [12.5123667, 42.3786897], [12.5188164, 42.3972702], [12.5121004, 42.404247], [12.4504899, 42.396382], [12.4434277, 42.3981718], [12.458648, 42.403191], [12.4586352, 42.4172606], [12.4673202, 42.4203971], [12.4636025, 42.4290863], [12.4501426, 42.422996], [12.4136503, 42.4255981], [12.4194643, 42.4364686], [12.4114101, 42.445101], [12.413677, 42.4551679], [12.4303824, 42.4580227], [12.427515, 42.4653482], [12.412441, 42.4675633], [12.4128526, 42.4787796], [12.4278251, 42.4869405], [12.4190453, 42.4976526], [12.3901678, 42.4981918], [12.3876678, 42.4890813], [12.3512255, 42.4736533], [12.3253658, 42.4947574], [12.3141506, 42.4878836], [12.290409, 42.491639], [12.3073521, 42.4973008], [12.2903469, 42.5106087], [12.2747651, 42.5092051], [12.2755042, 42.5159958], [12.2902673, 42.5190437], [12.266757, 42.5334668], [12.2785538, 42.5415578], [12.2750433, 42.5599148], [12.238657, 42.5721786], [12.235854, 42.5833109], [12.246262, 42.6025558], [12.2281905, 42.6107747], [12.2429166, 42.629065], [12.2256523, 42.6355487], [12.2269187, 42.6434786], [12.2043355, 42.6604606], [12.1610116, 42.67691], [12.1470345, 42.6593359], [12.1323269, 42.6616664], [12.1240622, 42.649286], [12.106664, 42.6646426], [12.0945086, 42.6554872], [12.0737154, 42.6566703], [12.0299992, 42.6432412], [12.0297918, 42.6504158], [12.0070818, 42.662452], [11.9413298, 42.6833009], [11.9487642, 42.6960105], [11.9262025, 42.7038608], [11.9301005, 42.7129457], [11.9491459, 42.7274039], [11.9629343, 42.7266875], [11.9818706, 42.7535827], [11.9794818, 42.7645853], [11.9274251, 42.7809169], [11.9060867, 42.8321287], [11.8920337, 42.8434469], [11.9131233, 42.8502088], [11.9312356, 42.8693779], [11.9385579, 42.8622653], [11.9619323, 42.8619416], [11.9657377, 42.8682856], [12.0300937, 42.8813209], [12.0089926, 42.8907651], [12.0156177, 42.8968126], [12.0073578, 42.9017033], [12.0113912, 42.905568], [11.9997101, 42.9099269], [12.0150816, 42.9081361], [12.0508221, 42.9407548], [12.0615782, 42.9340305], [12.1273599, 42.9431276], [12.1425564, 42.9348954], [12.1506642, 42.9424609], [12.153619, 42.9333663], [12.1886467, 42.9395442], [12.2050643, 42.9339439], [12.2075007, 42.9239936], [12.2256782, 42.9286417], [12.230747, 42.9213944], [12.2544663, 42.9226937], [12.2603223, 42.9161745], [12.2669925, 42.9248711], [12.2786463, 42.9164835], [12.2820391, 42.9242962], [12.2917161, 42.9154777], [12.3194526, 42.9153557], [12.304708, 42.8896755], [12.3305532, 42.8896371], [12.3315012, 42.8727268], [12.3227406, 42.8628521], [12.3230703, 42.8393958], [12.3133788, 42.8337253], [12.2991921, 42.7949763], [12.3009424, 42.7819688], [12.2907652, 42.7812041], [12.2973075, 42.7489427], [12.3156318, 42.7408405], [12.3251307, 42.7513654], [12.3332932, 42.7508712], [12.3767337, 42.7076601], [12.3679032, 42.7039901], [12.3741831, 42.6939859], [12.3687059, 42.6869305], [12.3814377, 42.6841823], [12.3854328, 42.6739884], [12.3968137, 42.6771583], [12.4005365, 42.6995222]]]]}}]}