{"type": "FeatureCollection", "features": [{"type": "Feature", "properties": {"slug": "ternate", "members": 1, "country": "Indonesia", "input_hash": "4c3b5204e134f695"}, "geometry": {"type": "MultiPolygon", "coordinates": [[[[127.3864531, 0.4700143], [127.4181327, 0.4793561], [127.4393678, 0.4519422], [127.4216826, 0.4333537], [127.3973644, 0.4339558], [127.3837495, 0.4470553], [127.3864531, 0.4700143]]], [[[127.3021835, 0.8411977], [127.3269121, 0.867754], [127.3862118, 0.8335737], [127.3915178, 0.7904823], [127.3708213, 0.7590322], [127.3370012, 0.7530283], [127.3058394, 0.7652222], [127.292828, 0.797867], [127.3021835, 0.8411977]]], [[[127.3139504, 0.9130255], [127.3314813, 0.8920238], [127.3181078, 0.8812949], [127.302791, 0.897647], [127.3139504, 0.9130255]]], [[[126.1444402, 0.9729004], [126.1620408, 0.9582603], [126.1422086, 0.9624923], [126.1285937, 0.9814688], [126.1543965, 0.9770385], [126.1534443, 0.9690466], [126.1444402, 0.9729004]]], [[[126.1439976, 0.9847809], [126.1512087, 0.9860252], [126.1445434, 0.9840152], [126.1439976, 0.9847809]]], [[[126.3939446, 1.2805302], [126.356954, 1.3227917], [126.3688391, 1.3459826], [126.3882851, 1.3499811], [126.4164995, 1.3332353], [126.3997382, 1.3172777], [126.3939446, 1.2805302]]]]}}]}