{"type":"FeatureCollection","features":[{"type":"Feature","properties":{"slug":"terre-haute","member_count":73,"matched_count":73,"unmatched":[],"source":"Overture Maps division_area (CC-BY 4.0)"},"geometry":{"type":"MultiPolygon","coordinates":[[[[-87.240737,39.171773],[-87.2410601,38.9015485],[-87.522939,38.90239],[-87.516811,38.904544],[-87.527295,38.907215],[-87.527715,38.919232],[-87.518826,38.923205],[-87.521765,38.941117],[-87.512605,38.955085],[-87.529496,38.971925],[-87.578319,38.988786],[-87.560427,38.992425],[-87.579117,39.001607],[-87.569696,39.019413],[-87.580373,39.040707],[-87.572588,39.057286],[-87.596373,39.079639],[-87.620258,39.086572],[-87.615684,39.103316],[-87.654636,39.109111],[-87.634971,39.120089],[-87.658745,39.135997],[-87.642175,39.157097],[-87.627713,39.154906],[-87.641549,39.160472],[-87.640434,39.166727],[-87.619618,39.170975],[-87.6204,39.185195],[-87.607879,39.184463],[-87.588614,39.197824],[-87.574558,39.218404],[-87.579319,39.243552],[-87.571586,39.252287],[-87.594684,39.248742],[-87.61005,39.282232],[-87.597946,39.299479],[-87.620589,39.307046],[-87.60592,39.311076],[-87.578331,39.340343],[-87.5544,39.340488],[-87.544013,39.352907],[-87.531646,39.347888],[-87.531449,40.148127],[-87.4902996,40.1484023],[-87.4905686,40.1273159],[-87.406552,40.1275764],[-87.4175415,40.0580675],[-87.4317581,40.0468851],[-87.4240601,40.0396408],[-87.4353845,40.0206215],[-87.4275684,39.9804826],[-87.4401635,39.9605095],[-87.4197022,39.9522878],[-87.4335927,39.9311422],[-87.4032193,39.9277115],[-87.4110139,39.9145833],[-87.3783915,39.9028035],[-87.3677927,39.8865701],[-87.37894,39.8754719],[-87.3534595,39.8619045],[-87.3690748,39.839481],[-87.3857153,39.8328326],[-87.3738948,39.7803929],[-87.3804259,39.7669232],[-87.3818314,39.6926954],[-87.3958433,39.6515164],[-87.382062,39.6079996],[-87.013062,39.604787],[-87.0146217,39.4735987],[-86.939981,39.473345],[-86.942473,39.342043],[-87.053646,39.342621],[-87.054578,39.168086],[-87.240737,39.171773]]],[[[-85.0538989,38.9710707],[-85.0926962,38.9886929],[-85.0929202,38.9960226],[-85.1218156,39.0026713],[-85.1095972,39.0540312],[-85.0467077,39.0422747],[-85.0496169,39.0371164],[-85.0394051,39.0299118],[-85.0051264,39.0416634],[-85.0051764,38.9970435],[-84.9975765,38.9968726],[-85.0034523,38.9756581],[-85.0195241,38.983081],[-85.0249529,38.9745572],[-85.0538989,38.9710707]]],[[[-86.2423571,40.180819],[-86.6956681,40.1786458],[-86.6945682,40.4320658],[-86.309761,40.43158],[-86.3093213,40.388328],[-86.2807675,40.3883095],[-86.2806933,40.3736945],[-86.2429146,40.3736485],[-86.2423571,40.180819]]]]}}]}