{"type":"FeatureCollection","features":[{"type":"Feature","properties":{"slug":"teruel","member_count":1,"matched_count":1,"unmatched":[],"source":"Overture Maps division_area (CC-BY 4.0)"},"geometry":{"type":"Polygon","coordinates":[[[-1.1957816,40.4535861],[-1.2282635,40.4448641],[-1.2617242,40.4124646],[-1.2583561,40.3776232],[-1.2784839,40.3508993],[-1.2562352,40.3048528],[-1.2325819,40.284734],[-1.1775578,40.3016792],[-1.1361976,40.2853023],[-1.1180192,40.2542864],[-1.1056069,40.2579394],[-1.0398922,40.2272962],[-1.0160604,40.2320158],[-1.0118219,40.2535454],[-1.0180994,40.2801561],[-1.0115007,40.3034287],[-0.9544687,40.3338729],[-0.9596452,40.361692],[-0.9787536,40.3750234],[-1.0405218,40.3848165],[-1.0177344,40.4264456],[-1.0550911,40.4394758],[-1.0852839,40.4644375],[-1.086278,40.4771917],[-1.0724901,40.4923575],[-1.0850004,40.5059338],[-1.0996665,40.5110674],[-1.1080484,40.4971432],[-1.1062566,40.4630986],[-1.1364331,40.4270065],[-1.1957816,40.4535861]]]}}]}