{"type": "FeatureCollection", "features": [{"type": "Feature", "properties": {"slug": "texarkana", "members": 3, "country": "United States", "input_hash": "c185ad882c87fca2"}, "geometry": {"type": "Polygon", "coordinates": [[[-93.833672, 33.606785], [-93.819071, 33.613867], [-93.812569, 33.597483], [-93.826439, 33.570868], [-93.800404, 33.564106], [-93.809303, 33.54869], [-93.805431, 33.541706], [-93.783919, 33.55625], [-93.782934, 33.548489], [-93.797605, 33.535625], [-93.785104, 33.52792], [-93.768722, 33.531725], [-93.780323, 33.520879], [-93.771875, 33.498574], [-93.755974, 33.502196], [-93.764652, 33.514382], [-93.747718, 33.534336], [-93.741735, 33.528326], [-93.748925, 33.512416], [-93.719951, 33.48203], [-93.736969, 33.458898], [-93.726356, 33.444656], [-93.74641, 33.441047], [-93.736261, 33.427062], [-93.721107, 33.440702], [-93.714304, 33.438464], [-93.731975, 33.419809], [-93.699096, 33.38775], [-93.723034, 33.381312], [-93.705964, 33.372283], [-93.686233, 33.388585], [-93.671791, 33.377768], [-93.695869, 33.372208], [-93.709457, 33.344109], [-93.665328, 33.331766], [-93.671375, 33.3219], [-93.692684, 33.317284], [-93.686657, 33.304376], [-93.68963, 33.277456], [-93.720788, 33.288256], [-93.728978, 33.28008], [-93.708263, 33.253727], [-93.728803, 33.227072], [-93.700083, 33.226261], [-93.739676, 33.201437], [-93.728029, 33.184285], [-93.758245, 33.177958], [-93.756061, 33.167679], [-93.737076, 33.166322], [-93.734875, 33.156613], [-93.769311, 33.167072], [-93.776997, 33.158257], [-93.774189, 33.139554], [-93.796758, 33.162768], [-93.810381, 33.155121], [-93.813235, 33.136157], [-93.83231, 33.148414], [-93.848146, 33.141515], [-93.854137, 33.104207], [-93.864064, 33.096063], [-93.837044, 33.077391], [-93.840491, 33.057137], [-93.818681, 33.049129], [-93.827751, 33.033225], [-93.808158, 33.027065], [-93.807236, 33.019255], [-94.0429641, 33.0192302], [-94.04313088526702, 33.271321117120166], [-94.061676, 33.2998695], [-94.0710527, 33.3009225], [-94.0665296, 33.2954157], [-94.0730527, 33.2920432], [-94.0810076, 33.299438], [-94.0832849, 33.2927904], [-94.0886081, 33.3052897], [-94.0925116, 33.2982814], [-94.0991477, 33.3061285], [-94.0998653, 33.2977795], [-94.1102942, 33.3095359], [-94.1131173, 33.2945492], [-94.116924, 33.3005255], [-94.1247841, 33.2981142], [-94.119723, 33.2927741], [-94.1306172, 33.2926018], [-94.1636889, 33.3119675], [-94.1728191, 33.3013152], [-94.1866915, 33.3054579], [-94.1911118, 33.2976656], [-94.2184382, 33.2967419], [-94.2155736, 33.2847604], [-94.2400568, 33.2741407], [-94.2324607, 33.2698081], [-94.2390804, 33.2583702], [-94.2292128, 33.2431398], [-94.2588912, 33.2370651], [-94.2971685, 33.2554101], [-94.3123207, 33.2487952], [-94.3257407, 33.2567016], [-94.3439819, 33.2524954], [-94.3622022, 33.2648342], [-94.3798173, 33.2556719], [-94.401043, 33.2661256], [-94.3977036, 33.2706801], [-94.4114784, 33.2713955], [-94.4159239, 33.2843074], [-94.4332696, 33.2878709], [-94.4443826, 33.2816901], [-94.4677209, 33.2947149], [-94.4855198, 33.2881879], [-94.4864034, 33.280379], [-94.5186921, 33.2820147], [-94.5179873, 33.2747642], [-94.5332751, 33.2661785], [-94.5689536, 33.2643542], [-94.5783541, 33.2477797], [-94.5916421, 33.2597307], [-94.61807, 33.2468941], [-94.6490479, 33.2587088], [-94.652424, 33.2758248], [-94.6752831, 33.286399], [-94.6761218, 33.2949403], [-94.6869069, 33.2931334], [-94.6911156, 33.3120244], [-94.7304268, 33.3087888], [-94.7469201, 33.3288813], [-94.7460542, 33.7386697], [-94.731896, 33.7349859], [-94.7291086, 33.7068666], [-94.7021306, 33.6850851], [-94.657133, 33.6938063], [-94.6437847, 33.6852899], [-94.6411859, 33.661741], [-94.6168918, 33.688014], [-94.6049405, 33.6800687], [-94.6050074, 33.6619433], [-94.592422, 33.6636619], [-94.5804838, 33.6811296], [-94.5678054, 33.6602729], [-94.5474374, 33.6615805], [-94.5409227, 33.6447219], [-94.5626564, 33.6413065], [-94.5730666, 33.6310583], [-94.5602166, 33.6192752], [-94.5490837, 33.623455], [-94.5512832, 33.6364889], [-94.5207048, 33.6446366], [-94.48581738785843, 33.63802521326081], [-94.4773464, 33.9408964], [-94.4665003, 33.9445971], [-94.4489801, 33.9290645], [-94.4480574, 33.9382687], [-94.4422746, 33.9305333], [-94.4133821, 33.92617], [-94.4200878, 33.9440411], [-94.3840684, 33.9403376], [-94.3797295, 33.933261], [-94.3866456, 33.924925], [-94.400003, 33.9260199], [-94.3855085, 33.9175965], [-94.3903899, 33.8963344], [-94.3620444, 33.8875709], [-94.3717861, 33.8773102], [-94.338398, 33.8819598], [-94.3353296, 33.8617564], [-94.3192792, 33.8610615], [-94.32724, 33.8541477], [-94.3021131, 33.8528647], [-94.3055463, 33.8350785], [-94.2958689, 33.828127], [-94.3032289, 33.8212106], [-94.2817712, 33.829856], [-94.2296934, 33.8008502], [-94.2211104, 33.8164686], [-94.2150593, 33.8021162], [-94.1855336, 33.8115659], [-94.1870356, 33.7851042], [-94.1701241, 33.7895831], [-94.1716415, 33.7956426], [-94.1617271, 33.7840172], [-94.1517056, 33.7847989], [-94.1502559, 33.7920064], [-94.1393353, 33.7801239], [-94.1201193, 33.7917259], [-94.0408156, 33.7820557], [-94.0417689, 33.7533562], [-93.95891, 33.751058], [-93.952744, 33.738552], [-93.963806, 33.739277], [-93.969597, 33.727806], [-93.962021, 33.712017], [-93.95359, 33.728077], [-93.951401, 33.706738], [-93.966782, 33.703747], [-93.960449, 33.693398], [-93.968323, 33.677345], [-93.964226, 33.667862], [-93.940056, 33.650078], [-93.930267, 33.655701], [-93.931564, 33.66341], [-93.913322, 33.66235], [-93.901962, 33.648891], [-93.915253, 33.628658], [-93.892891, 33.639034], [-93.884338, 33.627346], [-93.866249, 33.631737], [-93.859261, 33.616383], [-93.841095, 33.617584], [-93.833672, 33.606785]], [[-93.8249833, 33.6075427], [-93.82495655651698, 33.6078565480967], [-93.82535471382411, 33.60716099006823], [-93.8249833, 33.6075427]], [[-93.8281361, 33.6043025], [-93.8270636255694, 33.605404704913106], [-93.83019831203873, 33.60374201010587], [-93.8281361, 33.6043025]], [[-93.8336878, 33.6027936], [-93.8331343309338, 33.602944027702144], [-93.83405716734785, 33.60291648595711], [-93.8336878, 33.6027936]], [[-94.3486133, 33.5685041], [-94.3522182, 33.5651428], [-94.3413177, 33.5731526], [-94.3486133, 33.5685041]], [[-94.37152262661994, 33.54889187840935], [-94.3791840878822, 33.547654238385086], [-94.3762508, 33.5476188], [-94.37152262661994, 33.54889187840935]], [[-94.38559437575273, 33.5477316839885], [-94.39290177664908, 33.549621682923465], [-94.3880954, 33.5477619], [-94.38559437575273, 33.5477316839885]], [[-94.39579847195219, 33.550742532339264], [-94.3989959, 33.5544858], [-94.3977085, 33.5514816], [-94.39579847195219, 33.550742532339264]]]}}]}