{"type": "FeatureCollection", "features": [{"type": "Feature", "properties": {"slug": "thiruvananthapuram", "members": 1, "country": "India", "input_hash": "31479a6559c61ac5"}, "geometry": {"type": "MultiPolygon", "coordinates": [[[[76.9755752, 8.3851153], [76.9752627, 8.3856991], [76.9758126, 8.3853833], [76.9755752, 8.3851153]]], [[[77.0242452, 8.8335092], [77.0516681, 8.8470791], [77.0809363, 8.840379], [77.1993398, 8.772015], [77.1929257, 8.7450101], [77.1719618, 8.7502555], [77.1701051, 8.7418191], [77.2067466, 8.6841862], [77.200739, 8.6690623], [77.2440877, 8.6218708], [77.2453359, 8.6036178], [77.2664852, 8.584972], [77.2838186, 8.5465612], [77.2618378, 8.5062196], [77.2400202, 8.4969158], [77.2143049, 8.5128026], [77.2026364, 8.5014051], [77.2280261, 8.4472326], [77.2067135, 8.4448145], [77.197585, 8.419564], [77.1685764, 8.384137], [77.1602439, 8.3900163], [77.1512317, 8.3850489], [77.161385, 8.3736683], [77.1529404, 8.3550507], [77.1678768, 8.3634456], [77.174358, 8.3586871], [77.1669478, 8.3428747], [77.1801137, 8.3238642], [77.1731052, 8.3198751], [77.169187, 8.3326577], [77.1397005, 8.3297748], [77.1191586, 8.3211465], [77.1226514, 8.3088052], [77.1017945, 8.306448], [77.0962964, 8.2935318], [76.9937955, 8.3726478], [76.9890895, 8.3651254], [76.9988584, 8.3564689], [76.9896453, 8.3635639], [76.988734, 8.3654612], [76.9890194, 8.3676074], [76.9948053, 8.3751723], [76.9712797, 8.3919467], [76.9574261, 8.4259298], [76.7842616, 8.6298886], [76.6996711, 8.7383372], [76.6704297, 8.7880044], [76.6891193, 8.7784617], [76.69178, 8.7911429], [76.7089462, 8.790846], [76.7213058, 8.8033995], [76.7600155, 8.7915246], [76.7706919, 8.8108304], [76.7917943, 8.8130052], [76.7830991, 8.8195213], [76.7933635, 8.8271819], [76.7756332, 8.8435998], [76.7826747, 8.8620052], [76.8022012, 8.8484784], [76.8165564, 8.8593125], [76.8244314, 8.8430929], [76.8468332, 8.8327459], [76.8544721, 8.8137898], [76.8797623, 8.8044124], [76.9010057, 8.8099954], [76.922179, 8.7849838], [76.9162254, 8.7753461], [76.9340665, 8.7609173], [76.9734697, 8.7739484], [76.9825744, 8.7885346], [76.9968547, 8.7833996], [77.0033758, 8.7699022], [77.0164239, 8.7705093], [77.0258724, 8.7738028], [77.0088172, 8.8126659], [77.0204258, 8.8152528], [77.0242452, 8.8335092]]]]}}]}