{"type": "FeatureCollection", "features": [{"type": "Feature", "properties": {"slug": "thrissur", "members": 1, "country": "India", "input_hash": "58d56da08e669892"}, "geometry": {"type": "Polygon", "coordinates": [[[76.4510786, 10.6662277], [76.4404678, 10.6967706], [76.4573335, 10.7009664], [76.4720153, 10.7301049], [76.4653587, 10.7524083], [76.3961148, 10.7464634], [76.3838091, 10.7679824], [76.3632045, 10.7617935], [76.3545147, 10.7431186], [76.2888364, 10.7562504], [76.2535393, 10.7474416], [76.2447309, 10.7500051], [76.2434005, 10.7726875], [76.1886959, 10.782396], [76.2059784, 10.768598], [76.2029518, 10.7557453], [76.1916204, 10.7499754], [76.1620575, 10.7065419], [76.1578273, 10.7180023], [76.1529784, 10.7121914], [76.1330652, 10.7225141], [76.1226832, 10.710508], [76.0951602, 10.7281009], [76.0696156, 10.729887], [76.0520286, 10.7044402], [76.039677, 10.7072168], [76.0125183, 10.6900835], [76.0006298, 10.6971272], [75.9848993, 10.6849479], [75.9781768, 10.6926685], [75.957351, 10.6841194], [76.0897529, 10.4010557], [76.1619286, 10.177348], [76.1699732, 10.1862115], [76.2133577, 10.1946601], [76.2211315, 10.2072628], [76.2615159, 10.2024559], [76.2740421, 10.1752611], [76.3117218, 10.1825264], [76.3114596, 10.2062262], [76.3295375, 10.2090914], [76.34305, 10.2314781], [76.3734769, 10.2411493], [76.3786697, 10.2547898], [76.391716, 10.2552966], [76.3889694, 10.2636579], [76.4129161, 10.2807601], [76.4162501, 10.2939343], [76.4308281, 10.288855], [76.457591, 10.2969323], [76.554859, 10.2837669], [76.5727973, 10.2853838], [76.5661934, 10.2935026], [76.5778398, 10.3032237], [76.6216659, 10.2743191], [76.6608444, 10.2812994], [76.6959368, 10.2647946], [76.7471194, 10.2784798], [76.7648324, 10.2691276], [76.8035316, 10.2849404], [76.8331003, 10.2759462], [76.8409967, 10.2836737], [76.9014178, 10.2512582], [76.8971885, 10.2627523], [76.8734481, 10.2766416], [76.8732472, 10.2986419], [76.8482492, 10.2850958], [76.830193, 10.3039451], [76.8376616, 10.3377857], [76.8176936, 10.348695], [76.8052482, 10.3376339], [76.7540073, 10.3362829], [76.751604, 10.3474284], [76.7647361, 10.3561251], [76.7624187, 10.3623731], [76.7162418, 10.3733489], [76.6898917, 10.3637239], [76.6617822, 10.3859705], [76.6536069, 10.3775491], [76.6224289, 10.3798919], [76.5868091, 10.4363256], [76.5571546, 10.435587], [76.5551591, 10.4460538], [76.5363621, 10.4488181], [76.523509, 10.4683578], [76.4790339, 10.4817756], [76.4336443, 10.5341001], [76.43785, 10.5576845], [76.420598, 10.5776392], [76.4090967, 10.579411], [76.4024019, 10.5948085], [76.4125728, 10.595399], [76.4142465, 10.6058604], [76.4276338, 10.6146589], [76.4255762, 10.6262337], [76.4179372, 10.621847], [76.4244604, 10.6494737], [76.4510786, 10.6662277]]]}}]}