{"type": "FeatureCollection", "features": [{"type": "Feature", "properties": {"slug": "tikhoretsk", "members": 1, "country": "Russia", "input_hash": "21da1b9515debb22"}, "geometry": {"type": "Polygon", "coordinates": [[[40.56499, 45.716466], [40.5390428, 45.7132339], [40.5392865, 45.7375556], [40.4881229, 45.7378957], [40.4897398, 45.9619041], [40.4579697, 45.9688136], [40.4577748, 45.9628525], [40.4453007, 45.9631235], [40.4327291, 45.9711843], [40.4112891, 45.9570263], [40.3799088, 45.9573651], [40.3471824, 45.9726236], [40.2325213, 45.9725177], [40.2320069, 46.0895905], [40.1934613, 46.089727], [40.1934613, 46.0717289], [40.1221978, 46.0720669], [40.1161069, 46.0573599], [40.0689341, 46.0602137], [40.0688123, 46.0440662], [40.0351906, 46.0493929], [40.035556, 45.9828995], [40.0512705, 45.9823917], [40.0511487, 45.9477595], [40.0159433, 45.9571606], [39.9958434, 45.9393734], [39.974038, 45.963173], [39.9390762, 45.9331072], [39.8986327, 45.9552974], [39.8703616, 45.9306292], [39.8535989, 45.9364159], [39.8152704, 45.8821513], [39.8726223, 45.8623099], [39.8438462, 45.822039], [39.9673849, 45.7789791], [39.9935246, 45.8134669], [40.0083711, 45.8212937], [40.0096692, 45.7953225], [40.0509732, 45.7947584], [40.0511819, 45.7388185], [40.1666873, 45.7389114], [40.1661943, 45.6577223], [40.0507942, 45.6579587], [40.0508934, 45.6219407], [40.0377956, 45.6220716], [40.0376084, 45.5899134], [40.0650516, 45.5954999], [40.0654258, 45.5864216], [40.0780247, 45.586378], [40.078114, 45.5775685], [40.1101456, 45.5775997], [40.1099507, 45.5954685], [40.2192944, 45.5951958], [40.2188141, 45.6140412], [40.3288157, 45.6141264], [40.3770556, 45.5670707], [40.4060776, 45.587065], [40.4733685, 45.5938708], [40.4739845, 45.6208831], [40.564001, 45.6203745], [40.56499, 45.716466]]]}}]}