{"type":"FeatureCollection","features":[{"type":"Feature","properties":{"slug":"tilburg","member_count":5,"matched_count":4,"unmatched":["Oisterwijk (incl. Haaren (wijk)) (NL-NB, type='Municipality')"],"source":"Overture Maps division_area (CC-BY 4.0)"},"geometry":{"type":"Polygon","coordinates":[[[5.1187995,51.545919],[5.1000594,51.531455],[5.1050607,51.5281759],[5.0960354,51.5099122],[5.072998,51.502875],[5.062512,51.4927344],[5.0683679,51.4853348],[5.0515803,51.487132],[5.0497408,51.4711081],[5.0378885,51.4793498],[5.038788,51.4870006],[5.0083382,51.4732996],[4.9879934,51.4830447],[5.000364,51.4918625],[4.9867399,51.4953293],[4.9924214,51.5122944],[4.9625728,51.5258644],[4.9566437,51.5186766],[4.9110629,51.5100813],[4.8662325,51.5380666],[4.8419524,51.5267133],[4.8290847,51.5291001],[4.8642612,51.5520201],[4.8716846,51.5671104],[4.8642386,51.5790889],[4.9184991,51.6013674],[4.9098997,51.6183271],[4.9155545,51.6224329],[4.9042793,51.6243326],[4.9328158,51.6506977],[4.925074,51.6749803],[4.9435758,51.678918],[4.9537321,51.6707691],[4.9578968,51.6515319],[4.9872669,51.6546089],[5.0042648,51.6078963],[5.0755399,51.6057677],[5.1029586,51.6169111],[5.0981352,51.628528],[5.1058303,51.6358898],[5.1918213,51.6394773],[5.2107114,51.6155884],[5.1478374,51.577301],[5.137215,51.5528619],[5.1478359,51.547118],[5.1386948,51.5459561],[5.1354517,51.5335801],[5.1274446,51.5319875],[5.1187995,51.545919]]]}}]}