{"type": "FeatureCollection", "features": [{"type": "Feature", "properties": {"slug": "timra", "members": 1, "country": "Sweden", "input_hash": "9ee98bc090e2060a"}, "geometry": {"type": "MultiPolygon", "coordinates": [[[[17.7348191, 62.4035953], [17.7404742, 62.4013588], [17.7345782, 62.4026682], [17.7348191, 62.4035953]]], [[[17.7181159, 62.4259762], [17.7204825, 62.4167589], [17.7387405, 62.411217], [17.7205277, 62.4033595], [17.741054, 62.388635], [17.7054684, 62.3975215], [17.7105868, 62.4064844], [17.7010989, 62.3989229], [17.6484549, 62.4169963], [17.6349439, 62.4352674], [17.7181159, 62.4259762]]], [[[17.55245, 62.42438], [17.55044, 62.42672], [17.55902, 62.42375], [17.55245, 62.42438]]], [[[17.5419548, 62.4406775], [17.5608181, 62.4298858], [17.5427173, 62.4256286], [17.5241665, 62.4387734], [17.5419548, 62.4406775]]], [[[17.720502, 62.4371787], [17.7147102, 62.4390061], [17.72643, 62.43708], [17.720502, 62.4371787]]], [[[17.295794, 62.471105], [17.2892787, 62.4581494], [17.2623816, 62.4488286], [17.2162667, 62.4445742], [17.2006058, 62.4728086], [17.2240018, 62.5211604], [17.2367039, 62.5166695], [17.250793, 62.5227207], [17.2729713, 62.5881754], [17.1501846, 62.6245926], [17.0656403, 62.6744536], [16.9700362, 62.7161971], [16.946673, 62.7448957], [17.1771638, 62.8617978], [17.287482, 62.8049977], [17.2596284, 62.7996861], [17.4120278, 62.7092286], [17.5206969, 62.6559564], [17.5331215, 62.6446297], [17.5225922, 62.6459308], [17.5294508, 62.6387388], [17.5392955, 62.6393389], [17.5469023, 62.632905], [17.5408184, 62.6312851], [17.5739121, 62.611116], [17.6080037, 62.5943693], [17.6688186, 62.5805353], [17.6820971, 62.5699019], [17.6832114, 62.5639596], [17.6715674, 62.5599099], [17.6857087, 62.541614], [17.7166012, 62.5312045], [17.742859447790487, 62.50964890558718], [17.7224855, 62.5101891], [17.72726, 62.50375], [17.71893, 62.50647], [17.71533, 62.49733], [17.70021, 62.50146], [17.68349, 62.4941], [17.67801, 62.47936], [17.6629925, 62.476767], [17.6572584, 62.4657027], [17.6803, 62.4463], [17.714695, 62.4431714], [17.7115622, 62.433331], [17.6970193, 62.4316428], [17.7054843, 62.4295721], [17.636152, 62.4428908], [17.6338201, 62.4289404], [17.6174842, 62.4406287], [17.5997041, 62.4361372], [17.5350889, 62.4491091], [17.5218824, 62.4617801], [17.5175016, 62.484501], [17.4859056, 62.5104332], [17.3668632, 62.4971088], [17.3582925, 62.4922321], [17.3829053, 62.4902143], [17.3406475, 62.4899101], [17.3315577, 62.483614], [17.3429058, 62.4744387], [17.295794, 62.471105]], [[17.518227, 62.6507958], [17.5156991, 62.6502032], [17.5179228, 62.6496003], [17.518227, 62.6507958]]]]}}]}