{"type": "FeatureCollection", "features": [{"type": "Feature", "properties": {"slug": "tirupati", "members": 1, "country": "India", "input_hash": "2681c071201e80a1"}, "geometry": {"type": "Polygon", "coordinates": [[[79.0365028, 14.1239866], [79.0201843, 14.1265565], [79.0358698, 14.1043524], [79.0486801, 14.0993474], [79.0475643, 14.0844876], [79.0358913, 14.0909395], [79.0179419, 14.0737481], [79.003694, 14.0736024], [79.0128135, 14.0655058], [79.013114, 14.0213751], [79.0372538, 14.0088629], [79.0230703, 14.0075097], [79.0352797, 13.9624516], [79.0601063, 13.9315264], [79.0977216, 13.938524], [79.1099739, 13.9028049], [79.1292214, 13.8924734], [79.1487479, 13.8658095], [79.1268825, 13.850643], [79.0996098, 13.8505805], [79.0905547, 13.8810792], [79.0237355, 13.8920568], [78.999145, 13.9099075], [79.010067, 13.8955354], [79.0222335, 13.8927859], [79.0207314, 13.8792877], [79.0483904, 13.863393], [79.0220618, 13.8579972], [79.025259, 13.8493305], [79.0115475, 13.8440387], [79.0134787, 13.8259954], [79.041878, 13.8142332], [79.0416849, 13.8048564], [79.0213001, 13.8028143], [79.0231562, 13.7725867], [79.0886557, 13.7819753], [79.0817892, 13.7398958], [79.0927648, 13.7248045], [79.0747297, 13.6857794], [79.0765321, 13.6691731], [79.0541732, 13.6478739], [79.0499997, 13.6185545], [79.054141, 13.6122877], [79.1718728, 13.6033633], [79.1770613, 13.5927458], [79.1697872, 13.5647023], [79.1798615, 13.5465646], [79.143877, 13.5220312], [79.1080212, 13.5147186], [79.0805554, 13.5147499], [79.0777659, 13.5268609], [79.0834737, 13.5300006], [79.0748477, 13.5413494], [79.0430259, 13.5556597], [79.0437555, 13.540056], [79.0082431, 13.5319825], [78.9835453, 13.5103477], [78.9803695, 13.4915903], [78.9970744, 13.4933117], [79.0075993, 13.4813242], [79.0327477, 13.4726541], [79.047457, 13.460436], [79.0520167, 13.4428539], [79.0696442, 13.4505234], [79.0885591, 13.4431356], [79.0906405, 13.4256357], [79.1270327, 13.4172453], [79.1430509, 13.4210961], [79.1414952, 13.4100652], [79.1536403, 13.4141353], [79.1571164, 13.4009124], [79.2018556, 13.4086146], [79.2263818, 13.4016638], [79.227755, 13.4112028], [79.2072844, 13.413123], [79.2051601, 13.4219936], [79.2126059, 13.4274828], [79.2209744, 13.4172349], [79.2278623, 13.4226407], [79.2337203, 13.4172557], [79.2583537, 13.4232772], [79.2415631, 13.4267314], [79.2391491, 13.436885], [79.2168438, 13.4370624], [79.2272186, 13.4467043], [79.2392993, 13.4404225], [79.2612076, 13.4723515], [79.3346143, 13.4905053], [79.3424463, 13.4872085], [79.3285632, 13.4676355], [79.3526602, 13.4666756], [79.3923568, 13.4918824], [79.4093942, 13.4940524], [79.4196939, 13.4865199], [79.4585752, 13.5069468], [79.4900751, 13.5107441], [79.4911051, 13.4954087], [79.5012116, 13.4997486], [79.5187425, 13.4922371], [79.5020378, 13.4849132], [79.4992053, 13.4714229], [79.4751406, 13.4737913], [79.4785631, 13.4609369], [79.486084, 13.455125], [79.5009005, 13.4657469], [79.513421, 13.4641818], [79.5316857, 13.4461992], [79.5023917, 13.4352885], [79.5020484, 13.4228494], [79.4809341, 13.4119125], [79.4884872, 13.3991382], [79.4807624, 13.3856953], [79.4938087, 13.3823553], [79.5323682, 13.4047113], [79.543097, 13.3899327], [79.5043015, 13.3572412], [79.5111036, 13.3419586], [79.537282, 13.3385345], [79.5782837, 13.3669088], [79.6484971, 13.3533372], [79.6491194, 13.3615001], [79.6660709, 13.3669281], [79.6655774, 13.3902667], [79.657402, 13.4005576], [79.6694183, 13.398178], [79.672004, 13.4079571], [79.6917558, 13.4030415], [79.6880865, 13.4344954], [79.6976566, 13.4436365], [79.7140503, 13.4370833], [79.7158956, 13.4215553], [79.7089433, 13.4134361], [79.7297358, 13.3826266], [79.732418, 13.3481386], [79.7484255, 13.3450069], [79.7563219, 13.3205154], [79.791652, 13.2935678], [79.8090649, 13.3172998], [79.8629773, 13.317091], [79.8681057, 13.3309972], [79.8829114, 13.3232507], [79.8833643, 13.3328696], [79.9146795, 13.3481595], [79.9159884, 13.359997], [79.9312448, 13.3515835], [79.9454284, 13.3635147], [79.9450207, 13.381802], [79.9578845, 13.3789525], [79.9625623, 13.3942224], [79.9443447, 13.3968212], [79.9457717, 13.4077588], [79.9344528, 13.4166191], [79.9418557, 13.4169531], [79.9399567, 13.4250304], [79.9566185, 13.4220771], [79.973216, 13.4295073], [79.9723792, 13.4689919], [79.9823999, 13.4705152], [79.9839449, 13.4796132], [80.0075698, 13.4785073], [80.0157881, 13.4979125], [80.0466656, 13.493656], [80.0485325, 13.512601], [80.0354433, 13.5185888], [80.026946, 13.5136441], [80.0174188, 13.5298755], [80.000601, 13.5256724], [80.0018317, 13.5464009], [80.0569975, 13.5367077], [80.064379, 13.5459597], [80.0814914, 13.5488802], [80.0879502, 13.5376152], [80.0783157, 13.529646], [80.0774789, 13.4893785], [80.1072407, 13.4896081], [80.1126909, 13.5059245], [80.1382684, 13.5045474], [80.1511001, 13.4901297], [80.20998, 13.4907139], [80.2417803, 13.4725393], [80.2679813, 13.5639111], [80.2428263, 13.6154941], [80.2342433, 13.6563969], [80.2363622, 13.7072836], [80.2525949, 13.7799955], [80.2190003, 13.8795533], [80.1532835, 14.0237848], [80.1417876, 14.07303], [80.115062, 14.0731341], [80.1110494, 14.0405168], [80.0809657, 14.0399235], [80.0525772, 13.9997438], [80.0345206, 14.0076034], [80.0215387, 13.9986091], [80.0085461, 14.0101225], [79.9817133, 13.9979949], [79.9829793, 14.0289008], [79.9447846, 14.0356248], [79.9451816, 14.0439099], [79.9274254, 14.0477088], [79.8823535, 14.0376753], [79.8137855, 14.046897], [79.8075199, 14.0309097], [79.7835302, 14.0497904], [79.7747326, 14.0366136], [79.7796893, 14.0256845], [79.761987, 14.0254317], [79.7462582, 14.0354271], [79.7415161, 14.0632786], [79.7332227, 14.0703242], [79.7454428, 14.0894618], [79.710263, 14.1097424], [79.6682489, 14.1210733], [79.6655238, 14.1506413], [79.6403324, 14.1529405], [79.6424246, 14.1164952], [79.6305799, 14.1066312], [79.5994556, 14.1201369], [79.5997453, 14.1319042], [79.5869887, 14.1429324], [79.5293856, 14.1721023], [79.4281536, 14.1849904], [79.4224834, 14.2068225], [79.4352937, 14.2437316], [79.4192755, 14.2664627], [79.4223332, 14.2787632], [79.3890095, 14.3414819], [79.3660927, 14.3516682], [79.3647623, 14.3779428], [79.3299365, 14.4265342], [79.3165147, 14.4769745], [79.2930829, 14.484994], [79.2818498, 14.4719778], [79.2842531, 14.4462753], [79.2425608, 14.4414337], [79.2324543, 14.4147822], [79.2638039, 14.3924299], [79.2783308, 14.3959008], [79.3059897, 14.3596299], [79.2771292, 14.3315861], [79.2647695, 14.3501715], [79.2385053, 14.2943691], [79.2133999, 14.2802084], [79.2067051, 14.2883805], [79.1752696, 14.2618044], [79.2038297, 14.2385945], [79.2132926, 14.2067289], [79.2486548, 14.1892967], [79.2504787, 14.1631978], [79.2315316, 14.1814538], [79.2202663, 14.1817242], [79.2034006, 14.1657152], [79.1908157, 14.1688672], [79.1909551, 14.1577155], [79.17454, 14.1592759], [79.1880154, 14.1339955], [79.1662359, 14.1133737], [79.1544556, 14.120782], [79.1566658, 14.1300419], [79.1436624, 14.1454813], [79.1202736, 14.135452], [79.1172266, 14.1458974], [79.0927648, 14.1531797], [79.0834951, 14.1483734], [79.076693, 14.1590054], [79.0493989, 14.1441288], [79.0514374, 14.1830765], [79.0468025, 14.1965776], [79.0338206, 14.1944974], [79.0313744, 14.1753998], [79.0196585, 14.1749629], [79.0365028, 14.1239866]]]}}]}