{"type": "FeatureCollection", "features": [{"type": "Feature", "properties": {"slug": "toledo-par", "members": 1, "country": "Brazil", "input_hash": "39d78bb12208bfaa"}, "geometry": {"type": "Polygon", "coordinates": [[[-53.808, -24.769], [-53.7840839, -24.823976], [-53.8199166, -24.8531062], [-53.8367125, -24.855773], [-53.8536884, -24.8797863], [-53.842863, -24.8853438], [-53.84747, -24.8917307], [-53.8310398, -24.8932271], [-53.8375887, -24.8998082], [-53.8314797, -24.9072112], [-53.8206233, -24.9073767], [-53.8160087, -24.9163677], [-53.813348, -24.9076686], [-53.8074627, -24.9133343], [-53.7923136, -24.9094079], [-53.7876356, -24.9003412], [-53.7633704, -24.9199898], [-53.7431814, -24.9210187], [-53.7348658, -24.9395018], [-53.6362302, -24.9369091], [-53.6362161, -24.8808849], [-53.6251799, -24.8698018], [-53.6422812, -24.8581888], [-53.6457466, -24.8682834], [-53.665, -24.857], [-53.6741673, -24.8593667], [-53.669, -24.848], [-53.678491, -24.8411712], [-53.678, -24.829], [-53.692, -24.831], [-53.686, -24.821], [-53.6988302, -24.8016038], [-53.7229264, -24.7918176], [-53.684, -24.779], [-53.668, -24.793], [-53.657, -24.785], [-53.631, -24.786], [-53.6079839, -24.8020146], [-53.574, -24.803], [-53.544, -24.838], [-53.557, -24.778], [-53.534, -24.752], [-53.715, -24.575], [-53.731, -24.577], [-53.7439009, -24.5570708], [-53.769, -24.55], [-53.778, -24.522], [-53.807, -24.51], [-53.812, -24.482], [-53.85, -24.453], [-53.873, -24.456], [-53.881, -24.467], [-53.863, -24.476], [-53.854, -24.511], [-53.869, -24.522], [-53.892, -24.527], [-53.9, -24.518], [-53.938, -24.514], [-53.95, -24.505], [-53.9646465, -24.5125996], [-53.9646078, -24.5202434], [-53.9573509, -24.5122482], [-53.9493729, -24.5187304], [-53.9677042, -24.5274953], [-53.9568681, -24.5288227], [-53.9594966, -24.536426], [-53.9472942, -24.5338645], [-53.9522761, -24.5436677], [-53.9357752, -24.5494744], [-53.9352108, -24.5622195], [-53.9218749, -24.5655274], [-53.9172272, -24.5765256], [-53.9571784, -24.6230723], [-53.9609257, -24.6502379], [-53.9868851, -24.6640013], [-54.0095409, -24.6575668], [-54.0068158, -24.666732], [-54.0322477, -24.6550812], [-54.0320715, -24.6648175], [-54.043443, -24.667659], [-54.029, -24.685], [-54.028, -24.705], [-54.018, -24.711], [-54.035, -24.726], [-54.0288474, -24.7405709], [-54.0136373, -24.7435792], [-54.0159398, -24.72553], [-54.0129287, -24.7317285], [-54.0048274, -24.7229059], [-54.001248, -24.7316893], [-53.9885494, -24.722197], [-53.9695752, -24.7356549], [-53.9734178, -24.729997], [-53.9607376, -24.7258723], [-53.9675554, -24.7208685], [-53.9649335, -24.7154255], [-53.9582008, -24.7234609], [-53.9536556, -24.7122416], [-53.9454694, -24.7213179], [-53.9243639, -24.7167907], [-53.8969906, -24.7296122], [-53.8972106, -24.7421193], [-53.8916605, -24.7328567], [-53.8454417, -24.746338], [-53.808, -24.769]]]}}]}