{"type": "FeatureCollection", "features": [{"type": "Feature", "properties": {"slug": "tombos", "members": 1, "country": "Brazil", "input_hash": "317386c2fe7dfa31"}, "geometry": {"type": "Polygon", "coordinates": [[[-42.168, -20.954], [-42.158, -20.977], [-42.1380367, -20.9600489], [-42.1152981, -20.9590102], [-42.1143156, -20.9502517], [-42.0937947, -20.935626], [-42.0658627, -20.9389947], [-42.0230595, -20.9251293], [-41.9761523, -20.9357924], [-41.9798187, -20.922884], [-41.9666893, -20.9169515], [-41.9673098, -20.8985727], [-41.9497554, -20.872972], [-41.9543764, -20.8652677], [-41.9297381, -20.8435882], [-41.97, -20.82], [-41.98, -20.819], [-41.985, -20.829], [-42.038, -20.808], [-42.108, -20.806], [-42.098, -20.822], [-42.11, -20.858], [-42.149, -20.848], [-42.171, -20.854], [-42.188, -20.869], [-42.17, -20.897], [-42.172, -20.922], [-42.159, -20.937], [-42.168, -20.954]]]}}]}