{"type": "FeatureCollection", "features": [{"type": "Feature", "properties": {"slug": "tomelloso", "members": 1, "country": "Spain", "input_hash": "d3e3cabebfe2b906"}, "geometry": {"type": "Polygon", "coordinates": [[[-2.9433352, 39.3169758], [-2.9446056, 39.3497176], [-2.9738434, 39.3493717], [-2.9887783, 39.3414553], [-3.0112165, 39.3007613], [-3.0559037, 39.2525614], [-3.028343, 39.2195597], [-3.024214, 39.1992421], [-3.0527032, 39.176217], [-3.0500828, 39.1656031], [-3.0365162, 39.1462343], [-3.0096323, 39.1372826], [-2.9685466, 39.1054873], [-2.8743583, 39.0900596], [-2.8873655, 39.1637208], [-2.9221467, 39.1555583], [-2.9296816, 39.2245789], [-2.9375371, 39.2367933], [-2.9352838, 39.3052664], [-2.9433352, 39.3169758]]]}}]}