{"type":"FeatureCollection","features":[{"type":"Feature","properties":{"slug":"torreon","member_count":5,"matched_count":5,"unmatched":[],"source":"Overture Maps division_area (CC-BY 4.0)"},"geometry":{"type":"Polygon","coordinates":[[[-103.4664263,25.2767828],[-103.444245,25.2790837],[-103.4701349,25.301017],[-103.441298,25.3212166],[-103.4279682,25.3010926],[-103.3456068,25.259078],[-103.3462411,25.2229902],[-103.1959273,25.1944732],[-103.1904106,25.160341],[-103.103787,25.1117946],[-103.0977084,25.0239776],[-103.0632355,25.00943],[-103.0449403,24.9857972],[-103.0191446,24.9715811],[-103.0690798,24.9737942],[-103.0382587,24.9618976],[-103.0535853,24.9250287],[-102.956981,24.8647412],[-102.9568068,24.8317335],[-102.9930093,24.8142696],[-102.9903758,24.7942919],[-103.0059445,24.7934017],[-103.0333222,24.8108288],[-103.0928016,24.8227544],[-103.2591459,24.9646588],[-103.2453638,24.9824628],[-103.2465631,24.9960266],[-103.2704695,25.0156596],[-103.274054,25.0233599],[-103.2674893,25.0280437],[-103.2780152,25.0346142],[-103.2617744,25.0580997],[-103.3372259,25.099127],[-103.3426624,25.1103294],[-103.3595393,25.1100288],[-103.3942904,25.1577356],[-103.4028578,25.1823489],[-103.4257959,25.2015393],[-103.4386816,25.2019588],[-103.4502137,25.2286149],[-103.4731844,25.2501077],[-103.4967201,25.2557485],[-103.5058331,25.2765687],[-103.5138917,25.2787126],[-103.5060018,25.2675646],[-103.5084727,25.2405287],[-103.5305181,25.2219417],[-103.6102007,25.195326],[-103.6789536,25.1828277],[-103.7070043,25.1892095],[-103.7162781,25.1742335],[-103.7535527,25.1922458],[-103.7689124,25.2284017],[-103.7653149,25.2426043],[-103.7737701,25.2681146],[-103.7673414,25.2747526],[-103.77797,25.2701268],[-103.7860073,25.2790266],[-103.8226865,25.3500614],[-103.7930311,25.3926324],[-103.8483012,25.4613096],[-103.9022952,25.4524642],[-103.9049844,25.4720907],[-103.9493578,25.458274],[-103.9704854,25.504009],[-103.9677378,25.5177796],[-103.9787015,25.5482819],[-103.9363526,25.4915861],[-103.8988512,25.4983952],[-103.8935209,25.474241],[-103.8632824,25.4799086],[-103.8870859,25.5406089],[-103.8556713,25.5393817],[-103.8616751,25.5532663],[-103.8653582,25.5609335],[-103.9138427,25.5627398],[-103.909551,25.6240138],[-103.8981844,25.6277422],[-103.9448989,25.6881271],[-103.9542508,25.6833588],[-103.9656516,25.7054663],[-103.9608326,25.7081818],[-103.9663743,25.7151549],[-103.9263629,25.7281576],[-103.9344984,25.7435503],[-103.9285904,25.7469523],[-103.9392532,25.7525847],[-103.9128383,25.7673855],[-103.8457088,25.7676426],[-103.7055108,25.7479518],[-103.6904692,25.7346612],[-103.6340078,25.7523259],[-103.6281332,25.7600716],[-103.6342826,25.7676001],[-103.6257172,25.7778526],[-103.6227415,25.7711453],[-103.6167161,25.7751183],[-103.6051918,25.8428343],[-103.581887,25.8586123],[-103.5697203,25.8879968],[-103.5644429,25.8775792],[-103.5394853,25.8796311],[-103.543092,25.8657518],[-103.505598,25.8659643],[-103.5074156,25.8325735],[-103.4847973,25.8311262],[-103.482151,25.8576477],[-103.4604858,25.8546921],[-103.4614256,25.8419507],[-103.436914,25.8381192],[-103.4376878,25.8292742],[-103.4113567,25.8357065],[-103.4208164,25.8459908],[-103.4333032,25.8431676],[-103.4319413,25.8573347],[-103.4438634,25.8696288],[-103.4019757,25.8751209],[-103.3915971,25.8566483],[-103.3794067,25.8603235],[-103.3765391,25.8529866],[-103.372862,25.8670678],[-103.3621556,25.8643393],[-103.3466052,25.8769423],[-103.3504882,26.14239],[-103.2608253,26.2847268],[-103.3167926,26.3617762],[-103.3741835,26.6023549],[-103.4159637,26.6167356],[-103.3658005,26.6540809],[-103.1646681,26.7540991],[-103.0504535,26.6483541],[-103.000804,26.7250132],[-102.9678846,26.7065368],[-103.0093152,26.6145103],[-103.0390211,26.5808986],[-103.0137832,26.5560341],[-103.0062178,26.5340854],[-103.0386191,26.5227833],[-103.0244984,26.5010572],[-102.9996973,26.4982555],[-102.9882215,26.4251482],[-102.9580317,26.4221617],[-102.9778905,26.38563],[-102.9621815,26.3700404],[-102.9526724,26.3448626],[-102.9489997,26.3009221],[-102.8796634,26.2959662],[-102.9112808,26.2289025],[-102.8988873,26.2194626],[-102.8943165,26.1610621],[-102.926354,26.1659066],[-102.9239598,26.1831383],[-102.9686841,26.1970297],[-102.9698314,26.1894493],[-103.1560682,26.209614],[-103.1625708,26.1793628],[-103.1175744,26.1736598],[-103.1219802,26.1417937],[-103.1655144,26.1473332],[-103.1647836,26.0918433],[-103.1849739,26.0974992],[-103.2130946,26.1193404],[-103.2163524,26.0474243],[-103.1370698,26.0315025],[-103.1446995,25.975803],[-103.1539378,25.9652488],[-103.170032,25.9613936],[-103.1666818,25.9768629],[-103.1812944,25.9776898],[-103.1856926,25.9674277],[-103.1929441,25.968],[-103.1966172,25.9474032],[-103.1807843,25.9441334],[-103.1766674,25.9354958],[-103.2042348,25.8942031],[-103.2111015,25.9260856],[-103.2145666,25.8715133],[-103.235104,25.827647],[-103.2044596,25.8174589],[-103.2266376,25.7615984],[-103.217286,25.7536363],[-103.2052722,25.7579309],[-103.1989616,25.6800492],[-103.1556085,25.6738613],[-103.1380767,25.6625843],[-103.1362011,25.670307],[-103.1215731,25.6544693],[-103.1120264,25.6572964],[-103.1054916,25.6425844],[-103.074229,25.6193912],[-103.0634453,25.6493055],[-103.0304703,25.6425849],[-103.0745,25.5970863],[-103.0951165,25.599752],[-103.0819634,25.5476464],[-103.0897298,25.5024855],[-103.0812223,25.50152],[-103.0810878,25.4922258],[-103.0841735,25.4742869],[-103.094142,25.4756946],[-103.1096585,25.3905893],[-103.1380199,25.3934382],[-103.1382569,25.4024706],[-103.1644202,25.411491],[-103.265931,25.4147826],[-103.324196,25.3723561],[-103.3418511,25.3703524],[-103.3655194,25.3931562],[-103.4069194,25.3988994],[-103.462271,25.3761929],[-103.4662166,25.3523481],[-103.4864833,25.3328618],[-103.4792501,25.3239247],[-103.4935503,25.3117237],[-103.4664263,25.2767828]]]}}]}