{"type": "FeatureCollection", "features": [{"type": "Feature", "properties": {"slug": "tottori", "members": 1, "country": "Japan", "input_hash": "dde203f92da88c8b"}, "geometry": {"type": "Polygon", "coordinates": [[[134.440768, 35.43986], [134.425967, 35.487279], [134.404853, 35.487494], [134.393172, 35.500636], [134.376411, 35.500359], [134.350431, 35.477892], [134.319441, 35.486924], [134.326834, 35.533774], [134.309064, 35.538281], [134.29472, 35.561971], [134.277788, 35.572717], [134.259428, 35.555324], [134.187133, 35.542949], [134.197079, 35.533051], [134.184728, 35.539541], [134.03406, 35.518525], [134.017423, 35.522762], [134.007651, 35.537922], [133.999511, 35.524802], [133.96520299654765, 35.52290690772702], [133.9709, 35.512169], [133.956117, 35.497085], [133.946038, 35.461827], [133.95367, 35.450916], [133.947407, 35.441128], [133.951384, 35.428148], [133.996178, 35.422559], [134.000838, 35.406389], [133.991313, 35.393663], [134.041503, 35.376476], [134.019005, 35.363685], [134.010822, 35.340396], [134.015365, 35.333864], [133.999468, 35.314651], [134.04813, 35.29848], [134.097759, 35.305697], [134.115818, 35.283501], [134.148778, 35.281141], [134.156562, 35.271714], [134.194695, 35.278825], [134.219775, 35.301416], [134.249608, 35.295565], [134.270537, 35.309014], [134.245009, 35.3281], [134.241282, 35.355833], [134.231042, 35.369131], [134.235887, 35.386198], [134.219749, 35.397679], [134.215848, 35.413258], [134.262171, 35.431435], [134.278096, 35.449888], [134.282356, 35.442492], [134.296853, 35.44508], [134.348378, 35.425349], [134.377296, 35.431595], [134.380781, 35.439737], [134.427987, 35.434911], [134.440768, 35.43986]]]}}]}