{"type": "FeatureCollection", "features": [{"type": "Feature", "properties": {"slug": "tovuz", "members": 1, "country": "Azerbaijan", "input_hash": "ae47117a7dfdee85"}, "geometry": {"type": "Polygon", "coordinates": [[[45.4830489, 40.7098232], [45.4799135, 40.6763176], [45.4980435, 40.665209], [45.534664, 40.6685844], [45.5454566, 40.6586809], [45.5751809, 40.6667316], [45.6069113, 40.6547675], [45.6157209, 40.6245334], [45.6284225, 40.6211288], [45.65475, 40.6396647], [45.6767119, 40.6165987], [45.7127482, 40.6140689], [45.7131993, 40.6248287], [45.7003063, 40.6329081], [45.7137937, 40.6398602], [45.7046324, 40.6537621], [45.7076463, 40.6717401], [45.6786887, 40.6781805], [45.7383851, 40.7232188], [45.7272935, 40.7343718], [45.7337236, 40.7498092], [45.7152334, 40.7742316], [45.7219726, 40.7874655], [45.7351243, 40.788535], [45.7262486, 40.8004833], [45.7294844, 40.8074378], [45.7373775, 40.8172746], [45.7501228, 40.8078297], [45.7508862, 40.8220818], [45.7280834, 40.8352762], [45.7285713, 40.8580856], [45.8049556, 40.9085947], [45.8995271, 40.948772], [45.8963835, 40.9555281], [45.8809084, 40.9549845], [45.8794688, 40.9621867], [45.8969878, 40.9711958], [45.9239149, 40.9680294], [45.9275232, 40.9816841], [45.9129383, 40.9783548], [45.9144138, 40.9839259], [45.9746535, 41.0093405], [46.0052754, 40.9861303], [46.0311689, 41.0066817], [46.082062, 41.0000347], [46.1059044, 41.0061316], [46.1227817, 41.0188746], [46.1269062, 41.0508916], [46.1603184, 41.0508463], [46.1930361, 41.0765877], [46.2319967, 41.1253674], [46.200526, 41.1398925], [46.1604031, 41.1416826], [46.1104182, 41.1665315], [46.1052863, 41.175913], [46.080265, 41.174673], [46.081939, 41.181723], [46.065158, 41.189828], [45.949829, 41.178708], [45.913715, 41.190585], [45.881897, 41.212678], [45.80579, 41.221987], [45.756634, 41.253418], [45.746304, 41.2218788], [45.6386699, 41.1617659], [45.6459515, 41.13711], [45.6296095, 41.1270169], [45.6129663, 41.1281048], [45.5713343, 41.1504714], [45.5670371, 41.1405806], [45.5959379, 41.0612436], [45.5909578, 41.0498796], [45.5736274, 41.0432044], [45.5792074, 41.0250953], [45.4942544, 40.9805721], [45.4537581, 40.970696], [45.4839362, 40.9396255], [45.4740134, 40.9305822], [45.4814837, 40.9235121], [45.5169311, 40.9211728], [45.5402955, 40.8985141], [45.5574408, 40.8993103], [45.5599659, 40.883896], [45.5815674, 40.8915934], [45.5966149, 40.8868117], [45.6025184, 40.8807625], [45.5972648, 40.8679401], [45.6077727, 40.8527195], [45.5919937, 40.8214275], [45.5456232, 40.7745406], [45.505411, 40.7695212], [45.4823824, 40.751591], [45.4686628, 40.7563538], [45.4259526, 40.7424595], [45.4834178, 40.7209198], [45.4891244, 40.711548], [45.4830489, 40.7098232]]]}}]}