{"type": "FeatureCollection", "features": [{"type": "Feature", "properties": {"slug": "trinidad-uru", "members": 1, "country": "Uruguay", "input_hash": "24a6a144fa2e69af"}, "geometry": {"type": "Polygon", "coordinates": [[[-57.2029543, -33.1901631], [-57.2204182, -33.2125549], [-57.2125952, -33.2237219], [-57.2349691, -33.219298], [-57.240124, -33.2377094], [-57.2804121, -33.2614675], [-57.2796289, -33.2686575], [-57.3053181, -33.2939021], [-57.3090005, -33.3288788], [-57.3405902, -33.3380255], [-57.3379791, -33.3534016], [-57.3608672, -33.3760708], [-57.2935228, -33.4238518], [-57.293036, -33.4416703], [-57.2852576, -33.4473596], [-57.2919202, -33.4694862], [-57.2813724, -33.4811639], [-57.2544497, -33.4863504], [-57.2566049, -33.5051383], [-57.242589, -33.5461519], [-57.2278087, -33.5493923], [-57.2239155, -33.5620848], [-57.2094088, -33.5675595], [-57.203638, -33.5901971], [-57.1716593, -33.591215], [-57.1593441, -33.6096116], [-57.1716432, -33.6293461], [-57.1643205, -33.6538993], [-57.1737032, -33.6599209], [-57.1765184, -33.6769435], [-57.1912126, -33.6869211], [-57.2022526, -33.7255764], [-57.1778442, -33.7854212], [-57.1469251, -33.8016698], [-57.1211426, -33.8405689], [-57.1120572, -33.8815483], [-57.119143, -33.8997807], [-57.0893424, -33.9543834], [-57.1025021, -33.9799169], [-57.094181, -33.9828869], [-57.084362, -33.967783], [-56.8297071, -33.9842125], [-56.8250723, -33.9709071], [-56.8104208, -33.9674325], [-56.8140768, -33.9577019], [-56.7965395, -33.9520829], [-56.7956007, -33.9408019], [-56.771537, -33.9279828], [-56.7605759, -33.9316516], [-56.7352467, -33.9126082], [-56.6841936, -33.9040639], [-56.6569037, -33.8910366], [-56.6126705, -33.8418478], [-56.5939663, -33.8321476], [-56.5827738, -33.8491243], [-56.5304966, -33.868559], [-56.5140234, -33.8637176], [-56.4545272, -33.9025058], [-56.4326049, -33.8954156], [-56.4273281, -33.8819561], [-56.4090979, -33.8732661], [-56.3964808, -33.8369678], [-56.4108467, -33.8337774], [-56.4308238, -33.8143203], [-56.4235285, -33.752402], [-56.4322766, -33.7435808], [-56.4566459, -33.7470262], [-56.4790285, -33.6899153], [-56.4945346, -33.619359], [-56.516059, -33.5828235], [-56.5118456, -33.568593], [-56.5240335, -33.5545746], [-56.5151847, -33.510064], [-56.5638727, -33.4783472], [-56.5664915, -33.4564274], [-56.5769909, -33.4425118], [-56.5701235, -33.4278884], [-56.579669, -33.4043953], [-56.6235718, -33.3930468], [-56.6308489, -33.3787025], [-56.6321538, -33.3573118], [-56.6260556, -33.3549976], [-56.6534472, -33.3416565], [-56.6523895, -33.3200964], [-56.677613, -33.3156765], [-56.6742407, -33.2943832], [-56.7270225, -33.2705711], [-56.7384991, -33.2708817], [-56.7440695, -33.2860868], [-56.7682234, -33.2665444], [-56.790409, -33.2661369], [-56.7978408, -33.2813745], [-56.8106085, -33.2637784], [-56.8268012, -33.2694816], [-56.8585074, -33.2619977], [-56.8477399, -33.2396496], [-56.8642785, -33.2297706], [-56.8785274, -33.1922371], [-56.909068, -33.1979192], [-56.9119894, -33.1794794], [-56.9240926, -33.186114], [-56.9478655, -33.1782388], [-56.9895792, -33.1844167], [-57.0067453, -33.1592716], [-57.0184183, -33.1778078], [-57.0817613, -33.1691868], [-57.1145487, -33.1195995], [-57.1545458, -33.1230499], [-57.1653604, -33.1401565], [-57.1660471, -33.1588404], [-57.17875, -33.1657381], [-57.1761751, -33.1875772], [-57.2029543, -33.1901631]]]}}]}