{"type": "FeatureCollection", "features": [{"type": "Feature", "properties": {"slug": "tripoli-leb", "members": 4, "country": "Lebanon", "input_hash": "bcd420565eefa62d"}, "geometry": {"type": "MultiPolygon", "coordinates": [[[[35.7857879, 34.3883145], [35.82723717302916, 34.41991116881432], [35.8195506, 34.4187629], [35.8063784, 34.4547983], [35.8253168, 34.4508893], [35.83721, 34.4630737], [35.8325334, 34.4668863], [35.8477427, 34.4557942], [35.902859, 34.4666378], [35.9545068, 34.5124973], [35.9865582, 34.4825595], [35.9928417, 34.4411944], [36.1191509, 34.4471941], [36.1402522, 34.4314051], [36.1886059, 34.3576288], [36.1413198, 34.3111636], [36.1366657, 34.2905398], [36.1027811, 34.2642837], [36.0853213, 34.2694651], [36.0718416, 34.2873195], [36.03148873878665, 34.29633486376701], [36.0242738, 34.283569], [35.9807236, 34.2651349], [35.9325409, 34.2728274], [35.870829556841464, 34.29489209375178], [35.8702719, 34.2792461], [35.8585471, 34.2657238], [35.8411574, 34.2753753], [35.8267878, 34.2723898], [35.8266735, 34.2642393], [35.846328, 34.2512622], [35.846107, 34.24463], [35.8350532, 34.2428591], [35.8151517, 34.2530331], [35.789124, 34.2477045], [35.7585175, 34.2634465], [35.7304466, 34.2662698], [35.7219009, 34.2905112], [35.704, 34.2940975], [35.7261208, 34.3102729], [35.7439265, 34.3062054], [35.7615852, 34.3211519], [35.7466578, 34.3406722], [35.7367358, 34.3433074], [35.7278568, 34.3352561], [35.7314107, 34.3549698], [35.7245459, 34.3611133], [35.7378087, 34.3650473], [35.7357788, 34.374714], [35.7857879, 34.3883145]], [[35.83184243293439, 34.41818876619672], [35.8281625, 34.4200494], [35.82764444633666, 34.41997200987264], [35.83184243293439, 34.41818876619672]], [[35.8712576, 34.4035745], [35.8689666, 34.4064671], [35.8726799, 34.4015508], [35.8712576, 34.4035745]], [[35.86512843554079, 34.40695426619603], [35.8661771, 34.4059714], [35.8689666, 34.4064671], [35.86512843554079, 34.40695426619603]], [[35.869292066837346, 34.389816439659455], [35.8700394, 34.3914708], [35.8694815, 34.395738], [35.869292066837346, 34.389816439659455]], [[35.8574114, 34.3617941], [35.85683335656167, 34.358825087814374], [35.8664613, 34.3791555], [35.8574114, 34.3617941]], [[35.8545232, 34.3469594], [35.8545324, 34.3402865], [35.85498627417601, 34.34933789403739], [35.8545232, 34.3469594]], [[35.8590531, 34.3140916], [35.859512811564294, 34.31365694258358], [35.8606839, 34.3176805], [35.8590531, 34.3140916]], [[35.89548215045874, 34.453549915222204], [35.8848193, 34.4464314], [35.895484374456835, 34.45354705442168], [35.89548215045874, 34.453549915222204]], [[35.853265, 34.4235834], [35.8619393, 34.4099433], [35.863557331504936, 34.40842679159128], [35.853265, 34.4235834]], [[35.8948258, 34.4543942], [35.88625862565171, 34.45663827565294], [35.89543187873449, 34.45361458136356], [35.8948258, 34.4543942]]], [[[35.7991603, 34.4717073], [35.7999418, 34.4719133], [35.7991535, 34.4713414], [35.7991603, 34.4717073]]], [[[35.7958871, 34.4742535], [35.7962625, 34.4741916], [35.7959675, 34.4739882], [35.7958871, 34.4742535]]], [[[35.7750302, 34.4861927], [35.779741, 34.4876821], [35.7791077, 34.4846601], [35.7750302, 34.4861927]]], [[[35.773023, 34.4925951], [35.7730506, 34.4926662], [35.7731098, 34.4926175], [35.773023, 34.4925951]]], [[[35.7729036, 34.4927531], [35.7727765, 34.4927892], [35.7727949, 34.4928253], [35.7729036, 34.4927531]]], [[[35.7725603, 34.4929833], [35.7722411, 34.4962157], [35.7765026, 34.4939379], [35.7739946, 34.4915553], [35.7730473, 34.4926986], [35.7725603, 34.4929833]]], [[[35.7748363, 34.496234], [35.7747832, 34.4965628], [35.775159, 34.4964622], [35.7748363, 34.496234]]], [[[35.7642088, 34.496314], [35.7635222, 34.4969925], [35.7644434, 34.4966967], [35.7642088, 34.496314]]], [[[35.7607651, 34.4985996], [35.7634742, 34.4975424], [35.7597596, 34.4969541], [35.7607651, 34.4985996]]], [[[35.7628157, 34.4984443], [35.7629283, 34.4986963], [35.7630568, 34.4985896], [35.7628157, 34.4984443]]], [[[35.7619089, 34.498838], [35.7616728, 34.4984975], [35.7614314, 34.4986567], [35.7619089, 34.498838]]], [[[35.8085141, 34.4571937], [35.8099677, 34.4564721], [35.8083083, 34.4568255], [35.8085141, 34.4571937]]], [[[35.8063089, 34.4575968], [35.8073732, 34.4574213], [35.8062113, 34.4573847], [35.8063089, 34.4575968]]], [[[35.8051038, 34.4605388], [35.8053957, 34.4606974], [35.8055257, 34.4604427], [35.8051038, 34.4605388]]], [[[35.7990245, 34.4633918], [35.8010485, 34.4618567], [35.8002237, 34.4616708], [35.7990245, 34.4633918]]], [[[35.8045951, 34.4648119], [35.8051459, 34.4651689], [35.805381, 34.464415], [35.8045951, 34.4648119]]], [[[35.8229611, 34.4615028], [35.8121145, 34.4581103], [35.8322416, 34.4716176], [35.8229611, 34.4615028]]], [[[35.8040926, 34.4657648], [35.8043877, 34.4661975], [35.8046049, 34.4655831], [35.8040926, 34.4657648]]], [[[35.8034884, 34.4674157], [35.8037983, 34.4679462], [35.8040858, 34.4674403], [35.8034884, 34.4674157]]], [[[35.8025807, 34.4688165], [35.8033616, 34.4688556], [35.803384, 34.468772], [35.8025807, 34.4688165]]]]}}]}