{"type": "FeatureCollection", "features": [{"type": "Feature", "properties": {"slug": "tula-mexico", "members": 5, "country": "Mexico", "input_hash": "acb6974dcf28b2c9"}, "geometry": {"type": "Polygon", "coordinates": [[[-99.1444333, 20.0451078], [-99.1425132, 20.0269733], [-99.1586031, 20.0271877], [-99.1772173, 19.9931389], [-99.1900526, 19.9939633], [-99.1892057, 19.9848196], [-99.1969191, 19.9848115], [-99.2153944, 19.9546144], [-99.227761, 19.9510681], [-99.2185725, 19.9272419], [-99.2115191, 19.9242884], [-99.2092156, 19.932436], [-99.2056028, 19.9275007], [-99.2239252, 19.9019984], [-99.2198745, 19.8855776], [-99.2359475, 19.8734942], [-99.2395683, 19.8880189], [-99.246744, 19.8955658], [-99.2579616, 19.8911718], [-99.2741603, 19.9188439], [-99.2604486, 19.9212002], [-99.2512364, 19.9326772], [-99.2549044, 19.9566149], [-99.2699127, 19.9649831], [-99.2903623, 19.9527465], [-99.2881814, 19.9415199], [-99.3044199, 19.9300802], [-99.3224026, 19.9618991], [-99.3168753, 19.9693528], [-99.3394395, 19.9585164], [-99.3240877, 19.9456601], [-99.3424124, 19.9443329], [-99.3518155, 19.9518719], [-99.3676717, 19.9855429], [-99.3535643, 19.9929885], [-99.3627276, 19.9992862], [-99.388783, 20.0106706], [-99.38689, 20.0052818], [-99.3975026, 20.0035307], [-99.4269673, 20.0160144], [-99.4407478, 20.0133537], [-99.4597587, 20.0654573], [-99.4810086, 20.0821979], [-99.4834969, 20.1009698], [-99.5186983, 20.1482988], [-99.5018309, 20.1532866], [-99.5052672, 20.1604646], [-99.4920116, 20.1502116], [-99.4857828, 20.1702481], [-99.4436853, 20.163088], [-99.4276412, 20.1399877], [-99.3891466, 20.1274616], [-99.3695735, 20.1023664], [-99.3663458, 20.1295505], [-99.3401436, 20.1370614], [-99.3365362, 20.1465771], [-99.3130342, 20.1142222], [-99.27122988284187, 20.074433656980247], [-99.2913438, 20.0936242], [-99.2421435, 20.1277387], [-99.2328435, 20.1553776], [-99.2090012, 20.1605009], [-99.1902405, 20.1543615], [-99.1931365, 20.1476337], [-99.1660563, 20.1312934], [-99.1883675, 20.122708], [-99.1661487, 20.1305843], [-99.1751277, 20.1156078], [-99.1905028, 20.1084261], [-99.1696376, 20.0955012], [-99.1889979, 20.0728154], [-99.1526166, 20.0434192], [-99.1444333, 20.0451078]], [[-99.1587161, 20.0359766], [-99.15219600513913, 20.035613348756762], [-99.1635091, 20.0380077], [-99.1587161, 20.0359766]], [[-99.2640672, 20.028915], [-99.26274746224465, 20.02825228553631], [-99.2672912, 20.0342995], [-99.2640672, 20.028915]], [[-99.26172611070544, 20.017456895737322], [-99.2618580149066, 20.01598573704295], [-99.261734, 20.0162452], [-99.26172611070544, 20.017456895737322]], [[-99.2740571, 19.995843], [-99.27399774137521, 19.994826179934506], [-99.2709738, 20.0042337], [-99.2740571, 19.995843]], [[-99.2758526, 19.9884104], [-99.2744243, 19.9866659], [-99.27551292088054, 19.989035895558853], [-99.2758526, 19.9884104]]]}}]}