{"type":"FeatureCollection","features":[{"type":"Feature","properties":{"slug":"tuymazy","member_count":1,"matched_count":1,"unmatched":["[recovered via metro-name fallback: Tuymazy]"],"source":"Overture Maps division_area (CC-BY 4.0)"},"geometry":{"type":"Polygon","coordinates":[[[55.1426347,56.3115151],[55.1353624,56.3436566],[55.1140833,56.3538059],[55.0991059,56.3517633],[55.1012161,56.3452609],[55.0711061,56.3453926],[55.0719657,56.3371605],[55.0233349,56.3428217],[55.0203896,56.3321516],[55.0281806,56.3339786],[55.0269196,56.3255456],[55.0114642,56.3203608],[55.0030806,56.3292968],[54.9831897,56.3263346],[54.9748645,56.3364576],[54.9435881,56.3372167],[54.929693,56.3801501],[54.8994338,56.3900287],[54.8814194,56.3874291],[54.863081,56.4022951],[54.8384636,56.407001],[54.8479819,56.4201933],[54.8304726,56.414015],[54.7882741,56.4264651],[54.796532,56.432249],[54.7911058,56.4362496],[54.7336185,56.4303546],[54.6796937,56.4863353],[54.6829618,56.5015035],[54.6479996,56.499693],[54.6315087,56.5088198],[54.6147878,56.5042855],[54.6033667,56.5141881],[54.6089852,56.5313323],[54.5776147,56.5346084],[54.5533594,56.5181001],[54.5418369,56.5187568],[54.5315986,56.4991561],[54.5382293,56.4984633],[54.5286707,56.4946357],[54.5326868,56.4862547],[54.5217829,56.4830037],[54.5269115,56.4690123],[54.5088432,56.467073],[54.5003889,56.4521097],[54.4844572,56.4446797],[54.4953767,56.4371054],[54.4873341,56.4328607],[54.4937184,56.426954],[54.4863649,56.4102042],[54.4599927,56.4023627],[54.4656929,56.3968674],[54.4580123,56.3904183],[54.4609345,56.3818373],[54.4426637,56.3710884],[54.4590561,56.351941],[54.4418808,56.3475163],[54.4169564,56.3629088],[54.4148198,56.3769951],[54.3942804,56.3819123],[54.3759141,56.3771766],[54.3584477,56.3537855],[54.3549295,56.3386635],[54.3641066,56.3329212],[54.3647193,56.313338],[54.4198953,56.3085285],[54.3917924,56.2919483],[54.3997245,56.2809029],[54.3859345,56.2734683],[54.3984889,56.2646995],[54.3851602,56.2489235],[54.3704647,56.252378],[54.3370239,56.2431223],[54.3284088,56.2482804],[54.3362184,56.2353693],[54.2468226,56.2139797],[54.249867,56.2023873],[54.1951773,56.1982266],[54.1992361,56.194168],[54.1838136,56.1887394],[54.1675902,56.1614457],[54.0879202,56.1083299],[54.0817437,56.082758],[54.0556686,56.0459766],[54.014881,56.0094741],[53.9741646,56.0053886],[53.8453601,56.044852],[53.8414635,56.017905],[53.8071389,56.0022459],[53.8155216,55.9956847],[53.8017303,55.9882993],[53.8258438,55.9789125],[53.8221959,55.9743746],[53.801998,55.967612],[53.7911425,55.9725946],[53.7066133,55.9663651],[53.709996,55.9301066],[53.7038863,55.9279279],[53.721739,55.924153],[53.7205823,55.9062899],[53.7607926,55.9085212],[53.7841061,55.895104],[53.8173866,55.8955778],[53.8465943,55.8660757],[53.8647406,55.8874867],[53.8795252,55.8869817],[53.8937193,55.8743277],[53.8888098,55.8596566],[53.8580879,55.8520061],[53.9917501,55.8474494],[53.9423121,55.8128676],[53.9594284,55.7786835],[53.9757305,55.7779502],[54.0030019,55.7946631],[54.053887,55.8074732],[54.0627194,55.7858112],[54.0346713,55.779071],[54.0141105,55.7644547],[54.0144538,55.7575006],[54.0332078,55.7541679],[54.0643626,55.7809077],[54.1042092,55.7751657],[54.1286945,55.7809898],[54.1352107,55.7770057],[54.118282,55.7660481],[54.119054,55.7544598],[54.1633616,55.7386826],[54.1733224,55.7154283],[54.2143267,55.7015057],[54.2374877,55.709049],[54.2376446,55.7208633],[54.2451237,55.7191253],[54.2411893,55.7267473],[54.2482224,55.7252007],[54.2656971,55.7037564],[54.2500433,55.6981318],[54.2587991,55.6856163],[54.2482557,55.6871316],[54.2414266,55.6771343],[54.2246918,55.6791999],[54.2325926,55.6682793],[54.1986949,55.6609325],[54.2017044,55.6501474],[54.1954547,55.6450054],[54.2055778,55.6436166],[54.1755581,55.6356393],[54.1563105,55.615995],[54.164817,55.6125654],[54.1423197,55.6094344],[54.1041707,55.5821053],[54.0787552,55.5865306],[54.066182,55.5801633],[54.0682868,55.5691042],[54.0367225,55.5631184],[54.0400529,55.5531192],[54.0327229,55.541731],[54.0234338,55.5384317],[54.004641,55.5507415],[53.9933894,55.5472415],[53.9837039,55.5303004],[53.9664942,55.5310012],[53.9633955,55.519469],[53.9879187,55.492143],[53.9784485,55.4828008],[53.966816,55.4885919],[53.9588145,55.4829913],[53.9786236,55.4658699],[53.926926,55.4550986],[53.9272907,55.4442162],[53.9021226,55.4285021],[53.9093649,55.4166715],[53.8965925,55.4148832],[53.9010018,55.4079044],[53.8723321,55.3945546],[53.887277,55.3893559],[53.8887012,55.3624845],[53.8962575,55.3545228],[53.8617144,55.365778],[53.8247785,55.3459118],[53.8066409,55.3504691],[53.7732322,55.3403597],[53.7724675,55.348197],[53.7227509,55.3263473],[53.6903854,55.3271327],[53.6888027,55.2967432],[53.6759139,55.2920041],[53.6856286,55.2770416],[53.6730756,55.2884106],[53.6022691,55.2626421],[53.6278643,55.2273828],[53.616626,55.2143228],[53.4829113,55.2165892],[53.4666111,55.2284659],[53.4269723,55.2300368],[53.3622388,55.2020654],[53.398238,55.1918831],[53.3713329,55.1731098],[53.3684415,55.1792227],[53.3186728,55.1622197],[53.2550162,55.1753445],[53.2079893,55.158837],[53.1578436,55.1655817],[53.164626,55.1091031],[53.2587989,55.1027226],[53.2694983,55.078052],[53.2940451,55.0706749],[53.2695046,55.048659],[53.2763835,55.0409764],[53.3172222,55.0448447],[53.3255501,55.0345564],[53.3137142,55.0252977],[53.3183927,55.0218952],[53.3722996,55.0249976],[53.3827482,55.0123443],[53.3948095,55.0149813],[53.4060094,55.0101917],[53.4023257,55.0042372],[53.4751097,54.978258],[53.4846463,54.9669214],[53.4809587,54.9603396],[53.4687012,54.9615969],[53.4750384,54.9512769],[53.5149188,54.9315801],[53.5181695,54.9250234],[53.5078898,54.9222933],[53.5081447,54.9132854],[53.5425992,54.8986246],[53.5417471,54.8867137],[53.5533616,54.8785033],[53.5884454,54.8858963],[53.6171244,54.906188],[53.6493044,54.9065858],[53.6365037,54.8994977],[53.6373658,54.8802688],[53.6227736,54.878513],[53.5978099,54.8192229],[53.5889515,54.81584],[53.5920474,54.8093121],[53.6287734,54.8106219],[53.6228384,54.7934607],[53.6128834,54.7895576],[53.6175336,54.7652014],[53.6391587,54.747266],[53.6280688,54.7416946],[53.6315627,54.7287338],[53.6253368,54.7281617],[53.6287372,54.718858],[53.6187278,54.6980008],[53.6045775,54.6956938],[53.5943223,54.6811237],[53.5755611,54.6780762],[53.6091005,54.6723918],[53.6032792,54.6638137],[53.5849485,54.672552],[53.5623123,54.6608032],[53.5723525,54.6540267],[53.5704657,54.6402984],[53.5497485,54.6417089],[53.520728,54.6172765],[53.5048076,54.6148277],[53.4889605,54.5921153],[53.4644948,54.588248],[53.4677464,54.5804818],[53.4823618,54.5787262],[53.4699694,54.5773915],[53.4648128,54.5669707],[53.4354122,54.5718871],[53.4234906,54.566018],[53.4352906,54.5433544],[53.4224044,54.5275534],[53.4300594,54.5206775],[53.4265918,54.5101945],[53.41675,54.5025324],[53.4236808,54.4922829],[53.4335115,54.4928177],[53.4346416,54.4809171],[53.4144431,54.4698825],[53.4234548,54.4551672],[53.4033333,54.4507025],[53.4295404,54.4304591],[53.4233079,54.4228235],[53.3876346,54.4193996],[53.3890614,54.4135687],[53.4039877,54.4138366],[53.4125769,54.3980321],[53.3817647,54.3748462],[53.4189806,54.3607543],[53.4063747,54.3470789],[53.3999238,54.349459],[53.4320477,54.3287597],[53.4191268,54.3018513],[53.4385152,54.298137],[53.4256146,54.2846284],[53.4460985,54.2585778],[53.4229556,54.2562791],[53.43677,54.2402523],[53.423514,54.2307946],[53.4263015,54.2213141],[53.4365585,54.2224266],[53.4310684,54.2052922],[53.4400152,54.1953046],[53.4374107,54.1852932],[53.4529125,54.1764536],[53.4581126,54.1639709],[53.4524741,54.154412],[53.4697432,54.1431761],[53.4626686,54.1381922],[53.4686933,54.1290894],[53.4635886,54.1215794],[53.4724738,54.1124981],[53.4664668,54.0886749],[53.4886595,54.0769622],[53.495388,54.058006],[53.5165726,54.0495551],[53.4987091,54.0244101],[53.519774,54.0144731],[53.5129506,54.0093391],[53.5204027,54.0041753],[53.5287838,54.0067296],[53.53581,53.9960167],[53.5292571,53.9760653],[53.5468833,53.9714582],[53.5488197,53.9596615],[53.5690887,53.9465245],[53.5631834,53.9389881],[53.5721724,53.9311812],[53.5694516,53.9139849],[53.5971929,53.883999],[53.5805814,53.8768765],[53.6000808,53.8683324],[53.5942109,53.8473633],[53.6303184,53.8065997],[53.6222123,53.8039872],[53.6290183,53.8006851],[53.6280609,53.7873095],[53.6389009,53.7831674],[53.634413,53.7734547],[53.6423748,53.7554668],[53.8242255,53.6874945],[53.8541623,53.6870376],[53.9138049,53.6106259],[53.9800597,53.5435413],[54.0089287,53.5303521],[54.0066356,53.5203989],[54.0239324,53.4983772],[54.0417455,53.5005665],[54.0607641,53.4548653],[54.151671,53.3879779],[54.2537106,53.3618512],[54.2961904,53.4058975],[54.4019552,53.3693117],[54.5475721,53.3551775],[54.5713166,53.3192708],[54.5516816,53.2631586],[54.6269367,53.2588481],[54.6247094,53.250104],[54.6375647,53.2362227],[54.6102397,53.2271105],[54.6174359,53.2160622],[54.6579489,53.2137694],[54.6782967,53.2267488],[54.7208075,53.2324335],[54.7428842,53.2264253],[54.7487659,53.2351628],[54.7935154,53.2420116],[54.8016772,53.2503083],[54.7971708,53.2553228],[54.8317359,53.275137],[54.8463378,53.2477523],[54.9272619,53.2121668],[54.9455705,53.1751415],[54.9428341,53.1590341],[54.9509645,53.1565393],[54.9438742,53.1375039],[54.9543477,53.1366189],[54.9564625,53.119128],[54.9421793,53.1114496],[54.9413062,53.1013919],[54.9739247,53.0803],[54.9653769,53.0685527],[54.9948471,53.0582349],[55.0040395,53.0283114],[55.0334365,53.0058422],[55.0639799,52.9478749],[55.1227484,52.914446],[55.1352374,52.8981987],[55.1233857,52.8825525],[55.1251887,52.8650365],[55.1551221,52.8529672],[55.1349106,52.8468348],[55.1414966,52.8367879],[55.151991,52.8370633],[55.138172,52.8119184],[55.1493582,52.8081496],[55.1648905,52.8204189],[55.1795196,52.8170288],[55.1910107,52.8379593],[55.2093028,52.8366323],[55.2422868,52.8177965],[55.2681891,52.8395277],[55.2729798,52.8275945],[55.3201758,52.8480102],[55.349626,52.8521209],[55.3859004,52.821587],[55.4005706,52.8275997],[55.4007773,52.807563],[55.4208267,52.7908424],[55.3960302,52.7810324],[55.3890555,52.7890387],[55.3399829,52.7676404],[55.3677975,52.740123],[55.4166251,52.7468674],[55.4270817,52.7331121],[55.3951155,52.6998589],[55.3685039,52.7039626],[55.3603578,52.6896057],[55.3673111,52.6830866],[55.3154968,52.6939844],[55.3059028,52.7066805],[55.3031014,52.7310147],[55.2768821,52.7181426],[55.2662806,52.7383859],[55.2349047,52.7420651],[55.2257196,52.7410133],[55.2170766,52.7217793],[55.2690453,52.7001145],[55.2640398,52.6450925],[55.2806184,52.6304185],[55.3528653,52.6383664],[55.3634923,52.6461227],[55.3721377,52.6753068],[55.4036007,52.6677204],[55.4707624,52.6254772],[55.4555438,52.6161901],[55.4370278,52.5853601],[55.4692814,52.5835572],[55.5241018,52.6042158],[55.5300341,52.575909],[55.5081349,52.5676694],[55.5100613,52.555206],[55.5489577,52.5444382],[55.5448443,52.5348394],[55.4793667,52.5414806],[55.4745267,52.5231587],[55.5251918,52.5139384],[55.5196487,52.4963584],[55.5014795,52.4987578],[55.4957743,52.4724966],[55.4999968,52.4620451],[55.5430608,52.4526321],[55.528543,52.4310704],[55.4961958,52.416898],[55.5250966,52.3875601],[55.540019,52.3966227],[55.5542695,52.3922403],[55.5693596,52.4062421],[55.5924282,52.3838485],[55.6140789,52.3823454],[55.6182746,52.3718953],[55.6749837,52.3678737],[55.6656407,52.4013305],[55.6779098,52.4043975],[55.6993946,52.4009646],[55.7331899,52.3514994],[55.7704823,52.3471874],[55.7981977,52.3769247],[55.8234173,52.3649617],[55.857774,52.3895304],[55.8820598,52.3961547],[55.8866492,52.4085583],[55.8713781,52.4146875],[55.8482364,52.4703085],[55.8518356,52.4816214],[55.8660712,52.4883174],[55.8675919,52.5457814],[55.8852579,52.5444422],[55.9081333,52.5599448],[55.9221101,52.5528415],[55.9119977,52.5359358],[55.9284532,52.52126],[55.9203326,52.5096664],[55.9440624,52.5152938],[55.9681385,52.5468982],[55.9662665,52.5577878],[55.9880596,52.561178],[56.0064148,52.5489071],[56.0366093,52.5702407],[56.0270519,52.5760986],[56.0531383,52.5909467],[56.0678334,52.6238632],[56.0624041,52.6288127],[56.0686263,52.6300534],[56.0360318,52.6470308],[56.1268807,52.6456695],[56.0739659,52.6213038],[56.1101907,52.6193405],[56.1254349,52.6335718],[56.1484437,52.6317004],[56.1657948,52.6008447],[56.156632,52.5922077],[56.1848432,52.5912509],[56.1907428,52.5995417],[56.262206,52.5458692],[56.3325578,52.5853143],[56.3710536,52.5977539],[56.4234853,52.6046635],[56.4418745,52.5970198],[56.444664,52.5821262],[56.4059962,52.5597265],[56.4293178,52.5437454],[56.3735877,52.5299606],[56.3815435,52.509094],[56.3510953,52.4969409],[56.3826542,52.4198619],[56.4326498,52.4284067],[56.4305702,52.4450737],[56.4434262,52.4453054],[56.4441551,52.4711664],[56.4961201,52.4469744],[56.4955401,52.4330425],[56.4619853,52.430641],[56.4598377,52.4151585],[56.4407196,52.4062663],[56.4330794,52.3815271],[56.4442277,52.3600545],[56.4444942,52.3431973],[56.4340809,52.3311105],[56.4540066,52.3178205],[56.4550195,52.298115],[56.4206554,52.2935201],[56.4027708,52.2830803],[56.3592062,52.280525],[56.314058,52.2560764],[56.3241085,52.2475208],[56.2739057,52.2312414],[56.2808912,52.2240858],[56.260863,52.2033386],[56.2379483,52.2186666],[56.200487,52.1653208],[56.2013518,52.1402014],[56.2681941,52.1219303],[56.340797,52.1297978],[56.3485409,52.1320843],[56.3516681,52.1588693],[56.3815752,52.1607168],[56.3857902,52.1722008],[56.4265684,52.1910736],[56.4203928,52.1941983],[56.4277714,52.2007362],[56.4723458,52.2139027],[56.4740122,52.1985845],[56.437057,52.1964215],[56.4347044,52.1903525],[56.448918,52.1841595],[56.3985202,52.160876],[56.4266703,52.1452594],[56.4709086,52.1688438],[56.5376446,52.1576288],[56.5443297,52.1485015],[56.6223897,52.1241541],[56.6177535,52.0995781],[56.5854695,52.0788253],[56.6031249,52.0647702],[56.6063811,52.0807111],[56.6440289,52.0971842],[56.682829,52.0670852],[56.7045979,52.0600578],[56.6831729,52.031904],[56.6818022,52.0123208],[56.6590637,51.9857451],[56.6539854,51.9597125],[56.6913236,51.9498914],[56.6947731,51.9389808],[56.7152114,51.9443796],[56.7343921,51.9122444],[56.7265571,51.9015445],[56.6891619,51.9096675],[56.6307891,51.899309],[56.6339114,51.8786555],[56.613295,51.8597473],[56.6073592,51.8312082],[56.6963332,51.8058417],[56.7420106,51.7711866],[56.7574014,51.7775068],[56.7748412,51.7659247],[56.7663291,51.7565495],[56.7809102,51.7381182],[56.7432544,51.7391988],[56.7582189,51.6964126],[56.7500432,51.6791325],[56.7710523,51.6692734],[56.7521201,51.631807],[56.7310732,51.615169],[56.7311751,51.5867551],[56.8141412,51.5874919],[56.8923021,51.6064332],[56.8952148,51.6472279],[56.8854445,51.6513844],[56.8861294,51.6771382],[56.8653884,51.7013062],[56.7971334,51.7479962],[56.8424808,51.7647727],[56.8782428,51.7375588],[56.8943549,51.7418442],[56.8988117,51.7351594],[56.9435489,51.7339601],[56.958461,51.7457873],[56.9692599,51.7361886],[56.9692603,51.7238474],[56.9968569,51.7205481],[56.9974146,51.6886637],[57.015324,51.6700138],[57.0397103,51.6632132],[57.0851125,51.6893932],[57.1605066,51.5757378],[57.2109261,51.571272],[57.2280993,51.5814968],[57.2253556,51.5902116],[57.3058371,51.6070905],[57.2935537,51.6295299],[57.3318614,51.649844],[57.3605497,51.6533015],[57.3991149,51.6806374],[57.4072745,51.6913956],[57.3959355,51.7272772],[57.4939399,51.7204928],[57.5294135,51.7324324],[57.5737346,51.7256473],[57.589882,51.7440715],[57.6352333,51.7545725],[57.640816,51.7672203],[57.6109246,51.7851072],[57.6138447,51.7944695],[57.6415878,51.8083416],[57.6452809,51.8197654],[57.6697601,51.8303734],[57.6586794,51.846693],[57.6390096,51.8538648],[57.6553289,51.8688104],[57.6772319,51.8598563],[57.7151968,51.8600285],[57.7251612,51.8343037],[57.7543651,51.8253711],[57.84378,51.8262311],[57.8443809,51.8379125],[57.9067394,51.8371402],[57.9550978,51.8215512],[57.9551845,51.7937863],[58.1095348,51.7918769],[58.1260267,51.7786281],[58.1144316,51.7616856],[58.1427768,51.7491026],[58.152569,51.7350807],[58.1444095,51.7245158],[58.1593551,51.7181599],[58.184178,51.7261482],[58.1856388,51.7349364],[58.257273,51.7334929],[58.2587327,51.7507788],[58.3134466,51.7522611],[58.3207468,51.7794249],[58.3290784,51.778566],[58.3291646,51.7702344],[58.4885127,51.7805922],[58.4898709,51.7708375],[58.5749052,51.7716974],[58.5747318,51.8270339],[58.6154453,51.826519],[58.6144128,51.8847545],[58.6556414,51.8930007],[58.6591861,52.0305548],[58.71282,52.0379833],[58.7130984,52.0797327],[58.6527155,52.0787872],[58.6515114,52.1300653],[58.6167245,52.1365927],[58.6612153,52.1994669],[58.6533985,52.2153141],[58.6639632,52.2217776],[58.655116,52.22779],[58.6684423,52.2986245],[58.6977151,52.297114],[58.7425545,52.2586696],[58.8847084,52.2444774],[58.8989667,52.2447352],[58.8914078,52.2536895],[58.9039476,52.2732088],[58.921126,52.2817339],[58.9414829,52.2762369],[58.9531642,52.2839889],[58.9455189,52.3101647],[58.9292847,52.3204717],[58.9443159,52.3263985],[58.9454276,52.3396888],[58.8370058,52.3557839],[58.8549267,52.4258061],[58.7961479,52.4317922],[58.7978496,52.4686167],[58.7701779,52.4711707],[58.781245,52.5203942],[58.8382913,52.5208206],[58.8389284,52.5659998],[58.8240275,52.5932987],[58.7812353,52.5920838],[58.7810294,52.6105929],[58.7510163,52.6110183],[58.7510148,52.6579003],[58.7801763,52.665191],[58.7761318,52.6705124],[58.7854972,52.683284],[58.7765569,52.6903082],[58.8046568,52.6950863],[58.7795339,52.7873184],[58.7627173,52.8106262],[58.7608004,52.8496324],[58.802945,52.8969939],[58.815077,52.9274859],[58.8123095,52.9403106],[58.8610541,52.9444087],[58.8391271,53.0240174],[58.9891322,53.019652],[58.9855739,53.0321609],[58.9923853,53.0364181],[58.9759948,53.0485509],[58.9134139,53.0560534],[58.9065975,53.2114398],[58.8722749,53.2018174],[58.8742323,53.2765458],[58.9010358,53.2768675],[58.8972227,53.49353],[58.9070142,53.4937962],[58.9063739,53.5477025],[58.8131415,53.5496704],[58.813353,53.5916035],[58.8258419,53.6023463],[58.8221286,53.6082928],[58.9068655,53.642514],[58.9039604,53.651094],[58.9114498,53.6566981],[58.9029644,53.6637102],[58.9125426,53.6781847],[58.9091364,53.6914351],[58.8831657,53.7464586],[58.9040258,53.7519932],[58.9255235,53.7848268],[58.907744,53.8626625],[58.9365886,53.8940231],[58.9648984,53.9078593],[58.9544678,53.9236639],[58.929137,53.9381379],[58.934033,53.9315394],[58.9106186,53.9287719],[58.9291364,53.9564969],[58.9482934,53.9669272],[59.0002316,53.951602],[59.0513172,53.9707598],[59.0904834,53.9673546],[59.1047453,53.9560732],[59.1398668,53.9650137],[59.1409309,53.9726766],[59.1881846,54.0035948],[59.1922282,54.0245082],[59.2247943,54.0652177],[59.2365015,54.0696878],[59.2848178,54.1498827],[59.3092963,54.1624416],[59.3256543,54.1877931],[59.3789009,54.1729257],[59.3991222,54.1835688],[59.5268377,54.1874017],[59.5981061,54.1604157],[59.6577843,54.1506675],[59.6623714,54.1427667],[59.7075963,54.1417713],[59.7107481,54.1900113],[59.7763075,54.2264641],[59.7892914,54.2443443],[59.7550934,54.3146165],[59.6717898,54.3396502],[59.7360713,54.400688],[59.7399009,54.4556587],[59.6702954,54.469334],[59.6464888,54.484027],[59.6766802,54.4983361],[59.6754024,54.5185576],[59.7109494,54.5335113],[59.7269132,54.5516576],[59.7577777,54.5563408],[59.8537755,54.6090243],[59.8971963,54.6846427],[59.8975576,54.7051601],[59.9469169,54.7698728],[59.9289603,54.7876295],[59.9382736,54.8178924],[60.0018089,54.8641348],[59.915283,54.869936],[59.8754793,54.8384325],[59.8590886,54.8541838],[59.842486,54.8418379],[59.8045967,54.8520546],[59.8045964,54.8582275],[59.7767118,54.860409],[59.7369062,54.8857386],[59.6883741,54.8885052],[59.660276,54.9079282],[59.6179759,54.9061115],[59.6008896,54.8670056],[59.5368198,54.8414086],[59.5200055,54.7955907],[59.5227732,54.779786],[59.4457196,54.7369474],[59.441463,54.7207169],[59.3810115,54.7026233],[59.2888449,54.6582413],[59.2915049,54.6377817],[59.2646852,54.6132997],[59.2345929,54.6237809],[59.1523117,54.6285758],[59.0664722,54.6497677],[58.953371,54.584813],[58.9209375,54.5833602],[58.9089739,54.5721092],[58.8392469,54.567094],[58.8059124,54.5507813],[58.7740955,54.5528564],[58.7390845,54.5376563],[58.714686,54.4781909],[58.5992717,54.4614327],[58.4366878,54.5440952],[58.4367844,54.5535485],[58.3859742,54.5605954],[58.2570659,54.5145368],[58.1640136,54.5101204],[58.1684627,54.5024368],[58.1162775,54.4587784],[58.0123553,54.3964611],[57.9840874,54.3965418],[57.9010052,54.4214939],[57.8255755,54.4861729],[57.7534145,54.5026887],[57.7553916,54.5201111],[57.7473041,54.5249014],[57.7580242,54.5316852],[57.7470094,54.5447456],[57.7636559,54.5630032],[57.7391424,54.5739892],[57.7455824,54.5820449],[57.6268348,54.617943],[57.6036848,54.6779813],[57.5197504,54.6540872],[57.4854413,54.6653723],[57.5154067,54.6920366],[57.4524178,54.7165637],[57.3967202,54.7192793],[57.386058,54.7360989],[57.2463869,54.7696024],[57.216442,54.7952975],[57.2177189,54.8018961],[57.2013286,54.8044502],[57.1627995,54.8487774],[57.1410877,54.852449],[57.2505534,54.9409327],[57.2596464,54.9605291],[57.215805,54.9722109],[57.2041374,54.9835557],[57.1947554,54.9743527],[57.1872425,54.9766871],[57.1939689,54.987181],[57.1918963,55.0061889],[57.1776937,55.0137426],[57.1837478,55.0348013],[57.1689655,55.0404562],[57.1642819,55.0581766],[57.1312877,55.0850495],[57.1564036,55.127249],[57.2106824,55.1351254],[57.2641088,55.170088],[57.2547429,55.1717907],[57.2598513,55.179028],[57.233031,55.1797194],[57.2125957,55.2008453],[57.211956,55.2302197],[57.2204702,55.2366056],[57.2398412,55.2148943],[57.2632555,55.2191517],[57.2326028,55.2463972],[57.246225,55.2660335],[57.2924155,55.2664598],[57.3156175,55.2566686],[57.3260475,55.2596488],[57.3398826,55.2797108],[57.3807511,55.2946114],[57.3939475,55.3172277],[57.507614,55.3274463],[57.5301008,55.3370193],[57.5680663,55.3193584],[57.6412906,55.3014792],[57.8828859,55.3023335],[57.9407839,55.2957356],[57.9697333,55.2804102],[58.0086865,55.2826988],[58.0231612,55.2765261],[58.0439186,55.2388555],[58.0787195,55.2215562],[58.1366176,55.2111268],[58.1319353,55.1940449],[58.0415376,55.1540959],[58.0058221,55.1634223],[57.9868,55.155508],[58.005871,55.141352],[57.9897514,55.1127562],[58.0023348,55.1112341],[58.0071699,55.1022887],[57.9952368,55.1012706],[57.9917897,55.091641],[58.0404104,55.0681914],[58.0294409,55.059835],[58.0233827,55.0389765],[58.0327489,55.027908],[58.0087793,54.9988497],[58.027003,54.9912963],[57.9993318,54.9778859],[57.983014,54.9844327],[57.9588886,54.9759165],[57.9529291,54.9601117],[57.9329207,54.9486171],[57.9637863,54.9211056],[57.9829434,54.9279173],[58.0050815,54.9061528],[58.0800072,54.9299938],[58.0827738,54.9465115],[58.1173186,54.9386276],[58.1142512,54.9464771],[58.1296836,54.9494368],[58.1232165,54.9609651],[58.1434376,54.9763444],[58.1410959,54.9816658],[58.1270472,54.9833685],[58.1255574,54.9754927],[58.1010782,54.9871997],[58.1335249,54.9979366],[58.0874543,55.0129553],[58.1490231,55.0185429],[58.1457961,55.0239963],[58.1541217,55.029282],[58.1808472,55.0311483],[58.1772852,55.0401617],[58.1521798,55.0373952],[58.167007,55.0512075],[58.1492531,55.0560854],[58.165623,55.0672022],[58.1912864,55.0682221],[58.2014761,55.0919936],[58.184031,55.0985195],[58.1542155,55.0833541],[58.1398002,55.0862313],[58.1397413,55.0979766],[58.1589717,55.1054962],[58.1288043,55.1259132],[58.1691169,55.1311652],[58.1946215,55.1491015],[58.2193365,55.1447844],[58.2487009,55.1707911],[58.2715286,55.1715411],[58.3616458,55.1422956],[58.3725836,55.1211662],[58.3469265,55.1038488],[58.4003551,55.0795304],[58.3792851,55.0657791],[58.4297302,55.0662803],[58.4388841,55.0387685],[58.422069,55.0179082],[58.4532786,54.99672],[58.4637899,55.0046583],[58.4752844,55.0016784],[58.5101925,55.0240289],[58.5484648,55.026735],[58.5255782,54.9952136],[58.4926191,54.9833267],[58.504528,54.9762667],[58.5668363,54.9709464],[58.5976801,54.9562879],[58.621954,54.9647078],[58.6527172,54.9586636],[58.7270877,54.9678638],[58.7309471,54.9961759],[58.8064926,55.0287153],[58.829204,55.0499254],[58.798403,55.0555886],[58.7334786,55.1201902],[58.6413095,55.1470625],[58.599029,55.1429594],[58.5885083,55.1466561],[58.6002734,55.1562991],[58.5752569,55.1609642],[58.5812348,55.1785662],[58.6089598,55.1816182],[58.6223039,55.1950171],[58.6523766,55.192295],[58.6435646,55.1750545],[58.656113,55.1609684],[58.6755323,55.1726061],[58.6916256,55.1721281],[58.6928947,55.1509556],[58.7153308,55.1400731],[58.7554015,55.16372],[58.7730671,55.2125711],[58.6930313,55.2319403],[58.7094197,55.2796739],[58.7253838,55.2896785],[58.9318581,55.2720137],[58.938882,55.2837209],[58.9333355,55.2944879],[58.8377735,55.2933516],[58.8469252,55.3268236],[58.9113143,55.3259348],[58.9305793,55.3170331],[58.9652755,55.3159693],[58.9663936,55.2625149],[58.9846476,55.2618503],[58.9854995,55.2480145],[58.9889048,55.2614246],[59.0159377,55.2693007],[59.0182786,55.2852651],[59.0342433,55.2771767],[59.0487171,55.295323],[59.0746861,55.2919176],[59.0774527,55.3066048],[59.0932042,55.3104897],[59.080645,55.3228353],[59.1044853,55.3224098],[59.101292,55.3328399],[59.1247062,55.3426316],[59.1781342,55.3345436],[59.1600409,55.3424192],[59.1843053,55.38696],[59.1442868,55.4125557],[59.1500335,55.425753],[59.1702552,55.4238375],[59.1730218,55.4398551],[59.1830261,55.4419838],[59.183238,55.4684315],[59.2813664,55.4639626],[59.3496936,55.4840253],[59.3728955,55.4780655],[59.3724695,55.4850898],[59.3860925,55.4859414],[59.3735337,55.4882827],[59.3803449,55.4980743],[59.4336929,55.4939938],[59.4310062,55.4770019],[59.4640736,55.4736187],[59.4920959,55.503397],[59.5789421,55.5165952],[59.5887701,55.5499638],[59.6425481,55.5584529],[59.6549303,55.5918947],[59.6476928,55.5993446],[59.601502,55.6057299],[59.5493519,55.5927449],[59.4684945,55.5948279],[59.4616534,55.6023225],[59.4714441,55.6270674],[59.4644191,55.6434574],[59.3909825,55.6447337],[59.3828947,55.6206806],[59.3354275,55.6095582],[59.2758279,55.5797574],[59.2496461,55.5814599],[59.2504966,55.6070029],[59.2764655,55.6059384],[59.2944417,55.6225771],[59.3365851,55.6327946],[59.322318,55.6522247],[59.3173333,55.6766784],[59.2888087,55.6779915],[59.2986113,55.7014535],[59.2756103,55.7091219],[59.3186061,55.7583991],[59.3183929,55.7671262],[59.2988483,55.7696515],[59.2898121,55.7835535],[59.2628587,55.7914132],[59.1357163,55.7894939],[59.133416,55.8200193],[59.1939017,55.8201635],[59.1923778,55.8283215],[59.2251193,55.8497628],[59.2075027,55.8650797],[59.2043396,55.8854653],[59.2344429,55.9033942],[59.2486366,55.924494],[59.2461629,55.9507047],[59.2162135,55.9518327],[59.2219593,55.9887104],[59.1925833,56.0251621],[59.2475797,56.0312178],[59.2415406,56.0360184],[59.2783653,56.0351674],[59.2817708,56.0434689],[59.286454,56.0347418],[59.3081653,56.0462896],[59.3000761,56.0586353],[59.3122092,56.057784],[59.3354998,56.0879331],[59.3144267,56.0875072],[59.3235433,56.1035929],[59.3351358,56.103183],[59.3280488,56.113315],[59.3420975,56.1123042],[59.3245484,56.1182303],[59.3190459,56.1289177],[59.3261253,56.1361208],[59.3139785,56.1466881],[59.3210059,56.1516962],[59.3234253,56.1440134],[59.3324232,56.1446225],[59.3326353,56.1646826],[59.3141168,56.1574458],[59.2795561,56.1594682],[59.2826139,56.1502089],[59.2649467,56.1452602],[59.2670758,56.1324898],[59.2585615,56.1309999],[59.1862377,56.1453691],[59.1627746,56.1337656],[59.1525567,56.14909],[59.0967874,56.1524948],[59.0614521,56.1689361],[59.0422818,56.1686893],[59.0385194,56.1280902],[58.9802751,56.0758063],[58.9005709,56.0539408],[58.8837461,56.0745375],[58.8345347,56.069043],[58.831888,56.084951],[58.7670858,56.0880903],[58.7347314,56.0810951],[58.7131093,56.0955907],[58.7139992,56.1168699],[58.6431523,56.1181106],[58.6366256,56.1340671],[58.5966274,56.1390757],[58.5815172,56.1661117],[58.557371,56.1731568],[58.5526575,56.1670273],[58.5090111,56.1715385],[58.4717748,56.1211247],[58.4234747,56.1210898],[58.4121644,56.1027944],[58.3835903,56.0815522],[58.3424701,56.0826898],[58.3579276,56.1106886],[58.3482455,56.1215083],[58.315013,56.1156467],[58.3051195,56.1040881],[58.2619677,56.1050916],[58.2421387,56.1178057],[58.1897222,56.1246114],[58.164289,56.1395182],[58.1293413,56.1324121],[58.1050071,56.1390469],[58.0723641,56.1152885],[57.9194825,56.1059685],[57.8957308,56.1221405],[57.9121727,56.1313904],[57.8603857,56.1487727],[57.7738167,56.1454524],[57.7221762,56.1274826],[57.6862416,56.1366225],[57.6593257,56.1170337],[57.6534076,56.0960007],[57.6111301,56.0952956],[57.5976238,56.0853868],[57.5749797,56.0954493],[57.5160961,56.0972385],[57.5100956,56.1000586],[57.5154095,56.1066653],[57.4664816,56.1269749],[57.4801749,56.1417669],[57.4761532,56.15535],[57.4897094,56.1599539],[57.4868317,56.187861],[57.505828,56.1923221],[57.5057578,56.1995851],[57.4983769,56.210195],[57.4581715,56.2164381],[57.4516809,56.2358233],[57.4421526,56.2407331],[57.4458567,56.2460002],[57.4102968,56.2613534],[57.4128408,56.2939258],[57.4325038,56.3130922],[57.4082247,56.3399529],[57.3932662,56.3309687],[57.3482043,56.3305659],[57.3531765,56.3208139],[57.3411883,56.3140516],[57.2988627,56.3208259],[57.3063573,56.3104728],[57.2848409,56.3050905],[57.2982544,56.2722851],[57.2470808,56.2711986],[57.2197066,56.2491779],[57.1955532,56.2509255],[57.2056623,56.2275767],[57.2276928,56.2298411],[57.2067661,56.2197515],[57.216504,56.2086712],[57.2002954,56.1966185],[57.2274909,56.1995879],[57.2357063,56.1935938],[57.2035372,56.1885753],[57.2004983,56.1812384],[57.2101319,56.1779269],[57.2041346,56.1695596],[57.1866245,56.1718104],[57.1614774,56.1605073],[57.1448482,56.1659514],[57.0638637,56.1589781],[57.0451359,56.1509021],[57.0398351,56.1399817],[57.0464164,56.1267477],[57.0073874,56.1365842],[56.9240984,56.1052433],[56.8826858,56.1112882],[56.8657501,56.1497782],[56.8499581,56.1663017],[56.7824061,56.1646363],[56.7693358,56.1937513],[56.7469744,56.2096089],[56.7581603,56.2190497],[56.7313451,56.2222061],[56.7249766,56.2308939],[56.6535564,56.2327095],[56.6485252,56.2420473],[56.6580957,56.2450234],[56.6379752,56.2511873],[56.6537632,56.256081],[56.6516853,56.2632377],[56.645195,56.2581237],[56.6224173,56.2658443],[56.5942879,56.2639518],[56.5969342,56.27393],[56.5060224,56.3440526],[56.5351087,56.3499764],[56.532557,56.3615858],[56.5721757,56.3891313],[56.5325776,56.3971379],[56.5042319,56.3762697],[56.4838295,56.3884641],[56.460785,56.3656059],[56.4420218,56.3815464],[56.4356854,56.3739856],[56.4257962,56.3758417],[56.4315604,56.3867521],[56.4060984,56.4053638],[56.3620669,56.3884735],[56.3780045,56.3616896],[56.3244318,56.3653],[56.3214158,56.3412778],[56.2820746,56.3155394],[56.2860682,56.3045306],[56.2277913,56.3134457],[56.2352945,56.3216691],[56.2234444,56.3249931],[56.2184424,56.3165498],[56.1229915,56.3108695],[56.1244929,56.3002876],[56.0812082,56.2902891],[56.0510526,56.3143215],[56.0417569,56.3400535],[56.017477,56.3397243],[55.9519316,56.3733251],[55.9414001,56.3886848],[55.9465395,56.4068312],[55.931373,56.4194965],[55.9199228,56.449561],[55.9083669,56.456239],[55.8790653,56.4568087],[55.86697,56.4429749],[55.8779853,56.4406258],[55.874538,56.4328505],[55.8367699,56.4206326],[55.7739388,56.4459761],[55.7461805,56.4333696],[55.7072949,56.4357234],[55.6918199,56.4085431],[55.5220785,56.3808971],[55.5088325,56.3617124],[55.4612536,56.3330746],[55.4218003,56.3310544],[55.40229,56.3200485],[55.3682205,56.3237619],[55.3262973,56.3117632],[55.3118241,56.3203476],[55.2818357,56.3207698],[55.2417549,56.337052],[55.2054322,56.3724153],[55.1867233,56.3587436],[55.2005106,56.3287367],[55.1965697,56.3073811],[55.1426347,56.3115151]]]}}]}