{"type": "FeatureCollection", "features": [{"type": "Feature", "properties": {"slug": "tuzla", "members": 2, "country": "Bosnia-Herzegovina", "input_hash": "10807c4e7da75f39"}, "geometry": {"type": "Polygon", "coordinates": [[[18.7535741, 44.5027308], [18.7514385, 44.4849061], [18.739309, 44.4652128], [18.744667, 44.4560027], [18.7231652, 44.4449862], [18.7338008, 44.438461], [18.7237917, 44.4318927], [18.782732, 44.4219901], [18.784021, 44.4284703], [18.8009375, 44.4281895], [18.8043391, 44.4182442], [18.8237661, 44.4158615], [18.825315, 44.4070507], [18.8122368, 44.3935992], [18.8192682, 44.3782179], [18.7854226, 44.3633898], [18.7563094, 44.3665918], [18.7500389, 44.35058], [18.7352583, 44.3406506], [18.7101762, 44.355384], [18.7012183, 44.3444944], [18.6662825, 44.3550638], [18.6069077, 44.3207765], [18.5693585, 44.3362547], [18.5663874, 44.36358], [18.5496371, 44.3801985], [18.5642786, 44.392382], [18.5680628, 44.4260887], [18.5409457, 44.4326091], [18.5389607, 44.4506238], [18.5189249, 44.446585], [18.5077391, 44.4597089], [18.5737952, 44.5117204], [18.5700278, 44.5332873], [18.5537674, 44.5459783], [18.5478446, 44.5626461], [18.5570076, 44.5769143], [18.5506544, 44.6118758], [18.5843113, 44.6044516], [18.6017229, 44.6477501], [18.6326562, 44.6612118], [18.6472033, 44.656835], [18.662018, 44.6341021], [18.679437, 44.6336514], [18.7152252, 44.6056982], [18.7535573, 44.6097988], [18.7933557, 44.5920662], [18.7857194, 44.5861741], [18.7918575, 44.5715048], [18.8307882, 44.5685339], [18.8488225, 44.5575409], [18.8517227, 44.5376592], [18.8361812, 44.5341712], [18.8318534, 44.5209117], [18.8040873, 44.5195232], [18.7740589, 44.5001505], [18.7535741, 44.5027308]], [[18.7420478, 44.5056845], [18.745503964410396, 44.5053471290511], [18.7361419, 44.5083823], [18.7420478, 44.5056845]], [[18.5547681, 44.4884732], [18.5704445, 44.4839997], [18.55238536543932, 44.489636176060074], [18.5547681, 44.4884732]]]}}]}