{"type":"FeatureCollection","features":[{"type":"Feature","properties":{"slug":"ube","member_count":2,"matched_count":1,"unmatched":["San'y\u014d-Onoda (JP-35, type='City')"],"source":"Overture Maps division_area (CC-BY 4.0)"},"geometry":{"type":"Polygon","coordinates":[[[131.212964,34.114988],[131.216191,34.075607],[131.183532,34.052261],[131.199146,34.03741],[131.226875,34.027814],[131.186059,33.988865],[131.187683,33.958148],[131.19936117912715,33.942740031157584],[131.2240045,33.9489851],[131.22782239999998,33.96405659999997],[131.2260394,33.946717],[131.2332246,33.954011],[131.22715119999998,33.94472849999996],[131.2153054,33.93668890000002],[131.2312393,33.93779379999999],[131.23898410000004,33.95144759999999],[131.2469148,33.94053639999997],[131.2339886,33.93642960000001],[131.232545,33.92706839999998],[131.252486,33.93685050000003],[131.2494779,33.9274088],[131.26838909999998,33.92289609999999],[131.3149,33.953671],[131.33011,33.952026],[131.356178,33.966189],[131.348032,33.981945],[131.360697,33.985586],[131.36325337823075,33.996993087414275],[131.34877850000004,34.0027271],[131.31348,33.99441],[131.292019,34.001083],[131.304879,34.014972],[131.306661,34.031852],[131.349681,34.074935],[131.351872,34.098679],[131.345133,34.107297],[131.369982,34.107747],[131.379311,34.121165],[131.376304,34.131905],[131.318587,34.15023],[131.325241,34.160733],[131.318208,34.166167],[131.310773,34.161147],[131.293733,34.166705],[131.273702,34.141273],[131.241442,34.14119],[131.237688,34.1272],[131.212964,34.114988]]]}}]}