{"type":"FeatureCollection","features":[{"type":"Feature","properties":{"slug":"udine","member_count":134,"matched_count":134,"unmatched":[],"source":"Overture Maps division_area (CC-BY 4.0)"},"geometry":{"type":"Polygon","coordinates":[[[12.9895918,45.7960353],[12.9739187,45.8066193],[12.9786407,45.8142914],[12.9886722,45.8088896],[12.9931579,45.815354],[12.9734151,45.8201098],[12.9847346,45.8264026],[12.9691247,45.8282979],[12.9849114,45.8322055],[12.9753808,45.8405465],[12.9817328,45.8515743],[12.9738393,45.8730876],[12.9222033,45.9025247],[12.9038193,45.9646818],[12.915436,46.0208963],[12.9169303,46.0775416],[12.9635665,46.194538],[12.9383645,46.2116511],[12.9564335,46.2127398],[12.9588247,46.2264982],[12.9751634,46.2362359],[12.9759423,46.2678812],[12.9906991,46.2731956],[12.9665742,46.2837497],[12.9532221,46.3004979],[12.9759156,46.3178392],[12.9733863,46.3284516],[12.9589742,46.3370277],[12.9366806,46.3332763],[12.9148169,46.347024],[12.9065697,46.3342763],[12.8827457,46.3299915],[12.8741976,46.3324673],[12.8793261,46.3421915],[12.8359814,46.3435318],[12.8094809,46.3596224],[12.7776121,46.3550496],[12.7812577,46.3462242],[12.7288972,46.3367339],[12.7078978,46.3252075],[12.6935303,46.343873],[12.6766603,46.3489012],[12.6476178,46.3368328],[12.6262937,46.3480209],[12.6110314,46.3426537],[12.5944702,46.3488152],[12.604926,46.3559863],[12.5850373,46.3679899],[12.5573308,46.3686541],[12.5421586,46.3609308],[12.5299592,46.3683823],[12.5201765,46.397994],[12.4951838,46.4175259],[12.5002242,46.4357935],[12.5304459,46.4485979],[12.5307856,46.4646812],[12.5400182,46.4563324],[12.5686079,46.4766687],[12.6063812,46.4640075],[12.6242067,46.4752252],[12.6615667,46.4677338],[12.6534771,46.4852018],[12.6300772,46.5010857],[12.6188721,46.5403417],[12.6289865,46.5620379],[12.6439581,46.5764638],[12.6555571,46.5709567],[12.6877813,46.6004257],[12.7085782,46.602128],[12.7095394,46.6244078],[12.7625466,46.6479528],[12.7939512,46.6429272],[12.818988,46.6281833],[12.8312711,46.6313045],[12.8372865,46.6272574],[12.8334422,46.6103701],[12.8426032,46.6063533],[12.927878,46.610562],[12.9488921,46.6022459],[13.0214992,46.6022284],[13.0466232,46.5953033],[13.0837431,46.6020548],[13.1463337,46.5870975],[13.1686047,46.5889037],[13.1932291,46.572348],[13.2173526,46.5704978],[13.23979,46.5517007],[13.2694727,46.5612599],[13.3205735,46.5512327],[13.344723,46.570001],[13.3704904,46.5669938],[13.3722403,46.5792771],[13.4098573,46.5720601],[13.407502,46.5614953],[13.4265844,46.5576034],[13.4747245,46.5573486],[13.5042521,46.5663077],[13.5053889,46.5559271],[13.519886,46.5469057],[13.560953,46.5518894],[13.5709177,46.538851],[13.5973816,46.5456907],[13.6804148,46.5216896],[13.7140783,46.52299],[13.7166022,46.5067564],[13.7024979,46.4987457],[13.7031548,46.4847992],[13.7101518,46.4817921],[13.69365,46.4678835],[13.6988327,46.4568032],[13.6892561,46.4399844],[13.6546659,46.4394708],[13.6490386,46.4467062],[13.5977455,46.4393784],[13.5823664,46.4311457],[13.5779211,46.4087142],[13.5655372,46.3979705],[13.4697533,46.3610257],[13.4387472,46.3600052],[13.4494466,46.3348316],[13.439627,46.3226608],[13.4159519,46.3166274],[13.417665,46.3055188],[13.3754912,46.2982331],[13.3924248,46.2824441],[13.3984214,46.2534888],[13.4228642,46.2345293],[13.4113532,46.2273773],[13.416656,46.2227111],[13.411441,46.2118003],[13.4462556,46.2127338],[13.4460109,46.2257812],[13.4848767,46.2244589],[13.5025971,46.2156711],[13.5290686,46.2189044],[13.5294695,46.2121701],[13.5619242,46.2042205],[13.5669886,46.1857649],[13.5920821,46.1931001],[13.5898527,46.1882839],[13.6145806,46.1843263],[13.6336125,46.1917847],[13.655315,46.1860002],[13.6666824,46.174044],[13.6444473,46.1376105],[13.5727685,46.0884605],[13.5445369,46.0830948],[13.5301666,46.0665479],[13.4965071,46.0585022],[13.4978374,46.0514778],[13.4786818,46.0373505],[13.4711429,46.0118408],[13.4599865,46.005087],[13.4682968,45.9979599],[13.4651328,45.9847932],[13.4565407,45.988187],[13.4368959,45.9732207],[13.4429949,45.9575643],[13.4250106,45.9537673],[13.4308335,45.9481685],[13.4194715,45.9415946],[13.422684,45.9321725],[13.3876384,45.9130027],[13.4261055,45.8679677],[13.4060977,45.8575106],[13.4183978,45.8403154],[13.4292245,45.8391312],[13.425626,45.813449],[13.4426787,45.7886283],[13.4197864,45.7570816],[13.4344432,45.760563],[13.4492428,45.74806],[13.4619276,45.7499424],[13.4127089,45.7421305],[13.404394,45.7387647],[13.4066998,45.7258854],[13.3899807,45.7235956],[13.3660385,45.7325285],[13.3720721,45.7373884],[13.3261986,45.7376484],[13.3147295,45.7477228],[13.2744158,45.7471777],[13.2401518,45.7571536],[13.2481793,45.707324],[13.2459844,45.7134069],[13.1803992,45.7131514],[13.1707711,45.7034496],[13.1546457,45.7034287],[13.1509341,45.6917178],[13.1089948,45.6622857],[13.1018678,45.644003],[13.0791025,45.6493859],[13.0820696,45.6590811],[13.062765,45.6564578],[13.0661187,45.674633],[13.043852,45.6844641],[13.0531631,45.6943788],[13.0362364,45.6997009],[13.0473188,45.701727],[13.0398192,45.7205461],[13.0275045,45.7265461],[13.0293519,45.7365233],[13.0078467,45.725419],[13.0156478,45.7412006],[13.0017095,45.7480759],[13.0059327,45.754296],[12.999385,45.759307],[13.0123326,45.7627536],[12.9721485,45.7895537],[12.9895918,45.7960353]]]}}]}