{"type":"FeatureCollection","features":[{"type":"Feature","properties":{"slug":"ukiah","member_count":1,"matched_count":1,"unmatched":[],"source":"Overture Maps division_area (CC-BY 4.0)"},"geometry":{"type":"Polygon","coordinates":[[[-122.9349732,39.9774876],[-123.5447623,39.9769628],[-123.5445107,40.0019795],[-124.134889,40.00247],[-124.115214,39.9824],[-124.078596,39.972263],[-124.035355,39.931073],[-124.005454,39.889286],[-123.982946,39.876778],[-123.9536,39.826991],[-123.910529,39.799575],[-123.90097,39.780466],[-123.904018,39.757083],[-123.893216,39.704784],[-123.857183,39.674693],[-123.852516,39.592371],[-123.834649,39.549194],[-123.852648,39.514849],[-123.867826,39.508305],[-123.875126,39.494179],[-123.888895,39.443939],[-123.894936,39.348349],[-123.850092,39.231396],[-123.840771,39.187335],[-123.80921,39.141043],[-123.761965,39.041091],[-123.763148,39.00869],[-123.797217,38.989863],[-123.80986,38.961219],[-123.784676,38.893728],[-123.632497,38.758119],[-123.5336382,38.7687677],[-123.5199051,38.7584345],[-123.4995484,38.7789745],[-123.3682375,38.7771755],[-123.368385,38.8065028],[-123.13602,38.8089741],[-123.136445,38.8395762],[-123.0812697,38.8382842],[-123.0808357,38.8522205],[-122.8187213,38.8514843],[-122.8176736,38.8605441],[-122.8382983,38.8574065],[-122.8366312,38.8649461],[-122.8566646,38.8648741],[-122.8562877,38.8725051],[-122.8757554,38.8729573],[-122.8751559,38.8811826],[-122.8948515,38.880834],[-122.8930705,38.895094],[-122.9485817,38.9011093],[-122.9491904,38.9254158],[-122.9619948,38.9254478],[-122.9602584,38.9323949],[-122.9700156,38.9326188],[-122.9684183,38.946446],[-122.9777937,38.9466194],[-122.9775591,38.9827269],[-122.9868304,38.9829086],[-122.9868649,38.9971192],[-123.028212,38.9966486],[-123.0283249,39.0065607],[-123.0564591,39.0208923],[-123.0561728,39.0497057],[-123.0653744,39.049647],[-123.0651488,39.0642182],[-123.0837949,39.0642921],[-123.0941684,39.0803378],[-123.0941254,39.0950394],[-123.0849753,39.0950147],[-123.0875537,39.1383741],[-123.0784388,39.1384615],[-123.0778834,39.1736768],[-123.0459204,39.1733914],[-123.0208503,39.2208767],[-123.0127774,39.2210713],[-123.0127773,39.2363133],[-122.9944171,39.2358676],[-122.9944867,39.256953],[-123.0042092,39.257129],[-123.0051386,39.2783404],[-123.0200088,39.2777353],[-123.01994,39.3217485],[-123.0290376,39.321607],[-123.028873,39.3362947],[-123.0380135,39.336193],[-123.0378493,39.3637431],[-123.0486483,39.3637755],[-123.0475635,39.3784813],[-123.0569991,39.3784727],[-123.0564964,39.4074015],[-123.0750124,39.4075491],[-123.0725306,39.4524007],[-123.0628424,39.4523792],[-123.0630172,39.5035407],[-123.0248131,39.5113534],[-123.025091,39.5188321],[-122.9367637,39.5165775],[-122.9368331,39.5309493],[-122.8905469,39.5293647],[-122.8851307,39.6111345],[-122.8940902,39.7090952],[-122.9120245,39.7093807],[-122.9121119,39.7477376],[-122.9382494,39.7477681],[-122.9375999,39.7981936],[-122.9464461,39.8330134],[-122.9600925,39.845088],[-122.9508395,39.8676907],[-122.951309,39.905781],[-122.9205968,39.9162064],[-122.9205793,39.9290593],[-122.910041,39.9363766],[-122.9268645,39.9450741],[-122.9269867,39.9712796],[-122.9349732,39.9774876]]]}}]}