{"type":"FeatureCollection","features":[{"type":"Feature","properties":{"slug":"ulanhad","member_count":11,"matched_count":6,"unmatched":["F\u0113ngzh\u00e8n Sh\u00ec (CN-NM, type='County-level City')","S\u00ecziw\u00e1ng Q\u00ed [Dorbod] (CN-NM, type='Banner')","Ch\u00e1h\u0101'\u0115r Y\u00f2uy\u00ec Qi\u00e1nq\u00ed [Chahar Right Front Banner] (CN-NM, type='Banner')","Ch\u00e1h\u0101'\u0115r Y\u00f2uy\u00ec H\u00f2uq\u00ed [Chahar Right Back Banner] (CN-NM, type='Banner')","Ch\u00e1h\u0101'\u0115r Y\u00f2uy\u00ec Zh\u014dngq\u00ed [Chahar Right Middle Banner] (CN-NM, type='Banner')"],"source":"Overture Maps division_area (CC-BY 4.0)"},"geometry":{"type":"MultiPolygon","coordinates":[[[[112.8522408,40.7507279],[112.8303052,40.7332203],[112.8399899,40.7227484],[112.8220414,40.6908639],[112.8259787,40.6648051],[112.8398514,40.6409544],[112.7962823,40.6537768],[112.8092461,40.6217973],[112.8599965,40.5977838],[112.9263317,40.6049218],[112.9372627,40.5944924],[112.9551426,40.5954655],[112.9865012,40.5650671],[113.0159238,40.56312],[113.0229128,40.5542734],[113.002726,40.5518263],[112.9868845,40.5394275],[112.994867,40.4995263],[112.9802117,40.484736],[112.9423776,40.4871961],[112.9139075,40.4676451],[112.9122781,40.4589294],[112.9239924,40.4529387],[112.9186845,40.4401384],[112.959472,40.4210582],[112.9755663,40.351685],[112.889921,40.3263014],[112.8874898,40.297726],[112.8465102,40.2019954],[112.750559,40.1648533],[112.7256728,40.1645072],[112.7140688,40.1773616],[112.6785321,40.1906848],[112.6193061,40.2375054],[112.5178517,40.2625542],[112.4567098,40.2984583],[112.4053484,40.2942404],[112.3852092,40.2718977],[112.3632238,40.2670098],[112.353747,40.2553228],[112.3035776,40.2551539],[112.2986616,40.2742143],[112.2803852,40.2806722],[112.2777532,40.2929002],[112.2860064,40.3070824],[112.2755345,40.3279222],[112.2591332,40.3292719],[112.264087,40.3556169],[112.2291936,40.3540284],[112.2587472,40.3923809],[112.2410897,40.397041],[112.2114577,40.4264301],[112.2180998,40.4476235],[112.1778723,40.4622123],[112.1321876,40.5093372],[112.105656,40.5077067],[112.0776452,40.5399372],[112.0457651,40.5586377],[112.0507818,40.5822496],[112.0792812,40.5743603],[112.0922469,40.5871961],[112.0805936,40.6178345],[112.0401874,40.6425838],[112.0383051,40.6542148],[112.0747554,40.6659264],[112.1083903,40.6574577],[112.1046377,40.6851421],[112.1236051,40.6970091],[112.1139366,40.7150778],[112.0984959,40.7176861],[112.0982476,40.7293915],[112.0859317,40.7384322],[112.1441133,40.7614572],[112.1503929,40.7942772],[112.1778589,40.8179027],[112.1722738,40.8316991],[112.1817267,40.8379857],[112.1809166,40.8488718],[112.1470197,40.8798916],[112.1575825,40.9011055],[112.1407331,40.9002434],[112.1385396,40.9378673],[112.1265594,40.9421562],[112.1176663,40.9601805],[112.0880926,40.9463822],[112.0347548,40.9676618],[112.0284269,40.9874088],[112.0110177,41.0024722],[112.0185502,41.0253542],[112.0294567,41.0309448],[112.0273083,41.0456832],[111.9241511,41.0929685],[111.9023716,41.1119782],[111.9109246,41.1175626],[111.9021926,41.1201766],[111.9119572,41.1214566],[111.873485,41.1294325],[111.8557561,41.1890004],[111.8624347,41.203307],[111.8529693,41.2168175],[111.8787994,41.2241722],[111.9029188,41.1937081],[111.9138257,41.1927923],[111.923092,41.2025334],[111.916944,41.2252573],[111.9262099,41.2545745],[111.9587415,41.2617769],[112.0005427,41.2401973],[112.043772,41.2499544],[112.074623,41.2366446],[112.0763077,41.2294466],[112.1021492,41.2381649],[112.1074182,41.2548102],[112.1187803,41.2424011],[112.1476823,41.2367904],[112.193648,41.199519],[112.2280847,41.1856395],[112.2501599,41.1580346],[112.2637529,41.1585784],[112.2743924,41.1386042],[112.3154592,41.1285329],[112.3240811,41.1358974],[112.3485701,41.1368153],[112.3712392,41.1142132],[112.3867118,41.1131859],[112.3518367,41.0971732],[112.3465015,41.0682815],[112.3126162,41.07068],[112.32165,41.055042],[112.3540507,41.0538244],[112.3778717,41.0278704],[112.3892605,41.0251277],[112.4516059,41.0374171],[112.5043069,41.0190928],[112.5442674,41.0287191],[112.5947074,41.022083],[112.6096815,41.0541443],[112.6253493,41.0649295],[112.584057,41.0934094],[112.5901017,41.1021324],[112.5813363,41.1147568],[112.5876462,41.1263365],[112.6350008,41.1126991],[112.697259,41.1367202],[112.7037269,41.1527266],[112.714723,41.1507504],[112.734108,41.1221006],[112.7273976,41.1004602],[112.7381934,41.0861868],[112.7334228,41.0782105],[112.7416085,41.0815038],[112.7460213,41.0662299],[112.7664919,41.0818523],[112.7624419,41.0886105],[112.7772552,41.1037352],[112.8063432,41.1079332],[112.8078208,41.0848597],[112.8249557,41.0612266],[112.8613007,41.0592236],[112.8801596,41.0480507],[112.8741857,41.0264279],[112.8371959,41.0187072],[112.8221446,41.0031322],[112.8894877,40.9868432],[112.9152816,40.9924532],[112.933714,40.9740631],[112.9316178,40.9612437],[112.9544449,40.9309552],[112.9035715,40.9165922],[112.9245013,40.8787174],[112.8909972,40.8564152],[112.8859581,40.8388952],[112.892725,40.8049725],[112.9043957,40.8036444],[112.8946186,40.800256],[112.88448,40.7704518],[112.9006156,40.7566401],[112.8878829,40.7555766],[112.8738631,40.7695013],[112.8631695,40.7691479],[112.8522408,40.7507279]]],[[[113.8183827,41.0958336],[113.8355172,41.0739858],[113.8561553,41.0772328],[113.8636101,41.0596903],[113.9163848,41.0320358],[113.9122296,41.02422],[113.9209677,41.0131391],[113.9504117,41.0034327],[113.960807,40.9868415],[113.9688075,40.9937443],[113.9763888,40.9419903],[113.9902495,40.9363385],[113.9939221,40.9464642],[114.0064289,40.9330361],[114.0484996,40.9275383],[114.031702,40.9176286],[114.0453792,40.8917091],[114.0461736,40.8638882],[114.0693738,40.8529547],[114.0380135,40.8295102],[114.0732923,40.7889191],[114.0975585,40.7959393],[114.0981468,40.7570839],[114.1265557,40.7449525],[114.1096648,40.7334179],[114.088357,40.7404482],[114.0541795,40.7187059],[114.0536106,40.7025735],[114.0649859,40.6865556],[114.06115,40.6417139],[114.0345411,40.608502],[114.0492737,40.5899478],[114.0714184,40.5794701],[114.0683655,40.5612532],[114.0777704,40.5548391],[114.0688821,40.53978],[114.0110251,40.5181306],[113.9654065,40.5251167],[113.949036,40.5200302],[113.9348346,40.5003552],[113.8946855,40.4769602],[113.8914778,40.4636868],[113.8634133,40.4483108],[113.8174985,40.498946],[113.7848628,40.520446],[113.7884459,40.5474116],[113.7734542,40.5476645],[113.7615412,40.5847931],[113.7227884,40.6201087],[113.6873405,40.6122557],[113.6754232,40.6308585],[113.6613718,40.6355708],[113.6252423,40.6469729],[113.5950662,40.644048],[113.5656629,40.6608015],[113.5199613,40.6666866],[113.50539,40.7022574],[113.4898019,40.7113063],[113.4901053,40.7468398],[113.5028685,40.7627304],[113.497655,40.7769623],[113.5089618,40.7917318],[113.5351116,40.7954858],[113.5274387,40.817224],[113.4934384,40.8375468],[113.5073382,40.8388115],[113.5167931,40.8551519],[113.5347796,40.8490109],[113.5512988,40.8572535],[113.5542079,40.8883367],[113.5834836,40.8991982],[113.5508527,40.9420438],[113.5824877,41.0033982],[113.6040606,41.0091186],[113.6342853,41.0335029],[113.6324469,41.0525449],[113.6106001,41.0570584],[113.6036732,41.0791159],[113.6190681,41.1010395],[113.6417863,41.08622],[113.6623026,41.0975203],[113.6472112,41.1142088],[113.5716593,41.1323091],[113.5750245,41.1427938],[113.6094431,41.1570353],[113.6141704,41.1661282],[113.6008155,41.1790039],[113.5679096,41.1702846],[113.5688764,41.1927723],[113.5539467,41.2028091],[113.5323415,41.1974813],[113.5297076,41.2049536],[113.5138237,41.2039835],[113.5077649,41.1925999],[113.4556758,41.1999271],[113.4498299,41.2072097],[113.4122453,41.2015038],[113.4043582,41.2174634],[113.4160808,41.2252924],[113.4065811,41.249809],[113.3900557,41.2644297],[113.3505967,41.273059],[113.3593177,41.2962804],[113.3815428,41.3108376],[113.3858222,41.3302694],[113.4118795,41.3471513],[113.435439,41.3787606],[113.4689935,41.3919718],[113.4597267,41.400235],[113.4647072,41.4094918],[113.482538,41.4141961],[113.448755,41.4261942],[113.4602435,41.4323473],[113.4619636,41.4483498],[113.4434144,41.4575314],[113.4350676,41.4442238],[113.4311981,41.4546731],[113.4133949,41.451671],[113.3927236,41.4605402],[113.3741304,41.4519634],[113.4200167,41.4396343],[113.4258605,41.4275858],[113.4130297,41.4182383],[113.3815085,41.4116944],[113.3756239,41.4205579],[113.3491986,41.420125],[113.3248304,41.4061069],[113.2995661,41.4064099],[113.2947555,41.4106754],[113.3069922,41.4252933],[113.3297061,41.4336439],[113.3485697,41.4273273],[113.3677206,41.4448306],[113.3435954,41.4641254],[113.317642,41.4480272],[113.2948127,41.4757344],[113.3378816,41.4724777],[113.3853291,41.4829164],[113.4233727,41.4649378],[113.4578926,41.4596583],[113.5114955,41.4904834],[113.502155,41.5108352],[113.4792969,41.5137565],[113.4609181,41.5040593],[113.4622402,41.4900351],[113.4442965,41.4858919],[113.4292179,41.5134209],[113.4350517,41.5279265],[113.4479139,41.534852],[113.4248068,41.5460375],[113.4246744,41.5267056],[113.4077601,41.5212733],[113.4037067,41.5533184],[113.408831,41.5573546],[113.3953772,41.5795987],[113.4035634,41.591325],[113.3896875,41.6074899],[113.3621547,41.605238],[113.3679186,41.592955],[113.3543083,41.5870195],[113.3633359,41.5662967],[113.3945998,41.5491308],[113.3963119,41.5402561],[113.3728999,41.5434259],[113.38091,41.5349401],[113.3762498,41.5318263],[113.3337624,41.5323074],[113.2994918,41.5566285],[113.3115194,41.5759806],[113.2726046,41.5621281],[113.2452035,41.5886807],[113.2517533,41.6054024],[113.2368684,41.6333834],[113.2419817,41.6529533],[113.2187016,41.6565297],[113.218167,41.6775339],[113.2371781,41.6804951],[113.2374953,41.6687982],[113.2477328,41.672664],[113.2469212,41.6872476],[113.2287452,41.6905126],[113.2290717,41.6992064],[113.2562967,41.7022112],[113.2554025,41.7149208],[113.2456468,41.7189506],[113.253196,41.7287304],[113.2117435,41.7510243],[113.164915,41.7588408],[113.1514306,41.7923744],[113.1803126,41.8190098],[113.2009005,41.8226407],[113.1992784,41.8357138],[113.1587585,41.8430197],[113.1404725,41.8572752],[113.1416616,41.8640946],[113.1242374,41.8711421],[113.1503193,41.8899771],[113.1688843,41.8909503],[113.1674334,41.8959676],[113.1795114,41.8814662],[113.2052216,41.8774765],[113.257413,41.8907435],[113.2421193,41.9002043],[113.2372988,41.8921956],[113.2373051,41.9013101],[113.207963,41.9097836],[113.2136842,41.9317478],[113.2085004,41.9331222],[113.2191892,41.9485643],[113.2050191,41.9504442],[113.1571191,41.9880556],[113.2090975,42.0094832],[113.2526394,42.0426505],[113.2819739,42.0821412],[113.3649874,42.1415041],[113.5282904,42.1327619],[113.559133,42.1169026],[113.5655487,42.1298163],[113.6377028,42.1076279],[113.7036663,42.1305579],[113.7210088,42.1238664],[113.7323913,42.0946389],[113.7882768,42.0628209],[113.9058228,42.0550039],[113.9092788,42.0483094],[113.8975828,42.0302314],[113.9080273,42.0035169],[113.9064338,41.9841124],[113.9384003,41.9670564],[113.9531098,41.9487189],[113.9999998,41.9758569],[114.0519638,41.9627799],[114.0623628,41.9890634],[114.0875473,41.9895934],[114.0478133,42.0338059],[114.0620498,42.0814359],[114.1054383,42.1328774],[114.1341018,42.1236344],[114.2154693,42.1305274],[114.2348633,42.1670339],[114.2778928,42.1888999],[114.3152868,42.1785352],[114.3144082,42.1869081],[114.3629254,42.1594202],[114.3702277,42.1496379],[114.3706709,42.1075269],[114.4385304,42.0960198],[114.4727698,42.1125144],[114.4587238,42.1684019],[114.4317484,42.1690561],[114.39944,42.197563],[114.5118868,42.2290419],[114.5541376,42.2685398],[114.5688703,42.2941053],[114.6449933,42.2666586],[114.6663325,42.2781034],[114.6791753,42.2712086],[114.6827506,42.2623445],[114.6634047,42.2459299],[114.6802368,42.2192269],[114.6701024,42.1958918],[114.7521525,42.215674],[114.7932553,42.2051236],[114.8015513,42.197729],[114.7976058,42.1878698],[114.7830168,42.1845857],[114.796931,42.1731976],[114.8009461,42.1466242],[114.7874514,42.147156],[114.7831976,42.1294591],[114.7494377,42.1130043],[114.6691132,42.1184616],[114.6409608,42.1067295],[114.5649719,42.1318588],[114.5052468,42.1077133],[114.4946077,42.0833129],[114.4954741,42.0640014],[114.4854498,42.0565369],[114.4742249,42.0613682],[114.4596635,42.0358987],[114.5048086,41.9707201],[114.4848987,41.9656806],[114.4714593,41.9488244],[114.4152577,41.939937],[114.3839376,41.9519701],[114.3673443,41.9537849],[114.3567701,41.9455575],[114.346196,41.9512442],[114.3439184,41.9272842],[114.3204926,41.9270421],[114.3237462,41.9146956],[114.2787275,41.8642296],[114.1943352,41.7893281],[114.1989423,41.7565311],[114.2085751,41.754344],[114.2000727,41.7362724],[114.2309252,41.6970832],[114.2123445,41.6976106],[114.2081396,41.6839637],[114.248867,41.6227474],[114.2203165,41.6193449],[114.2299313,41.5900927],[114.2135895,41.5748523],[114.2232087,41.5395124],[114.2167082,41.5077034],[114.120456,41.534642],[114.0525328,41.5246197],[114.0330685,41.5308346],[113.9712219,41.5053078],[113.9477933,41.4824503],[113.9257429,41.4855476],[113.9103863,41.4491082],[113.8694356,41.4271167],[113.8644538,41.4107237],[113.9418869,41.3906445],[113.927121,41.3752816],[113.9314116,41.3556296],[113.9184176,41.3436582],[113.9203058,41.3247267],[113.8982375,41.3180083],[113.8948661,41.3093634],[113.9080408,41.2927124],[113.9497046,41.2845954],[113.9478706,41.2650942],[113.9417676,41.2641098],[113.9594361,41.2388927],[113.9712575,41.2530754],[113.9699341,41.264608],[113.985325,41.2683759],[114.0058168,41.2306812],[113.9912562,41.1799846],[113.9518609,41.1705098],[113.9350594,41.1785209],[113.9276827,41.1707082],[113.9056633,41.1696295],[113.9036441,41.1603577],[113.8914123,41.1599217],[113.8997717,41.1581464],[113.8960008,41.1398798],[113.8749374,41.127962],[113.8692334,41.1132602],[113.8775311,41.1042211],[113.8330642,41.1077503],[113.8183827,41.0958336]]],[[[113.1020292,40.9583404],[113.1023271,40.9709387],[113.0833591,40.989007],[113.0474092,40.9791862],[113.0217875,40.9928299],[113.0247668,41.011117],[113.0406562,41.0218321],[113.0327965,41.0534869],[113.0691764,41.0626953],[113.0845592,41.0805479],[113.0728419,41.1082334],[113.0820833,41.1137316],[113.0689334,41.1125195],[113.0693047,41.1279626],[113.039308,41.1361905],[113.0268995,41.1507195],[113.0430013,41.154789],[113.0378,41.170597],[113.0527,41.15786],[113.06243,41.173527],[113.08933,41.18351],[113.10452,41.211914],[113.11988,41.22065],[113.18201,41.202991],[113.21875,41.178532],[113.2509579,41.169855],[113.2439004,41.159418],[113.2515403,41.1504379],[113.2422698,41.1313723],[113.239305,41.0666096],[113.3187931,41.0694576],[113.3218798,41.0079683],[113.3172418,40.9823201],[113.2902004,40.9617815],[113.2926855,40.9451257],[113.2728098,40.9269128],[113.2328924,40.9394246],[113.2222483,40.9665153],[113.1382769,40.9661396],[113.1199048,40.9548155],[113.1185144,40.9604403],[113.1020292,40.9583404]]]]}}]}