{"type": "FeatureCollection", "features": [{"type": "Feature", "properties": {"slug": "umuahia", "members": 3, "country": "Nigeria", "input_hash": "9aff3df3862b4cd5"}, "geometry": {"type": "Polygon", "coordinates": [[[7.534852, 5.4826708], [7.5250397, 5.4478364], [7.5078678, 5.4345894], [7.4779396, 5.4517612], [7.3915896, 5.4635363], [7.3735399, 5.4751825], [7.4066691, 5.5332208], [7.415235, 5.5759287], [7.4259653, 5.5856133], [7.4322858, 5.6093931], [7.4101629, 5.6738391], [7.3816075, 5.7056088], [7.400301, 5.7127118], [7.4661646, 5.6995273], [7.5284739, 5.7142463], [7.5603647, 5.7127743], [7.5682149, 5.7613459], [7.5490804, 5.7942181], [7.5519447, 5.8434629], [7.6176181, 5.8272824], [7.713079, 5.8180008], [7.7092586, 5.7573824], [7.6569138, 5.680243], [7.6562252, 5.6678457], [7.6765432, 5.6502824], [7.6792979, 5.6303091], [7.6486487, 5.6168785], [7.6341853, 5.6013818], [7.6520925, 5.5635004], [7.6959391, 5.5182776], [7.6901169, 5.5059128], [7.70468, 5.482945], [7.7000299, 5.431541], [7.6677618, 5.4474411], [7.6512408, 5.4404187], [7.6235375, 5.4962111], [7.6067944, 5.5075779], [7.5520239, 5.5091643], [7.534852, 5.4826708]]]}}]}