{"type": "FeatureCollection", "features": [{"type": "Feature", "properties": {"slug": "uppsala", "members": 3, "country": "Sweden", "input_hash": "17e6334c98b86f2c"}, "geometry": {"type": "MultiPolygon", "coordinates": [[[[17.6267752, 59.6748531], [17.5757481, 59.6621326], [17.5744831, 59.655858], [17.5904532, 59.6497562], [17.5773306, 59.6398343], [17.5396137, 59.6352579], [17.5161422, 59.6236012], [17.5135644, 59.6115511], [17.5279615, 59.5890893], [17.5784464, 59.5592789], [17.5810772, 59.5497447], [17.5685638, 59.5403995], [17.5452216, 59.5442681], [17.5163929, 59.5179641], [17.4648176, 59.5073974], [17.3777845, 59.5972839], [17.3850984, 59.6308133], [17.3983206, 59.6490019], [17.3821617, 59.6648206], [17.4218796, 59.6595961], [17.4741086, 59.6664353], [17.4885277, 59.6811826], [17.5089179, 59.6836586], [17.5080312, 59.6936155], [17.5420035, 59.7155769], [17.5385712, 59.7332868], [17.565207, 59.7340597], [17.40951, 59.7321173], [17.3952607, 59.7516951], [17.3931888, 59.7728389], [17.3706027, 59.7896587], [17.3550094, 59.7828102], [17.3145912, 59.793329], [17.2815195, 59.7837901], [17.2134705, 59.832935], [17.1900583, 59.8254446], [17.1908915, 59.8310969], [17.1562094, 59.845348], [17.1698883, 59.8634981], [17.1470581, 59.8688629], [17.138251, 59.8809074], [17.1187478, 59.8824671], [17.1184456, 59.8885395], [17.127857, 59.8879138], [17.1236502, 59.9192387], [17.1330757, 59.9541402], [17.1244246, 59.9710972], [17.0798532, 59.9722294], [17.0846021, 59.9906364], [17.1473798, 60.0007851], [17.2067539, 60.0447976], [17.2522469, 60.0385814], [17.2793254, 60.0436938], [17.3027298, 60.0645402], [17.3086852, 60.0861001], [17.2977468, 60.1059921], [17.3160955, 60.1131385], [17.3217552, 60.1335042], [17.3671394, 60.1519095], [17.3726152, 60.144796], [17.4047582, 60.1424839], [17.4000231, 60.1451647], [17.4111774, 60.1546237], [17.4360077, 60.1546505], [17.4548141, 60.1658129], [17.441282, 60.1684315], [17.4713018, 60.1767607], [17.4792762, 60.1862421], [17.5136406, 60.1344624], [17.5733138, 60.0894515], [17.6266233, 60.0966876], [17.6096863, 60.1100045], [17.7158563, 60.1343902], [17.7121803, 60.1413419], [17.736547, 60.1354036], [17.7421375, 60.140424], [17.7451375, 60.1279782], [17.7570382, 60.1258102], [17.8035329, 60.1494923], [17.8519812, 60.1359339], [17.8459151, 60.1115643], [17.8608134, 60.1090272], [17.8447927, 60.1032996], [17.8880997, 60.1032768], [17.8847958, 60.1083706], [17.8984861, 60.1141023], [17.8947731, 60.0974096], [17.9036351, 60.0871832], [17.8904068, 60.073254], [17.9068915, 60.0592301], [17.9853898, 60.0585228], [18.0236584, 60.0228118], [18.0373015, 60.0232831], [18.0382403, 60.0332868], [18.0648422, 60.0354748], [18.0491051, 60.043326], [18.0663264, 60.0495677], [18.2318408, 60.0231394], [18.2328981, 60.0301079], [18.2488991, 60.0333795], [18.3389065, 60.0384184], [18.3191391, 60.0613856], [18.3504277, 60.0658464], [18.3887725, 60.0589944], [18.3949601, 60.0358917], [18.4733583, 60.0042977], [18.4272173, 59.9818564], [18.4233741, 59.9563258], [18.394902, 59.9554859], [18.3838909, 59.9456754], [18.3780434, 59.9309667], [18.3937782, 59.9192311], [18.4045047, 59.8943894], [18.3631356, 59.8727279], [18.3647391, 59.8645135], [18.2734129, 59.8505857], [18.2487132, 59.8333267], [18.1306875, 59.8190795], [18.1043593, 59.7669893], [18.1088797, 59.7591071], [18.0851674, 59.7385567], [18.0508862, 59.7436105], [18.0434949, 59.7339064], [18.0203465, 59.7453274], [18.000924, 59.7369446], [17.9990306, 59.7286423], [17.9839268, 59.7292199], [17.9465597, 59.7110618], [17.8947561, 59.7105819], [17.836573, 59.6921741], [17.8329322, 59.6806821], [17.8160121, 59.6779782], [17.7783447, 59.6906281], [17.7526893, 59.6605077], [17.7283624, 59.6635199], [17.7222969, 59.6840509], [17.6594439, 59.69396], [17.6295363, 59.6942118], [17.6267752, 59.6748531]], [[17.7874033, 59.8057874], [17.7820557, 59.8032393], [17.7878037, 59.8053803], [17.7874033, 59.8057874]], [[18.107418772316603, 59.81339414770824], [18.1074305, 59.8134439], [18.10738256903887, 59.81338827792994], [18.107418772316603, 59.81339414770824]], [[18.106736549644165, 59.810870586009834], [18.1067978, 59.8107598], [18.106828380369752, 59.810889530947456], [18.106736549644165, 59.810870586009834]], [[18.106885809189315, 59.812811806886906], [18.1061411, 59.8119476], [18.106602788950696, 59.81111252441657], [18.106885809189315, 59.812811806886906]], [[18.122877, 59.8141896], [18.1235798, 59.8120575], [18.123620898009484, 59.815447290336934], [18.122877, 59.8141896]], [[18.12294026628642, 59.81668388132268], [18.12363448155096, 59.816567669601476], [18.1236418, 59.8171713], [18.12294026628642, 59.81668388132268]], [[17.5503111, 60.0947369], [17.549342, 60.0930518], [17.5500881, 60.092425], [17.5503111, 60.0947369]], [[17.549877, 60.0982224], [17.5500151, 60.0949259], [17.550136, 60.0982276], [17.549877, 60.0982224]]], [[[17.1349222, 60.0114844], [17.146342, 60.0088765], [17.1485166, 60.0064418], [17.1354886, 60.0020413], [17.1349222, 60.0114844]]], [[[17.4398683, 60.1632514], [17.4403223, 60.1634097], [17.4412586, 60.1630003], [17.4398683, 60.1632514]]], [[[17.4393646, 60.1637439], [17.4391976, 60.1639559], [17.439559, 60.1640578], [17.4393646, 60.1637439]]], [[[17.4361191, 60.1651242], [17.4378375, 60.1636049], [17.4354428, 60.1640379], [17.4361191, 60.1651242]]], [[[17.4326856, 60.1645073], [17.4350342, 60.1655173], [17.4345089, 60.164185], [17.4326856, 60.1645073]]], [[[17.8781311, 60.111723], [17.8737687, 60.1061068], [17.8707364, 60.1084634], [17.8781311, 60.111723]]]]}}]}