{"type": "FeatureCollection", "features": [{"type": "Feature", "properties": {"slug": "uruapan", "members": 1, "country": "Mexico", "input_hash": "75e532f52b33dca0"}, "geometry": {"type": "Polygon", "coordinates": [[[-102.2054488, 19.2972252], [-102.1938534, 19.2717959], [-102.1755171, 19.2802916], [-102.176303, 19.2674882], [-102.1589924, 19.2534392], [-102.1436114, 19.216856], [-102.0931466, 19.1851965], [-102.0841564, 19.2402253], [-102.05625, 19.2240522], [-102.081817, 19.2725502], [-102.0695912, 19.2779092], [-102.0363481, 19.27248], [-101.9905454, 19.2523588], [-101.9429529, 19.2640925], [-101.9742206, 19.321066], [-101.9937274, 19.3257247], [-101.996815, 19.3333853], [-101.9915959, 19.3532876], [-101.9674714, 19.3609297], [-101.9707687, 19.3704588], [-101.9535262, 19.3716659], [-101.9774281, 19.444348], [-101.9513224, 19.4607006], [-101.9845841, 19.49135], [-101.9807725, 19.5007066], [-101.9400541, 19.5072265], [-101.9375031, 19.562713], [-101.9522472, 19.5605764], [-101.9601541, 19.578466], [-101.9993451, 19.5776082], [-102.0207214, 19.5672343], [-102.0323731, 19.5897469], [-102.0965635, 19.5934359], [-102.1269107, 19.6274856], [-102.1629154, 19.6172722], [-102.1708505, 19.5984068], [-102.1938068, 19.5805749], [-102.196369, 19.6229342], [-102.2310978, 19.6161422], [-102.2428817, 19.6236043], [-102.272925, 19.6137053], [-102.2780866, 19.594113], [-102.2599001, 19.5835508], [-102.2635129, 19.5622183], [-102.2863112, 19.5559628], [-102.3221494, 19.5850709], [-102.3357447, 19.5678921], [-102.353329, 19.5779082], [-102.3729658, 19.5694192], [-102.3846436, 19.5758455], [-102.393633, 19.5747673], [-102.3744323, 19.5566397], [-102.3603954, 19.555259], [-102.3682184, 19.5454302], [-102.3335228, 19.5340753], [-102.3283375, 19.5066229], [-102.2766248, 19.5074662], [-102.2214787, 19.4821368], [-102.2027297, 19.4618577], [-102.1594246, 19.4748847], [-102.1151474, 19.4699347], [-102.1155558, 19.43687], [-102.102818, 19.4083324], [-102.1069452, 19.3892143], [-102.1008082, 19.3782045], [-102.1170083, 19.3774402], [-102.1191502, 19.3840741], [-102.1654263, 19.3644762], [-102.2054488, 19.2972252]]]}}]}