{"type": "FeatureCollection", "features": [{"type": "Feature", "properties": {"slug": "uyo", "members": 6, "country": "Nigeria", "input_hash": "586a45c4b8622f65"}, "geometry": {"type": "Polygon", "coordinates": [[[7.882181090914966, 4.794540630734026], [7.884892, 4.7162209], [7.8402972, 4.7031631], [7.8097382, 4.7202311], [7.812891, 4.749114], [7.8004889, 4.7853732], [7.805953, 4.8125429], [7.8201032, 4.8311262], [7.809266601272792, 4.87770663636853], [7.7943082, 4.8880548], [7.8056259, 4.903152], [7.8326879, 5.007257], [7.8108368, 5.0711441], [7.815814, 5.089653], [7.804822, 5.0993748], [7.8105159, 5.1034608], [7.8203368, 5.0960379], [7.820045, 5.0677552], [7.8282442, 5.0505071], [7.843291025984968, 5.043064225246766], [7.8516598, 5.0599308], [7.8423252, 5.076015], [7.8506899, 5.0997462], [7.8414369, 5.1077509], [7.8435292, 5.1279678], [7.8342581, 5.1377048], [7.8442969, 5.1660662], [7.834218, 5.1994591], [7.8460631, 5.2191782], [7.8428578, 5.2532029], [7.8225608, 5.276125], [7.8087721, 5.2788992], [7.8058019, 5.2892642], [7.8401232, 5.3553362], [7.876112, 5.3689008], [7.903317, 5.3431492], [7.9016719, 5.3356328], [7.8488321, 5.34444], [7.8408742, 5.337451], [7.862885, 5.3151188], [7.8921142, 5.3165102], [7.9128809, 5.3039799], [7.929697, 5.2850709], [7.9400711, 5.249723], [7.961823, 5.2360311], [7.9856957, 5.2062825], [8.0064272, 5.2192914], [8.014812, 5.2417718], [8.034553, 5.2443359], [8.0683703, 5.1997182], [8.0719502, 5.1374913], [8.0086079, 5.1339188], [7.965836, 5.1104879], [7.9323182, 5.079051], [7.9926519, 5.0662642], [7.9980531, 5.042068], [8.030447, 5.0134721], [8.0346327, 4.996192], [8.0227757, 4.9776268], [7.9936209, 4.9687352], [8.0085115, 4.9128718], [7.999332, 4.85566], [7.9817529, 4.835896], [7.955713599725997, 4.835177828646851], [7.953229, 4.8212361], [7.9429779, 4.8142281], [7.909718, 4.8145361], [7.882181090914966, 4.794540630734026]], [[7.829564235824699, 4.945268056832768], [7.8275971, 4.9425759], [7.8274732592881335, 4.941112187510592], [7.829564235824699, 4.945268056832768]], [[7.834918, 4.9559088], [7.8420959, 4.9836702], [7.833866856998864, 4.953819626412804], [7.834918, 4.9559088]], [[7.8551688, 4.9953189], [7.8477669, 4.9900651], [7.846175312917683, 4.988270347710685], [7.8551688, 4.9953189]], [[7.870819872686403, 5.012250891507712], [7.8693252, 5.0133252], [7.8670311, 5.0133061], [7.870819872686403, 5.012250891507712]], [[7.877586527087761, 5.00648784563838], [7.8756781, 5.008759], [7.87173291830424, 5.01159463233471], [7.877586527087761, 5.00648784563838]], [[7.88470192215372, 4.994752245004227], [7.8825173, 5.0006199], [7.881815475308132, 5.001455117766636], [7.88470192215372, 4.994752245004227]], [[7.853278496359194, 4.932098944738304], [7.85229820323145, 4.937968108847012], [7.852325, 4.9352732], [7.853278496359194, 4.932098944738304]], [[7.85220567080263, 4.947273949608876], [7.8542738, 4.9699168], [7.8521299, 4.9548941], [7.85220567080263, 4.947273949608876]], [[7.9402713, 4.8435259], [7.9454884, 4.8377972], [7.946268075206689, 4.837597471979435], [7.9402713, 4.8435259]], [[7.9355645, 4.855608], [7.9373412, 4.8498511], [7.9402713, 4.8435259], [7.9355645, 4.855608]], [[7.9371571, 4.8683181], [7.9364603433016505, 4.874104224516588], [7.9355645, 4.855608], [7.9371571, 4.8683181]], [[7.934135815350435, 4.884016599461618], [7.936170576861705, 4.8765105518704885], [7.9359073, 4.8786969], [7.934135815350435, 4.884016599461618]], [[7.8868257342069, 4.989047919254942], [7.8890824, 4.9747019], [7.8872303, 4.9879613], [7.8868257342069, 4.989047919254942]], [[7.91873743429363, 5.0556177657300365], [7.913385529321683, 5.0477031837192525], [7.9148431, 5.0488982], [7.91873743429363, 5.0556177657300365]], [[7.908207487764318, 5.043457870572187], [7.9017358, 5.0407119], [7.906311, 5.041903], [7.908207487764318, 5.043457870572187]], [[7.874783, 5.0410719], [7.8638949, 5.0404072], [7.87537881630574, 5.041063941870601], [7.874783, 5.0410719]], [[7.954794271346777, 5.19454736344714], [7.957459, 5.203341], [7.9546671, 5.1958151], [7.954794271346777, 5.19454736344714]], [[7.962775797553098, 5.172757069469345], [7.9629121, 5.1739502], [7.9559398, 5.1831279], [7.962775797553098, 5.172757069469345]], [[7.960886048632153, 5.168058537951992], [7.9623842, 5.1693292], [7.962489699686611, 5.170252696972584], [7.960886048632153, 5.168058537951992]], [[7.9114251, 5.1042771], [7.928137397424816, 5.134377203084678], [7.9271922, 5.1332612], [7.9114251, 5.1042771]], [[7.913520307697832, 5.085825304412378], [7.914464, 5.086987], [7.9161148, 5.093926], [7.913520307697832, 5.085825304412378]], [[7.8916912, 5.0706429], [7.9116321, 5.0835009], [7.912704127451163, 5.084820577565416], [7.8916912, 5.0706429]]]}}]}