{"type": "FeatureCollection", "features": [{"type": "Feature", "properties": {"slug": "valera", "members": 1, "country": "Venezuela", "input_hash": "a7e11603a7da803c"}, "geometry": {"type": "Polygon", "coordinates": [[[-70.6355278, 9.3416863], [-70.648785, 9.280945], [-70.715131, 9.216031], [-70.717598, 9.194139], [-70.748374, 9.164423], [-70.773833, 9.092599], [-70.800097, 9.081734], [-70.789059, 9.072365], [-70.783109, 9.077889], [-70.773759, 9.053855], [-70.763319, 9.049094], [-70.748964, 9.057522], [-70.730166, 9.056191], [-70.72983, 9.085205], [-70.717805, 9.098333], [-70.679013, 9.091347], [-70.672122, 9.116749], [-70.618194, 9.197228], [-70.5985508, 9.2475618], [-70.5829155, 9.2197028], [-70.5615799, 9.227934], [-70.5709723, 9.2657243], [-70.5840405, 9.2589406], [-70.5971232, 9.2679396], [-70.5953645, 9.3650987], [-70.6355278, 9.3416863]]]}}]}