{"type": "FeatureCollection", "features": [{"type": "Feature", "properties": {"slug": "valkeakoski", "members": 1, "country": "Finland", "input_hash": "258637d2d34be272"}, "geometry": {"type": "Polygon", "coordinates": [[[24.2580258, 61.2182694], [24.2825508, 61.2401141], [24.2172791, 61.261908], [24.1666797, 61.2646599], [24.0878535, 61.2913455], [24.0882457, 61.3060727], [24.1016567, 61.3175682], [24.0612296, 61.3388284], [24.0641502, 61.3438213], [24.0232412, 61.3157786], [24.0203928, 61.3302357], [23.9997313, 61.3401962], [23.9711781, 61.3218402], [23.9737522, 61.3287267], [23.9578138, 61.3312683], [23.9447258, 61.3194238], [23.9646125, 61.3171025], [23.8981555, 61.273877], [23.7984922, 61.2268399], [23.7976553, 61.2169746], [23.8829281, 61.2019384], [23.9054136, 61.2068184], [23.9230797, 61.2029617], [23.9381601, 61.1850023], [23.9583733, 61.1841646], [23.9586093, 61.1729617], [23.9450266, 61.1647561], [23.9581587, 61.1601712], [23.9426019, 61.1556063], [23.9310984, 61.1447469], [23.9418702, 61.1418887], [23.919125, 61.1298626], [23.9417865, 61.1311146], [23.9215283, 61.1198322], [23.9431576, 61.1102859], [23.934124, 61.1074142], [23.9582649, 61.1019078], [24.0371625, 61.1248377], [24.0615169, 61.1188998], [24.1110809, 61.1282731], [24.1419371, 61.1231544], [24.1340868, 61.1366585], [24.1389362, 61.1432145], [24.2355118, 61.1514239], [24.2971442, 61.1914881], [24.2580258, 61.2182694]]]}}]}