{"type": "FeatureCollection", "features": [{"type": "Feature", "properties": {"slug": "valmiera", "members": 1, "country": "Latvia", "input_hash": "a0feb84e5dc15ef3"}, "geometry": {"type": "Polygon", "coordinates": [[[25.7367216, 57.4998271], [25.8959818, 57.4886218], [25.8876179, 57.4941836], [25.9055663, 57.4998812], [25.8952923, 57.4948741], [25.9068419, 57.4894665], [25.8935198, 57.4813728], [25.914493, 57.4695765], [25.9240941, 57.4785361], [25.9384589, 57.4776018], [25.9485957, 57.4899187], [25.9440901, 57.4953944], [25.9565066, 57.5020021], [25.938234, 57.5117335], [25.9414038, 57.5219748], [25.9318027, 57.5260658], [25.9442808, 57.5335494], [25.8980516, 57.5274476], [25.8729986, 57.5379728], [25.9024922, 57.5591336], [25.915686, 57.5592059], [25.9163821, 57.5865783], [25.8522227, 57.6006629], [25.9068965, 57.5993632], [25.9133987, 57.6091379], [25.9304551, 57.6100656], [25.9261182, 57.6144448], [25.9360812, 57.6115557], [25.9535659, 57.6252251], [25.9642466, 57.6230523], [25.9612675, 57.6296528], [25.977874, 57.6392113], [25.9752298, 57.6616661], [25.9884436, 57.6583846], [25.9942479, 57.6665135], [25.8553754, 57.6862919], [25.8596679, 57.7029302], [25.8278395, 57.7024459], [25.8408683, 57.7340594], [25.8361884, 57.7359776], [25.8455578, 57.7416865], [25.8394462, 57.7472769], [25.8120357, 57.7369257], [25.7223625, 57.7273258], [25.6354546, 57.7558223], [25.6223775, 57.7684814], [25.5446246, 57.7873794], [25.5490405, 57.7978861], [25.5678105, 57.8002509], [25.5713783, 57.808295], [25.5601408, 57.818691], [25.5412692, 57.8172547], [25.477581, 57.8587969], [25.4910661, 57.877116], [25.5033688, 57.8653512], [25.52143, 57.8638867], [25.5328811, 57.8796603], [25.5575899, 57.8828632], [25.5718623, 57.8765858], [25.5831021, 57.8861103], [25.6154876, 57.8743576], [25.62278, 57.8644125], [25.667604, 57.8536209], [25.6814728, 57.8580241], [25.6770089, 57.8623485], [25.6851203, 57.8786371], [25.675935, 57.8829101], [25.6917526, 57.8855122], [25.7032976, 57.9032646], [25.678965, 57.904389], [25.6777896, 57.91237], [25.648787, 57.9166094], [25.6386463, 57.9307287], [25.5804613, 57.9442057], [25.5943396, 57.9595805], [25.5805019, 57.9719535], [25.5569631, 57.9604373], [25.5513818, 57.9723687], [25.5120123, 57.9697941], [25.5226906, 57.9744875], [25.5195833, 57.9801888], [25.4858531, 57.9748151], [25.4430435, 57.9959487], [25.466862, 58.005184], [25.4485977, 58.0170575], [25.4083151, 58.0291382], [25.3638617, 58.0313987], [25.295673, 58.0814501], [25.2660765, 58.067234], [25.2648664, 58.0600863], [25.3037396, 58.0342715], [25.2971378, 58.0146496], [25.3023706, 57.9999687], [25.2957612, 57.9998437], [25.3025833, 57.9940084], [25.2562631, 57.9938462], [25.2560062, 58.0029588], [25.2283793, 58.018065], [25.2445707, 58.0211831], [25.2255149, 58.0217735], [25.220063, 58.0288559], [25.2173004, 58.0412091], [25.2282827, 58.0535049], [25.217541, 58.0493246], [25.21624, 58.0596223], [25.205491, 58.0612912], [25.2165752, 58.0740466], [25.1994288, 58.0855688], [25.1912275, 58.0760156], [25.1058449, 58.0778261], [25.1050308, 58.0662028], [25.0769525, 58.06639], [25.020415, 58.0178562], [24.9488686, 58.009364], [24.8340663, 57.9727824], [24.8481559, 57.9058572], [24.891377, 57.8945381], [24.8775914, 57.8822949], [24.8888941, 57.8766331], [24.8836877, 57.868533], [24.8939504, 57.8607898], [24.8877474, 57.8521983], [24.8988927, 57.8516682], [24.8968169, 57.827678], [24.9363452, 57.8165346], [24.9458951, 57.8280881], [24.9559372, 57.8158383], [24.9473745, 57.8062301], [24.9749679, 57.8112621], [25.0075089, 57.8007561], [25.0241108, 57.7830639], [25.0405799, 57.7874266], [25.0765427, 57.7724481], [25.0764369, 57.7570697], [25.0999733, 57.737971], [25.0853064, 57.7339528], [25.0905449, 57.7284487], [25.0770342, 57.723104], [25.0625818, 57.7017554], [25.0993707, 57.687417], [25.0769781, 57.6777712], [25.08308, 57.6723879], [25.0774856, 57.6677859], [25.0919539, 57.6546856], [25.046891, 57.6542599], [25.088633, 57.6288054], [25.0776281, 57.6263305], [25.0738631, 57.6324551], [25.061407, 57.6229407], [25.0418693, 57.6238383], [25.023039, 57.6303796], [25.022437, 57.6431192], [24.9788538, 57.6400117], [24.9621566, 57.6212215], [24.9318665, 57.6093779], [24.9025967, 57.6146522], [24.8962902, 57.6061188], [24.9054627, 57.5907588], [24.8940243, 57.5865978], [24.8946536, 57.572758], [24.9126581, 57.5674341], [24.9165299, 57.5576934], [25.0079862, 57.5706777], [25.0076658, 57.5629516], [25.0297769, 57.5516348], [25.0273349, 57.5447262], [25.0604192, 57.5293604], [25.0522207, 57.5176522], [25.0409713, 57.5183494], [25.0462946, 57.5098928], [25.0555112, 57.5101277], [25.0548986, 57.5162983], [25.0847529, 57.5145611], [25.0880342, 57.4998159], [25.0759364, 57.5023336], [25.0880487, 57.4896684], [25.1210391, 57.4961391], [25.1418137, 57.4855285], [25.1334789, 57.453212], [25.1606571, 57.4476986], [25.1846858, 57.4305687], [25.1918657, 57.4152783], [25.2205218, 57.4122108], [25.2239649, 57.4244228], [25.2546837, 57.4163922], [25.2723355, 57.3981333], [25.2890517, 57.3949049], [25.3263853, 57.4106504], [25.3266855, 57.4007107], [25.3546329, 57.3924387], [25.3454178, 57.3854859], [25.3607808, 57.3900512], [25.3767309, 57.3838795], [25.38882, 57.3877354], [25.3826853, 57.399597], [25.4002993, 57.4103951], [25.3872979, 57.4285138], [25.4026261, 57.4317414], [25.4076625, 57.4391751], [25.395342, 57.4402247], [25.4127985, 57.4493558], [25.4544415, 57.4376], [25.5061114, 57.4540026], [25.5282794, 57.4305315], [25.5372884, 57.431355], [25.5520487, 57.4358009], [25.5556529, 57.4521256], [25.5965749, 57.4668656], [25.6728186, 57.4680347], [25.6678891, 57.4734506], [25.6809361, 57.4859461], [25.7193355, 57.4951774], [25.7245959, 57.4872596], [25.7410333, 57.4945366], [25.7367216, 57.4998271]]]}}]}