{"type": "FeatureCollection", "features": [{"type": "Feature", "properties": {"slug": "vannes", "members": 99, "country": "France"}, "geometry": {"type": "MultiPolygon", "coordinates": [[[[-2.9491243, 47.5280667], [-2.9472578, 47.5287632], [-2.9453887, 47.5297872], [-2.9458873, 47.5281419], [-2.9491243, 47.5280667]]], [[[-2.9290998, 47.5775438], [-2.9260202, 47.5793983], [-2.9264232, 47.5781872], [-2.9290998, 47.5775438]]], [[[-2.9327555, 47.585283], [-2.9280084, 47.5855228], [-2.9332322, 47.5848333], [-2.9327555, 47.585283]]], [[[-2.9175849, 47.5658327], [-2.9168835, 47.5660245], [-2.9171947, 47.5656209], [-2.9175849, 47.5658327]]], [[[-2.9209287, 47.5696106], [-2.9210554, 47.5692025], [-2.9212704, 47.5693125], [-2.9209287, 47.5696106]]], [[[-2.9218005, 47.5722851], [-2.9227132, 47.5753989], [-2.9211463, 47.5723156], [-2.9218005, 47.5722851]]], [[[-2.9099044, 47.5775507], [-2.9063831, 47.5684365], [-2.9080775, 47.5669361], [-2.9099044, 47.5775507]]], [[[-2.9125079, 47.5790993], [-2.914135, 47.5777123], [-2.9144953, 47.579493], [-2.9125079, 47.5790993]]], [[[-2.8974214, 47.5685455], [-2.89626, 47.5678325], [-2.8979351, 47.5681429], [-2.8974214, 47.5685455]]], [[[-2.9002243, 47.5713423], [-2.8963216, 47.5768724], [-2.8957155, 47.5727013], [-2.9002243, 47.5713423]]], [[[-2.8910101, 47.578988], [-2.8845748, 47.5824084], [-2.8907803, 47.5746977], [-2.8910101, 47.578988]]], [[[-2.8839239, 47.5654484], [-2.8867106, 47.5632287], [-2.8880027, 47.5630704], [-2.8839239, 47.5654484]]], [[[-2.8899543, 47.5667016], [-2.8870654, 47.5719983], [-2.8891118, 47.5653346], [-2.8899543, 47.5667016]]], [[[-2.8696974, 47.5778914], [-2.8662059, 47.5781339], [-2.8691284, 47.5766912], [-2.8696974, 47.5778914]]], [[[-2.8505353, 47.5612588], [-2.8467785, 47.5617647], [-2.8466968, 47.5615094], [-2.8505353, 47.5612588]]], [[[-2.8469888, 47.6096331], [-2.8498062, 47.6133532], [-2.8455401, 47.6111616], [-2.8469888, 47.6096331]]], [[[-2.8448404, 47.5602728], [-2.8441089, 47.5553566], [-2.8478307, 47.5541948], [-2.8448404, 47.5602728]]], [[[-2.8420206, 47.5693116], [-2.8421209, 47.5691807], [-2.842129, 47.5693029], [-2.8420206, 47.5693116]]], [[[-2.8407934, 47.5937658], [-2.8252906, 47.5880533], [-2.8490974, 47.5880451], [-2.8559426, 47.5733268], [-2.8480755, 47.5675773], [-2.860275, 47.5603387], [-2.8541748, 47.6020289], [-2.8481443, 47.5984507], [-2.8377231, 47.6073645], [-2.8407934, 47.5937658]]], [[[-2.8321193, 47.5576239], [-2.8286751, 47.5585586], [-2.8290197, 47.5572372], [-2.8321193, 47.5576239]]], [[[-2.8290047, 47.5863548], [-2.8282986, 47.5872773], [-2.8279829, 47.5869286], [-2.8290047, 47.5863548]]], [[[-2.83163, 47.6074204], [-2.8318367, 47.6064308], [-2.832694, 47.6062282], [-2.83163, 47.6074204]]], [[[-2.8272163, 47.5849938], [-2.8275127, 47.5844187], [-2.8277048, 47.5849224], [-2.8272163, 47.5849938]]], [[[-2.8211888, 47.5993148], [-2.8235923, 47.6002444], [-2.8209334, 47.5997617], [-2.8211888, 47.5993148]]], [[[-2.8167469, 47.5995862], [-2.8162825, 47.5999777], [-2.8161929, 47.5999027], [-2.8167469, 47.5995862]]], [[[-2.818215, 47.6105811], [-2.8170636, 47.6124806], [-2.8160098, 47.613113], [-2.818215, 47.6105811]]], [[[-2.8151729, 47.6140028], [-2.8145596, 47.6147521], [-2.8140201, 47.6145576], [-2.8151729, 47.6140028]]], [[[-2.808096, 47.6078429], [-2.8083868, 47.6080579], [-2.8079459, 47.608168], [-2.808096, 47.6078429]]], [[[-2.8082425, 47.6099954], [-2.8088831, 47.609273], [-2.8090898, 47.6094667], [-2.8082425, 47.6099954]]], [[[-2.8097434, 47.5636317], [-2.8032303, 47.5634102], [-2.804904, 47.560784], [-2.8097434, 47.5636317]]], [[[-2.8049868, 47.5966111], [-2.8045151, 47.5965984], [-2.8063256, 47.5960549], [-2.8049868, 47.5966111]]], [[[-2.8044266, 47.5966635], [-2.8029084, 47.5968412], [-2.8044993, 47.5966493], [-2.8044266, 47.5966635]]], [[[-2.7953807, 47.5645665], [-2.7897902, 47.563888], [-2.7888031, 47.5626467], [-2.7953807, 47.5645665]]], [[[-2.8083168, 47.5864035], [-2.8128408, 47.5989684], [-2.806346, 47.5960524], [-2.8083599, 47.5922393], [-2.7963585, 47.598079], [-2.7961423, 47.6042862], [-2.7926587, 47.6061977], [-2.7890554, 47.5939704], [-2.786393, 47.5931532], [-2.7847377, 47.5918662], [-2.7742611, 47.5947887], [-2.7774919, 47.5864495], [-2.7931986, 47.5935245], [-2.8098249, 47.578326], [-2.8167993, 47.5852563], [-2.8083168, 47.5864035]]], [[[-2.8011477, 47.6078884], [-2.8059747, 47.6086626], [-2.8001951, 47.6082825], [-2.8011477, 47.6078884]]], [[[-2.7872175, 47.5627125], [-2.7870566, 47.5619234], [-2.7872135, 47.5615903], [-2.7872175, 47.5627125]]], [[[-2.7947067, 47.5703567], [-2.7910686, 47.5800993], [-2.7859265, 47.5686533], [-2.7947067, 47.5703567]]], [[[-2.7865707, 47.5583676], [-2.7866242, 47.5572758], [-2.7866276, 47.5583741], [-2.7865707, 47.5583676]]], [[[-2.785517, 47.5780954], [-2.7852238, 47.5779384], [-2.7855145, 47.5779989], [-2.785517, 47.5780954]]], [[[-2.7859891, 47.5938944], [-2.7863312, 47.5945263], [-2.7858328, 47.5937695], [-2.7859891, 47.5938944]]], [[[-2.764596, 47.591461], [-2.7619081, 47.592158], [-2.7624447, 47.5908256], [-2.764596, 47.591461]]], [[[-2.7786528, 47.613741], [-2.7851052, 47.6181253], [-2.7741779, 47.613388], [-2.7786528, 47.613741]]], [[[-2.7673105, 47.6250321], [-2.7671126, 47.6250537], [-2.7671081, 47.6248887], [-2.7673105, 47.6250321]]], [[[-2.7622297, 47.5684779], [-2.762133, 47.5687923], [-2.761802, 47.5686913], [-2.7622297, 47.5684779]]], [[[-2.755782, 47.6085103], [-2.7698799, 47.6055128], [-2.7711081, 47.6104825], [-2.755782, 47.6085103]]], [[[-2.7535445, 47.5722674], [-2.755088, 47.5724908], [-2.7552373, 47.5728363], [-2.7535445, 47.5722674]]], [[[-2.7436665, 47.5737138], [-2.7437402, 47.5733094], [-2.7442659, 47.5733627], [-2.7436665, 47.5737138]]], [[[-2.7461607, 47.5764152], [-2.7501105, 47.5764805], [-2.7470769, 47.579314], [-2.7461607, 47.5764152]]], [[[-2.7354334, 47.5544646], [-2.7366426, 47.5542024], [-2.7358699, 47.5547981], [-2.7354334, 47.5544646]]], [[[-2.7329578, 47.5721092], [-2.7315556, 47.5713356], [-2.7326026, 47.5707138], [-2.7329578, 47.5721092]]], [[[-2.7407777, 47.5724227], [-2.7403325, 47.5721132], [-2.7408502, 47.5721657], [-2.7407777, 47.5724227]]], [[[-2.7319868, 47.5582645], [-2.7320599, 47.5586826], [-2.7313293, 47.5587224], [-2.7319868, 47.5582645]]], [[[-2.7277108, 47.5726139], [-2.7371637, 47.5844686], [-2.7238078, 47.5768695], [-2.7277108, 47.5726139]]], [[[-2.7221343, 47.5865969], [-2.7216583, 47.5876127], [-2.7212571, 47.5867534], [-2.7221343, 47.5865969]]], [[[-2.7294025, 47.5958071], [-2.7308173, 47.5961028], [-2.7306229, 47.596574], [-2.7294025, 47.5958071]]], [[[-2.7228321, 47.6006241], [-2.7237627, 47.5985691], [-2.7262609, 47.5997562], [-2.7228321, 47.6006241]]], [[[-2.7197612, 47.584086], [-2.7200886, 47.5838389], [-2.7202008, 47.5841413], [-2.7197612, 47.584086]]], [[[-2.7067244, 47.588738], [-2.7061987, 47.5896895], [-2.7060887, 47.5890907], [-2.7067244, 47.588738]]], [[[-2.682276, 47.491339], [-2.683075, 47.4916897], [-2.682644, 47.491968], [-2.682276, 47.491339]]], [[[-2.6919132, 47.6197189], [-2.6925516, 47.6200127], [-2.6924202, 47.6202993], [-2.6919132, 47.6197189]]], [[[-2.6934018, 47.6213753], [-2.6921477, 47.6219808], [-2.6917993, 47.6200443], [-2.6934018, 47.6213753]]], [[[-2.505599, 47.5187984], [-2.5053683, 47.518601], [-2.5056982, 47.5186209], [-2.505599, 47.5187984]]], [[[-2.5181356, 47.521165], [-2.5180297, 47.520886], [-2.5182389, 47.5210264], [-2.5181356, 47.521165]]], [[[-2.5812054, 47.5632981], [-2.5772893, 47.5599267], [-2.581974, 47.5616478], [-2.5812054, 47.5632981]]], [[[-2.5033994, 47.465341], [-2.5038107, 47.4643604], [-2.5044664, 47.4647528], [-2.5033994, 47.465341]]], [[[-2.9283929, 47.6531099], [-2.9285186, 47.665939], [-2.9193378, 47.6677049], [-2.9249148, 47.6744668], [-2.9179869, 47.6796862], [-2.8832282, 47.6868987], [-2.8772369, 47.7086331], [-2.8897635, 47.7160634], [-2.8730751, 47.724551], [-2.8796639, 47.7369044], [-2.8718709, 47.7473789], [-2.8814037, 47.7595973], [-2.9143412, 47.7650809], [-2.9251187, 47.7600489], [-2.9115676, 47.7493201], [-2.9551067, 47.7490306], [-2.9462273, 47.7546529], [-2.9546661, 47.7643369], [-2.9472573, 47.7724922], [-2.9556869, 47.7931701], [-2.9339036, 47.7958783], [-2.930117, 47.8162926], [-2.8569529, 47.8146175], [-2.8495299, 47.8254603], [-2.7997289, 47.8430413], [-2.7702988, 47.8386828], [-2.7643785, 47.8295752], [-2.7778068, 47.8065823], [-2.7539124, 47.797689], [-2.7127228, 47.79581], [-2.7125646, 47.8025189], [-2.6949578, 47.802208], [-2.6869808, 47.8293753], [-2.6736071, 47.8243433], [-2.6840632, 47.8123146], [-2.671323, 47.809403], [-2.6775835, 47.8037208], [-2.6688969, 47.8008432], [-2.6790578, 47.79042], [-2.6578287, 47.7812037], [-2.6482088, 47.7903405], [-2.6232352, 47.7912067], [-2.6234419, 47.801136], [-2.601515, 47.8078664], [-2.5646427, 47.797219], [-2.5478737, 47.811366], [-2.5558978, 47.8217038], [-2.5698724, 47.8203911], [-2.5778026, 47.842435], [-2.5494307, 47.8695361], [-2.5384163, 47.8625333], [-2.5214195, 47.8693188], [-2.5280826, 47.87823], [-2.5146775, 47.8891516], [-2.4903341, 47.8869649], [-2.480771, 47.8755943], [-2.4826468, 47.8558346], [-2.4560153, 47.8589357], [-2.4511852, 47.8461147], [-2.4269751, 47.838585], [-2.4105584, 47.8646885], [-2.3785406, 47.8566187], [-2.3658471, 47.8671649], [-2.3532615, 47.8659811], [-2.3311737, 47.8921261], [-2.3363936, 47.9017638], [-2.3167732, 47.9088372], [-2.3139008, 47.9223784], [-2.3023404, 47.922266], [-2.3037736, 47.9367048], [-2.2426821, 47.9425283], [-2.2259277, 47.9342222], [-2.213018, 47.9417812], [-2.2063949, 47.9594298], [-2.2179498, 47.9708795], [-2.2125285, 47.9945823], [-2.1917068, 47.9911864], [-2.1780362, 47.9793501], [-2.1439232, 47.9839547], [-2.1263965, 47.9644109], [-2.1107506, 47.9599179], [-2.0978317, 47.9331142], [-2.0782636, 47.9184367], [-2.0858594, 47.9036197], [-2.1058434, 47.9022877], [-2.100676, 47.8957278], [-2.1157201, 47.8901195], [-2.1157463, 47.8790499], [-2.0957358, 47.8617175], [-2.109663, 47.8488668], [-2.0876654, 47.844547], [-2.0684796, 47.8520342], [-2.0548567, 47.8687117], [-2.0515649, 47.8405898], [-2.0354321, 47.8327837], [-2.049282, 47.8170431], [-2.0703216, 47.8118057], [-2.073624, 47.7891581], [-2.1282109, 47.7687124], [-2.1266858, 47.7610043], [-2.0845226, 47.7627964], [-2.083787, 47.7499856], [-2.0618089, 47.7512989], [-2.057666, 47.7417043], [-2.1077881, 47.7372478], [-2.1315614, 47.7221575], [-2.1177043, 47.7092629], [-2.1226357, 47.6827602], [-2.1035913, 47.6756736], [-2.1140796, 47.6484312], [-2.0954733, 47.6466126], [-2.0942679, 47.6393565], [-2.1042989, 47.63811], [-2.0868096, 47.6244593], [-2.0839979, 47.6110459], [-2.1037803, 47.5916459], [-2.0994376, 47.5803762], [-2.1056218, 47.5777117], [-2.0964102, 47.5722869], [-2.1049949, 47.5488486], [-2.0987857, 47.533709], [-2.1560617, 47.5220065], [-2.1542216, 47.4964694], [-2.164041, 47.4891156], [-2.1920339, 47.496583], [-2.1836345, 47.5015735], [-2.184501, 47.5121835], [-2.2152172, 47.5084353], [-2.2441668, 47.4936237], [-2.2656185, 47.5017572], [-2.2550975, 47.5116181], [-2.2985209, 47.5159243], [-2.3174346, 47.4611032], [-2.3529052, 47.454403], [-2.3683749, 47.4644044], [-2.3998491, 47.4559181], [-2.417091, 47.4604132], [-2.4230909, 47.4772081], [-2.4531721, 47.4624541], [-2.4571332, 47.448119], [-2.4804284, 47.4412499], [-2.5012618, 47.4579282], [-2.4882059, 47.4710245], [-2.5007093, 47.4847516], [-2.4984992, 47.4952618], [-2.4653705, 47.4872215], [-2.3819793, 47.500332], [-2.3933855, 47.5056963], [-2.4126301, 47.4962025], [-2.4392483, 47.4982736], [-2.4666978, 47.5121101], [-2.5024943, 47.51441], [-2.4943266, 47.5260108], [-2.5002788, 47.5181952], [-2.5204263, 47.5271134], [-2.5437234, 47.5230715], [-2.549891, 47.5105015], [-2.5965507, 47.5175379], [-2.6077395, 47.5083449], [-2.632386, 47.5039344], [-2.6234954, 47.5140333], [-2.6115543, 47.5090571], [-2.6087106, 47.5275234], [-2.5795495, 47.5219007], [-2.5886204, 47.5278572], [-2.5704648, 47.533503], [-2.5817887, 47.5361208], [-2.5745096, 47.5462082], [-2.5461204, 47.5464531], [-2.5684982, 47.5563589], [-2.5807756, 47.5522933], [-2.5727329, 47.5631976], [-2.5539132, 47.5562775], [-2.5485742, 47.556865], [-2.5680638, 47.5635652], [-2.5705674, 47.5719793], [-2.5794172, 47.5632565], [-2.5831347, 47.575136], [-2.5825113, 47.5647452], [-2.5913973, 47.5620458], [-2.5855096, 47.561546], [-2.5827624, 47.5433546], [-2.5949766, 47.54573], [-2.5888758, 47.5371073], [-2.6033634, 47.5311632], [-2.6171837, 47.5487541], [-2.6310275, 47.5520912], [-2.6160885, 47.5371052], [-2.6253505, 47.5309627], [-2.6655338, 47.5490628], [-2.6695595, 47.5347342], [-2.6210623, 47.5264032], [-2.6231576, 47.5194408], [-2.6435319, 47.5161487], [-2.6614137, 47.5181146], [-2.6562223, 47.5229832], [-2.6666803, 47.5231648], [-2.6763047, 47.5311448], [-2.6813195, 47.531262], [-2.663127, 47.5195601], [-2.6814588, 47.4967439], [-2.6750458, 47.4919374], [-2.725839, 47.5068448], [-2.7796558, 47.4959555], [-2.7939468, 47.4841145], [-2.8158502, 47.4869023], [-2.8505515, 47.4986045], [-2.8468903, 47.5120166], [-2.8549426, 47.5184446], [-2.8473275, 47.5194278], [-2.8583377, 47.5189913], [-2.8843386, 47.5372026], [-2.9035986, 47.5344084], [-2.8901988, 47.5447331], [-2.912202, 47.5420569], [-2.9193346, 47.5479391], [-2.9083105, 47.5495691], [-2.9143812, 47.5572338], [-2.8974846, 47.5634084], [-2.8947683, 47.5546611], [-2.8908681, 47.5615444], [-2.883299, 47.5567324], [-2.8784545, 47.5640294], [-2.8776078, 47.554759], [-2.8669729, 47.5583361], [-2.8735209, 47.5467872], [-2.8582331, 47.550839], [-2.8628027, 47.5416824], [-2.8537466, 47.536643], [-2.8444316, 47.5385505], [-2.853616, 47.5417636], [-2.848019, 47.5483235], [-2.839432, 47.5438516], [-2.8261568, 47.5502151], [-2.8293144, 47.5431338], [-2.8177647, 47.5424318], [-2.8239955, 47.5568622], [-2.8061918, 47.5559841], [-2.8073863, 47.5410248], [-2.7994533, 47.5371547], [-2.799846, 47.5476375], [-2.7875471, 47.5527534], [-2.7843739, 47.546233], [-2.7770171, 47.5490181], [-2.7806686, 47.5397619], [-2.7645223, 47.5387377], [-2.7672993, 47.5437889], [-2.7635074, 47.5394721], [-2.7679929, 47.5357029], [-2.7301862, 47.5425963], [-2.7349407, 47.5529181], [-2.7140125, 47.5793928], [-2.7183609, 47.5835005], [-2.7183458, 47.5881333], [-2.7108713, 47.5882476], [-2.7116915, 47.5797764], [-2.7031385, 47.5903474], [-2.6897402, 47.5903165], [-2.6927914, 47.6068402], [-2.6838982, 47.6167962], [-2.6953648, 47.6248676], [-2.6850621, 47.6300351], [-2.7021692, 47.6311464], [-2.6914091, 47.6373124], [-2.7120117, 47.6469106], [-2.7069723, 47.635299], [-2.7159963, 47.6309956], [-2.7029315, 47.6234004], [-2.7155542, 47.6258155], [-2.717353, 47.6198125], [-2.7001282, 47.6187201], [-2.6957473, 47.6100875], [-2.7177586, 47.6155925], [-2.7095131, 47.6102623], [-2.7121628, 47.6017865], [-2.7025034, 47.6023733], [-2.7097072, 47.5922521], [-2.7140004, 47.5935226], [-2.720257, 47.5897162], [-2.7262505, 47.5908392], [-2.7289628, 47.5957065], [-2.7183142, 47.5922323], [-2.7209448, 47.6033348], [-2.7366481, 47.6059527], [-2.7321821, 47.6016383], [-2.7321379, 47.5987697], [-2.7793987, 47.6207997], [-2.7747989, 47.6257571], [-2.7338596, 47.6129552], [-2.7450497, 47.632213], [-2.7463266, 47.6209393], [-2.7591428, 47.6399011], [-2.7794279, 47.6278796], [-2.789292, 47.637486], [-2.7835467, 47.6388924], [-2.7835761, 47.6442073], [-2.790177, 47.6407751], [-2.7974456, 47.6512534], [-2.7991327, 47.6521135], [-2.8030385, 47.6522009], [-2.8031458, 47.6539826], [-2.8049467, 47.654365], [-2.7922323, 47.6344511], [-2.7796774, 47.6269721], [-2.7820664, 47.6213419], [-2.8122942, 47.6225013], [-2.8358826, 47.6125689], [-2.8282624, 47.6183908], [-2.8700009, 47.6208573], [-2.8561401, 47.6145946], [-2.8684104, 47.6070581], [-2.8589019, 47.602222], [-2.8624447, 47.596927], [-2.8875286, 47.6037128], [-2.8905197, 47.5817611], [-2.905554, 47.581997], [-2.911025, 47.5922106], [-2.9186194, 47.5823111], [-2.9257976, 47.586135], [-2.9271592, 47.6019493], [-2.9370687, 47.5967239], [-2.9340833, 47.5877311], [-2.9366107, 47.5861039], [-2.9503904, 47.6071085], [-2.9494429, 47.6213396], [-2.9350891, 47.6253073], [-2.9562155, 47.6261362], [-2.9618915, 47.6349893], [-2.9283929, 47.6531099]]], [[[-2.491394, 47.439583], [-2.4897002, 47.4403536], [-2.4898919, 47.4393889], [-2.491394, 47.439583]]], [[[-2.4956292, 47.4498756], [-2.4947219, 47.4499894], [-2.4954307, 47.4496289], [-2.4956292, 47.4498756]]], [[[-2.490598, 47.4721945], [-2.4905578, 47.4721385], [-2.4906504, 47.4721311], [-2.490598, 47.4721945]]], [[[-2.4906389, 47.4442334], [-2.4901447, 47.4450601], [-2.4897431, 47.4440366], [-2.4906389, 47.4442334]]], [[[-2.4903298, 47.4724011], [-2.4903928, 47.4723402], [-2.4904177, 47.4723882], [-2.4903298, 47.4724011]]]]}}]}