{"type": "FeatureCollection", "features": [{"type": "Feature", "properties": {"slug": "varazdin", "members": 1, "country": "Croatia", "input_hash": "53402631d7c71818"}, "geometry": {"type": "Polygon", "coordinates": [[[16.4442425, 46.2812227], [16.4037196, 46.2821215], [16.385722, 46.2911101], [16.3770422, 46.3118397], [16.3946248, 46.310539], [16.3932553, 46.3170184], [16.3674157, 46.3144546], [16.328418, 46.3573635], [16.3035071, 46.3517783], [16.3170538, 46.3319647], [16.2934434, 46.3307135], [16.2865662, 46.3216821], [16.2865662, 46.3148947], [16.2995964, 46.3106165], [16.3047201, 46.292221], [16.2960864, 46.2880893], [16.3027107, 46.2720216], [16.286121, 46.2708636], [16.2905895, 46.2571883], [16.3109715, 46.2649423], [16.3345701, 46.2577606], [16.3541028, 46.2624899], [16.3557766, 46.2696819], [16.4171182, 46.2712752], [16.4442425, 46.2812227]]]}}]}