{"type": "FeatureCollection", "features": [{"type": "Feature", "properties": {"slug": "varberg", "members": 1, "country": "Sweden", "input_hash": "e1cc875bcfe151cd"}, "geometry": {"type": "MultiPolygon", "coordinates": [[[[12.1046606, 57.2058487], [12.118127, 57.2096821], [12.1102654, 57.2046454], [12.1046606, 57.2058487]]], [[[12.0902734, 57.2241522], [12.1009632, 57.2209809], [12.0902251, 57.2194402], [12.0902734, 57.2241522]]], [[[12.1104972, 57.2896907], [12.1176664, 57.2907996], [12.1118466, 57.2891774], [12.1104972, 57.2896907]]], [[[12.0807725, 57.2893377], [12.0796402, 57.2966592], [12.0900346, 57.2974777], [12.0914866, 57.2934527], [12.0807725, 57.2893377]]], [[[12.1068143, 57.2955086], [12.1062201, 57.306237], [12.1265636, 57.3077666], [12.1249437, 57.2983958], [12.1068143, 57.2955086]]], [[[12.0917976, 57.3077646], [12.0971164, 57.3079988], [12.0916332, 57.3046078], [12.0917976, 57.3077646]]], [[[12.134707, 57.3129561], [12.1250117, 57.3094888], [12.1203838, 57.3140151], [12.134707, 57.3129561]]], [[[12.0893313, 57.3170189], [12.0960877, 57.3163371], [12.091178, 57.3131806], [12.0893313, 57.3170189]]], [[[12.116487, 57.3151348], [12.1165404, 57.3146689], [12.113383, 57.3168528], [12.116487, 57.3151348]]], [[[12.3104823, 57.0300159], [12.3089182, 57.0276954], [12.3002688, 57.0314596], [12.3104823, 57.0300159]]], [[[12.2249491, 57.1085497], [12.2241337, 57.1063357], [12.219464, 57.1071703], [12.2249491, 57.1085497]]], [[[12.1870493, 57.13346], [12.1884174, 57.1321207], [12.1820768, 57.1302016], [12.1870493, 57.13346]]], [[[12.2079257, 57.137791], [12.2023281, 57.1367219], [12.1991368, 57.1400569], [12.2079257, 57.137791]]], [[[12.156195, 57.1581029], [12.1554655, 57.1556125], [12.1504605, 57.1585364], [12.156195, 57.1581029]]], [[[12.1755284, 57.1610841], [12.1776715, 57.1562963], [12.1524614, 57.1601903], [12.1625492, 57.1656706], [12.1591079, 57.1706978], [12.1920776, 57.1675757], [12.1755284, 57.1610841]]], [[[12.1669569, 57.3103551], [12.2152711, 57.3223902], [12.217894, 57.3153779], [12.288313, 57.3025179], [12.3144338, 57.3092736], [12.3383097, 57.3323312], [12.3869813, 57.3515305], [12.3974872, 57.3286605], [12.4175183, 57.3195726], [12.4245708, 57.3234616], [12.4322066, 57.3150488], [12.4211392, 57.3070706], [12.4302212, 57.2693576], [12.492828, 57.2867939], [12.5045766, 57.2810554], [12.5295272, 57.3027011], [12.5372262, 57.3194945], [12.5587712, 57.3211599], [12.5600453, 57.3303056], [12.6092159, 57.3466696], [12.6231265, 57.3439954], [12.6225215, 57.3319319], [12.6435719, 57.3298606], [12.6552588, 57.3413826], [12.6754043, 57.3299915], [12.6923845, 57.3346052], [12.7055032, 57.3235476], [12.7029916, 57.3134686], [12.7403244, 57.3009222], [12.7444952, 57.2860378], [12.7635968, 57.2700621], [12.7385029, 57.2667256], [12.6743457, 57.2289042], [12.6670427, 57.233437], [12.6412443, 57.2256206], [12.6234696, 57.209544], [12.6240886, 57.1946943], [12.6342022, 57.1895728], [12.6279227, 57.185509], [12.6388241, 57.1832415], [12.6298213, 57.1789104], [12.6491072, 57.1659333], [12.6143085, 57.1536073], [12.6188129, 57.1345458], [12.5764318, 57.1100232], [12.5745826, 57.0866111], [12.5995035, 57.0664675], [12.5706833, 57.0532242], [12.6020176, 57.0414654], [12.6072711, 57.0212965], [12.5504654, 57.0180361], [12.542919, 57.0013161], [12.5269706, 56.9934024], [12.4866688, 57.0058117], [12.4829928, 57.0161441], [12.4533627, 57.0073734], [12.4272743, 57.0121481], [12.3901804, 56.994795], [12.355918175935408, 56.99052150712377], [12.3397386, 57.0182304], [12.310531, 57.0232696], [12.3198742, 57.0324134], [12.2987052, 57.0337307], [12.281032, 57.0433364], [12.284181, 57.0477526], [12.2683439, 57.0506903], [12.2750052, 57.0674829], [12.2416663, 57.0636765], [12.2612128, 57.074584], [12.2553482, 57.0840629], [12.2356899, 57.0866177], [12.2432497, 57.0976961], [12.233128, 57.1080609], [12.2466079, 57.1152447], [12.2382086, 57.1128998], [12.2350916, 57.1226733], [12.2251189, 57.1157564], [12.2326562, 57.1100956], [12.1897852, 57.1151681], [12.2108903, 57.1299972], [12.2463323, 57.1227461], [12.2413715, 57.1275213], [12.2543582, 57.1327418], [12.2490538, 57.139185], [12.2403487, 57.1367784], [12.2446431, 57.1293289], [12.2143214, 57.1339803], [12.2193189, 57.1390019], [12.2059572, 57.148892], [12.2262747, 57.153836], [12.2282794, 57.1621975], [12.2158877, 57.1616567], [12.2006657, 57.1742026], [12.2123632, 57.185072], [12.2009236, 57.1908633], [12.1606628, 57.1858315], [12.1533658, 57.1877581], [12.1573491, 57.1942504], [12.1497373, 57.1931075], [12.2084834, 57.2085174], [12.216843, 57.2174916], [12.2037299, 57.2256181], [12.1812201, 57.2149626], [12.14416, 57.21314], [12.0933014, 57.2347899], [12.0971782, 57.2421234], [12.1312022, 57.2465384], [12.1192497, 57.2537911], [12.0955902, 57.2456431], [12.0842271, 57.2558174], [12.1228964, 57.2782573], [12.163641, 57.2843024], [12.1669569, 57.3103551]], [[12.5398488, 57.0039379], [12.5404677, 57.0050003], [12.5385242, 57.004875], [12.5398488, 57.0039379]]], [[[12.5320116, 57.3332044], [12.5273426, 57.3308606], [12.5284583, 57.3344627], [12.5320116, 57.3332044]]]]}}]}