{"type": "FeatureCollection", "features": [{"type": "Feature", "properties": {"slug": "varnamo", "members": 1, "country": "Sweden", "input_hash": "355d8f1e6d70bbd0"}, "geometry": {"type": "MultiPolygon", "coordinates": [[[[14.1418443, 57.0100616], [14.1423312, 57.0097046], [14.1402835, 57.0088705], [14.1418443, 57.0100616]]], [[[13.7789007, 57.2346591], [13.8413078, 57.235887], [13.8287268, 57.2553801], [13.8987899, 57.2885259], [13.9117423, 57.2691466], [13.9794501, 57.2519195], [14.0054214, 57.284139], [14.0433851, 57.2772701], [14.0596556, 57.3097405], [14.0839378, 57.3258411], [14.0988094, 57.3209246], [14.0915607, 57.3011741], [14.1687682, 57.3191345], [14.2070971, 57.3159423], [14.2240264, 57.3310784], [14.2422619, 57.3074739], [14.2736743, 57.3076828], [14.2736797, 57.3471941], [14.3640611, 57.3824241], [14.3834098, 57.3452377], [14.3788255, 57.3294895], [14.3945342, 57.3270554], [14.3964746, 57.3159816], [14.4121949, 57.3067264], [14.4066824, 57.2948398], [14.4122297, 57.2890819], [14.426482, 57.3015002], [14.4405893, 57.2960643], [14.4436308, 57.2734842], [14.4294375, 57.2593757], [14.4202912, 57.2161001], [14.4024481, 57.1869504], [14.3896275, 57.1851626], [14.3978681, 57.1511077], [14.3481155, 57.1448289], [14.3605757, 57.120246], [14.3373804, 57.1126931], [14.3576719, 57.0964575], [14.3624974, 57.0801013], [14.359915, 57.0576628], [14.3380009, 57.0558047], [14.3305364, 57.0233524], [14.3522482, 57.0115171], [14.3494071, 57.003245], [14.3790447, 56.9996752], [14.3681758, 56.9930645], [14.3669778, 56.9814377], [14.3765297, 56.981192], [14.3949183, 56.9629606], [14.3758502, 56.9318798], [14.3456206, 56.9134084], [14.3249888, 56.8828783], [14.2980389, 56.8791947], [14.255841, 56.8867434], [14.2268021, 56.9097811], [14.2208184, 56.9356839], [14.2092917, 56.9452457], [14.2161284, 56.9549635], [14.1917682, 56.9578084], [14.180348, 56.9887061], [14.1530994, 56.9984192], [14.1582445, 57.0132052], [14.1523945, 57.0294125], [14.0948059, 57.0210981], [14.1001896, 57.034878], [14.0910132, 57.0411183], [14.0168033, 57.0518196], [13.9899887, 57.0293495], [13.9756946, 57.0414928], [13.9247682, 57.040593], [13.9243008, 57.0294167], [13.9103242, 57.0184247], [13.8744204, 57.0183946], [13.8584265, 56.9994633], [13.8429486, 56.9978837], [13.8024924, 57.0287739], [13.7545617, 57.0288281], [13.760241, 57.035629], [13.747264, 57.0371983], [13.7469162, 57.0711089], [13.7326654, 57.0817161], [13.7330581, 57.0925781], [13.716329, 57.0917994], [13.6988455, 57.1099875], [13.7326861, 57.1211993], [13.7435792, 57.1404338], [13.7035346, 57.1397089], [13.697113, 57.1487915], [13.7220287, 57.1603834], [13.7084794, 57.1669767], [13.6764353, 57.1381588], [13.6783032, 57.1436717], [13.663785, 57.1467233], [13.6404486, 57.1717243], [13.6774479, 57.1919967], [13.6557615, 57.1979363], [13.6668113, 57.2488391], [13.7789007, 57.2346591]], [[13.761178, 57.1302676], [13.7452798, 57.131783], [13.7427686, 57.12443], [13.761178, 57.1302676]], [[13.8482715, 57.2375962], [13.8484278, 57.2352919], [13.8520218, 57.2352839], [13.8482715, 57.2375962]], [[14.190793, 57.2912709], [14.1944006, 57.2949895], [14.1896322, 57.294676], [14.190793, 57.2912709]]], [[[14.3976254, 57.1649293], [14.3967844, 57.1626698], [14.3955943, 57.1638227], [14.3976254, 57.1649293]]]]}}]}