{"type": "FeatureCollection", "features": [{"type": "Feature", "properties": {"slug": "vaxjo", "members": 1, "country": "Sweden", "input_hash": "13d2a37ba85e995f"}, "geometry": {"type": "Polygon", "coordinates": [[[15.0669839, 57.1804681], [15.0446734, 57.1742731], [15.0379341, 57.1630659], [15.011168, 57.1640535], [14.9991238, 57.1421805], [14.9804134, 57.1357866], [14.904131, 57.1348835], [14.8922227, 57.1639261], [14.8841854, 57.1673576], [14.8910323, 57.1768785], [14.8713289, 57.1980294], [14.8365704, 57.2020095], [14.8107385, 57.2202452], [14.7504258, 57.2281434], [14.6551266, 57.2087411], [14.6561389, 57.202985], [14.6067826, 57.2044087], [14.6108671, 57.1806471], [14.5570116, 57.1876203], [14.5386765, 57.160678], [14.5096535, 57.163167], [14.472466, 57.1403571], [14.4911421, 57.1338687], [14.4931748, 57.1190829], [14.5175605, 57.1088718], [14.6265379, 57.0868054], [14.6317071, 57.0796691], [14.6240673, 57.0564045], [14.6351796, 57.0450675], [14.6327134, 57.0362583], [14.6475764, 57.031957], [14.632368, 57.025538], [14.633606, 56.9836956], [14.6529103, 56.9813478], [14.6560409, 56.9714972], [14.6797563, 56.9628275], [14.6811879, 56.9536887], [14.6503974, 56.9396833], [14.6557594, 56.9221936], [14.6156668, 56.9011304], [14.6284732, 56.887572], [14.626331, 56.8721082], [14.5942741, 56.8728261], [14.5907617, 56.843766], [14.5563395, 56.8414701], [14.570862, 56.8061204], [14.6368576, 56.8075546], [14.6462489, 56.7818135], [14.6569185, 56.7810679], [14.6666587, 56.7406166], [14.6522102, 56.720556], [14.671529, 56.6776249], [14.6646066, 56.6720089], [14.6742229, 56.6700105], [14.6646997, 56.6713945], [14.6710724, 56.6694151], [14.6782359, 56.669763], [14.6865482, 56.6757636], [14.6956733, 56.6734543], [14.6883679, 56.6600185], [14.6950659, 56.6445159], [14.7117977, 56.6331797], [14.7262457, 56.6302263], [14.7497916, 56.6404027], [14.8157072, 56.6289664], [14.8549399, 56.6475497], [14.8566161, 56.6617712], [14.879289, 56.6770545], [14.9074023, 56.6700534], [14.9645914, 56.6895873], [14.994843, 56.6514917], [15.0060186, 56.6514002], [14.9926965, 56.6507387], [14.9965023, 56.6450866], [15.0302535, 56.6414933], [15.0444661, 56.6313575], [15.0434258, 56.6221965], [15.0565944, 56.6196948], [15.0583283, 56.6083375], [15.1015097, 56.6136804], [15.1013969, 56.648014], [15.0894895, 56.6547508], [15.103088, 56.6555439], [15.1090369, 56.6720412], [15.0916442, 56.6877622], [15.1409422, 56.7043766], [15.1210232, 56.7281579], [15.0767388, 56.7425781], [15.0661218, 56.7652781], [15.0894212, 56.784222], [15.0663149, 56.8069231], [15.1825352, 56.8259848], [15.18789, 56.8351929], [15.1713514, 56.849685], [15.1879268, 56.8584053], [15.1689448, 56.8661456], [15.1718826, 56.8800212], [15.1580133, 56.8891781], [15.1585554, 56.9044024], [15.1710767, 56.911288], [15.1683656, 56.9212267], [15.1327766, 56.9321788], [15.1633335, 56.9440514], [15.1881207, 56.9330916], [15.1982236, 56.9512126], [15.2342092, 56.9659168], [15.2233788, 57.0063159], [15.2370515, 57.0122794], [15.22276, 57.0262913], [15.1845312, 57.0402973], [15.1675289, 57.042146], [15.1653044, 57.0313861], [15.1386333, 57.0271248], [15.155156, 57.0523405], [15.1424433, 57.0548028], [15.1410916, 57.0765606], [15.1073656, 57.0901571], [15.1429044, 57.1014884], [15.1334408, 57.1327146], [15.0846958, 57.147098], [15.0759185, 57.1571588], [15.0855773, 57.1678829], [15.0669839, 57.1804681]], [[14.6760054, 56.6697576], [14.6755331, 56.669873], [14.6762998, 56.6697922], [14.6760054, 56.6697576]], [[14.6375832, 57.0370649], [14.6460396, 57.0380594], [14.6461738, 57.0374609], [14.6375832, 57.0370649]]]}}]}