{"type": "FeatureCollection", "features": [{"type": "Feature", "properties": {"slug": "veria", "members": 1, "country": "Greece", "input_hash": "45fadc06bce444bc"}, "geometry": {"type": "Polygon", "coordinates": [[[22.3504463, 40.4118852], [22.3800319, 40.4240281], [22.4014917, 40.4519135], [22.4049198, 40.473385], [22.3852208, 40.4761021], [22.3223058, 40.5666673], [22.2947233, 40.5653895], [22.2891888, 40.5764329], [22.2970736, 40.6348241], [22.2586727, 40.6550592], [22.2607439, 40.6443077], [22.2527113, 40.6366016], [22.1885374, 40.6404049], [22.1895169, 40.6046402], [22.1762643, 40.5960721], [22.1526084, 40.6111539], [22.1448502, 40.5925], [22.1508082, 40.5814795], [22.1404372, 40.5765387], [22.0925127, 40.5813511], [22.0802433, 40.578076], [22.066239, 40.5596011], [22.0485592, 40.5696449], [22.0320544, 40.5554925], [22.0203666, 40.5742186], [21.9921584, 40.5927384], [21.9689414, 40.5529316], [21.9989229, 40.5104685], [21.9565317, 40.515915], [21.9284986, 40.5022144], [21.9335923, 40.484267], [21.9779218, 40.4805383], [21.9985438, 40.4637685], [22.0133592, 40.4619207], [22.0289405, 40.4470628], [22.0190019, 40.4425509], [22.0233948, 40.435879], [22.0711366, 40.4415321], [22.1052138, 40.431376], [22.0924465, 40.3811069], [22.1268146, 40.3567606], [22.1532887, 40.3585513], [22.1542495, 40.3523463], [22.1319401, 40.3400879], [22.1270558, 40.3258747], [22.1615153, 40.3004111], [22.2036464, 40.3027577], [22.228445, 40.3421381], [22.249499, 40.3399454], [22.2794204, 40.3575557], [22.2877765, 40.3578869], [22.295441, 40.3355509], [22.2972756, 40.3544958], [22.2887412, 40.3617388], [22.3504463, 40.4118852]]]}}]}