{"type": "FeatureCollection", "features": [{"type": "Feature", "properties": {"slug": "vestmannaeyjar", "members": 1, "country": "Iceland", "input_hash": "6b27cbf6ac7ffe8a"}, "geometry": {"type": "MultiPolygon", "coordinates": [[[[-20.5967729, 63.3116586], [-20.5909589, 63.3016635], [-20.5965246, 63.2973096], [-20.6173175, 63.3047295], [-20.5967729, 63.3116586]]], [[[-20.4973877, 63.3180212], [-20.495494, 63.3177707], [-20.4986644, 63.3168264], [-20.4973877, 63.3180212]]], [[[-20.3999269, 63.3296138], [-20.4003426, 63.3314931], [-20.3960457, 63.3301953], [-20.3999269, 63.3296138]]], [[[-20.3995568, 63.3346807], [-20.4020834, 63.3348251], [-20.399707, 63.3366595], [-20.3995568, 63.3346807]]], [[[-20.4026715, 63.3360677], [-20.4022396, 63.33604], [-20.4027456, 63.335979], [-20.4026715, 63.3360677]]], [[[-20.4006511, 63.3364212], [-20.3996587, 63.3376393], [-20.399605, 63.3372108], [-20.4006511, 63.3364212]]], [[[-20.4031563, 63.3381039], [-20.4024857, 63.3372276], [-20.4033601, 63.3368184], [-20.4031563, 63.3381039]]], [[[-20.4054898, 63.3376152], [-20.4047281, 63.3378294], [-20.405227, 63.3372662], [-20.4054898, 63.3376152]]], [[[-20.4051036, 63.3397334], [-20.4035479, 63.3390426], [-20.4060745, 63.339228], [-20.4051036, 63.3397334]]], [[[-20.406019, 63.3399867], [-20.4062493, 63.3401952], [-20.4058231, 63.3400805], [-20.406019, 63.3399867]]], [[[-20.3673192, 63.3571699], [-20.3615422, 63.3630437], [-20.3600241, 63.3601284], [-20.3673192, 63.3571699]]], [[[-20.3657902, 63.3918896], [-20.3627714, 63.3889784], [-20.3698869, 63.3900541], [-20.3657902, 63.3918896]]], [[[-20.3667471, 63.4014482], [-20.3610276, 63.3973753], [-20.3756143, 63.3977729], [-20.3702236, 63.4005572], [-20.3667471, 63.4014482]]], [[[-20.3426507, 63.4450769], [-20.3432086, 63.4452353], [-20.3427365, 63.4454751], [-20.3426507, 63.4450769]]], [[[-20.5125778, 63.4892022], [-20.5135811, 63.4884862], [-20.5130553, 63.4893093], [-20.5125778, 63.4892022]]], [[[-20.5155846, 63.4897457], [-20.5153365, 63.4892027], [-20.5159601, 63.4894332], [-20.5155846, 63.4897457]]], [[[-20.5127701, 63.4907665], [-20.5140495, 63.4904995], [-20.5127433, 63.4908658], [-20.5127701, 63.4907665]]], [[[-20.5137183, 63.4911663], [-20.5134259, 63.49114], [-20.5138336, 63.4910777], [-20.5137183, 63.4911663]]], [[[-20.5138966, 63.4914417], [-20.5134407, 63.4914105], [-20.5135922, 63.491404], [-20.5138966, 63.4914417]]], [[[-20.5126333, 63.4917481], [-20.512577, 63.4919493], [-20.5124483, 63.4919325], [-20.5126333, 63.4917481]]], [[[-20.3204288, 63.3915362], [-20.3152442, 63.3902579], [-20.32492, 63.3875027], [-20.3204288, 63.3915362]]], [[[-20.2590413, 63.4160519], [-20.2599408, 63.4151372], [-20.2603689, 63.4152698], [-20.2590413, 63.4160519]]], [[[-20.2605822, 63.4165908], [-20.2612831, 63.4164287], [-20.2612771, 63.4164997], [-20.2605822, 63.4165908]]], [[[-20.2827275, 63.4443354], [-20.2391714, 63.4452841], [-20.2255726, 63.4364706], [-20.2708751, 63.417747], [-20.2666308, 63.4070597], [-20.2899992, 63.3970162], [-20.2951491, 63.4022429], [-20.2791503, 63.4069103], [-20.2990389, 63.4189036], [-20.3032225, 63.4393384], [-20.3164297, 63.4437181], [-20.2413302, 63.452995], [-20.2827275, 63.4443354]]], [[[-20.3325766, 63.4391417], [-20.333553, 63.439926], [-20.330919, 63.4385396], [-20.3325766, 63.4391417]]], [[[-20.3370157, 63.4407239], [-20.3387068, 63.4394408], [-20.3395523, 63.4402427], [-20.3370157, 63.4407239]]], [[[-20.3310719, 63.4423617], [-20.3287411, 63.4408495], [-20.332405, 63.4411337], [-20.3310719, 63.4423617]]], [[[-20.329763, 63.4443751], [-20.3287786, 63.4426496], [-20.3303102, 63.4427335], [-20.329763, 63.4443751]]], [[[-20.3367555, 63.4452985], [-20.3385043, 63.4451138], [-20.3373939, 63.4458213], [-20.3367555, 63.4452985]]], [[[-20.1837691, 63.4507525], [-20.1890959, 63.4448488], [-20.1955712, 63.4491588], [-20.1837691, 63.4507525]]], [[[-20.2715287, 63.4499514], [-20.2718765, 63.4502253], [-20.2712196, 63.4501539], [-20.2715287, 63.4499514]]], [[[-20.2703536, 63.4503309], [-20.270208, 63.4500807], [-20.2705103, 63.4501503], [-20.2703536, 63.4503309]]], [[[-20.2868597, 63.4511633], [-20.2851002, 63.4516836], [-20.2853148, 63.4511801], [-20.2868597, 63.4511633]]], [[[-20.2356838, 63.459468], [-20.2357499, 63.4595242], [-20.235529, 63.4596174], [-20.2356838, 63.459468]]], [[[-20.2347994, 63.459618], [-20.2345908, 63.4594853], [-20.2348126, 63.4595143], [-20.2347994, 63.459618]]], [[[-20.2359848, 63.4597118], [-20.2355148, 63.4597439], [-20.2354806, 63.459718], [-20.2359848, 63.4597118]]], [[[-20.2405622, 63.461286], [-20.2377954, 63.4593267], [-20.2401746, 63.4598963], [-20.2405622, 63.461286]]], [[[-20.2414514, 63.4611682], [-20.2416796, 63.4612749], [-20.2416263, 63.4614122], [-20.2414514, 63.4611682]]], [[[-20.181424, 63.4679599], [-20.1765288, 63.4691135], [-20.1681165, 63.4675148], [-20.173953, 63.4615436], [-20.181424, 63.4679599]]]]}}]}