{"type": "FeatureCollection", "features": [{"type": "Feature", "properties": {"slug": "vicenza", "members": 113, "country": "Italy", "input_hash": "85a91af4f68014ca"}, "geometry": {"type": "Polygon", "coordinates": [[[11.3206655, 45.4988799], [11.2795809, 45.510071], [11.2788678, 45.523127], [11.2527504, 45.5402251], [11.2424027, 45.5624672], [11.2447842, 45.5872458], [11.2318414, 45.5905869], [11.2358964, 45.600345], [11.2185095, 45.6033778], [11.2142791, 45.6253066], [11.1817019, 45.6181099], [11.166399, 45.6311536], [11.1482879, 45.6510646], [11.1549079, 45.6841288], [11.1437711, 45.6828976], [11.1362048, 45.6996191], [11.1459196, 45.7170231], [11.1782084, 45.7363819], [11.1805986, 45.7662574], [11.1733979, 45.7864409], [11.2042929, 45.7838117], [11.1890902, 45.8130509], [11.2191017, 45.8330011], [11.2204232, 45.8479637], [11.2390639, 45.8562251], [11.244192, 45.8765754], [11.2352617, 45.8782333], [11.2550408, 45.8835074], [11.2490518, 45.8998037], [11.2600281, 45.9052369], [11.2585445, 45.9206624], [11.3032183, 45.9182437], [11.298289, 45.9317444], [11.3007725, 45.9382061], [11.3045569, 45.9268427], [11.313462, 45.9302615], [11.3180806, 45.9196683], [11.3471963, 45.9086244], [11.3452375, 45.9214424], [11.3576629, 45.9249049], [11.3583912, 45.9435653], [11.3817913, 45.9425772], [11.3735987, 45.9834911], [11.4463801, 45.9807858], [11.4889445, 46.0084407], [11.5426033, 46.0144637], [11.5773686, 46.0068904], [11.5877106, 45.9693847], [11.6210709, 45.9715177], [11.629975, 45.9692004], [11.6278705, 45.960581], [11.6684839, 45.9636805], [11.6852571, 45.9680221], [11.6844928, 45.9840327], [11.7169723, 45.9714478], [11.7099465, 45.9602787], [11.7252046, 45.9511639], [11.7292455, 45.9338291], [11.745523, 45.9356261], [11.7692632, 45.921888], [11.7935991, 45.9185807], [11.7799465, 45.9084577], [11.7739394, 45.8893169], [11.8000771, 45.8809479], [11.7992662, 45.8720807], [11.766575, 45.8696825], [11.7604311, 45.8577021], [11.7430292, 45.8540991], [11.757257, 45.8434439], [11.7507895, 45.8214029], [11.7638774, 45.8015212], [11.7791386, 45.7920195], [11.8034723, 45.7999631], [11.8210449, 45.7828089], [11.8362709, 45.7487468], [11.8316299, 45.7404945], [11.81405, 45.7434662], [11.8241055, 45.7073172], [11.8155843, 45.6959923], [11.821717, 45.6872283], [11.7574618, 45.6779078], [11.7067317, 45.6804606], [11.7107706, 45.6677614], [11.6923254, 45.657289], [11.6831853, 45.6621389], [11.6880653, 45.6479915], [11.6801884, 45.6405632], [11.6468335, 45.6342978], [11.6425186, 45.5976359], [11.6746631, 45.591814], [11.6653195, 45.5743097], [11.6720643, 45.5655204], [11.6533172, 45.5519988], [11.6575857, 45.5385348], [11.6753252, 45.5391662], [11.6833114, 45.5523662], [11.7216701, 45.5438134], [11.7204367, 45.5592343], [11.7283267, 45.5610212], [11.7593918, 45.5193405], [11.7274742, 45.5206797], [11.737037, 45.5108275], [11.7371298, 45.489736], [11.7503013, 45.4890017], [11.7377563, 45.4848181], [11.7458966, 45.4720968], [11.7045723, 45.4753972], [11.7101558, 45.4623383], [11.6927629, 45.4480201], [11.6968384, 45.4400513], [11.61574, 45.3875872], [11.6118507, 45.3731966], [11.6277564, 45.3563713], [11.6127826, 45.3376949], [11.619871, 45.3304833], [11.6116795, 45.3250783], [11.6153278, 45.3173195], [11.5884226, 45.3131754], [11.5800237, 45.2882166], [11.5818958, 45.2734333], [11.6131228, 45.2553803], [11.4877471, 45.2658912], [11.4880225, 45.2855978], [11.432319, 45.3076749], [11.4338798, 45.3159238], [11.4473624, 45.3153148], [11.4501617, 45.3253013], [11.3945406, 45.3478439], [11.3514448, 45.3485754], [11.3528315, 45.373856], [11.3308014, 45.3872104], [11.3348895, 45.3984751], [11.3453109, 45.3973048], [11.3396309, 45.4240012], [11.3323686, 45.4335667], [11.3258609, 45.4269363], [11.3236805, 45.4265268], [11.3182272, 45.4326648], [11.3299449, 45.4441205], [11.3202818, 45.4559232], [11.3300948, 45.4636326], [11.3206655, 45.4988799]]]}}]}