{"type":"FeatureCollection","features":[{"type":"Feature","properties":{"slug":"victoria","member_count":1,"matched_count":1,"unmatched":[],"source":"Overture Maps division_area (CC-BY 4.0)"},"geometry":{"type":"MultiPolygon","coordinates":[[[[-123.613862,48.337344],[-123.611758,48.3363261],[-123.6128165,48.3363273],[-123.6132868,48.3365029],[-123.613862,48.337344]]],[[[-123.6043492,48.3381564],[-123.6011719,48.3398548],[-123.6064207,48.3379916],[-123.6043492,48.3381564]]],[[[-123.5911239,48.3457149],[-123.5903457,48.3461435],[-123.590299,48.3461088],[-123.5908139,48.3457793],[-123.5911239,48.3457149]]],[[[-124.0120556,48.2966667],[-124.5040012,48.4321017],[-124.5029081,48.5607076],[-124.4994845,48.5926076],[-124.4892085,48.5926074],[-124.4892662,48.6350274],[-124.4454452,48.6350154],[-124.4454539,48.6268501],[-124.4175083,48.625756],[-124.410555,48.6657563],[-124.3777772,48.6661208],[-124.3785015,48.6950694],[-124.3566378,48.6953454],[-124.3562245,48.6808717],[-124.2797227,48.6818046],[-124.2808313,48.722837],[-124.1978999,48.654154],[-124.1678144,48.6541697],[-124.1405628,48.6397068],[-124.1127099,48.6397142],[-124.1127123,48.6512592],[-124.0151734,48.651236],[-124.0151668,48.645471],[-123.9475709,48.645676],[-123.9475643,48.6382956],[-123.9325461,48.6383008],[-123.9076932,48.6518772],[-123.8986547,48.6363902],[-123.8539762,48.6389023],[-123.8539207,48.6027052],[-123.8313073,48.6052941],[-123.8312064,48.5990351],[-123.8008448,48.5935836],[-123.800833,48.587796],[-123.8200535,48.587805],[-123.8200739,48.5743993],[-123.7785548,48.5744352],[-123.7894988,48.5941006],[-123.7443693,48.605479],[-123.7462249,48.622885],[-123.7230225,48.6228932],[-123.7162798,48.6129939],[-123.6889208,48.6219594],[-123.6890345,48.6030271],[-123.6691483,48.6029703],[-123.6692173,48.5919495],[-123.6581817,48.5920645],[-123.6671539,48.6074159],[-123.6585365,48.6088523],[-123.6481392,48.5971603],[-123.6480725,48.5809082],[-123.6398757,48.5808531],[-123.6455471,48.5627042],[-123.634629,48.5627423],[-123.6280062,48.532939],[-123.6089754,48.5292945],[-123.6089878,48.5220569],[-123.5871331,48.5220334],[-123.579258,48.5360612],[-123.547099,48.5357282],[-123.5445406,48.5505544],[-123.5102888,48.5609463],[-123.5013121,48.5778761],[-123.5048489,48.6716631],[-123.5139985,48.7016088],[-123.5517097,48.7335391],[-123.569589,48.76125],[-123.5532175,48.7794289],[-123.5587739,48.7891402],[-123.5529057,48.8001921],[-123.5763774,48.8176197],[-123.5857937,48.8560749],[-123.6121591,48.8910776],[-123.6123977,48.9481607],[-123.6316396,48.9784445],[-123.602189,48.9933468],[-123.6059363,49.003291],[-123.5886969,49.0154508],[-123.3222397,49.0020717],[-123.0085,48.8312222],[-123.0085,48.7671111],[-123.2678889,48.694],[-123.2189444,48.5487222],[-123.1598611,48.4535],[-123.1151389,48.4228333],[-123.2484444,48.2840278],[-123.5412222,48.2245556],[-123.6790556,48.24],[-124.0120556,48.2966667]],[[-123.6053161,48.3156326],[-123.6050368,48.31546],[-123.6050731,48.3156305],[-123.6053161,48.3156326]],[[-123.6078405,48.3164727],[-123.6069999,48.3156806],[-123.6064646,48.3164558],[-123.6078405,48.3164727]],[[-123.6004696,48.3257901],[-123.6001944,48.3250741],[-123.5994009,48.3258916],[-123.6004696,48.3257901]],[[-123.6103634,48.326994],[-123.6103633,48.3274794],[-123.6108064,48.3272046],[-123.6103634,48.326994]],[[-123.6009879,48.316065],[-123.6005232,48.3145829],[-123.5982691,48.3148716],[-123.6009879,48.316065]],[[-123.6023043,48.3194244],[-123.5958072,48.315755],[-123.5822069,48.3230166],[-123.5925564,48.3314752],[-123.6023043,48.3194244]],[[-123.5985839,48.3252303],[-123.5987092,48.3244123],[-123.5980479,48.3250073],[-123.5985839,48.3252303]],[[-123.5997565,48.3252982],[-123.5996552,48.3245832],[-123.5993121,48.3254784],[-123.5997565,48.3252982]],[[-123.6061331,48.3259526],[-123.6081569,48.3291446],[-123.609613,48.3269929],[-123.6061331,48.3259526]],[[-123.621131,48.330635],[-123.6209873,48.3300897],[-123.6206157,48.330319],[-123.621131,48.330635]],[[-123.7420504,48.3667791],[-123.7531748,48.3589839],[-123.7395531,48.3629745],[-123.7420504,48.3667791]],[[-123.7014335,48.3864562],[-123.6961791,48.3833002],[-123.691911,48.3872713],[-123.7014335,48.3864562]],[[-123.6085989,48.3338565],[-123.5723707,48.3410064],[-123.59581,48.3499865],[-123.602598,48.3422393],[-123.61439,48.3466624],[-123.6232344,48.3365812],[-123.6085989,48.3338565]],[[-123.5062612,48.3793958],[-123.506357,48.3794055],[-123.5063911,48.3793701],[-123.5062612,48.3793958]],[[-123.506057,48.3794591],[-123.5061456,48.3793778],[-123.506021,48.3794644],[-123.506057,48.3794591]],[[-123.5051842,48.3794493],[-123.5053418,48.3795728],[-123.505365,48.3794223],[-123.5051842,48.3794493]],[[-123.2592465,48.4366354],[-123.2598594,48.4367427],[-123.2594984,48.4362883],[-123.2592465,48.4366354]],[[-123.2585626,48.4366606],[-123.2587478,48.4367186],[-123.2587459,48.4366478],[-123.2585626,48.4366606]],[[-123.2597813,48.4370586],[-123.2600642,48.4374101],[-123.2601485,48.4373018],[-123.2597813,48.4370586]],[[-123.2593391,48.4376857],[-123.2592314,48.4377417],[-123.259237,48.4378138],[-123.2593391,48.4376857]],[[-123.2542219,48.4372139],[-123.25423,48.4371466],[-123.2540421,48.4371196],[-123.2542219,48.4372139]],[[-123.2541336,48.4372818],[-123.2541291,48.4373541],[-123.2541961,48.4373088],[-123.2541336,48.4372818]],[[-123.258305,48.4381671],[-123.2564588,48.4378081],[-123.2581637,48.438307],[-123.258305,48.4381671]],[[-123.2537957,48.4378728],[-123.253787,48.4378053],[-123.2537627,48.4378093],[-123.2537957,48.4378728]],[[-123.2536464,48.4378907],[-123.2536245,48.4378344],[-123.2535929,48.4378367],[-123.2536464,48.4378907]],[[-123.2568725,48.4382892],[-123.2568163,48.4381805],[-123.2567339,48.4382145],[-123.2568725,48.4382892]],[[-123.2576092,48.438282],[-123.2572813,48.438617],[-123.2576894,48.4384916],[-123.2576092,48.438282]],[[-123.2532211,48.4386762],[-123.2557215,48.4388239],[-123.2552802,48.4371643],[-123.2532211,48.4386762]],[[-123.254784,48.4398213],[-123.2547521,48.4396984],[-123.2546608,48.4398465],[-123.254784,48.4398213]],[[-123.2545957,48.4398233],[-123.2546005,48.4397393],[-123.2545245,48.4398322],[-123.2545957,48.4398233]],[[-123.2562744,48.4404504],[-123.2564239,48.4404853],[-123.2564885,48.4403872],[-123.2562744,48.4404504]],[[-123.2564207,48.4410158],[-123.2562881,48.4410449],[-123.2562941,48.4411018],[-123.2564207,48.4410158]],[[-123.5056517,48.3794557],[-123.5055425,48.3797262],[-123.5058255,48.3794466],[-123.5056517,48.3794557]],[[-123.5059752,48.3795906],[-123.5063703,48.379497],[-123.506355,48.3794256],[-123.5059752,48.3795906]],[[-123.5050297,48.3798686],[-123.5048323,48.3793351],[-123.5047103,48.3799567],[-123.5050297,48.3798686]],[[-123.5067386,48.3796299],[-123.5063789,48.3796517],[-123.5061329,48.3799762],[-123.5067386,48.3796299]],[[-123.688367,48.3902246],[-123.6950698,48.3878601],[-123.6873578,48.3885421],[-123.688367,48.3902246]],[[-124.3993062,48.5588073],[-124.4003361,48.5593238],[-124.4005041,48.5576457],[-124.4003295,48.5582259],[-124.3993062,48.5588073]],[[-124.3869205,48.5612854],[-124.3999203,48.5575036],[-124.3869199,48.5575302],[-124.3869205,48.5612854]],[[-124.4002486,48.5575719],[-124.3869205,48.5614666],[-124.3869434,48.5635763],[-124.3966649,48.5599644],[-124.4002486,48.5575719]],[[-123.5060903,48.3799061],[-123.5060775,48.379863],[-123.5060283,48.3799277],[-123.5060903,48.3799061]],[[-123.4290223,48.4444654],[-123.4367972,48.4411063],[-123.429525,48.4404052],[-123.4290223,48.4444654]],[[-123.4443141,48.5815275],[-123.4411305,48.5797914],[-123.4411116,48.5815352],[-123.4443141,48.5815275]],[[-123.4597285,48.5857166],[-123.4517231,48.5797955],[-123.4444144,48.5797656],[-123.444378,48.5868559],[-123.4597285,48.5857166]],[[-124.3918016,48.5644194],[-124.3927343,48.5615978],[-124.3870958,48.5640993],[-124.3918016,48.5644194]],[[-124.400616,48.5665298],[-124.4026301,48.56099],[-124.3996296,48.5606508],[-124.400689,48.5622771],[-124.400616,48.5665298]],[[-124.396948,48.5647523],[-124.4003364,48.5665338],[-124.3992885,48.5608174],[-124.396948,48.5647523]],[[-124.39025,48.5653618],[-124.3869632,48.5652166],[-124.3869791,48.5665729],[-124.39025,48.5653618]],[[-124.4020387,48.5705736],[-124.4015246,48.5690219],[-124.40154,48.5712841],[-124.4020387,48.5705736]],[[-124.4047327,48.5721921],[-124.4114965,48.5766061],[-124.412023,48.5778971],[-124.4022795,48.5721928],[-124.4024996,48.5704097],[-124.4015459,48.5716823],[-124.4016124,48.5811548],[-124.4035692,48.5813071],[-124.4057052,48.5797428],[-124.4111782,48.57853],[-124.414833,48.5763443],[-124.4047327,48.5721921]],[[-124.4121843,48.5803138],[-124.4093575,48.5820091],[-124.4125585,48.5838683],[-124.4121843,48.5803138]],[[-124.4100987,48.5848616],[-124.4072283,48.5802733],[-124.4045277,48.5818782],[-124.4100987,48.5848616]],[[-124.2782365,48.5800742],[-124.2755993,48.5864801],[-124.2782318,48.5864858],[-124.2782365,48.5800742]],[[-124.4086092,48.584869],[-124.4016166,48.5819492],[-124.4016436,48.5849061],[-124.4086092,48.584869]],[[-123.4598561,48.5854707],[-123.4620329,48.5905757],[-123.4659537,48.5905771],[-123.4703034,48.579799],[-123.4519282,48.5796737],[-123.4598561,48.5854707]],[[-123.4443926,48.5905249],[-123.4603565,48.5871439],[-123.4443791,48.5870365],[-123.4443926,48.5905249]],[[-123.4850227,48.5923624],[-123.4867295,48.5908217],[-123.4844202,48.5913873],[-123.4850227,48.5923624]],[[-123.4596095,48.6245902],[-123.4698444,48.6159446],[-123.4443491,48.615802],[-123.4442183,48.6301059],[-123.4657684,48.6300323],[-123.4714937,48.6159529],[-123.4596095,48.6245902]],[[-123.4560025,48.6660773],[-123.4504928,48.662646],[-123.4441331,48.6625969],[-123.4441495,48.6662385],[-123.4560025,48.6660773]],[[-123.4577291,48.6662331],[-123.4523044,48.6632731],[-123.4507974,48.6626484],[-123.4552415,48.665486],[-123.4571595,48.6662333],[-123.4577291,48.6662331]],[[-123.2483086,48.4242509],[-123.2358601,48.4276825],[-123.2248644,48.4249919],[-123.2442194,48.4299813],[-123.2483086,48.4242509]],[[-123.2417988,48.4327842],[-123.2420616,48.432551],[-123.2412293,48.4322031],[-123.2417988,48.4327842]],[[-123.2420537,48.4332862],[-123.2421193,48.4331785],[-123.2420326,48.4332697],[-123.2420537,48.4332862]],[[-123.242166,48.4333933],[-123.2418241,48.4335501],[-123.2418621,48.4337881],[-123.242166,48.4333933]],[[-123.2528038,48.4319311],[-123.2527393,48.432001],[-123.2528496,48.432038],[-123.2528038,48.4319311]],[[-123.2525163,48.4321021],[-123.2524605,48.432135],[-123.2527406,48.4321753],[-123.2525163,48.4321021]],[[-123.2528702,48.4336176],[-123.2527992,48.433573],[-123.2527683,48.4336101],[-123.2528702,48.4336176]],[[-123.2518639,48.4336021],[-123.2515904,48.4337101],[-123.2518816,48.4339152],[-123.2518639,48.4336021]],[[-123.2411016,48.4341833],[-123.2410455,48.4342362],[-123.2410671,48.4342493],[-123.2411016,48.4341833]],[[-123.2407764,48.4343785],[-123.2407012,48.4343486],[-123.2406215,48.4343692],[-123.2407764,48.4343785]],[[-123.2409341,48.4344061],[-123.240844,48.4343187],[-123.2409149,48.4344411],[-123.2409341,48.4344061]],[[-123.2411597,48.4344296],[-123.2411528,48.434384],[-123.2411161,48.4344289],[-123.2411597,48.4344296]],[[-123.2522605,48.4336978],[-123.2523143,48.4339659],[-123.2523663,48.4339479],[-123.2522605,48.4336978]],[[-123.2529779,48.4341038],[-123.2529096,48.4340836],[-123.2529714,48.434148],[-123.2529779,48.4341038]],[[-123.2519089,48.4342026],[-123.2535275,48.4346554],[-123.2528402,48.4341033],[-123.2519089,48.4342026]],[[-123.2533209,48.4349661],[-123.2533802,48.4348755],[-123.253311,48.4349547],[-123.2533209,48.4349661]],[[-123.2548331,48.4305115],[-123.2548183,48.4304559],[-123.2546617,48.4305037],[-123.2548331,48.4305115]],[[-123.2577945,48.4311744],[-123.2575639,48.4311869],[-123.25747,48.4315971],[-123.2577945,48.4311744]],[[-123.2577174,48.4323297],[-123.2577133,48.4322491],[-123.2576848,48.4323265],[-123.2577174,48.4323297]],[[-123.2588931,48.4352547],[-123.2536685,48.430437],[-123.2536782,48.4362128],[-123.2588931,48.4352547]],[[-123.2585598,48.4354818],[-123.258562,48.4354371],[-123.2585392,48.4354378],[-123.2585598,48.4354818]],[[-123.258703,48.4355899],[-123.2586521,48.4355598],[-123.2586516,48.4355974],[-123.258703,48.4355899]],[[-123.2584214,48.4358245],[-123.2583128,48.4357737],[-123.2584192,48.4358287],[-123.2584214,48.4358245]],[[-123.259031,48.4358599],[-123.2592601,48.4359745],[-123.2592646,48.43593],[-123.259031,48.4358599]],[[-123.2592931,48.436186],[-123.2594159,48.436111],[-123.2592429,48.436125],[-123.2592931,48.436186]],[[-123.2590187,48.436365],[-123.2586855,48.4360295],[-123.2586307,48.4360938],[-123.2590187,48.436365]],[[-123.2592095,48.4365405],[-123.2592469,48.4363555],[-123.2590463,48.4363986],[-123.2592095,48.4365405]],[[-123.2583514,48.4365111],[-123.2582194,48.4365567],[-123.2583675,48.436625],[-123.2583514,48.4365111]],[[-123.2581891,48.4356228],[-123.2582665,48.4356108],[-123.2582193,48.4355613],[-123.2581891,48.4356228]],[[-123.2536461,48.435799],[-123.2535885,48.4357986],[-123.2536226,48.435817],[-123.2536461,48.435799]],[[-123.2536722,48.4358959],[-123.2536622,48.4358539],[-123.2536456,48.4359094],[-123.2536722,48.4358959]],[[-123.2544748,48.4371404],[-123.2543377,48.4370359],[-123.2542956,48.4370788],[-123.2544748,48.4371404]],[[-123.2406914,48.4346913],[-123.2409142,48.4345561],[-123.2406168,48.4344752],[-123.2406914,48.4346913]],[[-123.2403266,48.4346469],[-123.2402864,48.4351413],[-123.2406214,48.4349392],[-123.2403266,48.4346469]],[[-123.240604,48.4374201],[-123.2406951,48.4374927],[-123.2407583,48.437469],[-123.240604,48.4374201]],[[-123.2420878,48.4386826],[-123.2420166,48.4385833],[-123.2419863,48.4386801],[-123.2420878,48.4386826]],[[-123.2526145,48.4348215],[-123.2528173,48.4351265],[-123.2531516,48.4351889],[-123.2526145,48.4348215]],[[-123.2470667,48.4354376],[-123.2470253,48.4349976],[-123.2467516,48.4352276],[-123.2470667,48.4354376]],[[-123.2530598,48.4352944],[-123.2530959,48.4352467],[-123.2530174,48.4352635],[-123.2530598,48.4352944]],[[-123.248382,48.4347279],[-123.2435329,48.4417717],[-123.2487366,48.4407722],[-123.2497456,48.4327433],[-123.2408994,48.435255],[-123.248382,48.4347279]],[[-123.2421525,48.4385107],[-123.2421392,48.4383534],[-123.2420759,48.4385182],[-123.2421525,48.4385107]],[[-123.2435494,48.4390049],[-123.2434996,48.4389364],[-123.2434754,48.4390232],[-123.2435494,48.4390049]],[[-123.2531252,48.4396522],[-123.2517489,48.4392924],[-123.252005,48.439968],[-123.2531252,48.4396522]],[[-123.2533047,48.4403727],[-123.2534185,48.4403739],[-123.2534351,48.4403563],[-123.2533047,48.4403727]],[[-123.2410905,48.4405475],[-123.2413396,48.440487],[-123.2411446,48.4404679],[-123.2410905,48.4405475]],[[-123.2410772,48.4414843],[-123.2409973,48.441572],[-123.2411703,48.4415057],[-123.2410772,48.4414843]],[[-123.2417218,48.441515],[-123.2417247,48.4415915],[-123.2418353,48.4415384],[-123.2417218,48.441515]],[[-123.2408408,48.4417254],[-123.240801,48.4416641],[-123.2407209,48.4417206],[-123.2408408,48.4417254]],[[-123.2525302,48.4406469],[-123.2528082,48.4404728],[-123.2525273,48.4405285],[-123.2525302,48.4406469]],[[-123.2423572,48.4407812],[-123.2421716,48.4407468],[-123.2422733,48.4408365],[-123.2423572,48.4407812]],[[-123.2534437,48.4411872],[-123.253484,48.4412524],[-123.2535446,48.441238],[-123.2534437,48.4411872]],[[-123.2424602,48.441852],[-123.2427115,48.4417456],[-123.2423899,48.4418199],[-123.2424602,48.441852]],[[-123.2528468,48.4419592],[-123.252822,48.4420137],[-123.2528867,48.4419996],[-123.2528468,48.4419592]],[[-123.2514079,48.4418748],[-123.2512632,48.4420633],[-123.2513259,48.4421394],[-123.2513861,48.4421291],[-123.2514079,48.4418748]],[[-123.2276767,48.7467462],[-123.2293664,48.7445108],[-123.2275963,48.7437722],[-123.2276767,48.7467462]],[[-123.100989,48.7787688],[-123.079148,48.7845944],[-123.0925168,48.7868256],[-123.0994826,48.7881929],[-123.1009678,48.7888627],[-123.100989,48.7787688]],[[-123.1009665,48.7893098],[-123.0873818,48.7866946],[-123.0791456,48.7847793],[-123.0791387,48.7853197],[-123.1009665,48.7893098]],[[-123.2521414,48.4430355],[-123.2560536,48.4415848],[-123.2562093,48.4401786],[-123.2534001,48.4404271],[-123.2536259,48.4414229],[-123.2521414,48.4430355]],[[-123.2535428,48.4430908],[-123.2535575,48.443059],[-123.2534984,48.4430813],[-123.2535428,48.4430908]],[[-123.2595212,48.4380658],[-123.2597191,48.4377209],[-123.2593929,48.4380161],[-123.2595212,48.4380658]],[[-123.3812403,48.4389905],[-123.3815256,48.4391996],[-123.3814539,48.4389419],[-123.3812403,48.4389905]],[[-123.4272636,48.441235],[-123.4288608,48.4430969],[-123.4293365,48.4404741],[-123.4272636,48.441235]],[[-123.4288711,48.444621],[-123.4287941,48.4433314],[-123.4268107,48.4463976],[-123.4302975,48.4464323],[-123.4288711,48.444621]],[[-123.4247435,48.4510492],[-123.4270177,48.4413248],[-123.4125772,48.4465874],[-123.4247435,48.4510492]],[[-123.403263,48.5940844],[-123.4016288,48.5870612],[-123.399253,48.5939359],[-123.403263,48.5940844]],[[-123.3908452,48.5940083],[-123.4002821,48.583289],[-123.3713974,48.5832503],[-123.3712955,48.5942702],[-123.3908452,48.5940083]],[[-123.2845911,48.6333153],[-123.291378,48.635268],[-123.2827421,48.631943],[-123.2845911,48.6333153]],[[-123.430819,48.7558637],[-123.4217149,48.7581074],[-123.4337339,48.7581376],[-123.430819,48.7558637]],[[-123.3456664,48.8575242],[-123.3272337,48.8483799],[-123.3100925,48.8484004],[-123.3456664,48.8575242]]]]}}]}