{"type": "FeatureCollection", "features": [{"type": "Feature", "properties": {"slug": "vilhena", "members": 1, "country": "Brazil", "input_hash": "9cfcab98eff1c841"}, "geometry": {"type": "Polygon", "coordinates": [[[-59.91, -12.186], [-59.9, -12.17], [-59.899, -12.117], [-59.9270948, -12.0809836], [-59.9545177, -12.0655401], [-59.966534, -12.0329086], [-59.9782713, -12.0277039], [-59.9653967, -12.0070733], [-59.9781426, -11.9903242], [-59.9694093, -11.9882882], [-59.9741514, -11.9744137], [-59.9686434, -11.9691823], [-59.9846228, -11.959027], [-59.977649, -11.9451929], [-59.9870904, -11.9291748], [-59.9808891, -11.9172078], [-60.0104437, -11.8928056], [-60.0602255, -11.8954092], [-60.0768123, -11.8848056], [-60.0845585, -11.866894], [-60.0799666, -11.8618121], [-60.0904379, -11.8619171], [-60.0914679, -11.8528872], [-60.0960384, -11.8581792], [-60.0976692, -11.8398038], [-60.1083766, -11.8389848], [-60.0988064, -11.829597], [-60.1031623, -11.819747], [-60.0954805, -11.8181927], [-60.1044498, -11.8026082], [-60.0951586, -11.7987855], [-60.1076685, -11.7935133], [-60.1006721, -11.7808376], [-60.1093355, -11.7762074], [-60.1020253, -11.7724433], [-60.1121128, -11.7615057], [-60.1068309, -11.7486645], [-60.1214683, -11.7123551], [-60.1156773, -11.7060414], [-60.1223266, -11.682807], [-60.1137684, -11.6562694], [-60.119148, -11.6533869], [-60.1101272, -11.6422383], [-60.1132929, -11.5880268], [-60.1088074, -11.5820904], [-60.0935833, -11.5857134], [-60.0980526, -11.5689415], [-60.0866429, -11.5663789], [-60.0938316, -11.5594417], [-60.0573341, -11.541958], [-60.0523859, -11.5277918], [-60.0261046, -11.5065791], [-60.0308167, -11.4926235], [-60.0177983, -11.4963201], [-59.9848715, -11.4702662], [-59.974943, -11.4396756], [-59.9409734, -11.4327457], [-59.9409562, -11.4222043], [-59.9242707, -11.415173], [-59.9196445, -11.323153], [-59.9260312, -11.3116766], [-59.9500333, -11.3065208], [-59.9588855, -11.2955973], [-59.9680348, -11.2527728], [-59.9841469, -11.2329785], [-59.9839139, -11.2078659], [-59.9631816, -11.1889085], [-59.9881196, -11.1727181], [-59.9981347, -11.1481813], [-59.9875883, -11.1460042], [-59.989024, -11.1362655], [-59.9804056, -11.1381293], [-59.9780496, -11.1204283], [-59.98577, -11.1134536], [-59.9932822, -11.126085], [-60.0156015, -11.116196], [-60.0218153, -11.1298734], [-60.038154, -11.1167966], [-60.0619663, -11.1254739], [-60.0833257, -11.0965543], [-60.0869795, -11.1079517], [-60.0962179, -11.1102545], [-60.1105954, -11.1020927], [-60.143123, -11.1051243], [-60.1604833, -11.0953308], [-60.1985815, -11.1136816], [-60.2274553, -11.1055199], [-60.2369016, -11.0947053], [-60.2770041, -11.0951717], [-60.2806579, -11.0646206], [-60.299105, -11.0570115], [-60.3330881, -11.0833365], [-60.3474656, -11.0741536], [-60.3412869, -11.0827243], [-60.348078, -11.1087624], [-60.3768969, -11.0928705], [-60.3920205, -11.0928293], [-60.3956058, -11.0790691], [-60.414, -11.067], [-60.4141421, -11.0434142], [-60.4296186, -11.0362127], [-60.4463429, -11.0423063], [-60.4374609, -11.0184852], [-60.4596203, -10.9889109], [-60.4687743, -10.9997493], [-60.4655556, -11.0243398], [-60.4754262, -11.0458536], [-60.5133312, -11.0670288], [-60.5076127, -11.1011312], [-60.5278043, -11.115049], [-60.5201225, -11.1303768], [-60.5357866, -11.1362508], [-60.5184702, -11.1453038], [-60.5185561, -11.1680401], [-60.5329756, -11.1832177], [-60.5377822, -11.213339], [-60.5246286, -11.2448252], [-60.5275468, -11.2561055], [-60.5104236, -11.2780755], [-60.4849748, -11.2929317], [-60.4970814, -11.3445608], [-60.4852154, -11.3500518], [-60.4834344, -11.3677652], [-60.460303, -11.3584668], [-60.4589297, -11.3849517], [-60.4429437, -11.4052292], [-60.4435051, -11.4238207], [-60.4350581, -11.4359896], [-60.4398538, -11.4482824], [-60.461848, -11.4568207], [-60.4722764, -11.4830231], [-60.4386097, -11.4958598], [-60.4361528, -11.5029774], [-60.4466241, -11.5113459], [-60.4406374, -11.5394984], [-60.4514521, -11.5627919], [-60.4358309, -11.5666179], [-60.4419034, -11.5743959], [-60.4368859, -11.6106172], [-60.4551279, -11.6265153], [-60.4529342, -11.6455696], [-60.4617843, -11.6618019], [-60.4462295, -11.6725178], [-60.4493404, -11.6902297], [-60.4600893, -11.6989697], [-60.4544253, -11.7037597], [-60.4457789, -11.6972469], [-60.4427538, -11.7103144], [-60.4258688, -11.7152303], [-60.4429254, -11.7203562], [-60.4322194, -11.7296624], [-60.4449422, -11.731301], [-60.4580297, -11.7469715], [-60.4552834, -11.7645736], [-60.46408, -11.7812715], [-60.4353948, -11.810527], [-60.4264052, -11.811262], [-60.4331634, -11.8244711], [-60.4044568, -11.8382675], [-60.3951025, -11.8597062], [-60.3892667, -11.853743], [-60.377858, -11.8624463], [-60.3869711, -11.872766], [-60.3708155, -11.9020537], [-60.3754927, -11.9327657], [-60.3463998, -11.9546996], [-60.387, -11.988], [-60.377, -12.008], [-60.374, -12.05], [-60.36, -12.063], [-60.364, -12.071], [-60.334, -12.1], [-60.324, -12.135], [-60.311, -12.152], [-60.315, -12.167], [-60.303, -12.231], [-60.308, -12.243], [-60.3, -12.253], [-60.685, -12.261], [-60.684, -12.296], [-60.699, -12.324], [-60.755, -12.343], [-60.788, -12.37], [-60.809, -12.375], [-60.8100653, -12.4474784], [-60.6285974, -12.444261], [-60.6399275, -12.5377238], [-60.4459096, -12.5357353], [-60.4429889, -12.8394986], [-60.4654716, -12.8306467], [-60.5005831, -12.7990955], [-60.5349778, -12.7934612], [-60.5399518, -12.7809809], [-60.5481144, -12.7841495], [-60.5623298, -12.7675432], [-60.5769443, -12.805497], [-60.5750846, -12.8296352], [-60.5858361, -12.8496846], [-60.5815822, -12.8653184], [-60.5969465, -12.9147155], [-60.5898345, -12.9352393], [-60.6126556, -12.9923868], [-60.5919039, -12.9681553], [-60.58066, -12.9728913], [-60.5746455, -12.9890151], [-60.5521295, -12.959161], [-60.524983, -12.966951], [-60.5044857, -12.9489428], [-60.5047545, -12.9678828], [-60.473256, -12.9988029], [-60.4721912, -13.0106061], [-60.4369617, -13.0028534], [-60.4206077, -13.014855], [-60.4066478, -13.0695727], [-60.3945452, -13.0696208], [-60.3702438, -13.0921836], [-60.3673839, -13.1129345], [-60.3532333, -13.1032648], [-60.3550079, -13.1143823], [-60.3459818, -13.1207068], [-60.3462339, -13.1496974], [-60.3617372, -13.164618], [-60.3530317, -13.1745099], [-60.3581594, -13.2096243], [-60.3485185, -13.2158172], [-60.3431373, -13.2346309], [-60.3483323, -13.2477559], [-60.340586, -13.2566234], [-60.3266479, -13.2547581], [-60.3307388, -13.2340111], [-60.3092942, -13.1997866], [-60.3058384, -13.1786712], [-60.2961622, -13.177489], [-60.2690762, -13.1475314], [-60.2819841, -13.1346523], [-60.2764922, -13.127885], [-60.2798546, -13.0998498], [-60.2863739, -13.0980486], [-60.2840949, -13.0801633], [-60.2677873, -13.0774704], [-60.239405, -13.0361728], [-60.2165312, -13.0272804], [-60.2136568, -13.0070527], [-60.1892776, -12.971143], [-60.1506317, -12.9640583], [-60.1397946, -12.9702063], [-60.1168844, -12.958871], [-60.1051409, -12.9194652], [-60.08408, -12.8959672], [-60.0827368, -12.852602], [-60.065732, -12.8106819], [-60.0685322, -12.789904], [-60.0588012, -12.7861897], [-60.067041, -12.767471], [-60.0622452, -12.7581374], [-60.0751876, -12.73335], [-60.0557622, -12.7036118], [-60.0658956, -12.6938126], [-60.065092, -12.6707904], [-60.0458408, -12.6614425], [-60.0454223, -12.6416679], [-60.0290126, -12.6185309], [-60.003439, -12.6031164], [-60.0033277, -12.5923236], [-59.9815429, -12.5920568], [-59.9727023, -12.6098199], [-59.9477471, -12.5991506], [-59.9285638, -12.5780414], [-59.8961038, -12.5364353], [-59.8979867, -12.5004369], [-59.8428753, -12.4692132], [-59.8425487, -12.4254986], [-59.8295742, -12.3966899], [-59.8176762, -12.3902871], [-59.8190413, -12.379356], [-59.8093987, -12.3780449], [-59.7907734, -12.3446763], [-59.773677, -12.3426641], [-59.892, -12.245], [-59.91, -12.186]]]}}]}