{"type": "FeatureCollection", "features": [{"type": "Feature", "properties": {"slug": "viljandi", "members": 2, "country": "Estonia", "input_hash": "0c8383e9b7581939"}, "geometry": {"type": "MultiPolygon", "coordinates": [[[[26.0587828, 58.2029461], [26.0569052, 58.2015632], [26.056617, 58.2018383], [26.0587828, 58.2029461]]], [[[25.6470697, 58.4853151], [25.6730751, 58.4639296], [25.7282846, 58.4654048], [25.7365303, 58.4586086], [25.7356313, 58.4674548], [25.81844, 58.4847206], [25.8269067, 58.4901453], [25.8232415, 58.4947091], [25.7838975, 58.5239952], [25.8184131, 58.5263658], [25.7953106, 58.5429504], [25.8019118, 58.5466409], [25.7965264, 58.5551924], [25.7695875, 58.5720589], [25.7710987, 58.5848364], [25.8144505, 58.5708485], [25.8470994, 58.5848807], [25.8320139, 58.5987439], [25.8837743, 58.6053702], [25.9571757, 58.5886335], [25.9663596, 58.57634], [25.9559431, 58.5685994], [25.9679442, 58.5649382], [25.9682265, 58.5553685], [25.9994204, 58.5470741], [26.0217373, 58.5563234], [26.0238927, 58.5224213], [26.0808186, 58.4967569], [26.0920588, 58.5020967], [26.1518845, 58.4702788], [26.1659564, 58.4507095], [26.1613872, 58.445726], [26.1908423, 58.4129087], [26.1561124, 58.4035547], [26.1409266, 58.384581], [26.047317, 58.4088004], [26.0279863, 58.4032211], [26.0132431, 58.4062229], [25.9866729, 58.4032934], [25.9641493, 58.387488], [25.9713186, 58.3792384], [25.9607581, 58.3447437], [25.9089728, 58.321576], [25.9210007, 58.2915581], [25.9644709, 58.2527141], [25.9903375, 58.2403547], [25.979571, 58.2296002], [25.9990318, 58.212532], [25.994263, 58.2040854], [26.0005708, 58.1946991], [26.0254762, 58.1912958], [26.043444, 58.1775471], [26.0345197, 58.1572137], [26.0533919, 58.1512424], [26.0441472, 58.1415395], [26.0593266, 58.1228654], [26.0244526, 58.1231149], [26.0205624, 58.1159846], [25.9800325, 58.1096744], [25.9727567, 58.0999151], [25.9264776, 58.0986646], [25.9074782, 58.1335991], [25.8865414, 58.1447241], [25.8498827, 58.1474479], [25.8633667, 58.1296795], [25.8301065, 58.1198164], [25.8356077, 58.1054526], [25.8500998, 58.1187381], [25.8578425, 58.1007431], [25.837633, 58.100146], [25.8430812, 58.0938108], [25.7765011, 58.069887], [25.7460561, 58.0879398], [25.7360304, 58.1053921], [25.745608, 58.1116018], [25.7149782, 58.1271909], [25.701217, 58.1466705], [25.668623, 58.141734], [25.6735869, 58.1705102], [25.6877576, 58.1742601], [25.68603, 58.19148], [25.6696298, 58.2087193], [25.5707985, 58.2106083], [25.5595096, 58.2211892], [25.5680669, 58.2254895], [25.5644895, 58.2335332], [25.5522494, 58.243526], [25.5683697, 58.2454776], [25.5522988, 58.2586492], [25.5578166, 58.2705308], [25.5461139, 58.2863636], [25.5193025, 58.2857781], [25.5285705, 58.2767743], [25.4917807, 58.2718197], [25.4936612, 58.2661868], [25.4843202, 58.2652021], [25.4875209, 58.2584168], [25.4601111, 58.2556977], [25.4355843, 58.2665845], [25.4360243, 58.2763016], [25.3572808, 58.3088469], [25.3385329, 58.3506234], [25.3430525, 58.3651369], [25.3312929, 58.3777402], [25.3099485, 58.3785198], [25.3072632, 58.3919328], [25.3428004, 58.399872], [25.4572711, 58.3754604], [25.4696248, 58.3950398], [25.4501557, 58.4050631], [25.4731337, 58.4343448], [25.4651831, 58.4387967], [25.4643891, 58.4545912], [25.500424, 58.4564903], [25.5255574, 58.4690734], [25.545576, 58.4629225], [25.5685442, 58.4658643], [25.5650051, 58.4705961], [25.5770044, 58.4751238], [25.6089073, 58.4719895], [25.6470697, 58.4853151]]], [[[26.0102794, 58.4051039], [26.0103315, 58.4053923], [26.0106067, 58.4054294], [26.0102794, 58.4051039]]], [[[26.0118405, 58.4057466], [26.0120895, 58.4054468], [26.0117788, 58.4053713], [26.0118405, 58.4057466]]]]}}]}