{"type": "FeatureCollection", "features": [{"type": "Feature", "properties": {"slug": "villingen-schwenningen", "members": 20, "country": "Germany", "input_hash": "00928280b8ee161a"}, "geometry": {"type": "Polygon", "coordinates": [[[8.1537617, 48.098944], [8.1253659, 48.1316812], [8.1419437, 48.1403354], [8.1362328, 48.1639096], [8.1799257, 48.1839841], [8.2246, 48.1582346], [8.2422152, 48.173446], [8.2364473, 48.1792489], [8.2413233, 48.1873961], [8.2859165, 48.1676521], [8.3068542, 48.1731271], [8.3300377, 48.1587021], [8.3832578, 48.1750313], [8.4242879, 48.1675242], [8.442679, 48.1562273], [8.4477034, 48.1624103], [8.4386343, 48.1651306], [8.4447718, 48.1711533], [8.4358647, 48.1819689], [8.4644617, 48.1759767], [8.4891028, 48.1820328], [8.4775993, 48.1765212], [8.4790214, 48.1703215], [8.5176278, 48.1667443], [8.5288929, 48.1502625], [8.5203664, 48.1458066], [8.5582713, 48.129854], [8.5428165, 48.1136727], [8.5714756, 48.0998751], [8.5781951, 48.0881973], [8.567188, 48.0797401], [8.583005, 48.0718376], [8.6027597, 48.0738512], [8.6359692, 48.0503059], [8.6318426, 48.0440055], [8.6441062, 48.0338345], [8.6301872, 48.0148582], [8.6630585, 47.9996159], [8.6514552, 47.9899235], [8.6632042, 47.9710965], [8.6480319, 47.9744916], [8.6514508, 47.965277], [8.6360756, 47.9719831], [8.6467513, 47.9620693], [8.6378137, 47.9613191], [8.630869, 47.9468154], [8.6036548, 47.951623], [8.587461, 47.9418356], [8.5876547, 47.9245523], [8.5969502, 47.9152751], [8.5900626, 47.912722], [8.5920831, 47.9026928], [8.6207404, 47.8888308], [8.6078265, 47.8769997], [8.640241, 47.8545566], [8.6283564, 47.8396831], [8.6260553, 47.8139511], [8.614596, 47.8110428], [8.6139253, 47.8012265], [8.5928509, 47.7987166], [8.5753085, 47.7995919], [8.568028, 47.8084544], [8.5619748, 47.7926065], [8.5749449, 47.7896371], [8.577318, 47.7816742], [8.5628738, 47.7779015], [8.5529028, 47.7846422], [8.5180731, 47.7714071], [8.5102599, 47.7769993], [8.5308702, 47.7898736], [8.4919605, 47.7970129], [8.5137271, 47.8117071], [8.5066337, 47.8297085], [8.4725277, 47.829294], [8.4720153, 47.8467104], [8.437686, 47.8549113], [8.4395729, 47.8767332], [8.4054788, 47.8953527], [8.4108746, 47.9037925], [8.3544408, 47.9256984], [8.3462429, 47.9358191], [8.3144003, 47.9435242], [8.3137797, 47.9518292], [8.2696806, 47.9532199], [8.3143617, 47.9697299], [8.3215206, 47.9841679], [8.3160564, 47.9911736], [8.2825939, 47.9871231], [8.2220252, 47.9976668], [8.1965459, 47.9837053], [8.1916051, 47.993469], [8.165259, 47.9918457], [8.1265361, 48.0155516], [8.1150991, 48.0274293], [8.1283774, 48.0411977], [8.1254259, 48.0525579], [8.1096782, 48.0631229], [8.1296347, 48.0736141], [8.1485121, 48.0675978], [8.1664289, 48.0753617], [8.1454782, 48.0854681], [8.1537617, 48.098944]]]}}]}