{"type": "FeatureCollection", "features": [{"type": "Feature", "properties": {"slug": "vineyard-haven", "members": 1, "country": "United States", "input_hash": "73dc588b0eb5aa3d"}, "geometry": {"type": "MultiPolygon", "coordinates": [[[[-70.8309329, 41.2598712], [-70.8021764, 41.258629], [-70.8040534, 41.2500322], [-70.8309329, 41.2598712]]], [[[-70.6722628, 41.4427643], [-70.6592421, 41.4607645], [-70.6032659, 41.4827672], [-70.59593, 41.4694442], [-70.6011077, 41.4560513], [-70.5868998, 41.4581432], [-70.5990781, 41.4508745], [-70.589397, 41.4525535], [-70.6034097, 41.4310395], [-70.5810302, 41.4530868], [-70.5881981, 41.4604843], [-70.5633823, 41.4693199], [-70.5523385, 41.4399425], [-70.5552414, 41.4330402], [-70.5644204, 41.4352316], [-70.572616, 41.414653], [-70.5597684, 41.4223285], [-70.5604827, 41.4138257], [-70.5469816, 41.4040578], [-70.5358389, 41.4036297], [-70.5479291, 41.4162178], [-70.5064746, 41.3977261], [-70.5020271, 41.3900346], [-70.5050897, 41.3945159], [-70.513771, 41.3864947], [-70.5072902, 41.3611137], [-70.4979447, 41.3551974], [-70.5090576, 41.3497226], [-70.4612471, 41.3503285], [-70.5008559, 41.3689178], [-70.4974227, 41.3822338], [-70.5034529, 41.3765377], [-70.5085916, 41.3886087], [-70.488149, 41.3844505], [-70.4644637, 41.4011164], [-70.4701928, 41.3907183], [-70.4522885, 41.38263], [-70.4585199, 41.3659064], [-70.4530053, 41.3616612], [-70.4596786, 41.3610427], [-70.4506148, 41.3551669], [-70.4487138, 41.4044642], [-70.4564171, 41.4082463], [-70.4497301, 41.4132668], [-70.4644852, 41.4178535], [-70.4725318, 41.3966257], [-70.4733901, 41.4073611], [-70.4650645, 41.4183105], [-70.4518681, 41.4209976], [-70.4497437, 41.4181335], [-70.446386, 41.3992226], [-70.4483267, 41.3555971], [-70.4626851, 41.3495629], [-70.548359, 41.34964], [-70.5355312, 41.3613249], [-70.5472816, 41.3574281], [-70.5420928, 41.3699718], [-70.5502606, 41.3654435], [-70.5543254, 41.3726446], [-70.5529951, 41.3625235], [-70.5643891, 41.3820478], [-70.5597113, 41.3721455], [-70.5690261, 41.3761154], [-70.5625469, 41.3617352], [-70.5499029, 41.3552285], [-70.5761715, 41.3604628], [-70.5705135, 41.3512461], [-70.5499277, 41.3496633], [-70.6462224, 41.3476689], [-70.738091, 41.3355806], [-70.7644067, 41.3192951], [-70.7759811, 41.3013223], [-70.8385634, 41.3468399], [-70.8123153, 41.3567954], [-70.7841681, 41.3485034], [-70.7704715, 41.35234], [-70.7318606, 41.397851], [-70.7123694, 41.4091299], [-70.700946, 41.4337472], [-70.6722628, 41.4427643]]], [[[-70.9509232, 41.4122434], [-70.9279656, 41.4316754], [-70.9185696, 41.4248942], [-70.9333939, 41.4247214], [-70.9081092, 41.4231985], [-70.9509232, 41.4122434]]], [[[-70.5568313, 41.4325676], [-70.5472517, 41.4174399], [-70.5489345, 41.4163777], [-70.5542541, 41.4226237], [-70.5568313, 41.4325676]]], [[[-70.8484007, 41.4330596], [-70.8650822, 41.4231699], [-70.9061742, 41.4254216], [-70.9006844, 41.4344017], [-70.8836299, 41.4318933], [-70.8566382, 41.4500721], [-70.8484007, 41.4330596]]], [[[-70.9260162, 41.4507667], [-70.914755, 41.4511049], [-70.9217587, 41.4457666], [-70.9260162, 41.4507667]]], [[[-70.8087025, 41.444404], [-70.8344115, 41.4418591], [-70.8415011, 41.4485186], [-70.8381342, 41.4560079], [-70.8221442, 41.4570711], [-70.8087025, 41.444404]]], [[[-70.7604356, 41.4615086], [-70.790365, 41.4464659], [-70.8057661, 41.4504314], [-70.8018619, 41.4670376], [-70.7853343, 41.4781828], [-70.7756116, 41.4776085], [-70.7173333, 41.5150059], [-70.701961, 41.510752], [-70.7106733, 41.4922479], [-70.7546275, 41.4784848], [-70.7604356, 41.4615086]]], [[[-70.6995081, 41.5139685], [-70.6771832, 41.5169408], [-70.6747747, 41.5126804], [-70.6898315, 41.5046504], [-70.6995081, 41.5139685]]], [[[-70.7074875, 41.5209122], [-70.6987335, 41.521274], [-70.7060849, 41.5125628], [-70.7074875, 41.5209122]]]]}}]}