{"type": "FeatureCollection", "features": [{"type": "Feature", "properties": {"slug": "vinkovci", "members": 2, "country": "Croatia", "input_hash": "845e8ab534d2415c"}, "geometry": {"type": "MultiPolygon", "coordinates": [[[[18.7886228, 45.3242762], [18.8303316, 45.3265079], [18.845503, 45.3156703], [18.8440309, 45.2900984], [18.873093, 45.2881923], [18.8666868, 45.2572105], [18.8756705, 45.2478789], [18.8479239, 45.2314815], [18.8508608, 45.2224877], [18.825966, 45.2368741], [18.8079825, 45.222819], [18.8128656, 45.2179489], [18.8060016, 45.2027881], [18.7528129, 45.2261038], [18.7730757, 45.2491252], [18.7611668, 45.262867], [18.7368782, 45.2624702], [18.7448489, 45.2851942], [18.7349309, 45.3081621], [18.7886228, 45.3242762]]], [[[19.0813179, 45.2807758], [19.0707895, 45.2895691], [19.0480869, 45.2821803], [19.0125381, 45.2934585], [19.0090439, 45.3015874], [18.9793156, 45.2948656], [18.9662521, 45.300636], [18.9705147, 45.3116192], [18.9634977, 45.3163742], [18.9568549, 45.354709], [18.9330343, 45.3537578], [18.9249855, 45.3787653], [18.9058607, 45.3778293], [18.8743458, 45.3908747], [18.8859933, 45.4019804], [18.9215489, 45.3859168], [18.9237417, 45.3941473], [18.941861, 45.3858961], [18.9712836, 45.3899047], [18.9741017, 45.3739428], [19.0051459, 45.3571777], [19.0927231, 45.334791], [19.1036946, 45.2998012], [19.1419523, 45.2812455], [19.120617, 45.2637228], [19.1135757, 45.273768], [19.0739416, 45.2698206], [19.0813179, 45.2807758]]]]}}]}