{"type":"FeatureCollection","features":[{"type":"Feature","properties":{"slug":"vitoria-gasteiz","member_count":51,"matched_count":49,"unmatched":["Laudio (Llodio) (ES-PV, type='Municipality')","Erriberabeitia (Ribera Baja) (ES-PV, type='Municipality')"],"source":"Overture Maps division_area (CC-BY 4.0)"},"geometry":{"type":"MultiPolygon","coordinates":[[[[-3.6475042,39.8024273],[-3.5394196,39.7773909],[-3.5280838,39.785417],[-3.509242,39.8420123],[-3.4466812,39.8464955],[-3.3917612,39.8207354],[-3.3597752,39.8197125],[-3.3488886,39.7855611],[-3.3609919,39.777415],[-3.3865949,39.7764768],[-3.3999504,39.7840452],[-3.4224143,39.7525022],[-3.5536851,39.7461848],[-3.5978095,39.7236932],[-3.615003,39.7336228],[-3.6112346,39.7483022],[-3.6192833,39.7620901],[-3.6593423,39.7759523],[-3.6591257,39.7887748],[-3.6475042,39.8024273]]],[[[-3.7943599,39.8652058],[-3.7522881,39.8594856],[-3.7452101,39.8471157],[-3.7802529,39.8264455],[-3.7648442,39.814151],[-3.7654556,39.805989],[-3.8131009,39.8114945],[-3.8139964,39.8399053],[-3.7943599,39.8652058]]],[[[-6.0240093,40.5604758],[-6.0438426,40.5775088],[-6.1017644,40.5947186],[-6.081182,40.5962699],[-6.0669387,40.6139784],[-6.0280507,40.5874896],[-6.0095381,40.5864516],[-6.0085839,40.5599061],[-6.000777,40.5530209],[-6.0240093,40.5604758]]],[[[-2.7753387,42.6702273],[-2.717814,42.6619855],[-2.6988019,42.6748123],[-2.6648928,42.6668126],[-2.6579502,42.6722896],[-2.6348621,42.6475865],[-2.5519812,42.6492517],[-2.5490851,42.6371582],[-2.5175691,42.6461953],[-2.5221312,42.6839369],[-2.539664,42.6865382],[-2.5484101,42.6687334],[-2.5776743,42.6679324],[-2.5945243,42.6898958],[-2.6090273,42.6959384],[-2.6000344,42.715013],[-2.5898595,42.7105944],[-2.5725909,42.7248506],[-2.5578987,42.7626846],[-2.5896086,42.7502868],[-2.6022569,42.7707007],[-2.6440112,42.7646835],[-2.7317065,42.7944914],[-2.8020669,42.792597],[-2.8266353,42.7842851],[-2.8358149,42.7960035],[-2.8385523,42.7806922],[-2.8539878,42.7679319],[-2.8481501,42.7632685],[-2.8533658,42.7473495],[-2.8732383,42.7558056],[-2.9101983,42.7552466],[-2.9071379,42.7482774],[-2.9263323,42.7365754],[-2.9312221,42.7184637],[-2.9484689,42.7201379],[-2.9466402,42.7094516],[-2.9808155,42.7036634],[-2.9887908,42.7189562],[-3.009644,42.7251105],[-3.0056664,42.7328167],[-3.0157519,42.7333533],[-3.0165345,42.7408724],[-3.0408708,42.738478],[-3.0484639,42.7654743],[-3.0648643,42.7602446],[-3.0801048,42.7670952],[-3.08437,42.7572194],[-3.1011241,42.7672648],[-3.1476017,42.7568087],[-3.1227938,42.7901403],[-3.1589927,42.8047129],[-3.1479539,42.8142984],[-3.1421137,42.8361882],[-3.1323719,42.8377784],[-3.1130472,42.8610629],[-3.1049756,42.8794868],[-3.1147685,42.8890975],[-3.1256471,42.8912226],[-3.1594824,42.8565086],[-3.1903067,42.8693421],[-3.2220941,42.8384431],[-3.2052218,42.8271994],[-3.2168018,42.8261021],[-3.2829397,42.8755355],[-3.2870106,42.8848185],[-3.2764191,42.8871291],[-3.2774225,42.9017255],[-3.2482181,42.9122803],[-3.2355036,42.9439413],[-3.2247572,42.9500032],[-3.1448803,42.9340915],[-3.1498196,42.9170792],[-3.1256682,42.9039041],[-3.1043725,42.9104761],[-3.0920708,42.8989482],[-3.0190101,42.9084711],[-3.0054568,42.9267411],[-2.9810663,42.9396549],[-3.0451603,42.9730266],[-3.0375272,42.9824394],[-3.0043252,42.9825599],[-3.0010802,42.9894995],[-2.9736166,42.9890907],[-2.9555792,42.9988994],[-2.985696,42.9921687],[-2.9916336,43.0005571],[-2.9857892,43.0116275],[-3.0327194,43.0201943],[-3.0183435,43.0373508],[-3.029203,43.0368014],[-3.0284709,43.0462116],[-3.0500418,43.0467146],[-3.0653267,43.0230014],[-3.090481,43.0094696],[-3.0891521,43.0015039],[-3.1453596,43.0065828],[-3.177193,43.0212642],[-3.1717869,43.0282018],[-3.1419895,43.0287886],[-3.1477746,43.0342323],[-3.1399325,43.0659302],[-3.1581584,43.0735058],[-3.1336951,43.0970723],[-3.1414126,43.1104643],[-3.151984,43.104241],[-3.1793852,43.1162338],[-3.1617217,43.1431329],[-3.1623967,43.1540052],[-3.1378292,43.162809],[-3.1106588,43.1431058],[-3.0266429,43.161111],[-3.0166686,43.2026172],[-3.0397591,43.2106896],[-3.0272493,43.216969],[-3.0065053,43.1960268],[-2.9808445,43.2017838],[-2.9729467,43.1862346],[-2.9780121,43.1835538],[-2.9725005,43.177808],[-3.0221172,43.1367957],[-3.0161038,43.1184119],[-2.9581142,43.090191],[-2.89408,43.0465266],[-2.8641643,43.0517352],[-2.7695408,43.0268358],[-2.7405029,43.0341827],[-2.7299077,43.0239443],[-2.7036789,43.0311637],[-2.6866358,43.0218475],[-2.666634,43.0313883],[-2.6336965,43.0199924],[-2.6334444,43.0451864],[-2.6611327,43.0657571],[-2.6612407,43.0739055],[-2.6326869,43.0870087],[-2.5925662,43.0812276],[-2.5463876,43.0880085],[-2.5407857,43.0762223],[-2.5480732,43.0744952],[-2.5248535,43.0453508],[-2.5492787,43.0199953],[-2.5961092,43.0087916],[-2.6006184,43.0010527],[-2.5927747,42.9874821],[-2.6027119,42.9822474],[-2.5806502,42.9637603],[-2.5510952,42.9588753],[-2.5421292,42.9501325],[-2.5346902,42.9732833],[-2.5011995,42.9594868],[-2.4774011,42.9662209],[-2.4526695,42.956152],[-2.4064048,42.959627],[-2.3771876,42.9481018],[-2.3548705,42.9496729],[-2.3375646,42.9352879],[-2.3023434,42.9257924],[-2.2902712,42.9021502],[-2.255644,42.8978859],[-2.2414573,42.8857725],[-2.2358311,42.8507166],[-2.2690201,42.8412084],[-2.3021937,42.8491062],[-2.3086391,42.8462889],[-2.2981849,42.8340902],[-2.3220117,42.8275989],[-2.3513681,42.8052018],[-2.3692986,42.804231],[-2.3652084,42.7876203],[-2.3716864,42.7800206],[-2.3559908,42.7648192],[-2.3271899,42.7785337],[-2.3054664,42.7757518],[-2.3190924,42.7967337],[-2.2982831,42.7936285],[-2.275873,42.7786378],[-2.262201,42.7478667],[-2.3041301,42.7357448],[-2.3170506,42.7392094],[-2.3240256,42.7229381],[-2.3127122,42.7085253],[-2.316885,42.6825178],[-2.3094003,42.6710077],[-2.3049865,42.669875],[-2.3064735,42.6751597],[-2.2936621,42.6773975],[-2.2890303,42.6548233],[-2.3317778,42.6459206],[-2.3447007,42.6341542],[-2.3823073,42.6338488],[-2.3719302,42.6431816],[-2.3818966,42.6473517],[-2.3768131,42.650716],[-2.4158593,42.6626537],[-2.4501969,42.6469705],[-2.4546408,42.6343988],[-2.4826393,42.6119606],[-2.5033043,42.6166574],[-2.4903448,42.5850211],[-2.4622308,42.5873607],[-2.453242,42.5668107],[-2.4210697,42.6069248],[-2.3963776,42.5986263],[-2.3896719,42.5489366],[-2.4010534,42.5385049],[-2.3923583,42.5162191],[-2.4228127,42.5113115],[-2.4205823,42.4892343],[-2.4488082,42.4968759],[-2.4774309,42.4866376],[-2.4825903,42.4998899],[-2.4957662,42.5018215],[-2.5083531,42.5193961],[-2.5191665,42.5165573],[-2.5492031,42.5430218],[-2.5709809,42.5847271],[-2.5323627,42.5877754],[-2.5327951,42.6076883],[-2.5247031,42.6146703],[-2.5908917,42.598599],[-2.6243712,42.6055066],[-2.6685096,42.5923983],[-2.6685738,42.5862966],[-2.6566101,42.5860513],[-2.6552261,42.5610614],[-2.6471198,42.579299],[-2.6504525,42.5940386],[-2.638581,42.5960104],[-2.6169718,42.5730122],[-2.6204984,42.5612097],[-2.6107637,42.5473726],[-2.6159698,42.5304771],[-2.5959585,42.5147157],[-2.5897756,42.4940441],[-2.5977398,42.4833601],[-2.6009096,42.4845585],[-2.5922843,42.4918229],[-2.6058033,42.5034969],[-2.6477491,42.4832622],[-2.6565413,42.5040475],[-2.6776259,42.5092449],[-2.6768015,42.5261168],[-2.7060049,42.5166019],[-2.6911036,42.5427043],[-2.6820146,42.5957515],[-2.7094696,42.6007586],[-2.7405624,42.6223666],[-2.7656615,42.6199764],[-2.789567,42.6347111],[-2.8035387,42.6315192],[-2.8035216,42.6388491],[-2.8223974,42.6443927],[-2.8696917,42.6386004],[-2.8965595,42.6542536],[-2.8948625,42.6793549],[-2.9051452,42.6939245],[-2.8834904,42.6929734],[-2.8751987,42.7032465],[-2.8918778,42.7093261],[-2.8926539,42.7237748],[-2.8889197,42.731349],[-2.8744265,42.72799],[-2.8683906,42.7405258],[-2.8458396,42.7312303],[-2.8544817,42.729599],[-2.8295958,42.7188712],[-2.8249568,42.7086458],[-2.7844308,42.6987031],[-2.770379,42.6762926],[-2.7753387,42.6702273]],[[-2.6365008,42.5771771],[-2.6388945,42.5738106],[-2.6331807,42.5702743],[-2.6365008,42.5771771]]],[[[-2.5498769,42.4930805],[-2.5487932,42.4837265],[-2.5678698,42.4941559],[-2.5780456,42.4829726],[-2.5923022,42.4834933],[-2.5863198,42.5001734],[-2.5744924,42.5075999],[-2.5498769,42.4930805]]]]}}]}