{"type":"FeatureCollection","features":[{"type":"Feature","properties":{"slug":"volgograd","member_count":4,"matched_count":2,"unmatched":["Sredneakhtubinsky Raion (RU-VGG, type='District')","Gorodishchensky Raion (RU-VGG, type='District')"],"source":"Overture Maps division_area (CC-BY 4.0)"},"geometry":{"type":"Polygon","coordinates":[[[44.654993,48.8241048],[44.6596329,48.8184502],[44.5872224,48.764006],[44.5440599,48.7139791],[44.5355998,48.6726542],[44.5189458,48.6423058],[44.5160031,48.6241913],[44.5273815,48.6183997],[44.5925146,48.6255306],[44.6196772,48.6135748],[44.6489524,48.5872252],[44.6424293,48.5754714],[44.6100459,48.5727531],[44.6086978,48.5631468],[44.6874279,48.5206522],[44.6638861,48.5019746],[44.6641139,48.4912799],[44.6789499,48.4869876],[44.680648,48.4623076],[44.6602244,48.4515407],[44.6440652,48.4626893],[44.6368147,48.4591705],[44.6426639,48.455121],[44.5766552,48.4365541],[44.5799768,48.4274173],[44.5816427,48.4192001],[44.5753355,48.4169173],[44.5746009,48.4169147],[44.5079221,48.4193028],[44.4902395,48.4132786],[44.4795043,48.4168958],[44.4766697,48.4132029],[44.4751963,48.4121678],[44.4626097,48.4079322],[44.4592324,48.4072306],[44.4561752,48.4070531],[44.4499737,48.4077116],[44.4485716,48.408125],[44.4223813,48.422317],[44.4235938,48.4290056],[44.4364301,48.4276257],[44.4227263,48.4224193],[44.4563109,48.4071969],[44.4887435,48.4211878],[44.5753446,48.4171079],[44.5811064,48.4193757],[44.5760735,48.4365387],[44.6264499,48.4555528],[44.6134038,48.4675782],[44.591273,48.4679259],[44.5729355,48.4899487],[44.5482196,48.4842953],[44.5194753,48.4550368],[44.5052477,48.4305425],[44.4988217,48.4247551],[44.4946393,48.4245167],[44.4585421,48.4319958],[44.4273844,48.439827],[44.4936185,48.425031],[44.4970679,48.4336989],[44.5039153,48.4295507],[44.5180392,48.4537859],[44.5462881,48.482721],[44.5179775,48.4770853],[44.508498,48.4672338],[44.4844009,48.4769089],[44.4971349,48.4819644],[44.4692139,48.4855886],[44.4498505,48.4956125],[44.4597875,48.4976168],[44.4103637,48.512487],[44.3820492,48.5311063],[44.3923074,48.5338396],[44.3391981,48.5640033],[44.3456729,48.5685737],[44.3646935,48.5576443],[44.373672,48.5683723],[44.3655507,48.5768927],[44.3743543,48.5816926],[44.3648636,48.5988202],[44.3289533,48.5889724],[44.3432062,48.6159124],[44.2993973,48.6034909],[44.3115564,48.593411],[44.3120573,48.5593377],[44.2881665,48.5513081],[44.2899099,48.4830977],[44.2804892,48.480175],[44.2057388,48.4933598],[44.1912471,48.5134042],[44.1667985,48.52853],[44.1651383,48.5383395],[44.1888196,48.5684467],[44.2175163,48.5733492],[44.2228885,48.5747491],[44.225891,48.5771083],[44.1592475,48.5728256],[44.1409627,48.591511],[44.15,48.58725],[44.1550416,48.5982659],[44.12075,48.60575],[44.1194161,48.6177157],[44.1087686,48.6233608],[44.2438916,48.6403014],[44.2541481,48.6713958],[44.2380713,48.6716824],[44.2852436,48.6756402],[44.3011403,48.694667],[44.3171317,48.6946528],[44.3247197,48.7083462],[44.3779998,48.699468],[44.3895063,48.7179732],[44.411664,48.7183272],[44.4172784,48.7435638],[44.4116955,48.7508618],[44.4203127,48.7583792],[44.3815976,48.7681187],[44.3559679,48.7635562],[44.3695584,48.7705107],[44.3417307,48.779241],[44.3079267,48.7705985],[44.3258444,48.7796117],[44.3197719,48.7930416],[44.3414503,48.7928728],[44.3532918,48.8045187],[44.3605525,48.7963875],[44.3748467,48.802259],[44.386483,48.7898358],[44.4065367,48.7937428],[44.405992,48.7850251],[44.4345148,48.7760492],[44.4268818,48.7712571],[44.4504597,48.7708934],[44.5241124,48.8135121],[44.526928,48.8251366],[44.5536272,48.8476773],[44.5728636,48.8421351],[44.5989884,48.8602597],[44.6004308,48.8731889],[44.5869083,48.8787136],[44.5964769,48.8828154],[44.6188154,48.8890622],[44.6256157,48.8779422],[44.6821691,48.8632143],[44.7477177,48.93766],[44.8054602,48.934395],[44.8340079,48.9168824],[44.8170621,48.9185538],[44.7889782,48.8874748],[44.8220084,48.8744104],[44.8276101,48.8816702],[44.8375306,48.8775022],[44.825326,48.8624628],[44.7954424,48.8799903],[44.7782792,48.8744062],[44.7700088,48.8525796],[44.7930768,48.8532158],[44.8042343,48.8445546],[44.797757,48.8381339],[44.8116089,48.8331079],[44.8076609,48.8405928],[44.8264433,48.8360383],[44.8174366,48.8414325],[44.8310585,48.841482],[44.8426175,48.8551065],[44.8708421,48.8453811],[44.8752345,48.8240219],[44.8931449,48.8189566],[44.8777543,48.7886849],[44.8586665,48.7874701],[44.8437448,48.7634577],[44.8509446,48.7548907],[44.8290714,48.7427991],[44.8477997,48.7329245],[44.83688,48.7236665],[44.783329,48.7447155],[44.7818547,48.7556811],[44.7644237,48.7654052],[44.6960776,48.7785242],[44.6284558,48.757316],[44.6386833,48.7941415],[44.6599495,48.8095507],[44.6619223,48.8273295],[44.654993,48.8241048]]]}}]}