{"type": "FeatureCollection", "features": [{"type": "Feature", "properties": {"slug": "vratza", "members": 10, "country": "Bulgaria", "input_hash": "1d6f261b050d2a5b"}, "geometry": {"type": "Polygon", "coordinates": [[[23.804124469494578, 43.06717312788511], [23.757249, 43.071053], [23.697858, 43.026292], [23.647518, 43.04524], [23.639267, 43.058001], [23.626185, 43.05805], [23.592945, 43.036501], [23.566563, 42.993907], [23.527458, 43.014699], [23.517428, 43.024447], [23.522321, 43.023214], [23.520674, 43.036492], [23.5022605, 43.0483255], [23.492288, 43.073709], [23.473784, 43.071924], [23.472371, 43.084246], [23.45095, 43.097314], [23.46106, 43.106695], [23.455396, 43.107861], [23.458222, 43.118562], [23.487258917304242, 43.13522399548058], [23.478163, 43.151133], [23.442612, 43.157719], [23.440522, 43.150175], [23.424408, 43.15253], [23.389194, 43.177809], [23.411486, 43.202824], [23.447035, 43.205945], [23.473099, 43.224939], [23.412537, 43.257594], [23.367247, 43.256303], [23.333842, 43.274873], [23.330344, 43.269423], [23.318297, 43.275122], [23.317689, 43.292016], [23.351132, 43.312873], [23.359064, 43.331446], [23.380381, 43.340493], [23.3765135, 43.3490779], [23.385908, 43.372615], [23.395426, 43.37136], [23.398473, 43.384383], [23.417402, 43.38971], [23.415021, 43.418509], [23.397332, 43.444314], [23.414628, 43.456238], [23.410548, 43.460231], [23.445928, 43.50291], [23.453036, 43.49951], [23.465471, 43.511588], [23.511588, 43.48573], [23.543406, 43.497883], [23.552759, 43.488098], [23.568272, 43.493995], [23.562754, 43.504716], [23.584536, 43.522245], [23.628469, 43.515557], [23.637218696273344, 43.522740748654215], [23.632549, 43.525486], [23.639607, 43.531289], [23.615433, 43.546407], [23.591966, 43.549302], [23.544973, 43.574476], [23.556096, 43.594781], [23.549142, 43.59953], [23.554156, 43.606768], [23.580853, 43.619758], [23.588356, 43.632322], [23.579894, 43.635006], [23.59171, 43.667607], [23.598676, 43.665378], [23.620579, 43.711307], [23.632569, 43.70817], [23.6281616, 43.7913736], [23.6983251, 43.8066128], [23.7550807, 43.802478], [23.7653001, 43.7858677], [23.8658219, 43.7532525], [23.9900152, 43.7455402], [24.0841019, 43.7029787], [24.1684413, 43.6850127], [24.3235415, 43.6976189], [24.301745, 43.645239], [24.27667, 43.652753], [24.261383, 43.64109], [24.265765, 43.633247], [24.206765, 43.646813], [24.168088, 43.602942], [24.141878, 43.606416], [24.126916, 43.595258], [24.087476, 43.614382], [24.072597, 43.599633], [24.054278, 43.609421], [24.038136, 43.609022], [24.043374, 43.601844], [24.027882, 43.605038], [24.022809, 43.592958], [23.98357, 43.597874], [24.022774, 43.592962], [24.001801, 43.541791], [23.992976, 43.544086], [23.986844, 43.531668], [24.001272, 43.524615], [24.013045, 43.48366], [24.021198, 43.484362], [24.018198, 43.472938], [24.050375, 43.46699], [24.072988, 43.452467], [24.051392, 43.434766], [24.048076, 43.42134], [24.020158, 43.409036], [24.007646, 43.391992], [24.000593, 43.395727], [23.995115, 43.363825], [23.966602, 43.358886], [23.965459, 43.345522], [23.957171, 43.341589], [23.973369, 43.295154], [23.951396, 43.275066], [23.968483, 43.257493], [23.956182, 43.228392], [23.963359, 43.222172], [23.988399, 43.224902], [23.997007, 43.214386], [24.032601, 43.205441], [24.033106, 43.194319], [24.018554, 43.178509], [24.02915, 43.165569], [24.015943, 43.137454], [24.028503, 43.10846], [24.000881, 43.103704], [23.963748, 43.115887], [23.959356, 43.095211], [23.97134, 43.081252], [23.971717, 43.061949], [23.961238, 43.056649], [23.963528, 43.032536], [23.949076, 43.025827], [23.928533, 43.027944], [23.925088, 43.040803], [23.886675, 43.046014], [23.877645, 43.055028], [23.865465, 43.047529], [23.810469, 43.051427], [23.804124469494578, 43.06717312788511]], [[23.64429753539336, 43.51842815964121], [23.651307, 43.524123], [23.644354, 43.518546], [23.64429753539336, 43.51842815964121]], [[23.618169, 43.490627], [23.63196, 43.490823], [23.632094, 43.488095], [23.63199213123818, 43.490867601952075], [23.618169, 43.490627]], [[23.673745, 43.415612], [23.675123, 43.42087], [23.675114760376452, 43.42090187488159], [23.673745, 43.415612]], [[23.670733, 43.414016], [23.673917067406414, 43.41286918352627], [23.671428167709184, 43.41438435579809], [23.670733, 43.414016]], [[23.672703, 43.412107], [23.674011, 43.412812], [23.673952701637763, 43.412847490406484], [23.672703, 43.412107]], [[23.683792, 43.404492], [23.684948912647286, 43.40383503515936], [23.68376826490948, 43.40467483436914], [23.683792, 43.404492]], [[23.687115, 43.402605], [23.696695, 43.404311], [23.68685313042122, 43.40275370535515], [23.687115, 43.402605]], [[23.733714460582053, 43.387193627210124], [23.733717, 43.38733], [23.70034, 43.399978], [23.733714460582053, 43.387193627210124]], [[23.739282041501998, 43.37938367849125], [23.739279, 43.379527], [23.733633, 43.382819], [23.739282041501998, 43.37938367849125]], [[23.74073687711269, 43.368912286899096], [23.741295, 43.370606], [23.740436985233398, 43.371158706056455], [23.74073687711269, 43.368912286899096]], [[23.740968, 43.367181], [23.74158021576257, 43.36658246699659], [23.74090795426859, 43.367630788375976], [23.740968, 43.367181]], [[23.77568561229832, 43.362048467298436], [23.774613, 43.362771], [23.77474128310352, 43.36177800645805], [23.77568561229832, 43.362048467298436]], [[23.759855, 43.532537], [23.751168, 43.535601], [23.769144, 43.529257], [23.759855, 43.532537]], [[23.791345, 43.560377], [23.770634609953667, 43.56794615802185], [23.773924, 43.566606], [23.791345, 43.560377]], [[23.827095, 43.559], [23.834324, 43.574667], [23.826294221075596, 43.55916839897918], [23.827095, 43.559]], [[23.966345, 43.605122], [23.967403, 43.609284], [23.96454, 43.598467], [23.966345, 43.605122]], [[23.492581, 43.134394], [23.49884, 43.137], [23.49027081031416, 43.13475428132371], [23.492581, 43.134394]], [[23.506320434299003, 43.14144229218219], [23.507538, 43.134177], [23.506895, 43.140946], [23.506320434299003, 43.14144229218219]], [[23.504658, 43.149921], [23.504448916954274, 43.14959278152152], [23.50481812788271, 43.14997879826952], [23.504658, 43.149921]], [[23.520297, 43.151609], [23.517172, 43.149623], [23.52055796487017, 43.15149517193922], [23.520297, 43.151609]], [[23.534982, 43.161514], [23.532511, 43.162047], [23.536172292150884, 43.16043117627581], [23.534982, 43.161514]], [[23.544333, 43.153206], [23.547444, 43.153337], [23.543913970127996, 43.15363899525248], [23.544333, 43.153206]], [[23.549726, 43.150968], [23.548798271439036, 43.15193109770417], [23.55028217039377, 43.14986063136158], [23.549726, 43.150968]], [[23.550509, 43.149409], [23.55048188692877, 43.149462983752294], [23.547746, 43.145165], [23.550509, 43.149409]], [[23.555094, 43.144427], [23.555074934196202, 43.14443496972434], [23.547331, 43.135013], [23.555094, 43.144427]], [[23.565953193671785, 43.12799677407048], [23.560048, 43.128936], [23.565818, 43.127957], [23.565953193671785, 43.12799677407048]], [[23.575337, 43.129734], [23.574679750264487, 43.129604031260875], [23.57666775424973, 43.12489802429766], [23.575337, 43.129734]], [[23.577401, 43.113806], [23.578042, 43.119904], [23.577538605981275, 43.121733339446976], [23.577401, 43.113806]], [[23.58489502165303, 43.11087528108585], [23.5805043142769, 43.11257076585488], [23.584737, 43.110886], [23.58489502165303, 43.11087528108585]], [[23.63843243911496, 43.127769215991734], [23.63694, 43.126124], [23.63855, 43.127736], [23.63843243911496, 43.127769215991734]], [[23.633792, 43.131415], [23.635577, 43.128576], [23.633983287919595, 43.131658162609654], [23.633792, 43.131415]], [[23.611568, 43.173505], [23.611605587637268, 43.1734919548054], [23.618338, 43.179692], [23.611568, 43.173505]], [[23.847306, 43.26038], [23.863477798496596, 43.26333042130492], [23.846846096756416, 43.260486306276434], [23.848406, 43.253153], [23.847306, 43.26038]], [[23.882532, 43.266149], [23.876368373017193, 43.26155264552331], [23.87653924042253, 43.26149161833783], [23.882532, 43.266149]], [[23.914136607912074, 43.24538521322179], [23.90004174746562, 43.248675004147906], [23.901227, 43.24788], [23.914136607912074, 43.24538521322179]], [[23.927407, 43.247964], [23.914477230475978, 43.24531938777809], [23.91465, 43.245286], [23.927407, 43.247964]], [[23.953423, 43.261516], [23.946802739979205, 43.25671731929511], [23.960526047382828, 43.26477760339007], [23.953423, 43.261516]], [[23.86042695844407, 43.13956283050444], [23.857558, 43.138531], [23.85744142152624, 43.13832741936105], [23.86042695844407, 43.13956283050444]], [[23.869594, 43.1402], [23.869943536078882, 43.14036461856006], [23.86334747803584, 43.14061320514818], [23.869594, 43.1402]], [[23.805917, 43.072119], [23.80542230429121, 43.06782098875885], [23.80645, 43.068334], [23.805917, 43.072119]], [[23.816448, 43.090143], [23.812678, 43.086381], [23.812682521370412, 43.086333152022846], [23.816448, 43.090143]], [[23.77540115951901, 43.354598000571215], [23.775494, 43.349089], [23.777461, 43.344182], [23.77540115951901, 43.354598000571215]], [[23.451795, 43.325819], [23.4406865043943, 43.31854296053214], [23.45359438319324, 43.32608062764457], [23.451795, 43.325819]], [[23.437735630603797, 43.310072876000405], [23.439407, 43.313491], [23.437717, 43.310077], [23.437735630603797, 43.310072876000405]], [[23.68993, 43.625455], [23.6947, 43.624704], [23.679994, 43.62958], [23.68993, 43.625455]], [[23.7705944153985, 43.5679625340231], [23.774915, 43.583918], [23.770554, 43.567979], [23.7705944153985, 43.5679625340231]], [[23.829024145343624, 43.69157958105297], [23.832293, 43.69175], [23.829022, 43.691612], [23.829024145343624, 43.69157958105297]], [[23.817846, 43.672471], [23.825332, 43.675735], [23.82562844073652, 43.676245134387756], [23.817846, 43.672471]], [[23.7960013808599, 43.6549172656334], [23.796259, 43.654982], [23.797555, 43.657712], [23.7960013808599, 43.6549172656334]], [[23.75875456115672, 43.642392215043785], [23.759864, 43.642349], [23.75998385043321, 43.64237033438829], [23.75875456115672, 43.642392215043785]], [[23.730357915663685, 43.63945931958726], [23.74120611700237, 43.64270456744808], [23.74062, 43.642715], [23.730357915663685, 43.63945931958726]], [[23.729654, 43.639236], [23.72566775944016, 43.63574305555038], [23.726486, 43.635907], [23.729654, 43.639236]], [[23.70651871525389, 43.62479199927931], [23.707216, 43.625297], [23.706246, 43.629238], [23.70651871525389, 43.62479199927931]], [[23.698682, 43.621992], [23.7038, 43.622823], [23.705660508790512, 43.624170452795006], [23.698682, 43.621992]]]}}]}