{"type":"FeatureCollection","features":[{"type":"Feature","properties":{"slug":"vyborg","member_count":1,"matched_count":1,"unmatched":["[recovered via metro-name fallback: Vyborg]"],"source":"Overture Maps division_area (CC-BY 4.0)"},"geometry":{"type":"Polygon","coordinates":[[[28.8713994,60.7543574],[28.8042422,60.7620696],[28.8141777,60.7862837],[28.7308553,60.8113221],[28.6579168,60.7808817],[28.6275708,60.7540558],[28.6022026,60.7567892],[28.5800471,60.7342266],[28.6022644,60.723683],[28.6382418,60.7407926],[28.6636844,60.7302954],[28.674298,60.7188515],[28.6573574,60.6999936],[28.6431729,60.6966936],[28.675697,60.6884758],[28.6798182,60.672276],[28.7143277,60.6746662],[28.7708885,60.660034],[28.7839427,60.6682746],[28.8318912,60.6606787],[28.8368071,60.6532198],[28.8612237,60.6662344],[28.8724458,60.6620179],[28.8694498,60.673264],[28.911189,60.6677259],[28.9017511,60.6852945],[28.8669458,60.6816646],[28.8512956,60.7026041],[28.8538748,60.7121344],[28.8457166,60.7121538],[28.8467839,60.7253524],[28.8292757,60.7363876],[28.8713994,60.7543574]]]}}]}