{"type": "FeatureCollection", "features": [{"type": "Feature", "properties": {"slug": "wa-municipal", "members": 2, "country": "Ghana", "input_hash": "b6df9b7c631c90db"}, "geometry": {"type": "Polygon", "coordinates": [[[-2.4594972, 9.9424298], [-2.453202, 9.9078742], [-2.4615048, 9.8853113], [-2.4576331, 9.8700568], [-2.4936444, 9.7890856], [-2.4966806, 9.7633826], [-2.4859464, 9.7533535], [-2.5084877, 9.7463642], [-2.5075007, 9.719907], [-2.5215125, 9.6867004], [-2.5514032, 9.673692], [-2.5812078, 9.6474722], [-2.618351, 9.6496617], [-2.6985598, 9.6299879], [-2.7193308, 9.6323573], [-2.731905, 9.6432308], [-2.7456013, 9.6412854], [-2.7576141, 9.6807141], [-2.787175, 9.6971077], [-2.7830255, 9.7271645], [-2.7900518, 9.7465135], [-2.7781785, 9.7568749], [-2.7587385, 9.800001], [-2.7326383, 9.8147245], [-2.7264489, 9.8310965], [-2.7618966, 9.8839632], [-2.7633267, 9.914969], [-2.7430564, 9.9607414], [-2.7817113, 10.0267803], [-2.79047, 10.0695907], [-2.7935071, 10.1260037], [-2.7872305, 10.1410729], [-2.7944724, 10.1744985], [-2.7393508, 10.2045323], [-2.7034951, 10.1840048], [-2.6929379, 10.1644897], [-2.6592923, 10.1551119], [-2.6144029, 10.1658414], [-2.6099128, 10.1561309], [-2.6170927, 10.1494437], [-2.5891148979395595, 10.123959073280133], [-2.5698035, 10.1201327], [-2.5599969, 10.111194], [-2.564819, 10.1016334], [-2.5509471, 10.0920777], [-2.5224302, 10.0971206], [-2.4599612, 10.1614377], [-2.4411644, 10.1541931], [-2.4181939, 10.1653345], [-2.4040318, 10.1621241], [-2.394848, 10.1189498], [-2.3677255, 10.1222451], [-2.3492719, 10.1126126], [-2.367983, 10.1019657], [-2.3639703, 10.0712378], [-2.3554516, 10.0615298], [-2.3297238, 10.0635475], [-2.3045111, 10.052392], [-2.3341441, 10.0309566], [-2.325368, 9.9770611], [-2.3803318, 9.951827], [-2.4109411, 9.9179778], [-2.4427038, 9.9152723], [-2.4594972, 9.9424298]], [[-2.4657708, 9.9517583], [-2.466281353911162, 9.951996322039138], [-2.4594972, 9.9424298], [-2.4657708, 9.9517583]]]}}]}