{"type":"FeatureCollection","features":[{"type":"Feature","properties":{"slug":"waalwijk","member_count":2,"matched_count":2,"unmatched":[],"source":"Overture Maps division_area (CC-BY 4.0)"},"geometry":{"type":"Polygon","coordinates":[[[5.1030528,51.7024838],[5.1029586,51.6169111],[5.0755399,51.6057677],[5.0042648,51.6078963],[4.9872669,51.6546089],[4.9578968,51.6515319],[4.9526271,51.6720977],[4.9331695,51.67675],[4.9179912,51.7199594],[4.9563975,51.7227946],[5.0384737,51.7108175],[5.0817602,51.7223444],[5.1100985,51.7068864],[5.1030528,51.7024838]]]}}]}