{"type":"FeatureCollection","features":[{"type":"Feature","properties":{"slug":"wabrzych","member_count":17,"matched_count":17,"unmatched":[],"source":"Overture Maps division_area (CC-BY 4.0)"},"geometry":{"type":"Polygon","coordinates":[[[16.486926,50.7145316],[16.492867,50.699172],[16.4804055,50.6933505],[16.4798195,50.6737408],[16.4489745,50.6537129],[16.4489614,50.6469673],[16.4046805,50.6540693],[16.4030939,50.6446794],[16.3751066,50.6363633],[16.3624908,50.6483155],[16.3505698,50.6483391],[16.3406222,50.6623157],[16.2841062,50.6604491],[16.2794374,50.6682063],[16.2354183,50.6716518],[16.2173562,50.633346],[16.1828707,50.6275033],[16.1703673,50.6452774],[16.1073003,50.662072],[16.1109699,50.6778131],[16.1647155,50.6831204],[16.1788015,50.7000043],[16.1730164,50.7088954],[16.1341331,50.7095019],[16.1159633,50.7242051],[16.1004652,50.7489698],[16.1069508,50.7606751],[16.0675733,50.7913755],[16.0731521,50.7991798],[16.0687093,50.8112424],[16.0869177,50.8189808],[16.0676698,50.8271291],[16.0835717,50.8460067],[16.0808191,50.8547953],[16.0879328,50.8544131],[16.0851496,50.8608311],[16.1194885,50.8527872],[16.1975906,50.8715224],[16.2042818,50.8858554],[16.1945094,50.8956738],[16.1996892,50.9147277],[16.1850306,50.9180324],[16.1778481,50.935502],[16.1594029,50.9506898],[16.1730727,50.9613825],[16.1685374,50.9639825],[16.2038248,50.9714728],[16.2067603,50.9972653],[16.1955396,51.0042366],[16.1986326,51.0167212],[16.2175509,51.0182806],[16.2651377,51.002166],[16.2691009,51.0121186],[16.2893065,51.018802],[16.3198823,51.0134994],[16.3200245,51.0232627],[16.3351134,51.029723],[16.3404032,51.020834],[16.3666191,51.0258981],[16.3806694,51.0128248],[16.4124644,51.0042696],[16.4306228,51.007626],[16.4298614,51.0139966],[16.5103639,50.9926524],[16.6047274,51.0012154],[16.6302496,50.9803432],[16.5815604,50.9754664],[16.5904946,50.9583797],[16.5842236,50.9492539],[16.5660926,50.951408],[16.5746676,50.9367207],[16.5831157,50.9369954],[16.5728689,50.9228642],[16.5920542,50.9151787],[16.6179615,50.9282495],[16.6532064,50.9240083],[16.6509439,50.9327248],[16.6716406,50.9378853],[16.7005035,50.9337031],[16.6749693,50.9170264],[16.6975443,50.9089202],[16.6916185,50.9058663],[16.6963721,50.8892683],[16.6716241,50.8768176],[16.6775288,50.8715183],[16.6749735,50.8511771],[16.6971534,50.841003],[16.6690248,50.8204717],[16.6352124,50.8173709],[16.6337491,50.8258998],[16.6138418,50.8184482],[16.5833889,50.8260184],[16.5788972,50.8178861],[16.5938276,50.7988965],[16.547988,50.7772224],[16.5703581,50.75995],[16.5592129,50.7526863],[16.5634484,50.7445605],[16.4981249,50.7113028],[16.486926,50.7145316]],[[16.2518336,50.7276949],[16.2640551,50.7160927],[16.3039721,50.7233583],[16.3086082,50.7417201],[16.3229624,50.7429407],[16.3389558,50.7574981],[16.3377674,50.7644068],[16.346149,50.7671726],[16.3276215,50.7804006],[16.35527,50.7959675],[16.3321815,50.8105159],[16.3543474,50.8214949],[16.3475542,50.8341419],[16.2722675,50.8540062],[16.2524422,50.8479488],[16.2494375,50.8381075],[16.2596986,50.8354207],[16.2469287,50.8234822],[16.276905,50.8168079],[16.2639478,50.8070136],[16.28063,50.7975263],[16.2694741,50.7902636],[16.2595115,50.7979607],[16.2311081,50.798793],[16.2303684,50.7903795],[16.2396191,50.7893513],[16.2288492,50.7761198],[16.2337726,50.7712426],[16.2276054,50.750878],[16.2552814,50.7421585],[16.2518336,50.7276949]]]}}]}