{"type": "FeatureCollection", "features": [{"type": "Feature", "properties": {"slug": "walvis-bay", "members": 2, "country": "Namibia", "input_hash": "2b9db606bdb47489"}, "geometry": {"type": "Polygon", "coordinates": [[[17.473659999988758, -23.759229999996045], [17.527659999992483, -23.852069999993567], [17.661850000004065, -23.855869999999435], [17.666750000003976, -23.950630000006665], [17.739380000013643, -23.939829999988454], [17.74676999999794, -23.98113999998898], [17.67076999999701, -24.015480000001865], [17.67431000000217, -24.11055000001218], [17.616180000011827, -24.16003999998795], [17.55207999999404, -24.160349999991034], [17.53200999999537, -24.09659999998987], [17.39371000000394, -24.071750000002815], [17.260840000002663, -24.037210000009534], [17.26266999999645, -24.070830000011508], [17.24491999999738, -24.11087000000409], [17.227740000002104, -24.128159999992956], [17.177200000005556, -24.134010000008878], [17.19763000000968, -24.195039999991444], [17.163310000003563, -24.195890000002716], [17.144900000013894, -24.230149999988523], [17.108340000006155, -24.243799999996575], [17.107209999987408, -24.236070000013594], [17.04477000000772, -24.236109999998032], [17.03581999999007, -24.22443000000205], [16.994559999991925, -24.238799999991922], [16.97338000001038, -24.213209999987182], [16.896879999985703, -24.196280000003778], [16.867629999993387, -24.28107999998613], [16.898729999986262, -24.29889000000551], [16.9021200000134, -24.333450000005566], [16.881620000000126, -24.335870000009916], [16.872059999994253, -24.34818000000089], [16.845969999994864, -24.356969999993474], [16.82840999998736, -24.348020000004933], [16.83298999999535, -24.281309999991233], [16.76094000000741, -24.26626000000399], [16.695009999995833, -24.22065999999179], [16.682280000008195, -24.252030000003312], [16.604699999996246, -24.205829999991714], [16.524869999993843, -24.214279999985614], [16.48081000000822, -24.314270000002605], [16.355780000012615, -24.301280000014255], [16.339890000002942, -24.230489999987206], [16.409550000011237, -24.21119999999066], [16.378049999999366, -24.114490000007233], [16.348090000014068, -24.094959999987644], [16.421540000010296, -24.044020000001204], [16.404489999986268, -24.004210000013725], [16.245820000011026, -24.087889999995266], [16.27434000000359, -24.04016000000413], [16.25265000000947, -23.99763999998688], [16.147659999987823, -23.992469999997432], [16.13284999999452, -23.977970000007215], [16.213010000006776, -23.928610000002685], [16.25450999999886, -23.933749999996532], [16.244420000002734, -23.88790000000156], [16.26063999999316, -23.848960000003014], [16.18431000001148, -23.891440000006718], [16.142250000004438, -23.88370999999463], [16.087059999990757, -23.89514999999667], [15.995429999995409, -23.93580999999542], [15.934340000007085, -23.9415900000022], [15.926569999996005, -23.974729999987197], [15.799440000002521, -23.98198000001141], [15.723840000006037, -23.961459999991373], [15.741930000003793, -23.79472000000535], [15.764540000003777, -23.811719999997898], [15.839959999997532, -23.80228000000354], [15.847290000005174, -23.737880000000608], [15.833119999995702, -23.639049999997976], [15.841480000002791, -23.575429999997162], [15.738540000005756, -23.509859999991047], [15.802240000004547, -23.387500000011663], [15.829050000000295, -23.38639999998852], [15.826700000005092, -23.35187000001317], [15.798179999997972, -23.255479999992552], [15.806030000007029, -23.258269999991192], [15.820970000000685, -23.242800000007286], [15.852180000001695, -23.240850000001977], [15.852589999994976, -23.231050000002163], [15.87122000000092, -23.238630000007127], [15.88085000000139, -23.23649000001026], [15.884470000004526, -23.222999999998162], [15.897630000006773, -23.226610000012464], [15.918000000005136, -23.215939999994614], [15.936050000003904, -23.220479999989063], [15.93585999999779, -23.209579999995206], [15.943509999997346, -23.20683000001011], [15.886190000004731, -23.167469999985794], [15.867100000003136, -23.137209999986247], [15.895059999995297, -22.882110000005945], [15.913159999996438, -22.860920000006466], [15.960000000006417, -22.837809999997283], [16.066019999998407, -22.835790000011933], [16.070789999997956, -22.721629999985474], [16.065720000013258, -22.69216000000599], [15.952619999996402, -22.695630000002005], [16.070570000010793, -22.575580000004287], [16.159129999985467, -22.60777000000237], [16.22055999998703, -22.56883000000382], [16.220949999988093, -22.54274999999327], [16.272250000009095, -22.50761000000059], [16.270259999990245, -22.501450000010685], [16.337930000008797, -22.507390000013423], [16.33572000000278, -22.424520000000506], [16.413860000000582, -22.379669999994825], [16.512680000014385, -22.351350000011756], [16.534270000003758, -22.379340000014075], [16.58207000000404, -22.342559999990065], [16.63453000001029, -22.35995000001278], [16.653640000004103, -22.338649999990615], [16.783319999987743, -22.349519999988864], [16.74982999998612, -22.30618000001416], [16.666950000013472, -22.31559000001291], [16.65643999999158, -22.29623000000722], [16.68116000000738, -22.277310000004967], [16.70219999999974, -22.240829999995206], [16.71512999999688, -22.24319999999718], [16.714360000012693, -22.221339999989162], [16.736440000007878, -22.226220000011402], [16.798210000008126, -22.278569999994964], [16.811080000014062, -22.321670000004836], [16.902250000013755, -22.280750000005376], [16.90723000001164, -22.28487000000316], [16.96343999999228, -22.228239999996752], [16.989490000007226, -22.280999999988147], [17.07962999999292, -22.211470000009307], [17.104790000012162, -22.268739999999546], [17.164329999999627, -22.233089999994284], [17.25615999998992, -22.199900000006913], [17.252360000013155, -22.141689999989488], [17.279799999989354, -22.100470000004883], [17.29678999999307, -22.140849999996156], [17.360240000009085, -22.117969999992077], [17.38313999999083, -22.11976999999026], [17.390879999991757, -22.07886000000874], [17.38094999999159, -22.068919999990634], [17.449850000004535, -22.103540000011], [17.459360000008033, -22.030850000010126], [17.437030000000977, -21.96325000000072], [17.475709999998816, -21.96184999999243], [17.50951999999235, -21.93580999999542], [17.50190000000295, -21.91734000001454], [17.561929999996227, -21.87841999999366], [17.574439999996702, -21.845059999992394], [17.661759999988153, -21.826040000014494], [17.699430000007865, -21.86496000000627], [17.801609999994998, -21.83303999999773], [17.845089999987994, -21.807709999993698], [17.881259999994672, -21.767070000001716], [17.929009999992576, -21.74867999998971], [17.98347000000651, -21.731809999997516], [17.993320000008698, -21.75362000000316], [18.116139999998286, -21.7086899999995], [18.147900000010868, -21.79384999998731], [18.06687999999851, -21.86262999998873], [18.076850000012218, -21.89040999999272], [18.091610000003147, -21.89040999999272], [18.111629999999437, -21.91127000001145], [18.09888999999386, -21.982400000008077], [18.073080000001955, -21.986280000011924], [18.07229999999983, -22.01813000001132], [18.056199999991822, -22.01488000000247], [18.04414000001272, -22.067920000001344], [18.057360000006174, -22.0693399999873], [18.07113999998548, -22.127160000003663], [17.96523000000163, -22.142140000010862], [17.955069999996358, -22.217470000003253], [17.992460000008595, -22.30150000000142], [18.037780000013317, -22.354239999986042], [18.093190000014165, -22.34046999999557], [18.141210000001607, -22.413310000003573], [18.17350000000444, -22.430790000013097], [18.106910000002262, -22.46243000001416], [18.162899999995734, -22.51347000000535], [18.212399999989447, -22.478249999985586], [18.237790000013792, -22.576570000004743], [18.258070000010793, -22.74095999999556], [18.293700000009284, -22.819450000009986], [18.289820000005438, -22.959839999995914], [18.390829999989382, -22.944229999993716], [18.39165999999388, -22.989429999986918], [18.299349999986607, -23.004950000002303], [18.30910000001315, -23.048749999987216], [18.316359999997093, -23.06622000000791], [18.359449999989028, -23.055190000013702], [18.36955000000309, -23.0853800000041], [18.430040000006574, -23.089700000011383], [18.456650000007375, -23.16253999999028], [18.35690000001343, -23.163910000002964], [18.338450000010216, -23.21299], [18.501850000000577, -23.343190000014168], [18.433560000004963, -23.503729999996743], [18.401179999986216, -23.472529999999118], [18.285849999985675, -23.53781999999776], [18.224909999989922, -23.555300000007286], [18.242900000012032, -23.61053999999424], [18.147380000009452, -23.624609999998963], [18.0833200000052, -23.655690000014168], [18.03654999998982, -23.658659999986433], [18.02447999999278, -23.643279999989343], [17.975680000003212, -23.667160000011812], [17.903250000003045, -23.606430000014395], [17.84327000001214, -23.59138999998688], [17.64796999999091, -23.597110000002452], [17.64895000000253, -23.629979999997907], [17.535340000002197, -23.62666999999785], [17.457804286528624, -23.68980437036249], [17.473659999988758, -23.759229999996045]], [[16.98517, -23.31216999999017], [16.994969999999757, -23.342379999987337], [16.99772000001396, -23.397649999999], [17.118160000012736, -23.446419999992962], [17.218289999989807, -23.388600000005706], [17.197229999990686, -23.329510000010508], [17.188729999994408, -23.323020000010754], [17.18356000000496, -23.28711000000478], [17.19193000000088, -23.282390000007602], [17.19644999998856, -23.236969999998134], [17.187760000000726, -23.21676999999911], [17.190529999992595, -23.199920000013684], [17.17295000000742, -23.201390000002014], [17.107549999986094, -23.168379999988268], [16.995820000011022, -23.169939999992515], [16.937230000010473, -23.26269000000323], [16.98517, -23.31216999999017]], [[16.401920000003898, -23.61887000000572], [16.382870000001294, -23.61011000000874], [16.38012478977584, -23.609937073374006], [16.401920000003898, -23.61887000000572]], [[16.377571111721757, -23.609776211758387], [16.37525000001189, -23.60962999999176], [16.367520894686177, -23.61296068085452], [16.377571111721757, -23.609776211758387]], [[16.34961999999361, -23.6316100000113], [16.344810000009616, -23.637619999994083], [16.3448295936324, -23.637895677719143], [16.34961999999361, -23.6316100000113]], [[16.987820000009393, -22.544250000006308], [16.972080000006844, -22.584590000013144], [16.91995999999928, -22.578550000005656], [16.871069999993797, -22.59682000000614], [16.900220000010467, -22.63282999998776], [16.962269999989093, -22.67126999999166], [17.009729999990682, -22.656989999988603], [17.08176000000096, -22.694370000012007], [17.088359999994296, -22.70809999998894], [17.13347999998952, -22.669239999988374], [17.23482000001242, -22.639300000009847], [17.21322000000511, -22.554169999988538], [17.141810000001005, -22.58678000001239], [17.130509999988153, -22.58238999999596], [17.13042000000134, -22.57240999999342], [17.117449999990654, -22.576040000014498], [17.126850000000577, -22.56992999999786], [17.12260000000244, -22.565070000011495], [17.109499999991403, -22.55632999999218], [17.104870000010138, -22.562329999986126], [17.0970399999933, -22.547549999988426], [17.083110000006872, -22.55270999998904], [17.081910000008083, -22.541869999986396], [17.068880000006192, -22.5351399999927], [17.073670000012513, -22.51535000000151], [17.082400000013894, -22.515909999987365], [17.08921000000557, -22.496829999989153], [17.072810000012414, -22.437280000012855], [17.028229999996274, -22.43236999999501], [17.027319999993797, -22.479790000012166], [16.99259999999778, -22.485619999992217], [16.987820000009393, -22.544250000006308]]]}}]}