{"type":"FeatureCollection","features":[{"type":"Feature","properties":{"slug":"watertown-sd","member_count":44,"matched_count":2,"unmatched":["Watertown city (US-SD, type='City')","Pelican township (US-SD, type='Township')","Lake township (US-SD, type='Township')","Sheridan township (US-SD, type='Township')","Elmira township (US-SD, type='Township')","Florence town (US-SD, type='Town')","Kranzburg township (US-SD, type='Township')","Kampeska township (US-SD, type='Township')","Fuller township (US-SD, type='Township')","Rauville township (US-SD, type='Township')","Henry town (US-SD, type='Town')","Dexter township (US-SD, type='Township')","Waverly township (US-SD, type='Township')","South Shore town (US-SD, type='Town')","Germantown township (US-SD, type='Township')","Kranzburg town (US-SD, type='Town')","Richland township (US-SD, type='Township')","Eden township (US-SD, type='Township')","Henry township (US-SD, type='Township')","Wallace town (US-SD, type='Town')","Graceland township (US-SD, type='Township')","Phipps township (US-SD, type='Township')","Leola township (US-SD, type='Township')","Estelline city (US-SD, type='City')","Castlewood city (US-SD, type='City')","Norden township (US-SD, type='Township')","Lake Norden city (US-SD, type='City')","Bryant city (US-SD, type='City')","Hayti town (US-SD, type='Town')","Estelline township (US-SD, type='Township')","Oxford township (US-SD, type='Township')","Cleveland township (US-SD, type='Township')","Hayti township (US-SD, type='Township')","Hamlin township (US-SD, type='Township')","Castlewood township (US-SD, type='Township')","Dempster township (US-SD, type='Township')","Opdahl township (US-SD, type='Township')","Florence township (US-SD, type='Township')","Brantford township (US-SD, type='Township')","Garfield township (US-SD, type='Township')","Dixon township (US-SD, type='Township')","Hazel town (US-SD, type='Town')"],"source":"Overture Maps division_area (CC-BY 4.0)"},"geometry":{"type":"Polygon","coordinates":[[[-96.8835413,45.1504587],[-96.8855406,44.543773],[-97.4922876,44.5438542],[-97.4942894,45.151631],[-96.8835413,45.1504587]]]}}]}