{"type":"FeatureCollection","features":[{"type":"Feature","properties":{"slug":"waycross","member_count":9,"matched_count":2,"unmatched":["Balance of Pierce County (US-GA, type='Balance')","Blackshear city (US-GA, type='City')","Patterson city (US-GA, type='City')","Offerman city (US-GA, type='City')","Waycross city (US-GA, type='City')","Balance of Ware County (US-GA, type='Balance')","Waycross city (US-GA, type='City')"],"source":"Overture Maps division_area (CC-BY 4.0)"},"geometry":{"type":"Polygon","coordinates":[[[-82.2836277,31.2266186],[-82.2842143,31.1923015],[-82.2312349,31.1689013],[-82.208535,31.1710309],[-82.2080618,31.0846635],[-82.1627025,31.0484885],[-82.1317511,31.0107478],[-82.415543,31.014116],[-82.4211436,30.7952939],[-82.178711,30.790562],[-82.1499358,30.7843937],[-82.2147,30.568481],[-82.418914,30.581767],[-82.4188602,30.6131702],[-82.4309248,30.6128895],[-82.4289618,30.6903618],[-82.4351824,30.7166094],[-82.4200311,30.7167044],[-82.4201958,30.7292472],[-82.4352698,30.7291924],[-82.4358948,30.820112],[-82.4955106,30.819596],[-82.49057,30.96332],[-82.5203167,30.9634102],[-82.550629,31.001038],[-82.592584,31.0186771],[-82.68586,31.212957],[-82.701231,31.2233425],[-82.6994314,31.2781028],[-82.6636972,31.2883084],[-82.6296314,31.2748609],[-82.628244,31.4693332],[-82.4920629,31.468839],[-82.4922964,31.4430538],[-82.4775303,31.4429507],[-82.4772643,31.4175259],[-82.4018238,31.4172859],[-82.4015353,31.4302554],[-82.3446476,31.4301474],[-82.3447873,31.442068],[-82.3300848,31.4424107],[-82.329929,31.4569444],[-82.3150615,31.4569643],[-82.3150548,31.4679121],[-82.3006869,31.4677749],[-82.3004745,31.4931614],[-82.2696751,31.4926214],[-82.2696126,31.5057028],[-82.2558235,31.5054568],[-82.2557943,31.5175703],[-82.2387904,31.5176638],[-82.239212,31.5305368],[-82.2265771,31.5306957],[-82.1549782,31.4711696],[-82.097652,31.4812143],[-82.0642923,31.4669696],[-82.0526949,31.4546154],[-82.0575857,31.4091559],[-82.0440129,31.3952685],[-82.0407947,31.3618274],[-82.0132339,31.3181801],[-81.9920875,31.3079797],[-82.007177,31.2757613],[-82.0217295,31.279506],[-82.0516772,31.2711681],[-82.0621292,31.2768094],[-82.0636291,31.2710324],[-82.1001527,31.2767869],[-82.1330656,31.2546154],[-82.1404149,31.2585954],[-82.1419508,31.2376331],[-82.1508791,31.2350273],[-82.1462421,31.2270299],[-82.1640216,31.2154311],[-82.1756909,31.2175503],[-82.1928339,31.2021523],[-82.2253826,31.2207487],[-82.2685752,31.2170382],[-82.2836277,31.2266186]]]}}]}