{"type":"FeatureCollection","features":[{"type":"Feature","properties":{"slug":"weatherford-ok","member_count":9,"matched_count":1,"unmatched":["Weatherford city (US-OK, type='City')","Clinton city (US-OK, type='City')","Balance of Custer County (US-OK, type='Balance')","Thomas city (US-OK, type='City')","Arapaho town (US-OK, type='Town')","Custer City town (US-OK, type='Town')","Butler town (US-OK, type='Town')","Hammon town (US-OK, type='Town')"],"source":"Overture Maps division_area (CC-BY 4.0)"},"geometry":{"type":"Polygon","coordinates":[[[-99.3758063,35.812119],[-99.3770467,35.5517723],[-99.3641746,35.5516443],[-99.364217,35.465328],[-98.6233172,35.4644194],[-98.6232035,35.5515023],[-98.6320901,35.5515124],[-98.6320272,35.8123992],[-99.3758063,35.812119]]]}}]}