{"type":"FeatureCollection","features":[{"type":"Feature","properties":{"slug":"weihai","member_count":4,"matched_count":3,"unmatched":["R\u016dsh\u0101n Sh\u00ec (CN-SD, type='County-level City')"],"source":"Overture Maps division_area (CC-BY 4.0)"},"geometry":{"type":"MultiPolygon","coordinates":[[[[117.8091139,30.5987407],[117.7869927,30.6001353],[117.7767607,30.6142272],[117.7453494,30.602144],[117.743783,30.6143882],[117.7585888,30.6346072],[117.7782225,30.6409029],[117.788372,30.6332225],[117.8028774,30.6410506],[117.8324032,30.6812887],[117.8298712,30.6937443],[117.8530584,30.679062],[117.8657024,30.6816637],[117.8858212,30.6534951],[117.9380746,30.6348072],[117.9097741,30.6107872],[117.8908201,30.6137049],[117.8822554,30.5985086],[117.8879202,30.5779545],[117.8703406,30.5856926],[117.8629456,30.5704316],[117.8322888,30.5688608],[117.8091139,30.5987407]]],[[[122.2623781,37.2616216],[122.2415369,37.2600963],[122.2671692,37.2347342],[122.2671692,37.2086004],[122.2760327,37.2101267],[122.3021442,37.1853203],[122.3136428,37.1841752],[122.3141219,37.1690964],[122.3057375,37.1658512],[122.3038211,37.1515324],[122.2678879,37.1456132],[122.2633363,37.1267068],[122.2451302,37.1190665],[122.2532725,37.088278],[122.2321917,37.071842],[122.2436713,37.0546977],[122.2394657,37.0422985],[122.2159019,37.0322826],[122.196772,37.0116288],[122.1603932,36.9989938],[122.1599312,36.9694731],[122.0910008,36.8859376],[122.0833523,36.3836997],[121.8542203,36.2422837],[121.8511676,36.9111272],[121.8591714,36.9313009],[121.850996,36.9449701],[121.8580798,36.9637892],[121.8486035,36.9721297],[121.8078303,36.9762641],[121.7896267,36.9950527],[121.7532195,37.0012601],[121.7791954,37.0286973],[121.7713208,37.0361265],[121.7776614,37.042902],[121.7626281,37.0521254],[121.7556739,37.0483709],[121.7504582,37.0609397],[121.7562875,37.0772597],[121.7314365,37.0810128],[121.7367544,37.0775045],[121.722846,37.073588],[121.7293911,37.0992046],[121.7467766,37.1124175],[121.7325999,37.1354181],[121.7468136,37.1378449],[121.748489,37.1565568],[121.7628832,37.1697947],[121.7593746,37.1785343],[121.7492281,37.1717342],[121.7435701,37.1762929],[121.7437281,37.1822364],[121.7552654,37.1781565],[121.7543803,37.191604],[121.7640527,37.1958342],[121.7601332,37.206182],[121.755455,37.2035134],[121.7590585,37.2168808],[121.7494177,37.2115945],[121.7504924,37.2200524],[121.7421161,37.2228211],[121.7429379,37.24074],[121.7710082,37.2475477],[121.7893252,37.3075227],[121.8161857,37.3105905],[121.8277311,37.3257024],[121.8603544,37.3366012],[121.8592406,37.3538139],[121.8666971,37.3555346],[121.8590001,37.3710198],[121.8751157,37.3746516],[121.8804073,37.3874573],[121.885699,37.3826793],[121.8837748,37.3912795],[121.893396,37.3912795],[121.8869017,37.3949104],[121.8986877,37.4103874],[121.9111953,37.40905],[121.9063846,37.4124889],[121.9290305,37.4473224],[121.9204455,37.4695492],[121.9169995,37.6718646],[122.148742,37.7544303],[122.2730968,37.727],[122.320745,37.698],[122.38646508825329,37.64052912329657],[122.3782983,37.4153506],[122.3987425,37.4084608],[122.4043254,37.3881146],[122.3791503,37.3739839],[122.373802,37.3542178],[122.350537,37.3548555],[122.3475191,37.3376964],[122.3655122,37.3252423],[122.3683773,37.2984741],[122.3512246,37.3048252],[122.3364214,37.2836503],[122.3170148,37.2863022],[122.3100238,37.2628951],[122.2661522,37.2731294],[122.2623781,37.2616216]]]]}}]}