{"type": "FeatureCollection", "features": [{"type": "Feature", "properties": {"slug": "willemstad", "members": 65, "country": "Cura\u00e7ao", "input_hash": "9280d4187dc95514"}, "geometry": {"type": "MultiPolygon", "coordinates": [[[[-68.8732975, 12.0707169], [-68.9697888, 12.1200302], [-68.9636207, 12.1346309], [-68.9694543, 12.1398608], [-68.9703709, 12.1229421], [-68.9966753, 12.1385764], [-69.0268555, 12.194845], [-69.0440244, 12.2010871], [-69.0597609, 12.1871764], [-69.0774018, 12.1946379], [-69.085722, 12.2185363], [-69.1046296, 12.2359503], [-69.1028158, 12.2545691], [-69.1096619, 12.2501971], [-69.1287392, 12.2679825], [-69.1182867, 12.2780992], [-69.1265065, 12.2816667], [-69.1261322, 12.2723389], [-69.1357672, 12.2682869], [-69.1554219, 12.2928261], [-69.1451864, 12.3071956], [-69.1544482, 12.3364199], [-69.1538756, 12.3690181], [-69.1626895, 12.3807776], [-69.156425, 12.3904864], [-69.0720212, 12.3512293], [-69.0609302, 12.3339874], [-69.0660226, 12.3307966], [-69.0537393, 12.3201082], [-69.0606098, 12.3124603], [-69.0535972, 12.3124564], [-69.0498149, 12.2774895], [-69.0563622, 12.2723395], [-69.0481523, 12.2731719], [-69.0278466, 12.239739], [-68.9692078, 12.1940838], [-68.9044, 12.1783779], [-68.8551325, 12.1754635], [-68.8149685, 12.1477716], [-68.806052, 12.1301416], [-68.8237886, 12.1287577], [-68.8208447, 12.1216613], [-68.8283171, 12.1159519], [-68.80314, 12.1106801], [-68.8112354, 12.1230142], [-68.8048502, 12.1278469], [-68.7855742, 12.0945866], [-68.7366673, 12.0436895], [-68.775613, 12.0444594], [-68.7915279, 12.0342669], [-68.8227689, 12.0440423], [-68.8526487, 12.0655763], [-68.8520337, 12.0762276], [-68.8414925, 12.071696], [-68.8425925, 12.0869419], [-68.8490944, 12.0875833], [-68.8494013, 12.0786473], [-68.8554598, 12.0846228], [-68.8537794, 12.0773398], [-68.8564712, 12.0846148], [-68.8680036, 12.0830526], [-68.8604462, 12.0702436], [-68.8522029, 12.0735858], [-68.8564329, 12.0626601], [-68.866728, 12.0793711], [-68.8732975, 12.0707169]], [[-68.9313776, 12.1161359], [-68.93327326578355, 12.107283466958034], [-68.9278356, 12.1164861], [-68.9123391, 12.1083676], [-68.9115917, 12.1233233], [-68.9178564, 12.1359492], [-68.9223004, 12.1274879], [-68.9128953, 12.1223853], [-68.9180943, 12.1189798], [-68.9439047, 12.1259625], [-68.9371228, 12.1199961], [-68.9415414, 12.1165251], [-68.9313776, 12.1161359]], [[-68.93297664602738, 12.107112655744087], [-68.93061169112018, 12.104060314014024], [-68.9264847, 12.1041828], [-68.93297664602738, 12.107112655744087]]], [[[-68.6435205, 11.9783041], [-68.64668, 11.9996159], [-68.640132, 11.9927556], [-68.6435205, 11.9783041]]]]}}]}