{"type": "FeatureCollection", "features": [{"type": "Feature", "properties": {"slug": "wiltz", "members": 54, "country": "Luxembourg", "input_hash": "86f3d9430f293630"}, "geometry": {"type": "Polygon", "coordinates": [[[5.8667629, 49.8881681], [5.8389116, 49.8832737], [5.8449424, 49.8736332], [5.8026006, 49.8636245], [5.8064228, 49.8699555], [5.7952666, 49.8722988], [5.7955407, 49.8803228], [5.787147, 49.8735383], [5.770607, 49.8873455], [5.735708, 49.8968943], [5.764023452062459, 49.91595100999065], [5.7639466, 49.9314557], [5.7751585, 49.9377112], [5.7750254, 49.9607957], [5.7957794, 49.965689], [5.8071125, 49.9604181], [5.8106536, 49.9709389], [5.8357671, 49.9788811], [5.8401338, 49.9894361], [5.8687522, 49.989206], [5.8708251, 50.0002053], [5.9061294, 49.9929642], [5.9278063, 50.0086208], [5.9296643, 50.0257091], [5.9363547, 50.0193282], [5.972608, 50.0322095], [5.9689314, 50.026644], [5.976649790111682, 50.0179831852209], [6.0064355, 50.0114547], [6.0220001, 49.9988612], [6.0603829, 50.0031385], [6.0532083, 49.9878035], [6.0355517, 49.984347], [6.0233314, 49.9679947], [6.0419816, 49.9634001], [6.03649730756729, 49.94007620134956], [6.0494171, 49.9239612], [6.0394191, 49.9260342], [6.0390705, 49.9192527], [6.020602, 49.9147507], [6.0122633, 49.8796109], [5.9934165, 49.877038], [5.9977944, 49.8651172], [5.9854638, 49.862899], [5.9832558, 49.8532684], [5.9459502, 49.8706756], [5.9135804, 49.8588386], [5.9097532, 49.8623902], [5.9208029, 49.8661215], [5.8995578, 49.8883951], [5.8923535, 49.8794538], [5.8976379, 49.8734928], [5.8818491, 49.8639713], [5.8667629, 49.8881681]], [[5.9002277, 49.9676176], [5.9009177, 49.9657186], [5.900568733961337, 49.967787319731954], [5.9002277, 49.9676176]], [[5.8971079, 49.9636835], [5.8981566, 49.9620789], [5.897188039545864, 49.9637263085437], [5.8971079, 49.9636835]], [[5.8779104, 49.9513871], [5.878152893088439, 49.950306284986915], [5.882087091735704, 49.95362596068547], [5.8779104, 49.9513871]], [[5.9165034, 49.9345346], [5.9165561499582475, 49.9331479416237], [5.917036984129361, 49.934754075041], [5.9165034, 49.9345346]], [[5.9423233, 49.9213396], [5.942484021121495, 49.921222235430875], [5.9405744, 49.92884], [5.9423233, 49.9213396]], [[5.9647748, 49.9047409], [5.965157737296589, 49.90506756560534], [5.9598367, 49.9068199], [5.9647748, 49.9047409]], [[5.9750436, 49.9081729], [5.975098219750651, 49.908407083092996], [5.969109, 49.9084382], [5.9750436, 49.9081729]], [[5.9765684, 49.911353], [5.976799607248753, 49.91110322348427], [5.977156055491488, 49.91111699767592], [5.9765684, 49.911353]], [[5.9802109308877744, 49.90980128613371], [5.98043719860392, 49.90962767556171], [5.979967892456006, 49.90998776453141], [5.9802109308877744, 49.90980128613371]], [[5.979622, 49.9049544], [5.980241315539752, 49.90468998255082], [5.980408564047598, 49.908905874270594], [5.979622, 49.9049544]], [[5.9819143, 49.9039757], [5.983122868218393, 49.904470192600854], [5.981125985301711, 49.90431227182533], [5.9819143, 49.9039757]], [[5.9878756, 49.9064148], [5.987764972053297, 49.907024317184636], [5.986771037628928, 49.9059628619866], [5.9878756, 49.9064148]], [[5.986635551506991, 49.91324698742457], [5.9863416, 49.913244], [5.987019640554455, 49.91113080537621], [5.986635551506991, 49.91324698742457]], [[6.0030597, 49.9136153], [6.0034818, 49.9162342], [6.002851612189579, 49.913612302918146], [6.0030597, 49.9136153]], [[6.009034041410422, 49.9259400759441], [6.0046701, 49.9240256], [6.0017463, 49.9207221], [6.009034041410422, 49.9259400759441]], [[6.0136364, 49.9257399], [6.0097079, 49.9262357], [6.009389395937312, 49.92609597118406], [6.0136364, 49.9257399]], [[6.03726352857982, 49.92116437525386], [6.037003, 49.92144], [6.034031410221392, 49.92121168075218], [6.03726352857982, 49.92116437525386]], [[5.852271340162288, 49.905576150122215], [5.852380198659554, 49.90604175929463], [5.8521305, 49.9056871], [5.852271340162288, 49.905576150122215]], [[5.8557667, 49.9028642], [5.852452579178033, 49.90530367362482], [5.855818534245544, 49.9012965969847], [5.8557667, 49.9028642]], [[5.855831, 49.9009196], [5.855825280841825, 49.90109256228598], [5.8543983, 49.8994505], [5.855831, 49.9009196]], [[5.9388758, 49.9145381], [5.938654120619148, 49.9144589534646], [5.938954957809937, 49.914137730720036], [5.9388758, 49.9145381]], [[5.9337164, 49.9158499], [5.934205258700863, 49.9156756581588], [5.93477576557165, 49.91558055167328], [5.9337164, 49.9158499]], [[5.9294185, 49.9123269], [5.930134661545439, 49.91226129025484], [5.927574432231915, 49.91653755591222], [5.9294185, 49.9123269]], [[5.9241047, 49.9137908], [5.927431561517297, 49.91677618810315], [5.9274197, 49.916796], [5.9241047, 49.9137908]], [[5.9195442, 49.9055309], [5.917988, 49.9111563], [5.919484660226691, 49.90542285670827], [5.9195442, 49.9055309]], [[5.9185661, 49.903756], [5.91918126509016, 49.904872303566634], [5.917992414652899, 49.90408813168803], [5.9185661, 49.903756]], [[5.9138824, 49.9064676], [5.915071575227432, 49.90577913414038], [5.913583742627791, 49.90716621382322], [5.9138824, 49.9064676]], [[5.8619152, 49.9021428], [5.861633330529001, 49.90232497005629], [5.861737687767223, 49.90186717488781], [5.8619152, 49.9021428]], [[5.8535222, 49.9076638], [5.8567578, 49.9073391], [5.8505215859420945, 49.90944652199634], [5.8535222, 49.9076638]], [[5.839461067266081, 49.94862777770075], [5.8395067, 49.9486511], [5.8385442, 49.951351], [5.839461067266081, 49.94862777770075]], [[5.8321873, 49.9425617], [5.832366112890856, 49.94247649848918], [5.832271440103558, 49.94266539122371], [5.8321873, 49.9425617]], [[5.8404841, 49.9397506], [5.833391375869702, 49.94133070111276], [5.834334, 49.940367], [5.8404841, 49.9397506]], [[5.8449003, 49.9358438], [5.852809663468396, 49.93711529577653], [5.8523824, 49.9374011], [5.8449003, 49.9358438]], [[5.855829653834, 49.93760078427511], [5.8681103, 49.939575], [5.857105, 49.9383604], [5.855829653834, 49.93760078427511]], [[5.8702449, 49.9499391], [5.8757587, 49.9482487], [5.87652941976016, 49.9487083534952], [5.8702449, 49.9499391]], [[5.8243691, 49.9157156], [5.8226673, 49.9161596], [5.8226525677271495, 49.916155468583874], [5.8243691, 49.9157156]], [[5.8369474, 49.9098769], [5.837027591348993, 49.90987550074316], [5.836875311546332, 49.90991259100805], [5.8369474, 49.9098769]], [[5.849917741728162, 49.90965058083187], [5.8494238, 49.9098175], [5.848093794982185, 49.909682406832985], [5.849917741728162, 49.90965058083187]], [[5.977022642757131, 50.0168789812272], [5.976603702094456, 50.01786222606954], [5.9764365, 50.0174234], [5.977022642757131, 50.0168789812272]], [[5.9801847, 50.0094577], [5.980176929035801, 50.00947593828801], [5.9661665, 49.9990619], [5.9801847, 50.0094577]], [[5.9679022325661615, 49.964054339724306], [5.966894401736915, 49.964921617357625], [5.9667222, 49.9648094], [5.9679022325661615, 49.964054339724306]], [[5.9713639, 49.9644674], [5.971005725033809, 49.96426641729128], [5.970991, 49.9602964], [5.9713639, 49.9644674]], [[6.011591766336397, 49.943096380856446], [6.011255062446557, 49.943910862077985], [6.0110976, 49.9438576], [6.011591766336397, 49.943096380856446]], [[6.0239256, 49.9416747], [6.012966394980063, 49.94097888809789], [6.013201, 49.9406175], [6.0239256, 49.9416747]], [[6.0251442, 49.9395966], [6.026600876161808, 49.93915352640901], [6.0239256, 49.9416747], [6.0251442, 49.9395966]], [[6.035361434035158, 49.93743118751211], [6.027903259455351, 49.938757383698736], [6.0338256, 49.936956], [6.035361434035158, 49.93743118751211]], [[6.0358883, 49.9375942], [6.0357752, 49.9400625], [6.0356516158817515, 49.937520969862675], [6.0358883, 49.9375942]], [[5.9619665, 49.9600708], [5.964944119114545, 49.96155704048631], [5.961093204457816, 49.96022474600852], [5.9619665, 49.9600708]], [[5.9584789, 49.9606856], [5.958825119773809, 49.96062456779535], [5.958456972471563, 49.960760246905316], [5.9584789, 49.9606856]], [[5.958368986284207, 49.96105977435163], [5.958346, 49.9631754], [5.957705118341848, 49.963319750325624], [5.958368986284207, 49.96105977435163]], [[5.95319712156944, 49.96209422308856], [5.9524063, 49.961204], [5.953485318156319, 49.95846634087275], [5.95319712156944, 49.96209422308856]], [[5.953544206332271, 49.9577250435223], [5.9503075, 49.9544444], [5.9535643, 49.9574721], [5.953544206332271, 49.9577250435223]], [[5.953541, 49.9446964], [5.956025536922705, 49.94220401413832], [5.9560908, 49.9422573], [5.953541, 49.9446964]], [[5.9538126, 49.9403972], [5.955615350095522, 49.941869105650376], [5.9535942660222, 49.940358355753354], [5.9538126, 49.9403972]], [[5.9451572, 49.9388573], [5.9352746, 49.9417051], [5.935001111653365, 49.941621312659734], [5.9451572, 49.9388573]]]}}]}