{"type":"FeatureCollection","features":[{"type":"Feature","properties":{"slug":"wuhan","member_count":16,"matched_count":16,"unmatched":[],"source":"Overture Maps division_area (CC-BY 4.0)"},"geometry":{"type":"MultiPolygon","coordinates":[[[[113.7778498,30.2554298],[113.7834302,30.2797285],[113.7987255,30.2826939],[113.7602603,30.2880758],[113.758262,30.327905],[113.733759,30.353087],[113.748053,30.378325],[113.705717,30.379517],[113.697541,30.384375],[113.707126,30.399065],[113.696653,30.40095],[113.7197064,30.4284872],[113.7466993,30.4254851],[113.7564833,30.4388838],[113.7513699,30.4427973],[113.7756287,30.4683712],[113.789089,30.46476],[113.807895,30.49458],[113.825245,30.497247],[113.844939,30.533673],[113.860081,30.534296],[113.862162,30.521926],[113.873781,30.525031],[113.880349,30.568911],[113.916619,30.574348],[113.9399247,30.5968484],[113.9314714,30.6029287],[113.9408279,30.6129032],[113.9268466,30.6163951],[113.9214859,30.6262588],[113.9347222,30.6363242],[113.9190862,30.6453971],[113.9544734,30.6859469],[113.9400826,30.6896183],[113.9323169,30.7011144],[113.9186954,30.6961615],[113.9117861,30.7171566],[113.8894272,30.7125447],[113.8895881,30.7308157],[113.9015293,30.7237143],[113.9130857,30.7310731],[113.9061414,30.7396544],[113.9144046,30.7544839],[113.8988685,30.7576949],[113.9027524,30.7727034],[113.9206173,30.7617614],[113.9439781,30.7823414],[113.9713987,30.780222],[113.993915,30.7890707],[114.0162839,30.7817166],[114.023515,30.7877044],[114.0815012,30.7830268],[114.1094534,30.7695643],[114.1425743,30.7715656],[114.159577,30.7583407],[114.1736608,30.7597595],[114.1675101,30.7957224],[114.1756661,30.8213792],[114.1646427,30.8344009],[114.1609631,30.8779783],[114.15201,30.8875829],[114.1586129,30.8943056],[114.1530172,30.9555561],[114.1701026,30.9695039],[114.1732398,30.9896264],[114.1621393,31.0051879],[114.1624862,31.020846],[114.1519637,31.0295658],[114.1632956,31.0413561],[114.1620236,31.0502722],[114.1719679,31.0494797],[114.1867062,31.065367],[114.1760769,31.1171102],[114.2193192,31.1449986],[114.2445023,31.1834787],[114.2288037,31.2059999],[114.2068911,31.2011044],[114.2075452,31.2101958],[114.1911925,31.2216636],[114.178928,31.2447349],[114.1769657,31.2658437],[114.197243,31.2701767],[114.1928278,31.2883452],[114.1993689,31.3023186],[114.2175204,31.3062308],[114.2351813,31.3242527],[114.2361625,31.3407348],[114.2785159,31.362241],[114.2955227,31.3380811],[114.3086049,31.3361257],[114.327574,31.3174076],[114.3465432,31.3249511],[114.3614241,31.3109811],[114.4318527,31.313021],[114.424807,31.2879838],[114.3972118,31.2503606],[114.4014151,31.2316084],[114.4272406,31.2094936],[114.4475892,31.2057885],[114.4438916,31.1985373],[114.4667088,31.1929828],[114.4675204,31.1868108],[114.4527298,31.1844961],[114.4539023,31.1719191],[114.4654462,31.1726135],[114.4908497,31.149841],[114.5168478,31.1438647],[114.5289616,31.1200955],[114.5226251,31.1082087],[114.528682,31.0986342],[114.4957884,31.0336725],[114.505759,31.0153862],[114.5254206,31.0126709],[114.537814,30.9950196],[114.5475982,30.9998121],[114.5746272,30.9700995],[114.5993207,30.9629883],[114.6102289,30.9313604],[114.6363478,30.9348762],[114.6434298,30.9449465],[114.6530276,30.9345565],[114.6929024,30.9540742],[114.692813,30.944588],[114.7033389,30.942024],[114.6972127,30.9758876],[114.7337404,30.9860163],[114.7461174,30.9968175],[114.7647923,30.9873651],[114.7573713,30.9673652],[114.7630049,30.9634667],[114.7733168,30.9889169],[114.7925037,31.0035596],[114.787565,30.9913385],[114.8020083,30.9954922],[114.8006106,30.9720055],[114.8200358,30.9586313],[114.8201655,30.9510678],[114.8572923,30.9474427],[114.8731233,30.9688128],[114.8491753,30.9923003],[114.8796461,31.0091536],[114.9176648,31.0176189],[114.9259417,30.9975442],[114.9329304,31.0052919],[114.9374964,30.995787],[114.9522193,31.0019373],[114.9491443,30.9913137],[114.9589323,30.9874826],[114.9714188,31.0060938],[114.9654551,31.0230243],[114.9706733,31.0289333],[114.9860485,30.9969883],[114.9864213,30.9842073],[114.9757052,30.9790145],[114.9926645,30.9671899],[114.9839053,30.963914],[114.9823212,30.9485712],[115.0055073,30.9279819],[115.0297349,30.9291808],[115.0253553,30.9164707],[115.0498624,30.9111144],[115.0528443,30.8975223],[115.07441,30.8934624],[115.076933,30.8843539],[115.0381154,30.8488037],[115.0236718,30.8514923],[115.0268036,30.8577321],[115.0125727,30.8662361],[114.9900216,30.8544009],[114.9958139,30.849304],[114.9875144,30.8498934],[114.9860781,30.8407516],[114.9973186,30.8316075],[114.9857729,30.8284367],[114.9869979,30.8153395],[114.9817781,30.8240883],[114.9790474,30.8125591],[114.9671768,30.816897],[114.9550443,30.8054951],[114.9408191,30.8079923],[114.9533222,30.7899628],[114.9523956,30.7756975],[114.9296615,30.800399],[114.9145778,30.7860964],[114.9206765,30.7835801],[114.9162887,30.7781662],[114.9037142,30.7914522],[114.8952412,30.7891276],[114.8931093,30.798414],[114.8761854,30.799321],[114.8674201,30.7908769],[114.8744921,30.784651],[114.8713775,30.7641139],[114.8093731,30.729479],[114.7905804,30.7309802],[114.7972702,30.7250348],[114.7914032,30.7097872],[114.8080497,30.6875911],[114.8036267,30.6682005],[114.8097651,30.6630227],[114.8256159,30.6711314],[114.8433719,30.6428174],[114.8509325,30.6458315],[114.8549689,30.6379303],[114.7851042,30.6222937],[114.8097856,30.6120099],[114.8312212,30.5856326],[114.8287796,30.4801528],[114.8463534,30.4413481],[114.8774242,30.4203302],[114.9127864,30.4106338],[115.044209,30.4003964],[115.0818338,30.3368882],[115.0853536,30.2912673],[115.0745823,30.2636316],[115.0505496,30.2628253],[115.027688,30.2518793],[115.0301302,30.2451693],[115.0153645,30.2478817],[114.9954629,30.2176531],[114.9625814,30.2204378],[114.9621672,30.2087691],[114.9494322,30.2059839],[114.9269584,30.2247751],[114.866573,30.2371359],[114.8526502,30.2595779],[114.8564112,30.2732505],[114.8643676,30.2687694],[114.8632627,30.2810503],[114.8319033,30.2905151],[114.8251077,30.3152458],[114.8071958,30.3129087],[114.8066264,30.2947524],[114.8008559,30.2933588],[114.7952247,30.2940426],[114.7972681,30.306561],[114.7850812,30.3099087],[114.7829118,30.2870399],[114.7281152,30.3052665],[114.7211881,30.3272021],[114.7037686,30.3223033],[114.6872693,30.3097887],[114.6912896,30.2955852],[114.6800842,30.2906828],[114.6875342,30.2823442],[114.6628484,30.2720186],[114.6655263,30.2607757],[114.6538201,30.2480919],[114.6645418,30.2413888],[114.6554733,30.2252468],[114.6682795,30.2185521],[114.6750559,30.224548],[114.6748787,30.2033677],[114.7213332,30.1813752],[114.7059142,30.1753621],[114.7102371,30.1653324],[114.6901687,30.14801],[114.7061444,30.1404627],[114.7076449,30.1250838],[114.7247457,30.1241797],[114.7179377,30.1125403],[114.7265218,30.1115231],[114.7376731,30.0918026],[114.7099097,30.0794485],[114.7278471,30.0604737],[114.7143559,30.0466766],[114.6986043,30.0420184],[114.6940754,30.0545179],[114.6803787,30.0478615],[114.6857414,30.0333705],[114.6795685,30.0223624],[114.6639708,30.0260166],[114.6646831,30.0186836],[114.6520557,30.0224193],[114.6368247,30.01582],[114.6313759,30.0255221],[114.6359198,30.0401877],[114.6244586,30.0506122],[114.5874672,30.0515753],[114.5788864,30.039441],[114.5632147,30.0383352],[114.5591294,30.0591354],[114.541079,30.0670403],[114.5410265,30.0516433],[114.5616137,30.0302801],[114.5479609,30.0358873],[114.5431472,30.0242602],[114.5292657,30.0292361],[114.5392716,30.0064386],[114.5287821,29.995383],[114.5360461,29.9804257],[114.5272877,29.9719559],[114.4921753,29.9860416],[114.4922361,29.9940473],[114.4740536,29.9904132],[114.4452815,30.0075954],[114.3595386,30.0345811],[114.3336052,30.0319154],[114.2906412,30.0081147],[114.2462495,29.9969509],[114.224374,29.9990052],[114.2098781,30.0074502],[114.1872118,30.0847912],[114.1613828,30.0923167],[114.157693,30.1107861],[114.1468869,30.1178537],[114.1513675,30.1376859],[114.112093,30.1936243],[114.1006281,30.2049],[114.0717258,30.2111204],[114.0328147,30.1979449],[114.0307843,30.2107082],[114.0404043,30.2145801],[114.0090322,30.2698165],[113.9699363,30.2979072],[113.9460658,30.3003244],[113.9238847,30.2919873],[113.9007527,30.2713748],[113.8597068,30.2096858],[113.8606581,30.1922992],[113.8431859,30.1854404],[113.815484,30.1825005],[113.808085,30.2082442],[113.8011899,30.2026679],[113.762126,30.2167204],[113.7514506,30.2364125],[113.7778498,30.2554298]],[[114.8812759,30.9770664],[114.8878419,30.981454],[114.8798919,30.9863289],[114.8812759,30.9770664]],[[114.9714732,30.9931994],[114.9801528,30.994579],[114.9735761,31.0010074],[114.9714732,30.9931994]]],[[[114.6776779,30.2052416],[114.6836976,30.2087479],[114.6831129,30.2041721],[114.6776779,30.2052416]]],[[[114.9219945,31.0357265],[114.9397924,31.0393193],[114.9424948,31.0251865],[114.9321514,31.021673],[114.9219945,31.0357265]]]]}}]}