{"type":"FeatureCollection","features":[{"type":"Feature","properties":{"slug":"xining","member_count":7,"matched_count":6,"unmatched":["D\u00e0t\u014dng Hu\u00edz\u00fa T\u016dz\u00fa Z\u00eczh\u00ecxi\u00e0n (CN-QH, type='Autonomous County')"],"source":"Overture Maps division_area (CC-BY 4.0)"},"geometry":{"type":"Polygon","coordinates":[[[101.8834722,36.5309632],[101.8915485,36.5242618],[101.8964542,36.4940402],[101.8667465,36.4667059],[101.8682778,36.4511875],[101.8566397,36.4442894],[101.8497488,36.4111455],[101.8397952,36.4047369],[101.8414796,36.390069],[101.8587393,36.3798937],[101.8589559,36.3722217],[101.8264117,36.325011],[101.8246792,36.3098299],[101.8156804,36.3026946],[101.8195785,36.2961174],[101.7688733,36.288825],[101.73806,36.3000144],[101.7318085,36.2772999],[101.7141781,36.2773667],[101.7035208,36.2500659],[101.6691614,36.2296895],[101.6441022,36.2546042],[101.6407741,36.2695871],[101.6148429,36.284567],[101.6012532,36.2818843],[101.5959838,36.325803],[101.5403772,36.3251326],[101.500995,36.3364157],[101.4546792,36.3524997],[101.4359588,36.3718184],[101.3822268,36.3841052],[101.3634104,36.4025292],[101.3413483,36.4016187],[101.3253964,36.3811389],[101.2827461,36.3620589],[101.2478212,36.325748],[101.2266475,36.3224354],[101.1927335,36.3438864],[101.1834601,36.3714652],[101.1357685,36.3845843],[101.1121214,36.4164131],[101.1135786,36.4300576],[101.0807244,36.4442858],[101.0839701,36.4558477],[101.0680067,36.4915347],[101.0078622,36.5260343],[101.0112404,36.5382758],[100.9926937,36.564562],[100.9979265,36.5982313],[100.9883219,36.6264639],[100.9514934,36.6550582],[100.9432136,36.6847042],[100.9530169,36.6917687],[100.9237395,36.7176839],[100.9200273,36.7610548],[100.9014838,36.7924961],[100.9633914,36.8214808],[101.0219276,36.7827787],[101.0811975,36.8015169],[101.1307025,36.8383046],[101.1417779,36.8548545],[101.1776479,36.8689597],[101.1785637,36.8892887],[101.2021463,36.8948431],[101.2261105,36.9151652],[101.2755653,36.8988103],[101.2884632,36.9018618],[101.2953319,36.9239514],[101.2761758,36.9645136],[101.2886922,36.9971917],[101.2638885,37.0472789],[101.2730117,37.0555201],[101.3104268,37.0245703],[101.3328923,37.0184867],[101.3417899,37.0043946],[101.3772105,36.9889169],[101.4086552,36.9563349],[101.4598932,36.9300843],[101.4937455,36.9333621],[101.5172096,36.9178979],[101.5220794,36.9036495],[101.5345604,36.9022488],[101.5470415,36.876505],[101.5728794,36.8547824],[101.5773288,36.8272101],[101.5707956,36.8140221],[101.5885967,36.79194],[101.6224681,36.7898606],[101.6527685,36.7648323],[101.6950108,36.7750752],[101.7041443,36.7573322],[101.7691705,36.7544847],[101.7616912,36.7201912],[101.7813135,36.7188223],[101.7893764,36.7056594],[101.7747362,36.6726241],[101.7878382,36.661941],[101.8020122,36.6706438],[101.8029071,36.6490205],[101.8155704,36.6539338],[101.834811,36.6438593],[101.8501709,36.6482666],[101.849365,36.6294172],[101.8775199,36.613915],[101.9106318,36.573214],[101.9092817,36.549039],[101.8834722,36.5309632]]]}}]}