{"type":"FeatureCollection","features":[{"type":"Feature","properties":{"slug":"xinxiang","member_count":12,"matched_count":11,"unmatched":["W\u00e8ihu\u012b Sh\u00ec (CN-HA, type='County-level City')"],"source":"Overture Maps division_area (CC-BY 4.0)"},"geometry":{"type":"MultiPolygon","coordinates":[[[[110.2295486,25.1934863],[110.2442267,25.174552],[110.2622134,25.1696406],[110.2566243,25.1646335],[110.2749887,25.1498062],[110.268469,25.1490514],[110.2688514,25.1293915],[110.2601028,25.1281537],[110.2511305,25.1090737],[110.2637931,25.0958497],[110.2592177,25.0840038],[110.2466354,25.080668],[110.2595905,25.0708396],[110.2712604,25.0413134],[110.2623216,25.027779],[110.2488547,25.0250552],[110.2427224,25.0352964],[110.229075,25.0379655],[110.2277075,25.0269473],[110.2102573,25.0132332],[110.2090549,24.9977594],[110.2165699,24.9911116],[110.2032232,24.9866977],[110.2002172,25.0046793],[110.1851336,24.9863967],[110.1659009,25.0029148],[110.149448,25.0351659],[110.1326924,25.0392153],[110.1325642,25.0504857],[110.1491942,25.0510738],[110.1312311,25.0759141],[110.1632847,25.0906903],[110.1750648,25.1269335],[110.1874496,25.1312335],[110.2013975,25.1226334],[110.2003755,25.1395609],[110.2228606,25.1473435],[110.2184116,25.1611115],[110.2295486,25.1934863]]],[[[113.5136787,35.1784455],[113.5166906,35.2199603],[113.5422304,35.2282701],[113.5289906,35.2542202],[113.5174106,35.2488402],[113.5186806,35.2544904],[113.5050703,35.2586902],[113.5141904,35.2901703],[113.574266,35.2956688],[113.5857244,35.2890484],[113.6334157,35.3210343],[113.6776614,35.3263828],[113.6915874,35.3420323],[113.7206262,35.3471582],[113.7268309,35.3760316],[113.7478891,35.388862],[113.7485454,35.3988307],[113.8390875,35.383557],[113.8592959,35.4070536],[113.8693512,35.4036739],[113.8751801,35.4331302],[113.8994402,35.4272702],[113.9132602,35.4410203],[113.9086604,35.4501701],[113.9251902,35.4516602],[113.9445402,35.4386103],[113.9377503,35.4299402],[113.9451007,35.4278001],[113.9470294,35.4082502],[113.9616206,35.4067504],[113.9652404,35.3947001],[113.9513601,35.3833975],[113.9786758,35.3646144],[113.9705747,35.3510833],[113.9890402,35.3442905],[113.9798127,35.3360036],[113.9928961,35.328361],[114.0292024,35.3480707],[114.0485251,35.3366498],[114.0704012,35.3514573],[114.078244,35.3398356],[114.0869236,35.3559812],[114.1026306,35.3472306],[114.106493,35.363611],[114.1238737,35.363611],[114.1253328,35.3692804],[114.1657563,35.3526304],[114.1962719,35.3541962],[114.2405605,35.3703302],[114.3199968,35.4122425],[114.3206957,35.4434379],[114.3346514,35.4512304],[114.3368273,35.4616286],[114.3568457,35.4689537],[114.3725124,35.461983],[114.3878889,35.4785227],[114.4229301,35.4672201],[114.4245804,35.4580904],[114.4157401,35.4577602],[114.3970204,35.42427],[114.4096302,35.4106002],[114.4075301,35.3859902],[114.4182306,35.3828903],[114.3985802,35.3577501],[114.4173806,35.3521101],[114.4179102,35.3378202],[114.4327402,35.3363301],[114.4176305,35.3243502],[114.3966205,35.3277101],[114.3984502,35.3171602],[114.4127305,35.3107299],[114.4116405,35.2992202],[114.3841003,35.2899204],[114.4018103,35.2730202],[114.3839705,35.25787],[114.3888101,35.2404702],[114.4029503,35.2389402],[114.3855502,35.2257303],[114.3881308,35.2176003],[114.4101186,35.2300391],[114.4274702,35.2166503],[114.4282905,35.2051405],[114.4526904,35.2160301],[114.4751104,35.2122503],[114.4868701,35.1955401],[114.4865102,35.1711002],[114.5315269,35.1782777],[114.5326503,35.1720503],[114.5589506,35.1648001],[114.5558302,35.1533501],[114.5701005,35.1398],[114.6100903,35.1360702],[114.6319502,35.1260703],[114.6403302,35.1142703],[114.6364203,35.1018602],[114.6536706,35.0888501],[114.6610405,35.0671205],[114.6819503,35.0623404],[114.7008202,35.0454902],[114.6991901,35.0341102],[114.7155406,35.0294401],[114.7268501,35.01354],[114.7478607,35.01134],[114.7363745,35.0049448],[114.7471704,35.0073604],[114.7465905,35.0010203],[114.8105447,34.979358],[114.7558879,34.9710432],[114.7428617,34.9579227],[114.7481135,34.9398689],[114.7773922,34.9188235],[114.7570499,34.8883031],[114.6761483,34.9117543],[114.6378148,34.9001913],[114.5753265,34.9253516],[114.5461169,34.9052475],[114.5113031,34.9087525],[114.4799419,34.9266001],[114.4596896,34.9098365],[114.395446,34.9401244],[114.3796955,34.9359376],[114.3507186,34.9080197],[114.3342889,34.9037899],[114.2928126,34.9235712],[114.259998,34.8961825],[114.1217712,34.9604711],[114.0874945,34.9492607],[114.0601421,34.9543875],[114.0256322,34.9401322],[113.9839151,34.94802],[113.9502217,34.8889909],[113.8825521,34.9068637],[113.8296958,34.8792749],[113.802223,34.8792132],[113.7533264,34.9196072],[113.705899,34.9120188],[113.5932564,34.9339069],[113.583279,34.9486179],[113.5985605,34.9766284],[113.5850144,34.978122],[113.5988036,34.9774975],[113.6095458,34.9952039],[113.6384433,34.9985894],[113.6246038,35.0161738],[113.6411215,35.0229729],[113.6441154,35.0357656],[113.6296726,35.0469153],[113.626145,35.0649806],[113.6157711,35.0628387],[113.6012603,35.0850681],[113.5983684,35.1320479],[113.5597284,35.1243616],[113.5609527,35.1409248],[113.5380097,35.1405179],[113.5370165,35.1482809],[113.5249118,35.1511532],[113.5275986,35.1768009],[113.5136787,35.1784455]],[[113.8987803,35.2398436],[113.8958401,35.2375806],[113.8988162,35.2376125],[113.8987803,35.2398436]],[[113.885538,35.2641532],[113.884331,35.2635312],[113.8854736,35.2634699],[113.885538,35.2641532]],[[113.885023,35.2796614],[113.8861871,35.2800205],[113.8850337,35.2800468],[113.885023,35.2796614]],[[113.8884723,35.2799986],[113.8875067,35.2806117],[113.887555,35.2800205],[113.8884723,35.2799986]],[[113.8843793,35.2630669],[113.8828772,35.2623792],[113.8842183,35.2623617],[113.8843793,35.2630669]],[[113.8793535,35.2756473],[113.8781586,35.2760621],[113.8781651,35.2756352],[113.8793535,35.2756473]],[[113.8772791,35.2852088],[113.8781543,35.2856123],[113.8772906,35.2856281],[113.8772791,35.2852088]],[[113.8760537,35.303761],[113.8766599,35.3041944],[113.8760376,35.3041944],[113.8760537,35.303761]],[[113.8693213,35.3065628],[113.8700455,35.3060812],[113.8700616,35.3064971],[113.8693213,35.3065628]]],[[[113.996963,22.5947633],[114.0053718,22.6022008],[113.9910038,22.6171965],[113.9906124,22.6289976],[114.0171999,22.6045059],[114.0184121,22.5850447],[114.0077398,22.5830428],[113.996963,22.5947633]]]]}}]}