{"type":"FeatureCollection","features":[{"type":"Feature","properties":{"slug":"xuchang","member_count":6,"matched_count":5,"unmatched":["Ch\u00e1ngg\u0115 Sh\u00ec (CN-HA, type='County-level City')"],"source":"Overture Maps division_area (CC-BY 4.0)"},"geometry":{"type":"MultiPolygon","coordinates":[[[[110.0527415,22.6258962],[109.9979515,22.6199852],[109.9894525,22.6486218],[110.0028143,22.6512504],[110.0194312,22.672701],[110.036788,22.6814167],[110.0361738,22.6967972],[110.0275904,22.6949183],[110.0246882,22.703564],[110.0368052,22.7263909],[110.0566449,22.7382062],[110.0695277,22.7336932],[110.0720677,22.7517371],[110.0822988,22.7491441],[110.1015701,22.7601367],[110.1102789,22.754957],[110.1062766,22.7873981],[110.1268045,22.8222361],[110.1454499,22.8182605],[110.1425441,22.8063248],[110.1355066,22.8135136],[110.1478031,22.7789744],[110.1283597,22.7543507],[110.1486704,22.7297707],[110.1568179,22.702351],[110.166262,22.6996785],[110.1637813,22.7078724],[110.1810966,22.7204694],[110.1917451,22.7099438],[110.1952472,22.7193391],[110.2178182,22.7208083],[110.2413304,22.6986596],[110.2541692,22.6997665],[110.2518399,22.6861127],[110.2684343,22.6910388],[110.2765113,22.7064741],[110.2963534,22.6982961],[110.29807,22.6837853],[110.3149893,22.6825123],[110.299402,22.6645364],[110.2984324,22.6554627],[110.3067968,22.6527144],[110.3034548,22.6351671],[110.279726,22.6170017],[110.2551532,22.6332161],[110.2514291,22.6027397],[110.2364943,22.6043166],[110.2292233,22.5848289],[110.213585,22.596306],[110.18612,22.5885976],[110.1867265,22.5698186],[110.1713741,22.5616365],[110.1847857,22.5451742],[110.169421,22.5361369],[110.1530694,22.5429863],[110.1339207,22.5745976],[110.1104289,22.5619403],[110.0959134,22.5817284],[110.0995721,22.5956377],[110.086765,22.6230983],[110.0642927,22.6174512],[110.0527415,22.6258962]]],[[[113.3779432,33.840212],[113.3561683,33.8851561],[113.3822814,33.9370592],[113.4105142,33.9440834],[113.4112906,33.9903601],[113.4219904,33.9983101],[113.4239108,34.01273],[113.4444002,34.0053302],[113.49508,34.0231801],[113.5228505,34.0141504],[113.5387108,34.0232305],[113.5385505,34.0330501],[113.5421306,34.0145304],[113.5545102,34.0078102],[113.5722806,34.0189003],[113.5911401,34.01832],[113.5915404,34.0396001],[113.5838505,34.0442902],[113.6090101,34.06415],[113.5978406,34.0783301],[113.6051604,34.0861402],[113.6008804,34.0958901],[113.6105404,34.0983402],[113.6050605,34.1369702],[113.6180005,34.1409502],[113.6367003,34.1771702],[113.6571005,34.1495201],[113.6748303,34.14354],[113.6796506,34.1577201],[113.7211902,34.1600502],[113.7277905,34.16841],[113.7883705,34.1595402],[113.8571787,34.1778597],[113.8640507,34.1640602],[113.8738603,34.1628502],[113.8751777,34.1774782],[113.9038806,34.1762402],[113.9112702,34.1872099],[113.9242604,34.1817301],[113.9238699,34.1749003],[113.9109005,34.1714302],[113.9191099,34.1564101],[113.9367501,34.1586503],[113.9408704,34.1700601],[113.9963002,34.1809405],[114.0262307,34.1703302],[114.0265604,34.1622901],[114.0479503,34.1675603],[114.0491704,34.1498901],[114.0828801,34.1488103],[114.0875504,34.1699002],[114.1256007,34.16375],[114.1356205,34.1816903],[114.1232203,34.1949902],[114.1416003,34.2085303],[114.1522904,34.2067],[114.1493904,34.2166104],[114.1915102,34.22026],[114.2007704,34.2434902],[114.2158804,34.2307402],[114.2257904,34.2416502],[114.2385505,34.2372501],[114.2538906,34.2532802],[114.2802403,34.2195701],[114.2688903,34.1741101],[114.2760764,34.1675806],[114.2727103,34.14874],[114.2864102,34.1333899],[114.2675103,34.1131902],[114.2683805,34.1002903],[114.2482103,34.0936901],[114.2602204,34.0879302],[114.2555402,34.0758902],[114.2663202,34.0666501],[114.2668903,34.0452701],[114.2818304,34.0457301],[114.2819501,34.0070902],[114.3049003,33.9955804],[114.3001505,33.9702502],[114.3083805,33.9613002],[114.2964107,33.9608002],[114.2918501,33.9380102],[114.3102405,33.8654903],[114.3061733,33.8545069],[114.2948149,33.8537226],[114.2951953,33.8433932],[114.3170203,33.8341205],[114.3208005,33.8162701],[114.3057202,33.8033901],[114.3035705,33.7845701],[114.2927704,33.7842301],[114.2795677,33.7668381],[114.2590004,33.7819501],[114.2380204,33.7818902],[114.2350471,33.7911603],[114.2118205,33.79458],[114.2062393,33.8076582],[114.1931404,33.7972703],[114.1845205,33.8035401],[114.1726607,33.7997502],[114.1703605,33.8073501],[114.1629704,33.7989302],[114.1533302,33.8021501],[114.1506801,33.8321903],[114.1073402,33.8664801],[114.1163605,33.8791202],[114.1285105,33.8804603],[114.1222206,33.8979801],[114.1134904,33.8986501],[114.1201504,33.9178201],[114.1078604,33.92921],[114.0972202,33.9267604],[114.0981604,33.9209701],[114.0908704,33.9242502],[114.0982503,33.9361803],[114.0814605,33.9337403],[114.0708705,33.9544801],[114.0510001,33.9535904],[114.0532503,33.9658901],[114.0392404,33.9851902],[114.0087102,33.9860703],[113.9748303,33.9755904],[113.969597,33.9847809],[113.9518802,33.9852302],[113.9175603,33.9602602],[113.91376,33.9453],[113.9052001,33.9512701],[113.8939408,33.9443399],[113.8532905,33.9500401],[113.8546604,33.9250502],[113.8654304,33.91105],[113.8531802,33.9084402],[113.8550103,33.8834901],[113.8475102,33.8737],[113.8051902,33.88059],[113.8009102,33.8879101],[113.8004903,33.8822402],[113.7594641,33.8850418],[113.7672805,33.8764401],[113.7562104,33.87362],[113.7589302,33.8677401],[113.7292002,33.8701501],[113.7293102,33.8603801],[113.7179603,33.85948],[113.7148804,33.8497402],[113.7285505,33.8326501],[113.7509705,33.82581],[113.7548102,33.8131001],[113.7370298,33.79213],[113.7471304,33.7751902],[113.7281003,33.7509901],[113.7566943,33.7262304],[113.7341301,33.7145302],[113.7287601,33.6963501],[113.7180703,33.6969099],[113.7110302,33.7124503],[113.7021373,33.7124996],[113.6953705,33.6899103],[113.6557602,33.7014101],[113.6386008,33.6962902],[113.6340991,33.7028517],[113.6292232,33.6926839],[113.5923062,33.6906818],[113.603071,33.7075401],[113.5774976,33.7150009],[113.5836154,33.7325593],[113.5748006,33.7323203],[113.5762301,33.7403551],[113.5548902,33.7431843],[113.5679231,33.7438468],[113.5702264,33.7590967],[113.5552937,33.750255],[113.5032881,33.7643813],[113.4742572,33.7433215],[113.4436221,33.7384622],[113.4453101,33.7511202],[113.4570801,33.7512578],[113.4522294,33.7593958],[113.4156604,33.7640202],[113.3648436,33.7865124],[113.3863407,33.7992902],[113.3795804,33.7991701],[113.3739952,33.8129311],[113.3779432,33.840212]]]]}}]}