{"type": "FeatureCollection", "features": [{"type": "Feature", "properties": {"slug": "xuzhou", "members": 10, "country": "China", "input_hash": "da5abe9b5c26b919"}, "geometry": {"type": "Polygon", "coordinates": [[[118.1225907, 33.9541023], [118.181098, 33.8478093], [118.1803794, 33.8212816], [118.1635541, 33.8219208], [118.1498144, 33.7929802], [118.1648339, 33.7882868], [118.1740333, 33.764673], [118.1626478, 33.7600612], [118.1622795, 33.7509211], [118.1356215, 33.7490449], [118.1055165, 33.77179], [118.1005222, 33.7655981], [118.0599242, 33.7670541], [118.0418542, 33.7469998], [118.0254793, 33.7495043], [118.016687, 33.7398515], [118.0080342, 33.7501109], [117.9719907, 33.7493705], [117.954846, 33.7617873], [117.9475987, 33.7312751], [117.9264817, 33.727349], [117.9042676, 33.7394701], [117.892423, 33.7350627], [117.8962719, 33.7218723], [117.8897381, 33.7214306], [117.8816163, 33.7296534], [117.8756458, 33.7249587], [117.8427726, 33.7375452], [117.8281814, 33.7331243], [117.814663, 33.7415132], [117.7390784, 33.7129795], [117.7171862, 33.7422113], [117.7382898, 33.7650117], [117.7323809, 33.7765433], [117.7458322, 33.796798], [117.7479726, 33.8136072], [117.740103, 33.8278552], [117.7498341, 33.8423012], [117.7461219, 33.8597206], [117.7550912, 33.8878314], [117.7299911, 33.894816], [117.7177522, 33.8823272], [117.7028257, 33.8832735], [117.6866466, 33.9238121], [117.664926, 33.9349663], [117.6700062, 33.9484242], [117.6577699, 33.958098], [117.6545566, 33.9729535], [117.6649904, 33.9962394], [117.6388013, 34.0098921], [117.6384875, 34.0165242], [117.621662, 34.018345], [117.6177353, 34.0342837], [117.6017278, 34.0350439], [117.6129985, 34.0188519], [117.6072746, 33.9995527], [117.5841862, 33.9974669], [117.583462, 33.9863965], [117.5637799, 33.9788968], [117.560733, 33.9971444], [117.5376579, 34.0090272], [117.5409919, 34.0464857], [117.507813, 34.062548], [117.4947694, 34.0488237], [117.4744946, 34.0489926], [117.4491987, 34.0355995], [117.4512076, 34.0265748], [117.4407953, 34.031543], [117.4085444, 34.0223511], [117.3936152, 34.0293224], [117.3943663, 34.0472013], [117.3833585, 34.0587305], [117.3651962, 34.0618629], [117.3712188, 34.0758612], [117.3522073, 34.0853739], [117.3528778, 34.0914159], [117.3137873, 34.0850184], [117.308262, 34.0656587], [117.3006955, 34.0645522], [117.2842294, 34.0699736], [117.2863537, 34.0775275], [117.2698796, 34.0790293], [117.2274417, 34.0644367], [117.2058338, 34.0758346], [117.1862644, 34.0679562], [117.169919, 34.08018], [117.1435141, 34.0799112], [117.1519291, 34.0997966], [117.1144791, 34.1046182], [117.1162838, 34.111237], [117.1309528, 34.1119029], [117.1240523, 34.1269457], [117.0983469, 34.130945], [117.0970743, 34.1451391], [117.0642949, 34.1444647], [117.0618798, 34.1527915], [117.0420393, 34.1525317], [117.0370382, 34.1638026], [117.0201393, 34.1683941], [117.0330679, 34.2021155], [117.0424513, 34.2043177], [117.039287, 34.2140238], [117.0467592, 34.2243282], [117.0364755, 34.2338602], [117.0445662, 34.2420893], [117.0384172, 34.2498172], [117.0140017, 34.2438663], [117.014567, 34.2600118], [116.9985124, 34.2560712], [116.9931018, 34.2688481], [116.9782765, 34.2709678], [116.9685016, 34.2850618], [116.9722809, 34.3151308], [116.9638449, 34.3243808], [116.9777236, 34.3547208], [116.9537928, 34.3656029], [116.9653353, 34.3927829], [116.8739589, 34.4117398], [116.8654487, 34.394315], [116.8535675, 34.3945056], [116.851231, 34.401258], [116.8273787, 34.3862032], [116.8191537, 34.4016182], [116.7765913, 34.4320095], [116.7729435, 34.4490091], [116.7543058, 34.4640547], [116.7103684, 34.4748927], [116.6579143, 34.4739966], [116.616416, 34.4876324], [116.5839314, 34.4904022], [116.57285, 34.4837941], [116.5641699, 34.4976496], [116.5897068, 34.496805], [116.5943196, 34.5134481], [116.5826493, 34.5117595], [116.5466514, 34.5451993], [116.5147814, 34.5425591], [116.5200627, 34.5538393], [116.5035483, 34.5537443], [116.5032104, 34.5649633], [116.487229, 34.5702478], [116.4843532, 34.5816926], [116.4955266, 34.5904271], [116.4749671, 34.5936036], [116.4757562, 34.6115055], [116.4568655, 34.611834], [116.4597697, 34.6177479], [116.4512095, 34.6230033], [116.428779, 34.6286813], [116.4327347, 34.6405322], [116.4249226, 34.652444], [116.4039899, 34.6435549], [116.391308, 34.6485192], [116.3966058, 34.640973], [116.3859972, 34.6421904], [116.3870735, 34.6301734], [116.3694073, 34.637117], [116.3603639, 34.6516735], [116.3751161, 34.6577499], [116.3708997, 34.6828713], [116.3890636, 34.7026445], [116.3796759, 34.7058903], [116.3782596, 34.7183521], [116.3620269, 34.7140749], [116.3552034, 34.7200364], [116.3646769, 34.7300713], [116.356641, 34.7435873], [116.3594198, 34.750728], [116.3980544, 34.7512304], [116.38982, 34.7596221], [116.3990951, 34.7672417], [116.395517, 34.8111563], [116.4069432, 34.8165956], [116.4010906, 34.8297364], [116.4097112, 34.8671699], [116.4500785, 34.9013573], [116.470415, 34.8973536], [116.4972371, 34.9071645], [116.5618408, 34.9115724], [116.6088116, 34.9239063], [116.6174483, 34.9410933], [116.6514802, 34.9299759], [116.6728359, 34.9401215], [116.7002106, 34.9371091], [116.7484259, 34.9186985], [116.7500996, 34.9084227], [116.775763, 34.9175549], [116.780886, 34.9403062], [116.7930043, 34.9344837], [116.792264, 34.9452444], [116.7774153, 34.9500724], [116.772995, 34.9629457], [116.7784989, 34.9593934], [116.7806983, 34.9756675], [116.79618, 34.97063], [116.7934227, 34.9293073], [116.8062544, 34.9289203], [116.8001283, 34.9693715], [116.811769, 34.9537613], [116.8142152, 34.9600177], [116.8286991, 34.9501691], [116.8296218, 34.9296504], [116.8218809, 34.9270027], [116.8520236, 34.9247332], [116.8473458, 34.9387363], [116.838516, 34.9305828], [116.8324435, 34.9358338], [116.8302226, 34.9522093], [116.8938285, 34.9159405], [116.8884748, 34.9019072], [116.9007486, 34.9019556], [116.9025242, 34.9111611], [116.9210368, 34.9013001], [116.9169384, 34.8744583], [116.9616079, 34.8706118], [116.9284183, 34.8638732], [116.9223082, 34.8433285], [116.9610661, 34.8437204], [116.9772291, 34.8050296], [116.9455683, 34.8085004], [116.9450104, 34.7950567], [116.9603473, 34.7772135], [116.9734526, 34.7772576], [116.970073, 34.7643905], [117.007935, 34.7688854], [117.0564508, 34.7163061], [117.0713854, 34.697061], [117.0592189, 34.6812171], [117.0764279, 34.6811994], [117.081213, 34.6681232], [117.0561719, 34.6655112], [117.0497346, 34.657216], [117.081728, 34.6576396], [117.0615363, 34.645407], [117.068274, 34.6396519], [117.0972848, 34.6486904], [117.1429252, 34.5666199], [117.1322393, 34.5233886], [117.1605313, 34.4306468], [117.2045517, 34.4348412], [117.2211063, 34.4551468], [117.2305477, 34.455191], [117.2349197, 34.445468], [117.2485184, 34.4526962], [117.2532391, 34.4587473], [117.2383851, 34.4628474], [117.2533303, 34.4589552], [117.2571498, 34.4739792], [117.2365987, 34.4810104], [117.2449887, 34.4881826], [117.25914, 34.4755005], [117.2536898, 34.4990678], [117.2689569, 34.5043993], [117.2685492, 34.5126038], [117.2587967, 34.5131961], [117.2577882, 34.5150349], [117.266103, 34.5131431], [117.269665, 34.5217975], [117.2624445, 34.5341632], [117.2813701, 34.5346847], [117.2967446, 34.5454931], [117.2838968, 34.5567154], [117.2664517, 34.5572721], [117.2809088, 34.5669777], [117.2897816, 34.5642433], [117.2840202, 34.556901], [117.2939765, 34.5573958], [117.289862, 34.5670572], [117.3002744, 34.5749772], [117.300607, 34.5532164], [117.3082995, 34.5617253], [117.3193717, 34.5567508], [117.3274934, 34.5646674], [117.3207879, 34.5723712], [117.3125803, 34.5671765], [117.3119795, 34.5742882], [117.3457003, 34.5854801], [117.359401, 34.5787051], [117.3689174, 34.58533], [117.3978531, 34.5696855], [117.4033999, 34.5406547], [117.4209845, 34.5415605], [117.4196434, 34.5181555], [117.4362302, 34.5289838], [117.437228, 34.5123297], [117.4500704, 34.5113042], [117.4588788, 34.4862017], [117.4802506, 34.4852643], [117.4823052, 34.4706801], [117.4865109, 34.4694816], [117.4975347, 34.4751379], [117.5337875, 34.4685661], [117.5453639, 34.477349], [117.5652122, 34.4638957], [117.5852001, 34.4624627], [117.6073122, 34.4930373], [117.6176977, 34.4887397], [117.6553345, 34.5032323], [117.6756763, 34.5278082], [117.6772696, 34.5485551], [117.7914405, 34.5226107], [117.7859258, 34.5846057], [117.7935004, 34.6252802], [117.7849817, 34.652459], [117.7922988, 34.6544713], [117.8005922, 34.6442066], [117.8207624, 34.6567217], [117.8315019, 34.6490964], [117.8422308, 34.6547449], [117.8451919, 34.6470487], [117.868452, 34.6530504], [117.8977847, 34.6455306], [117.9046726, 34.6720763], [117.9261732, 34.6579573], [117.9432535, 34.6769468], [117.9568312, 34.6805091], [117.9674549, 34.6725224], [117.9853642, 34.6748557], [117.9851818, 34.6621491], [118.0066609, 34.6479755], [118.0141067, 34.6618403], [118.0444908, 34.6535446], [118.0716991, 34.6609225], [118.0719566, 34.6535446], [118.0924058, 34.6537035], [118.0894231, 34.6360328], [118.1100991, 34.6158998], [118.072737, 34.5711693], [118.1139654, 34.556711], [118.1344843, 34.563722], [118.1321669, 34.5570689], [118.1491372, 34.546242], [118.1530023, 34.5539012], [118.1839174, 34.5447464], [118.1683069, 34.5409463], [118.1578809, 34.5021415], [118.1335509, 34.5027062], [118.1216901, 34.4862503], [118.1765842, 34.4532801], [118.17873, 34.4337086], [118.1668424, 34.4138138], [118.1718635, 34.4089633], [118.1653333, 34.3875712], [118.1817076, 34.3899617], [118.2110809, 34.3785778], [118.214542, 34.407735], [118.2271741, 34.3991502], [118.2405982, 34.40678], [118.2706602, 34.4049697], [118.2840852, 34.4288339], [118.346762, 34.4253622], [118.3477845, 34.4189077], [118.372103, 34.413715], [118.3759294, 34.4259005], [118.4054033, 34.4328764], [118.4320068, 34.4185714], [118.4616933, 34.4147339], [118.5284578, 34.4423109], [118.5789338, 34.4296114], [118.6004028, 34.4515914], [118.6357097, 34.4413224], [118.6632233, 34.4222944], [118.6710986, 34.4120976], [118.66447, 34.3912697], [118.6366883, 34.3827249], [118.6391601, 34.357818], [118.6273702, 34.3454681], [118.6166802, 34.3455882], [118.6323299, 34.3313381], [118.6273994, 34.3112678], [118.5910893, 34.3056185], [118.5830593, 34.3110284], [118.5731091, 34.2996886], [118.5670792, 34.3030187], [118.5628693, 34.2850888], [118.568149, 34.2829287], [118.5590088, 34.2752488], [118.5537281, 34.2491388], [118.5573784, 34.2385388], [118.5696886, 34.2337584], [118.5544675, 34.1733685], [118.5432272, 34.1642986], [118.5322969, 34.1714188], [118.5024673, 34.1656791], [118.5008864, 34.1212989], [118.5097364, 34.1181687], [118.4761865, 34.1007893], [118.3762761, 34.1186004], [118.2867994, 34.1138019], [118.2322756, 34.1266618], [118.1968762, 34.1648622], [118.1432662, 34.1601528], [118.149276, 34.1505626], [118.1410757, 34.1366328], [118.1158357, 34.1449431], [118.0957157, 34.1413732], [118.0654228, 34.1748717], [118.0530856, 34.1487138], [117.9944957, 34.1385245], [117.9890152, 34.1068145], [118.002635, 34.0995842], [118.0035949, 34.0861043], [118.0418478, 34.0954781], [118.0594446, 34.0670435], [118.0513941, 34.0496936], [118.0615717, 34.0173233], [118.0455618, 34.0099333], [118.0262919, 34.0133236], [118.0269008, 33.9855237], [118.0430614, 33.9849735], [118.0458308, 33.9719334], [118.0777809, 33.9680131], [118.0750007, 33.9429526], [118.0960405, 33.9408927], [118.1003505, 33.9333425], [118.110931, 33.9363123], [118.111931, 33.9559024], [118.1225907, 33.9541023]], [[117.014941, 34.721756], [117.0212522, 34.7162796], [117.0300123, 34.7226158], [117.0212763, 34.7259622], [117.014941, 34.721756]], [[117.0071679, 34.7414626], [117.0056766, 34.7389588], [117.0073986, 34.7389081], [117.0071679, 34.7414626]], [[116.8140121, 34.9285958], [116.8128534, 34.9417714], [116.8118449, 34.9420881], [116.8067793, 34.9287453], [116.8140121, 34.9285958]], [[116.8051291, 34.9245993], [116.8028368, 34.9255896], [116.8024671, 34.9246094], [116.8051291, 34.9245993]], [[116.7888587, 34.9364602], [116.7879244, 34.9353519], [116.7883279, 34.9352358], [116.7888587, 34.9364602]], [[116.7875846, 34.9354331], [116.7873723, 34.9365298], [116.7869405, 34.9356188], [116.7875846, 34.9354331]]]}}]}