{"type": "FeatureCollection", "features": [{"type": "Feature", "properties": {"slug": "yangzhou", "members": 6, "country": "China", "input_hash": "6f6ee37f3b3e3907"}, "geometry": {"type": "Polygon", "coordinates": [[[119.7029008, 32.2803182], [119.6833027, 32.2834475], [119.6627767, 32.2675531], [119.6278121, 32.2587921], [119.6198938, 32.2267309], [119.6095327, 32.2538768], [119.5666721, 32.2468814], [119.5638777, 32.2767155], [119.5724685, 32.2778097], [119.5722158, 32.2870678], [119.5388581, 32.2846465], [119.5316941, 32.2669971], [119.5178831, 32.2587209], [119.51727957634583, 32.26679672804245], [119.5086979, 32.2559774], [119.4663959, 32.265814], [119.4257559, 32.2582138], [119.3847252, 32.2261541], [119.2850791, 32.2367318], [119.223504, 32.2246314], [119.1329794, 32.2466465], [119.0747598, 32.2379329], [119.0713315, 32.2515668], [119.0307271, 32.2605843], [119.0368306, 32.2782438], [119.0301549, 32.2974315], [119.0365445, 32.3071045], [119.0292012, 32.3140361], [119.0365445, 32.334022], [119.0234792, 32.3414351], [119.020809, 32.3551314], [119.0383564, 32.3665703], [119.0151823, 32.3759137], [119.0320622, 32.3847729], [119.004692, 32.4095741], [119.0090789, 32.4230991], [119.0237653, 32.4300219], [119.0105094, 32.4443487], [119.015087, 32.45642], [119.0303456, 32.4546497], [119.0489421, 32.4668806], [119.0784609, 32.4522548], [119.0891898, 32.477121], [119.0970325, 32.4715183], [119.1257107, 32.4957187], [119.1405487, 32.4930764], [119.1367721, 32.5008584], [119.1499042, 32.5135617], [119.1463959, 32.5377055], [119.1592705, 32.531392], [119.1619205, 32.5384381], [119.1450441, 32.5622769], [119.1723812, 32.5790398], [119.1713083, 32.5955511], [119.1806316, 32.6013494], [119.1873908, 32.5828188], [119.1944075, 32.5846449], [119.206295, 32.5701163], [119.2161119, 32.5799349], [119.207797, 32.5952121], [119.2182738, 32.5983938], [119.210903, 32.6050776], [119.2232108, 32.60571], [119.2204606, 32.5967326], [119.2230569, 32.6021013], [119.2235309, 32.6126015], [119.203366, 32.616379], [119.2145455, 32.6309723], [119.2033338, 32.6426092], [119.2050934, 32.7287001], [119.1797197, 32.8292328], [119.3094263, 32.8303631], [119.3168299, 32.9856833], [119.3581723, 33.0434895], [119.357, 33.0551759], [119.3386339, 33.065001], [119.314797, 33.1026536], [119.3073724, 33.1337459], [119.2725939, 33.1478156], [119.2517835, 33.1789968], [119.2498666, 33.163392], [119.2213035, 33.1570811], [119.2123159, 33.2035228], [119.1955128, 33.2094081], [119.1639602, 33.202437], [119.1584894, 33.2119187], [119.1426459, 33.2145649], [119.1428764, 33.2566976], [119.1549902, 33.2661734], [119.1588078, 33.2869188], [119.257542, 33.3043764], [119.2274957, 33.3505452], [119.2977154, 33.3681245], [119.3688013, 33.3727672], [119.3770074, 33.37962], [119.414912, 33.3760305], [119.4422658, 33.3877772], [119.4606319, 33.4066994], [119.516177, 33.4086224], [119.5333708, 33.4171032], [119.5661849, 33.3879258], [119.5654214, 33.3785173], [119.6008204, 33.3812597], [119.6062391, 33.3653349], [119.5960468, 33.3602792], [119.6061949, 33.3597786], [119.6119296, 33.3367243], [119.6275818, 33.3372114], [119.6317813, 33.3264652], [119.6259512, 33.3167125], [119.6363589, 33.3121448], [119.6300876, 33.2970817], [119.6426231, 33.2827125], [119.6513587, 33.2812668], [119.6769985, 33.2991659], [119.6961573, 33.2958765], [119.7071472, 33.2836489], [119.7091746, 33.2724129], [119.6995092, 33.2706815], [119.6793804, 33.2395646], [119.6884098, 33.2258405], [119.717564, 33.2132434], [119.6955035, 33.204702], [119.6979877, 33.197167], [119.6819959, 33.1978166], [119.6795118, 33.1750778], [119.6390651, 33.1446969], [119.6440847, 33.1222112], [119.6348741, 33.1206719], [119.6436667, 33.1098215], [119.6343099, 33.1056432], [119.6542045, 33.0802913], [119.6863432, 33.070794], [119.6753198, 33.0593439], [119.682617, 33.0520566], [119.6793565, 33.0338359], [119.6920878, 33.0344867], [119.6849459, 33.0109245], [119.7063717, 32.9934766], [119.6917773, 32.9782394], [119.6937956, 32.9636509], [119.683859, 32.9542714], [119.7114439, 32.940228], [119.7138201, 32.9036825], [119.7562046, 32.9061155], [119.7580078, 32.9135424], [119.7879979, 32.908754], [119.779051, 32.8942296], [119.7953926, 32.8705952], [119.7936496, 32.857954], [119.8026454, 32.8530512], [119.7889436, 32.8412961], [119.797754, 32.8405582], [119.7996055, 32.8294445], [119.7899688, 32.8088426], [119.8273855, 32.8034259], [119.8219625, 32.7960266], [119.8278287, 32.7963778], [119.824683, 32.7809404], [119.8304679, 32.7757361], [119.8377145, 32.7823727], [119.8586973, 32.7780281], [119.8547402, 32.75878], [119.8379617, 32.7488679], [119.8396398, 32.734559], [119.8617259, 32.7134163], [119.8573472, 32.7052312], [119.8736355, 32.7029578], [119.8654775, 32.6805688], [119.8728072, 32.6725437], [119.8861811, 32.6746906], [119.9073417, 32.6272965], [119.8719386, 32.6181163], [119.8645581, 32.621445], [119.8655475, 32.6321551], [119.8277126, 32.6429798], [119.8237994, 32.6314594], [119.8093801, 32.629108], [119.8168366, 32.6093382], [119.8087695, 32.6064224], [119.8170096, 32.5878088], [119.8077481, 32.580986], [119.8113012, 32.567146], [119.8328309, 32.5615704], [119.8342268, 32.554421], [119.8342256, 32.5420521], [119.8158963, 32.5353867], [119.8167901, 32.4763999], [119.8097995, 32.4746078], [119.8226371, 32.4629823], [119.8493803, 32.4683867], [119.8556535, 32.4442234], [119.8652655, 32.4395644], [119.8584725, 32.435321], [119.8624809, 32.4249461], [119.8469558, 32.4132359], [119.8511176, 32.4039189], [119.8396588, 32.3981273], [119.8513074, 32.3824085], [119.8489492, 32.3636526], [119.8327181, 32.3564218], [119.8406367, 32.3521295], [119.835175, 32.3363482], [119.8447132, 32.3330491], [119.8298551, 32.3160291], [119.8364187, 32.3074895], [119.8281172, 32.3107596], [119.8241105, 32.3041483], [119.7861633, 32.3251891], [119.7518833, 32.32645], [119.7128351, 32.2991342], [119.7029008, 32.2803182]], [[119.5310605, 32.4143963], [119.5321365156851, 32.41414386394988], [119.53095768666421, 32.41540853543944], [119.5310605, 32.4143963]], [[119.30079740150325, 32.60062999352298], [119.30094321747839, 32.600738002481144], [119.2949065, 32.5999563], [119.30079740150325, 32.60062999352298]], [[119.30208240247863, 32.601581820759], [119.3031933, 32.603689], [119.30241810218561, 32.60381595190373], [119.30208240247863, 32.601581820759]], [[119.455117, 32.649667], [119.45511766168313, 32.64966694095235], [119.45511645752971, 32.6496671035532], [119.455117, 32.649667]], [[119.4218303, 32.3598994], [119.42250688490229, 32.359498248515855], [119.42117274240601, 32.36320402389321], [119.4218303, 32.3598994]], [[119.4239787, 32.3586256], [119.42436955620883, 32.3589852377855], [119.42342066716203, 32.358956461212536], [119.4239787, 32.3586256]], [[119.42857679285923, 32.35911981926527], [119.4281065, 32.3563665], [119.4289654, 32.3585522], [119.42857679285923, 32.35911981926527]], [[119.4691555, 32.2966333], [119.4715397, 32.2907484], [119.4678204, 32.3021148], [119.4691555, 32.2966333]], [[119.2881648, 32.5630755], [119.2792425, 32.5603065], [119.27919273672244, 32.56013715815436], [119.2881648, 32.5630755]], [[119.31479381099741, 32.558884793693274], [119.3115303, 32.5570332], [119.3145536, 32.5583383], [119.31479381099741, 32.558884793693274]], [[119.3102906, 32.5767242], [119.31262631239363, 32.57438885587005], [119.3125182, 32.5748442], [119.3102906, 32.5767242]], [[119.2931301, 32.5929277], [119.2937536, 32.5917724], [119.2978045, 32.5911208], [119.2931301, 32.5929277]], [[119.29576733157946, 32.59544481178181], [119.2956958, 32.5955348], [119.2931301, 32.5929277], [119.29576733157946, 32.59544481178181]], [[119.31520998772109, 32.36966696847135], [119.3155332, 32.3692523], [119.3161392413407, 32.36941576069111], [119.31520998772109, 32.36966696847135]], [[119.3056176, 32.3836463], [119.306762, 32.3805054], [119.31308869413022, 32.37238850359852], [119.3056176, 32.3836463]], [[119.8155921, 32.7986233], [119.81365479845253, 32.79698837096397], [119.8217932, 32.8002111], [119.8155921, 32.7986233]], [[119.4799546, 32.6472228], [119.4744791200865, 32.649585570210455], [119.474446, 32.6485538], [119.4799546, 32.6472228]], [[119.4722905, 32.65053], [119.47146313249367, 32.649833350637564], [119.47356341480267, 32.64998071386916], [119.4722905, 32.65053]], [[119.47000119126862, 32.64973077567304], [119.46811374987081, 32.6503878717097], [119.4687459, 32.6496427], [119.47000119126862, 32.64973077567304]], [[119.4659677, 32.651135], [119.4635248, 32.6489167], [119.46701439595545, 32.650770602056454], [119.4659677, 32.651135]], [[119.3924819488148, 33.01892154825726], [119.3926901, 33.0185536], [119.4147721, 33.022088], [119.3924819488148, 33.01892154825726]]]}}]}