{"type":"FeatureCollection","features":[{"type":"Feature","properties":{"slug":"yanji","member_count":8,"matched_count":3,"unmatched":["Y\u00e1nj\u00ed Sh\u00ec (CN-JL, type='County-level City')","D\u016bnhu\u00e0 Sh\u00ec (CN-JL, type='County-level City')","H\u00fanch\u016bn Sh\u00ec (CN-JL, type='County-level City')","L\u00f3ngj\u012dng Sh\u00ec (CN-JL, type='County-level City')","T\u00famen Sh\u00ec (CN-JL, type='County-level City')"],"source":"Overture Maps division_area (CC-BY 4.0)"},"geometry":{"type":"MultiPolygon","coordinates":[[[[129.0439353,43.369184],[129.0225836,43.36146],[129.0238841,43.3391411],[129.0391005,43.3221126],[129.0717441,43.3064991],[129.0764261,43.2949519],[129.0946337,43.2882308],[129.0838392,43.2777217],[129.0851398,43.2655061],[129.0716141,43.2600131],[129.0883911,43.2261914],[129.0627704,43.2056239],[129.0397507,43.2006943],[129.0338983,43.1657962],[129.0264852,43.1642785],[129.0396207,43.1419821],[129.0530163,43.1383759],[129.0532764,43.1270816],[129.0699765,43.1176918],[129.1398468,43.1130714],[129.1597125,43.1061],[129.175162,43.0881441],[129.1739175,43.0722521],[129.1816423,43.0669538],[129.1679187,43.0576419],[129.1314393,43.0565949],[129.1290652,43.0416427],[129.1183519,43.0374616],[129.1223997,43.0193341],[129.1378024,43.010315],[129.1320816,43.0019481],[129.1411308,42.9847543],[129.1147114,42.9833086],[129.0973412,42.9734921],[129.0473109,42.978819],[129.0117384,42.9714372],[128.9950963,42.9728832],[128.9894796,42.9797322],[128.9961546,42.9885926],[128.9816786,42.9918302],[128.9705492,42.9855913],[128.969938,42.9758558],[128.9309138,42.9647192],[128.937887,42.9504595],[128.9123923,42.9543156],[128.8917083,42.9423695],[128.8828132,42.9333876],[128.8881688,42.9218341],[128.8806531,42.9090723],[128.8303296,42.9390917],[128.8123538,42.9341414],[128.8103452,42.8985598],[128.7833403,42.8974039],[128.803056,42.8533966],[128.8137558,42.8472032],[128.8177274,42.8262773],[128.7950745,42.8087977],[128.7854901,42.8116508],[128.7761005,42.8029897],[128.7413029,42.8300713],[128.7129945,42.8381433],[128.7029919,42.8339366],[128.67269,42.8484973],[128.6609222,42.8432127],[128.6029661,42.8681219],[128.5984003,42.8486904],[128.570893,42.8423729],[128.554277,42.8173223],[128.534566,42.8107401],[128.5182383,42.78516],[128.5275054,42.7727439],[128.5261815,42.7502807],[128.5362164,42.738208],[128.530133,42.7251695],[128.5637513,42.7054939],[128.5651622,42.6934382],[128.5801661,42.6892216],[128.580019,42.6664036],[128.6034074,42.6436854],[128.5938461,42.6130568],[128.6222773,42.5965853],[128.6239366,42.5490388],[128.6105917,42.5218383],[128.6534962,42.472763],[128.6375426,42.4409411],[128.6775397,42.4126848],[128.6713598,42.3948121],[128.6907576,42.3830209],[128.6782263,42.3556265],[128.6517688,42.3415918],[128.6571119,42.3282201],[128.6821746,42.3200338],[128.6932468,42.2980084],[128.6517904,42.288485],[128.6279295,42.3002939],[128.6083599,42.2945803],[128.5953137,42.2861992],[128.5928249,42.2748321],[128.5626983,42.2612398],[128.5620184,42.2448868],[128.5264738,42.2230874],[128.4398348,42.2235944],[128.4110103,42.2100029],[128.3959503,42.2135164],[128.3893888,42.2048454],[128.3923033,42.1874199],[128.3813783,42.1712109],[128.4104768,42.1534234],[128.4204253,42.1322939],[128.4430693,42.1172829],[128.4574488,42.0384983],[128.4506678,42.0161018],[128.1425464,42.0223389],[128.084436,42.0204228],[128.056396,42.0072612],[128.0326688,42.0246504],[128.0061338,42.0897599],[127.9559358,42.1407927],[127.961797,42.162925],[127.9208149,42.1876308],[127.9109261,42.2018224],[127.9024758,42.2402746],[127.8795329,42.2412833],[127.8626698,42.2743653],[127.8431451,42.2813489],[127.8253154,42.2779608],[127.802542,42.2996651],[127.8117405,42.3211958],[127.8810768,42.3283729],[127.8970096,42.3473409],[127.8977287,42.3654226],[127.9379835,42.3656752],[127.9556296,42.3920482],[128.0013595,42.4126656],[128.0122071,42.44811],[128.037971,42.477381],[128.02599,42.4938634],[128.0281663,42.5234513],[128.0176526,42.5284429],[128.02248,42.5390265],[128.0138939,42.5398464],[128.0224194,42.5597712],[128.0076566,42.560338],[128.0040928,42.5768578],[127.9922092,42.5784204],[127.9807141,42.5960454],[127.9888621,42.5990185],[127.9624042,42.6099555],[127.9672559,42.6199846],[127.9533836,42.6174416],[127.9477459,42.6368399],[127.9599156,42.6424535],[127.9586202,42.6536206],[127.9162767,42.6713947],[127.8958633,42.6677314],[127.8781191,42.6742763],[127.8781182,42.6866833],[127.8932514,42.6819104],[127.8923503,42.689599],[127.8688508,42.6943817],[127.840832,42.7294044],[127.866705,42.7297238],[127.9148527,42.7057676],[127.927196,42.7291142],[127.9534982,42.7457417],[127.9432633,42.778928],[127.9522135,42.7883851],[127.9925339,42.7771477],[128.0045826,42.7613401],[128.045588,42.7519259],[128.0746591,42.7669866],[128.1173844,42.7600156],[128.1466728,42.7844901],[128.1315164,42.7988305],[128.169025,42.8577935],[128.1173332,42.8715526],[128.1279353,42.8978434],[128.0996861,42.9105587],[128.0843776,42.9269544],[128.0843595,42.9467466],[128.0955316,42.9633266],[128.1251936,42.9823414],[128.1154012,42.9998499],[128.1298979,43.011204],[128.108952,43.0224236],[128.0842038,43.0166558],[128.0640042,43.0269245],[128.0686397,43.0599153],[128.0930668,43.0603929],[128.1159575,43.0727798],[128.1389091,43.0689124],[128.1484488,43.0779835],[128.1646812,43.0701445],[128.1812008,43.0791986],[128.2204454,43.0808265],[128.232684,43.0943597],[128.2275973,43.1066035],[128.2429967,43.1149581],[128.2469901,43.1298068],[128.2872928,43.1241713],[128.2997833,43.1438327],[128.3293492,43.1399438],[128.3564234,43.1190584],[128.3891489,43.1304729],[128.4088016,43.1215843],[128.4430375,43.1228124],[128.4556682,43.1097652],[128.4859972,43.1160588],[128.5040525,43.1015616],[128.5139662,43.1113191],[128.5750662,43.1081899],[128.5806585,43.0966051],[128.605629,43.0830234],[128.6316399,43.0948007],[128.634241,43.1151207],[128.677289,43.1275562],[128.6540092,43.1744278],[128.6670147,43.1863771],[128.6489371,43.1948161],[128.6317699,43.2211686],[128.6404836,43.2481729],[128.6646737,43.2622861],[128.674818,43.2828345],[128.7008288,43.2904081],[128.7044704,43.2984541],[128.7316517,43.2892721],[128.7408856,43.2750705],[128.7528506,43.2772483],[128.7688473,43.2960878],[128.7681971,43.3077294],[128.8165773,43.3274109],[128.830233,43.3196526],[128.8440188,43.3226803],[128.8502614,43.3368709],[128.8730209,43.3381006],[128.8795237,43.3594743],[128.8908384,43.358056],[128.9126875,43.3774376],[128.9370077,43.3781938],[128.9366176,43.3913318],[128.9483225,43.388591],[128.9548252,43.3961515],[128.9864284,43.4008764],[129.0009945,43.3877404],[129.0420917,43.3823529],[129.0439353,43.369184]]],[[[129.6078423,43.1097661],[129.5447543,43.1877704],[129.515776,43.1874561],[129.503693,43.1780415],[129.4468775,43.1887179],[129.4330858,43.1983278],[129.4130553,43.1912735],[129.3873131,43.1940217],[129.3462376,43.2373165],[129.3336145,43.2414647],[129.3294068,43.2553],[129.2912629,43.2789734],[129.2989193,43.2845938],[129.2878455,43.2966532],[129.3051444,43.3267696],[129.2835737,43.3541878],[129.2954127,43.368208],[129.2674631,43.3784106],[129.2703098,43.4061618],[129.1666777,43.4181171],[129.155839,43.4334753],[129.1495973,43.4921834],[129.1317443,43.4965059],[129.1005098,43.5224989],[129.0900321,43.552677],[129.1143646,43.5532325],[129.1389106,43.5677572],[129.1601586,43.5686036],[129.1626463,43.5590641],[129.1862011,43.5729864],[129.1990492,43.571975],[129.2024979,43.5821074],[129.2231901,43.5914055],[129.2255178,43.6326662],[129.2105449,43.6464708],[129.2070962,43.694144],[129.2258218,43.706706],[129.2098921,43.7217046],[129.2143768,43.740672],[129.2051803,43.7445477],[129.2122693,43.7492536],[129.2050827,43.7823511],[129.2454151,43.8157882],[129.2720605,43.8106877],[129.2829676,43.7947707],[129.2991028,43.7937584],[129.3018726,43.8099445],[129.340829,43.7961537],[129.3631947,43.7987104],[129.3810638,43.8146822],[129.3992634,43.8164238],[129.4103778,43.8406678],[129.4419032,43.8479544],[129.4613419,43.8640175],[129.460427,43.872032],[129.4894487,43.8776592],[129.5195807,43.8679536],[129.5868361,43.8720289],[129.6021462,43.8801398],[129.6422069,43.8779677],[129.6508286,43.8695427],[129.6920297,43.8812217],[129.7347057,43.8748197],[129.7317468,43.8934268],[129.7731088,43.8912259],[129.7788844,43.8992896],[129.7792908,43.9156875],[129.7707557,43.9270072],[129.7879426,43.9383886],[129.7736969,43.9599113],[129.8036768,43.965439],[129.861759,44.0104827],[129.8622089,43.9998428],[129.8734166,43.9983206],[129.9005266,44.021605],[129.9168006,44.01359],[129.9276388,44.0243066],[129.9423864,44.0254193],[129.9732271,44.012554],[129.9784086,43.9965085],[129.9927308,43.996636],[129.9954507,43.9863641],[129.9819327,43.9808498],[129.9988113,43.9681038],[129.9957841,43.9622211],[130.010062,43.9596062],[130.0062392,43.9545283],[130.0180139,43.9413804],[130.0098737,43.9330565],[130.0166476,43.9145164],[130.0066223,43.9036824],[130.0135435,43.9000862],[130.0017296,43.8869695],[130.0094673,43.8645269],[130.0200345,43.849092],[130.0379015,43.8499542],[130.0490268,43.8359985],[130.0725429,43.8325088],[130.1035417,43.8495037],[130.1089079,43.8752703],[130.1384948,43.8777512],[130.1471109,43.8892562],[130.1461642,43.9127596],[130.1771886,43.9283732],[130.1824722,43.938715],[130.2197286,43.9467139],[130.2313797,43.9379345],[130.2546818,43.9470066],[130.2539458,43.9557684],[130.2674945,43.9661762],[130.2651378,43.9792846],[130.3002365,44.0004702],[130.3007442,44.0188511],[130.3119889,44.0372613],[130.3382982,44.0491203],[130.3583154,44.0414152],[130.3513993,44.022024],[130.3602678,44.0121677],[130.3566398,43.98955],[130.3318484,43.9617735],[130.3304375,43.9443613],[130.3473682,43.9398623],[130.3626865,43.912716],[130.376493,43.9037129],[130.3589577,43.8881721],[130.3638958,43.8679049],[130.3793433,43.8514029],[130.356093,43.840659],[130.3730111,43.8233161],[130.375905,43.7744721],[130.4168645,43.7424769],[130.387148,43.7005112],[130.4056511,43.6505281],[130.4426572,43.6441563],[130.466622,43.6552057],[130.4814468,43.6535928],[130.4950454,43.6347184],[130.5393019,43.6204195],[130.5521436,43.6276409],[130.5824639,43.6103944],[130.5902611,43.6194279],[130.6237021,43.6197942],[130.628258,43.6106899],[130.6181375,43.5832444],[130.6595963,43.5815428],[130.6642686,43.562844],[130.6829579,43.566955],[130.6954174,43.5640531],[130.6939712,43.5580878],[130.7216713,43.5578459],[130.7287911,43.542446],[130.7521526,43.54043],[130.7679495,43.5191371],[130.7856376,43.525429],[130.7964284,43.5047763],[130.8170089,43.4998541],[130.8335845,43.4526291],[130.8540537,43.4363138],[130.8850912,43.4310629],[130.8793973,43.4206348],[130.853734,43.4180788],[130.8500862,43.4049228],[130.8235216,43.3995598],[130.8214616,43.4094435],[130.7996177,43.4200114],[130.7725381,43.4152109],[130.7285928,43.4291438],[130.7031869,43.4027091],[130.6848621,43.3978448],[130.6723308,43.3709909],[130.7055044,43.3535186],[130.7147741,43.330516],[130.7086801,43.3193706],[130.7219839,43.2961052],[130.6990671,43.2786426],[130.7011699,43.2703],[130.6803131,43.236199],[130.6881793,43.2057353],[130.6631076,43.1961941],[130.6529683,43.1793925],[130.6382203,43.1832237],[130.6164669,43.1755611],[130.5599634,43.197874],[130.4858543,43.2084899],[130.4807847,43.2258208],[130.4474172,43.2273656],[130.4402275,43.2397223],[130.4264012,43.2424754],[130.4234516,43.2686567],[130.3780091,43.2588568],[130.3522922,43.2680527],[130.3450103,43.2510023],[130.3163438,43.2557017],[130.2924704,43.2389165],[130.2921017,43.2310594],[130.2527428,43.2358947],[130.2205052,43.2141939],[130.1689066,43.2088799],[130.1627928,43.202184],[130.1381718,43.2131311],[130.1370501,43.2034837],[130.1156255,43.1986594],[130.116635,43.1738778],[130.082423,43.1789494],[130.0537072,43.1622605],[130.0346348,43.173329],[130.0317218,43.1610332],[130.0235593,43.1590119],[130.0038298,43.1676294],[129.9895845,43.1562532],[129.9685668,43.1616439],[129.9527101,43.1489905],[129.9316555,43.1531468],[129.8961056,43.1348066],[129.837416,43.1582177],[129.8216171,43.1429921],[129.789794,43.1420639],[129.7700286,43.1187387],[129.7470852,43.1211522],[129.7264779,43.1315161],[129.7293946,43.1479093],[129.7092212,43.1680098],[129.6872763,43.1709172],[129.6560782,43.1598148],[129.6632134,43.1390338],[129.6496983,43.1152139],[129.6078423,43.1097661]]],[[[125.2781025,44.0675808],[125.2606164,44.0494853],[125.2501477,44.056585],[125.19271,44.0154918],[125.1688822,44.013225],[125.1512505,44.0016431],[125.13006,43.9958368],[125.126281,44.0031801],[125.108328,44.0050963],[125.0824188,43.9705062],[125.0556437,43.9826755],[125.0602938,44.016212],[125.0506135,44.0278019],[125.0464034,44.0724137],[125.021894,44.1122132],[125.0660726,44.1038475],[125.0724618,44.1144714],[125.1125906,44.1063427],[125.1477874,44.1091597],[125.1559701,44.1027207],[125.166843,44.1088378],[125.1811907,44.0992594],[125.1891492,44.1052159],[125.19991,44.0925778],[125.2394784,44.1088378],[125.254655,44.1005577],[125.2626541,44.1065732],[125.2701778,44.1018569],[125.2625185,44.0939871],[125.2720621,44.0912278],[125.2658353,44.0869397],[125.2715112,44.0852706],[125.268808,44.0705198],[125.2781025,44.0675808]]]]}}]}