{"type": "FeatureCollection", "features": [{"type": "Feature", "properties": {"slug": "yaren", "members": 14, "country": "Nauru", "input_hash": "1e7dc8abb6cdddf6"}, "geometry": {"type": "Polygon", "coordinates": [[[166.9250897, -0.5537744], [166.9091895, -0.5376842], [166.9092115, -0.5274917], [166.9169607, -0.5191356], [166.9260572, -0.5109946], [166.9269329089462, -0.5119392023793442], [166.9308836, -0.5058622], [166.9324007, -0.507775], [166.934619, -0.5028884], [166.9487524, -0.5044286], [166.9589291, -0.5182997], [166.9503059, -0.5444496], [166.9250897, -0.5537744]], [[166.9231359, -0.5254667], [166.92411006214024, -0.5256077667897407], [166.9169607, -0.5191356], [166.9231359, -0.5254667]], [[166.94664236605072, -0.5225741938905138], [166.9485031, -0.5231568], [166.9568169, -0.5232277], [166.94664236605072, -0.5225741938905138]], [[166.931459960391, -0.5168224042521522], [166.9310915, -0.5159366], [166.9295135514591, -0.5147228681948703], [166.931459960391, -0.5168224042521522]], [[166.9327992, -0.5202138], [166.93286902530394, -0.5202098937136577], [166.93280599710323, -0.5200583695619008], [166.9327992, -0.5202138]], [[166.9380698, -0.5233803], [166.9379016, -0.5281557], [166.936417, -0.5236715], [166.9380698, -0.5233803]], [[166.9379016, -0.5281557], [166.9372332, -0.5284786], [166.9327107, -0.5302304], [166.93623023352916, -0.5303647535188432], [166.9379016, -0.5281557]], [[166.93576160593574, -0.5367337433339364], [166.93629226715512, -0.5367312985665017], [166.9362901799919, -0.5365170918579137], [166.93576160593574, -0.5367337433339364]], [[166.92864215934148, -0.5396518559337531], [166.9220832, -0.5418843], [166.9182661407448, -0.543903554653845], [166.92868144876667, -0.5398076427340605], [166.92864215934148, -0.5396518559337531]], [[166.92966123961054, -0.5453044413559108], [166.9298206, -0.5443245], [166.92926126316988, -0.5421066692578164], [166.92966123961054, -0.5453044413559108]], [[166.91776220814745, -0.5387451151335977], [166.9170774362837, -0.5388995456382049], [166.9181825968898, -0.5395585126063794], [166.91776220814745, -0.5387451151335977]], [[166.9245946739494, -0.5260464756417559], [166.92314570643615, -0.5268822084863908], [166.9253924455097, -0.5267686814129835], [166.9245946739494, -0.5260464756417559]], [[166.9312242, -0.5269033], [166.9302969085301, -0.5269621232684131], [166.93148534989723, -0.5274878084581851], [166.9312242, -0.5269033]], [[166.932166, -0.5249791], [166.9326384, -0.5222825], [166.93228913736846, -0.5221658227820818], [166.932166, -0.5249791]], [[166.9412518, -0.5181462], [166.9403561097201, -0.5208397442865315], [166.9414516348929, -0.5213657049371823], [166.9412518, -0.5181462]], [[166.9438016637172, -0.5195958468800242], [166.9433682, -0.5221922], [166.94494809413163, -0.5211362092982494], [166.9438016637172, -0.5195958468800242]], [[166.9438771, -0.519144], [166.9438043934145, -0.5195794965886047], [166.9471679, -0.5184848], [166.9438771, -0.519144]], [[166.94701467218172, -0.5170146217719548], [166.9468141, -0.5169639], [166.9471679, -0.5184848], [166.94701467218172, -0.5170146217719548]], [[166.9380848644802, -0.5374821854756887], [166.9450002, -0.5415776], [166.9427463, -0.5391601], [166.9380848644802, -0.5374821854756887]], [[166.9456028, -0.5222487], [166.94582872423848, -0.5223194381308757], [166.94561150854113, -0.5220275836121661], [166.9456028, -0.5222487]], [[166.93305722715542, -0.5076563293529088], [166.9328589, -0.5085829], [166.9360138, -0.5123002], [166.93305722715542, -0.5076563293529088]], [[166.94042606564196, -0.5152121938162739], [166.940773, -0.5147567], [166.9398783, -0.5116599], [166.94042606564196, -0.5152121938162739]], [[166.9439765, -0.5097434], [166.94377439412892, -0.5096211505730358], [166.9398783, -0.5116599], [166.9439765, -0.5097434]], [[166.9395481, -0.5071371], [166.94095119061623, -0.5079134564333724], [166.93954458026658, -0.5070626285564321], [166.9395481, -0.5071371]]]}}]}