{"type": "FeatureCollection", "features": [{"type": "Feature", "properties": {"slug": "yauco", "members": 4, "country": "Puerto Rico", "input_hash": "1899f50692bc2c57"}, "geometry": {"type": "Polygon", "coordinates": [[[-66.9585348, 18.032669], [-66.8844619, 18.024408], [-66.9195253, 18.092146], [-66.9238921, 18.1151019], [-66.9166908, 18.1261477], [-66.9265123, 18.151163], [-66.9154, 18.1541356], [-66.9032916, 18.1462356], [-66.887709, 18.1533315], [-66.8582032, 18.1380637], [-66.8500691, 18.1629073], [-66.8272166, 18.1712928], [-66.8210579, 18.1529294], [-66.8041221, 18.1481004], [-66.79815822329489, 18.133272147983675], [-66.7662839, 18.1347745], [-66.7502459, 18.1141338], [-66.7316725, 18.1119095], [-66.7170428, 18.1317649], [-66.6940278, 18.1305414], [-66.6779434, 18.100414], [-66.6898934, 18.0360451], [-66.6868215, 17.9913325], [-66.699116, 17.977669], [-66.7293709, 17.992259], [-66.7476838, 17.9897637], [-66.7590978, 17.9767947], [-66.7624487, 17.9842193], [-66.7504496, 17.9955261], [-66.7563983, 17.9914795], [-66.7631919, 17.9946958], [-66.7537321, 17.9977578], [-66.7676099, 18.0065668], [-66.7976698, 17.9949213], [-66.7974204, 17.982058], [-66.805445, 17.9846582], [-66.8075284, 17.9769646], [-66.7844803, 17.9858712], [-66.7871781, 17.9728152], [-66.8193089, 17.9555755], [-66.8384713, 17.9497959], [-66.8563316, 17.9565392], [-66.8644816, 17.9455974], [-66.8716802, 17.9529066], [-66.8998046, 17.9485109], [-66.905342, 17.9642948], [-66.9249801, 17.9729975], [-66.9309295, 17.9618378], [-66.9093431, 17.952246], [-66.9315176, 17.9425416], [-66.919168, 17.9315525], [-66.9573101, 17.9312347], [-66.9560236, 17.9389265], [-66.9810029, 17.952865], [-66.9617222, 17.9917015], [-66.9585348, 18.032669]], [[-66.8855419, 18.0198918], [-66.8820843, 18.0202999], [-66.88551888940208, 18.020061618082334], [-66.8855419, 18.0198918]], [[-66.8257792, 18.002028], [-66.82620201465404, 18.00306379137118], [-66.8259853, 17.9997573], [-66.8257792, 18.002028]], [[-66.7983544881244, 18.132698820017033], [-66.7989143, 18.1310635], [-66.796104, 18.1216055], [-66.7983544881244, 18.132698820017033]], [[-66.7697559, 18.0870622], [-66.76945937468635, 18.086689483994718], [-66.7696150051135, 18.087449563855312], [-66.7697559, 18.0870622]], [[-66.76800063115247, 18.04949220175217], [-66.7663042, 18.0510087], [-66.76651164327919, 18.051538946396068], [-66.76800063115247, 18.04949220175217]], [[-66.7684687, 18.0488488], [-66.76830959708012, 18.04816577540605], [-66.76842218563291, 18.04891273808398], [-66.7684687, 18.0488488]], [[-66.7664279, 18.0400877], [-66.7653012, 18.0388901], [-66.7674733457412, 18.04457577069931], [-66.7664279, 18.0400877]], [[-66.73306534852883, 18.017106005548907], [-66.7329249, 18.0173715], [-66.7417376, 18.0306343], [-66.73306534852883, 18.017106005548907]], [[-66.75377395861098, 18.000114331572984], [-66.7523664, 18.0015441], [-66.75197712237402, 18.003740561636576], [-66.75377395861098, 18.000114331572984]], [[-66.8300442, 17.99157], [-66.8352136, 17.9881465], [-66.83522284949777, 17.987993882944096], [-66.8300442, 17.99157]], [[-66.83055738335258, 17.999261782239103], [-66.8306947, 17.9992469], [-66.8320112, 17.9963797], [-66.83055738335258, 17.999261782239103]]]}}]}