{"type":"FeatureCollection","features":[{"type":"Feature","properties":{"slug":"yeysk","member_count":1,"matched_count":1,"unmatched":["[recovered via metro-name fallback: Yeysk]"],"source":"Overture Maps division_area (CC-BY 4.0)"},"geometry":{"type":"Polygon","coordinates":[[[38.3243839,46.6665267],[38.2886051,46.707508],[38.2866101,46.7236837],[38.2933974,46.7412436],[38.2910658,46.7428405],[38.2771014,46.7247421],[38.2652789,46.7315882],[38.2587985,46.7174413],[38.2153513,46.6984688],[38.2522068,46.6968685],[38.2567052,46.6893922],[38.2490881,46.6765847],[38.256693,46.6792999],[38.2682002,46.6627238],[38.2844887,46.6625682],[38.2815227,46.6450557],[38.3082713,46.6448389],[38.3078032,46.666604],[38.3243839,46.6665267]]]}}]}