{"type":"FeatureCollection","features":[{"type":"Feature","properties":{"slug":"ypres","member_count":9,"matched_count":1,"unmatched":["[recovered via metro-name fallback: Ypres]"],"source":"Overture Maps division_area (CC-BY 4.0)"},"geometry":{"type":"Polygon","coordinates":[[[2.860613,50.7985302],[2.8780103,50.8089529],[2.8870513,50.8011664],[2.9329892,50.8045719],[2.9371825,50.7936084],[2.9599142,50.797672],[2.9557678,50.8250489],[2.9725629,50.8215065],[2.9754898,50.8393499],[2.9533883,50.8454168],[2.9398131,50.8699435],[2.9075843,50.8938086],[2.8645209,50.9173284],[2.8504505,50.9128156],[2.8435652,50.9196586],[2.8525539,50.9362982],[2.83809,50.9267838],[2.8300336,50.9384811],[2.8126907,50.9299432],[2.8260972,50.9223857],[2.8225622,50.9077221],[2.7952075,50.8901848],[2.7757965,50.8930052],[2.7690581,50.8894809],[2.7818511,50.8861713],[2.7826345,50.8690912],[2.7696449,50.8460134],[2.7757913,50.8385635],[2.8030997,50.8384015],[2.8019797,50.8268027],[2.7897596,50.8183124],[2.8186317,50.7970767],[2.8418675,50.8149767],[2.860613,50.7985302]]]}}]}