{"type": "FeatureCollection", "features": [{"type": "Feature", "properties": {"slug": "zacatecasguadalupe", "members": 5, "country": "Mexico"}, "geometry": {"type": "Polygon", "coordinates": [[[-102.6588431, 22.617589], [-102.7078371, 22.6294268], [-102.6997192, 22.6469852], [-102.7404376, 22.6551262], [-102.7344283, 22.663453], [-102.7438592, 22.6708497], [-102.766235, 22.6664359], [-102.7873745, 22.6749784], [-102.7831224, 22.6997112], [-102.7702027, 22.7044837], [-102.761948, 22.7221334], [-102.7783639, 22.7302199], [-102.7843732, 22.7593482], [-102.7599259, 22.7666343], [-102.7578718, 22.7751364], [-102.79296, 22.7946671], [-102.8093054, 22.7949792], [-102.8088774, 22.8051586], [-102.8497313, 22.8108443], [-102.8405564, 22.8211228], [-102.8435597, 22.8380425], [-102.7949527, 22.8355952], [-102.7910063, 22.8572938], [-102.7964613, 22.8663962], [-102.7821536, 22.8659831], [-102.7793538, 22.8794669], [-102.7119679, 22.8774826], [-102.7084689, 22.8962626], [-102.6879147, 22.8972668], [-102.6843977, 22.9192089], [-102.6637495, 22.9128938], [-102.6604661, 22.9324729], [-102.6536371, 22.9340094], [-102.6568741, 22.9069282], [-102.6405948, 22.90425], [-102.613989, 22.8769298], [-102.6021206, 22.8933214], [-102.565449, 22.8472184], [-102.5486691, 22.867101], [-102.5453239, 22.8474894], [-102.5143531, 22.8712672], [-102.46819, 22.873213], [-102.4572832, 22.8861436], [-102.4264572, 22.8939483], [-102.4500992, 22.9289642], [-102.4219941, 22.9347825], [-102.4246306, 22.9648916], [-102.4102694, 22.9684766], [-102.4101146, 22.9545788], [-102.3759945, 22.9570698], [-102.3718667, 22.9472389], [-102.3604462, 22.9462008], [-102.3598889, 22.9559286], [-102.3427166, 22.95589], [-102.3420193, 22.9722705], [-102.3247498, 22.9780714], [-102.3245076, 22.9849863], [-102.29415, 22.9863776], [-102.2921524, 22.9928508], [-102.2862061, 22.9869985], [-102.2614895, 22.9889278], [-102.2628295, 23.0072364], [-102.2335229, 23.0249367], [-102.1969824, 22.8826425], [-102.2125366, 22.8541315], [-102.2075053, 22.8366419], [-102.2173177, 22.8345248], [-102.245784, 22.7459438], [-102.2468763, 22.7061588], [-102.2554354, 22.6895417], [-102.3129556, 22.6904189], [-102.3716614, 22.6778081], [-102.3786189, 22.6656762], [-102.3997949, 22.6620602], [-102.410524, 22.6295465], [-102.4281326, 22.6347503], [-102.433555, 22.6231049], [-102.4284194, 22.6005048], [-102.4726073, 22.6235448], [-102.4681414, 22.5927907], [-102.4742181, 22.5777103], [-102.4991941, 22.5834917], [-102.5050796, 22.5610822], [-102.4946432, 22.5471213], [-102.5047118, 22.5401988], [-102.5625213, 22.5595674], [-102.5621101, 22.5815975], [-102.5494949, 22.607626], [-102.5686651, 22.6010787], [-102.6064037, 22.6128925], [-102.6074019, 22.602864], [-102.647538, 22.600322], [-102.6588431, 22.617589]]]}}]}