{"type": "FeatureCollection", "features": [{"type": "Feature", "properties": {"slug": "zapata-tx", "members": 1, "country": "United States"}, "geometry": {"type": "Polygon", "coordinates": [[[-99.3704652, 27.3191317], [-99.4556178, 27.2639599], [-99.44166, 27.25023], [-99.44527, 27.22321], [-99.43262, 27.2092], [-99.4262, 27.17566], [-99.44013, 27.1515], [-99.43091, 27.1251], [-99.44256, 27.10681], [-99.42865, 27.09192], [-99.4528, 27.06414], [-99.44583, 27.0216], [-99.43134, 27.01035], [-99.40938, 27.01089], [-99.38555, 26.9806], [-99.3840953, 26.969494], [-99.39471, 26.95964], [-99.38449, 26.93768], [-99.32478, 26.91602], [-99.32879, 26.87995], [-99.3164397, 26.8644797], [-99.29527, 26.86549], [-99.2680515, 26.8421764], [-99.26226, 26.81574], [-99.24246, 26.78804], [-99.24005, 26.74575], [-99.20879, 26.7248], [-99.20022, 26.65592], [-99.17806, 26.62049], [-99.1692529, 26.5717512], [-99.0111649, 26.6749719], [-98.9542557, 26.7857128], [-98.9544822, 27.2693972], [-99.3335785, 27.2733689], [-99.3704652, 27.3191317]]]}}]}