{"type": "FeatureCollection", "features": [{"type": "Feature", "properties": {"slug": "zaporizhia", "members": 1, "country": "Ukraine", "input_hash": "66d8bd0c00fee6ef"}, "geometry": {"type": "Polygon", "coordinates": [[[34.8516809, 47.9209705], [34.8019738, 47.915638], [34.8171129, 47.8643294], [34.860842, 47.8805301], [34.8708044, 47.8506261], [34.8972316, 47.8528148], [34.9033773, 47.8295927], [34.8788837, 47.8184011], [34.8936183, 47.7602236], [34.9574977, 47.7695877], [34.9649274, 47.7402064], [34.9544831, 47.7390806], [34.9560414, 47.7123379], [34.9298855, 47.7115927], [34.93824, 47.6774], [34.9057129, 47.6738848], [34.9161816, 47.6337991], [34.9330849, 47.6356515], [34.9420904, 47.6010127], [34.9349677, 47.5907823], [34.9260817, 47.5941248], [34.9359785, 47.5824982], [34.9275494, 47.5803095], [34.9458807, 47.5742459], [34.9358153, 47.5683537], [34.9523485, 47.5715749], [34.9593437, 47.5631777], [34.9232089, 47.5564082], [34.9610281, 47.5607379], [34.965296, 47.5478479], [34.9442431, 47.5298823], [34.9770355, 47.5105341], [35.0242853, 47.5047073], [35.0673292, 47.5093167], [35.1403767, 47.5368516], [35.1643824, 47.562222], [35.1902295, 47.6149322], [35.2469301, 47.6202523], [35.2815266, 47.6088856], [35.2794625, 47.6436247], [35.3155303, 47.6724245], [35.3358418, 47.6777461], [35.3474775, 47.658768], [35.3990095, 47.6563435], [35.4003825, 47.6388498], [35.4284296, 47.6390421], [35.4299627, 47.618087], [35.4693517, 47.6186412], [35.4581025, 47.6059173], [35.549393, 47.6071996], [35.5554103, 47.5800047], [35.5667996, 47.5764751], [35.6157016, 47.5851813], [35.7145142, 47.6216118], [35.7356071, 47.5986396], [35.7567322, 47.5967078], [35.7979201, 47.6715143], [35.7798957, 47.7551944], [35.7775783, 47.7817891], [35.786333, 47.7855378], [35.7719993, 47.8019136], [35.7913112, 47.8051997], [35.7871484, 47.8289742], [35.8456736, 47.8332631], [35.8500512, 47.8105951], [35.8424607, 47.7690042], [35.8732739, 47.7717526], [35.9103525, 47.7627028], [35.9091557, 47.7566888], [35.9537659, 47.755519], [35.9671216, 47.745849], [35.9737118, 47.7211063], [36.0124596, 47.7250384], [36.0069302, 47.7660914], [36.1326112, 47.7780537], [36.1839537, 47.775443], [36.1743547, 47.7857759], [36.1795187, 47.793843], [36.1912206, 47.7971932], [36.1912858, 47.8069576], [36.2069199, 47.8074368], [36.1999657, 47.8124953], [36.2053801, 47.8256555], [36.1886782, 47.838191], [36.1972104, 47.8590618], [36.1771939, 47.8571957], [36.1787749, 47.8506565], [36.1016634, 47.8425887], [36.0958889, 47.8500811], [36.0736508, 47.8488326], [36.0685622, 47.8674888], [36.0575194, 47.8682955], [36.0540611, 47.8800013], [36.0807874, 47.8832195], [36.0872019, 47.8612274], [36.1192273, 47.8647615], [36.1301856, 47.8903331], [36.1103646, 47.924578], [36.1197291, 47.9278626], [36.1087035, 47.9417691], [36.0850119, 47.9303057], [36.0735698, 47.9652124], [36.051624, 47.9585709], [36.0479461, 47.9655214], [36.0707449, 47.9715179], [36.0619976, 48.0010325], [36.0416478, 48.0039192], [36.0344335, 48.0187162], [36.0655311, 48.0251985], [36.0524844, 48.0590719], [35.9752911, 48.043179], [35.9885154, 48.058354], [35.9720218, 48.0599386], [35.9694347, 48.0731229], [35.985463, 48.0846407], [35.9665982, 48.0947947], [35.8168631, 48.0661227], [35.8059059, 48.1004255], [35.7428249, 48.0957479], [35.7034121, 48.1402147], [35.5241386, 48.0746014], [35.5188575, 48.0948609], [35.4443707, 48.1041223], [35.4212624, 48.1001881], [35.4162676, 48.1096858], [35.3384996, 48.1234298], [35.2950206, 48.1443499], [35.2418637, 48.1346782], [35.2197084, 48.1427251], [35.1945477, 48.1403684], [35.1636852, 48.1287625], [35.1017463, 48.1316069], [35.0579429, 48.1204851], [35.0389152, 48.0984461], [34.9902585, 48.0891896], [34.9855916, 48.0966064], [34.9147229, 48.0909369], [34.9158128, 48.1306035], [34.8551126, 48.133049], [34.8756638, 48.0544638], [34.8392142, 48.0505126], [34.8465192, 48.0136198], [34.8583305, 48.0151785], [34.8695389, 47.9823938], [34.9048844, 47.9857185], [34.9190894, 47.9334607], [34.8810268, 47.9289083], [34.8764227, 47.9419506], [34.8492, 47.9377732], [34.8516809, 47.9209705]]]}}]}