{"type": "FeatureCollection", "features": [{"type": "Feature", "properties": {"slug": "zhanaozen", "members": 1, "country": "Kazakhstan", "input_hash": "8763f99776747abe"}, "geometry": {"type": "MultiPolygon", "coordinates": [[[[52.9832835, 43.3007375], [52.9071106, 43.279817], [52.91823, 43.2117632], [52.8073199, 43.2227672], [52.7653275, 43.2341304], [52.6822887, 43.2333761], [52.6718595, 43.3228217], [52.6821159, 43.372804], [52.7729629, 43.4165349], [52.8294609, 43.4100544], [52.8689751, 43.386304], [52.9421406, 43.3872383], [52.9998015, 43.3680919], [52.9761413, 43.335152], [52.9832835, 43.3007375]]], [[[53.0293193, 43.4613087], [53.0876584, 43.4813887], [53.1482969, 43.4823069], [53.1501286, 43.4298451], [53.1096187, 43.4187021], [53.1007156, 43.4017895], [53.0762155, 43.3966491], [53.0864068, 43.3959135], [53.0880788, 43.3943266], [53.0736706, 43.3675891], [53.0026759, 43.4238263], [53.0036203, 43.4355496], [53.0219958, 43.4451264], [53.0293193, 43.4613087]]]]}}]}