{"type": "FeatureCollection", "features": [{"type": "Feature", "properties": {"slug": "zhangjiajie", "members": 4, "country": "China", "input_hash": "bf8c714bec6635fc"}, "geometry": {"type": "Polygon", "coordinates": [[[110.9501311, 29.1383748], [110.8470727, 29.0960977], [110.8576034, 29.0674752], [110.8656112, 29.0644117], [110.8671032, 29.0703016], [110.8769922, 29.0582986], [110.9066668, 29.0501211], [110.9099921, 29.0390062], [110.8982351, 29.0375863], [110.8967534, 29.0210739], [110.9104512, 29.0092522], [110.8991944, 28.9987704], [110.8933896, 29.0056812], [110.8849918, 28.9945678], [110.8771727, 29.0045431], [110.8485845, 28.9972146], [110.8501037, 28.9879408], [110.8364499, 28.9843402], [110.8450588, 28.9665241], [110.8414514, 28.9474469], [110.8138364, 28.9530636], [110.8020507, 28.9694142], [110.7890628, 28.9591912], [110.7936096, 28.9378742], [110.775984, 28.9260871], [110.7846815, 28.9211254], [110.7662224, 28.9043252], [110.7525836, 28.9074737], [110.7519248, 28.9183791], [110.7209216, 28.9380124], [110.7175711, 28.9175497], [110.6951718, 28.9179521], [110.6883029, 28.9299504], [110.6818088, 28.9224059], [110.6848165, 28.9096978], [110.6747867, 28.9060437], [110.66121, 28.9159883], [110.6593893, 28.9353061], [110.6345367, 28.9523254], [110.6378037, 28.9610639], [110.6255357, 28.959484], [110.6237678, 28.97423], [110.6064795, 28.9643363], [110.5840669, 28.9714553], [110.5838162, 28.9910793], [110.5607132, 29.0089088], [110.5342163, 28.9927191], [110.5331887, 28.9778215], [110.5449381, 28.9692238], [110.5266835, 28.9612204], [110.5122721, 28.9349226], [110.5397141, 28.9047853], [110.5403117, 28.8936483], [110.5293954, 28.8925377], [110.5277069, 28.8846319], [110.5074984, 28.9005727], [110.4973403, 28.896188], [110.4838465, 28.9164832], [110.4568093, 28.885232], [110.4469551, 28.8851323], [110.4434485, 28.8977903], [110.4306146, 28.88515], [110.4162786, 28.9045427], [110.3869079, 28.8936405], [110.3829531, 28.8850014], [110.3582213, 28.8909484], [110.3628431, 28.9202689], [110.3558529, 28.9306245], [110.3271971, 28.9453602], [110.3114518, 28.9399725], [110.2998797, 28.9458841], [110.3033961, 28.9632054], [110.3308081, 28.9826034], [110.3228837, 28.9858461], [110.3449457, 29.022104], [110.3345755, 29.0445032], [110.3055443, 29.0393942], [110.303032, 29.048227], [110.2919306, 29.0506091], [110.2987319, 29.0578232], [110.3007212, 29.0888041], [110.2821165, 29.0875262], [110.2559296, 29.0691184], [110.2435762, 29.0833589], [110.2590124, 29.1129054], [110.2562494, 29.1233687], [110.2203736, 29.1176637], [110.2119707, 29.1304014], [110.2161449, 29.1425861], [110.19423, 29.1672641], [110.178708, 29.1540609], [110.1682191, 29.1563477], [110.1711149, 29.162715], [110.1570381, 29.1724783], [110.1445649, 29.1545223], [110.1343604, 29.1560035], [110.1348341, 29.1449697], [110.1274612, 29.1524052], [110.1273428, 29.1382529], [110.1146453, 29.1446286], [110.0901295, 29.1408689], [110.0829173, 29.1627531], [110.0911811, 29.1661904], [110.080644, 29.1654244], [110.0856236, 29.1792794], [110.0653349, 29.2057316], [110.0653336, 29.2250871], [110.0774149, 29.2383428], [110.0725555, 29.2543525], [110.0960869, 29.247258], [110.0965152, 29.2606049], [110.109097, 29.2756761], [110.1041798, 29.2968864], [110.0663833, 29.3239344], [110.0055313, 29.2889404], [109.9631728, 29.3040579], [109.9336928, 29.3271294], [109.9561308, 29.3469774], [109.9405213, 29.3653984], [109.9474718, 29.3834859], [109.9393388, 29.4209074], [109.9171828, 29.4446294], [109.9024503, 29.4398764], [109.8264313, 29.3736704], [109.7919998, 29.4107209], [109.8036728, 29.4310894], [109.7987673, 29.4469339], [109.7773668, 29.4710884], [109.7709428, 29.4958784], [109.7343598, 29.5370464], [109.7754213, 29.5786894], [109.7565693, 29.6119729], [109.7162783, 29.6026934], [109.7025908, 29.6110494], [109.7147064, 29.6165218], [109.6966273, 29.63896], [109.712249, 29.6534782], [109.70935, 29.6755476], [109.7599786, 29.6964], [109.7564373, 29.7167925], [109.7687665, 29.7252216], [109.747371, 29.7422487], [109.8054185, 29.7743935], [109.846961, 29.7721871], [109.8623104, 29.7815039], [109.9010562, 29.7667066], [109.9428635, 29.7762222], [110.0192337, 29.7721825], [110.1084518, 29.7921047], [110.1558075, 29.7562714], [110.1942596, 29.7555714], [110.2409363, 29.734848], [110.2850571, 29.6989899], [110.2949829, 29.6649742], [110.3363656, 29.668251], [110.3479636, 29.6552627], [110.3471685, 29.6427073], [110.3656473, 29.6361317], [110.4083036, 29.6557267], [110.4107065, 29.664079], [110.4422125, 29.6669573], [110.4443474, 29.6937706], [110.4606628, 29.7174268], [110.497055, 29.6959563], [110.5191993, 29.6972238], [110.6273926, 29.7606376], [110.6316237, 29.7496976], [110.6556168, 29.7414556], [110.6633833, 29.7110464], [110.7115098, 29.6887644], [110.7396088, 29.6988484], [110.7571089, 29.7197548], [110.7614591, 29.6831211], [110.7981429, 29.6797596], [110.8518493, 29.6990387], [110.8666498, 29.6882102], [110.899697, 29.6872879], [110.9373964, 29.6708013], [110.9625959, 29.6804435], [110.9932816, 29.6698158], [111.0266764, 29.6715806], [111.0339937, 29.6577064], [111.0256256, 29.6469124], [111.0430128, 29.6409336], [111.0496115, 29.6202698], [111.1319705, 29.611374], [111.1499745, 29.5969055], [111.1708422, 29.6034015], [111.2498005, 29.602398], [111.2490541, 29.589662], [111.2686546, 29.5833962], [111.2803392, 29.5585612], [111.2983683, 29.5517544], [111.2956949, 29.5403088], [111.3136114, 29.5359072], [111.3318494, 29.4960202], [111.3122228, 29.4685837], [111.3239479, 29.4465489], [111.3027055, 29.4136878], [111.3111722, 29.4018628], [111.2537241, 29.3833644], [111.2299916, 29.3377717], [111.2463812, 29.3019407], [111.2146791, 29.2634987], [111.2270057, 29.2445077], [111.2214008, 29.2232558], [111.1784443, 29.2097175], [111.1688286, 29.2334122], [111.1483338, 29.2404322], [111.0872658, 29.2067911], [111.0650002, 29.1712438], [111.0627629, 29.1488374], [111.0511247, 29.1404688], [111.0204611, 29.1405523], [111.016989, 29.1233228], [110.9801739, 29.1139701], [110.9501311, 29.1383748]]]}}]}