{"type":"FeatureCollection","features":[{"type":"Feature","properties":{"slug":"zhengzhou","member_count":12,"matched_count":10,"unmatched":["Zh\u014dngm\u00f3u Xi\u00e0n [incl. Zh\u00e8ngzh\u014du Economic and Technological Development Zone (parts), Zh\u00e8ngzh\u014du Airport Economic Zone (parts)] (CN-HA, type='County')","Gu\u0103nch\u00e9ng Hu\u00edz\u00fa Q\u016b [incl. Zh\u00e8ngzh\u014du Economic and Technological Development Zone (part)] (CN-HA, type='District')"],"source":"Overture Maps division_area (CC-BY 4.0)"},"geometry":{"type":"Polygon","coordinates":[[[113.3217109,34.4064701],[113.3087301,34.3946701],[113.3141006,34.3850802],[113.3057306,34.3739201],[113.3096303,34.3540702],[113.2704607,34.3528301],[113.2731301,34.3429002],[113.2625762,34.3386817],[113.2214304,34.33811],[113.2035405,34.3124902],[113.1873805,34.3122302],[113.1731506,34.2874902],[113.1469527,34.2672442],[113.1307108,34.2743304],[113.1038404,34.2638601],[113.0789604,34.2665203],[113.0588902,34.2875704],[113.0327905,34.2805203],[113.0077106,34.3013502],[112.9455901,34.30288],[112.9069305,34.2948802],[112.8835978,34.3040403],[112.8509904,34.3040701],[112.8335905,34.29869],[112.8334105,34.3122402],[112.847722,34.3188416],[112.8360206,34.3259902],[112.8363004,34.3368701],[112.8197404,34.3335101],[112.8033302,34.3407001],[112.7820902,34.3334101],[112.7781206,34.3464803],[112.7566403,34.3466401],[112.7510004,34.3584902],[112.7253089,34.3523414],[112.7239405,34.37789],[112.7142208,34.3837801],[112.7262105,34.3950201],[112.7212706,34.4174401],[112.7303605,34.4258803],[112.7397103,34.4611201],[112.7304507,34.4927699],[112.7688005,34.5020601],[112.7986905,34.4806301],[112.8864105,34.4777102],[112.9005106,34.4689202],[112.9163205,34.4792132],[112.9230505,34.52863],[112.9740507,34.5355501],[112.9617703,34.5471902],[112.8888004,34.5483003],[112.8700203,34.5604302],[112.8552973,34.5913869],[112.8462341,34.5865409],[112.8296617,34.5949948],[112.8368803,34.6091502],[112.8470271,34.6080847],[112.8472202,34.6171001],[112.8186505,34.6264101],[112.8375403,34.6303501],[112.8405102,34.64119],[112.8235306,34.6562499],[112.8293005,34.6690402],[112.8207304,34.6738201],[112.8198261,34.6937277],[112.8646225,34.7091685],[112.8961036,34.6948846],[112.9326909,34.7244727],[112.8926804,34.73797],[112.9032301,34.7449302],[112.8941505,34.7538801],[112.9099004,34.75992],[112.8989303,34.7639004],[112.9108103,34.7649902],[112.8939103,34.7724803],[112.9000703,34.7765902],[112.8894806,34.7844204],[112.8751804,34.77809],[112.8637602,34.7865204],[112.8563005,34.7791703],[112.8435303,34.78554],[112.8346505,34.7699904],[112.8032405,34.7822502],[112.8071632,34.832717],[112.8475022,34.8138425],[112.8810969,34.8546947],[112.9441521,34.834278],[113.0009354,34.8638624],[113.0625748,34.8406577],[113.0836152,34.8529107],[113.1407804,34.8479047],[113.1339275,34.8854312],[113.223396,34.9079806],[113.2487037,34.9459296],[113.3683409,34.9842842],[113.4359496,34.9877486],[113.5478303,34.9641127],[113.583279,34.9486179],[113.5977587,34.9310684],[113.7217999,34.9108226],[113.7533264,34.9196072],[113.802223,34.8792132],[113.848701,34.8860765],[113.8509406,34.8653902],[113.8300605,34.8328001],[113.8444104,34.8257203],[113.8299203,34.8098],[113.8407602,34.7933301],[113.8356902,34.7779403],[113.8430604,34.7745404],[113.8357845,34.7484381],[113.80126,34.7670207],[113.7942096,34.7569934],[113.7450376,34.7558837],[113.7143895,34.7330757],[113.7168754,34.7389852],[113.6980161,34.740481],[113.704924,34.7544649],[113.6969643,34.7585103],[113.6843951,34.7524592],[113.6619526,34.7594023],[113.6587082,34.7380249],[113.6706243,34.7160287],[113.6612549,34.70392],[113.6762634,34.6972242],[113.6764075,34.684769],[113.6678029,34.6849431],[113.6535769,34.6684752],[113.661127,34.6555458],[113.6573183,34.6449108],[113.6784706,34.6350901],[113.6893704,34.6531547],[113.7033802,34.6512202],[113.7152004,34.6435602],[113.7200503,34.6272302],[113.7422305,34.6259901],[113.7406497,34.6124337],[113.7531304,34.6138902],[113.7594605,34.6236004],[113.7888004,34.62367],[113.8230636,34.6048856],[113.8406403,34.6061789],[113.834963,34.5954495],[113.8601681,34.5783872],[113.8415497,34.5612879],[113.843051,34.548486],[113.8522896,34.5430603],[113.8512835,34.5281087],[113.863643,34.5359162],[113.871418,34.5253477],[113.8796854,34.5331865],[113.8865023,34.5264619],[113.8752717,34.479796],[113.8788719,34.4672361],[113.9000918,34.4615559],[113.9179827,34.4381589],[113.9355927,34.4577689],[113.9448329,34.4535888],[113.9431027,34.4346488],[113.9709827,34.4446789],[113.992296,34.4173898],[113.9924154,34.4105474],[113.9799985,34.4083652],[113.9856865,34.4000206],[114.0009227,34.4118153],[114.0217839,34.3949523],[114.0220831,34.4123703],[114.0312718,34.4107591],[114.0299047,34.4047801],[114.0359118,34.408628],[114.035879,34.3896975],[114.0543492,34.3834462],[114.0575685,34.351053],[114.067844,34.3445641],[114.0580471,34.3178171],[114.0492302,34.313],[114.0282492,34.3201827],[114.0165415,34.3136453],[113.9949922,34.3319146],[113.9938681,34.3232849],[113.9538412,34.3205648],[113.9510166,34.3335537],[113.9325329,34.3432774],[113.90801,34.3192836],[113.8869328,34.3204922],[113.8827763,34.3315617],[113.8396204,34.3230902],[113.7980704,34.3387802],[113.7850024,34.335159],[113.7855703,34.3241002],[113.7706705,34.3156503],[113.7243385,34.3184281],[113.7289301,34.31236],[113.7201504,34.3102899],[113.7233202,34.3049601],[113.706341,34.3021365],[113.7082602,34.2908201],[113.6922103,34.2899299],[113.6985605,34.2851702],[113.6933205,34.27767],[113.6724702,34.2841502],[113.6575005,34.2755401],[113.6115903,34.3104901],[113.5883103,34.3192901],[113.5611802,34.3207902],[113.5501407,34.3123103],[113.5231303,34.31899],[113.5047103,34.3444902],[113.4773607,34.3441104],[113.4668007,34.3322099],[113.4405702,34.3380503],[113.4236005,34.3514303],[113.4071405,34.35061],[113.4000303,34.3566603],[113.4077904,34.3754201],[113.3681302,34.3779102],[113.3609703,34.3818602],[113.3655905,34.3902601],[113.3404106,34.4061004],[113.3217109,34.4064701]]]}}]}