{"type":"FeatureCollection","features":[{"type":"Feature","properties":{"slug":"zhoukou","member_count":10,"matched_count":9,"unmatched":["Hu\u00e1iy\u00e1ng Q\u016b (CN-HA, type='District')"],"source":"Overture Maps division_area (CC-BY 4.0)"},"geometry":{"type":"MultiPolygon","coordinates":[[[[115.0183906,33.4200902],[115.0223702,33.4486503],[115.0486808,33.4546901],[115.0484406,33.4732],[115.0665103,33.4816301],[115.0533104,33.4995402],[115.05779,33.5131704],[115.0474106,33.5202002],[115.0568401,33.53782],[115.048223,33.5466118],[115.0484906,33.5710299],[115.0599215,33.6003316],[115.0356905,33.6096802],[115.0380402,33.6219803],[115.0199605,33.6219003],[115.0067704,33.66773],[115.0203903,33.6829405],[115.0188004,33.7038003],[115.0416404,33.7267403],[115.0380503,33.7489301],[115.0611224,33.7524102],[115.0670907,33.7788402],[115.0757801,33.7807802],[115.0726708,33.7909802],[115.0855403,33.7933702],[115.0871403,33.8152603],[115.0750601,33.82325],[115.0783001,33.8370902],[115.0638166,33.8559848],[115.0709693,33.862129],[115.0633106,33.8644803],[115.0664802,33.8791702],[115.0582111,33.8892658],[115.0749461,33.89556],[115.0749251,33.9084142],[115.057307,33.9122287],[115.0602704,33.9247003],[115.0041804,33.9257803],[115.0039804,33.9099601],[114.9692902,33.8967403],[114.9554006,33.9147901],[114.9372304,33.9166804],[114.9288706,33.9094101],[114.9064198,33.9210889],[114.8786206,33.9099803],[114.8793404,33.9040103],[114.8696401,33.9155903],[114.8522103,33.9152501],[114.8431707,33.90257],[114.8381401,33.9084402],[114.7994605,33.9093203],[114.7824503,33.8957001],[114.7818405,33.9057301],[114.7433404,33.8993501],[114.7328902,33.9139802],[114.7124405,33.9131002],[114.7048704,33.8900503],[114.7104106,33.8852999],[114.6990104,33.8805002],[114.7151603,33.8492102],[114.7082299,33.8340501],[114.7181001,33.8182303],[114.7094506,33.8027301],[114.7159405,33.76201],[114.6407904,33.7575703],[114.6438906,33.7279001],[114.6565507,33.7010902],[114.7109702,33.7136302],[114.7392802,33.7006302],[114.7436503,33.6858904],[114.7546202,33.6795504],[114.7560706,33.66142],[114.7717599,33.6693141],[114.7841339,33.6926602],[114.8091945,33.6817212],[114.8206727,33.6662844],[114.8146616,33.6586749],[114.8233714,33.6356977],[114.8516284,33.6169754],[114.835193,33.6099118],[114.8194356,33.5832862],[114.8072873,33.5878974],[114.8052956,33.5743041],[114.8500314,33.5425995],[114.8725682,33.5074239],[114.8475305,33.49052],[114.8610202,33.48547],[114.8536303,33.4700302],[114.8396863,33.4642602],[114.8313402,33.4764],[114.8178401,33.4712503],[114.81281,33.4599701],[114.7953602,33.4598301],[114.7988705,33.4503201],[114.7781303,33.4115599],[114.79139,33.3993202],[114.7841001,33.3857901],[114.7963303,33.3451801],[114.7598503,33.3335303],[114.7539804,33.3174302],[114.73806,33.3131502],[114.7430948,33.2998426],[114.7263101,33.2956699],[114.7287303,33.3019899],[114.7117602,33.3052703],[114.6903104,33.2961401],[114.67843,33.2996201],[114.6779904,33.3182501],[114.6572101,33.3120902],[114.6615306,33.3449703],[114.6501802,33.3484601],[114.6486804,33.3569099],[114.6207804,33.3416802],[114.6025704,33.3592202],[114.5809204,33.3605099],[114.57777,33.3783899],[114.5649703,33.3813602],[114.5712503,33.4128401],[114.5674905,33.4191701],[114.5564003,33.4168501],[114.5563252,33.4257704],[114.5284339,33.4276358],[114.52655,33.4185145],[114.4792204,33.4153901],[114.4828803,33.4424002],[114.4708101,33.4467801],[114.4570399,33.4353403],[114.4508404,33.4617302],[114.4309303,33.4640101],[114.4214506,33.4567101],[114.3993504,33.4625102],[114.3974906,33.4568302],[114.3666208,33.45419],[114.3665005,33.4448901],[114.3638305,33.4448604],[114.3644006,33.4580902],[114.3425305,33.44966],[114.3454304,33.4634402],[114.3253505,33.4672502],[114.3019505,33.4865201],[114.2784003,33.4767603],[114.2703503,33.5155703],[114.2884404,33.5223801],[114.2901903,33.5614801],[114.2737704,33.5591602],[114.2736905,33.5749701],[114.2562103,33.5894003],[114.2544403,33.5985399],[114.2719505,33.6012701],[114.2786907,33.6218202],[114.2558504,33.6307703],[114.2580102,33.6589101],[114.2506404,33.6707203],[114.2679805,33.6798603],[114.2623901,33.68814],[114.24478,33.6871299],[114.2451095,33.7069467],[114.1936117,33.6930733],[114.1806795,33.6841064],[114.1789891,33.6727665],[114.1662416,33.6662449],[114.1536473,33.670365],[114.1465965,33.6526431],[114.1103804,33.6544402],[114.1144407,33.6804903],[114.0912103,33.6842502],[114.0944701,33.6973001],[114.0843003,33.7156403],[114.0871501,33.73332],[114.1010105,33.7333001],[114.1035904,33.7428704],[114.0908905,33.7655601],[114.1355806,33.7670202],[114.1278505,33.7962801],[114.1340504,33.8104202],[114.1586604,33.7981502],[114.1703605,33.8073501],[114.1726607,33.7997502],[114.2016509,33.7989604],[114.2062393,33.8076582],[114.2118205,33.79458],[114.2350471,33.7911603],[114.2380204,33.7818902],[114.2590004,33.7819501],[114.2768704,33.7658904],[114.2927704,33.7842301],[114.3035705,33.7845701],[114.3073804,33.8062001],[114.3207703,33.8126101],[114.3170203,33.8341205],[114.2951953,33.8433932],[114.2948149,33.8537226],[114.3061733,33.8545069],[114.3102405,33.8654903],[114.2918501,33.9380102],[114.2964107,33.9608002],[114.3083805,33.9613002],[114.3001505,33.9702502],[114.3049003,33.9955804],[114.2819501,34.0070902],[114.2818304,34.0457301],[114.2668903,34.0452701],[114.2663202,34.0666501],[114.2555402,34.0758902],[114.2602204,34.0879302],[114.2482103,34.0936901],[114.2683805,34.1002903],[114.2675103,34.1131902],[114.2864102,34.1333899],[114.2727103,34.14874],[114.2760764,34.1675806],[114.2688903,34.1741101],[114.2808705,34.21732],[114.2541605,34.25258],[114.2710206,34.2718001],[114.2976503,34.2730502],[114.35209,34.2488804],[114.4006595,34.2469823],[114.4090106,34.2678801],[114.4240605,34.2664703],[114.4361403,34.2781001],[114.4335604,34.29544],[114.4070403,34.3058702],[114.4286205,34.3150502],[114.4311604,34.3298602],[114.4218404,34.3349602],[114.4269803,34.3384499],[114.4470306,34.32117],[114.4581379,34.32226],[114.4568206,34.3318403],[114.4709903,34.3328801],[114.4881105,34.3217503],[114.4899906,34.3113803],[114.5224105,34.3113602],[114.5295603,34.3067502],[114.5195305,34.3042403],[114.5206803,34.2861102],[114.5489305,34.2885103],[114.5502203,34.2696803],[114.5854702,34.2753002],[114.6095903,34.2603301],[114.6302403,34.2625801],[114.6423605,34.2486003],[114.6656004,34.2527204],[114.6677906,34.2437499],[114.7072303,34.24312],[114.7129307,34.2322501],[114.7031004,34.2321902],[114.7145801,34.2232304],[114.7547006,34.2379302],[114.7479204,34.24944],[114.7548904,34.2553302],[114.8158504,34.2627902],[114.82747,34.2710701],[114.8262003,34.29037],[114.8797004,34.2653402],[114.8938902,34.2658801],[114.8898404,34.2861201],[114.90442,34.2851201],[114.9319807,34.2818702],[114.9356305,34.2620701],[114.9486303,34.2683402],[114.9609003,34.2551901],[114.9725908,34.2692303],[114.9828407,34.2615302],[114.9788809,34.2533201],[114.9929602,34.2560201],[114.9903607,34.2462902],[115.0020206,34.25521],[115.0109304,34.2486504],[115.0291508,34.2520203],[115.0431403,34.2290502],[115.0856201,34.2222902],[115.1019404,34.2058],[115.1159504,34.2104001],[115.1166504,34.2030302],[115.10391,34.2027502],[115.1135003,34.19391],[115.1061101,34.1876204],[115.1275205,34.17943],[115.1290304,34.1585301],[115.1185204,34.1518001],[115.1180305,34.1294102],[115.1085002,34.1264101],[115.1179902,34.1185002],[115.1200906,34.1024002],[115.1082501,34.0995601],[115.1143104,34.0880904],[115.1108701,34.0675402],[115.1228401,34.0653702],[115.1325504,34.0521803],[115.1153402,34.0255004],[115.1069503,34.0306705],[115.1038805,34.0226116],[115.0649733,34.0232611],[115.0653301,34.0149904],[115.0787203,34.0135902],[115.0779205,34.0051602],[115.0531005,33.9847803],[115.0592105,33.9745001],[115.0514204,33.9699003],[115.0534405,33.9561802],[115.0402602,33.9498702],[115.0492003,33.9381102],[115.0590808,33.9423803],[115.0828305,33.9317101],[115.0992904,33.93423],[115.1067604,33.96348],[115.1339452,33.9625953],[115.1343303,33.9508901],[115.1497404,33.9455102],[115.17978,33.9552101],[115.1807503,33.9672704],[115.20206,33.9676803],[115.1863604,33.9791999],[115.1860402,33.9920202],[115.2262199,33.97655],[115.2254382,33.9851105],[115.2360207,33.9785601],[115.2544303,33.9834201],[115.2409103,34.0076504],[115.2476204,34.0223001],[115.2644503,34.0181002],[115.29359,34.0252602],[115.2829704,34.0049401],[115.2926602,33.9945502],[115.354235,34.0203453],[115.3920046,33.9962133],[115.4508927,33.9873454],[115.4556507,34.0114605],[115.4671305,34.0076903],[115.4822404,34.0211802],[115.4933604,34.01545],[115.5043904,34.0254103],[115.5197502,34.0152002],[115.5329504,34.0221401],[115.5307401,34.0312602],[115.5435202,34.0407502],[115.5422906,34.0796204],[115.5352504,34.08286],[115.5468404,34.0908003],[115.5838704,34.0832702],[115.5883802,34.0925403],[115.6120899,34.0822301],[115.6268405,34.0897703],[115.6399305,34.0822601],[115.6393805,34.0715301],[115.6541249,34.0552306],[115.642409,34.0504038],[115.6476366,34.0349994],[115.6221396,34.0365642],[115.6193206,34.0285399],[115.5986917,34.0351305],[115.6060114,34.0101478],[115.5836284,34.0139119],[115.5771831,33.9915294],[115.5875418,33.9822108],[115.5721593,33.9752134],[115.5718991,33.9511097],[115.5643541,33.9494165],[115.5657649,33.9345791],[115.5554733,33.9255214],[115.5538505,33.9162936],[115.5640805,33.9108178],[115.5476868,33.9059962],[115.5536145,33.8959425],[115.5405816,33.8933376],[115.54006,33.8839905],[115.5408204,33.8765575],[115.5732858,33.8786997],[115.598917,33.8686072],[115.6190121,33.8804634],[115.6169683,33.8750477],[115.6291831,33.8691016],[115.6217855,33.8605692],[115.6314334,33.8425463],[115.6220108,33.8405636],[115.6190228,33.8231024],[115.606505,33.8220818],[115.6161153,33.8147994],[115.608176,33.7775466],[115.5753994,33.7912611],[115.5567607,33.7712883],[115.565215,33.7700397],[115.5723712,33.7505414],[115.593279,33.7322276],[115.5973372,33.7188048],[115.5896875,33.6990761],[115.6000274,33.6914641],[115.5932039,33.6883241],[115.5901998,33.6781778],[115.5980104,33.6760774],[115.5907953,33.6678406],[115.619393,33.6277524],[115.6352717,33.5835252],[115.6156433,33.584343],[115.6116441,33.5753667],[115.6082886,33.5829755],[115.5570692,33.5779969],[115.5518295,33.5645209],[115.5365315,33.5706155],[115.5065256,33.558379],[115.4942572,33.5602654],[115.4946274,33.568336],[115.475125,33.5569887],[115.4630604,33.5587567],[115.4560545,33.5716257],[115.4465434,33.5705194],[115.4048458,33.5514363],[115.411782,33.542005],[115.399527,33.5358346],[115.3909466,33.5034261],[115.3607503,33.5250063],[115.3617185,33.5139552],[115.3399095,33.5051013],[115.3455234,33.4917817],[115.3380722,33.4823282],[115.3477469,33.476639],[115.3379488,33.4633912],[115.3457674,33.45519],[115.3378683,33.4462047],[115.3209221,33.4579537],[115.3181541,33.4496669],[115.3105071,33.4524643],[115.3101772,33.4234386],[115.325962,33.4019361],[115.3131545,33.3901751],[115.3055397,33.3920675],[115.3070417,33.3748512],[115.3186503,33.3658553],[115.3376403,33.3750169],[115.3331932,33.363492],[115.3441983,33.3516944],[115.3424844,33.3399333],[115.3593662,33.3416856],[115.3617454,33.3333004],[115.3514966,33.33034],[115.3558204,33.3000114],[115.3292933,33.2995652],[115.3381312,33.2642225],[115.3258842,33.2566731],[115.3251708,33.2356813],[115.3090426,33.2215262],[115.3251761,33.2171125],[115.2885264,33.2023775],[115.2961037,33.143806],[115.2840149,33.1445561],[115.2834248,33.1347931],[115.269472,33.1434691],[115.2567181,33.1343349],[115.2381599,33.1385731],[115.2338603,33.12876],[115.203774,33.1156008],[115.1894563,33.1213439],[115.1666817,33.1118288],[115.1618993,33.0992445],[115.1676017,33.0965031],[115.1680818,33.0930561],[115.1481771,33.0808085],[115.132902,33.0855841],[115.1113021,33.0762776],[115.0796145,33.0922269],[115.0789145,33.0861797],[115.0597635,33.0869483],[115.0578913,33.0799163],[115.0461459,33.0881258],[115.0480235,33.0959593],[115.0358891,33.0859167],[114.986448,33.1025946],[114.983004,33.1226501],[114.9637055,33.1328772],[114.9623939,33.141084],[114.9752283,33.1472533],[114.9908218,33.182054],[115.0067211,33.1852297],[115.0084601,33.1708428],[115.0206999,33.1747057],[115.0514665,33.1645163],[115.0586628,33.1759472],[115.0501957,33.201685],[115.0578873,33.2208229],[115.0613653,33.3037056],[115.040487,33.334484],[115.0645088,33.3467378],[115.0622574,33.3574234],[115.0695251,33.361766],[115.0594325,33.3840554],[115.0469946,33.3839551],[115.0394943,33.3982955],[115.0100864,33.4135947],[115.0183906,33.4200902]]],[[[113.3779432,33.840212],[113.3561683,33.8851561],[113.3822814,33.9370592],[113.4105142,33.9440834],[113.4112906,33.9903601],[113.4219904,33.9983101],[113.4239108,34.01273],[113.4444002,34.0053302],[113.49508,34.0231801],[113.5228505,34.0141504],[113.5387108,34.0232305],[113.5385505,34.0330501],[113.5421306,34.0145304],[113.5547405,34.0077702],[113.5722806,34.0189003],[113.6082505,34.0226602],[113.6029706,34.0115404],[113.6207007,33.9981899],[113.6160805,33.98751],[113.6230307,33.9849001],[113.6229304,33.9700302],[113.6780605,33.9551102],[113.6746104,33.9312504],[113.6901502,33.8980002],[113.6816404,33.8873101],[113.6949202,33.8772],[113.68461,33.86],[113.7113206,33.8556302],[113.7138604,33.8708603],[113.7297402,33.87243],[113.7293102,33.8603801],[113.7179603,33.85948],[113.7148804,33.8497402],[113.7285505,33.8326501],[113.7509705,33.82581],[113.7548102,33.8131001],[113.7370298,33.79213],[113.7471304,33.7751902],[113.7281003,33.7509901],[113.7556572,33.7333249],[113.7558436,33.7236608],[113.7341301,33.7145302],[113.7287601,33.6963501],[113.7180703,33.6969099],[113.7110302,33.7124503],[113.7021373,33.7124996],[113.6959204,33.7085401],[113.6974102,33.6903003],[113.6557602,33.7014101],[113.6386008,33.6962902],[113.6340991,33.7028517],[113.6292232,33.6926839],[113.6069337,33.6962665],[113.5938892,33.6902603],[113.603071,33.7075401],[113.5774976,33.7150009],[113.5836154,33.7325593],[113.5748006,33.7323203],[113.5762301,33.7403551],[113.5548902,33.7431843],[113.5679231,33.7438468],[113.5703992,33.7590572],[113.5552937,33.750255],[113.5032881,33.7643813],[113.4742572,33.7433215],[113.4436221,33.7384622],[113.4453101,33.7511202],[113.4570801,33.7512578],[113.4522294,33.7593958],[113.4156604,33.7640202],[113.3648436,33.7865124],[113.3863407,33.7992902],[113.3795804,33.7991701],[113.3739952,33.8129311],[113.3779432,33.840212]]]]}}]}