{"type": "FeatureCollection", "features": [{"type": "Feature", "properties": {"slug": "zibo", "members": 8, "country": "China", "input_hash": "efe55f1000eb7d0c"}, "geometry": {"type": "Polygon", "coordinates": [[[118.409656, 35.991743], [118.3811728, 35.9883133], [118.3767675, 35.9729035], [118.362731, 35.969893], [118.3561465, 35.9774435], [118.3500235, 35.956004], [118.312209, 35.944688], [118.2990835, 35.9511345], [118.2897163, 35.9372563], [118.2740505, 35.938204], [118.252714, 35.924461], [118.229479, 35.93785], [118.2363594, 35.9489698], [118.2078636, 35.9476739], [118.2032545, 35.962761], [118.1901889, 35.967742], [118.1905859, 35.9783853], [118.2044376, 35.9801154], [118.1847899, 36.0099758], [118.1593218, 36.0207401], [118.1353536, 36.0175502], [118.1267769, 36.0299013], [118.1151018, 36.0306614], [118.0587025, 36.0061744], [118.0532361, 35.9921442], [118.0284901, 35.979031], [118.0276371, 35.9642248], [118.0124419, 35.9555007], [118.0142754, 35.9472385], [117.9848065, 35.9475016], [117.9838405, 35.9738722], [117.940635, 35.961576], [117.9300613, 36.0000074], [117.9438582, 36.0148894], [117.9373708, 36.024072], [117.941912, 36.0350897], [117.9240715, 36.0681334], [117.9454801, 36.0985423], [117.9415876, 36.1064048], [117.920179, 36.1095495], [117.8974729, 36.1386326], [117.8977972, 36.1527773], [117.9106293, 36.1702119], [117.9130633, 36.1967314], [117.9563593, 36.2078589], [117.9726333, 36.2622949], [117.9215598, 36.2772682], [117.9260023, 36.2851334], [117.9126995, 36.3178222], [117.9288769, 36.3373915], [117.917794, 36.3501295], [117.9222679, 36.3504233], [117.9244244, 36.3525663], [117.9242849, 36.3460681], [117.9289091, 36.3473902], [117.9234052, 36.3547524], [117.8999412, 36.3545277], [117.8866804, 36.3350839], [117.887138, 36.3659716], [117.8763685, 36.356713], [117.8766761, 36.3684737], [117.850328, 36.392834], [117.850013, 36.4125327], [117.8229889, 36.4190212], [117.8272314, 36.4431424], [117.8118171, 36.4455314], [117.8115342, 36.4347236], [117.7929853, 36.4320332], [117.784948, 36.4413222], [117.7818369, 36.4298312], [117.7733519, 36.4420048], [117.7501597, 36.4454176], [117.7587246, 36.4525358], [117.7480385, 36.4603185], [117.7599318, 36.4700978], [117.7435131, 36.4787416], [117.7516252, 36.4841165], [117.750699, 36.4960636], [117.73022, 36.5051177], [117.7611618, 36.5115134], [117.7002028, 36.5715979], [117.7040483, 36.6338309], [117.6938628, 36.6571234], [117.7002183, 36.6849709], [117.7425958, 36.6959835], [117.7447989, 36.7022249], [117.7717384, 36.6950361], [117.7731918, 36.7039772], [117.7897431, 36.7092901], [117.7977032, 36.7323602], [117.8133902, 36.7404281], [117.8100169, 36.7579971], [117.816034, 36.7626113], [117.8268294, 36.7448417], [117.846878, 36.7507261], [117.8404154, 36.7719652], [117.8199806, 36.7758848], [117.8184688, 36.7876705], [117.8084698, 36.7923162], [117.8260355, 36.8359271], [117.8241122, 36.8580377], [117.8632255, 36.8667947], [117.8721725, 36.8594427], [117.8854071, 36.8640595], [117.8861155, 36.8717013], [117.9113867, 36.869764], [117.9172401, 36.8856756], [117.9305241, 36.8924044], [117.9406271, 36.8810097], [117.9342639, 36.8989121], [117.9562073, 36.9082754], [117.9550058, 36.9219756], [117.9429323, 36.9183417], [117.9374184, 36.9279373], [117.9314228, 36.9147737], [117.9289259, 36.9372042], [117.9078938, 36.9525378], [117.9027207, 36.9806924], [117.8614919, 36.9876995], [117.858828, 37.0220057], [117.8318788, 37.0291174], [117.839841, 37.066032], [117.793917, 37.070457], [117.732588, 37.06418], [117.667073, 37.073088], [117.6129, 37.089886], [117.568909, 37.088785], [117.562114, 37.109848], [117.571113, 37.116326], [117.551248, 37.123872], [117.545512, 37.145511], [117.5813217, 37.1613529], [117.5905537, 37.1998259], [117.6190281, 37.2226826], [117.6258623, 37.2500588], [117.6449597, 37.269562], [117.6589501, 37.2739077], [117.6937008, 37.2556524], [117.7582455, 37.2451822], [117.776463, 37.2480518], [117.831175, 37.281959], [117.857669, 37.278081], [117.883355, 37.261692], [117.934981, 37.280443], [117.941256, 37.26119], [117.957995, 37.271189], [117.979251, 37.266011], [117.990512, 37.245844], [117.974829, 37.237727], [117.967463, 37.220733], [117.975399, 37.209862], [118.004815, 37.206872], [118.016168, 37.212444], [118.016796, 37.2215], [118.02783, 37.221236], [118.040022, 37.215871], [118.04164, 37.204959], [118.058218, 37.20916], [118.067953, 37.20328], [118.07624, 37.184668], [118.052876, 37.157308], [118.074351, 37.119513], [118.038781, 37.106057], [118.039759, 37.097784], [118.056746, 37.082511], [118.108292, 37.100111], [118.126583, 37.089673], [118.130064, 37.064699], [118.152531, 37.062147], [118.144731, 37.054069], [118.147637, 37.046529], [118.133737, 37.044056], [118.127767, 37.023685], [118.13274, 37.005539], [118.147212, 36.99973], [118.145406, 36.987937], [118.155498, 36.98779], [118.155078, 36.98132], [118.186995, 36.977136], [118.199942, 36.961747], [118.216749, 36.966603], [118.22919, 36.984872], [118.241339, 36.985515], [118.244944, 37.002393], [118.27691, 37.004888], [118.2982328, 36.9602089], [118.3335268, 36.9562529], [118.3783113, 36.9708639], [118.3848188, 36.9691159], [118.3894336, 36.9476454], [118.4010744, 36.9411629], [118.4567839, 36.9459819], [118.4602869, 36.9406312], [118.4617782, 36.9459733], [118.4874871, 36.9400245], [118.4910974, 36.9242296], [118.469393, 36.9073638], [118.4773162, 36.9002339], [118.4770212, 36.8786551], [118.459053, 36.8608924], [118.4763586, 36.8526191], [118.4560939, 36.8450322], [118.4482826, 36.857837], [118.4440863, 36.8368876], [118.4296614, 36.8378729], [118.4321129, 36.8097743], [118.3443671, 36.7678295], [118.3163863, 36.7702144], [118.3119701, 36.7794409], [118.2921579, 36.7771465], [118.2922089, 36.7530433], [118.2752627, 36.7523449], [118.2661244, 36.7424403], [118.2763839, 36.7196399], [118.2482462, 36.7315827], [118.2276374, 36.7244966], [118.2217513, 36.7176458], [118.2315856, 36.7127253], [118.2259476, 36.7001887], [118.2393426, 36.6903516], [118.21991, 36.6944208], [118.2104123, 36.6753031], [118.2256365, 36.6617966], [118.2149211, 36.6616772], [118.2085803, 36.6467167], [118.193682, 36.6385962], [118.2099509, 36.6173705], [118.1925863, 36.6099945], [118.1702757, 36.5853124], [118.1797814, 36.5800786], [118.1749575, 36.5605652], [118.1862067, 36.5456993], [118.2146341, 36.5396265], [118.2157432, 36.5314869], [118.2031884, 36.5198574], [118.2125661, 36.4970579], [118.2103908, 36.4782677], [118.2268529, 36.4638724], [118.2188746, 36.4126185], [118.2447553, 36.4109392], [118.229641, 36.3894669], [118.2606428, 36.3457184], [118.2955703, 36.3310129], [118.2916108, 36.3226204], [118.3142318, 36.2873229], [118.3081133, 36.2476004], [118.3419263, 36.2603834], [118.3629228, 36.2535134], [118.3797838, 36.2332189], [118.3736268, 36.1937294], [118.3995588, 36.1583444], [118.4034883, 36.1328314], [118.4138718, 36.1225244], [118.4588088, 36.1391494], [118.4803008, 36.1315534], [118.4803773, 36.0699424], [118.507207, 36.073525], [118.5163985, 36.0543755], [118.5100483, 36.0263643], [118.470364, 36.031424], [118.463544, 36.022919], [118.481789, 36.005269], [118.480539, 35.9921055], [118.487656, 35.997481], [118.481026, 35.987125], [118.496009, 35.973276], [118.496829, 35.9623173], [118.4682175, 35.9623995], [118.45383, 35.951353], [118.429352, 35.965277], [118.409656, 35.991743]]]}}]}