{"type": "FeatureCollection", "features": [{"type": "Feature", "properties": {"slug": "zinder", "members": 1, "country": "Niger", "input_hash": "0de10fdc97af173f"}, "geometry": {"type": "Polygon", "coordinates": [[[8.22416, 13.6718], [8.30226, 13.6215], [8.41203, 13.6516], [8.51336, 13.6456], [8.60202, 13.6718], [8.6569, 13.6637], [8.6569, 13.5772], [8.67406, 13.4967], [8.69912, 13.4907], [8.72656, 13.5128], [8.74134, 13.5088], [8.76034, 13.4826], [8.77722, 13.4303], [8.77511, 13.3941], [8.76245, 13.3821], [8.76245, 13.372], [8.77934, 13.3237], [8.77511, 13.2915], [8.76456, 13.2835], [8.88066, 13.2694], [8.89333, 13.2593], [8.95454, 13.2452], [9.0031, 13.2935], [9.03687, 13.2996], [9.12975, 13.2895], [9.19941, 13.3136], [9.23319, 13.374], [9.25219, 13.3861], [9.2733, 13.4967], [9.30918, 13.5269], [9.35773, 13.5953], [9.49917, 13.6013], [9.62794, 13.6376], [9.69338, 13.6677], [9.71026, 13.8931], [9.7166, 13.9393], [9.73137, 13.9756], [9.74615, 13.9997], [9.90236, 14.0661], [9.95724, 14.1023], [9.93825, 14.1144], [9.96569, 14.227], [9.82425, 14.3035], [9.77359, 14.3981], [9.73559, 14.4162], [9.65327, 14.3538], [9.60894, 14.38], [9.50761, 14.3719], [9.37251, 14.4705], [9.36196, 14.5087], [9.29863, 14.4303], [9.07909, 14.396], [9.03687, 14.3558], [9.01154, 14.2874], [8.93977, 14.2814], [8.93132, 14.2532], [8.93343, 14.217], [8.65479, 14.1124], [8.60202, 14.1828], [8.60202, 14.217], [8.51758, 14.217], [8.51336, 14.0701], [8.54291, 14.0118], [8.51758, 13.877], [8.47114, 13.8669], [8.29804, 13.7724], [8.22416, 13.718], [8.22416, 13.6718]]]}}]}