{"type": "FeatureCollection", "features": [{"type": "Feature", "properties": {"slug": "zlin", "members": 1, "country": "Czech Republic", "input_hash": "13d8303276141046"}, "geometry": {"type": "Polygon", "coordinates": [[[17.6191369, 49.1548394], [17.6512501, 49.1459306], [17.6581194, 49.133198], [17.6402734, 49.127844], [17.6314198, 49.1056494], [17.6428096, 49.1039123], [17.6553927, 49.0842448], [17.6857744, 49.0791891], [17.6851542, 49.0565863], [17.7178037, 49.0601907], [17.7260477, 49.0716682], [17.7556856, 49.0716359], [17.768097, 49.0877977], [17.7722403, 49.0887501], [17.7822226, 49.0758004], [17.7816935, 49.0821], [17.8010451, 49.0796339], [17.8101559, 49.0639975], [17.8286239, 49.0634787], [17.8409359, 49.0535892], [17.8914203, 49.0570148], [17.885138, 49.0355147], [17.9195822, 49.0146415], [17.9350807, 49.023579], [17.9909141, 49.0284954], [18.0244724, 49.0212311], [18.057123, 49.028505], [18.0954718, 49.059244], [18.09165, 49.067435], [18.115548, 49.090081], [18.11027, 49.113551], [18.122208, 49.118005], [18.106749, 49.134165], [18.118406, 49.143496], [18.1176564, 49.171877], [18.0151753, 49.1651316], [17.9746562, 49.2139955], [17.9525278, 49.2134264], [17.9480411, 49.2245785], [17.9317088, 49.2283801], [17.9270766, 49.2438658], [17.9408495, 49.248272], [17.9314703, 49.2532462], [17.941624, 49.2521035], [17.9363653, 49.2572001], [17.9427624, 49.2619057], [17.9365469, 49.2707685], [17.9160846, 49.266633], [17.9015878, 49.2753628], [17.8953512, 49.2940507], [17.8847178, 49.2985972], [17.8953216, 49.3169554], [17.8686223, 49.3193656], [17.8667405, 49.3268532], [17.8426655, 49.3242408], [17.8067003, 49.3505413], [17.7815148, 49.3485501], [17.7573437, 49.357077], [17.7070209, 49.3339359], [17.6880518, 49.3411048], [17.6766685, 49.3336682], [17.6454768, 49.338069], [17.619039, 49.3286447], [17.6210514, 49.3198228], [17.6489909, 49.3219205], [17.6150075, 49.2878147], [17.6184427, 49.2805314], [17.5978563, 49.2769539], [17.6067355, 49.2735087], [17.6036781, 49.2682133], [17.5804592, 49.2628965], [17.5661511, 49.2761787], [17.5626204, 49.263768], [17.5513564, 49.2580445], [17.5342564, 49.2593891], [17.5273477, 49.2714503], [17.4920902, 49.2697816], [17.4773785, 49.2564431], [17.4988793, 49.242106], [17.4994873, 49.2229493], [17.4632727, 49.2225857], [17.475763, 49.2089112], [17.4035238, 49.1900066], [17.4437692, 49.1594982], [17.4566783, 49.1617292], [17.4809363, 49.1299944], [17.4977668, 49.1294306], [17.4933467, 49.1225858], [17.5221483, 49.1275266], [17.5435648, 49.144785], [17.568772, 49.1390071], [17.5823696, 49.145791], [17.6065683, 49.142913], [17.6191369, 49.1548394]]]}}]}